{"type":"FeatureCollection","features":[{"type":"Feature","properties":{"slug":"adur","gss_code":"E07000223","name":"Adur"},"geometry":{"type":"MultiPolygon","coordinates":[[[[-0.280235,50.829506],[-0.2792,50.829757],[-0.279155,50.829507],[-0.280235,50.829506]]],[[[-0.278302,50.829357],[-0.278222,50.829858],[-0.277804,50.82987],[-0.278083,50.830164],[-0.2774,50.830202],[-0.277482,50.82957],[-0.278302,50.829357]]],[[[-0.274005,50.829966],[-0.274088,50.830221],[-0.27351,50.830056],[-0.274005,50.829966]]],[[[-0.280992,50.829895],[-0.279487,50.829959],[-0.281872,50.829721],[-0.281852,50.830109],[-0.282153,50.829722],[-0.282982,50.829679],[-0.281734,50.830337],[-0.280992,50.829895]]],[[[-0.275085,50.829802],[-0.276141,50.829885],[-0.276065,50.830259],[-0.275151,50.830112],[-0.275085,50.829802]]],[[[-0.274585,50.829788],[-0.275138,50.83025],[-0.274769,50.83021],[-0.274196,50.830192],[-0.274585,50.829788]]],[[[-0.276927,50.829582],[-0.277219,50.830219],[-0.276193,50.830279],[-0.276439,50.829598],[-0.276927,50.829582]]],[[[-0.2774,50.830437],[-0.279326,50.830043],[-0.279866,50.830107],[-0.279581,50.830501],[-0.279842,50.830748],[-0.279692,50.830485],[-0.280298,50.830493],[-0.280066,50.83025],[-0.280417,50.830131],[-0.28132,50.830449],[-0.280255,50.831191],[-0.2774,50.830437]]],[[[-0.238994,50.858722],[-0.236382,50.857522],[-0.235383,50.852412],[-0.234333,50.85111],[-0.230616,50.848318],[-0.229324,50.845734],[-0.228403,50.845634],[-0.217571,50.832917],[-0.216666,50.832962],[-0.216585,50.830682],[-0.215295,50.830369],[-0.216046,50.827585],[-0.230232,50.82877],[-0.237164,50.82874],[-0.237942,50.828456],[-0.237944,50.827981],[-0.240818,50.828355],[-0.241639,50.828064],[-0.245003,50.82823],[-0.246523,50.825738],[-0.245149,50.828221],[-0.246023,50.8284],[-0.246726,50.827716],[-0.245785,50.828652],[-0.243952,50.829182],[-0.23913,50.829415],[-0.23877,50.829189],[-0.237987,50.829419],[-0.237977,50.829707],[-0.239199,50.8297],[-0.238741,50.829965],[-0.23977,50.830043],[-0.238199,50.830165],[-0.238154,50.830501],[-0.241606,50.83077],[-0.247228,50.830669],[-0.248701,50.830011],[-0.248012,50.829101],[-0.249615,50.830491],[-0.252087,50.831108],[-0.25798,50.831689],[-0.26944,50.831726],[-0.270171,50.831946],[-0.272097,50.831452],[-0.272653,50.831735],[-0.275937,50.831368],[-0.279223,50.83216],[-0.281696,50.834042],[-0.287664,50.840551],[-0.287253,50.841168],[-0.287075,50.843902],[-0.28735,50.846199],[-0.288964,50.847159],[-0.292181,50.848064],[-0.292136,50.848996],[-0.290289,50.849836],[-0.290337,50.851014],[-0.293148,50.853324],[-0.295347,50.854071],[-0.295028,50.854814],[-0.293046,50.855999],[-0.292667,50.858463],[-0.29418,50.859714],[-0.296005,50.860514],[-0.298585,50.861135],[-0.30102,50.860793],[-0.301588,50.861005],[-0.301792,50.861618],[-0.301107,50.864205],[-0.299879,50.864671],[-0.29946,50.864197],[-0.296358,50.864243],[-0.292506,50.862895],[-0.290936,50.862741],[-0.290388,50.863845],[-0.28795,50.864152],[-0.280045,50.863249],[-0.269491,50.863716],[-0.26222,50.862347],[-0.256579,50.862335],[-0.256436,50.865873],[-0.258935,50.871207],[-0.255303,50.871551],[-0.249721,50.871024],[-0.248978,50.870648],[-0.249608,50.867991],[-0.248473,50.864137],[-0.244971,50.863809],[-0.244716,50.863435],[-0.241505,50.862876],[-0.239753,50.861952],[-0.238994,50.858722]]],[[[-0.36604,50.874372],[-0.364598,50.874526],[-0.359872,50.872543],[-0.355838,50.86955],[-0.352984,50.86828],[-0.351944,50.867369],[-0.349116,50.86596],[-0.348679,50.865289],[-0.349155,50.864445],[-0.344551,50.863962],[-0.343787,50.862933],[-0.339726,50.86254],[-0.331564,50.863116],[-0.325636,50.863839],[-0.320477,50.865407],[-0.313592,50.86453],[-0.313495,50.864915],[-0.311428,50.864772],[-0.309516,50.865247],[-0.307598,50.866505],[-0.302859,50.866134],[-0.29869,50.86626],[-0.299248,50.86514],[-0.301501,50.864423],[-0.302198,50.861306],[-0.301298,50.860544],[-0.298681,50.860868],[-0.296178,50.860243],[-0.293208,50.858579],[-0.293387,50.856364],[-0.295387,50.855208],[-0.29612,50.854244],[-0.295583,50.853601],[-0.293163,50.852729],[-0.291195,50.850896],[-0.293041,50.848948],[-0.295165,50.849206],[-0.292951,50.8488],[-0.292346,50.847208],[-0.288385,50.845833],[-0.288149,50.844195],[-0.28852,50.843662],[-0.288842,50.84376],[-0.288331,50.844308],[-0.288655,50.844378],[-0.288821,50.844005],[-0.289494,50.841407],[-0.289242,50.839532],[-0.289814,50.840204],[-0.289729,50.839849],[-0.287403,50.837333],[-0.287741,50.837066],[-0.287131,50.837124],[-0.286297,50.83662],[-0.286442,50.836309],[-0.285829,50.836143],[-0.286605,50.835918],[-0.285763,50.83608],[-0.285913,50.835822],[-0.285409,50.835625],[-0.286169,50.835575],[-0.285343,50.835555],[-0.284612,50.834171],[-0.28517,50.834283],[-0.285023,50.833904],[-0.285472,50.833925],[-0.285886,50.834734],[-0.286748,50.835528],[-0.285928,50.834713],[-0.285567,50.833386],[-0.284176,50.833306],[-0.284705,50.833979],[-0.280311,50.831363],[-0.284597,50.829687],[-0.285409,50.830423],[-0.286611,50.830287],[-0.286514,50.82984],[-0.285054,50.829693],[-0.283942,50.82912],[-0.279418,50.829249],[-0.278866,50.829373],[-0.279067,50.829769],[-0.278742,50.829982],[-0.27852,50.829745],[-0.278421,50.830131],[-0.278459,50.829326],[-0.275355,50.829434],[-0.272727,50.829979],[-0.272752,50.830363],[-0.272223,50.829909],[-0.271037,50.830288],[-0.269802,50.830252],[-0.270487,50.830499],[-0.269753,50.830667],[-0.269457,50.83035],[-0.268827,50.830698],[-0.267063,50.83065],[-0.26689,50.831035],[-0.256827,50.830799],[-0.254443,50.830126],[-0.251398,50.830313],[-0.251107,50.829147],[-0.250016,50.828024],[-0.249001,50.827916],[-0.248483,50.826563],[-0.249228,50.826495],[-0.249398,50.826041],[-0.248331,50.824939],[-0.249529,50.826093],[-0.252147,50.825895],[-0.276189,50.826831],[-0.290564,50.825065],[-0.291341,50.824935],[-0.291469,50.824622],[-0.294047,50.824449],[-0.296963,50.823724],[-0.303199,50.823203],[-0.309271,50.821786],[-0.328124,50.818891],[-0.332655,50.817419],[-0.334184,50.819073],[-0.338735,50.822064],[-0.340663,50.822349],[-0.340838,50.822673],[-0.342872,50.82231],[-0.343893,50.822721],[-0.344179,50.823356],[-0.349426,50.822549],[-0.350741,50.822872],[-0.351794,50.824902],[-0.353262,50.825236],[-0.353777,50.826004],[-0.35416,50.826008],[-0.354305,50.826821],[-0.355465,50.827096],[-0.355708,50.827699],[-0.353194,50.829042],[-0.354172,50.829592],[-0.358343,50.830639],[-0.357117,50.834325],[-0.358837,50.834189],[-0.359565,50.83665],[-0.359337,50.837956],[-0.359732,50.838237],[-0.359366,50.839677],[-0.359678,50.841449],[-0.359475,50.842445],[-0.358521,50.843534],[-0.360248,50.846246],[-0.36207,50.846537],[-0.362094,50.84689],[-0.365415,50.846926],[-0.365916,50.847346],[-0.36686,50.849033],[-0.367233,50.851808],[-0.368996,50.855282],[-0.367118,50.856244],[-0.368048,50.858308],[-0.367453,50.860532],[-0.366752,50.860904],[-0.366763,50.864025],[-0.368172,50.866522],[-0.371182,50.869786],[-0.371508,50.870668],[-0.37126,50.871663],[-0.369808,50.873198],[-0.366474,50.874738],[-0.36604,50.874372]]]]}}]}