{"type":"FeatureCollection","features":[{"type":"Feature","properties":{"slug":"barnet","gss_code":"E09000003","name":"Barnet"},"geometry":{"type":"Polygon","coordinates":[[[-0.196614,51.668146],[-0.196159,51.66853],[-0.194852,51.668306],[-0.196665,51.665482],[-0.192531,51.664749],[-0.191067,51.663897],[-0.18779,51.667879],[-0.185804,51.66851],[-0.181961,51.668683],[-0.185866,51.662836],[-0.165094,51.65826],[-0.163545,51.658207],[-0.160438,51.656764],[-0.154732,51.655545],[-0.154617,51.654979],[-0.153598,51.65454],[-0.153394,51.653305],[-0.154194,51.652966],[-0.154004,51.65259],[-0.153528,51.652706],[-0.152559,51.651458],[-0.152255,51.649825],[-0.150945,51.650087],[-0.149868,51.64881],[-0.152228,51.647967],[-0.152305,51.647637],[-0.151074,51.647244],[-0.152122,51.645801],[-0.151554,51.645632],[-0.151634,51.645324],[-0.149177,51.645315],[-0.147829,51.642067],[-0.145018,51.642632],[-0.142287,51.63931],[-0.140219,51.637491],[-0.134519,51.634694],[-0.13442,51.633969],[-0.133973,51.63404],[-0.133269,51.633268],[-0.129094,51.632265],[-0.129777,51.630963],[-0.130164,51.631021],[-0.13114,51.629686],[-0.130434,51.629316],[-0.133368,51.626383],[-0.135039,51.622352],[-0.135504,51.6224],[-0.135414,51.621773],[-0.140511,51.617812],[-0.14128,51.617536],[-0.142033,51.61628],[-0.144495,51.615509],[-0.138706,51.610186],[-0.143425,51.608831],[-0.143147,51.606718],[-0.141973,51.603709],[-0.144172,51.601096],[-0.14447,51.600122],[-0.151331,51.597471],[-0.152946,51.599188],[-0.153406,51.602846],[-0.154673,51.604231],[-0.156083,51.605116],[-0.155863,51.605465],[-0.156341,51.605369],[-0.161761,51.597479],[-0.159691,51.592227],[-0.158864,51.592319],[-0.158686,51.591998],[-0.159432,51.591574],[-0.159756,51.589721],[-0.160161,51.589698],[-0.160235,51.587989],[-0.15863,51.588002],[-0.15868,51.586633],[-0.157401,51.586558],[-0.157131,51.586191],[-0.157897,51.58621],[-0.157941,51.585736],[-0.159617,51.584463],[-0.16134,51.585284],[-0.165721,51.583224],[-0.16619,51.582044],[-0.167036,51.581755],[-0.166813,51.578657],[-0.168063,51.576929],[-0.169314,51.577416],[-0.169705,51.576369],[-0.169444,51.573966],[-0.171199,51.573574],[-0.171232,51.572418],[-0.173376,51.571087],[-0.173714,51.569903],[-0.174382,51.569256],[-0.178122,51.570513],[-0.178304,51.570017],[-0.180987,51.569673],[-0.180818,51.569405],[-0.183672,51.567957],[-0.183388,51.567768],[-0.183761,51.567468],[-0.186142,51.566923],[-0.187143,51.566156],[-0.189645,51.565217],[-0.190346,51.562872],[-0.191123,51.561656],[-0.192289,51.561557],[-0.194827,51.560484],[-0.196726,51.560697],[-0.196775,51.559155],[-0.198307,51.558858],[-0.199511,51.557075],[-0.199372,51.55619],[-0.20578,51.555319],[-0.205967,51.55643],[-0.208837,51.555726],[-0.210011,51.556751],[-0.213487,51.555191],[-0.218498,51.559336],[-0.22066,51.561664],[-0.225465,51.565868],[-0.228794,51.567971],[-0.233417,51.571983],[-0.234561,51.571774],[-0.235669,51.57231],[-0.23548,51.572547],[-0.235859,51.572298],[-0.237612,51.572466],[-0.23816,51.572071],[-0.23799,51.571777],[-0.238849,51.572238],[-0.24001,51.572095],[-0.24005,51.572382],[-0.241131,51.57213],[-0.241374,51.572719],[-0.242453,51.572816],[-0.242428,51.5725],[-0.243896,51.572306],[-0.244199,51.572584],[-0.245217,51.571917],[-0.245963,51.572216],[-0.246734,51.571588],[-0.245966,51.571008],[-0.24655,51.570024],[-0.246072,51.569808],[-0.246541,51.569035],[-0.247362,51.568957],[-0.247002,51.568619],[-0.248565,51.568511],[-0.252514,51.571518],[-0.253053,51.572395],[-0.251265,51.573154],[-0.252679,51.575144],[-0.254545,51.579772],[-0.254264,51.581669],[-0.251729,51.583376],[-0.248234,51.584314],[-0.252945,51.588901],[-0.257548,51.592175],[-0.28103,51.612272],[-0.287385,51.617016],[-0.304461,51.632034],[-0.305574,51.634121],[-0.30445,51.636349],[-0.303785,51.636485],[-0.296127,51.635447],[-0.294383,51.63565],[-0.291868,51.636478],[-0.287787,51.636513],[-0.2855,51.636949],[-0.283874,51.637795],[-0.281391,51.638346],[-0.278613,51.638323],[-0.276475,51.638868],[-0.273714,51.638674],[-0.274176,51.639308],[-0.272866,51.642099],[-0.268247,51.642386],[-0.268346,51.643834],[-0.266767,51.644111],[-0.265211,51.644021],[-0.264359,51.643627],[-0.263272,51.644833],[-0.261605,51.643992],[-0.260713,51.642673],[-0.257368,51.641822],[-0.256181,51.643506],[-0.255488,51.643245],[-0.254489,51.64368],[-0.251557,51.647953],[-0.249856,51.654615],[-0.250791,51.65481],[-0.25125,51.655539],[-0.250583,51.656057],[-0.249348,51.656058],[-0.247866,51.655248],[-0.243625,51.656689],[-0.241365,51.657205],[-0.240994,51.656836],[-0.239199,51.657399],[-0.237971,51.657789],[-0.238276,51.65825],[-0.236678,51.658775],[-0.234707,51.659001],[-0.234228,51.658253],[-0.228919,51.659976],[-0.228489,51.659966],[-0.228058,51.658592],[-0.226463,51.657162],[-0.226044,51.657626],[-0.219801,51.660661],[-0.219247,51.6608],[-0.218895,51.660062],[-0.213393,51.662378],[-0.212135,51.661354],[-0.207864,51.662861],[-0.211134,51.666955],[-0.209839,51.667563],[-0.207959,51.666594],[-0.205634,51.668601],[-0.20223,51.667805],[-0.202608,51.669315],[-0.203353,51.670126],[-0.199872,51.67017],[-0.199005,51.668207],[-0.196614,51.668146]]]}},{"type":"Feature","properties":{"slug":"brent","gss_code":"E09000005","name":"Brent"},"geometry":{"type":"Polygon","coordinates":[[[-0.257548,51.592175],[-0.252945,51.588901],[-0.248234,51.584314],[-0.251729,51.583376],[-0.254264,51.581669],[-0.254545,51.579772],[-0.252679,51.575144],[-0.251265,51.573154],[-0.253053,51.572395],[-0.252514,51.571518],[-0.248565,51.568511],[-0.247002,51.568619],[-0.247362,51.568957],[-0.246541,51.569035],[-0.246072,51.569808],[-0.24655,51.570024],[-0.245966,51.571008],[-0.246734,51.571588],[-0.245963,51.572216],[-0.245217,51.571917],[-0.244199,51.572584],[-0.243896,51.572306],[-0.242428,51.5725],[-0.242453,51.572816],[-0.241374,51.572719],[-0.241131,51.57213],[-0.24005,51.572382],[-0.24001,51.572095],[-0.238849,51.572238],[-0.23799,51.571777],[-0.23816,51.572071],[-0.237612,51.572466],[-0.235859,51.572298],[-0.23548,51.572547],[-0.235669,51.57231],[-0.234561,51.571774],[-0.233417,51.571983],[-0.228794,51.567971],[-0.225465,51.565868],[-0.22066,51.561664],[-0.218498,51.559336],[-0.191468,51.536292],[-0.193016,51.53395],[-0.192347,51.533261],[-0.192998,51.531984],[-0.196479,51.527639],[-0.197802,51.5279],[-0.198175,51.530418],[-0.20108,51.531906],[-0.201675,51.53256],[-0.203013,51.532896],[-0.207814,51.532792],[-0.211186,51.531925],[-0.215267,51.531361],[-0.215107,51.53017],[-0.215856,51.529752],[-0.216021,51.52792],[-0.217791,51.5286],[-0.223728,51.529947],[-0.225434,51.53016],[-0.22766,51.529914],[-0.227562,51.530155],[-0.230717,51.53087],[-0.234409,51.532638],[-0.237529,51.532005],[-0.243236,51.531765],[-0.246282,51.532738],[-0.247266,51.53349],[-0.250752,51.534147],[-0.250878,51.53388],[-0.255985,51.53395],[-0.256546,51.534966],[-0.257741,51.535367],[-0.260353,51.534493],[-0.263318,51.532668],[-0.264761,51.532158],[-0.264867,51.531572],[-0.266251,51.530687],[-0.268574,51.529823],[-0.26968,51.530002],[-0.270271,51.529767],[-0.270446,51.530047],[-0.274571,51.529559],[-0.280372,51.528347],[-0.285726,51.529172],[-0.289383,51.531683],[-0.284012,51.533532],[-0.283479,51.532808],[-0.281484,51.533231],[-0.280959,51.532588],[-0.278964,51.533228],[-0.278485,51.534583],[-0.278117,51.534551],[-0.277769,51.535072],[-0.282457,51.538649],[-0.28663,51.536784],[-0.293396,51.534928],[-0.295166,51.534877],[-0.295755,51.535291],[-0.296448,51.535259],[-0.299852,51.533082],[-0.302705,51.531987],[-0.307454,51.533087],[-0.306265,51.534177],[-0.305949,51.539367],[-0.304718,51.539859],[-0.308518,51.543199],[-0.307987,51.544414],[-0.308875,51.545207],[-0.307113,51.54533],[-0.308646,51.546467],[-0.311479,51.547566],[-0.312526,51.549028],[-0.317661,51.551569],[-0.327006,51.555031],[-0.335556,51.556557],[-0.334857,51.557866],[-0.33393,51.557698],[-0.334035,51.558755],[-0.331265,51.561414],[-0.330042,51.562231],[-0.328237,51.562541],[-0.328672,51.565975],[-0.329689,51.566193],[-0.329849,51.567128],[-0.325051,51.568259],[-0.325216,51.568457],[-0.322148,51.569677],[-0.324805,51.573314],[-0.325352,51.575936],[-0.326634,51.578601],[-0.3202,51.580375],[-0.312532,51.584453],[-0.304697,51.587053],[-0.301448,51.587271],[-0.282458,51.585052],[-0.282334,51.58584],[-0.284197,51.590496],[-0.285639,51.591897],[-0.288934,51.592821],[-0.290406,51.593544],[-0.286249,51.594936],[-0.285775,51.594729],[-0.285569,51.595211],[-0.283353,51.595743],[-0.27651,51.59651],[-0.276964,51.596937],[-0.273067,51.598387],[-0.270989,51.598384],[-0.267113,51.600372],[-0.257548,51.592175]]]}},{"type":"Feature","properties":{"slug":"bromley","gss_code":"E09000006","name":"Bromley"},"geometry":{"type":"Polygon","coordinates":[[[0.047998,51.4336],[0.051058,51.431525],[0.054432,51.427933],[0.058207,51.424872],[0.058599,51.424595],[0.061007,51.425082],[0.061705,51.4237],[0.063138,51.424135],[0.064462,51.425034],[0.064157,51.425334],[0.066581,51.426009],[0.066619,51.426503],[0.071701,51.429443],[0.073476,51.431249],[0.073079,51.431355],[0.073355,51.431761],[0.074374,51.431462],[0.074861,51.430814],[0.07536,51.431987],[0.081162,51.430646],[0.083213,51.429869],[0.089224,51.423994],[0.095128,51.420083],[0.104483,51.415225],[0.107598,51.414094],[0.113124,51.412906],[0.11992,51.4134],[0.125435,51.414779],[0.12827,51.414959],[0.132845,51.414247],[0.13918,51.411597],[0.148869,51.408429],[0.148692,51.408131],[0.1511,51.406642],[0.152822,51.406273],[0.155249,51.403971],[0.154967,51.403659],[0.155514,51.403575],[0.156435,51.402494],[0.157361,51.400783],[0.157729,51.398147],[0.15898,51.395821],[0.162384,51.39249],[0.158274,51.39224],[0.147741,51.392801],[0.147534,51.392156],[0.149836,51.390872],[0.148654,51.388668],[0.149417,51.387855],[0.148902,51.387572],[0.150459,51.386018],[0.149992,51.385841],[0.1498,51.38487],[0.149787,51.383671],[0.150466,51.383447],[0.150373,51.381093],[0.149609,51.38109],[0.149613,51.38009],[0.151133,51.379896],[0.150975,51.379085],[0.152353,51.37869],[0.15219,51.378336],[0.153236,51.378036],[0.152537,51.37523],[0.151736,51.375436],[0.1496,51.373583],[0.150834,51.372921],[0.151206,51.372187],[0.150127,51.370157],[0.152058,51.369694],[0.15162,51.368379],[0.151025,51.368322],[0.149438,51.369163],[0.148877,51.368124],[0.14728,51.367014],[0.148348,51.366372],[0.145049,51.362851],[0.145391,51.362503],[0.144501,51.361061],[0.144563,51.360691],[0.145389,51.360337],[0.144848,51.358435],[0.145895,51.358225],[0.145114,51.355764],[0.144046,51.354862],[0.143631,51.353018],[0.14314,51.353049],[0.142876,51.352659],[0.14262,51.350735],[0.140984,51.350146],[0.141287,51.349779],[0.138714,51.347525],[0.139493,51.3473],[0.139441,51.346983],[0.138268,51.347085],[0.137197,51.345872],[0.1362,51.345937],[0.137109,51.344801],[0.136958,51.344175],[0.131777,51.345507],[0.131669,51.345194],[0.125213,51.345868],[0.122239,51.344658],[0.118456,51.344148],[0.117587,51.343129],[0.117232,51.343164],[0.116681,51.341303],[0.117283,51.339781],[0.118471,51.339982],[0.119014,51.338684],[0.118299,51.338405],[0.120011,51.33474],[0.121684,51.333636],[0.120246,51.332137],[0.117892,51.330621],[0.1179,51.329647],[0.117336,51.329499],[0.116642,51.330004],[0.115744,51.329507],[0.114211,51.327398],[0.110154,51.328036],[0.109759,51.326684],[0.107238,51.327524],[0.104902,51.327413],[0.103241,51.325996],[0.100792,51.325586],[0.100176,51.324072],[0.09618,51.321293],[0.092777,51.319811],[0.087785,51.318312],[0.086822,51.317193],[0.085029,51.316023],[0.085642,51.314785],[0.085071,51.312599],[0.083572,51.310528],[0.084748,51.308346],[0.084086,51.308049],[0.084878,51.306045],[0.082816,51.305634],[0.085433,51.302519],[0.086211,51.300174],[0.089396,51.297764],[0.091185,51.296827],[0.089262,51.296086],[0.085693,51.293084],[0.08158,51.291835],[0.073368,51.291605],[0.067563,51.290383],[0.05851,51.289354],[0.05605,51.292395],[0.05439,51.292089],[0.05079,51.293987],[0.048496,51.293722],[0.045732,51.294004],[0.044767,51.293087],[0.042396,51.292673],[0.043313,51.296582],[0.044298,51.298581],[0.043093,51.299054],[0.04262,51.301329],[0.041543,51.30298],[0.040918,51.302721],[0.036337,51.305863],[0.032909,51.307521],[0.030282,51.305558],[0.027978,51.304685],[0.024839,51.302155],[0.023599,51.299704],[0.020953,51.296778],[0.020874,51.295572],[0.019101,51.291684],[0.015009,51.291786],[0.008386,51.310561],[0.010354,51.316146],[0.006598,51.315685],[0.005546,51.318444],[0.00487,51.322076],[0.002255,51.329135],[0.002173,51.329778],[0.00294,51.330409],[0.003313,51.332155],[0.000864,51.333602],[-0.00296,51.345519],[-0.004617,51.349593],[-0.005309,51.352575],[-0.008561,51.355758],[-0.011768,51.357247],[-0.013146,51.357231],[-0.015558,51.358813],[-0.018289,51.361236],[-0.018877,51.362741],[-0.022272,51.365883],[-0.023568,51.365291],[-0.024461,51.366768],[-0.023104,51.367017],[-0.023592,51.372227],[-0.026114,51.376489],[-0.026767,51.379376],[-0.027974,51.379363],[-0.028347,51.378103],[-0.029816,51.377338],[-0.036779,51.376996],[-0.03636,51.37901],[-0.036958,51.378962],[-0.037842,51.383267],[-0.036523,51.388432],[-0.042816,51.389463],[-0.04492,51.390698],[-0.046168,51.392017],[-0.046816,51.391839],[-0.048056,51.393143],[-0.051248,51.393471],[-0.051702,51.393996],[-0.052425,51.394154],[-0.052589,51.394618],[-0.053473,51.394915],[-0.051019,51.396987],[-0.050419,51.398013],[-0.050816,51.397652],[-0.052107,51.398259],[-0.050608,51.399524],[-0.052931,51.401437],[-0.056787,51.40053],[-0.059415,51.399231],[-0.06053,51.399139],[-0.06014,51.399565],[-0.06222,51.401548],[-0.064617,51.401722],[-0.06448,51.402037],[-0.066503,51.402632],[-0.068571,51.403841],[-0.069961,51.406002],[-0.072835,51.408486],[-0.073522,51.410562],[-0.072743,51.412689],[-0.075149,51.413542],[-0.076483,51.414427],[-0.080368,51.415541],[-0.081083,51.417305],[-0.078557,51.419874],[-0.075041,51.425627],[-0.073907,51.426213],[-0.070886,51.426232],[-0.068902,51.42563],[-0.068658,51.425993],[-0.067886,51.425925],[-0.066022,51.425075],[-0.065809,51.425331],[-0.064553,51.425058],[-0.064408,51.425319],[-0.062404,51.425155],[-0.061426,51.424798],[-0.061405,51.424471],[-0.058099,51.423172],[-0.056755,51.422965],[-0.055136,51.422943],[-0.054737,51.423726],[-0.051802,51.42357],[-0.051748,51.422517],[-0.045992,51.422795],[-0.046251,51.422375],[-0.043676,51.422893],[-0.04381,51.423154],[-0.041572,51.423652],[-0.040997,51.424263],[-0.038453,51.423957],[-0.03747,51.424982],[-0.034195,51.42511],[-0.034213,51.424754],[-0.031794,51.42471],[-0.031971,51.425536],[-0.030081,51.425645],[-0.025963,51.423612],[-0.02434,51.423117],[-0.022574,51.421557],[-0.022242,51.421776],[-0.020998,51.420976],[-0.021649,51.420442],[-0.020759,51.419946],[-0.021396,51.418342],[-0.022558,51.417564],[-0.021697,51.417279],[-0.022174,51.416742],[-0.020999,51.416024],[-0.017798,51.415744],[-0.017967,51.415056],[-0.014274,51.415161],[-0.014538,51.413931],[-0.01424,51.41365],[-0.010312,51.413578],[-0.006591,51.414663],[-0.006553,51.415979],[-0.005583,51.41582],[-0.004967,51.4146],[-0.00328,51.415036],[-0.003391,51.415651],[-0.000729,51.415907],[-0.000119,51.417575],[0.001743,51.418586],[0.003534,51.417427],[0.005671,51.418526],[0.005216,51.419356],[0.006309,51.42103],[0.006729,51.420945],[0.006863,51.421503],[0.007389,51.421402],[0.008106,51.42304],[0.009982,51.422482],[0.011883,51.424086],[0.013366,51.424682],[0.013539,51.425102],[0.014418,51.425215],[0.01412,51.426175],[0.015981,51.42619],[0.018748,51.427058],[0.021219,51.426863],[0.025459,51.428973],[0.036231,51.422389],[0.039056,51.424688],[0.038474,51.427584],[0.037845,51.427801],[0.038365,51.428281],[0.03754,51.431368],[0.037709,51.433341],[0.033737,51.431695],[0.033256,51.432231],[0.032494,51.431891],[0.031607,51.432555],[0.031159,51.432094],[0.031405,51.432583],[0.028593,51.434034],[0.029087,51.434674],[0.028687,51.43641],[0.027181,51.436527],[0.025436,51.435667],[0.024782,51.438208],[0.028816,51.438772],[0.028593,51.440404],[0.030549,51.444328],[0.033503,51.443582],[0.035526,51.442469],[0.039755,51.440981],[0.042171,51.43949],[0.043336,51.437749],[0.045191,51.436601],[0.045137,51.436238],[0.047998,51.4336]]]}},{"type":"Feature","properties":{"slug":"camden","gss_code":"E09000007","name":"Camden"},"geometry":{"type":"Polygon","coordinates":[[[-0.16454,51.572501],[-0.160477,51.572779],[-0.157736,51.572051],[-0.150146,51.571554],[-0.148683,51.570936],[-0.144382,51.570084],[-0.142396,51.569106],[-0.140627,51.564459],[-0.141035,51.5605],[-0.136987,51.555262],[-0.135304,51.554638],[-0.134082,51.55339],[-0.130992,51.551483],[-0.130128,51.549612],[-0.127079,51.54753],[-0.125064,51.541143],[-0.1224,51.53705],[-0.122564,51.530753],[-0.119839,51.530947],[-0.115926,51.529832],[-0.115451,51.527758],[-0.112919,51.526409],[-0.114229,51.525483],[-0.113627,51.524566],[-0.112364,51.523716],[-0.10897,51.52302],[-0.108238,51.522087],[-0.107002,51.522184],[-0.10529,51.518555],[-0.107819,51.517766],[-0.113804,51.518258],[-0.111568,51.515335],[-0.113826,51.514824],[-0.114695,51.516026],[-0.119451,51.514502],[-0.121796,51.514869],[-0.122066,51.514615],[-0.122854,51.51514],[-0.127646,51.512679],[-0.129611,51.513999],[-0.130783,51.517082],[-0.132516,51.516673],[-0.132406,51.517117],[-0.133532,51.517697],[-0.134006,51.517547],[-0.135208,51.51893],[-0.135798,51.518685],[-0.136278,51.519157],[-0.136961,51.518887],[-0.142845,51.523868],[-0.143545,51.523966],[-0.143385,51.524548],[-0.143987,51.524678],[-0.144088,51.523998],[-0.145206,51.523989],[-0.145764,51.525267],[-0.147124,51.525035],[-0.152702,51.53751],[-0.159352,51.53634],[-0.160397,51.537299],[-0.164899,51.535785],[-0.169447,51.538594],[-0.170876,51.537778],[-0.171934,51.538404],[-0.173477,51.537646],[-0.174128,51.538262],[-0.173912,51.539473],[-0.178343,51.539808],[-0.180114,51.539565],[-0.184161,51.538229],[-0.187822,51.534964],[-0.188723,51.534531],[-0.191468,51.536292],[-0.213487,51.555191],[-0.210011,51.556751],[-0.208837,51.555726],[-0.205967,51.55643],[-0.20578,51.555319],[-0.199372,51.55619],[-0.199511,51.557075],[-0.198307,51.558858],[-0.196775,51.559155],[-0.196726,51.560697],[-0.194827,51.560484],[-0.192289,51.561557],[-0.191123,51.561656],[-0.190346,51.562872],[-0.189645,51.565217],[-0.187143,51.566156],[-0.186142,51.566923],[-0.183761,51.567468],[-0.183388,51.567768],[-0.183672,51.567957],[-0.180818,51.569405],[-0.180987,51.569673],[-0.178304,51.570017],[-0.178122,51.570513],[-0.174382,51.569256],[-0.173714,51.569903],[-0.173376,51.571087],[-0.171232,51.572418],[-0.167287,51.572963],[-0.16454,51.572501]]]}},{"type":"Feature","properties":{"slug":"ealing","gss_code":"E09000009","name":"Ealing"},"geometry":{"type":"Polygon","coordinates":[[[-0.317661,51.551569],[-0.312526,51.549028],[-0.311479,51.547566],[-0.308646,51.546467],[-0.307113,51.54533],[-0.308875,51.545207],[-0.307987,51.544414],[-0.308518,51.543199],[-0.304718,51.539859],[-0.305949,51.539367],[-0.306265,51.534177],[-0.307454,51.533087],[-0.302705,51.531987],[-0.299852,51.533082],[-0.296448,51.535259],[-0.295755,51.535291],[-0.295166,51.534877],[-0.293396,51.534928],[-0.28663,51.536784],[-0.282457,51.538649],[-0.277769,51.535072],[-0.278117,51.534551],[-0.278485,51.534583],[-0.278964,51.533228],[-0.280959,51.532588],[-0.281484,51.533231],[-0.283479,51.532808],[-0.284012,51.533532],[-0.289383,51.531683],[-0.285726,51.529172],[-0.280372,51.528347],[-0.274571,51.529559],[-0.270446,51.530047],[-0.270271,51.529767],[-0.26968,51.530002],[-0.268574,51.529823],[-0.266251,51.530687],[-0.264867,51.531572],[-0.264761,51.532158],[-0.263318,51.532668],[-0.260353,51.534493],[-0.257741,51.535367],[-0.256546,51.534966],[-0.255985,51.53395],[-0.250878,51.53388],[-0.250752,51.534147],[-0.247266,51.53349],[-0.246282,51.532738],[-0.246976,51.531778],[-0.245257,51.531218],[-0.247,51.530689],[-0.249871,51.52887],[-0.250556,51.527812],[-0.250331,51.52706],[-0.252538,51.524987],[-0.251768,51.522117],[-0.250319,51.520185],[-0.25069,51.519201],[-0.248971,51.513891],[-0.246435,51.510822],[-0.245135,51.50677],[-0.246467,51.506743],[-0.245674,51.504629],[-0.247972,51.504361],[-0.24809,51.504609],[-0.249918,51.504435],[-0.252484,51.504497],[-0.252526,51.504714],[-0.253752,51.504551],[-0.253671,51.504285],[-0.255064,51.504329],[-0.253364,51.502893],[-0.252772,51.499888],[-0.255606,51.496033],[-0.255422,51.494978],[-0.267677,51.493919],[-0.269061,51.494026],[-0.271303,51.494801],[-0.272402,51.496156],[-0.277402,51.499086],[-0.280772,51.502848],[-0.285712,51.500784],[-0.288669,51.500832],[-0.293898,51.501578],[-0.300669,51.499329],[-0.299947,51.497856],[-0.297537,51.494885],[-0.301133,51.494406],[-0.301377,51.495194],[-0.305852,51.496183],[-0.305431,51.494537],[-0.311911,51.491971],[-0.313885,51.493608],[-0.314389,51.493457],[-0.315085,51.493964],[-0.314468,51.494357],[-0.315712,51.495348],[-0.31528,51.495555],[-0.315794,51.495907],[-0.319181,51.494217],[-0.323414,51.495897],[-0.323899,51.495717],[-0.324676,51.495994],[-0.326127,51.495004],[-0.327341,51.496002],[-0.329945,51.495021],[-0.331231,51.49551],[-0.335265,51.496158],[-0.342279,51.495988],[-0.349709,51.498981],[-0.350619,51.499107],[-0.358053,51.497768],[-0.361878,51.496087],[-0.363118,51.495876],[-0.363734,51.494696],[-0.365363,51.493314],[-0.365794,51.493654],[-0.368355,51.492299],[-0.367913,51.491789],[-0.371851,51.490476],[-0.371919,51.490991],[-0.372497,51.491028],[-0.373809,51.49196],[-0.375824,51.495392],[-0.377903,51.495469],[-0.377877,51.496607],[-0.381841,51.495224],[-0.384547,51.494683],[-0.386575,51.494685],[-0.389375,51.495158],[-0.406918,51.499666],[-0.403819,51.502934],[-0.402859,51.503582],[-0.400234,51.504293],[-0.393513,51.507012],[-0.390422,51.513205],[-0.389116,51.514665],[-0.384948,51.516374],[-0.381789,51.51862],[-0.376145,51.524945],[-0.376372,51.528885],[-0.386643,51.530399],[-0.387115,51.529574],[-0.389276,51.530803],[-0.392649,51.531449],[-0.41105,51.53429],[-0.411845,51.534073],[-0.412221,51.534495],[-0.413487,51.534712],[-0.41382,51.535744],[-0.414764,51.535976],[-0.415306,51.536557],[-0.417431,51.536646],[-0.41749,51.537839],[-0.419409,51.538291],[-0.419548,51.538706],[-0.41816,51.539154],[-0.419414,51.539933],[-0.419403,51.54039],[-0.416756,51.540159],[-0.405009,51.54249],[-0.397831,51.54233],[-0.395286,51.542552],[-0.396344,51.545704],[-0.396541,51.545967],[-0.39789,51.545667],[-0.398706,51.547897],[-0.394879,51.547647],[-0.394947,51.548731],[-0.392796,51.548969],[-0.385036,51.551259],[-0.377656,51.5547],[-0.377843,51.554977],[-0.375882,51.553085],[-0.373343,51.554096],[-0.372864,51.553749],[-0.36252,51.556043],[-0.362675,51.556329],[-0.362125,51.556611],[-0.3623,51.557248],[-0.347549,51.559657],[-0.345611,51.55845],[-0.343606,51.557717],[-0.338303,51.557226],[-0.327006,51.555031],[-0.317661,51.551569]]]}},{"type":"Feature","properties":{"slug":"hackney","gss_code":"E09000012","name":"Hackney"},"geometry":{"type":"Polygon","coordinates":[[[-0.058432,51.572565],[-0.056316,51.570711],[-0.054355,51.570285],[-0.053288,51.568659],[-0.051145,51.567729],[-0.046656,51.564377],[-0.047248,51.562706],[-0.04513,51.56179],[-0.042363,51.561368],[-0.040176,51.561783],[-0.03882,51.561159],[-0.036287,51.561475],[-0.033285,51.56062],[-0.03004,51.561359],[-0.028391,51.56102],[-0.025778,51.559876],[-0.024339,51.558639],[-0.023941,51.55737],[-0.023006,51.557272],[-0.018464,51.555185],[-0.017481,51.553341],[-0.017174,51.551577],[-0.018983,51.551596],[-0.018936,51.550535],[-0.017463,51.547598],[-0.01655,51.54333],[-0.019853,51.543583],[-0.025585,51.543339],[-0.028991,51.542273],[-0.029554,51.543091],[-0.033191,51.544686],[-0.037734,51.541799],[-0.037144,51.541417],[-0.041494,51.537443],[-0.044963,51.535781],[-0.04716,51.535449],[-0.049701,51.536347],[-0.050913,51.536462],[-0.052377,51.535931],[-0.052856,51.534939],[-0.054674,51.535155],[-0.058758,51.534105],[-0.060073,51.534196],[-0.062434,51.535532],[-0.06286,51.534919],[-0.06219,51.533259],[-0.065009,51.532904],[-0.065162,51.533155],[-0.066253,51.53122],[-0.072828,51.530657],[-0.074575,51.529852],[-0.075715,51.528358],[-0.077273,51.527305],[-0.076297,51.527142],[-0.076641,51.526347],[-0.07646,51.524318],[-0.075927,51.524339],[-0.075742,51.523681],[-0.076458,51.522046],[-0.078252,51.521903],[-0.078529,51.521512],[-0.081041,51.521973],[-0.081773,51.520745],[-0.083123,51.519852],[-0.085233,51.520348],[-0.084214,51.52393],[-0.085201,51.523945],[-0.085119,51.524457],[-0.085464,51.524539],[-0.084745,51.525429],[-0.08501,51.526238],[-0.086977,51.525768],[-0.087832,51.526242],[-0.088731,51.527453],[-0.095373,51.529206],[-0.095104,51.530084],[-0.097032,51.533003],[-0.086563,51.537302],[-0.083576,51.545173],[-0.08379,51.546585],[-0.076685,51.546087],[-0.076326,51.547204],[-0.079399,51.551673],[-0.085399,51.552134],[-0.087565,51.552845],[-0.088554,51.553941],[-0.089286,51.553741],[-0.090356,51.554151],[-0.090397,51.557574],[-0.091717,51.560201],[-0.096017,51.561215],[-0.098586,51.560814],[-0.104374,51.564767],[-0.096023,51.570655],[-0.097635,51.573646],[-0.096601,51.573829],[-0.094695,51.573589],[-0.089811,51.574396],[-0.086859,51.5743],[-0.087243,51.574698],[-0.080838,51.575639],[-0.076243,51.574935],[-0.075784,51.575493],[-0.075182,51.57533],[-0.074426,51.575677],[-0.072392,51.575633],[-0.06673,51.576343],[-0.066749,51.576643],[-0.061159,51.577786],[-0.058432,51.572565]]]}},{"type":"Feature","properties":{"slug":"haringey","gss_code":"E09000014","name":"Haringey"},"geometry":{"type":"Polygon","coordinates":[[[-0.12632,51.609307],[-0.125367,51.610021],[-0.123487,51.608676],[-0.119178,51.608367],[-0.11873,51.608654],[-0.117474,51.608206],[-0.117261,51.608437],[-0.11081,51.608615],[-0.109875,51.608256],[-0.103909,51.60844],[-0.102514,51.608044],[-0.101758,51.608492],[-0.097466,51.608517],[-0.097662,51.608919],[-0.095765,51.609299],[-0.095159,51.608658],[-0.093531,51.608991],[-0.092453,51.60885],[-0.092466,51.609091],[-0.085601,51.608473],[-0.067477,51.60864],[-0.0671,51.608949],[-0.065227,51.608587],[-0.05451,51.608887],[-0.049739,51.607242],[-0.041391,51.605647],[-0.043519,51.60271],[-0.046032,51.600122],[-0.050403,51.596664],[-0.052289,51.593541],[-0.053533,51.590006],[-0.052157,51.587662],[-0.05484,51.585781],[-0.055736,51.584255],[-0.057832,51.582515],[-0.061001,51.58085],[-0.061944,51.58003],[-0.062185,51.579192],[-0.061159,51.577786],[-0.066749,51.576643],[-0.06673,51.576343],[-0.072392,51.575633],[-0.074426,51.575677],[-0.075182,51.57533],[-0.075784,51.575493],[-0.076243,51.574935],[-0.080838,51.575639],[-0.087243,51.574698],[-0.086859,51.5743],[-0.089811,51.574396],[-0.094695,51.573589],[-0.096601,51.573829],[-0.097635,51.573646],[-0.096023,51.570655],[-0.104374,51.564767],[-0.104884,51.564671],[-0.110691,51.568613],[-0.11502,51.57059],[-0.115701,51.572016],[-0.11608,51.572184],[-0.115551,51.572581],[-0.117551,51.574142],[-0.119555,51.57438],[-0.118877,51.574731],[-0.119535,51.575507],[-0.123785,51.574647],[-0.124861,51.574092],[-0.127567,51.574147],[-0.131139,51.573593],[-0.133385,51.572875],[-0.140632,51.569428],[-0.142396,51.569106],[-0.144382,51.570084],[-0.148683,51.570936],[-0.150146,51.571554],[-0.157736,51.572051],[-0.160477,51.572779],[-0.16454,51.572501],[-0.167287,51.572963],[-0.171232,51.572418],[-0.171199,51.573574],[-0.169444,51.573966],[-0.169705,51.576369],[-0.169314,51.577416],[-0.168063,51.576929],[-0.166813,51.578657],[-0.167036,51.581755],[-0.16619,51.582044],[-0.165721,51.583224],[-0.16134,51.585284],[-0.159617,51.584463],[-0.157941,51.585736],[-0.157897,51.58621],[-0.157131,51.586191],[-0.157401,51.586558],[-0.15868,51.586633],[-0.15863,51.588002],[-0.160235,51.587989],[-0.160161,51.589698],[-0.159756,51.589721],[-0.159432,51.591574],[-0.158686,51.591998],[-0.158864,51.592319],[-0.159691,51.592227],[-0.161761,51.597479],[-0.156341,51.605369],[-0.155863,51.605465],[-0.156083,51.605116],[-0.154673,51.604231],[-0.153406,51.602846],[-0.152946,51.599188],[-0.151331,51.597471],[-0.14447,51.600122],[-0.144172,51.601096],[-0.141973,51.603709],[-0.143147,51.606718],[-0.143425,51.608831],[-0.135202,51.611218],[-0.12632,51.609307]]]}},{"type":"Feature","properties":{"slug":"harrow","gss_code":"E09000015","name":"Harrow"},"geometry":{"type":"Polygon","coordinates":[[[-0.304461,51.632034],[-0.287385,51.617016],[-0.28103,51.612272],[-0.267113,51.600372],[-0.270989,51.598384],[-0.273067,51.598387],[-0.276964,51.596937],[-0.27651,51.59651],[-0.283353,51.595743],[-0.285569,51.595211],[-0.285775,51.594729],[-0.286249,51.594936],[-0.290406,51.593544],[-0.288934,51.592821],[-0.285639,51.591897],[-0.284197,51.590496],[-0.282334,51.58584],[-0.282458,51.585052],[-0.301448,51.587271],[-0.304697,51.587053],[-0.312532,51.584453],[-0.3202,51.580375],[-0.326634,51.578601],[-0.325352,51.575936],[-0.324805,51.573314],[-0.322148,51.569677],[-0.325216,51.568457],[-0.325051,51.568259],[-0.329849,51.567128],[-0.329689,51.566193],[-0.328672,51.565975],[-0.328237,51.562541],[-0.330042,51.562231],[-0.331265,51.561414],[-0.334035,51.558755],[-0.33393,51.557698],[-0.334857,51.557866],[-0.335556,51.556557],[-0.338303,51.557226],[-0.343606,51.557717],[-0.345611,51.55845],[-0.347549,51.559657],[-0.3623,51.557248],[-0.362125,51.556611],[-0.362675,51.556329],[-0.36252,51.556043],[-0.372864,51.553749],[-0.373343,51.554096],[-0.375882,51.553085],[-0.377843,51.554977],[-0.380241,51.559048],[-0.380089,51.559586],[-0.380422,51.560857],[-0.382332,51.56288],[-0.381892,51.563077],[-0.3824,51.563601],[-0.382359,51.564831],[-0.383296,51.56728],[-0.386476,51.571553],[-0.385652,51.572134],[-0.388075,51.574992],[-0.387536,51.575253],[-0.388545,51.577686],[-0.391564,51.581559],[-0.390978,51.581698],[-0.391044,51.583048],[-0.391985,51.588274],[-0.394459,51.59042],[-0.395491,51.590194],[-0.395533,51.591884],[-0.396366,51.593616],[-0.396502,51.595053],[-0.397696,51.596881],[-0.400335,51.597416],[-0.399927,51.598179],[-0.401172,51.599561],[-0.402338,51.60194],[-0.402478,51.60519],[-0.40176,51.60662],[-0.403216,51.609099],[-0.404004,51.613184],[-0.399465,51.613407],[-0.392679,51.615182],[-0.385872,51.61582],[-0.382026,51.617423],[-0.375839,51.618188],[-0.365537,51.621334],[-0.359679,51.625262],[-0.349222,51.626909],[-0.345106,51.628331],[-0.33989,51.630724],[-0.338284,51.629473],[-0.333089,51.633384],[-0.332971,51.633836],[-0.332583,51.633742],[-0.329983,51.635336],[-0.326546,51.636719],[-0.319793,51.638221],[-0.317549,51.640216],[-0.316672,51.640536],[-0.312318,51.638961],[-0.305377,51.637108],[-0.30445,51.636349],[-0.305574,51.634121],[-0.304461,51.632034]]]}},{"type":"Feature","properties":{"slug":"havering","gss_code":"E09000016","name":"Havering"},"geometry":{"type":"Polygon","coordinates":[[[0.237351,51.624073],[0.252794,51.617429],[0.257692,51.614183],[0.259049,51.612284],[0.264562,51.608321],[0.264325,51.607832],[0.263115,51.60732],[0.261677,51.607461],[0.258079,51.606507],[0.257999,51.604912],[0.257156,51.604925],[0.256625,51.603606],[0.255165,51.60267],[0.254696,51.602732],[0.253916,51.60192],[0.254009,51.601598],[0.257914,51.601275],[0.258251,51.60092],[0.264646,51.599741],[0.269866,51.599554],[0.270315,51.59755],[0.269334,51.595298],[0.269879,51.592467],[0.272096,51.587658],[0.273811,51.586814],[0.281966,51.578896],[0.285025,51.574184],[0.286669,51.573567],[0.287124,51.57271],[0.286687,51.571553],[0.29029,51.564299],[0.313035,51.565818],[0.315295,51.557835],[0.316501,51.557686],[0.318435,51.55678],[0.318897,51.555191],[0.322053,51.554199],[0.322306,51.552782],[0.325157,51.553058],[0.327816,51.550995],[0.327979,51.548561],[0.329468,51.546564],[0.3289,51.545837],[0.331445,51.545943],[0.333903,51.542494],[0.333333,51.541262],[0.333842,51.541165],[0.334024,51.540504],[0.331429,51.540045],[0.33159,51.540797],[0.322441,51.540518],[0.310527,51.539652],[0.31051,51.539347],[0.31004,51.539292],[0.300723,51.538756],[0.300859,51.538135],[0.297205,51.537662],[0.297755,51.535319],[0.290525,51.534485],[0.288075,51.534554],[0.281762,51.533942],[0.27634,51.532928],[0.276224,51.533179],[0.27496,51.532944],[0.270706,51.533094],[0.265347,51.53215],[0.265387,51.524956],[0.265671,51.52461],[0.266752,51.524513],[0.266638,51.522956],[0.265009,51.522901],[0.264035,51.521084],[0.263683,51.51787],[0.260303,51.518371],[0.258928,51.517764],[0.253834,51.517886],[0.252333,51.52479],[0.251536,51.525971],[0.250852,51.528819],[0.248965,51.528674],[0.248882,51.527409],[0.248291,51.527551],[0.246325,51.526532],[0.24709,51.525092],[0.245837,51.523516],[0.242856,51.524392],[0.241038,51.522606],[0.240725,51.521207],[0.2443,51.520472],[0.244666,51.52015],[0.244228,51.51976],[0.244906,51.518759],[0.243937,51.518337],[0.240195,51.519351],[0.237176,51.519334],[0.241142,51.513743],[0.239974,51.513053],[0.240307,51.510755],[0.240602,51.510507],[0.241502,51.510621],[0.241919,51.50796],[0.239999,51.507707],[0.239847,51.507279],[0.233442,51.50667],[0.228956,51.506804],[0.226597,51.506563],[0.226396,51.505929],[0.226021,51.50588],[0.226614,51.504489],[0.229965,51.499366],[0.227908,51.49886],[0.224361,51.497326],[0.223607,51.497907],[0.221654,51.497811],[0.217026,51.496583],[0.215487,51.49662],[0.214157,51.49604],[0.213544,51.495013],[0.213075,51.495022],[0.211933,51.491044],[0.209641,51.489769],[0.208875,51.489864],[0.209314,51.490424],[0.208367,51.489669],[0.201047,51.489148],[0.196314,51.488158],[0.191597,51.488085],[0.189174,51.487712],[0.187658,51.487885],[0.187482,51.488575],[0.184787,51.490707],[0.183866,51.492242],[0.183316,51.495371],[0.182563,51.495936],[0.182491,51.496524],[0.183751,51.497154],[0.182868,51.497911],[0.182923,51.49865],[0.182264,51.499095],[0.182515,51.4994],[0.18018,51.50136],[0.180272,51.502173],[0.17853,51.505274],[0.174104,51.507993],[0.172209,51.50833],[0.166202,51.510674],[0.165002,51.51165],[0.163863,51.511645],[0.163606,51.51192],[0.162531,51.511628],[0.159939,51.511763],[0.159529,51.511923],[0.159583,51.512415],[0.158757,51.512265],[0.159613,51.515771],[0.162282,51.521371],[0.16233,51.522336],[0.164449,51.527014],[0.165963,51.528793],[0.17079,51.532634],[0.172496,51.535777],[0.175073,51.538513],[0.176571,51.539245],[0.178076,51.539541],[0.179232,51.540291],[0.180378,51.544097],[0.182604,51.545834],[0.186014,51.547536],[0.187493,51.550198],[0.189598,51.551457],[0.190169,51.552721],[0.187881,51.554094],[0.186936,51.555783],[0.185865,51.556343],[0.184759,51.556409],[0.18504,51.556792],[0.184413,51.557653],[0.184792,51.559876],[0.182666,51.561243],[0.183995,51.563852],[0.185179,51.564751],[0.18518,51.565513],[0.183481,51.564633],[0.178744,51.564941],[0.176118,51.564722],[0.173401,51.565093],[0.168541,51.563599],[0.166368,51.563272],[0.161894,51.561617],[0.15131,51.568084],[0.150415,51.567842],[0.148736,51.568638],[0.146704,51.568797],[0.146675,51.569431],[0.149736,51.56971],[0.148988,51.573149],[0.147945,51.573124],[0.148039,51.575792],[0.147012,51.575708],[0.147452,51.580813],[0.148564,51.580775],[0.150974,51.583829],[0.151277,51.589884],[0.150619,51.591374],[0.151138,51.595451],[0.14988,51.597012],[0.148066,51.596356],[0.148153,51.596777],[0.147649,51.596794],[0.14951,51.602904],[0.148618,51.60444],[0.148702,51.608698],[0.147541,51.612223],[0.145513,51.614535],[0.144374,51.616805],[0.138184,51.623545],[0.155545,51.62334],[0.165841,51.622379],[0.168901,51.62142],[0.175304,51.623588],[0.180397,51.624473],[0.180612,51.625736],[0.181238,51.625827],[0.182785,51.625726],[0.185932,51.624373],[0.186269,51.62456],[0.185997,51.625522],[0.188372,51.625413],[0.189401,51.62449],[0.189815,51.625104],[0.194775,51.625715],[0.200312,51.624936],[0.203614,51.625173],[0.208497,51.626688],[0.212251,51.626979],[0.212109,51.627187],[0.217547,51.629093],[0.222077,51.630126],[0.224088,51.631738],[0.237351,51.624073]]]}},{"type":"Feature","properties":{"slug":"hounslow","gss_code":"E09000018","name":"Hounslow"},"geometry":{"type":"MultiPolygon","coordinates":[[[[-0.326394,51.460886],[-0.326432,51.460919],[-0.326393,51.460891],[-0.326394,51.460886]]],[[[-0.32434,51.464567],[-0.323989,51.464982],[-0.323686,51.465117],[-0.32434,51.464567]]],[[[-0.322575,51.465341],[-0.321737,51.465364],[-0.321736,51.465363],[-0.322575,51.465341]]],[[[-0.320907,51.465982],[-0.3213,51.466875],[-0.321219,51.469561],[-0.320469,51.47047],[-0.319776,51.47068],[-0.320907,51.465982]]],[[[-0.298569,51.484112],[-0.299039,51.484667],[-0.298651,51.484515],[-0.298112,51.484849],[-0.298437,51.485037],[-0.297669,51.485222],[-0.298569,51.484112]]],[[[-0.280799,51.484722],[-0.281799,51.485355],[-0.280426,51.484797],[-0.280799,51.484722]]],[[[-0.247566,51.486541],[-0.246236,51.48759],[-0.244478,51.488274],[-0.247566,51.486541]]],[[[-0.277402,51.499086],[-0.272402,51.496156],[-0.271303,51.494801],[-0.269061,51.494026],[-0.267677,51.493919],[-0.255422,51.494978],[-0.255606,51.496033],[-0.252772,51.499888],[-0.253041,51.501422],[-0.25129,51.499858],[-0.249203,51.49695],[-0.24526,51.49834],[-0.244983,51.497897],[-0.24442,51.497939],[-0.245566,51.490053],[-0.244517,51.488702],[-0.247638,51.487341],[-0.249713,51.485694],[-0.24943,51.485564],[-0.251401,51.482178],[-0.251528,51.477334],[-0.252697,51.475058],[-0.254652,51.472908],[-0.258066,51.471659],[-0.262135,51.471357],[-0.265679,51.471924],[-0.269125,51.473551],[-0.273062,51.476968],[-0.276717,51.483338],[-0.281566,51.486287],[-0.28725,51.487931],[-0.287447,51.487613],[-0.292462,51.487464],[-0.299016,51.485306],[-0.300402,51.483977],[-0.299966,51.484136],[-0.299717,51.483258],[-0.300506,51.483794],[-0.30142,51.483377],[-0.300363,51.483508],[-0.300182,51.483169],[-0.303394,51.482594],[-0.304206,51.483222],[-0.305088,51.482671],[-0.306273,51.482793],[-0.304864,51.482296],[-0.304022,51.482958],[-0.304385,51.482174],[-0.300091,51.482701],[-0.300929,51.481702],[-0.303538,51.479897],[-0.304119,51.479607],[-0.304668,51.479924],[-0.304278,51.479603],[-0.304648,51.479601],[-0.304463,51.479133],[-0.305214,51.478271],[-0.30575,51.478344],[-0.305358,51.478139],[-0.306175,51.476962],[-0.307066,51.477045],[-0.306264,51.476866],[-0.306931,51.47621],[-0.308074,51.475645],[-0.308041,51.475863],[-0.308749,51.47588],[-0.308234,51.475576],[-0.309314,51.475021],[-0.309587,51.475242],[-0.309351,51.474973],[-0.309766,51.475166],[-0.309507,51.474905],[-0.310104,51.474924],[-0.309993,51.474667],[-0.310617,51.474925],[-0.31025,51.474529],[-0.310663,51.474694],[-0.310626,51.474381],[-0.311152,51.474718],[-0.310716,51.474327],[-0.311318,51.474557],[-0.311309,51.474142],[-0.311652,51.474447],[-0.311337,51.474086],[-0.311846,51.474339],[-0.31146,51.474007],[-0.312032,51.474217],[-0.311643,51.473925],[-0.312017,51.473751],[-0.312467,51.473997],[-0.312171,51.473708],[-0.312712,51.473884],[-0.31247,51.473672],[-0.31296,51.473748],[-0.312904,51.473513],[-0.313446,51.473902],[-0.313101,51.473455],[-0.313881,51.473466],[-0.313856,51.473197],[-0.314206,51.473459],[-0.313918,51.473191],[-0.3143,51.473264],[-0.314291,51.473054],[-0.314717,51.4734],[-0.314419,51.472971],[-0.316,51.472463],[-0.316249,51.47266],[-0.316197,51.472402],[-0.320199,51.471304],[-0.321446,51.470489],[-0.322532,51.470686],[-0.321497,51.470403],[-0.322234,51.469037],[-0.321774,51.465432],[-0.323514,51.46533],[-0.324038,51.465042],[-0.326778,51.461643],[-0.326893,51.461158],[-0.326437,51.460864],[-0.326739,51.460053],[-0.32641,51.460667],[-0.326513,51.459302],[-0.325588,51.458081],[-0.326934,51.457011],[-0.328455,51.457999],[-0.330374,51.457934],[-0.3314,51.457357],[-0.333028,51.455378],[-0.336273,51.455679],[-0.336982,51.454648],[-0.337513,51.454767],[-0.337737,51.455475],[-0.338549,51.456099],[-0.338953,51.455881],[-0.340645,51.457269],[-0.340111,51.459241],[-0.341707,51.459017],[-0.342735,51.458072],[-0.345289,51.457859],[-0.346024,51.45726],[-0.348569,51.456765],[-0.352811,51.456864],[-0.353487,51.45818],[-0.355813,51.458381],[-0.359855,51.458202],[-0.362636,51.457683],[-0.365032,51.457806],[-0.367837,51.457425],[-0.368435,51.456863],[-0.37244,51.457235],[-0.372688,51.456998],[-0.373024,51.457473],[-0.375258,51.456271],[-0.383751,51.449506],[-0.38449,51.449895],[-0.387787,51.449371],[-0.386257,51.448124],[-0.386223,51.446712],[-0.382905,51.445095],[-0.379748,51.444322],[-0.379546,51.443104],[-0.378205,51.442484],[-0.377126,51.44246],[-0.375927,51.443087],[-0.373881,51.443034],[-0.373078,51.443669],[-0.366823,51.441623],[-0.377761,51.436819],[-0.377872,51.43628],[-0.376093,51.435506],[-0.38315,51.432238],[-0.387726,51.428888],[-0.387935,51.428624],[-0.387103,51.428176],[-0.388387,51.427997],[-0.384082,51.422692],[-0.385431,51.420629],[-0.391019,51.423146],[-0.392754,51.423444],[-0.392912,51.423277],[-0.391317,51.422315],[-0.394512,51.423238],[-0.398112,51.423556],[-0.40176,51.423312],[-0.405362,51.42248],[-0.408441,51.423835],[-0.409007,51.425451],[-0.410868,51.427342],[-0.413086,51.427855],[-0.412453,51.428782],[-0.414352,51.429296],[-0.413806,51.430075],[-0.4179,51.431028],[-0.417294,51.431918],[-0.418356,51.431867],[-0.419079,51.432359],[-0.421154,51.432172],[-0.42358,51.431161],[-0.423499,51.430878],[-0.427486,51.43082],[-0.427831,51.429252],[-0.429425,51.429395],[-0.429534,51.428798],[-0.43264,51.429018],[-0.439983,51.430626],[-0.439752,51.43462],[-0.447717,51.435003],[-0.446289,51.439996],[-0.45366,51.438494],[-0.456475,51.438225],[-0.455391,51.442119],[-0.457444,51.442999],[-0.457462,51.449091],[-0.461482,51.448992],[-0.46132,51.452391],[-0.459838,51.45224],[-0.459294,51.452715],[-0.458724,51.456342],[-0.455736,51.455232],[-0.455364,51.455282],[-0.455422,51.455624],[-0.45395,51.455452],[-0.453783,51.454853],[-0.449123,51.453806],[-0.44395,51.453291],[-0.441424,51.456778],[-0.434997,51.456884],[-0.434786,51.457095],[-0.436579,51.457851],[-0.433597,51.461718],[-0.421925,51.466624],[-0.420282,51.466781],[-0.420209,51.467142],[-0.411132,51.469888],[-0.411363,51.470498],[-0.412866,51.47134],[-0.414738,51.473422],[-0.415775,51.473939],[-0.414891,51.476909],[-0.416747,51.480571],[-0.416402,51.482109],[-0.41692,51.482463],[-0.416207,51.48296],[-0.414733,51.485569],[-0.413972,51.486077],[-0.41459,51.48617],[-0.414537,51.486443],[-0.413928,51.48722],[-0.413315,51.487224],[-0.41263,51.488528],[-0.41143,51.494858],[-0.410538,51.496207],[-0.410824,51.497739],[-0.409221,51.50033],[-0.389375,51.495158],[-0.386575,51.494685],[-0.384547,51.494683],[-0.381841,51.495224],[-0.377877,51.496607],[-0.377903,51.495469],[-0.375824,51.495392],[-0.373809,51.49196],[-0.372497,51.491028],[-0.371919,51.490991],[-0.371851,51.490476],[-0.367913,51.491789],[-0.368355,51.492299],[-0.365794,51.493654],[-0.365363,51.493314],[-0.363734,51.494696],[-0.363118,51.495876],[-0.361878,51.496087],[-0.358053,51.497768],[-0.350619,51.499107],[-0.349709,51.498981],[-0.342279,51.495988],[-0.335265,51.496158],[-0.331231,51.49551],[-0.329945,51.495021],[-0.327341,51.496002],[-0.326127,51.495004],[-0.324676,51.495994],[-0.323899,51.495717],[-0.323414,51.495897],[-0.319181,51.494217],[-0.315794,51.495907],[-0.31528,51.495555],[-0.315712,51.495348],[-0.314468,51.494357],[-0.315085,51.493964],[-0.314389,51.493457],[-0.313885,51.493608],[-0.311911,51.491971],[-0.305431,51.494537],[-0.305852,51.496183],[-0.301377,51.495194],[-0.301133,51.494406],[-0.297537,51.494885],[-0.299947,51.497856],[-0.300669,51.499329],[-0.293898,51.501578],[-0.288669,51.500832],[-0.285712,51.500784],[-0.280772,51.502848],[-0.277402,51.499086]]]]}},{"type":"Feature","properties":{"slug":"islington","gss_code":"E09000019","name":"Islington"},"geometry":{"type":"Polygon","coordinates":[[[-0.115551,51.572581],[-0.11608,51.572184],[-0.115701,51.572016],[-0.11502,51.57059],[-0.110691,51.568613],[-0.098586,51.560814],[-0.096017,51.561215],[-0.091717,51.560201],[-0.090397,51.557574],[-0.090356,51.554151],[-0.089286,51.553741],[-0.088554,51.553941],[-0.087565,51.552845],[-0.085399,51.552134],[-0.079399,51.551673],[-0.076326,51.547204],[-0.076685,51.546087],[-0.08379,51.546585],[-0.083576,51.545173],[-0.086563,51.537302],[-0.097032,51.533003],[-0.095104,51.530084],[-0.095373,51.529206],[-0.088731,51.527453],[-0.087832,51.526242],[-0.086977,51.525768],[-0.08501,51.526238],[-0.084745,51.525429],[-0.085464,51.524539],[-0.085119,51.524457],[-0.085201,51.523945],[-0.084214,51.52393],[-0.085233,51.520348],[-0.0862,51.518812],[-0.089983,51.519973],[-0.089673,51.520719],[-0.09236,51.521036],[-0.092498,51.521473],[-0.094319,51.521485],[-0.09509,51.523109],[-0.096415,51.522832],[-0.096759,51.523314],[-0.097945,51.522874],[-0.097385,51.521592],[-0.097663,51.520713],[-0.10529,51.518555],[-0.107002,51.522184],[-0.108238,51.522087],[-0.10897,51.52302],[-0.112364,51.523716],[-0.113627,51.524566],[-0.114229,51.525483],[-0.112919,51.526409],[-0.115451,51.527758],[-0.115926,51.529832],[-0.119839,51.530947],[-0.122564,51.530753],[-0.1224,51.53705],[-0.125064,51.541143],[-0.127079,51.54753],[-0.130128,51.549612],[-0.130992,51.551483],[-0.134082,51.55339],[-0.135304,51.554638],[-0.136987,51.555262],[-0.141035,51.5605],[-0.140627,51.564459],[-0.142396,51.569106],[-0.140632,51.569428],[-0.133385,51.572875],[-0.131139,51.573593],[-0.127567,51.574147],[-0.124861,51.574092],[-0.123785,51.574647],[-0.119535,51.575507],[-0.118877,51.574731],[-0.119555,51.57438],[-0.117551,51.574142],[-0.115551,51.572581]]]}},{"type":"Feature","properties":{"slug":"lewisham","gss_code":"E09000023","name":"Lewisham"},"geometry":{"type":"Polygon","coordinates":[[[-0.029385,51.488938],[-0.029447,51.488551],[-0.029107,51.488623],[-0.027554,51.487222],[-0.024713,51.485483],[-0.025167,51.485023],[-0.025762,51.482151],[-0.026365,51.481507],[-0.023281,51.480781],[-0.02304,51.479665],[-0.020308,51.479914],[-0.020401,51.480219],[-0.017801,51.480873],[-0.01709,51.480412],[-0.019166,51.479651],[-0.019418,51.478014],[-0.01984,51.478048],[-0.019288,51.477618],[-0.019388,51.47719],[-0.020051,51.477131],[-0.021119,51.476268],[-0.022804,51.475929],[-0.020923,51.476135],[-0.020953,51.475677],[-0.022528,51.475592],[-0.02226,51.475455],[-0.022861,51.475312],[-0.022792,51.474466],[-0.022582,51.474112],[-0.021275,51.473776],[-0.019973,51.473002],[-0.020312,51.472305],[-0.019301,51.472036],[-0.018659,51.470686],[-0.019245,51.470507],[-0.019114,51.470009],[-0.016891,51.469072],[-0.016562,51.46926],[-0.015062,51.468044],[-0.013106,51.468939],[-0.015147,51.471749],[-0.014528,51.471903],[-0.014045,51.472671],[-0.012563,51.472343],[-0.008229,51.47276],[-0.000898,51.471803],[0.017963,51.47383],[0.015001,51.473081],[0.01553,51.471316],[0.016703,51.469504],[0.016544,51.469129],[0.014364,51.469747],[0.01261,51.469809],[0.013088,51.468147],[0.012701,51.467397],[0.013266,51.466839],[0.009095,51.465873],[0.009903,51.459631],[0.011511,51.456685],[0.014036,51.455728],[0.017549,51.455032],[0.01835,51.451575],[0.01956,51.45171],[0.019885,51.45073],[0.015131,51.450208],[0.014933,51.450611],[0.0151,51.450007],[0.02198,51.448943],[0.022954,51.447203],[0.021243,51.446698],[0.021521,51.444439],[0.020622,51.444206],[0.021506,51.442728],[0.02558,51.441716],[0.029379,51.441705],[0.028593,51.440404],[0.028816,51.438772],[0.024782,51.438208],[0.025436,51.435667],[0.027181,51.436527],[0.028687,51.43641],[0.029087,51.434674],[0.028593,51.434034],[0.031405,51.432583],[0.031159,51.432094],[0.031607,51.432555],[0.032494,51.431891],[0.033256,51.432231],[0.033737,51.431695],[0.037709,51.433341],[0.03754,51.431368],[0.038365,51.428281],[0.037845,51.427801],[0.038474,51.427584],[0.039056,51.424688],[0.036231,51.422389],[0.025459,51.428973],[0.021219,51.426863],[0.018748,51.427058],[0.015981,51.42619],[0.01412,51.426175],[0.014418,51.425215],[0.013539,51.425102],[0.013366,51.424682],[0.011883,51.424086],[0.009982,51.422482],[0.008106,51.42304],[0.007389,51.421402],[0.006863,51.421503],[0.006729,51.420945],[0.006309,51.42103],[0.005216,51.419356],[0.005671,51.418526],[0.003534,51.417427],[0.001743,51.418586],[-0.000119,51.417575],[-0.000729,51.415907],[-0.003391,51.415651],[-0.00328,51.415036],[-0.004967,51.4146],[-0.005583,51.41582],[-0.006553,51.415979],[-0.006591,51.414663],[-0.010312,51.413578],[-0.01424,51.41365],[-0.014538,51.413931],[-0.014274,51.415161],[-0.017967,51.415056],[-0.017798,51.415744],[-0.020999,51.416024],[-0.022174,51.416742],[-0.021697,51.417279],[-0.022558,51.417564],[-0.021396,51.418342],[-0.020759,51.419946],[-0.021649,51.420442],[-0.020998,51.420976],[-0.022242,51.421776],[-0.022574,51.421557],[-0.02434,51.423117],[-0.025963,51.423612],[-0.030081,51.425645],[-0.031971,51.425536],[-0.031794,51.42471],[-0.034213,51.424754],[-0.034195,51.42511],[-0.03747,51.424982],[-0.038453,51.423957],[-0.040997,51.424263],[-0.041572,51.423652],[-0.04381,51.423154],[-0.043676,51.422893],[-0.046251,51.422375],[-0.045992,51.422795],[-0.051748,51.422517],[-0.051802,51.42357],[-0.054737,51.423726],[-0.055136,51.422943],[-0.056755,51.422965],[-0.058099,51.423172],[-0.061405,51.424471],[-0.061426,51.424798],[-0.062404,51.425155],[-0.064408,51.425319],[-0.064553,51.425058],[-0.065809,51.425331],[-0.066022,51.425075],[-0.067886,51.425925],[-0.068658,51.425993],[-0.068902,51.42563],[-0.070886,51.426232],[-0.073907,51.426213],[-0.075081,51.428983],[-0.074864,51.429842],[-0.072865,51.432097],[-0.072226,51.432498],[-0.069114,51.432831],[-0.066812,51.433882],[-0.065851,51.434626],[-0.064393,51.437051],[-0.063401,51.437572],[-0.064049,51.440841],[-0.06503,51.441163],[-0.064036,51.442072],[-0.063018,51.446199],[-0.061801,51.447787],[-0.057578,51.450326],[-0.053856,51.448686],[-0.048997,51.450106],[-0.04608,51.449868],[-0.041648,51.454997],[-0.044574,51.456581],[-0.046134,51.456946],[-0.045211,51.459431],[-0.045191,51.462045],[-0.045973,51.463975],[-0.048515,51.465627],[-0.048176,51.465894],[-0.050812,51.466654],[-0.050544,51.46679],[-0.051297,51.46737],[-0.050851,51.467577],[-0.052269,51.469226],[-0.051658,51.469716],[-0.052742,51.47297],[-0.052687,51.478014],[-0.054235,51.478596],[-0.053099,51.480927],[-0.052782,51.482725],[-0.053056,51.485038],[-0.053534,51.48568],[-0.052925,51.486004],[-0.052854,51.486684],[-0.053969,51.487941],[-0.052592,51.487552],[-0.052346,51.487801],[-0.050487,51.48792],[-0.050065,51.48833],[-0.051937,51.489115],[-0.051339,51.489504],[-0.046541,51.490669],[-0.046529,51.490348],[-0.042256,51.490089],[-0.042479,51.490251],[-0.040277,51.491046],[-0.041024,51.491831],[-0.040031,51.492182],[-0.040492,51.492797],[-0.039235,51.492966],[-0.037251,51.492224],[-0.032384,51.493053],[-0.029385,51.488938]]]}},{"type":"Feature","properties":{"slug":"merton","gss_code":"E09000024","name":"Merton"},"geometry":{"type":"Polygon","coordinates":[[[-0.190249,51.434802],[-0.191171,51.433455],[-0.189775,51.431351],[-0.188399,51.432089],[-0.187398,51.432103],[-0.187268,51.432986],[-0.185726,51.433166],[-0.184231,51.431268],[-0.184555,51.427819],[-0.184046,51.426352],[-0.181939,51.424731],[-0.17357,51.423177],[-0.167952,51.42082],[-0.164834,51.420358],[-0.165015,51.420107],[-0.161649,51.419857],[-0.160326,51.421907],[-0.159915,51.421965],[-0.15986,51.422603],[-0.151388,51.419874],[-0.149421,51.419888],[-0.144454,51.417752],[-0.140359,51.419264],[-0.144984,51.415791],[-0.144311,51.415345],[-0.147126,51.413757],[-0.148065,51.41287],[-0.144789,51.412389],[-0.142598,51.413348],[-0.137987,51.411771],[-0.134083,51.410991],[-0.133503,51.412939],[-0.13356,51.41258],[-0.13268,51.412346],[-0.127883,51.411999],[-0.127725,51.412316],[-0.128173,51.410938],[-0.128485,51.410991],[-0.129456,51.409574],[-0.132077,51.409203],[-0.132303,51.406808],[-0.130446,51.403274],[-0.127713,51.401469],[-0.125398,51.398826],[-0.125681,51.398324],[-0.12465,51.398097],[-0.12414,51.39761],[-0.129652,51.393652],[-0.128727,51.393502],[-0.134322,51.390847],[-0.134837,51.390961],[-0.14185,51.389304],[-0.143233,51.390417],[-0.144281,51.390665],[-0.158027,51.389251],[-0.158271,51.388821],[-0.159871,51.388509],[-0.160961,51.387819],[-0.161826,51.388137],[-0.165299,51.387999],[-0.16633,51.389609],[-0.167472,51.390004],[-0.171308,51.392518],[-0.172919,51.392675],[-0.174813,51.393413],[-0.1793,51.389805],[-0.188399,51.385434],[-0.190492,51.386204],[-0.190291,51.386371],[-0.191607,51.387115],[-0.191845,51.386912],[-0.193142,51.387834],[-0.19348,51.387647],[-0.193844,51.387914],[-0.200282,51.384942],[-0.203407,51.387253],[-0.205074,51.386136],[-0.209784,51.3883],[-0.21336,51.385055],[-0.212944,51.384851],[-0.21374,51.384036],[-0.21808,51.380182],[-0.227725,51.383969],[-0.233712,51.387615],[-0.234641,51.390558],[-0.239691,51.389274],[-0.240095,51.391188],[-0.241708,51.393897],[-0.244672,51.394724],[-0.247407,51.39757],[-0.246727,51.398619],[-0.246816,51.400508],[-0.245226,51.401755],[-0.244703,51.403855],[-0.245336,51.40707],[-0.245819,51.407561],[-0.247022,51.407847],[-0.247483,51.408479],[-0.247158,51.409607],[-0.249521,51.414776],[-0.249651,51.418565],[-0.251156,51.42239],[-0.252928,51.423214],[-0.252239,51.425702],[-0.254239,51.429302],[-0.253307,51.430838],[-0.252442,51.431206],[-0.251085,51.432558],[-0.241417,51.435024],[-0.231242,51.438163],[-0.224476,51.438607],[-0.224314,51.438868],[-0.220629,51.438461],[-0.217822,51.438693],[-0.216594,51.438371],[-0.215698,51.437743],[-0.21253,51.437829],[-0.190027,51.441465],[-0.189854,51.440271],[-0.19064,51.438919],[-0.189218,51.438544],[-0.190249,51.434802]]]}},{"type":"Feature","properties":{"slug":"newham","gss_code":"E09000025","name":"Newham"},"geometry":{"type":"MultiPolygon","coordinates":[[[[0.056315,51.558587],[0.056961,51.55867],[0.057197,51.558004],[0.058257,51.557877],[0.058705,51.557216],[0.060151,51.556407],[0.063643,51.557276],[0.066607,51.554719],[0.06693,51.553282],[0.067785,51.553267],[0.068713,51.547464],[0.068362,51.54439],[0.066893,51.541866],[0.066684,51.540648],[0.067084,51.539466],[0.068906,51.537193],[0.068273,51.53699],[0.067955,51.536196],[0.069525,51.536262],[0.071756,51.532897],[0.072577,51.530751],[0.072745,51.529275],[0.075185,51.529511],[0.077986,51.52912],[0.078509,51.52881],[0.077962,51.528606],[0.077533,51.528847],[0.077607,51.528486],[0.07885,51.528439],[0.080106,51.527507],[0.083094,51.52661],[0.085201,51.525582],[0.086486,51.5256],[0.088862,51.526232],[0.089676,51.525584],[0.092088,51.525624],[0.092251,51.524143],[0.090701,51.523935],[0.091775,51.52356],[0.091824,51.522546],[0.094459,51.520303],[0.093936,51.518973],[0.094772,51.516487],[0.095591,51.515758],[0.096902,51.515315],[0.0966,51.515083],[0.095612,51.515463],[0.094001,51.514985],[0.09026,51.514796],[0.090535,51.514298],[0.088075,51.513671],[0.083318,51.511523],[0.083681,51.510973],[0.080996,51.508596],[0.080252,51.5084],[0.077976,51.505146],[0.076662,51.504921],[0.077759,51.504541],[0.076836,51.503828],[0.076246,51.50384],[0.076656,51.503462],[0.075262,51.502265],[0.073959,51.502124],[0.074664,51.501602],[0.073666,51.50036],[0.069694,51.499193],[0.068746,51.499354],[0.068663,51.499069],[0.060125,51.498357],[0.043472,51.499908],[0.034962,51.499645],[0.026802,51.498625],[0.02465,51.498615],[0.019676,51.499639],[0.017132,51.500998],[0.015496,51.502643],[0.015169,51.502513],[0.014643,51.502981],[0.014864,51.50324],[0.014467,51.503159],[0.013085,51.504449],[0.013406,51.504933],[0.012031,51.505281],[0.009692,51.506837],[0.010473,51.508581],[0.009834,51.50917],[0.006574,51.510028],[0.008176,51.512545],[0.008121,51.513341],[0.007207,51.514369],[0.006322,51.514611],[0.005144,51.514177],[0.004282,51.513411],[0.003712,51.51104],[0.00257,51.510972],[0.004389,51.514701],[0.003151,51.515832],[-0.002537,51.518482],[-0.002483,51.5182],[-0.004035,51.517889],[-0.005124,51.516921],[-0.006555,51.51896],[-0.008554,51.520046],[-0.008658,51.520759],[-0.007224,51.522821],[-0.00651,51.525684],[-0.002088,51.52703],[0.000662,51.528311],[0.000867,51.52927],[0.001821,51.530315],[0.00111,51.531095],[-0.000776,51.528141],[-0.002301,51.52716],[-0.003803,51.526958],[-0.00389,51.528257],[-0.00431,51.527881],[-0.004186,51.526871],[-0.004933,51.526447],[-0.006448,51.52632],[-0.006969,51.52709],[-0.007976,51.527233],[-0.006941,51.526063],[-0.007863,51.523025],[-0.00809,51.523835],[-0.007562,51.526276],[-0.008641,51.527556],[-0.010267,51.528482],[-0.010688,51.529281],[-0.013682,51.529847],[-0.017147,51.531315],[-0.018011,51.532222],[-0.018071,51.533439],[-0.018948,51.534139],[-0.019663,51.535585],[-0.020953,51.536284],[-0.021268,51.537007],[-0.019446,51.538254],[-0.018886,51.539341],[-0.017859,51.540175],[-0.017699,51.540957],[-0.016595,51.54139],[-0.016091,51.542477],[-0.01655,51.54333],[-0.017463,51.547598],[-0.018936,51.550535],[-0.018983,51.551596],[-0.016919,51.551403],[-0.010842,51.552624],[-0.009443,51.552197],[-0.008686,51.549923],[-0.00376,51.551166],[-0.003581,51.550912],[-0.000156,51.551731],[0.00332,51.552095],[0.003876,51.551799],[0.005748,51.551862],[0.005773,51.55066],[0.009569,51.551247],[0.010825,51.552245],[0.009638,51.553413],[0.011139,51.554386],[0.011632,51.553915],[0.014641,51.554964],[0.016281,51.553193],[0.016756,51.553379],[0.016994,51.553151],[0.021523,51.554895],[0.020474,51.556128],[0.022581,51.556094],[0.022713,51.556701],[0.023385,51.556788],[0.023794,51.555524],[0.025375,51.555545],[0.025518,51.554044],[0.032269,51.55459],[0.03543,51.555258],[0.046273,51.55483],[0.04434,51.557591],[0.042937,51.558361],[0.042029,51.561492],[0.050345,51.564022],[0.05156,51.562172],[0.054098,51.560841],[0.054442,51.559627],[0.055662,51.559353],[0.056315,51.558587]]],[[[0.078231,51.504378],[0.07815,51.503976],[0.077759,51.504541],[0.078231,51.504378]]]]}},{"type":"Feature","properties":{"slug":"redbridge","gss_code":"E09000026","name":"Redbridge"},"geometry":{"type":"Polygon","coordinates":[[[0.037478,51.618326],[0.037545,51.6179],[0.040215,51.616411],[0.040014,51.616097],[0.040788,51.615729],[0.042187,51.616512],[0.044138,51.617051],[0.047861,51.617411],[0.053098,51.618423],[0.053673,51.618279],[0.054451,51.61761],[0.054165,51.616681],[0.053268,51.616343],[0.051905,51.616898],[0.050155,51.616417],[0.048496,51.615032],[0.048566,51.61385],[0.047956,51.613303],[0.048243,51.613118],[0.048866,51.613577],[0.062623,51.60704],[0.06396,51.607242],[0.065967,51.606321],[0.072812,51.604682],[0.076698,51.606309],[0.079369,51.607038],[0.084444,51.60634],[0.087142,51.604415],[0.088837,51.60486],[0.089189,51.605415],[0.092545,51.606193],[0.091735,51.60741],[0.091941,51.60823],[0.092638,51.609421],[0.093913,51.609839],[0.094204,51.610669],[0.094653,51.610791],[0.093571,51.61252],[0.092285,51.613574],[0.098068,51.615422],[0.10019,51.61273],[0.103415,51.613454],[0.103838,51.612551],[0.109632,51.613962],[0.11671,51.616922],[0.118607,51.615367],[0.119307,51.615369],[0.124199,51.617506],[0.126098,51.619643],[0.128839,51.620668],[0.129189,51.621404],[0.135811,51.623547],[0.138184,51.623545],[0.144374,51.616805],[0.145513,51.614535],[0.147541,51.612223],[0.148702,51.608698],[0.148618,51.60444],[0.14951,51.602904],[0.148206,51.598968],[0.1466,51.599436],[0.137595,51.593894],[0.129574,51.590046],[0.131022,51.587524],[0.126387,51.586725],[0.127259,51.583926],[0.127662,51.583879],[0.128093,51.582833],[0.127759,51.581636],[0.132555,51.581307],[0.133567,51.579954],[0.130824,51.579365],[0.131643,51.577085],[0.129191,51.576312],[0.129444,51.573944],[0.1301,51.573064],[0.13091,51.573342],[0.131579,51.571824],[0.129907,51.571538],[0.130026,51.57073],[0.130423,51.57067],[0.130459,51.570282],[0.129324,51.566525],[0.12768,51.566161],[0.125029,51.564341],[0.119051,51.563052],[0.118878,51.562733],[0.119746,51.562507],[0.117487,51.55918],[0.120492,51.558573],[0.118901,51.557371],[0.117085,51.557418],[0.117085,51.556912],[0.113273,51.557267],[0.112737,51.556525],[0.114743,51.555318],[0.112354,51.553502],[0.111947,51.552669],[0.108419,51.552696],[0.108319,51.552157],[0.107456,51.552002],[0.104316,51.549842],[0.099769,51.548427],[0.09352,51.545858],[0.092268,51.548637],[0.092608,51.54965],[0.091704,51.54911],[0.091537,51.548303],[0.085892,51.547344],[0.08166,51.545585],[0.081513,51.54517],[0.07796,51.544052],[0.077494,51.544574],[0.077033,51.54438],[0.07681,51.544585],[0.075549,51.544011],[0.071957,51.543811],[0.07181,51.543562],[0.069711,51.544066],[0.069665,51.546447],[0.068981,51.548976],[0.069459,51.550384],[0.068606,51.551378],[0.067984,51.554299],[0.066011,51.556794],[0.063263,51.558253],[0.061934,51.558121],[0.060955,51.558476],[0.058061,51.560752],[0.057396,51.56085],[0.060725,51.558425],[0.06188,51.557996],[0.064065,51.557818],[0.065871,51.556721],[0.067576,51.554658],[0.068327,51.551427],[0.069246,51.550293],[0.068716,51.549019],[0.069422,51.546328],[0.069344,51.544154],[0.068362,51.54439],[0.068713,51.547464],[0.067785,51.553267],[0.06693,51.553282],[0.066607,51.554719],[0.063643,51.557276],[0.060151,51.556407],[0.058705,51.557216],[0.058257,51.557877],[0.057197,51.558004],[0.056961,51.55867],[0.056315,51.558587],[0.055662,51.559353],[0.054442,51.559627],[0.054098,51.560841],[0.05156,51.562172],[0.050345,51.564022],[0.042029,51.561492],[0.042937,51.558361],[0.04434,51.557591],[0.046273,51.55483],[0.03543,51.555258],[0.032269,51.55459],[0.025518,51.554044],[0.025375,51.555545],[0.023794,51.555524],[0.023385,51.556788],[0.022713,51.556701],[0.022581,51.556094],[0.020474,51.556128],[0.017141,51.558841],[0.01482,51.559426],[0.014309,51.563508],[0.014465,51.565616],[0.017578,51.565664],[0.018859,51.566326],[0.018998,51.566976],[0.017683,51.570014],[0.019131,51.569855],[0.018921,51.572322],[0.018055,51.572037],[0.016487,51.572887],[0.017413,51.574486],[0.017506,51.577388],[0.015351,51.581643],[0.015704,51.581837],[0.015332,51.582475],[0.015541,51.583347],[0.013414,51.583784],[0.012096,51.592691],[0.012966,51.599123],[0.019145,51.60779],[0.019579,51.607611],[0.019281,51.608246],[0.021425,51.611092],[0.02125,51.612307],[0.016274,51.616857],[0.008694,51.61907],[0.014538,51.618893],[0.014728,51.619761],[0.014271,51.620277],[0.015906,51.620949],[0.016229,51.621775],[0.017053,51.621987],[0.017058,51.622356],[0.017711,51.622343],[0.018845,51.623256],[0.018492,51.623505],[0.019066,51.623669],[0.018782,51.624092],[0.01912,51.625045],[0.020088,51.626429],[0.019939,51.627006],[0.02058,51.627335],[0.020996,51.628918],[0.021819,51.628833],[0.024588,51.627518],[0.026834,51.625907],[0.029076,51.625117],[0.028937,51.624677],[0.030727,51.623636],[0.030524,51.623292],[0.031503,51.623093],[0.037478,51.618326]]]}},{"type":"Feature","properties":{"slug":"richmond-upon-thames","gss_code":"E09000027","name":"Richmond upon Thames"},"geometry":{"type":"MultiPolygon","coordinates":[[[[-0.330668,51.438894],[-0.331482,51.43935],[-0.331186,51.439565],[-0.330668,51.438894]]],[[[-0.325056,51.444779],[-0.325488,51.445036],[-0.325138,51.444752],[-0.328068,51.443966],[-0.327172,51.444945],[-0.325787,51.445723],[-0.320908,51.446133],[-0.325056,51.444779]]],[[[-0.30845,51.457788],[-0.309919,51.458521],[-0.308738,51.458164],[-0.30845,51.457788]]],[[[-0.326886,51.461252],[-0.326861,51.461292],[-0.326877,51.461248],[-0.326886,51.461252]]],[[[-0.297419,51.484568],[-0.296409,51.485612],[-0.294794,51.485983],[-0.297419,51.484568]]],[[[-0.29453,51.48609],[-0.291881,51.48703],[-0.289888,51.487175],[-0.29453,51.48609]]],[[[-0.222919,51.471839],[-0.223713,51.471591],[-0.223408,51.471496],[-0.223617,51.470742],[-0.226954,51.471401],[-0.231194,51.472824],[-0.232733,51.472511],[-0.233483,51.467999],[-0.232874,51.466634],[-0.233627,51.466089],[-0.23329,51.463972],[-0.244246,51.465261],[-0.252951,51.465224],[-0.255947,51.463073],[-0.257958,51.460379],[-0.2568,51.459822],[-0.258467,51.457043],[-0.259111,51.454953],[-0.24729,51.449196],[-0.241599,51.443118],[-0.242722,51.441911],[-0.256186,51.436652],[-0.256319,51.436345],[-0.264549,51.43291],[-0.270905,51.429559],[-0.280399,51.421891],[-0.28656,51.420185],[-0.290616,51.42899],[-0.293009,51.428941],[-0.293394,51.426504],[-0.294792,51.426444],[-0.294721,51.426998],[-0.295431,51.427037],[-0.295484,51.427662],[-0.297677,51.428677],[-0.301594,51.431435],[-0.30208,51.43116],[-0.301754,51.430391],[-0.305918,51.431361],[-0.306411,51.430157],[-0.306882,51.43015],[-0.308543,51.430781],[-0.308068,51.431073],[-0.309758,51.432139],[-0.310651,51.43221],[-0.312904,51.430256],[-0.31443,51.428249],[-0.311054,51.426763],[-0.308362,51.425009],[-0.306707,51.423046],[-0.305931,51.421262],[-0.308253,51.415314],[-0.309049,51.409166],[-0.308734,51.402259],[-0.309499,51.400144],[-0.312108,51.398139],[-0.31293,51.397059],[-0.317698,51.393667],[-0.319833,51.392593],[-0.32586,51.39144],[-0.327587,51.391745],[-0.328672,51.392309],[-0.332288,51.395995],[-0.336711,51.399222],[-0.338993,51.401875],[-0.340531,51.403087],[-0.343719,51.403897],[-0.346874,51.405847],[-0.349199,51.406621],[-0.355109,51.409807],[-0.355357,51.410752],[-0.359139,51.411903],[-0.361238,51.412041],[-0.36474,51.411592],[-0.37386,51.408493],[-0.379428,51.407834],[-0.38335,51.408538],[-0.383777,51.410119],[-0.389177,51.41032],[-0.38965,51.410693],[-0.390292,51.414338],[-0.386123,51.414281],[-0.386594,51.415022],[-0.386762,51.417654],[-0.387694,51.419328],[-0.386642,51.420081],[-0.392912,51.423277],[-0.391019,51.423146],[-0.385431,51.420629],[-0.384082,51.422692],[-0.388387,51.427997],[-0.387103,51.428176],[-0.387935,51.428624],[-0.387726,51.428888],[-0.38315,51.432238],[-0.376093,51.435506],[-0.377872,51.43628],[-0.377761,51.436819],[-0.366823,51.441623],[-0.373078,51.443669],[-0.373881,51.443034],[-0.375927,51.443087],[-0.377126,51.44246],[-0.378205,51.442484],[-0.379546,51.443104],[-0.379748,51.444322],[-0.382905,51.445095],[-0.386223,51.446712],[-0.386257,51.448124],[-0.387787,51.449371],[-0.38449,51.449895],[-0.383751,51.449506],[-0.375258,51.456271],[-0.373024,51.457473],[-0.372688,51.456998],[-0.37244,51.457235],[-0.368435,51.456863],[-0.367837,51.457425],[-0.365032,51.457806],[-0.362636,51.457683],[-0.359855,51.458202],[-0.355813,51.458381],[-0.353487,51.45818],[-0.352811,51.456864],[-0.348569,51.456765],[-0.346024,51.45726],[-0.345289,51.457859],[-0.342735,51.458072],[-0.341707,51.459017],[-0.340111,51.459241],[-0.340645,51.457269],[-0.338953,51.455881],[-0.338549,51.456099],[-0.337737,51.455475],[-0.337513,51.454767],[-0.336982,51.454648],[-0.336273,51.455679],[-0.333028,51.455378],[-0.3314,51.457357],[-0.330374,51.457934],[-0.328455,51.457999],[-0.326934,51.457011],[-0.325588,51.458081],[-0.326513,51.459302],[-0.326331,51.460815],[-0.326821,51.461324],[-0.326378,51.462065],[-0.323686,51.465117],[-0.321736,51.465363],[-0.318963,51.462661],[-0.313996,51.459713],[-0.311417,51.45883],[-0.311567,51.45855],[-0.311259,51.458767],[-0.30891,51.45755],[-0.307533,51.457213],[-0.308036,51.456668],[-0.307263,51.457003],[-0.305947,51.456156],[-0.303892,51.45329],[-0.304351,51.451621],[-0.305634,51.450441],[-0.308855,51.448677],[-0.315745,51.446906],[-0.315804,51.446658],[-0.318897,51.44643],[-0.3215,51.446861],[-0.32515,51.446533],[-0.327187,51.445643],[-0.330369,51.44296],[-0.331632,51.441264],[-0.331208,51.439741],[-0.331845,51.439172],[-0.330576,51.438468],[-0.329067,51.436663],[-0.328455,51.433907],[-0.327222,51.432426],[-0.324794,51.430852],[-0.322332,51.429889],[-0.318486,51.429094],[-0.318319,51.429543],[-0.31907,51.430012],[-0.323354,51.430867],[-0.325853,51.432323],[-0.32566,51.432572],[-0.326953,51.433385],[-0.327595,51.434383],[-0.32802,51.436695],[-0.329075,51.438047],[-0.328506,51.438002],[-0.329146,51.438188],[-0.330084,51.43966],[-0.330078,51.441592],[-0.329139,51.442685],[-0.327791,51.443444],[-0.321711,51.445367],[-0.317058,51.44576],[-0.312986,51.446491],[-0.309565,51.447271],[-0.305756,51.448599],[-0.30282,51.451307],[-0.302612,51.452232],[-0.302802,51.453398],[-0.305037,51.456456],[-0.307993,51.458808],[-0.31388,51.460725],[-0.316931,51.46247],[-0.319771,51.464672],[-0.319212,51.46844],[-0.31858,51.470206],[-0.317716,51.471005],[-0.314596,51.471794],[-0.306804,51.474934],[-0.302583,51.479248],[-0.295262,51.484826],[-0.290003,51.48634],[-0.287292,51.4865],[-0.284433,51.485902],[-0.280387,51.483776],[-0.277941,51.482056],[-0.273985,51.475649],[-0.272441,51.473969],[-0.270488,51.472695],[-0.267825,51.47123],[-0.264027,51.470216],[-0.258553,51.47043],[-0.255678,51.47117],[-0.253378,51.47223],[-0.251477,51.473629],[-0.249655,51.476084],[-0.249218,51.479216],[-0.249378,51.482065],[-0.2484,51.483834],[-0.241079,51.488282],[-0.238996,51.48886],[-0.235636,51.488999],[-0.231315,51.48788],[-0.228018,51.485118],[-0.226837,51.480967],[-0.226623,51.476185],[-0.224871,51.473684],[-0.222919,51.471839]]]]}},{"type":"Feature","properties":{"slug":"sutton","gss_code":"E09000029","name":"Sutton"},"geometry":{"type":"Polygon","coordinates":[[[-0.165299,51.387999],[-0.161826,51.388137],[-0.160961,51.387819],[-0.159871,51.388509],[-0.158271,51.388821],[-0.158027,51.389251],[-0.144281,51.390665],[-0.143233,51.390417],[-0.14185,51.389304],[-0.134837,51.390961],[-0.132613,51.390125],[-0.133235,51.389552],[-0.129567,51.387231],[-0.130632,51.386268],[-0.12876,51.385643],[-0.129515,51.385301],[-0.128649,51.382493],[-0.130262,51.382214],[-0.128049,51.380475],[-0.126733,51.377068],[-0.125841,51.375599],[-0.126835,51.375466],[-0.126675,51.374915],[-0.127842,51.374741],[-0.124762,51.373686],[-0.124746,51.372937],[-0.123327,51.371198],[-0.122078,51.365754],[-0.124116,51.36535],[-0.122337,51.364521],[-0.121301,51.364727],[-0.120904,51.363308],[-0.121403,51.362344],[-0.121367,51.36104],[-0.122014,51.360964],[-0.121817,51.359977],[-0.122885,51.359924],[-0.121895,51.359072],[-0.124591,51.358873],[-0.124555,51.358363],[-0.124189,51.357414],[-0.121374,51.35774],[-0.120149,51.353028],[-0.119095,51.353138],[-0.117378,51.346649],[-0.116934,51.34668],[-0.116842,51.345763],[-0.125875,51.345233],[-0.126855,51.344864],[-0.127279,51.347091],[-0.127514,51.347447],[-0.128347,51.347451],[-0.128852,51.347271],[-0.128964,51.346582],[-0.131419,51.346025],[-0.131092,51.345471],[-0.132864,51.345434],[-0.132485,51.344272],[-0.136253,51.344408],[-0.136341,51.344791],[-0.136869,51.34472],[-0.141532,51.343413],[-0.144576,51.342088],[-0.143459,51.340539],[-0.14428,51.340219],[-0.144464,51.339511],[-0.147484,51.338798],[-0.145594,51.332455],[-0.144071,51.330691],[-0.149188,51.328846],[-0.144411,51.326465],[-0.144232,51.325929],[-0.145577,51.323493],[-0.150678,51.322168],[-0.152071,51.322271],[-0.152721,51.323],[-0.156524,51.321485],[-0.158635,51.323976],[-0.1606,51.323241],[-0.164187,51.326041],[-0.163567,51.326213],[-0.164362,51.328126],[-0.163982,51.328188],[-0.163971,51.328583],[-0.162291,51.328889],[-0.163077,51.330264],[-0.170066,51.329474],[-0.169894,51.330246],[-0.172855,51.330013],[-0.174139,51.333212],[-0.174666,51.333168],[-0.17502,51.33381],[-0.187459,51.340812],[-0.193229,51.342626],[-0.196047,51.34333],[-0.196267,51.343039],[-0.19669,51.343158],[-0.196541,51.343446],[-0.197319,51.343595],[-0.198558,51.342299],[-0.199557,51.341884],[-0.201199,51.339884],[-0.202055,51.34014],[-0.213054,51.335554],[-0.211968,51.333326],[-0.21423,51.330253],[-0.216085,51.329799],[-0.220842,51.329802],[-0.229823,51.336523],[-0.226827,51.337888],[-0.224091,51.340041],[-0.223261,51.339881],[-0.222277,51.340461],[-0.2227,51.340829],[-0.221786,51.341345],[-0.217264,51.343387],[-0.217777,51.345631],[-0.220186,51.35008],[-0.220421,51.35142],[-0.221262,51.351171],[-0.222092,51.351325],[-0.221975,51.353531],[-0.222736,51.357086],[-0.224058,51.359274],[-0.226945,51.362626],[-0.233191,51.36601],[-0.233949,51.365385],[-0.23678,51.366797],[-0.237825,51.367007],[-0.240891,51.367037],[-0.24115,51.366262],[-0.245382,51.366889],[-0.244679,51.369061],[-0.244941,51.380646],[-0.244279,51.383066],[-0.243232,51.382597],[-0.241639,51.384495],[-0.23873,51.386088],[-0.239691,51.389274],[-0.234641,51.390558],[-0.233712,51.387615],[-0.227725,51.383969],[-0.21808,51.380182],[-0.21374,51.384036],[-0.212944,51.384851],[-0.21336,51.385055],[-0.209784,51.3883],[-0.205074,51.386136],[-0.203407,51.387253],[-0.200282,51.384942],[-0.193844,51.387914],[-0.19348,51.387647],[-0.193142,51.387834],[-0.191845,51.386912],[-0.191607,51.387115],[-0.190291,51.386371],[-0.190492,51.386204],[-0.188399,51.385434],[-0.1793,51.389805],[-0.174813,51.393413],[-0.172919,51.392675],[-0.171308,51.392518],[-0.167472,51.390004],[-0.16633,51.389609],[-0.165299,51.387999]]]}},{"type":"Feature","properties":{"slug":"tower-hamlets","gss_code":"E09000030","name":"Tower Hamlets"},"geometry":{"type":"Polygon","coordinates":[[[-0.028991,51.542273],[-0.025585,51.543339],[-0.019853,51.543583],[-0.01655,51.54333],[-0.016091,51.542477],[-0.016595,51.54139],[-0.017699,51.540957],[-0.017859,51.540175],[-0.018886,51.539341],[-0.019446,51.538254],[-0.021268,51.537007],[-0.020953,51.536284],[-0.019663,51.535585],[-0.018948,51.534139],[-0.018071,51.533439],[-0.018011,51.532222],[-0.017147,51.531315],[-0.013682,51.529847],[-0.010688,51.529281],[-0.010267,51.528482],[-0.008641,51.527556],[-0.007562,51.526276],[-0.00809,51.523835],[-0.007863,51.523025],[-0.008636,51.521826],[-0.00935,51.521822],[-0.009165,51.519895],[-0.006723,51.518299],[-0.005971,51.516422],[-0.004374,51.516411],[-0.003454,51.517614],[-0.002593,51.517791],[0.002673,51.515517],[0.003589,51.514545],[0.001759,51.510912],[0.002808,51.510386],[0.004327,51.510595],[0.00594,51.513929],[0.006695,51.513924],[0.007393,51.512728],[0.005583,51.510026],[0.006351,51.509373],[0.008958,51.508838],[0.00879,51.507368],[0.005801,51.508265],[0.003676,51.50838],[0.00347,51.508017],[0.00299,51.508237],[-0.001733,51.507476],[-0.003433,51.506623],[-0.005391,51.505032],[-0.005774,51.505135],[-0.00559,51.504798],[-0.007219,51.503119],[-0.007633,51.501506],[-0.008657,51.501349],[-0.007743,51.500804],[-0.007277,51.498307],[-0.006956,51.498342],[-0.005606,51.495837],[-0.006212,51.49561],[-0.005424,51.494644],[-0.00476,51.494543],[-0.003299,51.492271],[-0.003058,51.490876],[-0.003687,51.488984],[-0.004435,51.488278],[-0.005126,51.488607],[-0.004621,51.488137],[-0.006669,51.487084],[-0.0115,51.48614],[-0.016377,51.486142],[-0.02098,51.487329],[-0.023823,51.488946],[-0.025699,51.490695],[-0.027332,51.493512],[-0.027235,51.493808],[-0.026232,51.494014],[-0.027629,51.494251],[-0.027873,51.494685],[-0.027413,51.501813],[-0.026748,51.50334],[-0.028457,51.505667],[-0.028629,51.504991],[-0.028935,51.505393],[-0.028579,51.505284],[-0.028452,51.505719],[-0.030102,51.507423],[-0.030415,51.507242],[-0.031525,51.50784],[-0.029856,51.508908],[-0.031598,51.508206],[-0.0326,51.508242],[-0.033164,51.508683],[-0.035585,51.509072],[-0.035917,51.509382],[-0.037334,51.509361],[-0.036923,51.509979],[-0.037801,51.5095],[-0.042105,51.5098],[-0.046058,51.509356],[-0.04913,51.50801],[-0.049687,51.50808],[-0.0494,51.507849],[-0.050421,51.507593],[-0.056163,51.503877],[-0.05963,51.502826],[-0.060843,51.502809],[-0.065177,51.503727],[-0.065347,51.50349],[-0.06522,51.503738],[-0.068081,51.50448],[-0.068068,51.504878],[-0.068665,51.504536],[-0.070574,51.505356],[-0.071186,51.505166],[-0.071272,51.505779],[-0.073767,51.506195],[-0.074759,51.506714],[-0.079465,51.507826],[-0.078705,51.508835],[-0.079072,51.509064],[-0.078815,51.509461],[-0.077856,51.510085],[-0.076212,51.51056],[-0.075517,51.509736],[-0.072813,51.510237],[-0.074003,51.514478],[-0.076872,51.516625],[-0.078173,51.518471],[-0.078099,51.518979],[-0.079413,51.518885],[-0.078252,51.521903],[-0.076458,51.522046],[-0.07612,51.522369],[-0.075742,51.523681],[-0.075927,51.524339],[-0.07646,51.524318],[-0.076641,51.526347],[-0.076297,51.527142],[-0.077273,51.527305],[-0.075715,51.528358],[-0.074575,51.529852],[-0.072828,51.530657],[-0.066253,51.53122],[-0.065162,51.533155],[-0.065009,51.532904],[-0.06219,51.533259],[-0.06286,51.534919],[-0.062434,51.535532],[-0.060073,51.534196],[-0.058758,51.534105],[-0.054674,51.535155],[-0.052856,51.534939],[-0.052377,51.535931],[-0.050913,51.536462],[-0.049701,51.536347],[-0.04716,51.535449],[-0.044963,51.535781],[-0.041494,51.537443],[-0.037144,51.541417],[-0.037734,51.541799],[-0.033191,51.544686],[-0.029554,51.543091],[-0.028991,51.542273]]]}},{"type":"Feature","properties":{"slug":"wandsworth","gss_code":"E09000032","name":"Wandsworth"},"geometry":{"type":"Polygon","coordinates":[[[-0.127482,51.48201],[-0.129937,51.481174],[-0.133876,51.475694],[-0.135207,51.474292],[-0.134446,51.473962],[-0.134664,51.47334],[-0.135794,51.472711],[-0.136905,51.473089],[-0.138326,51.471963],[-0.139489,51.471793],[-0.139306,51.47153],[-0.139785,51.471333],[-0.140419,51.47153],[-0.142704,51.470076],[-0.143117,51.470513],[-0.150538,51.467628],[-0.150551,51.465949],[-0.151212,51.465861],[-0.150933,51.463797],[-0.149695,51.461292],[-0.149376,51.459363],[-0.14814,51.456402],[-0.147352,51.452964],[-0.147704,51.45234],[-0.142286,51.450982],[-0.143116,51.449709],[-0.144813,51.448437],[-0.145576,51.446018],[-0.145465,51.445068],[-0.143611,51.441839],[-0.137979,51.441694],[-0.135932,51.442007],[-0.13698,51.440246],[-0.137476,51.440158],[-0.137233,51.439725],[-0.137659,51.438586],[-0.139938,51.436947],[-0.139765,51.435744],[-0.137884,51.433784],[-0.136464,51.43388],[-0.135256,51.430323],[-0.138368,51.430485],[-0.138866,51.424337],[-0.137792,51.421108],[-0.140359,51.419264],[-0.144454,51.417752],[-0.149421,51.419888],[-0.151388,51.419874],[-0.15986,51.422603],[-0.159915,51.421965],[-0.160326,51.421907],[-0.161649,51.419857],[-0.165015,51.420107],[-0.164834,51.420358],[-0.167952,51.42082],[-0.17357,51.423177],[-0.181939,51.424731],[-0.184046,51.426352],[-0.184555,51.427819],[-0.184231,51.431268],[-0.185726,51.433166],[-0.187268,51.432986],[-0.187398,51.432103],[-0.188399,51.432089],[-0.189775,51.431351],[-0.191171,51.433455],[-0.190249,51.434802],[-0.189276,51.438038],[-0.189218,51.438544],[-0.19064,51.438919],[-0.189854,51.440271],[-0.190027,51.441465],[-0.21253,51.437829],[-0.215698,51.437743],[-0.216594,51.438371],[-0.217822,51.438693],[-0.220629,51.438461],[-0.224314,51.438868],[-0.224476,51.438607],[-0.231242,51.438163],[-0.241417,51.435024],[-0.251085,51.432558],[-0.251281,51.434227],[-0.253089,51.435284],[-0.254066,51.437288],[-0.242722,51.441911],[-0.241599,51.443118],[-0.24729,51.449196],[-0.259111,51.454953],[-0.258467,51.457043],[-0.2568,51.459822],[-0.257958,51.460379],[-0.255947,51.463073],[-0.252951,51.465224],[-0.244246,51.465261],[-0.23329,51.463972],[-0.233627,51.466089],[-0.232874,51.466634],[-0.233483,51.467999],[-0.232958,51.471681],[-0.232733,51.472511],[-0.231194,51.472824],[-0.226954,51.471401],[-0.223617,51.470742],[-0.223442,51.471479],[-0.222886,51.47172],[-0.218042,51.468192],[-0.212758,51.465545],[-0.207268,51.4639],[-0.199104,51.462709],[-0.1955,51.462889],[-0.195063,51.462564],[-0.195144,51.460018],[-0.193301,51.459798],[-0.194755,51.460184],[-0.194859,51.461762],[-0.194359,51.461379],[-0.193885,51.461489],[-0.194916,51.462614],[-0.194793,51.462911],[-0.190363,51.463405],[-0.183599,51.465461],[-0.180957,51.467581],[-0.179141,51.470006],[-0.178472,51.47018],[-0.178574,51.470654],[-0.177901,51.470625],[-0.178511,51.470771],[-0.176854,51.474882],[-0.175663,51.476184],[-0.175988,51.476441],[-0.175262,51.477754],[-0.173955,51.47908],[-0.171633,51.480264],[-0.166243,51.48133],[-0.148932,51.483608],[-0.137416,51.482729],[-0.136913,51.482438],[-0.136725,51.482793],[-0.132057,51.483736],[-0.128507,51.485043],[-0.128154,51.484732],[-0.126308,51.484471],[-0.127056,51.483581],[-0.127482,51.48201]]]}},{"type":"Feature","properties":{"slug":"westminster","gss_code":"E09000033","name":"Westminster"},"geometry":{"type":"Polygon","coordinates":[[[-0.173477,51.537646],[-0.171934,51.538404],[-0.170876,51.537778],[-0.169447,51.538594],[-0.164899,51.535785],[-0.160397,51.537299],[-0.159352,51.53634],[-0.152702,51.53751],[-0.147124,51.525035],[-0.145764,51.525267],[-0.145206,51.523989],[-0.144088,51.523998],[-0.143987,51.524678],[-0.143385,51.524548],[-0.143545,51.523966],[-0.142845,51.523868],[-0.136961,51.518887],[-0.136278,51.519157],[-0.135798,51.518685],[-0.135208,51.51893],[-0.134006,51.517547],[-0.133532,51.517697],[-0.132406,51.517117],[-0.132516,51.516673],[-0.130783,51.517082],[-0.129611,51.513999],[-0.127646,51.512679],[-0.122854,51.51514],[-0.122066,51.514615],[-0.121796,51.514869],[-0.119451,51.514502],[-0.114695,51.516026],[-0.113826,51.514824],[-0.111568,51.515335],[-0.111057,51.513829],[-0.111936,51.513688],[-0.111704,51.51319],[-0.112509,51.512728],[-0.111556,51.5118],[-0.111503,51.510834],[-0.116893,51.510104],[-0.119543,51.509062],[-0.121129,51.50775],[-0.122393,51.506061],[-0.123055,51.504228],[-0.125395,51.49164],[-0.128407,51.48819],[-0.132498,51.48573],[-0.1381,51.484807],[-0.146453,51.485677],[-0.148997,51.485543],[-0.14907,51.486208],[-0.149695,51.486106],[-0.149216,51.485522],[-0.150024,51.485462],[-0.15016,51.486037],[-0.155834,51.489614],[-0.155169,51.490039],[-0.155801,51.491465],[-0.154743,51.491971],[-0.155963,51.493201],[-0.154973,51.493826],[-0.155979,51.494463],[-0.155249,51.495054],[-0.156057,51.497776],[-0.157872,51.499004],[-0.158458,51.502226],[-0.160901,51.501677],[-0.162646,51.50023],[-0.165419,51.498685],[-0.165718,51.499219],[-0.167578,51.49828],[-0.16815,51.499033],[-0.173419,51.498231],[-0.179524,51.497781],[-0.180312,51.501462],[-0.184205,51.501789],[-0.187859,51.510195],[-0.192123,51.509878],[-0.192915,51.511843],[-0.194004,51.511701],[-0.195053,51.51504],[-0.199171,51.514541],[-0.199907,51.51684],[-0.200765,51.517984],[-0.201449,51.517804],[-0.203742,51.520624],[-0.20265,51.520895],[-0.20062,51.520712],[-0.201626,51.522742],[-0.203953,51.523533],[-0.206017,51.525854],[-0.212961,51.526884],[-0.215497,51.526719],[-0.216021,51.52792],[-0.215856,51.529752],[-0.215107,51.53017],[-0.215267,51.531361],[-0.211186,51.531925],[-0.207814,51.532792],[-0.203013,51.532896],[-0.201675,51.53256],[-0.20108,51.531906],[-0.198175,51.530418],[-0.197802,51.5279],[-0.196479,51.527639],[-0.192998,51.531984],[-0.192347,51.533261],[-0.193016,51.53395],[-0.191468,51.536292],[-0.188723,51.534531],[-0.187822,51.534964],[-0.184161,51.538229],[-0.180114,51.539565],[-0.178343,51.539808],[-0.173912,51.539473],[-0.174128,51.538262],[-0.173477,51.537646]]]}}]}