{"type":"FeatureCollection","features":[{"type":"Feature","properties":{"slug":"amber-valley","gss_code":"E07000032","name":"Amber Valley"},"geometry":{"type":"Polygon","coordinates":[[[-1.493616,53.131253],[-1.490535,53.131557],[-1.488999,53.129999],[-1.486843,53.12293],[-1.480299,53.121487],[-1.474074,53.120701],[-1.471175,53.119776],[-1.469843,53.119806],[-1.469586,53.118852],[-1.468829,53.118446],[-1.467296,53.11604],[-1.466178,53.115719],[-1.464967,53.115821],[-1.4647,53.115363],[-1.463613,53.115038],[-1.463007,53.114141],[-1.464638,53.113966],[-1.465369,53.110801],[-1.461514,53.110171],[-1.460009,53.108311],[-1.457281,53.108837],[-1.455545,53.109616],[-1.453355,53.107325],[-1.452416,53.107033],[-1.45235,53.106459],[-1.450473,53.105537],[-1.450431,53.105031],[-1.450797,53.104972],[-1.450302,53.104474],[-1.44857,53.104163],[-1.448252,53.103674],[-1.443407,53.104504],[-1.442696,53.104374],[-1.44254,53.104646],[-1.441911,53.104465],[-1.441567,53.104777],[-1.44024,53.104608],[-1.438846,53.104983],[-1.437253,53.104941],[-1.434393,53.105703],[-1.433004,53.105498],[-1.432544,53.105897],[-1.430144,53.105325],[-1.428913,53.105713],[-1.427365,53.105469],[-1.42544,53.103968],[-1.424938,53.104003],[-1.4247,53.103593],[-1.423734,53.10336],[-1.422373,53.104504],[-1.420319,53.105512],[-1.419662,53.106565],[-1.417249,53.105653],[-1.413919,53.105465],[-1.409859,53.106381],[-1.410031,53.107402],[-1.409093,53.107073],[-1.409121,53.107333],[-1.407915,53.10746],[-1.407696,53.107053],[-1.407003,53.106893],[-1.406171,53.107365],[-1.406328,53.106909],[-1.404537,53.107027],[-1.404234,53.106614],[-1.403952,53.107059],[-1.402895,53.107308],[-1.400525,53.10622],[-1.397462,53.105334],[-1.395561,53.105161],[-1.394907,53.104762],[-1.393877,53.105096],[-1.392723,53.104883],[-1.392318,53.105386],[-1.390322,53.105452],[-1.390424,53.1058],[-1.389543,53.105807],[-1.389755,53.106174],[-1.38904,53.106432],[-1.388228,53.105956],[-1.388262,53.106405],[-1.387186,53.106729],[-1.38679,53.106312],[-1.386271,53.106923],[-1.386047,53.106587],[-1.385193,53.106993],[-1.38402,53.106982],[-1.383429,53.107635],[-1.382467,53.107518],[-1.381287,53.107905],[-1.38123,53.108372],[-1.380234,53.10831],[-1.379608,53.107889],[-1.379672,53.108542],[-1.379109,53.108448],[-1.378974,53.108822],[-1.378123,53.108245],[-1.377921,53.10866],[-1.377369,53.108449],[-1.377032,53.108668],[-1.37365,53.107856],[-1.372804,53.107167],[-1.372701,53.105545],[-1.373188,53.104987],[-1.372837,53.103777],[-1.370297,53.102433],[-1.368909,53.100083],[-1.369001,53.099315],[-1.369587,53.099039],[-1.366892,53.097704],[-1.365972,53.096674],[-1.364048,53.09592],[-1.364004,53.094529],[-1.365007,53.093259],[-1.362254,53.091806],[-1.361386,53.091836],[-1.360742,53.090402],[-1.359,53.089867],[-1.357048,53.08835],[-1.352792,53.086147],[-1.350864,53.086572],[-1.344414,53.086204],[-1.343666,53.086583],[-1.341729,53.085668],[-1.340978,53.084788],[-1.339814,53.084197],[-1.331635,53.080988],[-1.332719,53.080335],[-1.332501,53.079932],[-1.333127,53.079317],[-1.334087,53.078947],[-1.334717,53.077572],[-1.335796,53.077176],[-1.33564,53.076263],[-1.33659,53.075687],[-1.335883,53.075219],[-1.335757,53.074586],[-1.336554,53.074386],[-1.336667,53.07385],[-1.33703,53.074001],[-1.337043,53.073584],[-1.337584,53.073632],[-1.337589,53.073211],[-1.33834,53.072698],[-1.339065,53.072593],[-1.338533,53.072193],[-1.33944,53.072103],[-1.342192,53.070963],[-1.343034,53.070999],[-1.342556,53.070303],[-1.343835,53.06873],[-1.344064,53.067795],[-1.343454,53.066846],[-1.344204,53.066534],[-1.343682,53.065894],[-1.344428,53.065543],[-1.34459,53.063282],[-1.344112,53.062332],[-1.343512,53.062156],[-1.341926,53.060513],[-1.340943,53.060784],[-1.341135,53.060127],[-1.340236,53.05968],[-1.340115,53.058966],[-1.339441,53.05859],[-1.338086,53.056655],[-1.337601,53.056623],[-1.337742,53.056322],[-1.336965,53.056176],[-1.337514,53.055787],[-1.337395,53.054719],[-1.336046,53.054412],[-1.336572,53.053696],[-1.336163,53.053341],[-1.336385,53.053016],[-1.335868,53.052966],[-1.336392,53.052173],[-1.336321,53.051667],[-1.335802,53.051648],[-1.336119,53.051346],[-1.335765,53.050754],[-1.334489,53.050314],[-1.333548,53.049183],[-1.333297,53.048131],[-1.334664,53.047255],[-1.333724,53.045669],[-1.333992,53.044699],[-1.332912,53.044551],[-1.333042,53.044004],[-1.33362,53.044042],[-1.332934,53.043455],[-1.333794,53.042915],[-1.332366,53.042203],[-1.33359,53.042185],[-1.33365,53.041683],[-1.334964,53.041605],[-1.334724,53.041229],[-1.334201,53.04128],[-1.334626,53.040682],[-1.333079,53.03959],[-1.332554,53.038266],[-1.33263,53.037185],[-1.333115,53.036956],[-1.332615,53.036652],[-1.332712,53.03618],[-1.333346,53.035516],[-1.332615,53.034622],[-1.333098,53.034572],[-1.332697,53.034295],[-1.333203,53.033941],[-1.332266,53.034014],[-1.331851,53.033206],[-1.332132,53.032956],[-1.331726,53.032781],[-1.332027,53.032463],[-1.331215,53.031879],[-1.331782,53.030876],[-1.331131,53.030927],[-1.330971,53.030428],[-1.330428,53.030767],[-1.329187,53.030554],[-1.328036,53.029331],[-1.327767,53.028415],[-1.325885,53.027384],[-1.32446,53.025873],[-1.321894,53.019972],[-1.318577,53.016148],[-1.320188,53.015511],[-1.318274,53.013797],[-1.319603,53.011769],[-1.31919,53.010216],[-1.315541,53.008483],[-1.314561,53.007221],[-1.313493,53.006616],[-1.313367,53.004573],[-1.312316,53.004597],[-1.31002,53.003401],[-1.309288,53.003844],[-1.30868,53.003525],[-1.307986,53.003873],[-1.307426,53.003625],[-1.309799,53.002072],[-1.31396,53.001344],[-1.317293,52.998808],[-1.317952,52.997005],[-1.321302,52.994769],[-1.322476,52.994439],[-1.322335,52.993938],[-1.324181,52.993692],[-1.322655,52.99195],[-1.322052,52.989344],[-1.323108,52.989832],[-1.324548,52.989557],[-1.323833,52.988308],[-1.326197,52.988624],[-1.326656,52.988085],[-1.327233,52.988056],[-1.327081,52.987707],[-1.328044,52.98736],[-1.330354,52.987318],[-1.331473,52.98699],[-1.329505,52.98545],[-1.328337,52.98394],[-1.328358,52.981622],[-1.330414,52.980896],[-1.33278,52.978162],[-1.333769,52.978371],[-1.334888,52.977976],[-1.336394,52.977988],[-1.337329,52.978505],[-1.339917,52.978191],[-1.341541,52.978895],[-1.343961,52.978734],[-1.347461,52.977989],[-1.350328,52.978246],[-1.352037,52.97793],[-1.355583,52.978087],[-1.362058,52.976789],[-1.367284,52.977341],[-1.369494,52.975757],[-1.37013,52.973607],[-1.371084,52.973076],[-1.375218,52.97423],[-1.378314,52.976571],[-1.38598,52.979134],[-1.385898,52.980194],[-1.384165,52.981595],[-1.385414,52.982297],[-1.386397,52.981654],[-1.38776,52.981813],[-1.38922,52.981326],[-1.389624,52.981696],[-1.393669,52.981706],[-1.394545,52.980594],[-1.397856,52.980456],[-1.40325,52.979457],[-1.409151,52.977002],[-1.409611,52.979364],[-1.410063,52.979635],[-1.415663,52.980512],[-1.41871,52.980101],[-1.420475,52.980482],[-1.420543,52.981051],[-1.424348,52.981397],[-1.42507,52.981011],[-1.429942,52.980108],[-1.432207,52.979184],[-1.444829,52.978805],[-1.44948,52.98065],[-1.451348,52.982217],[-1.45391,52.981015],[-1.455849,52.982556],[-1.456318,52.982254],[-1.458016,52.982388],[-1.46013,52.983797],[-1.463441,52.982797],[-1.469562,52.982385],[-1.473803,52.981658],[-1.476356,52.982198],[-1.476828,52.981713],[-1.47879,52.982514],[-1.478912,52.981916],[-1.479852,52.981915],[-1.479754,52.980828],[-1.478707,52.978974],[-1.476686,52.977223],[-1.473401,52.975725],[-1.47071,52.971662],[-1.470748,52.970715],[-1.471843,52.969508],[-1.474946,52.968371],[-1.475103,52.966898],[-1.474689,52.965909],[-1.476694,52.964326],[-1.478493,52.964643],[-1.480465,52.967315],[-1.47966,52.967539],[-1.479842,52.967845],[-1.480085,52.968115],[-1.481158,52.968154],[-1.483622,52.967273],[-1.483327,52.966792],[-1.485185,52.966231],[-1.490691,52.966194],[-1.491966,52.96592],[-1.492265,52.966378],[-1.495405,52.965879],[-1.4954,52.965036],[-1.496472,52.964969],[-1.496047,52.964083],[-1.496573,52.963936],[-1.494412,52.960179],[-1.495314,52.960075],[-1.496866,52.958586],[-1.497976,52.956832],[-1.497801,52.956005],[-1.503427,52.955638],[-1.506609,52.954204],[-1.507644,52.954331],[-1.507604,52.951282],[-1.505904,52.948327],[-1.508334,52.947818],[-1.507921,52.946977],[-1.510669,52.946334],[-1.50915,52.94571],[-1.508839,52.944753],[-1.507885,52.944407],[-1.508225,52.944193],[-1.50777,52.943727],[-1.508064,52.942461],[-1.507507,52.941391],[-1.507815,52.940919],[-1.506606,52.939865],[-1.508029,52.937452],[-1.510973,52.938148],[-1.511885,52.935239],[-1.519874,52.933296],[-1.521261,52.932385],[-1.525457,52.932993],[-1.527006,52.932417],[-1.537798,52.924905],[-1.539645,52.924449],[-1.544068,52.924208],[-1.545728,52.926637],[-1.54734,52.926691],[-1.549401,52.927927],[-1.549463,52.928582],[-1.551095,52.928924],[-1.554601,52.930473],[-1.558562,52.932996],[-1.562074,52.933943],[-1.563378,52.933998],[-1.567162,52.933102],[-1.570137,52.935828],[-1.574276,52.93593],[-1.578059,52.935017],[-1.579867,52.936011],[-1.58301,52.936735],[-1.58454,52.936515],[-1.585309,52.935849],[-1.588701,52.935073],[-1.591978,52.93618],[-1.594186,52.937638],[-1.59621,52.937362],[-1.59795,52.937826],[-1.601704,52.937808],[-1.603037,52.936683],[-1.603285,52.937081],[-1.604126,52.936888],[-1.60413,52.937478],[-1.607332,52.939799],[-1.610054,52.940855],[-1.608831,52.941871],[-1.610095,52.942609],[-1.60732,52.944349],[-1.608304,52.945048],[-1.60656,52.945659],[-1.6058,52.946393],[-1.607137,52.947172],[-1.606362,52.947796],[-1.605336,52.9479],[-1.604856,52.948696],[-1.60325,52.949296],[-1.602958,52.950861],[-1.603837,52.952752],[-1.604822,52.953792],[-1.608083,52.955131],[-1.607276,52.956258],[-1.608002,52.956499],[-1.606996,52.957369],[-1.606558,52.957182],[-1.605028,52.958185],[-1.599394,52.962588],[-1.596301,52.962064],[-1.588746,52.962051],[-1.585608,52.961034],[-1.584688,52.962274],[-1.583106,52.96236],[-1.58123,52.961068],[-1.580646,52.961842],[-1.580768,52.963068],[-1.577605,52.963742],[-1.57773,52.96534],[-1.576921,52.965515],[-1.576467,52.966232],[-1.573374,52.966434],[-1.573092,52.967137],[-1.571019,52.966562],[-1.571889,52.967552],[-1.572194,52.969218],[-1.573548,52.969886],[-1.57231,52.97084],[-1.572745,52.971116],[-1.571444,52.973987],[-1.572561,52.974234],[-1.573109,52.974055],[-1.573691,52.974745],[-1.574668,52.974725],[-1.574345,52.975119],[-1.575227,52.975532],[-1.576208,52.975452],[-1.577783,52.977491],[-1.580756,52.978209],[-1.581219,52.978922],[-1.582428,52.979308],[-1.582736,52.97978],[-1.584046,52.979779],[-1.584201,52.980094],[-1.584607,52.979786],[-1.586263,52.980921],[-1.58734,52.981103],[-1.587422,52.981496],[-1.588784,52.981682],[-1.58919,52.981474],[-1.590711,52.982054],[-1.591351,52.981973],[-1.591412,52.982346],[-1.591972,52.982509],[-1.592152,52.982246],[-1.592785,52.982804],[-1.59375,52.982738],[-1.593944,52.982406],[-1.595016,52.983021],[-1.597335,52.982566],[-1.598504,52.983028],[-1.598655,52.983399],[-1.601263,52.984312],[-1.602164,52.985773],[-1.601577,52.98575],[-1.601829,52.9883],[-1.599601,52.99557],[-1.600104,52.997356],[-1.599266,52.998424],[-1.595097,52.999693],[-1.591968,53.001073],[-1.58895,53.001162],[-1.585717,53.000605],[-1.582328,53.000499],[-1.580381,53.001747],[-1.57766,53.002199],[-1.576798,53.002063],[-1.57528,53.004641],[-1.576113,53.0048],[-1.576926,53.005473],[-1.577382,53.008107],[-1.57929,53.008984],[-1.579733,53.011101],[-1.579276,53.012126],[-1.578228,53.011816],[-1.578755,53.014687],[-1.571275,53.013611],[-1.569398,53.01247],[-1.566984,53.012906],[-1.566746,53.013697],[-1.575145,53.015553],[-1.57589,53.016336],[-1.576111,53.017685],[-1.572325,53.019588],[-1.571248,53.021018],[-1.567845,53.021457],[-1.566637,53.021896],[-1.566326,53.022469],[-1.568534,53.021758],[-1.570106,53.022357],[-1.57189,53.023837],[-1.574315,53.023732],[-1.574866,53.024343],[-1.577432,53.023901],[-1.578138,53.02448],[-1.578559,53.023569],[-1.577339,53.022296],[-1.581916,53.021626],[-1.584878,53.020387],[-1.587068,53.021183],[-1.585358,53.023256],[-1.586097,53.023629],[-1.587176,53.023503],[-1.588704,53.024099],[-1.589089,53.024655],[-1.589348,53.024399],[-1.590433,53.024895],[-1.590742,53.025403],[-1.591419,53.025182],[-1.591702,53.025673],[-1.593845,53.026148],[-1.594305,53.026979],[-1.596249,53.027789],[-1.596456,53.028814],[-1.597199,53.029098],[-1.597288,53.029759],[-1.598567,53.03047],[-1.59667,53.032781],[-1.593374,53.034401],[-1.59367,53.035109],[-1.592723,53.036223],[-1.591307,53.036106],[-1.59001,53.036533],[-1.589212,53.037811],[-1.585918,53.039303],[-1.584103,53.040651],[-1.582764,53.041072],[-1.581718,53.042116],[-1.580972,53.042297],[-1.583718,53.044318],[-1.584919,53.044467],[-1.586263,53.045559],[-1.591117,53.047287],[-1.593464,53.048832],[-1.593762,53.05011],[-1.592847,53.050831],[-1.592967,53.051489],[-1.592193,53.052155],[-1.591439,53.054734],[-1.588398,53.05739],[-1.58871,53.057572],[-1.587847,53.058618],[-1.585733,53.059524],[-1.583382,53.059948],[-1.582823,53.059712],[-1.581784,53.058174],[-1.58077,53.05787],[-1.578568,53.05792],[-1.578728,53.059896],[-1.578138,53.060154],[-1.5771,53.059887],[-1.576105,53.060216],[-1.575537,53.061028],[-1.572575,53.061341],[-1.571365,53.061714],[-1.57071,53.062433],[-1.569887,53.062383],[-1.564651,53.065635],[-1.563045,53.065941],[-1.560846,53.06837],[-1.559198,53.069235],[-1.555986,53.070004],[-1.553273,53.069018],[-1.553176,53.069444],[-1.551517,53.070547],[-1.551567,53.070981],[-1.549067,53.071856],[-1.5475,53.073846],[-1.549713,53.076927],[-1.545323,53.078573],[-1.542578,53.078557],[-1.542873,53.079312],[-1.543511,53.079589],[-1.54348,53.080225],[-1.542288,53.080437],[-1.538915,53.081897],[-1.538124,53.083607],[-1.538297,53.084277],[-1.534824,53.08589],[-1.533603,53.086944],[-1.530729,53.087584],[-1.529997,53.087337],[-1.526704,53.087683],[-1.523014,53.086715],[-1.521431,53.086611],[-1.520459,53.086167],[-1.519345,53.08624],[-1.516178,53.090481],[-1.51476,53.091613],[-1.512371,53.092687],[-1.512059,53.093365],[-1.513769,53.093684],[-1.514409,53.095131],[-1.517455,53.096519],[-1.520496,53.096602],[-1.527317,53.094761],[-1.528854,53.094971],[-1.529825,53.095478],[-1.529901,53.096839],[-1.528683,53.09814],[-1.529173,53.099036],[-1.531104,53.100481],[-1.530417,53.100654],[-1.530224,53.101126],[-1.527617,53.101717],[-1.526681,53.102711],[-1.526296,53.107796],[-1.525667,53.108332],[-1.526353,53.109097],[-1.526207,53.110793],[-1.525111,53.111474],[-1.523693,53.111758],[-1.522436,53.113289],[-1.52251,53.113861],[-1.520606,53.11449],[-1.520799,53.116328],[-1.522741,53.117834],[-1.523282,53.118802],[-1.522888,53.11974],[-1.523511,53.12043],[-1.52201,53.12098],[-1.520191,53.124034],[-1.515967,53.125291],[-1.514473,53.126562],[-1.513139,53.126698],[-1.510494,53.127835],[-1.51003,53.127354],[-1.505495,53.128129],[-1.500144,53.128282],[-1.500472,53.129136],[-1.49943,53.130865],[-1.498851,53.131164],[-1.496044,53.131006],[-1.497582,53.133329],[-1.495366,53.133965],[-1.493616,53.131253]]]}}]}