{"type":"FeatureCollection","features":[{"type":"Feature","properties":{"slug":"arun","gss_code":"E07000224","name":"Arun"},"geometry":{"type":"MultiPolygon","coordinates":[[[[-0.751156,50.757257],[-0.748346,50.758072],[-0.748494,50.75761],[-0.749958,50.756688],[-0.751156,50.757257]]],[[[-0.75128,50.761274],[-0.750949,50.761725],[-0.751038,50.761409],[-0.75128,50.761274]]],[[[-0.751952,50.761348],[-0.75128,50.761865],[-0.75127,50.761815],[-0.751952,50.761348]]],[[[-0.758767,50.771263],[-0.758235,50.771412],[-0.758461,50.770762],[-0.759596,50.7709],[-0.758957,50.771008],[-0.758645,50.771536],[-0.758767,50.771263]]],[[[-0.760866,50.770917],[-0.760308,50.771056],[-0.760323,50.771632],[-0.760267,50.771035],[-0.760866,50.770917]]],[[[-0.759891,50.77216],[-0.760389,50.771869],[-0.76026,50.77217],[-0.760479,50.772178],[-0.760521,50.771714],[-0.760892,50.771558],[-0.76104,50.771967],[-0.760468,50.772246],[-0.759891,50.77216]]],[[[-0.761999,50.771809],[-0.76282,50.772654],[-0.762008,50.772728],[-0.762322,50.772203],[-0.761999,50.771809]]],[[[-0.610501,50.78989],[-0.611099,50.790027],[-0.609882,50.789989],[-0.610501,50.78989]]],[[[-0.608188,50.789891],[-0.60879,50.790047],[-0.607552,50.790054],[-0.608188,50.789891]]],[[[-0.606549,50.789946],[-0.604399,50.790133],[-0.60439,50.789976],[-0.606549,50.789946]]],[[[-0.603361,50.789995],[-0.603278,50.790143],[-0.601304,50.790083],[-0.603361,50.789995]]],[[[-0.600467,50.790151],[-0.600594,50.790288],[-0.598442,50.790601],[-0.600467,50.790151]]],[[[-0.596454,50.791111],[-0.596948,50.791136],[-0.595838,50.791373],[-0.596454,50.791111]]],[[[-0.593746,50.791909],[-0.592801,50.792257],[-0.592798,50.792123],[-0.593746,50.791909]]],[[[-0.591439,50.792582],[-0.590518,50.792822],[-0.590578,50.792716],[-0.591439,50.792582]]],[[[-0.56357,50.838974],[-0.564755,50.839756],[-0.565015,50.84026],[-0.56357,50.838974]]],[[[-0.564633,50.84034],[-0.565192,50.840386],[-0.564828,50.841348],[-0.564345,50.841235],[-0.564633,50.84034]]],[[[-0.529329,50.865427],[-0.529582,50.865551],[-0.52946,50.865318],[-0.531346,50.864456],[-0.532914,50.864522],[-0.539449,50.865908],[-0.537272,50.866395],[-0.536051,50.867641],[-0.535726,50.872408],[-0.536927,50.87374],[-0.532306,50.873415],[-0.527907,50.870619],[-0.52591,50.868579],[-0.526057,50.867036],[-0.529329,50.865427]]],[[[-0.560017,50.888958],[-0.559934,50.889088],[-0.559796,50.889186],[-0.560017,50.888958]]],[[[-0.545472,50.889432],[-0.547218,50.889953],[-0.54728,50.892153],[-0.548591,50.892915],[-0.546325,50.895375],[-0.543425,50.896387],[-0.54331,50.895279],[-0.543989,50.894812],[-0.543129,50.893601],[-0.542965,50.891216],[-0.54417,50.890018],[-0.545472,50.889432]]],[[[-0.544223,50.89625],[-0.544115,50.896795],[-0.543626,50.896867],[-0.544223,50.89625]]],[[[-0.493117,50.885263],[-0.490765,50.885275],[-0.49242,50.891321],[-0.493251,50.891409],[-0.493039,50.892401],[-0.491515,50.893273],[-0.491217,50.893994],[-0.489334,50.894702],[-0.488124,50.895746],[-0.488099,50.896202],[-0.486187,50.89692],[-0.48663,50.89739],[-0.483685,50.897978],[-0.483243,50.898347],[-0.483424,50.898813],[-0.482842,50.8991],[-0.480322,50.898454],[-0.479678,50.896338],[-0.48202,50.894382],[-0.47528,50.894344],[-0.476588,50.885056],[-0.472813,50.884801],[-0.471508,50.885012],[-0.464939,50.883988],[-0.46235,50.888875],[-0.462168,50.890657],[-0.461603,50.891663],[-0.45865,50.894023],[-0.457372,50.895706],[-0.455358,50.896881],[-0.451502,50.895467],[-0.452411,50.892752],[-0.452484,50.890874],[-0.449526,50.882179],[-0.447934,50.879724],[-0.446789,50.880468],[-0.440083,50.877572],[-0.43763,50.881026],[-0.437037,50.882524],[-0.433875,50.885709],[-0.431053,50.889516],[-0.431078,50.89276],[-0.427025,50.893069],[-0.427322,50.89091],[-0.427055,50.889478],[-0.42644,50.889229],[-0.426532,50.887854],[-0.424867,50.886331],[-0.422146,50.886676],[-0.420249,50.886064],[-0.416868,50.886093],[-0.413144,50.885652],[-0.412571,50.886533],[-0.411684,50.886518],[-0.412318,50.885141],[-0.413161,50.879588],[-0.412279,50.879588],[-0.412176,50.88062],[-0.408701,50.879868],[-0.40791,50.88187],[-0.405964,50.884174],[-0.401459,50.886885],[-0.395955,50.891908],[-0.394043,50.892099],[-0.392944,50.892742],[-0.392697,50.893305],[-0.388718,50.892346],[-0.388512,50.889479],[-0.386634,50.887275],[-0.385495,50.888734],[-0.38187,50.887021],[-0.381703,50.886596],[-0.380064,50.885593],[-0.363896,50.88848],[-0.366516,50.884474],[-0.366707,50.88222],[-0.366096,50.879276],[-0.366208,50.876931],[-0.36396,50.876831],[-0.363528,50.876234],[-0.364598,50.874526],[-0.36604,50.874372],[-0.366474,50.874738],[-0.369808,50.873198],[-0.37126,50.871663],[-0.371508,50.870668],[-0.371182,50.869786],[-0.368172,50.866522],[-0.366763,50.864025],[-0.366752,50.860904],[-0.367453,50.860532],[-0.371256,50.860773],[-0.375124,50.861449],[-0.377859,50.861465],[-0.378845,50.86263],[-0.381267,50.863224],[-0.382785,50.862708],[-0.388237,50.859531],[-0.392457,50.859655],[-0.395346,50.859106],[-0.396922,50.858085],[-0.403324,50.856485],[-0.406897,50.853583],[-0.407281,50.852831],[-0.40928,50.852264],[-0.411154,50.85383],[-0.415586,50.855181],[-0.416071,50.856343],[-0.415385,50.856679],[-0.416769,50.857075],[-0.420048,50.860083],[-0.422794,50.860235],[-0.424298,50.856926],[-0.424147,50.854855],[-0.422883,50.851768],[-0.421958,50.850854],[-0.423022,50.848115],[-0.422018,50.845143],[-0.4223,50.840677],[-0.425275,50.839852],[-0.431873,50.839703],[-0.438544,50.840676],[-0.446007,50.839854],[-0.443344,50.837192],[-0.445456,50.836777],[-0.445683,50.83621],[-0.446532,50.836326],[-0.445935,50.834767],[-0.443588,50.833078],[-0.4437,50.831578],[-0.445111,50.827493],[-0.443659,50.82146],[-0.442946,50.819847],[-0.44224,50.819982],[-0.442682,50.819156],[-0.440348,50.812833],[-0.440114,50.812469],[-0.439266,50.812485],[-0.43836,50.810633],[-0.436028,50.803138],[-0.439505,50.803077],[-0.440273,50.802685],[-0.444407,50.80237],[-0.450705,50.802649],[-0.456063,50.802045],[-0.474959,50.802837],[-0.485601,50.80285],[-0.522745,50.802089],[-0.538128,50.802193],[-0.541734,50.801912],[-0.541826,50.80139],[-0.543415,50.805899],[-0.544731,50.807591],[-0.544524,50.807818],[-0.545361,50.807824],[-0.547263,50.808626],[-0.549527,50.810434],[-0.552705,50.811606],[-0.556163,50.811395],[-0.559377,50.812307],[-0.560182,50.813216],[-0.560667,50.815388],[-0.560702,50.816694],[-0.560177,50.816911],[-0.560899,50.818223],[-0.56193,50.818929],[-0.563801,50.819417],[-0.565994,50.819324],[-0.567699,50.818443],[-0.569834,50.816533],[-0.571089,50.816391],[-0.572057,50.81717],[-0.573664,50.819707],[-0.573571,50.820916],[-0.572368,50.822268],[-0.572368,50.823057],[-0.572822,50.823924],[-0.575623,50.825864],[-0.575658,50.826731],[-0.572437,50.828521],[-0.568065,50.828541],[-0.566552,50.829088],[-0.566372,50.830362],[-0.567609,50.831972],[-0.570384,50.832997],[-0.570617,50.834597],[-0.570152,50.835664],[-0.569389,50.836198],[-0.564613,50.836972],[-0.563174,50.837803],[-0.563409,50.839099],[-0.564572,50.84007],[-0.564159,50.841272],[-0.564928,50.841796],[-0.565221,50.843705],[-0.562506,50.84879],[-0.56052,50.851287],[-0.559205,50.851924],[-0.551712,50.853662],[-0.550237,50.853263],[-0.54891,50.851469],[-0.546794,50.851078],[-0.541896,50.852598],[-0.540895,50.853292],[-0.539782,50.855827],[-0.538779,50.855778],[-0.539039,50.856214],[-0.539229,50.855959],[-0.539583,50.856092],[-0.538686,50.857328],[-0.538992,50.8582],[-0.540978,50.859224],[-0.545431,50.859721],[-0.546337,50.860332],[-0.544215,50.866073],[-0.542083,50.86625],[-0.53256,50.864173],[-0.532589,50.863882],[-0.530676,50.864299],[-0.528713,50.865133],[-0.529047,50.865255],[-0.527221,50.866292],[-0.525431,50.866816],[-0.525737,50.86685],[-0.525376,50.867353],[-0.525717,50.868979],[-0.527264,50.870807],[-0.527494,50.870682],[-0.529367,50.871674],[-0.531201,50.87331],[-0.533482,50.873907],[-0.535779,50.873867],[-0.540461,50.874493],[-0.541521,50.877757],[-0.539862,50.87873],[-0.539134,50.879917],[-0.539201,50.880765],[-0.540095,50.881683],[-0.540998,50.881892],[-0.54251,50.881941],[-0.543938,50.881407],[-0.547401,50.883574],[-0.547301,50.884391],[-0.545314,50.88492],[-0.541408,50.885218],[-0.538179,50.886223],[-0.536449,50.886216],[-0.535619,50.885806],[-0.534028,50.88244],[-0.532825,50.881151],[-0.530759,50.881747],[-0.529275,50.881418],[-0.527173,50.882968],[-0.524792,50.882984],[-0.523966,50.883913],[-0.523768,50.885959],[-0.520736,50.887652],[-0.51928,50.889814],[-0.514927,50.888943],[-0.502973,50.896957],[-0.499918,50.899883],[-0.498517,50.898221],[-0.494441,50.890853],[-0.493117,50.885263]]],[[[-0.608119,50.902378],[-0.607291,50.902646],[-0.60496,50.901469],[-0.593698,50.902803],[-0.59319,50.901724],[-0.590391,50.901844],[-0.588519,50.901302],[-0.586264,50.901104],[-0.579573,50.899254],[-0.575076,50.899843],[-0.569808,50.899709],[-0.559734,50.900365],[-0.558557,50.901013],[-0.558888,50.901777],[-0.555677,50.902695],[-0.554758,50.902568],[-0.554379,50.902018],[-0.553534,50.901686],[-0.550549,50.898799],[-0.546205,50.899376],[-0.543779,50.898018],[-0.543653,50.897434],[-0.544787,50.89638],[-0.546929,50.895267],[-0.549001,50.892916],[-0.559103,50.890029],[-0.560224,50.889231],[-0.561264,50.887752],[-0.558954,50.884454],[-0.555447,50.881762],[-0.548765,50.879965],[-0.545243,50.880493],[-0.542323,50.881705],[-0.540895,50.881634],[-0.539805,50.881021],[-0.539595,50.879811],[-0.54189,50.878064],[-0.542007,50.876897],[-0.540878,50.874278],[-0.537763,50.873751],[-0.53633,50.872723],[-0.536489,50.867921],[-0.536894,50.867087],[-0.538594,50.866304],[-0.542852,50.866737],[-0.544866,50.866316],[-0.547068,50.860236],[-0.546334,50.859682],[-0.54081,50.8588],[-0.539454,50.858041],[-0.539314,50.857326],[-0.541577,50.853208],[-0.546076,50.851561],[-0.547655,50.851401],[-0.54893,50.851974],[-0.549292,50.853222],[-0.551985,50.854019],[-0.560299,50.851859],[-0.561301,50.851111],[-0.563056,50.848818],[-0.565716,50.844032],[-0.565434,50.84216],[-0.565764,50.840243],[-0.56368,50.837896],[-0.565235,50.83721],[-0.568386,50.836923],[-0.570755,50.835835],[-0.571363,50.834378],[-0.571279,50.833445],[-0.57072,50.832599],[-0.567478,50.831031],[-0.566911,50.830155],[-0.567023,50.829481],[-0.568102,50.829055],[-0.571064,50.8292],[-0.573496,50.828696],[-0.576009,50.827201],[-0.576372,50.825609],[-0.576961,50.825493],[-0.57686,50.825255],[-0.576316,50.825544],[-0.575782,50.825322],[-0.573236,50.823168],[-0.573229,50.822292],[-0.574468,50.820308],[-0.572801,50.816732],[-0.571565,50.815915],[-0.570161,50.815847],[-0.568709,50.816523],[-0.566187,50.81854],[-0.564689,50.818931],[-0.562938,50.818754],[-0.561582,50.81772],[-0.560816,50.812633],[-0.560093,50.81201],[-0.556833,50.810527],[-0.555955,50.810445],[-0.556066,50.810818],[-0.553617,50.810828],[-0.551873,50.810523],[-0.549645,50.809334],[-0.549973,50.808986],[-0.549466,50.8092],[-0.549058,50.808882],[-0.548627,50.808487],[-0.548825,50.808047],[-0.548335,50.808258],[-0.54852,50.808445],[-0.548017,50.808112],[-0.548467,50.807658],[-0.547179,50.807226],[-0.547116,50.807702],[-0.546469,50.807424],[-0.545415,50.806543],[-0.545017,50.805594],[-0.544568,50.80562],[-0.544681,50.804314],[-0.543546,50.803701],[-0.541992,50.800248],[-0.54361,50.800034],[-0.550218,50.800282],[-0.560307,50.799725],[-0.573693,50.79741],[-0.576063,50.796777],[-0.577246,50.79608],[-0.580978,50.795183],[-0.587955,50.794561],[-0.589516,50.794085],[-0.589632,50.793466],[-0.590649,50.793315],[-0.59113,50.792848],[-0.592544,50.792865],[-0.593363,50.792256],[-0.594946,50.792419],[-0.597492,50.792071],[-0.59955,50.791221],[-0.6012,50.791248],[-0.602462,50.790774],[-0.603942,50.791049],[-0.605449,50.790557],[-0.607044,50.790847],[-0.610529,50.790587],[-0.611808,50.79095],[-0.617087,50.790641],[-0.629719,50.787886],[-0.648073,50.786979],[-0.653208,50.786143],[-0.654927,50.785449],[-0.655805,50.784447],[-0.676224,50.781175],[-0.682491,50.779831],[-0.693935,50.778838],[-0.702168,50.777446],[-0.702568,50.777098],[-0.728372,50.771084],[-0.736003,50.768086],[-0.740852,50.765185],[-0.742698,50.764226],[-0.743623,50.764083],[-0.745754,50.762677],[-0.746985,50.760858],[-0.750497,50.758501],[-0.752568,50.75805],[-0.754291,50.758949],[-0.753705,50.760116],[-0.753108,50.760546],[-0.75259,50.760737],[-0.752171,50.760174],[-0.752418,50.760635],[-0.751417,50.760378],[-0.752533,50.760727],[-0.75148,50.761219],[-0.751405,50.760916],[-0.750417,50.760544],[-0.750463,50.761011],[-0.75123,50.761101],[-0.750568,50.761677],[-0.750347,50.761079],[-0.749821,50.76156],[-0.750437,50.761547],[-0.750224,50.761848],[-0.75075,50.761683],[-0.751037,50.761975],[-0.750329,50.762551],[-0.750364,50.764041],[-0.752568,50.764381],[-0.752975,50.764712],[-0.752348,50.76474],[-0.752766,50.765052],[-0.753961,50.765089],[-0.755505,50.766043],[-0.756723,50.767366],[-0.757383,50.769806],[-0.756304,50.770313],[-0.756382,50.77002],[-0.756077,50.769699],[-0.756372,50.769439],[-0.755924,50.769633],[-0.755874,50.770142],[-0.756324,50.770063],[-0.755883,50.77043],[-0.756334,50.770389],[-0.757161,50.769946],[-0.755688,50.770746],[-0.755431,50.772011],[-0.762373,50.773026],[-0.762953,50.772788],[-0.764567,50.773172],[-0.764786,50.773589],[-0.764519,50.775444],[-0.764095,50.775961],[-0.763168,50.776162],[-0.763633,50.777679],[-0.761314,50.777814],[-0.759609,50.776886],[-0.758992,50.776864],[-0.758839,50.779225],[-0.759775,50.780514],[-0.758339,50.780727],[-0.757672,50.781228],[-0.757543,50.782218],[-0.756797,50.782364],[-0.756042,50.783764],[-0.751139,50.781448],[-0.749957,50.781404],[-0.74962,50.781951],[-0.750178,50.78258],[-0.751773,50.783319],[-0.751897,50.783822],[-0.751022,50.785138],[-0.751646,50.785308],[-0.752846,50.784965],[-0.753838,50.785195],[-0.754978,50.786339],[-0.755092,50.790685],[-0.749283,50.79064],[-0.745198,50.791526],[-0.743908,50.79126],[-0.742675,50.791574],[-0.742658,50.791328],[-0.741974,50.791279],[-0.741924,50.791554],[-0.740576,50.79145],[-0.739943,50.791907],[-0.738511,50.792004],[-0.738924,50.792976],[-0.737921,50.793663],[-0.736442,50.79391],[-0.735427,50.793288],[-0.734706,50.793723],[-0.73562,50.79529],[-0.73741,50.796159],[-0.73849,50.79567],[-0.738875,50.796092],[-0.738303,50.796986],[-0.739376,50.797127],[-0.73926,50.79764],[-0.736718,50.798231],[-0.736134,50.79866],[-0.733972,50.802234],[-0.733911,50.803078],[-0.735341,50.804165],[-0.73548,50.80573],[-0.736181,50.806542],[-0.736062,50.80701],[-0.735458,50.807031],[-0.735846,50.807944],[-0.734741,50.809443],[-0.732061,50.808878],[-0.730036,50.809182],[-0.723936,50.807855],[-0.722318,50.807334],[-0.719419,50.80524],[-0.718955,50.805288],[-0.718376,50.806375],[-0.718557,50.807329],[-0.7133,50.808301],[-0.713375,50.808805],[-0.711102,50.807977],[-0.709762,50.808126],[-0.707881,50.809722],[-0.707242,50.810851],[-0.706057,50.811619],[-0.706243,50.81181],[-0.705623,50.811704],[-0.703997,50.812174],[-0.700926,50.813351],[-0.689897,50.812815],[-0.689018,50.81693],[-0.686708,50.819536],[-0.686219,50.822782],[-0.687702,50.825585],[-0.688045,50.828698],[-0.690215,50.832889],[-0.692716,50.835883],[-0.692897,50.83993],[-0.69273,50.84308],[-0.692305,50.844039],[-0.69417,50.844805],[-0.693665,50.846518],[-0.691042,50.846345],[-0.690576,50.847387],[-0.690938,50.849217],[-0.692031,50.84966],[-0.690686,50.849558],[-0.689362,50.851988],[-0.686094,50.854724],[-0.681422,50.861851],[-0.681125,50.863285],[-0.671741,50.864851],[-0.662335,50.865277],[-0.65692,50.86627],[-0.650375,50.866901],[-0.652242,50.871739],[-0.652574,50.874652],[-0.652121,50.875997],[-0.652577,50.878896],[-0.654013,50.879343],[-0.652744,50.880863],[-0.652791,50.881443],[-0.65034,50.883542],[-0.649793,50.885781],[-0.658202,50.887538],[-0.657766,50.902408],[-0.655231,50.903136],[-0.654713,50.904889],[-0.654945,50.905679],[-0.651978,50.905861],[-0.648577,50.905388],[-0.648823,50.904004],[-0.648292,50.902359],[-0.649202,50.900012],[-0.646727,50.900028],[-0.644581,50.900764],[-0.641706,50.900936],[-0.638528,50.902459],[-0.637106,50.901783],[-0.635703,50.903447],[-0.633653,50.904843],[-0.630465,50.905196],[-0.628101,50.904772],[-0.625122,50.905],[-0.623169,50.90463],[-0.617385,50.905562],[-0.608119,50.902378]]]]}}]}