{"type":"FeatureCollection","features":[{"type":"Feature","properties":{"slug":"ashfield","gss_code":"E07000170","name":"Ashfield"},"geometry":{"type":"Polygon","coordinates":[[[-1.281992,53.167424],[-1.276609,53.16736],[-1.274918,53.16816],[-1.273652,53.167956],[-1.273422,53.168189],[-1.272435,53.167871],[-1.27144,53.16826],[-1.270012,53.167957],[-1.268966,53.168177],[-1.265773,53.167515],[-1.265664,53.167135],[-1.264548,53.166813],[-1.26234,53.166623],[-1.261768,53.165913],[-1.260366,53.165345],[-1.260068,53.164367],[-1.258818,53.163736],[-1.257995,53.161328],[-1.257022,53.160157],[-1.256842,53.156386],[-1.255324,53.154616],[-1.251276,53.154379],[-1.247523,53.153044],[-1.243753,53.154203],[-1.240983,53.153096],[-1.240181,53.151241],[-1.239848,53.148715],[-1.237821,53.148761],[-1.23715,53.146304],[-1.239918,53.139587],[-1.237915,53.13966],[-1.2293,53.134171],[-1.225223,53.132072],[-1.222932,53.130301],[-1.220293,53.129667],[-1.219349,53.129077],[-1.210587,53.125918],[-1.202487,53.124464],[-1.201769,53.122504],[-1.20045,53.121733],[-1.198843,53.12177],[-1.193781,53.119907],[-1.188467,53.119737],[-1.186447,53.117323],[-1.185852,53.115809],[-1.182988,53.115175],[-1.177891,53.11481],[-1.175583,53.112309],[-1.172751,53.111194],[-1.169992,53.109474],[-1.167778,53.107515],[-1.164251,53.103269],[-1.167672,53.102554],[-1.175234,53.101659],[-1.18001,53.100565],[-1.183026,53.099418],[-1.185643,53.099105],[-1.196044,53.094504],[-1.192927,53.092623],[-1.194913,53.092452],[-1.199719,53.090804],[-1.1997,53.089157],[-1.201787,53.088021],[-1.202506,53.086911],[-1.205904,53.086445],[-1.210716,53.084866],[-1.213479,53.085066],[-1.215037,53.084704],[-1.218795,53.084678],[-1.221165,53.083996],[-1.22631,53.081024],[-1.226363,53.077109],[-1.227358,53.075072],[-1.228004,53.070657],[-1.229722,53.068104],[-1.22998,53.065241],[-1.231289,53.062065],[-1.228885,53.058209],[-1.228119,53.054571],[-1.217402,53.049012],[-1.21529,53.04924],[-1.210773,53.05027],[-1.208718,53.051142],[-1.20834,53.050816],[-1.206717,53.051388],[-1.205971,53.050478],[-1.203827,53.050566],[-1.202348,53.051812],[-1.202021,53.050858],[-1.199901,53.051594],[-1.197068,53.048596],[-1.196373,53.048969],[-1.191712,53.047751],[-1.189988,53.04863],[-1.189584,53.048044],[-1.189994,53.047889],[-1.189426,53.047365],[-1.185794,53.048684],[-1.185258,53.048337],[-1.184,53.048707],[-1.182241,53.048508],[-1.181435,53.047448],[-1.181253,53.043374],[-1.178427,53.040022],[-1.177401,53.038133],[-1.1769,53.035233],[-1.177756,53.03304],[-1.178029,53.029985],[-1.179455,53.026943],[-1.179339,53.024754],[-1.18007,53.02383],[-1.182992,53.021973],[-1.183643,53.020879],[-1.182746,53.018569],[-1.183207,53.017939],[-1.184034,53.017607],[-1.184525,53.016386],[-1.185984,53.017402],[-1.188224,53.018032],[-1.18911,53.017437],[-1.195245,53.015478],[-1.198192,53.016073],[-1.199954,53.016852],[-1.200757,53.017774],[-1.20648,53.018726],[-1.210037,53.018117],[-1.211025,53.015208],[-1.213083,53.012698],[-1.22229,53.008479],[-1.224651,53.008733],[-1.225191,53.008137],[-1.227744,53.008586],[-1.228234,53.008929],[-1.229329,53.008827],[-1.231087,53.009527],[-1.23149,53.010512],[-1.232597,53.011367],[-1.232546,53.01273],[-1.230664,53.016233],[-1.23112,53.016985],[-1.230956,53.01846],[-1.231967,53.019481],[-1.231623,53.020109],[-1.231913,53.021142],[-1.229064,53.022744],[-1.234818,53.026872],[-1.235361,53.027918],[-1.24126,53.031151],[-1.238776,53.03263],[-1.247113,53.035067],[-1.247405,53.035688],[-1.251865,53.038406],[-1.253092,53.039626],[-1.257636,53.040934],[-1.258229,53.040388],[-1.262988,53.039234],[-1.263759,53.038427],[-1.266045,53.038353],[-1.267062,53.038909],[-1.268589,53.039],[-1.270212,53.040348],[-1.270664,53.041844],[-1.272632,53.041938],[-1.275579,53.04318],[-1.278615,53.043961],[-1.277638,53.044466],[-1.276762,53.045558],[-1.278753,53.047091],[-1.280499,53.04704],[-1.281513,53.047759],[-1.284826,53.048227],[-1.288036,53.048256],[-1.295286,53.046105],[-1.298115,53.046511],[-1.299103,53.046326],[-1.300944,53.04417],[-1.301185,53.043269],[-1.303525,53.041884],[-1.305138,53.044852],[-1.307845,53.043011],[-1.306954,53.045055],[-1.305772,53.046164],[-1.30682,53.047261],[-1.308095,53.04785],[-1.310688,53.048349],[-1.311014,53.048011],[-1.310442,53.046368],[-1.31441,53.048249],[-1.317449,53.047989],[-1.319001,53.047329],[-1.320139,53.047822],[-1.321053,53.049035],[-1.322604,53.049241],[-1.329607,53.05448],[-1.331044,53.054085],[-1.332626,53.053075],[-1.333485,53.053149],[-1.335193,53.052624],[-1.336385,53.053016],[-1.336163,53.053341],[-1.336572,53.053696],[-1.336046,53.054412],[-1.337395,53.054719],[-1.337514,53.055787],[-1.336965,53.056176],[-1.337742,53.056322],[-1.337601,53.056623],[-1.338086,53.056655],[-1.339441,53.05859],[-1.340115,53.058966],[-1.340236,53.05968],[-1.341135,53.060127],[-1.340943,53.060784],[-1.341926,53.060513],[-1.343512,53.062156],[-1.344112,53.062332],[-1.34459,53.063282],[-1.344428,53.065543],[-1.343682,53.065894],[-1.344204,53.066534],[-1.343454,53.066846],[-1.344064,53.067795],[-1.343835,53.06873],[-1.342556,53.070303],[-1.343034,53.070999],[-1.342192,53.070963],[-1.33944,53.072103],[-1.338533,53.072193],[-1.339065,53.072593],[-1.33834,53.072698],[-1.337589,53.073211],[-1.337584,53.073632],[-1.337043,53.073584],[-1.33703,53.074001],[-1.336667,53.07385],[-1.336554,53.074386],[-1.335757,53.074586],[-1.335883,53.075219],[-1.33659,53.075687],[-1.33564,53.076263],[-1.335796,53.077176],[-1.334717,53.077572],[-1.334087,53.078947],[-1.333127,53.079317],[-1.332501,53.079932],[-1.332719,53.080335],[-1.331635,53.080988],[-1.331536,53.081345],[-1.326139,53.083877],[-1.322306,53.084905],[-1.307773,53.086319],[-1.305884,53.086838],[-1.302561,53.088535],[-1.303455,53.089477],[-1.304107,53.089452],[-1.303765,53.089691],[-1.305359,53.090774],[-1.306102,53.091922],[-1.30739,53.092445],[-1.307394,53.092861],[-1.309131,53.094499],[-1.308153,53.094948],[-1.306912,53.094786],[-1.307087,53.095418],[-1.308491,53.095843],[-1.309251,53.09677],[-1.307395,53.099464],[-1.305992,53.100339],[-1.305573,53.100142],[-1.30498,53.100555],[-1.304024,53.100405],[-1.301578,53.101014],[-1.300729,53.10162],[-1.30142,53.104167],[-1.302518,53.103933],[-1.303609,53.103195],[-1.308801,53.107724],[-1.311833,53.108706],[-1.312054,53.109145],[-1.310662,53.110257],[-1.309689,53.111709],[-1.309673,53.113154],[-1.312293,53.11632],[-1.311057,53.116888],[-1.310994,53.118469],[-1.314248,53.124914],[-1.314935,53.125386],[-1.314803,53.125679],[-1.317856,53.127005],[-1.318712,53.128172],[-1.320157,53.128408],[-1.32178,53.13065],[-1.320181,53.132164],[-1.319283,53.13394],[-1.317693,53.135071],[-1.31498,53.135814],[-1.318815,53.139719],[-1.32026,53.142545],[-1.32167,53.144271],[-1.322301,53.148197],[-1.322236,53.151008],[-1.323155,53.153886],[-1.324595,53.154849],[-1.325583,53.156475],[-1.325473,53.157885],[-1.323457,53.159536],[-1.323459,53.162331],[-1.318989,53.163209],[-1.317507,53.164212],[-1.31747,53.164756],[-1.316595,53.165364],[-1.31547,53.165274],[-1.315189,53.164692],[-1.31436,53.16471],[-1.314066,53.164114],[-1.313594,53.164203],[-1.313605,53.163892],[-1.313062,53.16392],[-1.312572,53.163461],[-1.309263,53.163181],[-1.308038,53.163404],[-1.304508,53.165495],[-1.302671,53.163931],[-1.300742,53.164197],[-1.30026,53.168122],[-1.298963,53.167844],[-1.297571,53.168861],[-1.296604,53.170921],[-1.296004,53.171223],[-1.288775,53.171456],[-1.287979,53.170614],[-1.285421,53.169668],[-1.284152,53.168382],[-1.281992,53.167424]]]}}]}