{"type":"FeatureCollection","features":[{"type":"Feature","properties":{"slug":"ashford","gss_code":"E07000105","name":"Ashford"},"geometry":{"type":"Polygon","coordinates":[[[0.958151,51.268505],[0.9615,51.268632],[0.964906,51.268052],[0.968189,51.269262],[0.971971,51.269193],[0.973279,51.268595],[0.973406,51.267437],[0.979197,51.26268],[0.987233,51.256913],[0.991644,51.255136],[0.99325,51.255027],[0.993135,51.254345],[0.996575,51.251911],[0.99757,51.251876],[0.998239,51.251228],[0.997634,51.249769],[0.995409,51.248775],[0.994896,51.248098],[0.992552,51.246696],[0.990412,51.245797],[0.990896,51.242467],[0.989836,51.240813],[0.987458,51.238395],[0.986458,51.237836],[0.986174,51.235868],[0.991336,51.230411],[0.991085,51.228894],[0.990558,51.22829],[0.991378,51.226791],[0.990569,51.22605],[0.990327,51.224307],[0.991799,51.223562],[0.995118,51.222794],[0.997227,51.221286],[1.000691,51.215254],[0.999416,51.213842],[1.000147,51.212858],[1.002668,51.212647],[1.004505,51.211743],[1.005398,51.208486],[1.003276,51.202926],[1.002915,51.197389],[0.997061,51.191724],[0.993641,51.191009],[0.989703,51.190782],[0.9894,51.190233],[0.989873,51.187924],[0.997842,51.182667],[1.00397,51.180053],[1.00279,51.178848],[1.001694,51.175593],[0.99949,51.172038],[1.001282,51.169493],[1.00071,51.16822],[0.998605,51.166598],[0.998437,51.164741],[1.00304,51.164434],[1.008213,51.163304],[1.009572,51.163439],[1.01175,51.16259],[1.013567,51.16135],[1.015778,51.161499],[1.016923,51.161201],[1.009497,51.154097],[1.011111,51.153292],[1.011882,51.152501],[1.011929,51.151379],[1.013283,51.151082],[1.01242,51.149897],[1.009763,51.147956],[1.008463,51.145538],[1.008622,51.145003],[1.010225,51.144161],[1.012029,51.143708],[1.013088,51.142791],[1.016561,51.14226],[1.018014,51.141291],[1.016492,51.14023],[1.020568,51.134664],[1.022448,51.133948],[1.023948,51.134141],[1.025089,51.133922],[1.029241,51.132538],[1.026909,51.129519],[1.02445,51.128572],[1.02293,51.12561],[1.023875,51.125079],[1.02213,51.123843],[1.020565,51.124078],[1.017581,51.125424],[1.016787,51.122861],[1.016377,51.122996],[1.01552,51.121847],[1.016552,51.121263],[1.017072,51.120202],[1.016873,51.119404],[1.014879,51.118792],[1.012118,51.1172],[1.011246,51.117228],[1.009277,51.116266],[1.008063,51.116457],[1.006528,51.117687],[1.003955,51.118951],[1.002933,51.118188],[1.00043,51.118334],[0.998921,51.118906],[1.00045,51.121232],[0.995481,51.12235],[0.99624,51.11899],[0.995319,51.118125],[0.994003,51.117932],[0.993298,51.117434],[0.991717,51.117675],[0.991084,51.117282],[0.98971,51.117112],[0.988806,51.117584],[0.986068,51.115362],[0.983798,51.114567],[0.984526,51.114106],[0.981842,51.113887],[0.979665,51.112161],[0.982204,51.110871],[0.98159,51.110414],[0.981746,51.10976],[0.983381,51.108293],[0.98051,51.107486],[0.978601,51.106147],[0.977973,51.105161],[0.978506,51.104377],[0.979801,51.10459],[0.980303,51.103613],[0.98215,51.101934],[0.982105,51.101559],[0.983168,51.10132],[0.983915,51.100279],[0.985415,51.100121],[0.985173,51.0976],[0.983715,51.093541],[0.982389,51.092723],[0.983461,51.091076],[0.98026,51.089595],[0.979939,51.087486],[0.980233,51.086851],[0.976943,51.0846],[0.976588,51.083167],[0.977632,51.081174],[0.975541,51.079018],[0.972786,51.079699],[0.971148,51.078271],[0.970012,51.077865],[0.969731,51.076951],[0.968035,51.077314],[0.967448,51.077065],[0.967744,51.071589],[0.967525,51.071104],[0.966668,51.070695],[0.966677,51.068803],[0.968363,51.068735],[0.968169,51.067025],[0.968929,51.062926],[0.966193,51.062339],[0.96359,51.060737],[0.960695,51.060162],[0.958235,51.060259],[0.954392,51.05864],[0.954348,51.057784],[0.953326,51.057238],[0.94934,51.057035],[0.946556,51.055251],[0.944188,51.054857],[0.943828,51.055977],[0.939658,51.057085],[0.936557,51.058356],[0.935777,51.058028],[0.934196,51.061151],[0.932361,51.060344],[0.931557,51.058958],[0.930171,51.058862],[0.930011,51.05854],[0.92731,51.057855],[0.926478,51.056516],[0.921336,51.056116],[0.922794,51.052075],[0.919674,51.051884],[0.919469,51.052602],[0.916752,51.052153],[0.916291,51.053444],[0.915384,51.053425],[0.914991,51.053391],[0.915871,51.050433],[0.914439,51.049812],[0.913969,51.049771],[0.913681,51.050255],[0.913143,51.050311],[0.909775,51.049958],[0.906702,51.051225],[0.903325,51.050462],[0.901149,51.049077],[0.897974,51.044919],[0.899691,51.043023],[0.900123,51.038657],[0.898015,51.038253],[0.896852,51.037702],[0.896388,51.037875],[0.894462,51.036981],[0.893875,51.037388],[0.893157,51.039453],[0.89209,51.040036],[0.89126,51.039592],[0.890206,51.041108],[0.887941,51.03999],[0.885583,51.040218],[0.883972,51.041834],[0.882131,51.042712],[0.882817,51.042945],[0.883195,51.043691],[0.882675,51.04495],[0.88198,51.045248],[0.882393,51.046334],[0.88145,51.048338],[0.878108,51.051236],[0.877239,51.051633],[0.876062,51.050917],[0.875277,51.050994],[0.872692,51.052802],[0.872214,51.052414],[0.871689,51.052647],[0.87112,51.05214],[0.870435,51.05231],[0.869004,51.051611],[0.869643,51.050858],[0.870618,51.051035],[0.870473,51.049478],[0.868882,51.049204],[0.867766,51.047727],[0.870342,51.048231],[0.870908,51.047214],[0.871423,51.047073],[0.870821,51.046387],[0.87109,51.045585],[0.869342,51.045141],[0.869685,51.044113],[0.867017,51.043179],[0.866566,51.043951],[0.861471,51.043792],[0.860443,51.044314],[0.858001,51.044471],[0.855739,51.045017],[0.855285,51.043695],[0.854063,51.043562],[0.853441,51.043149],[0.85337,51.042292],[0.855445,51.042213],[0.855527,51.040265],[0.856067,51.039382],[0.855814,51.036043],[0.856817,51.035194],[0.855869,51.033932],[0.856754,51.032553],[0.854666,51.032595],[0.85481,51.031763],[0.852618,51.032054],[0.851522,51.032695],[0.851189,51.03256],[0.849678,51.033308],[0.848873,51.033327],[0.840403,51.03195],[0.839076,51.031337],[0.837512,51.032616],[0.839645,51.034463],[0.839255,51.036356],[0.840097,51.038949],[0.833527,51.039988],[0.833493,51.041455],[0.831307,51.041261],[0.831054,51.041688],[0.831129,51.04356],[0.832759,51.044564],[0.834185,51.04464],[0.837852,51.044061],[0.837208,51.044474],[0.83707,51.04522],[0.837636,51.045842],[0.836124,51.046649],[0.836435,51.047299],[0.835467,51.048179],[0.833927,51.047901],[0.832018,51.048408],[0.830872,51.049371],[0.78577,50.997994],[0.778957,50.989492],[0.778616,50.990818],[0.776015,50.991656],[0.775726,50.991998],[0.757427,50.995443],[0.751333,50.997243],[0.750943,50.99759],[0.750114,50.997293],[0.749384,50.9975],[0.748087,50.998392],[0.741094,51.000644],[0.737759,51.000823],[0.731467,50.99997],[0.731346,51.000395],[0.725407,50.999214],[0.721142,50.999462],[0.711255,50.998472],[0.708515,50.997741],[0.705784,50.995104],[0.706771,50.993602],[0.702075,50.995971],[0.701227,50.997322],[0.69922,50.99849],[0.689473,50.999307],[0.682156,51.000565],[0.680944,51.001475],[0.676956,51.003299],[0.675501,51.004348],[0.672943,51.008136],[0.671756,51.008987],[0.670969,51.011331],[0.664902,51.016051],[0.661379,51.017774],[0.658193,51.0174],[0.656398,51.015213],[0.654718,51.014691],[0.65209,51.015189],[0.649597,51.01521],[0.64677,51.016856],[0.645807,51.016278],[0.645693,51.015188],[0.643835,51.014546],[0.639286,51.012021],[0.637163,51.011877],[0.636052,51.012216],[0.633636,51.014015],[0.630382,51.017366],[0.62928,51.017774],[0.627577,51.017838],[0.626094,51.017439],[0.62509,51.016393],[0.624094,51.016008],[0.622437,51.015681],[0.620572,51.015987],[0.61848,51.0152],[0.615923,51.014846],[0.615152,51.013605],[0.611731,51.012093],[0.609337,51.012363],[0.605391,51.01207],[0.6046,51.012465],[0.604729,51.014073],[0.606163,51.017302],[0.606064,51.019961],[0.597255,51.020817],[0.595849,51.024945],[0.597541,51.025166],[0.602457,51.026762],[0.599283,51.029479],[0.598429,51.029475],[0.598167,51.029853],[0.596119,51.030343],[0.595061,51.030264],[0.594104,51.030592],[0.593321,51.031418],[0.595103,51.033678],[0.593883,51.03482],[0.594888,51.035737],[0.594975,51.036414],[0.593371,51.037299],[0.592479,51.039975],[0.59355,51.041859],[0.595674,51.042184],[0.59708,51.044483],[0.599676,51.046142],[0.600401,51.049698],[0.60158,51.049588],[0.603707,51.051079],[0.604307,51.052594],[0.604749,51.052497],[0.605477,51.053658],[0.604135,51.053703],[0.605007,51.054576],[0.605539,51.05647],[0.606863,51.05703],[0.607409,51.05866],[0.607872,51.058455],[0.610521,51.060962],[0.609806,51.061597],[0.611977,51.062482],[0.611717,51.063546],[0.613068,51.063706],[0.618707,51.065552],[0.627294,51.066578],[0.628467,51.067757],[0.633864,51.070815],[0.636582,51.073818],[0.638829,51.075269],[0.64087,51.075729],[0.644711,51.077888],[0.642648,51.078955],[0.642564,51.079754],[0.64359,51.080241],[0.643403,51.080399],[0.646675,51.083281],[0.642566,51.08277],[0.640352,51.084666],[0.63849,51.085446],[0.638209,51.085924],[0.635842,51.086575],[0.633581,51.087951],[0.631269,51.08818],[0.629192,51.089521],[0.629537,51.090645],[0.629194,51.091433],[0.625759,51.089573],[0.621655,51.091152],[0.620128,51.090481],[0.620566,51.089622],[0.619078,51.089274],[0.618618,51.089478],[0.61131,51.089301],[0.609953,51.090577],[0.607262,51.090881],[0.605004,51.090349],[0.601258,51.090967],[0.600551,51.090677],[0.59909,51.090811],[0.59652,51.090168],[0.596926,51.090569],[0.594606,51.094092],[0.595798,51.096619],[0.595442,51.097931],[0.5965,51.099539],[0.595192,51.104055],[0.596186,51.105398],[0.595577,51.105875],[0.595615,51.108313],[0.59033,51.111321],[0.593365,51.112092],[0.595603,51.113059],[0.599269,51.115394],[0.606663,51.116845],[0.609008,51.1179],[0.608903,51.119138],[0.609726,51.121766],[0.608536,51.1254],[0.607099,51.127194],[0.606592,51.127049],[0.603796,51.128504],[0.602943,51.130037],[0.603274,51.131009],[0.603787,51.131157],[0.603649,51.131674],[0.604904,51.131863],[0.605932,51.131584],[0.606478,51.132397],[0.607924,51.132587],[0.609166,51.133309],[0.609399,51.132703],[0.610079,51.132954],[0.611179,51.132262],[0.611841,51.13244],[0.611989,51.132092],[0.613228,51.132096],[0.613509,51.131387],[0.614266,51.131884],[0.613747,51.132094],[0.614322,51.132575],[0.613775,51.132714],[0.617262,51.133241],[0.619321,51.132167],[0.61991,51.132152],[0.621294,51.133235],[0.623898,51.134414],[0.623139,51.134826],[0.623767,51.135509],[0.623465,51.135785],[0.624462,51.136409],[0.624569,51.137797],[0.625835,51.138363],[0.626287,51.139019],[0.627855,51.138942],[0.628559,51.137818],[0.629585,51.137312],[0.63303,51.136749],[0.633867,51.136989],[0.636453,51.136839],[0.640106,51.138121],[0.642164,51.140463],[0.640407,51.140645],[0.639475,51.141293],[0.641087,51.14127],[0.644008,51.143591],[0.646071,51.143881],[0.646417,51.144328],[0.648334,51.144615],[0.650003,51.145391],[0.648188,51.146469],[0.649392,51.147738],[0.646816,51.149348],[0.648871,51.150594],[0.648744,51.151325],[0.647592,51.152209],[0.647644,51.152671],[0.6502,51.154578],[0.652204,51.155334],[0.653151,51.156702],[0.655502,51.157152],[0.657605,51.158128],[0.658963,51.160813],[0.658678,51.163838],[0.661408,51.164723],[0.663259,51.166731],[0.666633,51.168149],[0.66608,51.168592],[0.665903,51.170349],[0.664551,51.171348],[0.666883,51.171201],[0.667655,51.171656],[0.667643,51.171157],[0.668738,51.171455],[0.669256,51.17101],[0.670522,51.170812],[0.671496,51.171226],[0.671638,51.171632],[0.672164,51.171528],[0.672393,51.172179],[0.672615,51.171872],[0.673228,51.172277],[0.673575,51.171824],[0.675216,51.171825],[0.6754,51.172134],[0.676719,51.172263],[0.67738,51.17283],[0.676167,51.173129],[0.676632,51.173591],[0.676095,51.174753],[0.676675,51.175189],[0.675912,51.175939],[0.676706,51.177344],[0.677633,51.1775],[0.677297,51.17804],[0.67841,51.179201],[0.680818,51.179219],[0.685031,51.178699],[0.684156,51.18123],[0.685014,51.18438],[0.68394,51.185437],[0.683782,51.186749],[0.681911,51.187964],[0.683818,51.191114],[0.685784,51.19221],[0.688516,51.192587],[0.692852,51.195562],[0.694489,51.194481],[0.69622,51.194216],[0.698362,51.195662],[0.698287,51.195957],[0.6993,51.196305],[0.699173,51.196735],[0.700575,51.196644],[0.701838,51.197339],[0.699411,51.199953],[0.701239,51.200073],[0.702351,51.200749],[0.70983,51.199618],[0.710221,51.200158],[0.709701,51.201504],[0.710309,51.203961],[0.712093,51.206063],[0.713919,51.207236],[0.715568,51.209447],[0.716235,51.20944],[0.716827,51.211141],[0.723878,51.211414],[0.723979,51.210588],[0.725726,51.209006],[0.727779,51.208856],[0.729009,51.209271],[0.733731,51.209051],[0.735667,51.209562],[0.737865,51.209212],[0.740072,51.20814],[0.743188,51.208457],[0.745478,51.209326],[0.74702,51.21059],[0.746014,51.21175],[0.744082,51.212072],[0.743788,51.212825],[0.744584,51.214661],[0.749597,51.216013],[0.750719,51.21732],[0.751221,51.219366],[0.754602,51.218381],[0.75873,51.221862],[0.760161,51.224042],[0.761279,51.224487],[0.765805,51.224706],[0.769612,51.226063],[0.771287,51.227098],[0.772365,51.228373],[0.777519,51.231347],[0.778537,51.234093],[0.782455,51.239365],[0.787265,51.239045],[0.788918,51.238436],[0.792611,51.23813],[0.795764,51.236877],[0.792379,51.233357],[0.792179,51.232015],[0.791246,51.230826],[0.794063,51.230181],[0.793575,51.229641],[0.795539,51.229426],[0.795118,51.228534],[0.797326,51.228074],[0.798238,51.229074],[0.79954,51.228476],[0.800169,51.229482],[0.803947,51.229652],[0.803758,51.228185],[0.804668,51.228006],[0.805339,51.229014],[0.808296,51.227642],[0.808898,51.228283],[0.809783,51.227116],[0.8113,51.227412],[0.812062,51.227975],[0.816301,51.225197],[0.821109,51.224429],[0.822169,51.224348],[0.823289,51.226603],[0.825194,51.228566],[0.835317,51.23192],[0.841768,51.237102],[0.84572,51.234431],[0.848606,51.233586],[0.851453,51.23155],[0.854511,51.230698],[0.859874,51.230838],[0.861031,51.235332],[0.863494,51.238872],[0.867761,51.239883],[0.871782,51.239759],[0.876318,51.240095],[0.880052,51.239026],[0.881141,51.241258],[0.882455,51.242865],[0.888651,51.245081],[0.891411,51.246716],[0.892057,51.247636],[0.896725,51.247017],[0.902374,51.24524],[0.904973,51.245595],[0.906398,51.247794],[0.903705,51.24906],[0.905321,51.250186],[0.909785,51.250689],[0.910281,51.2502],[0.916775,51.25125],[0.91953,51.251103],[0.920849,51.252577],[0.919891,51.254957],[0.920108,51.256873],[0.920651,51.257742],[0.921864,51.258141],[0.923728,51.259415],[0.92693,51.259607],[0.931332,51.258027],[0.933423,51.256515],[0.933519,51.255765],[0.937968,51.253368],[0.941923,51.253441],[0.949122,51.256034],[0.951112,51.25758],[0.950148,51.260614],[0.950306,51.262356],[0.952423,51.265602],[0.954343,51.266609],[0.954194,51.267264],[0.955294,51.269183],[0.955032,51.270246],[0.958151,51.268505]]]}}]}