{"type":"FeatureCollection","features":[{"type":"Feature","properties":{"slug":"babergh","gss_code":"E07000200","name":"Babergh"},"geometry":{"type":"MultiPolygon","coordinates":[[[[1.237142,51.95837],[1.235754,51.95842],[1.237066,51.958346],[1.237035,51.95779],[1.236013,51.957646],[1.235709,51.958039],[1.235864,51.957564],[1.235358,51.957701],[1.235302,51.957444],[1.234041,51.957219],[1.234272,51.957862],[1.234,51.957456],[1.233649,51.957514],[1.233924,51.957127],[1.233197,51.957064],[1.233319,51.957856],[1.236754,51.959245],[1.235818,51.958629],[1.236633,51.958881],[1.238185,51.960116],[1.238521,51.959728],[1.238111,51.959579],[1.23835,51.959111],[1.237248,51.95897],[1.237142,51.95837]]],[[[1.240356,51.960297],[1.240983,51.96001],[1.239506,51.959838],[1.239737,51.960181],[1.239293,51.959979],[1.239168,51.960225],[1.239221,51.959885],[1.239545,51.959794],[1.240868,51.959916],[1.241565,51.959299],[1.240809,51.959723],[1.241276,51.959213],[1.240935,51.958818],[1.240429,51.959713],[1.240692,51.959144],[1.240056,51.959712],[1.240492,51.959078],[1.239909,51.959451],[1.240859,51.958764],[1.240363,51.958719],[1.239654,51.95943],[1.240267,51.958685],[1.23979,51.959059],[1.239843,51.958634],[1.239443,51.95935],[1.239647,51.958639],[1.239267,51.959353],[1.239426,51.958651],[1.238834,51.95914],[1.239118,51.960635],[1.239718,51.960436],[1.241015,51.960479],[1.240356,51.960297]]],[[[1.237434,51.959955],[1.237096,51.960197],[1.237293,51.959864],[1.236223,51.959034],[1.234905,51.958677],[1.234733,51.959239],[1.234748,51.958628],[1.233797,51.958089],[1.233531,51.958323],[1.233687,51.95808],[1.233046,51.957869],[1.233009,51.957668],[1.232028,51.958064],[1.233845,51.959343],[1.233732,51.959593],[1.234449,51.959568],[1.234377,51.95936],[1.235054,51.960102],[1.237858,51.960787],[1.238089,51.960345],[1.237434,51.959955]]],[[[1.15191,51.964023],[1.152964,51.964251],[1.153056,51.963812],[1.152961,51.963566],[1.149356,51.963314],[1.151219,51.96464],[1.151771,51.964516],[1.15191,51.964023]]],[[[1.250159,51.989973],[1.250015,51.990315],[1.24973,51.9901],[1.25008,51.989959],[1.249355,51.989828],[1.24831,51.989981],[1.248596,51.990808],[1.251359,51.990343],[1.250159,51.989973]]],[[[1.163914,52.029637],[1.162696,52.030046],[1.160591,52.031684],[1.16422,52.031102],[1.165445,52.030609],[1.166226,52.029863],[1.163914,52.029637]]],[[[0.714936,52.177285],[0.715384,52.179246],[0.715964,52.179281],[0.7157,52.175185],[0.716636,52.174367],[0.71989,52.173909],[0.720039,52.17229],[0.719603,52.171547],[0.720378,52.171298],[0.719679,52.170275],[0.720286,52.170057],[0.7201,52.168903],[0.720629,52.167676],[0.721256,52.167454],[0.722302,52.16623],[0.722799,52.165104],[0.723494,52.164973],[0.726844,52.165987],[0.726428,52.166646],[0.728162,52.1681],[0.729026,52.167672],[0.729829,52.165715],[0.731206,52.166119],[0.732776,52.164754],[0.732923,52.165214],[0.732055,52.166493],[0.733004,52.167038],[0.732869,52.167684],[0.734417,52.168647],[0.738336,52.169971],[0.738716,52.16848],[0.738102,52.16613],[0.739498,52.165358],[0.741808,52.165049],[0.742263,52.161835],[0.740908,52.160668],[0.741992,52.159331],[0.74312,52.159692],[0.747606,52.15959],[0.74987,52.159145],[0.753007,52.160012],[0.755364,52.159509],[0.756899,52.159527],[0.759087,52.157522],[0.761543,52.157938],[0.762051,52.160456],[0.7616,52.161765],[0.762902,52.163556],[0.76505,52.173903],[0.768515,52.174274],[0.768689,52.175],[0.776495,52.174515],[0.777332,52.175702],[0.777133,52.176548],[0.779668,52.176791],[0.782234,52.177625],[0.786919,52.177894],[0.789402,52.176747],[0.792186,52.176264],[0.793079,52.175641],[0.795467,52.175148],[0.796624,52.175211],[0.798401,52.174373],[0.800067,52.174446],[0.804732,52.17365],[0.807684,52.172151],[0.809606,52.172084],[0.814169,52.170733],[0.813721,52.170435],[0.814386,52.16893],[0.815146,52.169122],[0.816601,52.168221],[0.82118,52.164102],[0.825579,52.162667],[0.829771,52.162725],[0.832912,52.16198],[0.843326,52.161266],[0.846965,52.161762],[0.853002,52.161862],[0.856296,52.162851],[0.859536,52.16339],[0.857658,52.165461],[0.859441,52.165936],[0.861922,52.163831],[0.86354,52.164018],[0.868823,52.165577],[0.86989,52.164547],[0.872321,52.163491],[0.874022,52.160116],[0.877788,52.159427],[0.877505,52.15932],[0.878745,52.157592],[0.88158,52.154701],[0.882133,52.154663],[0.88298,52.155462],[0.883505,52.15503],[0.888776,52.155638],[0.893883,52.157678],[0.89237,52.150472],[0.897946,52.150542],[0.907511,52.15302],[0.911744,52.153655],[0.913069,52.153488],[0.918321,52.155893],[0.921945,52.155269],[0.922607,52.153768],[0.927277,52.153036],[0.928795,52.154039],[0.929873,52.153993],[0.930737,52.154371],[0.932333,52.15625],[0.933266,52.156525],[0.93338,52.155909],[0.934922,52.15585],[0.936837,52.15648],[0.93654,52.157063],[0.93805,52.15754],[0.941729,52.153674],[0.939449,52.153389],[0.938416,52.152466],[0.942762,52.151193],[0.943738,52.150545],[0.944424,52.149502],[0.944567,52.147336],[0.946173,52.146213],[0.946551,52.145496],[0.944033,52.144654],[0.945415,52.143489],[0.94538,52.142556],[0.946727,52.142573],[0.948823,52.137817],[0.948366,52.137215],[0.946482,52.137105],[0.94566,52.136172],[0.947202,52.135458],[0.946364,52.134685],[0.946919,52.13148],[0.947637,52.131051],[0.94481,52.129483],[0.945342,52.128832],[0.944735,52.127646],[0.94659,52.125957],[0.949325,52.12522],[0.951276,52.123805],[0.953655,52.120281],[0.950569,52.119625],[0.951253,52.112674],[0.951779,52.112757],[0.952427,52.111336],[0.951547,52.110578],[0.953361,52.108504],[0.957332,52.106383],[0.956592,52.106079],[0.959302,52.104855],[0.96208,52.104519],[0.963659,52.105273],[0.9641,52.105057],[0.96524,52.105439],[0.96622,52.104544],[0.970053,52.106552],[0.97312,52.106923],[0.973673,52.105294],[0.971986,52.105074],[0.972238,52.104792],[0.972832,52.104905],[0.973509,52.103834],[0.974131,52.103928],[0.975362,52.101425],[0.97333,52.100745],[0.974796,52.099939],[0.973071,52.097669],[0.970778,52.095671],[0.973007,52.095365],[0.976384,52.096857],[0.977496,52.09689],[0.979874,52.096513],[0.979782,52.095245],[0.984436,52.097124],[0.985721,52.097254],[0.99081,52.096683],[0.992787,52.095983],[0.994331,52.097091],[0.996818,52.098112],[1.003808,52.09861],[1.005101,52.097524],[1.007105,52.093789],[1.00661,52.093526],[1.010816,52.091634],[1.016759,52.089637],[1.020303,52.08687],[1.019115,52.085693],[1.019804,52.085275],[1.020501,52.083583],[1.027466,52.077944],[1.028205,52.076747],[1.027339,52.07463],[1.027908,52.074261],[1.026477,52.07284],[1.026605,52.071707],[1.026056,52.070912],[1.028752,52.069921],[1.033159,52.06937],[1.035855,52.068424],[1.041431,52.068626],[1.041019,52.069519],[1.041604,52.069671],[1.040957,52.071015],[1.041922,52.072262],[1.041462,52.074578],[1.043541,52.075222],[1.045118,52.076112],[1.045445,52.077911],[1.046457,52.078111],[1.047576,52.077865],[1.049033,52.07623],[1.049058,52.075315],[1.051373,52.075033],[1.05288,52.073042],[1.053389,52.070002],[1.057614,52.068511],[1.058189,52.066535],[1.066744,52.065245],[1.067891,52.065456],[1.069383,52.065138],[1.081831,52.065781],[1.091371,52.065407],[1.096694,52.066516],[1.097591,52.068681],[1.100111,52.069576],[1.103372,52.07018],[1.105047,52.070843],[1.105574,52.071728],[1.107586,52.072141],[1.107659,52.071758],[1.109216,52.071043],[1.108763,52.070776],[1.110711,52.069205],[1.122021,52.061522],[1.120729,52.060092],[1.122004,52.057425],[1.11682,52.055922],[1.113509,52.05423],[1.11025,52.053502],[1.110529,52.051658],[1.111361,52.051656],[1.1126,52.049606],[1.113717,52.049347],[1.114314,52.048597],[1.107277,52.046519],[1.10868,52.043619],[1.111135,52.041902],[1.111907,52.040436],[1.112762,52.037613],[1.112944,52.034578],[1.116266,52.035431],[1.117608,52.035322],[1.119755,52.03617],[1.122598,52.035506],[1.124996,52.033909],[1.125659,52.034191],[1.126204,52.033607],[1.125981,52.032722],[1.126924,52.032868],[1.126965,52.032227],[1.127609,52.031575],[1.128386,52.031394],[1.128508,52.030893],[1.129339,52.03074],[1.12894,52.030141],[1.129577,52.029955],[1.130186,52.030447],[1.131575,52.03059],[1.132012,52.030328],[1.134031,52.030451],[1.134469,52.030083],[1.136296,52.030931],[1.136537,52.032129],[1.139376,52.032081],[1.141119,52.032823],[1.144315,52.033226],[1.146203,52.033943],[1.14911,52.034036],[1.151517,52.033266],[1.152314,52.033403],[1.153676,52.034262],[1.153907,52.033573],[1.153494,52.032937],[1.156844,52.028972],[1.158743,52.027676],[1.161476,52.027116],[1.161986,52.026689],[1.16129,52.025205],[1.1622,52.024789],[1.163458,52.023514],[1.165206,52.020223],[1.167069,52.018767],[1.166987,52.01814],[1.169214,52.016799],[1.170284,52.016529],[1.171969,52.015302],[1.172547,52.014311],[1.173168,52.01459],[1.174371,52.013664],[1.175554,52.013286],[1.177489,52.011343],[1.179252,52.010905],[1.182269,52.008544],[1.188113,52.00645],[1.190235,52.006272],[1.190819,52.006353],[1.191315,52.007037],[1.193187,52.006594],[1.194172,52.006922],[1.198669,52.00591],[1.199892,52.006005],[1.203435,52.004807],[1.204738,52.00325],[1.204042,52.003002],[1.204778,52.003189],[1.205032,52.002979],[1.204104,52.002619],[1.205128,52.002885],[1.20554,52.002254],[1.206761,52.001663],[1.209315,51.998334],[1.211833,51.996454],[1.226881,51.996763],[1.232577,51.995472],[1.233224,51.994903],[1.233564,51.994972],[1.233135,51.994266],[1.233998,51.994911],[1.235908,51.994579],[1.234928,51.994242],[1.235323,51.99413],[1.235823,51.994468],[1.236756,51.994166],[1.236638,51.993886],[1.236034,51.993846],[1.236534,51.99383],[1.238031,51.994061],[1.237355,51.993889],[1.238247,51.993915],[1.239449,51.99346],[1.239778,51.993788],[1.240154,51.993249],[1.237651,51.993691],[1.239686,51.993101],[1.238864,51.99328],[1.239687,51.992962],[1.238843,51.992714],[1.240202,51.993085],[1.239901,51.992893],[1.24123,51.991721],[1.241159,51.99201],[1.241493,51.991889],[1.240348,51.993107],[1.243064,51.992124],[1.242609,51.991814],[1.241978,51.991895],[1.241972,51.991772],[1.242875,51.99181],[1.241858,51.991603],[1.242297,51.99151],[1.240633,51.99066],[1.242965,51.991695],[1.240873,51.990671],[1.242463,51.991236],[1.242586,51.990766],[1.241859,51.990625],[1.24221,51.990604],[1.242651,51.990744],[1.242598,51.991156],[1.242924,51.991236],[1.243049,51.990699],[1.241939,51.99047],[1.241768,51.990376],[1.241994,51.990196],[1.241913,51.990421],[1.242909,51.990619],[1.242846,51.990396],[1.243232,51.990872],[1.243075,51.991259],[1.243355,51.991115],[1.243843,51.991717],[1.244019,51.991322],[1.243253,51.990706],[1.243964,51.991045],[1.242929,51.990354],[1.243037,51.990054],[1.244038,51.990985],[1.243827,51.989941],[1.244127,51.991163],[1.244205,51.990753],[1.24434,51.991125],[1.244317,51.990726],[1.244883,51.990902],[1.244261,51.990414],[1.24418,51.989762],[1.244251,51.990083],[1.244702,51.989932],[1.244532,51.99026],[1.244822,51.990785],[1.244752,51.990287],[1.245266,51.989817],[1.245606,51.990087],[1.24522,51.989902],[1.245247,51.990441],[1.245873,51.99051],[1.245361,51.990644],[1.245816,51.990733],[1.245119,51.990719],[1.245361,51.991069],[1.24431,51.991301],[1.244412,51.99186],[1.245279,51.991738],[1.245244,51.9914],[1.245391,51.991696],[1.245933,51.991644],[1.245728,51.99098],[1.245995,51.991074],[1.24636,51.990659],[1.246085,51.990501],[1.246623,51.99037],[1.246581,51.990587],[1.246843,51.990226],[1.24737,51.990582],[1.247167,51.990216],[1.247587,51.990414],[1.247675,51.990149],[1.24807,51.990968],[1.247721,51.989432],[1.248205,51.989967],[1.248924,51.989837],[1.248292,51.989456],[1.25297,51.990256],[1.257919,51.989612],[1.261678,51.988453],[1.262781,51.988585],[1.26212,51.988456],[1.262771,51.988138],[1.263505,51.988354],[1.267257,51.987818],[1.270616,51.983545],[1.271095,51.979397],[1.271114,51.975837],[1.270587,51.976317],[1.270076,51.976269],[1.270907,51.976651],[1.270046,51.976672],[1.270766,51.977059],[1.27031,51.977238],[1.27074,51.977375],[1.27032,51.977435],[1.270748,51.977552],[1.270711,51.978324],[1.26982,51.978081],[1.270828,51.978651],[1.27011,51.978684],[1.27068,51.978715],[1.270298,51.978874],[1.270803,51.97911],[1.270374,51.979247],[1.26892,51.978983],[1.268984,51.978665],[1.269721,51.978488],[1.268882,51.978559],[1.269303,51.978433],[1.269037,51.97832],[1.269712,51.97844],[1.268985,51.9781],[1.269317,51.977919],[1.268869,51.97799],[1.269121,51.977722],[1.268557,51.977847],[1.268814,51.978376],[1.268432,51.977867],[1.268941,51.977596],[1.268181,51.977715],[1.268837,51.977511],[1.268173,51.976786],[1.268272,51.977032],[1.267788,51.977066],[1.268293,51.977142],[1.268004,51.977371],[1.268735,51.977411],[1.268105,51.977663],[1.267667,51.976931],[1.26752,51.976398],[1.268277,51.976176],[1.268158,51.975906],[1.269293,51.975227],[1.269607,51.975399],[1.26886,51.975686],[1.2697,51.975624],[1.269161,51.975854],[1.269508,51.976059],[1.270499,51.97569],[1.270097,51.975434],[1.270675,51.975569],[1.270134,51.975358],[1.270843,51.975473],[1.270814,51.974757],[1.270336,51.974831],[1.270729,51.974441],[1.269691,51.975062],[1.270625,51.973865],[1.272901,51.968215],[1.275108,51.964851],[1.276761,51.963894],[1.277499,51.961877],[1.279058,51.960283],[1.27818,51.958659],[1.277121,51.957694],[1.27647,51.957548],[1.275158,51.956163],[1.269393,51.954306],[1.266837,51.955651],[1.255962,51.959667],[1.245966,51.960997],[1.244488,51.960678],[1.244684,51.961101],[1.24438,51.960684],[1.243958,51.960747],[1.244364,51.960645],[1.24341,51.960372],[1.243446,51.961037],[1.243992,51.961114],[1.243567,51.961182],[1.243205,51.961182],[1.243229,51.960294],[1.242645,51.960241],[1.24295,51.961395],[1.242492,51.960984],[1.242676,51.960053],[1.24233,51.959753],[1.241859,51.960107],[1.242306,51.960367],[1.242371,51.961232],[1.241713,51.961134],[1.24232,51.960842],[1.242267,51.960387],[1.241846,51.960534],[1.24176,51.960107],[1.241863,51.959983],[1.24143,51.960397],[1.241806,51.960817],[1.24148,51.960742],[1.2415,51.961187],[1.241247,51.961026],[1.241481,51.960052],[1.242242,51.9597],[1.241725,51.959439],[1.24115,51.960429],[1.240579,51.960649],[1.240924,51.961212],[1.240519,51.960696],[1.239313,51.960935],[1.239889,51.960723],[1.239665,51.960489],[1.239082,51.961006],[1.2384,51.960956],[1.238992,51.960833],[1.238608,51.960707],[1.239031,51.960639],[1.238859,51.960172],[1.237421,51.961107],[1.233282,51.959513],[1.231835,51.958086],[1.230672,51.957866],[1.231942,51.958046],[1.232962,51.957624],[1.232797,51.957018],[1.232326,51.95738],[1.232377,51.95699],[1.231909,51.957631],[1.232222,51.957049],[1.231892,51.956972],[1.231374,51.957586],[1.231879,51.956931],[1.231057,51.957278],[1.231543,51.956796],[1.230788,51.956664],[1.230539,51.95775],[1.228534,51.957551],[1.228589,51.957352],[1.230422,51.957603],[1.230687,51.956626],[1.229754,51.95639],[1.227642,51.957832],[1.22704,51.957499],[1.227638,51.957629],[1.229448,51.956442],[1.228393,51.956351],[1.228345,51.9566],[1.228139,51.956387],[1.228716,51.95623],[1.227984,51.956051],[1.227402,51.956506],[1.227543,51.956206],[1.227098,51.956196],[1.227248,51.95663],[1.226845,51.956469],[1.226717,51.95683],[1.226691,51.956536],[1.226466,51.956679],[1.227016,51.956193],[1.227991,51.955969],[1.226553,51.955587],[1.225481,51.956502],[1.225865,51.957051],[1.224423,51.95594],[1.225409,51.956542],[1.226422,51.955639],[1.224457,51.955182],[1.223572,51.955627],[1.221553,51.953767],[1.219771,51.952866],[1.216586,51.953551],[1.212467,51.955894],[1.209828,51.956071],[1.209984,51.955718],[1.209338,51.955321],[1.20757,51.955184],[1.199737,51.955582],[1.195384,51.956228],[1.192669,51.956018],[1.192456,51.955693],[1.191061,51.955444],[1.187844,51.955664],[1.186964,51.956116],[1.187671,51.955673],[1.187022,51.9557],[1.184007,51.957594],[1.180778,51.962253],[1.179231,51.963944],[1.177892,51.964781],[1.17533,51.965685],[1.168813,51.966118],[1.165618,51.967079],[1.164193,51.967148],[1.164782,51.967589],[1.163684,51.967122],[1.163129,51.967277],[1.164269,51.968062],[1.164396,51.969084],[1.165327,51.96958],[1.163517,51.970593],[1.162492,51.969265],[1.162933,51.96868],[1.161006,51.967212],[1.161172,51.967676],[1.158665,51.966308],[1.158856,51.965877],[1.158179,51.966125],[1.15597,51.96544],[1.156043,51.965006],[1.155712,51.965395],[1.153443,51.964874],[1.154254,51.964127],[1.155243,51.96452],[1.154319,51.964021],[1.153124,51.964876],[1.15229,51.965008],[1.152789,51.964675],[1.153849,51.963614],[1.153155,51.963596],[1.153111,51.964128],[1.152712,51.964637],[1.151018,51.96547],[1.152101,51.964923],[1.151788,51.964699],[1.152229,51.964837],[1.15285,51.964313],[1.151919,51.964078],[1.151894,51.96458],[1.15104,51.964802],[1.149104,51.963256],[1.151933,51.96327],[1.144085,51.962373],[1.138849,51.960562],[1.137195,51.959233],[1.132249,51.957596],[1.131085,51.956445],[1.130372,51.953522],[1.118978,51.956213],[1.114146,51.955749],[1.11073,51.954852],[1.109288,51.953979],[1.107427,51.953814],[1.103029,51.954061],[1.104222,51.954218],[1.102538,51.954454],[1.102776,51.955305],[1.102393,51.95557],[1.101126,51.955581],[1.101729,51.955258],[1.101698,51.954837],[1.10166,51.955193],[1.101003,51.955542],[1.100775,51.955082],[1.101117,51.955432],[1.101553,51.955114],[1.100955,51.954421],[1.101457,51.954618],[1.101536,51.954202],[1.100343,51.953956],[1.098935,51.954651],[1.099997,51.954326],[1.100839,51.955484],[1.098053,51.955649],[1.0948,51.956566],[1.095749,51.956183],[1.095274,51.956059],[1.093748,51.956832],[1.094574,51.956918],[1.094334,51.957511],[1.092691,51.957902],[1.092287,51.957718],[1.089253,51.95865],[1.085728,51.959009],[1.086308,51.958885],[1.084198,51.958537],[1.081511,51.956723],[1.076271,51.955359],[1.073077,51.955835],[1.071123,51.955457],[1.070386,51.955621],[1.070813,51.955161],[1.070402,51.955347],[1.069379,51.95533],[1.071001,51.954994],[1.071107,51.954514],[1.071203,51.954929],[1.071549,51.955101],[1.071752,51.954848],[1.071736,51.955229],[1.072362,51.955386],[1.072402,51.954974],[1.071986,51.954889],[1.071722,51.954538],[1.072173,51.954604],[1.072064,51.954871],[1.072636,51.954643],[1.072594,51.955202],[1.073172,51.954727],[1.072979,51.954193],[1.071623,51.953154],[1.070743,51.953041],[1.069675,51.953782],[1.070403,51.953606],[1.070468,51.953851],[1.069194,51.953934],[1.069739,51.954399],[1.070235,51.95432],[1.069859,51.954748],[1.069046,51.954528],[1.068875,51.953864],[1.068349,51.953819],[1.068751,51.953607],[1.068504,51.953217],[1.068155,51.953465],[1.0675,51.952545],[1.068013,51.953046],[1.068432,51.952827],[1.069044,51.953459],[1.069334,51.953278],[1.068356,51.952463],[1.067408,51.952313],[1.066959,51.949552],[1.065888,51.949016],[1.064836,51.949383],[1.064239,51.950049],[1.064027,51.951987],[1.063395,51.95274],[1.062326,51.95319],[1.060894,51.952844],[1.061773,51.95348],[1.060811,51.954663],[1.059384,51.955381],[1.059176,51.955934],[1.057991,51.955427],[1.059214,51.953977],[1.059355,51.953051],[1.060359,51.952267],[1.058026,51.951894],[1.057336,51.951491],[1.056795,51.951756],[1.056949,51.952078],[1.055682,51.953584],[1.054963,51.953797],[1.054047,51.9531],[1.053637,51.954066],[1.054373,51.954492],[1.05394,51.954641],[1.053108,51.954189],[1.05286,51.954666],[1.05324,51.95497],[1.052266,51.955418],[1.051698,51.95623],[1.05282,51.956631],[1.053198,51.95726],[1.052724,51.957363],[1.051864,51.956936],[1.05035,51.958455],[1.048105,51.959399],[1.045106,51.959646],[1.042475,51.959309],[1.041713,51.957399],[1.042083,51.956543],[1.039856,51.955933],[1.037917,51.956933],[1.036446,51.957037],[1.035459,51.957742],[1.034291,51.957236],[1.033137,51.957759],[1.031834,51.957357],[1.029038,51.957246],[1.028146,51.956633],[1.028087,51.956035],[1.0258,51.955883],[1.025551,51.954975],[1.023712,51.954987],[1.022858,51.954601],[1.021118,51.954451],[1.01996,51.954005],[1.019441,51.953336],[1.018696,51.953219],[1.017206,51.95393],[1.017098,51.95475],[1.016191,51.955386],[1.011562,51.95507],[1.011063,51.955519],[1.009002,51.956],[1.007593,51.957541],[1.006706,51.957638],[1.006559,51.958212],[1.004944,51.959499],[1.005457,51.960639],[1.00492,51.960949],[1.004395,51.962235],[1.001264,51.963405],[1.000143,51.963442],[0.99871,51.963967],[0.995236,51.963353],[0.992495,51.961766],[0.989083,51.961379],[0.982478,51.962119],[0.980292,51.961468],[0.975847,51.961268],[0.973891,51.962382],[0.970983,51.962408],[0.968685,51.963417],[0.968224,51.964109],[0.971455,51.966939],[0.972034,51.96843],[0.971305,51.969804],[0.970818,51.970086],[0.968797,51.970192],[0.96489,51.971961],[0.964735,51.972342],[0.965206,51.972775],[0.964249,51.972989],[0.964164,51.973656],[0.965339,51.974234],[0.965361,51.974721],[0.964615,51.975684],[0.963328,51.976157],[0.96334,51.977016],[0.962489,51.977166],[0.959041,51.976845],[0.957858,51.976259],[0.955935,51.976343],[0.953177,51.975189],[0.952688,51.974682],[0.953133,51.97405],[0.951284,51.972714],[0.94882,51.972509],[0.948173,51.972043],[0.947367,51.972067],[0.942911,51.97069],[0.939961,51.971421],[0.940094,51.971969],[0.939573,51.972367],[0.937263,51.972632],[0.935231,51.971934],[0.93106,51.971716],[0.930478,51.971216],[0.929387,51.971439],[0.927743,51.972319],[0.926675,51.974053],[0.926655,51.974845],[0.92524,51.976164],[0.922619,51.976158],[0.920948,51.974822],[0.919909,51.974818],[0.917089,51.973926],[0.915443,51.974096],[0.911055,51.973341],[0.909803,51.973537],[0.907504,51.972995],[0.903878,51.972914],[0.900374,51.973551],[0.897335,51.972273],[0.895704,51.972148],[0.894697,51.972647],[0.893623,51.972699],[0.892751,51.973439],[0.891555,51.973436],[0.891028,51.9728],[0.890328,51.972904],[0.889749,51.973424],[0.888723,51.972991],[0.887899,51.97175],[0.888164,51.970598],[0.886566,51.968445],[0.884019,51.967659],[0.883027,51.967775],[0.880613,51.966559],[0.878807,51.966753],[0.877648,51.966514],[0.876906,51.967115],[0.875828,51.966796],[0.872575,51.967241],[0.872441,51.967715],[0.873234,51.968478],[0.87254,51.969012],[0.871778,51.968905],[0.870351,51.969376],[0.866907,51.9692],[0.865517,51.968642],[0.862966,51.968229],[0.861891,51.96744],[0.861574,51.966728],[0.859061,51.965651],[0.858891,51.965209],[0.859477,51.964197],[0.858172,51.962878],[0.853884,51.962495],[0.85024,51.960767],[0.842091,51.961819],[0.841221,51.962159],[0.840212,51.963391],[0.835859,51.96473],[0.833469,51.966053],[0.8305,51.966336],[0.829928,51.96696],[0.826151,51.967721],[0.82465,51.96855],[0.821642,51.968719],[0.819839,51.968116],[0.818347,51.968246],[0.8164,51.967054],[0.815282,51.967054],[0.814145,51.965732],[0.813865,51.964308],[0.814554,51.963637],[0.813963,51.963116],[0.814159,51.962284],[0.812317,51.960936],[0.810877,51.960696],[0.809477,51.960821],[0.808018,51.96174],[0.799735,51.962362],[0.799076,51.963246],[0.795584,51.963759],[0.792897,51.963452],[0.790979,51.963654],[0.78996,51.963142],[0.789395,51.963423],[0.78721,51.963101],[0.785606,51.963927],[0.786364,51.966362],[0.785363,51.966743],[0.785147,51.967468],[0.782777,51.967659],[0.781469,51.966513],[0.77608,51.96752],[0.774313,51.96968],[0.772853,51.969798],[0.772261,51.970425],[0.772487,51.9709],[0.773712,51.971523],[0.773948,51.972141],[0.77305,51.974046],[0.772572,51.978104],[0.772702,51.979027],[0.774035,51.980136],[0.773874,51.98084],[0.774633,51.982592],[0.772696,51.982568],[0.771061,51.982081],[0.767099,51.983793],[0.762262,51.983932],[0.760469,51.984532],[0.759668,51.985429],[0.760127,51.986376],[0.75965,51.987018],[0.761689,51.988263],[0.762913,51.990866],[0.761541,51.993592],[0.759584,51.993763],[0.760341,51.994737],[0.759574,51.995448],[0.76048,51.995719],[0.760213,51.996594],[0.761103,51.996898],[0.761047,51.997547],[0.757432,51.99875],[0.752456,51.998583],[0.752029,51.999427],[0.751342,51.999261],[0.749864,51.999858],[0.749635,52.002169],[0.750479,52.003121],[0.749307,52.004397],[0.749159,52.00555],[0.746411,52.006701],[0.745332,52.006831],[0.745224,52.007778],[0.744039,52.00804],[0.743468,52.00752],[0.742571,52.007745],[0.74115,52.009333],[0.738655,52.01056],[0.738539,52.011524],[0.737816,52.01228],[0.739633,52.014315],[0.739433,52.014959],[0.741168,52.01497],[0.74241,52.016357],[0.741493,52.020265],[0.742328,52.020664],[0.74264,52.022714],[0.742292,52.023092],[0.74128,52.023214],[0.740782,52.025111],[0.741786,52.02729],[0.741727,52.029444],[0.740818,52.031034],[0.739056,52.032397],[0.738108,52.032173],[0.737233,52.032379],[0.719691,52.027903],[0.714397,52.027319],[0.712587,52.028318],[0.710574,52.028249],[0.706547,52.029535],[0.708336,52.032511],[0.710725,52.03306],[0.712531,52.034897],[0.703841,52.036148],[0.702444,52.037718],[0.698822,52.036711],[0.696441,52.039484],[0.696975,52.042972],[0.698683,52.04452],[0.698392,52.046859],[0.698991,52.04688],[0.699669,52.048298],[0.6994,52.048438],[0.700564,52.048491],[0.701197,52.048099],[0.70266,52.047889],[0.70313,52.047384],[0.703984,52.047325],[0.70986,52.048635],[0.71196,52.048441],[0.712709,52.049025],[0.713723,52.048596],[0.714156,52.048571],[0.714392,52.048952],[0.716263,52.048687],[0.716065,52.051167],[0.715034,52.051498],[0.714251,52.052272],[0.713089,52.052404],[0.713046,52.053212],[0.710868,52.053679],[0.711124,52.054413],[0.710592,52.055309],[0.710966,52.055558],[0.708877,52.056239],[0.708899,52.056905],[0.707847,52.057586],[0.706976,52.059989],[0.705952,52.060887],[0.704973,52.062674],[0.703568,52.063423],[0.703811,52.064797],[0.703178,52.065273],[0.70348,52.065865],[0.70404,52.06588],[0.704155,52.066429],[0.705158,52.066898],[0.707171,52.066796],[0.707652,52.066295],[0.70988,52.066987],[0.711338,52.068716],[0.710945,52.06998],[0.711834,52.070866],[0.712758,52.070994],[0.712051,52.071757],[0.712118,52.072242],[0.709478,52.073275],[0.708907,52.073118],[0.707726,52.073785],[0.706591,52.073855],[0.706279,52.074198],[0.706707,52.074686],[0.706295,52.075083],[0.706883,52.076745],[0.704806,52.078163],[0.703074,52.078495],[0.703027,52.07906],[0.702081,52.079495],[0.697675,52.079602],[0.694714,52.078711],[0.692969,52.078501],[0.692428,52.078729],[0.691753,52.07942],[0.689969,52.080093],[0.688142,52.083402],[0.688253,52.084776],[0.687693,52.085576],[0.684288,52.086947],[0.683117,52.08704],[0.68109,52.086454],[0.680866,52.085048],[0.678945,52.083886],[0.675973,52.084508],[0.675718,52.08393],[0.673795,52.084716],[0.672443,52.08617],[0.671684,52.085838],[0.670881,52.086103],[0.670243,52.085773],[0.668935,52.085818],[0.668467,52.086226],[0.665773,52.086024],[0.664403,52.085492],[0.664468,52.084993],[0.663253,52.084107],[0.660861,52.083699],[0.658611,52.085427],[0.656901,52.085442],[0.656536,52.086203],[0.654147,52.086168],[0.653953,52.087568],[0.654778,52.087618],[0.654722,52.08928],[0.655266,52.0909],[0.653528,52.095372],[0.653767,52.096616],[0.653189,52.09659],[0.652922,52.097607],[0.651256,52.099894],[0.649324,52.099544],[0.648847,52.100664],[0.650546,52.101204],[0.648642,52.102154],[0.647814,52.103007],[0.646816,52.1027],[0.643535,52.107449],[0.643125,52.107351],[0.642597,52.109],[0.643378,52.109078],[0.642393,52.110238],[0.638611,52.110103],[0.637978,52.113514],[0.637287,52.114662],[0.635704,52.114348],[0.634951,52.115377],[0.632675,52.115235],[0.633848,52.116881],[0.633989,52.118159],[0.636328,52.119412],[0.634964,52.121147],[0.635995,52.122231],[0.635828,52.12296],[0.634362,52.123061],[0.631827,52.122385],[0.63096,52.122529],[0.628663,52.124665],[0.630681,52.125428],[0.630797,52.12734],[0.633352,52.127713],[0.629538,52.127863],[0.628755,52.128737],[0.626895,52.128991],[0.626917,52.131],[0.632838,52.130569],[0.634345,52.13223],[0.635211,52.132641],[0.63633,52.132439],[0.637208,52.133393],[0.637945,52.13541],[0.636892,52.13607],[0.636109,52.136136],[0.638017,52.137883],[0.636308,52.140172],[0.63372,52.141376],[0.633374,52.14249],[0.634063,52.143471],[0.634614,52.143281],[0.636792,52.144014],[0.637785,52.143974],[0.638607,52.144623],[0.638491,52.144944],[0.640262,52.145818],[0.639587,52.146913],[0.637932,52.148069],[0.639129,52.148782],[0.637541,52.150233],[0.638879,52.150955],[0.639709,52.152982],[0.640182,52.152925],[0.641387,52.156285],[0.644205,52.155749],[0.64469,52.15635],[0.645611,52.156377],[0.646376,52.156945],[0.644616,52.158284],[0.645382,52.159128],[0.645374,52.160177],[0.649909,52.160411],[0.6536,52.161519],[0.656282,52.161001],[0.657854,52.161258],[0.661148,52.160527],[0.663418,52.160701],[0.66309,52.158661],[0.663713,52.156331],[0.66424,52.156357],[0.664178,52.15768],[0.66832,52.15809],[0.67347,52.159243],[0.67554,52.15926],[0.676708,52.158033],[0.676738,52.157533],[0.674132,52.157348],[0.674254,52.156731],[0.677087,52.157425],[0.68153,52.156036],[0.682044,52.155997],[0.684862,52.157825],[0.685243,52.15889],[0.686182,52.159311],[0.687018,52.158697],[0.687989,52.158665],[0.688961,52.157823],[0.6917,52.157581],[0.693041,52.162445],[0.692607,52.164438],[0.692947,52.165451],[0.692555,52.165874],[0.690872,52.166341],[0.692186,52.167134],[0.69347,52.166646],[0.694504,52.167271],[0.695034,52.168233],[0.695061,52.168944],[0.694398,52.168745],[0.694468,52.169031],[0.697329,52.170123],[0.697187,52.170622],[0.696124,52.171],[0.696187,52.172105],[0.695521,52.172415],[0.696498,52.173184],[0.69502,52.17308],[0.693156,52.175443],[0.69574,52.1756],[0.695185,52.176968],[0.695864,52.177601],[0.694232,52.180007],[0.698145,52.181308],[0.703341,52.181077],[0.704122,52.180272],[0.705997,52.179863],[0.707496,52.179076],[0.710616,52.178566],[0.714936,52.177285]],[[1.228158,51.956803],[1.227896,51.95657],[1.227282,51.957241],[1.226829,51.95746],[1.226019,51.957072],[1.227155,51.95728],[1.227915,51.956448],[1.228139,51.956387],[1.228158,51.956803]]]]}}]}