{"type":"FeatureCollection","features":[{"type":"Feature","properties":{"slug":"barnet","gss_code":"E09000003","name":"Barnet"},"geometry":{"type":"Polygon","coordinates":[[[-0.196614,51.668146],[-0.196159,51.66853],[-0.194852,51.668306],[-0.196665,51.665482],[-0.192531,51.664749],[-0.191067,51.663897],[-0.18779,51.667879],[-0.185804,51.66851],[-0.181961,51.668683],[-0.185866,51.662836],[-0.165094,51.65826],[-0.163545,51.658207],[-0.160438,51.656764],[-0.154732,51.655545],[-0.154617,51.654979],[-0.153598,51.65454],[-0.153394,51.653305],[-0.154194,51.652966],[-0.154004,51.65259],[-0.153528,51.652706],[-0.152559,51.651458],[-0.152255,51.649825],[-0.150945,51.650087],[-0.149868,51.64881],[-0.152228,51.647967],[-0.152305,51.647637],[-0.151074,51.647244],[-0.152122,51.645801],[-0.151554,51.645632],[-0.151634,51.645324],[-0.149177,51.645315],[-0.147829,51.642067],[-0.145018,51.642632],[-0.142287,51.63931],[-0.140219,51.637491],[-0.134519,51.634694],[-0.13442,51.633969],[-0.133973,51.63404],[-0.133269,51.633268],[-0.129094,51.632265],[-0.129777,51.630963],[-0.130164,51.631021],[-0.13114,51.629686],[-0.130434,51.629316],[-0.133368,51.626383],[-0.135039,51.622352],[-0.135504,51.6224],[-0.135414,51.621773],[-0.140511,51.617812],[-0.14128,51.617536],[-0.142033,51.61628],[-0.144495,51.615509],[-0.138706,51.610186],[-0.143425,51.608831],[-0.143147,51.606718],[-0.141973,51.603709],[-0.144172,51.601096],[-0.14447,51.600122],[-0.151331,51.597471],[-0.152946,51.599188],[-0.153406,51.602846],[-0.154673,51.604231],[-0.156083,51.605116],[-0.155863,51.605465],[-0.156341,51.605369],[-0.161761,51.597479],[-0.159691,51.592227],[-0.158864,51.592319],[-0.158686,51.591998],[-0.159432,51.591574],[-0.159756,51.589721],[-0.160161,51.589698],[-0.160235,51.587989],[-0.15863,51.588002],[-0.15868,51.586633],[-0.157401,51.586558],[-0.157131,51.586191],[-0.157897,51.58621],[-0.157941,51.585736],[-0.159617,51.584463],[-0.16134,51.585284],[-0.165721,51.583224],[-0.16619,51.582044],[-0.167036,51.581755],[-0.166813,51.578657],[-0.168063,51.576929],[-0.169314,51.577416],[-0.169705,51.576369],[-0.169444,51.573966],[-0.171199,51.573574],[-0.171232,51.572418],[-0.173376,51.571087],[-0.173714,51.569903],[-0.174382,51.569256],[-0.178122,51.570513],[-0.178304,51.570017],[-0.180987,51.569673],[-0.180818,51.569405],[-0.183672,51.567957],[-0.183388,51.567768],[-0.183761,51.567468],[-0.186142,51.566923],[-0.187143,51.566156],[-0.189645,51.565217],[-0.190346,51.562872],[-0.191123,51.561656],[-0.192289,51.561557],[-0.194827,51.560484],[-0.196726,51.560697],[-0.196775,51.559155],[-0.198307,51.558858],[-0.199511,51.557075],[-0.199372,51.55619],[-0.20578,51.555319],[-0.205967,51.55643],[-0.208837,51.555726],[-0.210011,51.556751],[-0.213487,51.555191],[-0.218498,51.559336],[-0.22066,51.561664],[-0.225465,51.565868],[-0.228794,51.567971],[-0.233417,51.571983],[-0.234561,51.571774],[-0.235669,51.57231],[-0.23548,51.572547],[-0.235859,51.572298],[-0.237612,51.572466],[-0.23816,51.572071],[-0.23799,51.571777],[-0.238849,51.572238],[-0.24001,51.572095],[-0.24005,51.572382],[-0.241131,51.57213],[-0.241374,51.572719],[-0.242453,51.572816],[-0.242428,51.5725],[-0.243896,51.572306],[-0.244199,51.572584],[-0.245217,51.571917],[-0.245963,51.572216],[-0.246734,51.571588],[-0.245966,51.571008],[-0.24655,51.570024],[-0.246072,51.569808],[-0.246541,51.569035],[-0.247362,51.568957],[-0.247002,51.568619],[-0.248565,51.568511],[-0.252514,51.571518],[-0.253053,51.572395],[-0.251265,51.573154],[-0.252679,51.575144],[-0.254545,51.579772],[-0.254264,51.581669],[-0.251729,51.583376],[-0.248234,51.584314],[-0.252945,51.588901],[-0.257548,51.592175],[-0.28103,51.612272],[-0.287385,51.617016],[-0.304461,51.632034],[-0.305574,51.634121],[-0.30445,51.636349],[-0.303785,51.636485],[-0.296127,51.635447],[-0.294383,51.63565],[-0.291868,51.636478],[-0.287787,51.636513],[-0.2855,51.636949],[-0.283874,51.637795],[-0.281391,51.638346],[-0.278613,51.638323],[-0.276475,51.638868],[-0.273714,51.638674],[-0.274176,51.639308],[-0.272866,51.642099],[-0.268247,51.642386],[-0.268346,51.643834],[-0.266767,51.644111],[-0.265211,51.644021],[-0.264359,51.643627],[-0.263272,51.644833],[-0.261605,51.643992],[-0.260713,51.642673],[-0.257368,51.641822],[-0.256181,51.643506],[-0.255488,51.643245],[-0.254489,51.64368],[-0.251557,51.647953],[-0.249856,51.654615],[-0.250791,51.65481],[-0.25125,51.655539],[-0.250583,51.656057],[-0.249348,51.656058],[-0.247866,51.655248],[-0.243625,51.656689],[-0.241365,51.657205],[-0.240994,51.656836],[-0.239199,51.657399],[-0.237971,51.657789],[-0.238276,51.65825],[-0.236678,51.658775],[-0.234707,51.659001],[-0.234228,51.658253],[-0.228919,51.659976],[-0.228489,51.659966],[-0.228058,51.658592],[-0.226463,51.657162],[-0.226044,51.657626],[-0.219801,51.660661],[-0.219247,51.6608],[-0.218895,51.660062],[-0.213393,51.662378],[-0.212135,51.661354],[-0.207864,51.662861],[-0.211134,51.666955],[-0.209839,51.667563],[-0.207959,51.666594],[-0.205634,51.668601],[-0.20223,51.667805],[-0.202608,51.669315],[-0.203353,51.670126],[-0.199872,51.67017],[-0.199005,51.668207],[-0.196614,51.668146]]]}}]}