{"type":"FeatureCollection","features":[{"type":"Feature","properties":{"slug":"basildon","gss_code":"E07000066","name":"Basildon"},"geometry":{"type":"MultiPolygon","coordinates":[[[[0.542245,51.534451],[0.541675,51.534586],[0.542432,51.535082],[0.542785,51.534805],[0.542245,51.534451]]],[[[0.542842,51.534864],[0.542476,51.535211],[0.542834,51.535882],[0.542842,51.534864]]],[[[0.556303,51.61675],[0.556091,51.616784],[0.557797,51.61689],[0.556303,51.61675]]],[[[0.560801,51.617171],[0.56103,51.617265],[0.560833,51.617174],[0.560801,51.617171]]],[[[0.412227,51.649854],[0.41273,51.650122],[0.423375,51.649462],[0.428925,51.649763],[0.433809,51.64951],[0.439973,51.64706],[0.442935,51.646655],[0.441955,51.644187],[0.445852,51.643484],[0.446933,51.641517],[0.445928,51.641203],[0.443387,51.638862],[0.442893,51.636998],[0.444163,51.633164],[0.44622,51.630629],[0.445511,51.630468],[0.446296,51.629536],[0.446192,51.628488],[0.446828,51.626669],[0.455173,51.62464],[0.457965,51.624292],[0.458963,51.623828],[0.465828,51.623467],[0.478191,51.625404],[0.481465,51.625558],[0.490705,51.624326],[0.50483,51.621716],[0.505449,51.621929],[0.504821,51.624372],[0.506807,51.624957],[0.508742,51.625121],[0.508603,51.625719],[0.51145,51.625912],[0.512896,51.626631],[0.514611,51.626965],[0.515594,51.624431],[0.52026,51.62541],[0.520805,51.624477],[0.520425,51.623124],[0.521083,51.6211],[0.520823,51.618791],[0.529067,51.620248],[0.530546,51.620063],[0.531877,51.61945],[0.5362,51.620326],[0.537579,51.619616],[0.538208,51.619839],[0.538573,51.620449],[0.540988,51.620877],[0.542476,51.620797],[0.543549,51.619726],[0.54473,51.619676],[0.543608,51.618299],[0.544433,51.617905],[0.545119,51.618137],[0.546813,51.617644],[0.549569,51.617987],[0.552204,51.617817],[0.554126,51.617472],[0.554061,51.617107],[0.551501,51.617755],[0.554049,51.617043],[0.554384,51.616677],[0.556849,51.616707],[0.560569,51.617015],[0.562562,51.617832],[0.563478,51.617612],[0.563914,51.616395],[0.563727,51.614513],[0.561828,51.614415],[0.561622,51.612476],[0.558249,51.610645],[0.556646,51.608395],[0.553641,51.609023],[0.551545,51.608848],[0.550502,51.603308],[0.549349,51.602337],[0.549785,51.598181],[0.549035,51.596578],[0.565567,51.593858],[0.563742,51.591586],[0.562744,51.590886],[0.562298,51.589356],[0.565448,51.58865],[0.566252,51.587783],[0.567866,51.587226],[0.568791,51.587317],[0.568426,51.586578],[0.568017,51.58667],[0.567041,51.585512],[0.564659,51.583873],[0.557592,51.580609],[0.54943,51.577427],[0.545145,51.57476],[0.54299,51.57192],[0.542233,51.569446],[0.542277,51.567836],[0.542725,51.567449],[0.543802,51.567284],[0.543364,51.566318],[0.542329,51.565753],[0.541724,51.565765],[0.541552,51.564069],[0.539692,51.56008],[0.539741,51.558883],[0.538265,51.556039],[0.538147,51.555388],[0.538663,51.555435],[0.537992,51.554659],[0.538587,51.554313],[0.538062,51.554328],[0.539107,51.551732],[0.541721,51.548491],[0.542252,51.548472],[0.544327,51.546272],[0.542808,51.54511],[0.543606,51.545196],[0.54418,51.545797],[0.543168,51.544003],[0.543827,51.542025],[0.5436,51.541887],[0.543462,51.542442],[0.543619,51.541118],[0.543683,51.541837],[0.543909,51.541448],[0.543248,51.538718],[0.543667,51.539012],[0.542741,51.537246],[0.542392,51.535087],[0.541031,51.534405],[0.542025,51.53437],[0.540114,51.534436],[0.540566,51.534293],[0.538568,51.533947],[0.536304,51.531827],[0.535327,51.531403],[0.535543,51.531277],[0.533328,51.530948],[0.530803,51.531823],[0.52882,51.53178],[0.528572,51.532219],[0.53049,51.531908],[0.52814,51.532494],[0.527932,51.532997],[0.527414,51.532821],[0.527592,51.533086],[0.527167,51.533036],[0.527271,51.532706],[0.528338,51.531995],[0.527052,51.532464],[0.526917,51.53295],[0.526584,51.532607],[0.522515,51.532834],[0.520025,51.531936],[0.519566,51.531335],[0.519448,51.53174],[0.519383,51.531263],[0.51878,51.531282],[0.518977,51.531106],[0.516829,51.53002],[0.513719,51.531129],[0.511509,51.534028],[0.511225,51.533937],[0.509259,51.535501],[0.509426,51.536636],[0.507744,51.538993],[0.50722,51.541918],[0.505664,51.544044],[0.506551,51.544813],[0.504418,51.544847],[0.504888,51.545104],[0.504364,51.544926],[0.50436,51.544619],[0.505391,51.544348],[0.505359,51.543964],[0.50069,51.54549],[0.497226,51.547542],[0.497201,51.547893],[0.497509,51.547516],[0.498405,51.547138],[0.498197,51.547443],[0.498533,51.547674],[0.498279,51.547581],[0.498056,51.547315],[0.49734,51.547804],[0.498282,51.54785],[0.498502,51.548117],[0.497725,51.548248],[0.498322,51.547929],[0.497347,51.547875],[0.496974,51.548789],[0.497474,51.548533],[0.497395,51.54877],[0.496994,51.548824],[0.496898,51.548728],[0.497196,51.547952],[0.496951,51.547886],[0.496538,51.54863],[0.498749,51.550291],[0.500089,51.550766],[0.50056,51.552011],[0.502618,51.552398],[0.503161,51.553054],[0.502496,51.5534],[0.502204,51.553095],[0.50275,51.552815],[0.501872,51.55288],[0.50033,51.552435],[0.499627,51.550736],[0.498079,51.550555],[0.496089,51.549073],[0.496714,51.547417],[0.499924,51.545293],[0.497609,51.545275],[0.495314,51.546155],[0.49389,51.547187],[0.493003,51.548632],[0.493202,51.550082],[0.494888,51.551416],[0.495519,51.552759],[0.496213,51.553356],[0.496544,51.553277],[0.496569,51.553708],[0.498025,51.554094],[0.497276,51.554191],[0.498687,51.554957],[0.499427,51.555992],[0.499972,51.555969],[0.501262,51.557021],[0.502577,51.557282],[0.504768,51.558641],[0.502713,51.559125],[0.503813,51.558647],[0.502951,51.558491],[0.503367,51.558382],[0.503053,51.558156],[0.502542,51.558438],[0.503079,51.558057],[0.502238,51.55804],[0.502694,51.557818],[0.502093,51.557499],[0.501565,51.55782],[0.502025,51.557456],[0.50172,51.557359],[0.500911,51.557421],[0.500784,51.557745],[0.501133,51.557769],[0.50073,51.557875],[0.501125,51.557988],[0.500697,51.557964],[0.50058,51.558255],[0.501822,51.558732],[0.500103,51.558236],[0.500508,51.558258],[0.500877,51.557272],[0.499928,51.557119],[0.50027,51.558035],[0.499794,51.556998],[0.500584,51.556962],[0.499974,51.556613],[0.499105,51.556654],[0.499246,51.55646],[0.497879,51.555679],[0.496889,51.554586],[0.496429,51.554687],[0.496689,51.554485],[0.494582,51.552906],[0.4916,51.554273],[0.491945,51.554818],[0.4911,51.555856],[0.490462,51.555936],[0.491205,51.555554],[0.490992,51.555248],[0.490325,51.555559],[0.489156,51.555045],[0.489852,51.554903],[0.489604,51.555182],[0.490169,51.555227],[0.491247,51.55411],[0.493843,51.552801],[0.49361,51.552492],[0.493932,51.55279],[0.494193,51.552578],[0.492306,51.549891],[0.491939,51.550109],[0.492368,51.55024],[0.492515,51.550345],[0.492535,51.550875],[0.492399,51.550279],[0.491865,51.550148],[0.492303,51.549025],[0.49187,51.548893],[0.494449,51.545722],[0.49764,51.544642],[0.502928,51.544097],[0.503642,51.543829],[0.503104,51.543702],[0.503193,51.543413],[0.502847,51.543504],[0.503222,51.54337],[0.503864,51.543741],[0.505598,51.542659],[0.505636,51.542405],[0.50494,51.542543],[0.503922,51.543269],[0.504448,51.542847],[0.504089,51.54275],[0.504616,51.542674],[0.50423,51.542536],[0.505153,51.542462],[0.504444,51.542119],[0.505245,51.542424],[0.505928,51.542199],[0.505097,51.541965],[0.504993,51.541772],[0.504508,51.541958],[0.50454,51.541707],[0.505077,51.541715],[0.505774,51.542133],[0.506137,51.541749],[0.506061,51.541433],[0.505468,51.541378],[0.506155,51.541235],[0.504601,51.541206],[0.504651,51.540998],[0.506154,51.541188],[0.50618,51.540973],[0.505148,51.541055],[0.504395,51.540596],[0.505179,51.541032],[0.506175,51.540911],[0.505949,51.540599],[0.506282,51.540502],[0.504371,51.540509],[0.503789,51.539882],[0.504373,51.540474],[0.506228,51.540435],[0.505688,51.540321],[0.506304,51.539974],[0.505427,51.540116],[0.504737,51.539894],[0.505454,51.540084],[0.506197,51.539779],[0.504622,51.539658],[0.506415,51.539725],[0.505438,51.539299],[0.505849,51.538941],[0.505696,51.539391],[0.506505,51.539539],[0.506689,51.539087],[0.506188,51.538932],[0.506757,51.53897],[0.506391,51.538669],[0.506824,51.53872],[0.507193,51.537504],[0.505966,51.538692],[0.504054,51.539179],[0.503465,51.539028],[0.50412,51.539406],[0.503809,51.5397],[0.503306,51.538969],[0.502885,51.539004],[0.503179,51.539189],[0.50229,51.538683],[0.499614,51.538586],[0.49985,51.538215],[0.49917,51.538683],[0.49873,51.538679],[0.499142,51.538615],[0.498937,51.538476],[0.496708,51.53895],[0.495863,51.538817],[0.49164,51.540133],[0.490163,51.541271],[0.491593,51.54261],[0.49157,51.54353],[0.49052,51.544053],[0.488276,51.543089],[0.487089,51.543221],[0.486965,51.543696],[0.487929,51.544996],[0.487328,51.545569],[0.485522,51.545814],[0.485755,51.547014],[0.48492,51.547808],[0.481835,51.548607],[0.477733,51.547218],[0.475099,51.54709],[0.474153,51.546373],[0.469776,51.547108],[0.466802,51.546683],[0.467068,51.547193],[0.46571,51.549327],[0.461697,51.553689],[0.459163,51.552213],[0.457978,51.552762],[0.452354,51.551933],[0.450106,51.55117],[0.44694,51.55089],[0.446014,51.551176],[0.445827,51.549304],[0.443471,51.548966],[0.444221,51.547702],[0.442932,51.547374],[0.443801,51.546414],[0.439937,51.545114],[0.439064,51.546423],[0.437534,51.546159],[0.437334,51.546532],[0.436556,51.546539],[0.43581,51.549191],[0.435351,51.54952],[0.431001,51.549723],[0.430674,51.548867],[0.429936,51.548816],[0.4304,51.546005],[0.428776,51.545692],[0.428497,51.545188],[0.42765,51.545099],[0.426483,51.548466],[0.424787,51.548085],[0.424907,51.550016],[0.426622,51.551859],[0.424437,51.552784],[0.423802,51.551957],[0.418891,51.550537],[0.417972,51.551082],[0.421148,51.553014],[0.418649,51.55667],[0.415974,51.557376],[0.408584,51.55752],[0.402236,51.558483],[0.399231,51.558232],[0.398614,51.557814],[0.393501,51.557711],[0.392141,51.562431],[0.391753,51.567191],[0.385891,51.565724],[0.382605,51.565824],[0.381723,51.568301],[0.383666,51.56977],[0.382718,51.571954],[0.383655,51.572105],[0.382973,51.573691],[0.383239,51.576756],[0.38129,51.585001],[0.38603,51.585919],[0.384817,51.591202],[0.383425,51.593461],[0.383914,51.593711],[0.382657,51.594266],[0.38189,51.595536],[0.382798,51.598087],[0.383609,51.598724],[0.382535,51.599546],[0.379358,51.60358],[0.377698,51.612107],[0.375772,51.614889],[0.375127,51.615173],[0.376266,51.615872],[0.376663,51.615758],[0.378699,51.616602],[0.384227,51.619565],[0.385021,51.623232],[0.386967,51.626089],[0.386819,51.626937],[0.387626,51.628343],[0.387207,51.629755],[0.385856,51.631031],[0.386242,51.631466],[0.385213,51.632802],[0.3871,51.636089],[0.387127,51.636762],[0.386759,51.636901],[0.387415,51.637741],[0.387754,51.637629],[0.38996,51.639168],[0.390431,51.639009],[0.391084,51.639429],[0.391942,51.639245],[0.392116,51.63966],[0.392671,51.639598],[0.394386,51.641519],[0.394856,51.643224],[0.394487,51.643957],[0.394871,51.644464],[0.395678,51.64435],[0.396408,51.644897],[0.398848,51.64478],[0.39938,51.645226],[0.40023,51.645127],[0.400846,51.645611],[0.401324,51.645482],[0.401472,51.64602],[0.403019,51.645825],[0.402881,51.646858],[0.403656,51.647468],[0.402467,51.647534],[0.401933,51.647946],[0.402242,51.648524],[0.402574,51.648373],[0.402875,51.649672],[0.402583,51.649903],[0.402252,51.649555],[0.401817,51.649752],[0.402179,51.650982],[0.410224,51.651205],[0.412227,51.649854]]]]}}]}