{"type":"FeatureCollection","features":[{"type":"Feature","properties":{"slug":"basingstoke-and-deane","gss_code":"E07000084","name":"Basingstoke and Deane"},"geometry":{"type":"Polygon","coordinates":[[[-1.077575,51.374582],[-1.072512,51.375276],[-1.069229,51.373228],[-1.068936,51.373509],[-1.066634,51.372427],[-1.065774,51.372321],[-1.062549,51.369882],[-1.063061,51.369099],[-1.062202,51.367686],[-1.060147,51.368215],[-1.059255,51.367493],[-1.059123,51.366209],[-1.058524,51.365714],[-1.055879,51.365066],[-1.055356,51.363497],[-1.053132,51.362295],[-1.051514,51.362626],[-1.050235,51.359938],[-1.050081,51.358109],[-1.022647,51.359073],[-1.011123,51.35917],[-1.008568,51.35943],[-1.004686,51.360527],[-1.002306,51.360289],[-1.000223,51.362668],[-0.999262,51.361559],[-0.996317,51.36228],[-0.992872,51.36257],[-0.992905,51.361454],[-0.990768,51.362568],[-0.99017,51.363228],[-0.988846,51.362915],[-0.987568,51.361968],[-0.986875,51.362047],[-0.987144,51.362564],[-0.986124,51.362848],[-0.985483,51.362026],[-0.985713,51.361481],[-0.986685,51.36139],[-0.987922,51.360717],[-0.987539,51.360113],[-0.98674,51.359856],[-0.986711,51.358236],[-0.988298,51.355503],[-0.988785,51.351432],[-0.994627,51.346863],[-0.993845,51.344455],[-0.994604,51.342311],[-0.992315,51.342191],[-0.990737,51.342652],[-0.990365,51.341426],[-0.989506,51.340467],[-0.990154,51.339406],[-0.991674,51.338704],[-0.981929,51.337606],[-0.981001,51.337229],[-0.982162,51.333921],[-0.981865,51.331124],[-0.983481,51.330395],[-0.983744,51.32992],[-0.98382,51.329033],[-0.98311,51.328255],[-0.982573,51.32618],[-0.984984,51.325595],[-0.985338,51.324581],[-0.986836,51.323876],[-0.98708,51.322888],[-0.986589,51.320418],[-0.986826,51.317023],[-0.985431,51.314371],[-0.985258,51.312399],[-0.983887,51.310021],[-0.984275,51.306833],[-0.986435,51.306772],[-0.988961,51.304389],[-0.990237,51.304172],[-0.990609,51.303536],[-0.993342,51.303536],[-0.995655,51.299222],[-0.995397,51.298696],[-0.998417,51.299972],[-1.001217,51.300232],[-1.001074,51.298098],[-1.002278,51.293989],[-1.001057,51.293221],[-1.001229,51.292557],[-1.000717,51.291824],[-1.001259,51.291619],[-1.000905,51.290969],[-1.001244,51.29013],[-1.000801,51.290279],[-1.000221,51.289221],[-0.996383,51.288461],[-0.995692,51.288682],[-0.99214,51.288123],[-0.991085,51.287548],[-0.987986,51.286945],[-0.981726,51.286631],[-0.982396,51.283764],[-0.984167,51.282348],[-0.982127,51.282211],[-0.983088,51.280375],[-0.981466,51.278435],[-0.981481,51.277575],[-0.978043,51.275129],[-0.979519,51.273342],[-0.980115,51.271212],[-0.979751,51.270123],[-0.979856,51.265212],[-0.9808,51.261625],[-0.982109,51.260994],[-0.98263,51.260331],[-0.983167,51.257864],[-0.984169,51.256542],[-0.985799,51.25535],[-0.985393,51.254914],[-0.989751,51.252432],[-0.990387,51.251639],[-0.990161,51.250833],[-0.989066,51.250148],[-0.992143,51.248157],[-0.991014,51.247383],[-0.99258,51.246324],[-0.992936,51.245723],[-0.992665,51.245575],[-0.993708,51.244417],[-0.990764,51.243807],[-0.98766,51.243843],[-0.978818,51.242084],[-0.976765,51.241194],[-0.974796,51.238519],[-0.977205,51.237825],[-0.976238,51.237048],[-0.978313,51.235607],[-0.98311,51.235308],[-0.98314,51.233345],[-0.982194,51.231024],[-0.979891,51.229213],[-0.976961,51.230063],[-0.976049,51.229058],[-0.976097,51.227628],[-0.975475,51.225915],[-0.97732,51.225026],[-0.978683,51.224746],[-0.978933,51.2236],[-0.981362,51.224313],[-0.983282,51.223079],[-0.98165,51.221933],[-0.978101,51.220484],[-0.980363,51.218508],[-0.981692,51.216294],[-0.982722,51.215629],[-0.98416,51.212428],[-0.984266,51.209524],[-0.983479,51.208299],[-0.983043,51.205862],[-0.986275,51.2032],[-0.986414,51.200076],[-0.985312,51.196673],[-0.984732,51.192918],[-0.985883,51.190436],[-0.989489,51.19087],[-0.994322,51.189945],[-0.997205,51.190039],[-1.001029,51.189201],[-1.002701,51.189296],[-1.004081,51.188954],[-1.004886,51.189715],[-1.008114,51.189958],[-1.010902,51.188411],[-1.01313,51.187742],[-1.019929,51.188791],[-1.023384,51.189861],[-1.029665,51.189966],[-1.035691,51.190707],[-1.044309,51.189697],[-1.050027,51.187934],[-1.052002,51.189066],[-1.057253,51.189167],[-1.061782,51.18873],[-1.061691,51.190518],[-1.071104,51.187756],[-1.073415,51.185326],[-1.074688,51.180719],[-1.07601,51.179199],[-1.076197,51.177735],[-1.074854,51.175105],[-1.077324,51.173285],[-1.077471,51.172736],[-1.07425,51.164452],[-1.075018,51.164293],[-1.080536,51.165004],[-1.082776,51.16569],[-1.08502,51.16714],[-1.087378,51.16769],[-1.094188,51.165735],[-1.096201,51.164702],[-1.09931,51.163971],[-1.100453,51.16312],[-1.104921,51.163149],[-1.107218,51.161356],[-1.109053,51.158583],[-1.11179,51.156335],[-1.116265,51.153679],[-1.117532,51.152397],[-1.117242,51.151433],[-1.122234,51.149976],[-1.126115,51.148161],[-1.130483,51.145546],[-1.13179,51.143581],[-1.138532,51.141761],[-1.141183,51.140453],[-1.142691,51.141313],[-1.147008,51.139733],[-1.151782,51.138973],[-1.151782,51.137166],[-1.151011,51.136177],[-1.155839,51.135977],[-1.156593,51.136302],[-1.162264,51.134702],[-1.168264,51.13483],[-1.174289,51.13354],[-1.178136,51.134055],[-1.186566,51.138181],[-1.183781,51.140683],[-1.184227,51.142581],[-1.184775,51.142999],[-1.184268,51.143481],[-1.184445,51.144311],[-1.190136,51.146688],[-1.189993,51.146914],[-1.196048,51.14878],[-1.198658,51.150003],[-1.200738,51.150383],[-1.208597,51.150488],[-1.210612,51.151553],[-1.213299,51.151947],[-1.213665,51.152532],[-1.213343,51.155706],[-1.214406,51.157579],[-1.21438,51.158774],[-1.211346,51.158864],[-1.209773,51.159289],[-1.208119,51.160091],[-1.207432,51.161127],[-1.205939,51.161569],[-1.196997,51.161082],[-1.193355,51.162919],[-1.18931,51.163774],[-1.185572,51.163989],[-1.186849,51.165071],[-1.182239,51.170447],[-1.181696,51.17525],[-1.188986,51.176728],[-1.192921,51.179377],[-1.189594,51.182411],[-1.190307,51.183765],[-1.191663,51.18472],[-1.192852,51.184686],[-1.194878,51.185193],[-1.1963,51.184879],[-1.197021,51.184249],[-1.19778,51.184217],[-1.197969,51.185177],[-1.198869,51.185183],[-1.199634,51.185635],[-1.201232,51.185605],[-1.202241,51.185192],[-1.206561,51.180702],[-1.207071,51.18131],[-1.213977,51.184108],[-1.217218,51.184736],[-1.221196,51.186445],[-1.224746,51.18903],[-1.227853,51.190486],[-1.231699,51.191007],[-1.241085,51.191316],[-1.24861,51.191094],[-1.253077,51.190508],[-1.254492,51.191979],[-1.258841,51.19321],[-1.262203,51.193659],[-1.270531,51.193676],[-1.271178,51.193798],[-1.271356,51.194252],[-1.272773,51.194295],[-1.272884,51.19474],[-1.274209,51.194876],[-1.279167,51.19399],[-1.279435,51.1952],[-1.280427,51.194996],[-1.281945,51.193959],[-1.282576,51.194972],[-1.285269,51.195102],[-1.287419,51.196236],[-1.287796,51.195539],[-1.289954,51.194243],[-1.292713,51.194414],[-1.294997,51.195077],[-1.295082,51.195988],[-1.298939,51.197034],[-1.305492,51.195637],[-1.305776,51.195135],[-1.306478,51.194891],[-1.30716,51.19542],[-1.308728,51.195649],[-1.308823,51.194739],[-1.31032,51.194526],[-1.31256,51.193587],[-1.320657,51.191483],[-1.323508,51.191325],[-1.327721,51.190505],[-1.332197,51.187725],[-1.340939,51.184579],[-1.341677,51.187036],[-1.339535,51.196093],[-1.339116,51.199883],[-1.341083,51.204461],[-1.340604,51.204949],[-1.341612,51.205654],[-1.352778,51.210666],[-1.358178,51.212021],[-1.360256,51.210019],[-1.359194,51.208243],[-1.360278,51.206286],[-1.360041,51.204567],[-1.362059,51.202958],[-1.362366,51.20319],[-1.363259,51.202962],[-1.365397,51.201956],[-1.366842,51.202977],[-1.368862,51.202407],[-1.37263,51.205032],[-1.373958,51.206526],[-1.375997,51.20722],[-1.37915,51.209202],[-1.38168,51.211795],[-1.383666,51.2149],[-1.385891,51.214427],[-1.388546,51.214746],[-1.396575,51.217346],[-1.400097,51.219501],[-1.401332,51.219893],[-1.404796,51.219991],[-1.408667,51.221164],[-1.421091,51.223736],[-1.421342,51.224945],[-1.422743,51.225359],[-1.42602,51.224908],[-1.428095,51.225036],[-1.427011,51.230324],[-1.427465,51.23307],[-1.429855,51.235224],[-1.433284,51.236524],[-1.441325,51.245383],[-1.442967,51.247843],[-1.445055,51.249624],[-1.44708,51.250872],[-1.45167,51.252648],[-1.458256,51.254094],[-1.460152,51.255891],[-1.459599,51.256777],[-1.459587,51.258006],[-1.458467,51.259656],[-1.456689,51.261002],[-1.455205,51.26151],[-1.450465,51.265534],[-1.44905,51.265437],[-1.448329,51.266115],[-1.44566,51.267114],[-1.44695,51.267919],[-1.444173,51.26907],[-1.440486,51.271808],[-1.43993,51.271485],[-1.438113,51.272971],[-1.434536,51.274422],[-1.428981,51.275426],[-1.422059,51.27741],[-1.420604,51.278302],[-1.41875,51.280133],[-1.416766,51.283069],[-1.416761,51.285449],[-1.418954,51.290858],[-1.419261,51.293027],[-1.420668,51.293971],[-1.424491,51.295003],[-1.424891,51.294785],[-1.425106,51.29541],[-1.428298,51.297967],[-1.428651,51.30039],[-1.427848,51.300451],[-1.426065,51.303359],[-1.426504,51.307706],[-1.42481,51.310219],[-1.425804,51.31337],[-1.424988,51.31353],[-1.424938,51.31539],[-1.423918,51.315463],[-1.42339,51.316368],[-1.421225,51.316378],[-1.420626,51.31697],[-1.421325,51.31783],[-1.420981,51.321012],[-1.419368,51.323393],[-1.419149,51.325595],[-1.418409,51.326478],[-1.418627,51.327041],[-1.420052,51.327203],[-1.421116,51.329231],[-1.423303,51.330924],[-1.423187,51.331827],[-1.421259,51.333948],[-1.421336,51.335552],[-1.425887,51.337244],[-1.429706,51.336544],[-1.433121,51.340145],[-1.433462,51.341131],[-1.436732,51.343157],[-1.441168,51.346564],[-1.444878,51.348098],[-1.444263,51.348798],[-1.443578,51.351771],[-1.444116,51.354914],[-1.440481,51.355564],[-1.432355,51.355787],[-1.428355,51.356767],[-1.427738,51.357651],[-1.427602,51.359067],[-1.427315,51.359016],[-1.426821,51.360035],[-1.422428,51.362865],[-1.421691,51.364403],[-1.419123,51.366651],[-1.419043,51.367702],[-1.417603,51.370724],[-1.415466,51.371989],[-1.411113,51.372858],[-1.409343,51.372256],[-1.407103,51.372708],[-1.404914,51.372087],[-1.40194,51.372137],[-1.401423,51.371535],[-1.396608,51.371262],[-1.393514,51.370471],[-1.390789,51.370582],[-1.387835,51.370272],[-1.385248,51.369414],[-1.382736,51.369127],[-1.377869,51.367779],[-1.376147,51.368313],[-1.373578,51.367811],[-1.371902,51.368418],[-1.368638,51.367955],[-1.366273,51.368581],[-1.365205,51.368403],[-1.363785,51.368646],[-1.363273,51.36825],[-1.362668,51.368364],[-1.361755,51.367833],[-1.360562,51.367878],[-1.359587,51.367474],[-1.359126,51.367746],[-1.358267,51.367535],[-1.357399,51.367964],[-1.355523,51.367951],[-1.354761,51.367474],[-1.35288,51.367262],[-1.351856,51.367808],[-1.350445,51.367181],[-1.348738,51.367206],[-1.347139,51.368125],[-1.345844,51.368246],[-1.345407,51.368843],[-1.343946,51.369114],[-1.342874,51.369097],[-1.341211,51.368529],[-1.340383,51.369022],[-1.340042,51.368739],[-1.338359,51.368572],[-1.337319,51.369407],[-1.336829,51.369041],[-1.336525,51.369303],[-1.334456,51.369389],[-1.333372,51.370448],[-1.329966,51.371313],[-1.329243,51.371161],[-1.328248,51.371809],[-1.327638,51.371439],[-1.327441,51.371684],[-1.326463,51.371659],[-1.324752,51.37253],[-1.324112,51.372055],[-1.322411,51.371613],[-1.320662,51.372632],[-1.315141,51.37309],[-1.314576,51.372725],[-1.312059,51.373033],[-1.311338,51.372803],[-1.310945,51.372215],[-1.309323,51.371714],[-1.307205,51.371253],[-1.303923,51.371182],[-1.30334,51.370832],[-1.300871,51.370995],[-1.298196,51.370519],[-1.296745,51.370715],[-1.296773,51.370428],[-1.29607,51.370304],[-1.296031,51.370574],[-1.293287,51.371055],[-1.292643,51.370349],[-1.292043,51.370431],[-1.291642,51.370036],[-1.290002,51.370067],[-1.289904,51.369544],[-1.287585,51.368192],[-1.28682,51.368246],[-1.287124,51.36794],[-1.286811,51.367825],[-1.284594,51.367999],[-1.283958,51.367642],[-1.282941,51.367638],[-1.282758,51.368094],[-1.282192,51.367964],[-1.281434,51.368351],[-1.279989,51.368347],[-1.278242,51.368815],[-1.277335,51.368046],[-1.276667,51.368149],[-1.276017,51.367347],[-1.27341,51.367521],[-1.270929,51.368435],[-1.269663,51.369431],[-1.269803,51.370377],[-1.267807,51.370321],[-1.265443,51.370814],[-1.26424,51.370611],[-1.263795,51.37016],[-1.262995,51.370136],[-1.262811,51.368591],[-1.262187,51.368379],[-1.260576,51.369584],[-1.259071,51.370167],[-1.259192,51.371422],[-1.25738,51.372114],[-1.256571,51.371827],[-1.254524,51.372077],[-1.253873,51.371439],[-1.252977,51.372022],[-1.251281,51.371826],[-1.25114,51.372041],[-1.25037,51.371629],[-1.248556,51.371826],[-1.247826,51.370742],[-1.246989,51.3711],[-1.247084,51.370201],[-1.247836,51.369809],[-1.247242,51.369472],[-1.246448,51.369531],[-1.246147,51.368407],[-1.245213,51.368108],[-1.244751,51.367418],[-1.243187,51.367832],[-1.243176,51.367114],[-1.242033,51.366905],[-1.241579,51.366222],[-1.240141,51.366232],[-1.240035,51.366561],[-1.238709,51.366752],[-1.238685,51.367211],[-1.238039,51.366833],[-1.236877,51.367189],[-1.236381,51.36702],[-1.235912,51.367571],[-1.234826,51.367056],[-1.234427,51.367599],[-1.233313,51.367133],[-1.232154,51.367675],[-1.231455,51.367473],[-1.229734,51.368011],[-1.228928,51.367845],[-1.228553,51.368281],[-1.227398,51.368307],[-1.22692,51.368498],[-1.227025,51.368788],[-1.225073,51.369504],[-1.223895,51.369185],[-1.222588,51.369754],[-1.221987,51.369452],[-1.222205,51.368694],[-1.221016,51.368586],[-1.221795,51.367785],[-1.220624,51.367517],[-1.220757,51.366938],[-1.220009,51.366851],[-1.219657,51.366344],[-1.218309,51.365863],[-1.21673,51.366217],[-1.216051,51.365907],[-1.214827,51.366118],[-1.213935,51.365745],[-1.21356,51.36635],[-1.212544,51.366079],[-1.210819,51.367145],[-1.20988,51.366683],[-1.206696,51.366959],[-1.20636,51.366222],[-1.204948,51.366449],[-1.202083,51.36619],[-1.200975,51.365822],[-1.19993,51.364691],[-1.194797,51.363742],[-1.189282,51.363323],[-1.186067,51.362106],[-1.176894,51.357324],[-1.169622,51.360726],[-1.146858,51.359368],[-1.144131,51.357263],[-1.13859,51.357191],[-1.131316,51.358029],[-1.124767,51.3581],[-1.12466,51.359712],[-1.123744,51.361257],[-1.120132,51.360575],[-1.120128,51.360207],[-1.11923,51.360237],[-1.119211,51.359905],[-1.11736,51.360003],[-1.115791,51.360466],[-1.11539,51.36255],[-1.116417,51.364774],[-1.116138,51.366455],[-1.117514,51.36809],[-1.115457,51.374215],[-1.100219,51.379426],[-1.098799,51.380109],[-1.097441,51.381367],[-1.097517,51.381726],[-1.086641,51.383911],[-1.082859,51.381803],[-1.075354,51.379524],[-1.076315,51.378153],[-1.080022,51.374604],[-1.077575,51.374582]]]}}]}