{"type":"FeatureCollection","features":[{"type":"Feature","properties":{"slug":"bassetlaw","gss_code":"E07000171","name":"Bassetlaw"},"geometry":{"type":"MultiPolygon","coordinates":[[[[-0.772086,53.255882],[-0.772548,53.258478],[-0.771666,53.257838],[-0.771855,53.2559],[-0.772086,53.255882]]],[[[-0.916249,53.460296],[-0.914817,53.460871],[-0.912645,53.46046],[-0.910043,53.461037],[-0.900612,53.461049],[-0.89659,53.461892],[-0.889988,53.461811],[-0.886351,53.46214],[-0.873736,53.461478],[-0.871919,53.466311],[-0.818446,53.459559],[-0.813542,53.458465],[-0.80544,53.457199],[-0.798112,53.455233],[-0.801382,53.453112],[-0.805151,53.448112],[-0.809865,53.44382],[-0.812077,53.443188],[-0.81271,53.443736],[-0.812584,53.443144],[-0.818748,53.44221],[-0.820294,53.441548],[-0.821109,53.440294],[-0.820018,53.437075],[-0.816637,53.43207],[-0.818527,53.428063],[-0.818301,53.425979],[-0.814169,53.423344],[-0.809292,53.419602],[-0.804127,53.416982],[-0.796721,53.414487],[-0.794534,53.414249],[-0.794893,53.414225],[-0.794674,53.414006],[-0.790798,53.414793],[-0.789056,53.414842],[-0.788896,53.414275],[-0.791312,53.412625],[-0.79204,53.41154],[-0.792463,53.41155],[-0.792039,53.411407],[-0.79174,53.409301],[-0.790775,53.407268],[-0.788079,53.403441],[-0.786765,53.402305],[-0.784397,53.400784],[-0.779461,53.398747],[-0.77765,53.396894],[-0.777048,53.391408],[-0.778217,53.389636],[-0.782398,53.387651],[-0.785221,53.386988],[-0.78923,53.386874],[-0.79074,53.386127],[-0.790404,53.385146],[-0.783992,53.383262],[-0.784273,53.382951],[-0.785498,53.382987],[-0.783408,53.382148],[-0.782995,53.382336],[-0.784089,53.382872],[-0.783904,53.383086],[-0.782246,53.38241],[-0.775856,53.377838],[-0.776772,53.377995],[-0.782406,53.38206],[-0.783088,53.382066],[-0.779481,53.379345],[-0.779532,53.377628],[-0.778324,53.377708],[-0.777957,53.37817],[-0.776158,53.377687],[-0.77993,53.377162],[-0.783213,53.376267],[-0.786534,53.374669],[-0.78902,53.371122],[-0.791227,53.368926],[-0.790609,53.36585],[-0.791502,53.363534],[-0.790087,53.362638],[-0.78678,53.362389],[-0.780917,53.360915],[-0.779057,53.361397],[-0.778071,53.362168],[-0.777468,53.362221],[-0.777896,53.362387],[-0.776783,53.36364],[-0.77441,53.364116],[-0.773398,53.363452],[-0.766349,53.355974],[-0.763946,53.355009],[-0.76036,53.354428],[-0.759149,53.353661],[-0.759476,53.351955],[-0.7624,53.350857],[-0.763686,53.349776],[-0.764736,53.348163],[-0.765213,53.345911],[-0.763855,53.344343],[-0.760344,53.342865],[-0.757809,53.341298],[-0.757224,53.340588],[-0.757216,53.339686],[-0.760737,53.336536],[-0.761369,53.333879],[-0.761966,53.33315],[-0.765798,53.331817],[-0.76677,53.330959],[-0.766954,53.330076],[-0.766014,53.328932],[-0.763155,53.327257],[-0.76077,53.324326],[-0.757147,53.324048],[-0.753052,53.324817],[-0.750469,53.324168],[-0.750263,53.323618],[-0.750688,53.323027],[-0.753176,53.321679],[-0.754363,53.320206],[-0.754828,53.314688],[-0.754096,53.310254],[-0.753131,53.308796],[-0.748619,53.305517],[-0.747871,53.304467],[-0.749333,53.301858],[-0.750282,53.296362],[-0.750931,53.296293],[-0.750341,53.296152],[-0.750783,53.294564],[-0.751491,53.293735],[-0.75256,53.293254],[-0.756369,53.292826],[-0.757673,53.293102],[-0.758354,53.294044],[-0.757889,53.296126],[-0.758899,53.298605],[-0.760079,53.299649],[-0.761946,53.300061],[-0.763737,53.299921],[-0.76467,53.299527],[-0.765729,53.298381],[-0.765076,53.295801],[-0.765586,53.294045],[-0.770815,53.289693],[-0.774057,53.288061],[-0.77803,53.285136],[-0.780242,53.281634],[-0.781043,53.281617],[-0.780115,53.281553],[-0.778999,53.28349],[-0.778303,53.281868],[-0.77578,53.28003],[-0.773803,53.277444],[-0.77025,53.275546],[-0.766042,53.274184],[-0.764909,53.272809],[-0.765447,53.271258],[-0.773107,53.262289],[-0.773521,53.26132],[-0.774304,53.261116],[-0.773517,53.260946],[-0.773645,53.26026],[-0.774407,53.259932],[-0.773598,53.260011],[-0.772931,53.255481],[-0.77079,53.253326],[-0.771664,53.252778],[-0.776499,53.25301],[-0.777878,53.25283],[-0.778788,53.252363],[-0.779017,53.251209],[-0.777238,53.248389],[-0.779253,53.243762],[-0.778991,53.241811],[-0.782063,53.24142],[-0.783197,53.24081],[-0.781761,53.241365],[-0.779747,53.241528],[-0.779597,53.24131],[-0.778954,53.241632],[-0.777804,53.238918],[-0.778667,53.237023],[-0.778783,53.235071],[-0.782126,53.231076],[-0.783542,53.228062],[-0.783978,53.224358],[-0.784334,53.224221],[-0.7839,53.224203],[-0.778835,53.219965],[-0.777783,53.218281],[-0.777698,53.216373],[-0.776108,53.214781],[-0.776337,53.214378],[-0.779059,53.212949],[-0.778657,53.210994],[-0.777433,53.208886],[-0.776004,53.207876],[-0.775939,53.207347],[-0.77655,53.206762],[-0.779772,53.205298],[-0.780927,53.203796],[-0.78052,53.202468],[-0.77821,53.200749],[-0.777562,53.199783],[-0.778035,53.199033],[-0.779597,53.198029],[-0.780115,53.197077],[-0.781362,53.196681],[-0.790076,53.199147],[-0.78893,53.201665],[-0.788048,53.20226],[-0.787047,53.202403],[-0.787397,53.2031],[-0.785713,53.204347],[-0.787293,53.204565],[-0.791045,53.204868],[-0.798857,53.204662],[-0.803703,53.205559],[-0.815724,53.204919],[-0.817375,53.204106],[-0.817612,53.203338],[-0.818547,53.203098],[-0.819864,53.201636],[-0.821571,53.20135],[-0.823146,53.202237],[-0.824919,53.202741],[-0.824765,53.203405],[-0.826547,53.205863],[-0.827476,53.206332],[-0.832063,53.206732],[-0.83052,53.212831],[-0.836955,53.213658],[-0.836505,53.215531],[-0.835509,53.216218],[-0.831483,53.215694],[-0.830798,53.217566],[-0.83982,53.21892],[-0.848214,53.218662],[-0.848498,53.215309],[-0.852632,53.21547],[-0.85309,53.214775],[-0.854425,53.214669],[-0.857839,53.212207],[-0.860866,53.213512],[-0.86209,53.213807],[-0.862779,53.213154],[-0.864704,53.213946],[-0.866465,53.215194],[-0.866411,53.215741],[-0.867297,53.216398],[-0.871126,53.216993],[-0.871129,53.217458],[-0.872375,53.217827],[-0.872597,53.218172],[-0.875459,53.218563],[-0.877491,53.219804],[-0.877545,53.220322],[-0.878858,53.220426],[-0.879342,53.221073],[-0.880197,53.220957],[-0.883711,53.222344],[-0.886927,53.222742],[-0.888848,53.223497],[-0.894248,53.223671],[-0.896301,53.223216],[-0.898304,53.223347],[-0.899275,53.222385],[-0.899973,53.222267],[-0.900012,53.221952],[-0.901703,53.221145],[-0.907269,53.220503],[-0.916548,53.218324],[-0.920013,53.218356],[-0.921682,53.218683],[-0.929974,53.21644],[-0.934894,53.21619],[-0.935803,53.215769],[-0.936545,53.215944],[-0.93985,53.215485],[-0.944652,53.214649],[-0.947249,53.213859],[-0.949291,53.214306],[-0.949713,53.218005],[-0.948264,53.219206],[-0.948658,53.220834],[-0.949655,53.22109],[-0.948297,53.222754],[-0.949147,53.224299],[-0.947218,53.225763],[-0.950234,53.226152],[-0.952933,53.227085],[-0.957536,53.231893],[-0.961287,53.233276],[-0.964641,53.233876],[-0.967902,53.234932],[-0.967542,53.235334],[-0.969979,53.23576],[-0.983927,53.236605],[-0.996578,53.236747],[-1.006595,53.23614],[-1.010131,53.239511],[-1.011798,53.24048],[-1.012547,53.241674],[-1.012922,53.241643],[-1.016896,53.243938],[-1.017253,53.243657],[-1.019316,53.245395],[-1.023548,53.247803],[-1.023177,53.247933],[-1.025905,53.252136],[-1.027316,53.258067],[-1.027534,53.260852],[-1.027955,53.261036],[-1.046006,53.253505],[-1.052145,53.2522],[-1.058437,53.249106],[-1.066219,53.244742],[-1.06626,53.244308],[-1.068917,53.242675],[-1.072483,53.240906],[-1.08631,53.237698],[-1.09295,53.237233],[-1.103296,53.235607],[-1.104984,53.235123],[-1.108853,53.232639],[-1.111459,53.23044],[-1.116446,53.231837],[-1.119728,53.232084],[-1.11969,53.231041],[-1.122082,53.230856],[-1.123067,53.226709],[-1.122106,53.225566],[-1.123674,53.224673],[-1.132597,53.225734],[-1.139788,53.225775],[-1.146601,53.224963],[-1.156896,53.222299],[-1.161753,53.221545],[-1.171121,53.218959],[-1.175769,53.219227],[-1.179133,53.219134],[-1.181557,53.21868],[-1.188266,53.218716],[-1.18857,53.218396],[-1.196788,53.217165],[-1.196933,53.21678],[-1.202237,53.216117],[-1.202716,53.216659],[-1.206608,53.216628],[-1.209413,53.217687],[-1.209005,53.224263],[-1.208221,53.224914],[-1.20794,53.225799],[-1.207454,53.225801],[-1.207056,53.226939],[-1.206217,53.227165],[-1.205772,53.230534],[-1.203314,53.231158],[-1.203347,53.233293],[-1.202043,53.235542],[-1.205056,53.236619],[-1.205813,53.237899],[-1.205187,53.238691],[-1.207156,53.239229],[-1.20873,53.240902],[-1.209972,53.240986],[-1.212459,53.245586],[-1.213027,53.247672],[-1.209393,53.2503],[-1.209043,53.250815],[-1.210349,53.251233],[-1.207836,53.253225],[-1.207053,53.25518],[-1.20583,53.256216],[-1.205804,53.256745],[-1.204504,53.257183],[-1.20269,53.257283],[-1.203753,53.258943],[-1.20252,53.26116],[-1.198539,53.262293],[-1.19602,53.263411],[-1.193953,53.263209],[-1.191469,53.264056],[-1.187611,53.264454],[-1.185371,53.264351],[-1.183018,53.264956],[-1.179344,53.264306],[-1.178137,53.264439],[-1.177533,53.265164],[-1.174797,53.265113],[-1.174627,53.265797],[-1.175552,53.266542],[-1.180205,53.26843],[-1.181561,53.26949],[-1.181542,53.270032],[-1.178246,53.273214],[-1.177338,53.273679],[-1.173299,53.274096],[-1.170719,53.276161],[-1.168334,53.276689],[-1.166488,53.277655],[-1.169277,53.278561],[-1.171017,53.279834],[-1.172078,53.280069],[-1.173991,53.281236],[-1.175763,53.28165],[-1.176003,53.282722],[-1.176966,53.283513],[-1.177936,53.283768],[-1.177532,53.284291],[-1.178304,53.286257],[-1.180117,53.287135],[-1.178699,53.288877],[-1.176397,53.28965],[-1.171563,53.294638],[-1.173818,53.296192],[-1.173778,53.297488],[-1.174852,53.299115],[-1.174176,53.302533],[-1.175844,53.303426],[-1.17677,53.305251],[-1.179011,53.305927],[-1.179506,53.306412],[-1.180539,53.305894],[-1.180905,53.306221],[-1.182967,53.305167],[-1.185596,53.304685],[-1.187203,53.303947],[-1.190599,53.306537],[-1.193714,53.308258],[-1.194948,53.308572],[-1.199743,53.31144],[-1.197204,53.314673],[-1.194373,53.314866],[-1.192416,53.31899],[-1.191523,53.318961],[-1.191535,53.319223],[-1.190113,53.319496],[-1.190323,53.319932],[-1.18661,53.319594],[-1.180415,53.321046],[-1.174482,53.321391],[-1.174238,53.321807],[-1.174704,53.322648],[-1.171983,53.322816],[-1.174052,53.323591],[-1.175309,53.324511],[-1.175111,53.325677],[-1.17388,53.325742],[-1.173458,53.326388],[-1.17248,53.32655],[-1.172189,53.326923],[-1.171478,53.326524],[-1.171075,53.32723],[-1.169777,53.327411],[-1.168904,53.328241],[-1.165872,53.329112],[-1.163882,53.329277],[-1.160867,53.331116],[-1.160512,53.33233],[-1.159385,53.333509],[-1.148621,53.338507],[-1.145416,53.340729],[-1.140909,53.340966],[-1.138718,53.341383],[-1.13936,53.344729],[-1.140286,53.346528],[-1.141552,53.346797],[-1.144907,53.345695],[-1.148179,53.345211],[-1.149565,53.345309],[-1.15267,53.344685],[-1.156843,53.344969],[-1.156877,53.345863],[-1.158149,53.347703],[-1.160103,53.348942],[-1.159868,53.34997],[-1.161821,53.350889],[-1.16242,53.35161],[-1.161617,53.355698],[-1.162623,53.356736],[-1.161949,53.357909],[-1.151693,53.354485],[-1.149101,53.354352],[-1.14528,53.35486],[-1.144952,53.355332],[-1.13854,53.355908],[-1.139237,53.35986],[-1.138976,53.361389],[-1.140116,53.362623],[-1.140554,53.36406],[-1.145178,53.363383],[-1.146417,53.363953],[-1.14644,53.365733],[-1.145876,53.36585],[-1.145662,53.366609],[-1.144225,53.367379],[-1.144215,53.36827],[-1.146033,53.369041],[-1.144916,53.371251],[-1.142804,53.371268],[-1.141403,53.37071],[-1.140456,53.371264],[-1.14074,53.372023],[-1.138219,53.372252],[-1.134137,53.373226],[-1.134194,53.374166],[-1.13366,53.374867],[-1.131958,53.374899],[-1.131901,53.375616],[-1.130537,53.375571],[-1.129996,53.377566],[-1.130995,53.377984],[-1.1305,53.378887],[-1.133047,53.381595],[-1.132445,53.383981],[-1.130947,53.385557],[-1.130935,53.38823],[-1.131311,53.389556],[-1.134693,53.389771],[-1.133493,53.391481],[-1.133278,53.391378],[-1.1329,53.392292],[-1.133208,53.392408],[-1.131512,53.393936],[-1.129207,53.393596],[-1.122811,53.398312],[-1.11947,53.398046],[-1.115579,53.397186],[-1.115918,53.398019],[-1.115141,53.401861],[-1.116041,53.407349],[-1.111633,53.406067],[-1.108227,53.405882],[-1.105041,53.409667],[-1.098737,53.418735],[-1.092922,53.421546],[-1.087046,53.425544],[-1.084867,53.424859],[-1.084147,53.423525],[-1.08333,53.422988],[-1.0812,53.422585],[-1.079123,53.422809],[-1.07898,53.423563],[-1.080035,53.425175],[-1.080439,53.426868],[-1.07467,53.427308],[-1.073268,53.428057],[-1.069358,53.427794],[-1.067943,53.427371],[-1.067857,53.427722],[-1.057051,53.42536],[-1.054889,53.425461],[-1.044589,53.428089],[-1.040264,53.429757],[-1.036526,53.430529],[-1.03095,53.43098],[-1.030709,53.429921],[-1.02884,53.429288],[-1.030515,53.425195],[-1.027825,53.425421],[-1.027115,53.425016],[-1.023169,53.424514],[-1.022431,53.426314],[-1.018175,53.426759],[-1.014358,53.426297],[-1.014297,53.42728],[-1.012533,53.43072],[-1.012814,53.432241],[-1.012458,53.432796],[-1.009893,53.432825],[-1.008678,53.433901],[-1.005095,53.433799],[-1.002963,53.434726],[-1.000377,53.434998],[-0.99567,53.436927],[-0.995919,53.437856],[-0.998483,53.438844],[-0.997132,53.442476],[-0.997518,53.443655],[-0.994822,53.447102],[-0.994309,53.448936],[-0.991179,53.451723],[-0.993646,53.452958],[-0.985548,53.461354],[-0.983297,53.468041],[-0.985978,53.471673],[-0.981625,53.474718],[-0.97687,53.475177],[-0.953259,53.484424],[-0.935565,53.502517],[-0.900471,53.475156],[-0.902175,53.473732],[-0.912092,53.469953],[-0.920247,53.465508],[-0.92046,53.464483],[-0.916249,53.460296]]]]}}]}