{"type":"FeatureCollection","features":[{"type":"Feature","properties":{"slug":"bedford","gss_code":"E06000055","name":"Bedford"},"geometry":{"type":"Polygon","coordinates":[[[-0.447132,52.315742],[-0.444184,52.314232],[-0.443068,52.313967],[-0.442296,52.31417],[-0.441517,52.315212],[-0.440208,52.315383],[-0.436089,52.314471],[-0.435375,52.312168],[-0.433506,52.311858],[-0.433051,52.308258],[-0.434074,52.305694],[-0.433903,52.302355],[-0.43578,52.298864],[-0.435761,52.296657],[-0.434644,52.296393],[-0.431876,52.296594],[-0.432301,52.295999],[-0.432074,52.294623],[-0.43127,52.294449],[-0.432222,52.292978],[-0.431184,52.292015],[-0.426985,52.290763],[-0.42691,52.290188],[-0.424893,52.289295],[-0.422642,52.289376],[-0.422157,52.288672],[-0.423018,52.287873],[-0.421767,52.284947],[-0.419111,52.28475],[-0.41901,52.284251],[-0.416285,52.284271],[-0.414909,52.284771],[-0.413654,52.284504],[-0.41166,52.284789],[-0.410159,52.284497],[-0.408821,52.286768],[-0.407757,52.287419],[-0.406871,52.287462],[-0.403583,52.285296],[-0.40286,52.283726],[-0.401986,52.283209],[-0.402731,52.282106],[-0.401311,52.280066],[-0.400156,52.279117],[-0.398979,52.278729],[-0.396003,52.281093],[-0.392626,52.28243],[-0.386675,52.281905],[-0.384638,52.281324],[-0.380572,52.282667],[-0.378067,52.281666],[-0.377001,52.281548],[-0.376222,52.281173],[-0.375956,52.280531],[-0.37501,52.280469],[-0.375898,52.279313],[-0.375428,52.279045],[-0.375514,52.277994],[-0.374319,52.277326],[-0.374843,52.276906],[-0.374766,52.276277],[-0.37358,52.276123],[-0.372499,52.275488],[-0.372175,52.2735],[-0.372927,52.273538],[-0.373983,52.272997],[-0.375246,52.274005],[-0.376809,52.274029],[-0.377402,52.273363],[-0.378607,52.2735],[-0.378429,52.273011],[-0.380813,52.273205],[-0.381351,52.272626],[-0.381152,52.272062],[-0.381768,52.271936],[-0.381467,52.271213],[-0.382341,52.271126],[-0.381803,52.265784],[-0.378459,52.265295],[-0.378346,52.252792],[-0.377222,52.24804],[-0.37528,52.242923],[-0.374688,52.239118],[-0.375284,52.238649],[-0.373748,52.236992],[-0.37335,52.234024],[-0.374562,52.233627],[-0.374376,52.232998],[-0.368772,52.234648],[-0.362737,52.234066],[-0.359038,52.234735],[-0.358823,52.23449],[-0.355324,52.23422],[-0.353738,52.233353],[-0.352383,52.231702],[-0.350605,52.230969],[-0.349917,52.230826],[-0.348872,52.231224],[-0.345808,52.230634],[-0.341011,52.230647],[-0.340354,52.230935],[-0.344126,52.235156],[-0.342652,52.235361],[-0.34332,52.236442],[-0.343053,52.237439],[-0.344012,52.238491],[-0.343218,52.241412],[-0.343469,52.241874],[-0.337984,52.242208],[-0.334494,52.242921],[-0.32928,52.242552],[-0.327122,52.243005],[-0.324918,52.242867],[-0.323076,52.243125],[-0.319997,52.242708],[-0.315898,52.241515],[-0.31438,52.240299],[-0.313688,52.238999],[-0.310595,52.239932],[-0.307723,52.239877],[-0.298521,52.240989],[-0.295826,52.240493],[-0.293209,52.240516],[-0.291613,52.239236],[-0.285694,52.237401],[-0.285728,52.236244],[-0.286631,52.234848],[-0.293759,52.228439],[-0.299,52.221257],[-0.299965,52.218058],[-0.299391,52.216044],[-0.296268,52.210482],[-0.295579,52.210444],[-0.294393,52.208435],[-0.292939,52.207634],[-0.288319,52.207443],[-0.280351,52.208469],[-0.261845,52.209867],[-0.264073,52.206364],[-0.264912,52.205721],[-0.260447,52.20542],[-0.261184,52.20415],[-0.260568,52.203639],[-0.256522,52.202833],[-0.255503,52.201243],[-0.254744,52.201449],[-0.254509,52.199479],[-0.251958,52.19652],[-0.252138,52.196037],[-0.251617,52.195561],[-0.249525,52.194722],[-0.247856,52.192852],[-0.2469,52.192565],[-0.246221,52.191861],[-0.244285,52.191498],[-0.24206,52.190377],[-0.240723,52.190193],[-0.244002,52.182685],[-0.244058,52.182926],[-0.245157,52.183115],[-0.24727,52.18323],[-0.247045,52.183754],[-0.254208,52.185819],[-0.25625,52.185818],[-0.267569,52.187301],[-0.272509,52.187528],[-0.27556,52.188601],[-0.281103,52.18955],[-0.281772,52.189354],[-0.286402,52.190765],[-0.289117,52.190926],[-0.294048,52.182895],[-0.297865,52.181091],[-0.301678,52.178225],[-0.303178,52.173718],[-0.302822,52.171724],[-0.301829,52.171003],[-0.302256,52.170582],[-0.303286,52.170762],[-0.303853,52.169082],[-0.303415,52.168196],[-0.304815,52.166449],[-0.306135,52.166359],[-0.306026,52.165559],[-0.307451,52.165464],[-0.308318,52.165819],[-0.308365,52.166494],[-0.310812,52.167139],[-0.313812,52.167244],[-0.31533,52.16769],[-0.316961,52.16747],[-0.321265,52.168838],[-0.321834,52.168439],[-0.321458,52.167657],[-0.321844,52.167077],[-0.324415,52.166598],[-0.326035,52.166921],[-0.327351,52.166004],[-0.329383,52.165713],[-0.330065,52.165342],[-0.332245,52.161362],[-0.33403,52.159056],[-0.333735,52.157632],[-0.335069,52.156097],[-0.343426,52.150856],[-0.345695,52.147326],[-0.347111,52.146343],[-0.346235,52.145972],[-0.34915,52.14533],[-0.355285,52.145502],[-0.357799,52.146004],[-0.361082,52.144168],[-0.360956,52.1434],[-0.362034,52.14292],[-0.355365,52.134978],[-0.355509,52.134518],[-0.34975,52.12794],[-0.349523,52.126788],[-0.346781,52.122861],[-0.346362,52.120597],[-0.344601,52.118167],[-0.345052,52.116492],[-0.344804,52.115956],[-0.348442,52.112289],[-0.351777,52.110436],[-0.351757,52.108097],[-0.353013,52.106386],[-0.356169,52.107758],[-0.359464,52.103365],[-0.364332,52.100733],[-0.367847,52.099298],[-0.365494,52.097668],[-0.366878,52.096779],[-0.371505,52.094647],[-0.374651,52.097208],[-0.381188,52.093565],[-0.381362,52.093139],[-0.378513,52.090312],[-0.376908,52.08774],[-0.382292,52.084245],[-0.383895,52.085765],[-0.385088,52.083826],[-0.389189,52.080817],[-0.388407,52.079681],[-0.387477,52.07949],[-0.385244,52.077263],[-0.384886,52.0755],[-0.389642,52.074565],[-0.39336,52.073332],[-0.394716,52.072481],[-0.39534,52.071053],[-0.397017,52.071003],[-0.398564,52.07033],[-0.405422,52.068806],[-0.416506,52.068683],[-0.42228,52.067403],[-0.429863,52.067773],[-0.434078,52.066938],[-0.435607,52.066056],[-0.437545,52.065565],[-0.440033,52.063287],[-0.447652,52.067181],[-0.453257,52.070693],[-0.457753,52.072836],[-0.45857,52.074012],[-0.45876,52.077015],[-0.459315,52.077715],[-0.461908,52.079142],[-0.46404,52.079612],[-0.467892,52.084394],[-0.471527,52.088009],[-0.47534,52.086701],[-0.476199,52.087029],[-0.478781,52.085512],[-0.480386,52.085228],[-0.482342,52.084243],[-0.483121,52.08448],[-0.485335,52.083208],[-0.486123,52.08388],[-0.492681,52.079247],[-0.499672,52.075565],[-0.502385,52.072167],[-0.504474,52.070728],[-0.504757,52.070129],[-0.499591,52.067708],[-0.501852,52.064378],[-0.503967,52.06253],[-0.50441,52.060028],[-0.505048,52.05899],[-0.504489,52.056781],[-0.506682,52.056501],[-0.508515,52.054543],[-0.510771,52.05543],[-0.51029,52.058714],[-0.511518,52.059559],[-0.514911,52.058979],[-0.517896,52.060331],[-0.516942,52.063842],[-0.517571,52.064851],[-0.518939,52.065704],[-0.517613,52.06738],[-0.517816,52.067891],[-0.518809,52.068571],[-0.522356,52.069406],[-0.530783,52.07592],[-0.531861,52.075943],[-0.533488,52.07714],[-0.533773,52.076978],[-0.535603,52.077966],[-0.541586,52.081883],[-0.543363,52.081881],[-0.545247,52.081212],[-0.5458,52.081585],[-0.550085,52.080705],[-0.55571,52.085285],[-0.557926,52.087626],[-0.55866,52.089698],[-0.561803,52.092325],[-0.56688,52.09439],[-0.566801,52.094768],[-0.570667,52.094938],[-0.572755,52.093457],[-0.574953,52.094338],[-0.578264,52.094105],[-0.579245,52.094488],[-0.580752,52.095856],[-0.582104,52.098429],[-0.583869,52.097303],[-0.585646,52.096711],[-0.589186,52.097499],[-0.588366,52.098449],[-0.587578,52.101094],[-0.586501,52.101483],[-0.583235,52.104559],[-0.586757,52.107056],[-0.590481,52.108773],[-0.591409,52.110695],[-0.59181,52.110692],[-0.593055,52.112264],[-0.595731,52.113578],[-0.59783,52.115613],[-0.598017,52.116517],[-0.597159,52.117458],[-0.596927,52.119222],[-0.597808,52.121951],[-0.59901,52.123595],[-0.598912,52.125731],[-0.602122,52.128932],[-0.604016,52.130231],[-0.607249,52.133869],[-0.614151,52.133897],[-0.617631,52.133045],[-0.61936,52.133021],[-0.627056,52.13523],[-0.62893,52.136937],[-0.630124,52.137407],[-0.634623,52.137972],[-0.634942,52.139198],[-0.635452,52.139254],[-0.635598,52.141203],[-0.634929,52.141162],[-0.634362,52.142392],[-0.636391,52.143772],[-0.637923,52.146129],[-0.636032,52.14751],[-0.639579,52.151421],[-0.640595,52.152095],[-0.640766,52.152818],[-0.63581,52.15319],[-0.632763,52.153988],[-0.630688,52.155024],[-0.629613,52.15957],[-0.630136,52.16196],[-0.63149,52.164262],[-0.634486,52.16658],[-0.634929,52.168067],[-0.633529,52.169951],[-0.631173,52.171824],[-0.628255,52.172536],[-0.627723,52.17619],[-0.629317,52.178714],[-0.627447,52.181545],[-0.630293,52.181781],[-0.63951,52.183435],[-0.639779,52.184507],[-0.63914,52.186688],[-0.640858,52.187167],[-0.64316,52.188845],[-0.651,52.189965],[-0.655584,52.1896],[-0.657448,52.189775],[-0.659336,52.191026],[-0.661307,52.191774],[-0.665991,52.192732],[-0.667945,52.194073],[-0.668664,52.197731],[-0.66146,52.208126],[-0.658498,52.210084],[-0.653575,52.215239],[-0.652365,52.217263],[-0.648634,52.220876],[-0.643619,52.223362],[-0.637332,52.227318],[-0.638621,52.227945],[-0.639655,52.228951],[-0.642729,52.233325],[-0.643448,52.23586],[-0.643085,52.238544],[-0.645495,52.242461],[-0.648967,52.252713],[-0.649789,52.254107],[-0.650034,52.256778],[-0.65276,52.266588],[-0.653655,52.268289],[-0.651079,52.269055],[-0.6469,52.27118],[-0.639908,52.272442],[-0.637663,52.272401],[-0.635474,52.271932],[-0.631413,52.270048],[-0.626922,52.273382],[-0.626978,52.274877],[-0.620057,52.276923],[-0.611075,52.278532],[-0.61058,52.2789],[-0.610617,52.279498],[-0.608127,52.278931],[-0.602123,52.278587],[-0.596102,52.276047],[-0.588974,52.274069],[-0.586335,52.272831],[-0.588111,52.270778],[-0.580884,52.265232],[-0.579354,52.266435],[-0.571583,52.258247],[-0.565693,52.253468],[-0.558046,52.25635],[-0.554738,52.25818],[-0.552326,52.256921],[-0.549969,52.256465],[-0.546144,52.256727],[-0.54452,52.256127],[-0.542879,52.255974],[-0.541312,52.256317],[-0.539899,52.257306],[-0.537625,52.261651],[-0.537737,52.262856],[-0.539325,52.266095],[-0.536432,52.268208],[-0.53119,52.270402],[-0.532524,52.272539],[-0.534165,52.277615],[-0.534461,52.279545],[-0.534096,52.281355],[-0.535235,52.282229],[-0.535009,52.28255],[-0.535978,52.282869],[-0.538147,52.284824],[-0.538692,52.285819],[-0.541964,52.288855],[-0.541969,52.289942],[-0.540605,52.291492],[-0.516866,52.312952],[-0.514051,52.314697],[-0.519797,52.316622],[-0.51983,52.317693],[-0.51684,52.317651],[-0.506655,52.319914],[-0.48714,52.321083],[-0.481881,52.320762],[-0.478133,52.319282],[-0.476261,52.318064],[-0.474151,52.319752],[-0.465366,52.322953],[-0.460728,52.32187],[-0.457712,52.320091],[-0.447132,52.315742]]]}}]}