{"type":"FeatureCollection","features":[{"type":"Feature","properties":{"slug":"bexley","gss_code":"E09000004","name":"Bexley"},"geometry":{"type":"MultiPolygon","coordinates":[[[[0.199002,51.458119],[0.198563,51.4583],[0.199285,51.458424],[0.199002,51.458119]]],[[[0.202053,51.479017],[0.201038,51.478834],[0.200102,51.478415],[0.198687,51.478332],[0.200129,51.478908],[0.20052,51.47975],[0.201116,51.47952],[0.200628,51.479809],[0.201301,51.480164],[0.201803,51.480027],[0.202053,51.479017]]],[[[0.137263,51.510007],[0.137459,51.510206],[0.14686,51.506671],[0.147924,51.506821],[0.147995,51.506447],[0.148538,51.506451],[0.149453,51.505866],[0.149787,51.505864],[0.149914,51.506395],[0.152841,51.506372],[0.160339,51.505477],[0.164486,51.504538],[0.166577,51.503455],[0.170022,51.500059],[0.171646,51.497717],[0.172496,51.488826],[0.173526,51.487361],[0.174135,51.486784],[0.174537,51.486927],[0.175291,51.486101],[0.174895,51.485972],[0.175178,51.48526],[0.176065,51.485248],[0.178088,51.483544],[0.177631,51.483183],[0.177872,51.483024],[0.178344,51.483377],[0.18332,51.481155],[0.190311,51.479729],[0.190454,51.479035],[0.190848,51.479752],[0.192723,51.479768],[0.193017,51.479375],[0.193807,51.479323],[0.195511,51.479675],[0.19751,51.479471],[0.197078,51.479256],[0.198566,51.479679],[0.19894,51.47943],[0.198276,51.479324],[0.197441,51.478443],[0.198921,51.47926],[0.199294,51.480091],[0.200582,51.480066],[0.200115,51.478948],[0.199167,51.478615],[0.199368,51.47892],[0.198586,51.478304],[0.20009,51.478378],[0.20215,51.478991],[0.201859,51.480185],[0.203216,51.480346],[0.202088,51.480275],[0.202265,51.480597],[0.204787,51.480842],[0.20286,51.479598],[0.205067,51.480886],[0.205551,51.480446],[0.206309,51.480719],[0.206345,51.481282],[0.209217,51.481816],[0.209606,51.48164],[0.210347,51.482483],[0.211682,51.482712],[0.217665,51.480411],[0.216721,51.480174],[0.215989,51.479485],[0.216419,51.477467],[0.216245,51.478089],[0.216274,51.477472],[0.215661,51.47686],[0.211903,51.475829],[0.211267,51.475276],[0.211356,51.473228],[0.208856,51.471745],[0.20816,51.470839],[0.211015,51.468434],[0.210951,51.467354],[0.209979,51.46557],[0.21024,51.462502],[0.207504,51.461598],[0.204437,51.459979],[0.202613,51.458345],[0.199072,51.458581],[0.198377,51.458389],[0.197252,51.457589],[0.197563,51.457503],[0.198373,51.458239],[0.198895,51.45799],[0.198017,51.457009],[0.199583,51.458379],[0.203049,51.457952],[0.203236,51.457605],[0.202608,51.45623],[0.203874,51.455803],[0.203236,51.454929],[0.203385,51.454326],[0.202486,51.453865],[0.201972,51.454101],[0.201337,51.453844],[0.201262,51.453348],[0.200635,51.453174],[0.200238,51.452558],[0.199748,51.452723],[0.199107,51.45212],[0.19741,51.451771],[0.19629,51.452477],[0.194193,51.451646],[0.193855,51.45192],[0.193054,51.451702],[0.192083,51.450842],[0.191012,51.448788],[0.18883,51.449103],[0.18846,51.448586],[0.187642,51.448721],[0.18739,51.446876],[0.18415,51.444643],[0.183568,51.444781],[0.18102,51.444179],[0.180845,51.443526],[0.17958,51.44309],[0.178716,51.443518],[0.176038,51.441995],[0.172845,51.443287],[0.170895,51.441197],[0.168714,51.43748],[0.16669,51.435051],[0.166851,51.432072],[0.166096,51.43143],[0.166694,51.431296],[0.16621,51.430282],[0.16559,51.430349],[0.164217,51.428546],[0.163832,51.428609],[0.163923,51.428932],[0.160695,51.429675],[0.159837,51.429203],[0.159086,51.430225],[0.155875,51.430877],[0.155301,51.428975],[0.153764,51.427523],[0.153135,51.422322],[0.152851,51.421703],[0.151159,51.42043],[0.154637,51.41847],[0.154094,51.417762],[0.151056,51.417616],[0.151154,51.415063],[0.14916,51.412435],[0.149752,51.411658],[0.15377,51.411265],[0.152932,51.408708],[0.149312,51.409141],[0.148869,51.408429],[0.13918,51.411597],[0.132845,51.414247],[0.12827,51.414959],[0.125435,51.414779],[0.11992,51.4134],[0.113124,51.412906],[0.107598,51.414094],[0.104483,51.415225],[0.095128,51.420083],[0.089224,51.423994],[0.083213,51.429869],[0.081162,51.430646],[0.074668,51.432147],[0.076106,51.433284],[0.075692,51.433625],[0.0764,51.434006],[0.075902,51.434458],[0.076531,51.434856],[0.074973,51.435867],[0.076569,51.436872],[0.07784,51.436442],[0.078824,51.438139],[0.080883,51.440404],[0.081813,51.439968],[0.084461,51.441977],[0.082994,51.442734],[0.083018,51.44342],[0.084734,51.442603],[0.086306,51.443242],[0.087427,51.443284],[0.08637,51.445307],[0.087415,51.445747],[0.088113,51.447255],[0.087872,51.448704],[0.086855,51.450435],[0.085732,51.456451],[0.081504,51.457753],[0.078672,51.45929],[0.082942,51.45983],[0.082256,51.461131],[0.082629,51.463584],[0.082134,51.464761],[0.082313,51.466641],[0.083238,51.466477],[0.084809,51.46873],[0.087053,51.46997],[0.089126,51.470454],[0.091314,51.472071],[0.0932,51.472954],[0.096575,51.473254],[0.098244,51.475452],[0.100257,51.475228],[0.102005,51.474464],[0.102508,51.474917],[0.103352,51.474586],[0.104904,51.475528],[0.105203,51.475238],[0.105655,51.475457],[0.106176,51.475016],[0.10819,51.476117],[0.111986,51.473072],[0.114011,51.47517],[0.118471,51.478903],[0.1209,51.478454],[0.124191,51.476849],[0.122045,51.482995],[0.121297,51.491103],[0.120527,51.511099],[0.120216,51.511447],[0.125051,51.512992],[0.12894,51.513217],[0.132223,51.512272],[0.137263,51.510007]]]]}}]}