{"type":"FeatureCollection","features":[{"type":"Feature","properties":{"slug":"birmingham","gss_code":"E08000025","name":"Birmingham"},"geometry":{"type":"Polygon","coordinates":[[[-1.811817,52.604409],[-1.803869,52.601332],[-1.801678,52.601073],[-1.797572,52.59917],[-1.796528,52.599123],[-1.794335,52.596168],[-1.795327,52.595132],[-1.793658,52.594422],[-1.789626,52.591615],[-1.788002,52.587898],[-1.788461,52.586911],[-1.788283,52.58461],[-1.7868,52.583072],[-1.784836,52.581742],[-1.783849,52.581584],[-1.783608,52.581177],[-1.781359,52.58027],[-1.780268,52.578859],[-1.779495,52.578698],[-1.778684,52.57658],[-1.779151,52.576401],[-1.778833,52.575815],[-1.777948,52.575742],[-1.777999,52.575163],[-1.776649,52.574569],[-1.773373,52.574887],[-1.771933,52.574695],[-1.771283,52.575113],[-1.769688,52.574983],[-1.768884,52.574257],[-1.768078,52.574141],[-1.767724,52.573387],[-1.768199,52.572988],[-1.767017,52.571227],[-1.763577,52.570853],[-1.763563,52.570253],[-1.764529,52.569381],[-1.766792,52.568727],[-1.767902,52.568075],[-1.770341,52.567882],[-1.773908,52.565636],[-1.77423,52.564628],[-1.770152,52.563577],[-1.766914,52.561618],[-1.766919,52.559854],[-1.767731,52.558806],[-1.766293,52.557886],[-1.76534,52.556677],[-1.763424,52.556619],[-1.759953,52.555668],[-1.757813,52.555571],[-1.7564,52.55588],[-1.75576,52.554788],[-1.753577,52.545302],[-1.752106,52.543841],[-1.746428,52.541713],[-1.748993,52.541262],[-1.748361,52.536521],[-1.750915,52.536278],[-1.750412,52.533972],[-1.749086,52.531422],[-1.746853,52.531315],[-1.743527,52.532693],[-1.742347,52.531306],[-1.739422,52.531911],[-1.73867,52.529085],[-1.739755,52.52912],[-1.738823,52.528706],[-1.736916,52.529079],[-1.731571,52.527717],[-1.730821,52.525881],[-1.730418,52.525961],[-1.72885,52.524467],[-1.729585,52.524308],[-1.730289,52.523335],[-1.730916,52.523113],[-1.731825,52.52296],[-1.733785,52.523483],[-1.734826,52.523429],[-1.736229,52.522614],[-1.741637,52.52073],[-1.743868,52.520641],[-1.745823,52.52007],[-1.748776,52.520694],[-1.751341,52.520599],[-1.75381,52.521213],[-1.754319,52.518476],[-1.757039,52.518298],[-1.757077,52.517827],[-1.754922,52.515732],[-1.754091,52.515777],[-1.753257,52.514115],[-1.753934,52.51383],[-1.753519,52.512962],[-1.760494,52.514327],[-1.764401,52.514493],[-1.768484,52.514244],[-1.773602,52.513248],[-1.784612,52.509923],[-1.79392,52.508839],[-1.794825,52.508304],[-1.794025,52.507762],[-1.794307,52.506583],[-1.798691,52.505625],[-1.799358,52.504863],[-1.799295,52.5037],[-1.798596,52.503053],[-1.797442,52.502684],[-1.792092,52.503001],[-1.782541,52.501623],[-1.781979,52.501457],[-1.782164,52.501187],[-1.779395,52.501167],[-1.772023,52.501861],[-1.771536,52.501621],[-1.771398,52.501843],[-1.770356,52.501677],[-1.770271,52.501297],[-1.764173,52.5008],[-1.764183,52.499884],[-1.761542,52.499797],[-1.761492,52.500109],[-1.758891,52.499769],[-1.758731,52.500108],[-1.755837,52.499495],[-1.756959,52.496754],[-1.759899,52.494719],[-1.760336,52.493708],[-1.760839,52.493634],[-1.761008,52.49158],[-1.761595,52.490378],[-1.762359,52.490108],[-1.762325,52.488579],[-1.761113,52.488275],[-1.763655,52.48711],[-1.763094,52.486627],[-1.761478,52.486829],[-1.760861,52.486423],[-1.761561,52.485223],[-1.761095,52.485102],[-1.760412,52.483968],[-1.759474,52.483894],[-1.759046,52.483254],[-1.759806,52.482933],[-1.758872,52.4804],[-1.759856,52.480377],[-1.758837,52.478501],[-1.7586,52.476575],[-1.759157,52.476548],[-1.759163,52.475409],[-1.755803,52.471902],[-1.756692,52.471539],[-1.759324,52.468954],[-1.758729,52.467218],[-1.75995,52.466988],[-1.761716,52.467179],[-1.763748,52.466119],[-1.763379,52.463846],[-1.754978,52.456284],[-1.759601,52.451911],[-1.761392,52.450923],[-1.762767,52.451195],[-1.766675,52.451089],[-1.766661,52.450739],[-1.769015,52.451103],[-1.772478,52.450717],[-1.773336,52.451007],[-1.774383,52.45068],[-1.777478,52.450632],[-1.777951,52.450188],[-1.779107,52.450154],[-1.77913,52.450429],[-1.781454,52.45067],[-1.781639,52.451049],[-1.782704,52.45086],[-1.788981,52.453096],[-1.789421,52.452772],[-1.790283,52.452973],[-1.790503,52.4527],[-1.791308,52.452966],[-1.790906,52.453254],[-1.793988,52.454301],[-1.794825,52.4551],[-1.795683,52.455051],[-1.798744,52.45747],[-1.800317,52.458298],[-1.804913,52.454429],[-1.805389,52.454697],[-1.805965,52.454094],[-1.805124,52.453331],[-1.806254,52.451567],[-1.806066,52.44976],[-1.806679,52.449681],[-1.808276,52.446532],[-1.809263,52.445394],[-1.81001,52.445231],[-1.809573,52.444777],[-1.81227,52.443013],[-1.811571,52.442344],[-1.812416,52.442012],[-1.811837,52.441409],[-1.812798,52.440595],[-1.811904,52.440489],[-1.813399,52.4385],[-1.814481,52.437744],[-1.81611,52.437821],[-1.817315,52.432367],[-1.81924,52.4309],[-1.825263,52.429306],[-1.82703,52.427789],[-1.827999,52.425569],[-1.830725,52.422796],[-1.832898,52.419483],[-1.83441,52.418564],[-1.833729,52.418153],[-1.83906,52.41435],[-1.842365,52.412615],[-1.843609,52.410524],[-1.847818,52.409966],[-1.848719,52.410018],[-1.849434,52.410789],[-1.850253,52.410293],[-1.850836,52.410446],[-1.853943,52.408559],[-1.857811,52.408419],[-1.862759,52.409336],[-1.864131,52.410087],[-1.864769,52.410997],[-1.866645,52.411045],[-1.865637,52.409952],[-1.866252,52.409823],[-1.867113,52.408787],[-1.868786,52.407738],[-1.869196,52.40781],[-1.868767,52.404712],[-1.872378,52.404678],[-1.872334,52.402157],[-1.877866,52.402429],[-1.878354,52.399898],[-1.882697,52.399813],[-1.886193,52.404357],[-1.885939,52.404688],[-1.892381,52.404433],[-1.896133,52.403327],[-1.90069,52.403836],[-1.904588,52.403146],[-1.906626,52.404094],[-1.909667,52.404447],[-1.910812,52.406691],[-1.913675,52.407464],[-1.913959,52.406661],[-1.91465,52.406755],[-1.915303,52.403164],[-1.916469,52.401544],[-1.918297,52.400134],[-1.918578,52.398193],[-1.922437,52.396856],[-1.923136,52.396225],[-1.924383,52.396693],[-1.928272,52.393139],[-1.928073,52.392891],[-1.932072,52.390505],[-1.932858,52.390325],[-1.934636,52.38789],[-1.934154,52.38755],[-1.934315,52.387236],[-1.936346,52.387905],[-1.939672,52.3896],[-1.945449,52.390696],[-1.952543,52.393321],[-1.953614,52.393371],[-1.958912,52.388248],[-1.959408,52.388242],[-1.959562,52.388989],[-1.960435,52.389093],[-1.964927,52.392188],[-1.966362,52.389465],[-1.968827,52.389458],[-1.96896,52.389212],[-1.969716,52.389689],[-1.970546,52.389657],[-1.971621,52.389216],[-1.972457,52.388126],[-1.975577,52.387111],[-1.977797,52.387704],[-1.978592,52.387514],[-1.978927,52.387872],[-1.983624,52.387334],[-1.98819,52.384503],[-1.988077,52.383596],[-1.988971,52.382642],[-1.99288,52.381952],[-1.994511,52.381181],[-1.99803,52.381062],[-2.000177,52.381632],[-2.001279,52.383565],[-2.002186,52.383529],[-2.002208,52.3842],[-2.004166,52.383957],[-2.005001,52.384155],[-2.006137,52.38567],[-2.00846,52.386962],[-2.011353,52.386181],[-2.012951,52.3887],[-2.013366,52.392073],[-2.014184,52.394225],[-2.015075,52.394669],[-2.016903,52.394261],[-2.018074,52.394949],[-2.01943,52.396482],[-2.020724,52.399342],[-2.02167,52.400099],[-2.025056,52.400664],[-2.025783,52.400418],[-2.029427,52.400571],[-2.031313,52.401004],[-2.033641,52.402328],[-2.033435,52.403033],[-2.027315,52.407113],[-2.027271,52.407568],[-2.027861,52.407885],[-2.027534,52.408105],[-2.024177,52.406371],[-2.02316,52.406292],[-2.022028,52.406817],[-2.020478,52.406868],[-2.017549,52.405582],[-2.015071,52.406123],[-2.014274,52.40688],[-2.012678,52.407317],[-2.012349,52.408205],[-2.012808,52.409461],[-2.010901,52.409528],[-2.009234,52.410363],[-2.008097,52.40862],[-2.006441,52.409134],[-2.004639,52.409223],[-2.004201,52.410969],[-2.00279,52.410678],[-2.002077,52.410871],[-2.001013,52.410309],[-1.997798,52.409738],[-1.996926,52.410354],[-1.995609,52.412496],[-1.993245,52.413573],[-1.991075,52.413559],[-1.988862,52.414122],[-1.986037,52.416726],[-1.988219,52.416989],[-1.988697,52.416369],[-1.991042,52.415413],[-1.997061,52.417426],[-1.99701,52.417942],[-1.999018,52.418714],[-2.000368,52.420244],[-2.002043,52.420988],[-2.001275,52.421872],[-2.002819,52.422331],[-2.001649,52.422999],[-2.003392,52.425392],[-2.003515,52.426261],[-2.004317,52.426371],[-2.004686,52.42841],[-2.006558,52.427928],[-2.007297,52.428094],[-2.009741,52.426522],[-2.013178,52.428721],[-2.012571,52.429805],[-2.013783,52.429552],[-2.015459,52.428611],[-2.01528,52.432174],[-2.015805,52.432664],[-2.01699,52.432683],[-2.017001,52.440674],[-2.017435,52.443256],[-2.016512,52.446732],[-2.015268,52.447659],[-2.013233,52.448356],[-2.013512,52.449659],[-2.012121,52.452193],[-2.011505,52.455365],[-2.011757,52.457222],[-2.013084,52.460284],[-2.013243,52.462191],[-2.007905,52.461914],[-2.004392,52.462592],[-2.002087,52.463398],[-1.997723,52.463113],[-1.977242,52.467431],[-1.965745,52.473362],[-1.965807,52.473664],[-1.96713,52.474198],[-1.965374,52.475323],[-1.969024,52.476794],[-1.968405,52.477746],[-1.968692,52.477862],[-1.967032,52.478953],[-1.964689,52.481514],[-1.963792,52.482076],[-1.961391,52.482777],[-1.959202,52.482869],[-1.956123,52.482308],[-1.952486,52.483361],[-1.951567,52.482826],[-1.950777,52.483247],[-1.949519,52.485227],[-1.95072,52.485494],[-1.949705,52.487142],[-1.948429,52.487],[-1.948026,52.487624],[-1.947091,52.487491],[-1.945946,52.490212],[-1.943938,52.489936],[-1.943028,52.491512],[-1.945683,52.493167],[-1.945528,52.493544],[-1.943824,52.494417],[-1.94431,52.495735],[-1.941414,52.497543],[-1.938132,52.498425],[-1.942585,52.499413],[-1.942463,52.499597],[-1.943002,52.499406],[-1.945713,52.499972],[-1.951038,52.501518],[-1.955524,52.501596],[-1.955484,52.502635],[-1.963025,52.504897],[-1.961149,52.506617],[-1.961969,52.507574],[-1.961261,52.508266],[-1.962235,52.508336],[-1.961976,52.509876],[-1.959569,52.509667],[-1.962266,52.512651],[-1.962643,52.513662],[-1.962108,52.515937],[-1.9602,52.517066],[-1.959902,52.517723],[-1.958795,52.518415],[-1.958039,52.519979],[-1.959493,52.52229],[-1.960108,52.524897],[-1.962079,52.527962],[-1.960479,52.530224],[-1.960238,52.531351],[-1.958082,52.531399],[-1.957918,52.529966],[-1.957479,52.529716],[-1.951272,52.529792],[-1.949868,52.530434],[-1.947982,52.532587],[-1.947301,52.532827],[-1.947408,52.533476],[-1.946478,52.533762],[-1.945282,52.533391],[-1.944143,52.533434],[-1.94285,52.533828],[-1.939724,52.533178],[-1.93946,52.532776],[-1.937238,52.532008],[-1.933679,52.532753],[-1.932466,52.532666],[-1.929445,52.531307],[-1.930347,52.533358],[-1.92944,52.542822],[-1.929942,52.543588],[-1.93315,52.545813],[-1.92119,52.546051],[-1.919809,52.546343],[-1.911835,52.551944],[-1.908157,52.553227],[-1.90128,52.554414],[-1.899793,52.554999],[-1.898096,52.556623],[-1.896682,52.558858],[-1.891633,52.562455],[-1.888499,52.563826],[-1.882746,52.567457],[-1.878519,52.569636],[-1.875925,52.580362],[-1.872564,52.584945],[-1.870808,52.586779],[-1.867712,52.588276],[-1.867961,52.58853],[-1.863912,52.591075],[-1.85468,52.601352],[-1.848551,52.604653],[-1.844471,52.605224],[-1.838657,52.606872],[-1.838034,52.606746],[-1.83672,52.607357],[-1.83237,52.607807],[-1.827987,52.608715],[-1.811817,52.604409]]]}}]}