{"type":"FeatureCollection","features":[{"type":"Feature","properties":{"slug":"blaby","gss_code":"E07000129","name":"Blaby"},"geometry":{"type":"Polygon","coordinates":[[[-1.198095,52.663422],[-1.197536,52.663427],[-1.197182,52.66284],[-1.19649,52.662913],[-1.196147,52.662261],[-1.195554,52.662296],[-1.196706,52.661674],[-1.193066,52.660337],[-1.192042,52.661406],[-1.188472,52.660404],[-1.187328,52.66106],[-1.185289,52.660644],[-1.184538,52.659546],[-1.184124,52.657556],[-1.184597,52.653347],[-1.182919,52.653016],[-1.184062,52.649583],[-1.187575,52.647151],[-1.186991,52.64559],[-1.189696,52.64251],[-1.190656,52.640394],[-1.195995,52.641084],[-1.198068,52.641732],[-1.198759,52.641466],[-1.198791,52.6403],[-1.2009,52.639844],[-1.201509,52.641136],[-1.202957,52.641368],[-1.205891,52.642672],[-1.209005,52.642092],[-1.209742,52.641695],[-1.211018,52.639429],[-1.214348,52.636936],[-1.213084,52.636151],[-1.215981,52.634534],[-1.214856,52.633336],[-1.210547,52.630854],[-1.208747,52.630582],[-1.205395,52.628816],[-1.200408,52.627231],[-1.200141,52.626677],[-1.196102,52.625687],[-1.188772,52.622971],[-1.187233,52.621659],[-1.185865,52.621734],[-1.184609,52.620728],[-1.178435,52.618264],[-1.174353,52.617871],[-1.172191,52.615902],[-1.168207,52.614433],[-1.16654,52.613259],[-1.165499,52.613103],[-1.165722,52.611434],[-1.164089,52.609454],[-1.167302,52.608245],[-1.171032,52.605766],[-1.16537,52.603047],[-1.166102,52.60219],[-1.167984,52.601426],[-1.170083,52.598352],[-1.171502,52.598723],[-1.172641,52.597306],[-1.171545,52.596665],[-1.170377,52.596566],[-1.170091,52.595906],[-1.170861,52.594841],[-1.170399,52.593909],[-1.171451,52.593432],[-1.17405,52.593702],[-1.174158,52.592848],[-1.172405,52.592819],[-1.172125,52.591826],[-1.169188,52.591589],[-1.16846,52.592765],[-1.16081,52.5923],[-1.160891,52.591768],[-1.159552,52.591714],[-1.159267,52.59124],[-1.15789,52.590822],[-1.158813,52.588903],[-1.157151,52.588629],[-1.156943,52.587236],[-1.155606,52.587153],[-1.155934,52.585993],[-1.158008,52.585755],[-1.158215,52.584184],[-1.160661,52.584322],[-1.160942,52.582531],[-1.160411,52.582426],[-1.159721,52.582982],[-1.1589,52.582661],[-1.159329,52.581666],[-1.153099,52.580669],[-1.149496,52.581024],[-1.147376,52.585302],[-1.146287,52.586597],[-1.145988,52.588136],[-1.143619,52.588025],[-1.143594,52.586465],[-1.144512,52.585548],[-1.143585,52.585214],[-1.143235,52.584591],[-1.143593,52.581281],[-1.140961,52.581551],[-1.139721,52.577969],[-1.140717,52.576383],[-1.136586,52.575106],[-1.136984,52.574022],[-1.13499,52.574176],[-1.134603,52.573597],[-1.132847,52.573613],[-1.133055,52.572774],[-1.132359,52.569782],[-1.134388,52.565783],[-1.133523,52.56588],[-1.133669,52.564137],[-1.129397,52.563811],[-1.130179,52.562248],[-1.126632,52.56199],[-1.126622,52.563227],[-1.126089,52.563239],[-1.124798,52.564994],[-1.124806,52.565383],[-1.125372,52.565511],[-1.125058,52.566277],[-1.124614,52.56628],[-1.125137,52.566919],[-1.124328,52.567413],[-1.124372,52.568737],[-1.123018,52.568812],[-1.122445,52.568432],[-1.123514,52.568402],[-1.123003,52.567835],[-1.122425,52.568025],[-1.121607,52.567628],[-1.121156,52.567178],[-1.121453,52.566845],[-1.120618,52.56678],[-1.120404,52.566468],[-1.116597,52.567037],[-1.116596,52.566163],[-1.115793,52.565911],[-1.115596,52.566379],[-1.115168,52.566383],[-1.11527,52.565976],[-1.114556,52.566021],[-1.114008,52.56541],[-1.113212,52.566031],[-1.109937,52.565789],[-1.107143,52.564311],[-1.106172,52.564621],[-1.106389,52.565268],[-1.106003,52.565656],[-1.105318,52.565624],[-1.105543,52.565097],[-1.105189,52.564985],[-1.104118,52.565087],[-1.103618,52.565651],[-1.103191,52.565591],[-1.103369,52.565182],[-1.102957,52.564992],[-1.101844,52.565525],[-1.100823,52.565551],[-1.096997,52.565549],[-1.096454,52.565003],[-1.09579,52.565553],[-1.094853,52.564524],[-1.095374,52.564764],[-1.09559,52.564543],[-1.094375,52.563701],[-1.094444,52.563353],[-1.093777,52.563222],[-1.093986,52.562691],[-1.094321,52.563104],[-1.09469,52.562949],[-1.094394,52.562514],[-1.094749,52.561868],[-1.093992,52.561736],[-1.094266,52.561195],[-1.092245,52.561539],[-1.092653,52.561054],[-1.091952,52.560583],[-1.091146,52.560918],[-1.089809,52.559875],[-1.088608,52.559655],[-1.088644,52.559203],[-1.087402,52.559273],[-1.086826,52.558967],[-1.086189,52.559219],[-1.08586,52.557953],[-1.085605,52.558274],[-1.08501,52.557902],[-1.085551,52.557354],[-1.084998,52.556827],[-1.085927,52.556622],[-1.085504,52.556262],[-1.084897,52.556208],[-1.084035,52.556692],[-1.083848,52.556399],[-1.082894,52.556579],[-1.080271,52.55559],[-1.077227,52.555811],[-1.076567,52.556836],[-1.074547,52.556733],[-1.073802,52.556098],[-1.073354,52.556482],[-1.074108,52.556886],[-1.073234,52.557986],[-1.073631,52.559041],[-1.072802,52.561076],[-1.071885,52.561774],[-1.064241,52.562068],[-1.063905,52.559048],[-1.059392,52.55893],[-1.060445,52.555511],[-1.060722,52.55528],[-1.061476,52.555424],[-1.064729,52.552353],[-1.066234,52.549181],[-1.069831,52.544148],[-1.069859,52.54288],[-1.072579,52.542502],[-1.075703,52.539737],[-1.075954,52.538797],[-1.087256,52.540674],[-1.087553,52.540467],[-1.090417,52.541217],[-1.090406,52.541545],[-1.093474,52.541414],[-1.09422,52.541921],[-1.097443,52.54241],[-1.102268,52.538359],[-1.104508,52.539813],[-1.106059,52.541842],[-1.109365,52.542072],[-1.113885,52.541885],[-1.117502,52.54321],[-1.121257,52.545187],[-1.123469,52.544593],[-1.13945,52.543172],[-1.139273,52.53987],[-1.140305,52.537924],[-1.143885,52.537546],[-1.143061,52.536519],[-1.142844,52.535001],[-1.172,52.534401],[-1.172113,52.533204],[-1.173013,52.532876],[-1.175059,52.527587],[-1.181735,52.529685],[-1.184275,52.527499],[-1.190199,52.527856],[-1.194079,52.527672],[-1.196195,52.528105],[-1.197075,52.527627],[-1.198549,52.528198],[-1.202133,52.52744],[-1.203277,52.530335],[-1.204528,52.531619],[-1.205444,52.53516],[-1.206631,52.535131],[-1.209063,52.539256],[-1.210806,52.540996],[-1.211211,52.542239],[-1.21187,52.54286],[-1.213862,52.543649],[-1.213,52.544255],[-1.217827,52.547666],[-1.217857,52.54823],[-1.221202,52.550154],[-1.224356,52.551464],[-1.224127,52.551683],[-1.226661,52.55342],[-1.231841,52.555379],[-1.246357,52.543065],[-1.247971,52.542038],[-1.249916,52.539875],[-1.251348,52.539099],[-1.251272,52.538737],[-1.285611,52.509178],[-1.292846,52.503439],[-1.296995,52.499593],[-1.302101,52.495833],[-1.304366,52.493213],[-1.305481,52.493656],[-1.305948,52.493395],[-1.307827,52.49454],[-1.325121,52.501054],[-1.321942,52.505552],[-1.321859,52.506821],[-1.321245,52.507302],[-1.321492,52.507698],[-1.319117,52.511137],[-1.319384,52.512368],[-1.318806,52.514595],[-1.31797,52.515118],[-1.320792,52.51558],[-1.321154,52.516038],[-1.321897,52.515715],[-1.322124,52.516194],[-1.323556,52.516995],[-1.322426,52.519002],[-1.323789,52.52053],[-1.325216,52.52096],[-1.325105,52.5212],[-1.325703,52.521423],[-1.327238,52.521594],[-1.327126,52.522539],[-1.327634,52.523222],[-1.329265,52.524047],[-1.329246,52.524459],[-1.330403,52.524613],[-1.330327,52.527141],[-1.331221,52.52734],[-1.329592,52.529336],[-1.331658,52.529843],[-1.330701,52.531132],[-1.334847,52.533025],[-1.332603,52.538698],[-1.334378,52.541039],[-1.334951,52.542916],[-1.334552,52.543791],[-1.336251,52.547102],[-1.336566,52.548612],[-1.338054,52.551725],[-1.339113,52.552902],[-1.338991,52.554587],[-1.337286,52.556322],[-1.332462,52.558428],[-1.332518,52.559368],[-1.334887,52.560193],[-1.329271,52.565989],[-1.325825,52.56493],[-1.323709,52.567794],[-1.31931,52.567092],[-1.319754,52.565895],[-1.312923,52.563542],[-1.312934,52.563195],[-1.312153,52.562842],[-1.312437,52.562332],[-1.31183,52.562086],[-1.310138,52.5627],[-1.309343,52.562555],[-1.309053,52.562921],[-1.308325,52.562572],[-1.306746,52.562909],[-1.305643,52.561827],[-1.303646,52.561905],[-1.303172,52.561463],[-1.302023,52.561389],[-1.298388,52.562655],[-1.298556,52.563358],[-1.298094,52.563718],[-1.295466,52.563405],[-1.28933,52.564617],[-1.288913,52.56365],[-1.284945,52.56298],[-1.284512,52.563391],[-1.282274,52.563234],[-1.281625,52.563676],[-1.280717,52.563708],[-1.280208,52.56435],[-1.279415,52.564471],[-1.279696,52.56469],[-1.278157,52.564902],[-1.278081,52.565205],[-1.27683,52.565049],[-1.277028,52.564789],[-1.276075,52.564487],[-1.275586,52.564829],[-1.275186,52.56447],[-1.273602,52.565939],[-1.272916,52.565972],[-1.272792,52.566586],[-1.272116,52.56703],[-1.271808,52.567822],[-1.272555,52.567958],[-1.272452,52.568476],[-1.271426,52.568454],[-1.270254,52.568884],[-1.269867,52.569719],[-1.269385,52.569637],[-1.269723,52.56987],[-1.26968,52.570337],[-1.269208,52.570253],[-1.269361,52.570793],[-1.268112,52.570952],[-1.268213,52.571346],[-1.267515,52.571801],[-1.268829,52.572076],[-1.269109,52.573022],[-1.269761,52.572997],[-1.269284,52.573291],[-1.269466,52.573792],[-1.270085,52.573823],[-1.270171,52.574887],[-1.270618,52.574635],[-1.273528,52.57487],[-1.280711,52.576078],[-1.283988,52.576958],[-1.286425,52.578095],[-1.289358,52.578313],[-1.29709,52.58001],[-1.295626,52.582479],[-1.295314,52.583837],[-1.296043,52.58414],[-1.295567,52.584708],[-1.296307,52.585507],[-1.298342,52.585991],[-1.295902,52.588402],[-1.294116,52.589312],[-1.292053,52.591301],[-1.292415,52.591528],[-1.291247,52.592599],[-1.284895,52.595265],[-1.281544,52.597466],[-1.276972,52.599385],[-1.274584,52.600984],[-1.274698,52.602749],[-1.278027,52.604659],[-1.279836,52.607269],[-1.275891,52.609029],[-1.280326,52.608993],[-1.27426,52.609792],[-1.277285,52.611502],[-1.274131,52.612852],[-1.273996,52.611546],[-1.273358,52.611295],[-1.271775,52.614562],[-1.274385,52.61502],[-1.274479,52.61617],[-1.26462,52.614418],[-1.265039,52.614967],[-1.257385,52.616199],[-1.257787,52.62079],[-1.26,52.623828],[-1.260509,52.625389],[-1.262811,52.626971],[-1.261722,52.628337],[-1.260468,52.62888],[-1.254326,52.630234],[-1.252474,52.630239],[-1.252455,52.630777],[-1.251391,52.631669],[-1.249395,52.631562],[-1.248354,52.632507],[-1.2464,52.632408],[-1.240788,52.633596],[-1.244265,52.635952],[-1.247153,52.636108],[-1.24846,52.636536],[-1.250673,52.636128],[-1.251542,52.636514],[-1.253437,52.636263],[-1.253851,52.635944],[-1.253726,52.635099],[-1.255041,52.634472],[-1.256112,52.634352],[-1.255967,52.635537],[-1.257269,52.635829],[-1.259203,52.636877],[-1.261372,52.636265],[-1.261802,52.637066],[-1.260591,52.637],[-1.260563,52.637444],[-1.259305,52.637194],[-1.257493,52.638186],[-1.256873,52.63789],[-1.256618,52.638321],[-1.255035,52.63824],[-1.254628,52.638604],[-1.251233,52.63896],[-1.248592,52.64022],[-1.24783,52.64023],[-1.247367,52.639794],[-1.246595,52.639911],[-1.243961,52.640678],[-1.243857,52.641102],[-1.243057,52.641493],[-1.242126,52.64147],[-1.241885,52.641053],[-1.241672,52.641842],[-1.240946,52.641287],[-1.239745,52.641515],[-1.239578,52.641082],[-1.239354,52.64146],[-1.238689,52.641295],[-1.237313,52.6418],[-1.237161,52.641363],[-1.236672,52.641359],[-1.236829,52.641636],[-1.23645,52.64174],[-1.235643,52.641305],[-1.235834,52.640984],[-1.234951,52.641066],[-1.234661,52.640411],[-1.234239,52.640725],[-1.234052,52.640205],[-1.233735,52.640742],[-1.233434,52.640453],[-1.232836,52.640913],[-1.232198,52.640747],[-1.232373,52.641626],[-1.229254,52.642444],[-1.225081,52.64408],[-1.223145,52.646262],[-1.224265,52.646252],[-1.227046,52.648573],[-1.228626,52.649066],[-1.225649,52.65052],[-1.225242,52.650237],[-1.220684,52.651095],[-1.218328,52.651161],[-1.215948,52.652015],[-1.214106,52.653339],[-1.214243,52.653872],[-1.210539,52.655215],[-1.209623,52.658538],[-1.208289,52.65981],[-1.202944,52.662121],[-1.202594,52.663949],[-1.199682,52.664402],[-1.198095,52.663422]]]}}]}