{"type":"FeatureCollection","features":[{"type":"Feature","properties":{"slug":"blackpool","gss_code":"E06000009","name":"Blackpool"},"geometry":{"type":"Polygon","coordinates":[[[-3.019111,53.83709],[-3.016489,53.837516],[-3.017356,53.839323],[-3.017335,53.840383],[-3.015556,53.840711],[-3.013278,53.839026],[-3.012606,53.83778],[-3.01019,53.836473],[-3.009849,53.835046],[-3.00764,53.834042],[-3.007202,53.832901],[-3.008807,53.830378],[-3.010831,53.830524],[-3.012114,53.829511],[-3.013773,53.829206],[-3.010044,53.826444],[-3.011667,53.82559],[-3.010097,53.824857],[-3.006137,53.824378],[-3.002764,53.823183],[-3.00223,53.821921],[-2.99998,53.820062],[-2.998542,53.820403],[-2.998223,53.818998],[-2.995647,53.818764],[-2.99451,53.817672],[-2.993303,53.815903],[-2.994814,53.815],[-2.993543,53.812912],[-2.99398,53.81218],[-2.992011,53.80814],[-2.986675,53.802185],[-2.989537,53.800463],[-2.986912,53.79866],[-2.984826,53.795124],[-2.983357,53.793803],[-2.99056,53.793665],[-2.999346,53.794265],[-2.9995,53.793515],[-3.002204,53.792753],[-3.00133,53.792078],[-3.00308,53.791122],[-3.003887,53.791342],[-3.003988,53.787816],[-3.006122,53.787992],[-3.001434,53.781629],[-3.001025,53.781694],[-3.000146,53.78084],[-3.00069,53.780618],[-2.996478,53.774504],[-3.011579,53.774411],[-3.015467,53.774581],[-3.015797,53.775149],[-3.028801,53.773117],[-3.032765,53.780749],[-3.057414,53.776478],[-3.058102,53.778644],[-3.058951,53.784421],[-3.058811,53.784095],[-3.059033,53.791064],[-3.058412,53.793267],[-3.058632,53.794223],[-3.056797,53.797413],[-3.05724,53.798506],[-3.056481,53.799663],[-3.056299,53.801484],[-3.056826,53.802678],[-3.056087,53.804542],[-3.056071,53.806156],[-3.056781,53.807222],[-3.056302,53.808379],[-3.056859,53.811379],[-3.056349,53.812583],[-3.056648,53.814753],[-3.057351,53.815951],[-3.056658,53.819165],[-3.057134,53.821217],[-3.05606,53.822402],[-3.056534,53.832063],[-3.055902,53.833751],[-3.055798,53.83752],[-3.056528,53.837915],[-3.056655,53.838435],[-3.055755,53.839237],[-3.055729,53.841209],[-3.054251,53.849878],[-3.051341,53.857184],[-3.049104,53.865995],[-3.048077,53.870451],[-3.047963,53.871761],[-3.048368,53.872347],[-3.047757,53.8756],[-3.031321,53.87472],[-3.027143,53.870166],[-3.026897,53.869241],[-3.01975,53.8686],[-3.021422,53.865505],[-3.022772,53.864322],[-3.022613,53.8617],[-3.021725,53.860449],[-3.020631,53.859438],[-3.020057,53.859331],[-3.014014,53.85032],[-3.015083,53.84994],[-3.015225,53.84902],[-3.018017,53.848271],[-3.017375,53.847622],[-3.01863,53.847026],[-3.017814,53.845201],[-3.01523,53.842775],[-3.020465,53.840769],[-3.019999,53.839009],[-3.019359,53.838942],[-3.019111,53.83709]]]}}]}