{"type":"FeatureCollection","features":[{"type":"Feature","properties":{"slug":"bolsover","gss_code":"E07000033","name":"Bolsover"},"geometry":{"type":"Polygon","coordinates":[[[-1.28661,53.309015],[-1.284483,53.309657],[-1.276429,53.309213],[-1.274109,53.310525],[-1.273598,53.31044],[-1.271549,53.309311],[-1.26964,53.309096],[-1.269448,53.307858],[-1.267813,53.305818],[-1.264147,53.305399],[-1.261314,53.303942],[-1.258176,53.303413],[-1.255015,53.30239],[-1.254294,53.301755],[-1.251033,53.301891],[-1.247882,53.302689],[-1.246166,53.302416],[-1.244944,53.301693],[-1.24333,53.301649],[-1.241549,53.302467],[-1.238735,53.304452],[-1.237197,53.306114],[-1.232305,53.308277],[-1.23044,53.308558],[-1.221819,53.305196],[-1.219878,53.304078],[-1.218736,53.304053],[-1.212501,53.305451],[-1.209808,53.30532],[-1.205708,53.30429],[-1.203239,53.304223],[-1.202108,53.306057],[-1.203027,53.307227],[-1.199743,53.31144],[-1.194948,53.308572],[-1.193714,53.308258],[-1.190599,53.306537],[-1.187203,53.303947],[-1.185596,53.304685],[-1.182967,53.305167],[-1.180905,53.306221],[-1.180539,53.305894],[-1.179506,53.306412],[-1.179011,53.305927],[-1.17677,53.305251],[-1.175844,53.303426],[-1.174176,53.302533],[-1.174852,53.299115],[-1.173778,53.297488],[-1.173818,53.296192],[-1.171563,53.294638],[-1.176397,53.28965],[-1.178699,53.288877],[-1.180117,53.287135],[-1.178304,53.286257],[-1.177532,53.284291],[-1.177936,53.283768],[-1.176966,53.283513],[-1.176003,53.282722],[-1.175763,53.28165],[-1.173991,53.281236],[-1.172078,53.280069],[-1.171017,53.279834],[-1.169277,53.278561],[-1.166488,53.277655],[-1.168334,53.276689],[-1.170719,53.276161],[-1.173299,53.274096],[-1.177338,53.273679],[-1.178246,53.273214],[-1.181542,53.270032],[-1.181561,53.26949],[-1.180205,53.26843],[-1.175552,53.266542],[-1.174627,53.265797],[-1.174797,53.265113],[-1.177533,53.265164],[-1.178137,53.264439],[-1.179344,53.264306],[-1.183018,53.264956],[-1.185371,53.264351],[-1.187611,53.264454],[-1.191469,53.264056],[-1.193953,53.263209],[-1.19602,53.263411],[-1.198539,53.262293],[-1.20252,53.26116],[-1.203753,53.258943],[-1.20269,53.257283],[-1.204504,53.257183],[-1.205804,53.256745],[-1.20583,53.256216],[-1.207053,53.25518],[-1.207836,53.253225],[-1.210349,53.251233],[-1.209043,53.250815],[-1.209393,53.2503],[-1.213027,53.247672],[-1.212459,53.245586],[-1.209972,53.240986],[-1.20873,53.240902],[-1.207156,53.239229],[-1.205187,53.238691],[-1.205813,53.237899],[-1.205056,53.236619],[-1.202043,53.235542],[-1.203347,53.233293],[-1.203314,53.231158],[-1.205772,53.230534],[-1.206217,53.227165],[-1.207056,53.226939],[-1.207454,53.225801],[-1.20794,53.225799],[-1.208221,53.224914],[-1.209005,53.224263],[-1.209413,53.217687],[-1.211072,53.215779],[-1.209028,53.212546],[-1.208462,53.212684],[-1.208205,53.21171],[-1.205681,53.210463],[-1.20586,53.210029],[-1.204816,53.208277],[-1.202842,53.208369],[-1.201815,53.207061],[-1.202193,53.206798],[-1.200968,53.203963],[-1.201507,53.203015],[-1.201589,53.198813],[-1.197252,53.195176],[-1.196828,53.193563],[-1.195863,53.192418],[-1.195117,53.189416],[-1.195325,53.187014],[-1.196988,53.184782],[-1.199342,53.183376],[-1.198727,53.183029],[-1.200845,53.18274],[-1.201192,53.182429],[-1.204292,53.182358],[-1.209401,53.181121],[-1.212264,53.181027],[-1.212808,53.180632],[-1.213422,53.180909],[-1.215661,53.180907],[-1.218398,53.178929],[-1.219035,53.179116],[-1.219575,53.178788],[-1.220465,53.178786],[-1.221039,53.179156],[-1.220948,53.179572],[-1.222595,53.18016],[-1.226733,53.178686],[-1.229124,53.178852],[-1.231989,53.178136],[-1.234012,53.178458],[-1.234562,53.178245],[-1.236202,53.178479],[-1.236182,53.178847],[-1.237419,53.179173],[-1.237801,53.178932],[-1.238765,53.17908],[-1.241689,53.178149],[-1.243332,53.177018],[-1.243671,53.176298],[-1.245759,53.175385],[-1.24527,53.175214],[-1.244606,53.173311],[-1.246309,53.172119],[-1.248235,53.171651],[-1.24949,53.170902],[-1.249071,53.169964],[-1.249672,53.169272],[-1.249456,53.168961],[-1.250231,53.168816],[-1.249848,53.168553],[-1.251692,53.167266],[-1.252904,53.166936],[-1.252367,53.166238],[-1.253396,53.165887],[-1.253172,53.165518],[-1.253666,53.165602],[-1.253754,53.165179],[-1.254678,53.164773],[-1.259925,53.164479],[-1.260366,53.165345],[-1.261768,53.165913],[-1.26234,53.166623],[-1.264548,53.166813],[-1.265664,53.167135],[-1.265773,53.167515],[-1.268966,53.168177],[-1.270012,53.167957],[-1.27144,53.16826],[-1.272435,53.167871],[-1.273422,53.168189],[-1.273652,53.167956],[-1.274918,53.16816],[-1.276609,53.16736],[-1.281992,53.167424],[-1.284152,53.168382],[-1.285421,53.169668],[-1.287979,53.170614],[-1.288775,53.171456],[-1.290742,53.171425],[-1.296004,53.171223],[-1.296604,53.170921],[-1.297571,53.168861],[-1.298963,53.167844],[-1.30026,53.168122],[-1.300742,53.164197],[-1.301913,53.163864],[-1.302671,53.163931],[-1.304508,53.165495],[-1.308038,53.163404],[-1.309263,53.163181],[-1.312572,53.163461],[-1.313062,53.16392],[-1.313605,53.163892],[-1.313594,53.164203],[-1.314066,53.164114],[-1.31436,53.16471],[-1.315189,53.164692],[-1.31547,53.165274],[-1.316595,53.165364],[-1.31747,53.164756],[-1.317507,53.164212],[-1.318989,53.163209],[-1.323459,53.162331],[-1.323457,53.159536],[-1.325473,53.157885],[-1.325583,53.156475],[-1.324595,53.154849],[-1.323155,53.153886],[-1.322236,53.151008],[-1.322301,53.148197],[-1.32167,53.144271],[-1.32026,53.142545],[-1.318815,53.139719],[-1.31498,53.135814],[-1.317693,53.135071],[-1.319283,53.13394],[-1.320181,53.132164],[-1.32178,53.13065],[-1.320157,53.128408],[-1.318712,53.128172],[-1.317856,53.127005],[-1.314803,53.125679],[-1.314935,53.125386],[-1.314248,53.124914],[-1.310994,53.118469],[-1.311057,53.116888],[-1.312293,53.11632],[-1.309673,53.113154],[-1.309689,53.111709],[-1.310662,53.110257],[-1.312054,53.109145],[-1.311833,53.108706],[-1.308801,53.107724],[-1.303609,53.103195],[-1.302518,53.103933],[-1.30142,53.104167],[-1.300729,53.10162],[-1.301578,53.101014],[-1.304024,53.100405],[-1.30498,53.100555],[-1.305573,53.100142],[-1.305992,53.100339],[-1.307395,53.099464],[-1.309251,53.09677],[-1.308491,53.095843],[-1.307087,53.095418],[-1.306912,53.094786],[-1.308153,53.094948],[-1.309131,53.094499],[-1.307394,53.092861],[-1.30739,53.092445],[-1.306102,53.091922],[-1.305359,53.090774],[-1.303765,53.089691],[-1.304107,53.089452],[-1.303455,53.089477],[-1.302561,53.088535],[-1.303236,53.088084],[-1.305884,53.086838],[-1.307773,53.086319],[-1.322306,53.084905],[-1.326139,53.083877],[-1.329679,53.082386],[-1.331536,53.081345],[-1.331635,53.080988],[-1.339814,53.084197],[-1.340978,53.084788],[-1.341729,53.085668],[-1.343666,53.086583],[-1.344414,53.086204],[-1.350864,53.086572],[-1.352792,53.086147],[-1.357048,53.08835],[-1.359,53.089867],[-1.360742,53.090402],[-1.361386,53.091836],[-1.362254,53.091806],[-1.365007,53.093259],[-1.364004,53.094529],[-1.364048,53.09592],[-1.365972,53.096674],[-1.366892,53.097704],[-1.369587,53.099039],[-1.369001,53.099315],[-1.368909,53.100083],[-1.370297,53.102433],[-1.372837,53.103777],[-1.373188,53.104987],[-1.372701,53.105545],[-1.372804,53.107167],[-1.37365,53.107856],[-1.372149,53.108253],[-1.370907,53.109092],[-1.371708,53.110957],[-1.377311,53.118549],[-1.376539,53.120079],[-1.374881,53.121701],[-1.375138,53.123565],[-1.374812,53.124787],[-1.374109,53.124817],[-1.373297,53.125813],[-1.374191,53.125854],[-1.37488,53.12637],[-1.372701,53.128587],[-1.373387,53.129455],[-1.372716,53.129995],[-1.373388,53.130955],[-1.372776,53.131647],[-1.374197,53.133703],[-1.374769,53.134133],[-1.375535,53.134057],[-1.375892,53.134938],[-1.377297,53.135331],[-1.377725,53.135834],[-1.377194,53.13697],[-1.374703,53.138412],[-1.374193,53.139148],[-1.370995,53.139473],[-1.366626,53.141757],[-1.366263,53.142382],[-1.36253,53.143263],[-1.362527,53.147],[-1.360653,53.147666],[-1.357477,53.150499],[-1.355028,53.151646],[-1.355915,53.153833],[-1.35475,53.155357],[-1.35341,53.155919],[-1.353038,53.156447],[-1.353658,53.157479],[-1.352945,53.158139],[-1.352917,53.159232],[-1.353843,53.160367],[-1.354671,53.160624],[-1.355526,53.162238],[-1.35706,53.163379],[-1.356832,53.163566],[-1.358347,53.1642],[-1.358789,53.165668],[-1.36012,53.166461],[-1.362267,53.166363],[-1.364651,53.167261],[-1.366791,53.170955],[-1.372291,53.17149],[-1.373752,53.172373],[-1.375961,53.172552],[-1.378247,53.173734],[-1.377442,53.173735],[-1.376685,53.175058],[-1.374118,53.176852],[-1.373171,53.178664],[-1.37117,53.180653],[-1.369411,53.180831],[-1.367906,53.1801],[-1.365062,53.18035],[-1.364562,53.180556],[-1.363888,53.18234],[-1.363242,53.182734],[-1.361821,53.182641],[-1.359308,53.184194],[-1.359681,53.184362],[-1.358124,53.184716],[-1.356726,53.185463],[-1.354429,53.184418],[-1.353601,53.185357],[-1.352216,53.1855],[-1.352048,53.184473],[-1.345654,53.183442],[-1.344605,53.186033],[-1.344513,53.187929],[-1.343651,53.188004],[-1.340972,53.187548],[-1.339714,53.187018],[-1.337211,53.18686],[-1.336981,53.18737],[-1.336061,53.1875],[-1.334991,53.186989],[-1.331364,53.186925],[-1.330317,53.187225],[-1.329975,53.187697],[-1.328437,53.188031],[-1.327215,53.187859],[-1.324158,53.186291],[-1.321836,53.185612],[-1.320616,53.185459],[-1.31853,53.185907],[-1.31752,53.191347],[-1.31625,53.193144],[-1.315443,53.193309],[-1.3149,53.19482],[-1.311538,53.198891],[-1.313889,53.202586],[-1.313701,53.204904],[-1.314205,53.20578],[-1.313743,53.208473],[-1.313381,53.208941],[-1.312433,53.208696],[-1.310998,53.210099],[-1.31153,53.21201],[-1.312546,53.212283],[-1.310614,53.215936],[-1.311134,53.217287],[-1.31431,53.21919],[-1.313698,53.220526],[-1.312576,53.22164],[-1.312532,53.222913],[-1.313035,53.223828],[-1.314747,53.223909],[-1.313733,53.224992],[-1.314083,53.225899],[-1.313454,53.22923],[-1.311338,53.231716],[-1.311519,53.232377],[-1.31653,53.23763],[-1.319155,53.239548],[-1.322644,53.241222],[-1.323852,53.252629],[-1.326162,53.254406],[-1.331263,53.257232],[-1.323941,53.259157],[-1.322578,53.259787],[-1.321605,53.261026],[-1.316677,53.262505],[-1.309379,53.263442],[-1.302621,53.263266],[-1.301302,53.263892],[-1.302094,53.265346],[-1.302178,53.266618],[-1.301617,53.26698],[-1.303476,53.269488],[-1.304564,53.269812],[-1.304941,53.270291],[-1.305979,53.272621],[-1.305932,53.273627],[-1.307154,53.275402],[-1.309043,53.275427],[-1.316717,53.281656],[-1.318696,53.285507],[-1.320738,53.286975],[-1.32191,53.28858],[-1.321924,53.288929],[-1.318997,53.289159],[-1.322558,53.291591],[-1.324085,53.294095],[-1.324141,53.295109],[-1.32345,53.295403],[-1.322937,53.295154],[-1.320027,53.295166],[-1.313358,53.296767],[-1.310674,53.297948],[-1.313572,53.299719],[-1.316086,53.301805],[-1.316263,53.305117],[-1.317825,53.30581],[-1.318946,53.307055],[-1.321804,53.30854],[-1.321928,53.309039],[-1.318717,53.310399],[-1.313584,53.310913],[-1.309168,53.311868],[-1.307476,53.312521],[-1.304639,53.312949],[-1.303058,53.312876],[-1.291591,53.309224],[-1.28661,53.309015]]]}}]}