{"type":"FeatureCollection","features":[{"type":"Feature","properties":{"slug":"bolton","gss_code":"E08000001","name":"Bolton"},"geometry":{"type":"Polygon","coordinates":[[[-2.432841,53.641575],[-2.430654,53.638462],[-2.426144,53.63501],[-2.425883,53.628203],[-2.426354,53.626516],[-2.425853,53.625859],[-2.424609,53.625547],[-2.421696,53.623836],[-2.416243,53.623695],[-2.413832,53.624686],[-2.409822,53.625395],[-2.404226,53.625006],[-2.403448,53.624334],[-2.401209,53.624599],[-2.400012,53.62828],[-2.400257,53.628951],[-2.400794,53.629063],[-2.398729,53.631705],[-2.397846,53.632208],[-2.385949,53.633015],[-2.385016,53.631819],[-2.383831,53.631286],[-2.379126,53.630852],[-2.379293,53.629296],[-2.379043,53.627041],[-2.381179,53.627339],[-2.383455,53.625545],[-2.378021,53.623276],[-2.376809,53.622066],[-2.376359,53.62208],[-2.377296,53.621916],[-2.376814,53.621194],[-2.379675,53.620817],[-2.379436,53.620298],[-2.377645,53.620521],[-2.376018,53.618226],[-2.375353,53.618452],[-2.374925,53.618038],[-2.376305,53.617494],[-2.375022,53.617067],[-2.374193,53.616187],[-2.369419,53.615254],[-2.368569,53.61555],[-2.362994,53.610307],[-2.364543,53.609047],[-2.363641,53.607787],[-2.364038,53.606681],[-2.363676,53.606072],[-2.36445,53.604703],[-2.365141,53.604268],[-2.364614,53.603009],[-2.366321,53.601918],[-2.366804,53.600135],[-2.368646,53.598372],[-2.368488,53.597983],[-2.369455,53.597417],[-2.368392,53.596057],[-2.36897,53.595513],[-2.372926,53.594028],[-2.376884,53.593291],[-2.377057,53.592917],[-2.375891,53.591528],[-2.376101,53.59124],[-2.37461,53.590475],[-2.375051,53.589642],[-2.376494,53.58883],[-2.376624,53.58785],[-2.376145,53.587773],[-2.376001,53.586579],[-2.375303,53.585912],[-2.376008,53.582418],[-2.376637,53.582028],[-2.375248,53.580498],[-2.374494,53.58019],[-2.374811,53.577941],[-2.373515,53.576478],[-2.373235,53.573928],[-2.372507,53.573817],[-2.372614,53.572837],[-2.373858,53.572087],[-2.373646,53.570354],[-2.370957,53.570734],[-2.369545,53.570457],[-2.368181,53.569359],[-2.366349,53.568508],[-2.36099,53.568276],[-2.357315,53.563254],[-2.356015,53.560345],[-2.357286,53.557861],[-2.355916,53.556698],[-2.356657,53.556131],[-2.357069,53.554385],[-2.358296,53.553233],[-2.359711,53.552792],[-2.360975,53.553369],[-2.361476,53.555495],[-2.362186,53.556115],[-2.363925,53.555473],[-2.366715,53.553347],[-2.368204,53.553302],[-2.371771,53.554317],[-2.373589,53.553914],[-2.367221,53.551666],[-2.362328,53.551345],[-2.362429,53.550457],[-2.35586,53.549325],[-2.351278,53.54777],[-2.347545,53.547354],[-2.343853,53.545268],[-2.34148,53.545882],[-2.341784,53.543242],[-2.34136,53.54134],[-2.338669,53.538066],[-2.337884,53.537973],[-2.33731,53.537528],[-2.337217,53.537171],[-2.337739,53.537023],[-2.33699,53.535808],[-2.337096,53.535194],[-2.338194,53.533614],[-2.34189,53.536418],[-2.345928,53.537453],[-2.348609,53.537242],[-2.348833,53.536716],[-2.347984,53.536052],[-2.348633,53.535665],[-2.351423,53.535751],[-2.352184,53.535087],[-2.353696,53.535057],[-2.353765,53.53472],[-2.352126,53.534226],[-2.352684,53.533691],[-2.353869,53.533914],[-2.354652,53.53275],[-2.352757,53.532328],[-2.353249,53.531314],[-2.352757,53.531257],[-2.352952,53.530596],[-2.353423,53.530633],[-2.353536,53.53022],[-2.350774,53.529663],[-2.354388,53.526241],[-2.368066,53.529206],[-2.368594,53.528202],[-2.370455,53.528833],[-2.385381,53.531525],[-2.389891,53.533453],[-2.39366,53.536515],[-2.396136,53.537663],[-2.399836,53.538547],[-2.402288,53.538719],[-2.402295,53.538474],[-2.408773,53.538309],[-2.412896,53.538854],[-2.421441,53.540997],[-2.421438,53.540733],[-2.425436,53.541212],[-2.42965,53.541291],[-2.437147,53.542253],[-2.438101,53.540038],[-2.440981,53.538698],[-2.441963,53.53614],[-2.441249,53.535162],[-2.442009,53.533655],[-2.442467,53.53367],[-2.443109,53.532351],[-2.444359,53.531541],[-2.444607,53.530925],[-2.447808,53.52937],[-2.448128,53.528107],[-2.461517,53.53069],[-2.466075,53.530696],[-2.469437,53.532013],[-2.472418,53.531737],[-2.478387,53.533542],[-2.482282,53.533436],[-2.489692,53.534589],[-2.490164,53.535572],[-2.49647,53.5367],[-2.496347,53.537114],[-2.49807,53.537465],[-2.499211,53.538049],[-2.502184,53.537853],[-2.503356,53.538565],[-2.505213,53.538654],[-2.505174,53.538908],[-2.506888,53.538804],[-2.507973,53.536499],[-2.509077,53.535679],[-2.509265,53.534638],[-2.510165,53.534105],[-2.513014,53.536306],[-2.515534,53.535823],[-2.515337,53.534457],[-2.515767,53.534483],[-2.516229,53.533881],[-2.515379,53.531217],[-2.515815,53.52926],[-2.517186,53.52847],[-2.517967,53.528558],[-2.518515,53.528017],[-2.519686,53.527933],[-2.520539,53.527243],[-2.520935,53.527195],[-2.521192,53.527563],[-2.521776,53.527096],[-2.522684,53.527135],[-2.523154,53.526654],[-2.525404,53.526394],[-2.526639,53.52549],[-2.527727,53.525572],[-2.52745,53.524754],[-2.52791,53.524746],[-2.527795,53.524178],[-2.528618,53.523949],[-2.528208,53.523671],[-2.528919,53.523104],[-2.531321,53.522948],[-2.531242,53.523268],[-2.531677,53.52331],[-2.532275,53.522883],[-2.532394,53.523214],[-2.533747,53.523014],[-2.53376,53.524016],[-2.53501,53.524203],[-2.534617,53.524648],[-2.53532,53.526179],[-2.535973,53.526178],[-2.536101,53.526871],[-2.536701,53.527082],[-2.536213,53.52755],[-2.537341,53.527835],[-2.537247,53.528157],[-2.538648,53.528248],[-2.538548,53.5286],[-2.539802,53.528929],[-2.539739,53.529479],[-2.540707,53.529656],[-2.541522,53.530707],[-2.541627,53.530432],[-2.542496,53.53055],[-2.543781,53.532564],[-2.54531,53.532983],[-2.545215,53.533447],[-2.549142,53.534481],[-2.549424,53.534936],[-2.550063,53.534859],[-2.550379,53.535419],[-2.550573,53.535087],[-2.551072,53.5352],[-2.551517,53.535923],[-2.553701,53.536188],[-2.553987,53.536932],[-2.554579,53.537076],[-2.554392,53.537336],[-2.555469,53.537342],[-2.556204,53.537869],[-2.556818,53.537793],[-2.556831,53.538069],[-2.560323,53.537996],[-2.56183,53.5389],[-2.561748,53.540354],[-2.560709,53.54087],[-2.560435,53.541673],[-2.559151,53.542397],[-2.559412,53.543813],[-2.558131,53.544457],[-2.559352,53.546193],[-2.563054,53.547375],[-2.566246,53.547394],[-2.567512,53.548005],[-2.569228,53.547531],[-2.56954,53.547949],[-2.567845,53.549141],[-2.568027,53.549991],[-2.566764,53.550035],[-2.566951,53.550804],[-2.563986,53.551192],[-2.563786,53.551743],[-2.56254,53.551964],[-2.562652,53.55284],[-2.560991,53.553327],[-2.561132,53.554828],[-2.559824,53.555566],[-2.56014,53.556185],[-2.561291,53.556622],[-2.562281,53.55751],[-2.562753,53.559284],[-2.563351,53.55954],[-2.563165,53.560312],[-2.559647,53.561146],[-2.560137,53.562109],[-2.5613,53.562146],[-2.563204,53.563237],[-2.563924,53.563173],[-2.564395,53.563676],[-2.568535,53.564711],[-2.567726,53.565501],[-2.568046,53.56568],[-2.567233,53.567587],[-2.565646,53.5687],[-2.565782,53.57008],[-2.56783,53.57145],[-2.568474,53.571526],[-2.568434,53.572029],[-2.572049,53.573577],[-2.572286,53.574129],[-2.573275,53.574213],[-2.575164,53.576771],[-2.5784,53.577431],[-2.578986,53.578388],[-2.577671,53.579459],[-2.577604,53.581003],[-2.582013,53.582755],[-2.585075,53.58508],[-2.58971,53.586653],[-2.59536,53.588059],[-2.596142,53.588817],[-2.601716,53.58883],[-2.603204,53.588203],[-2.606154,53.588312],[-2.608466,53.589338],[-2.612352,53.590493],[-2.618008,53.591102],[-2.619748,53.590971],[-2.620979,53.590353],[-2.623786,53.589639],[-2.627511,53.589442],[-2.62861,53.590457],[-2.628439,53.591057],[-2.625936,53.593696],[-2.623937,53.593885],[-2.622869,53.593602],[-2.621434,53.594465],[-2.620804,53.594172],[-2.619927,53.594258],[-2.618796,53.595384],[-2.617379,53.595849],[-2.617816,53.596985],[-2.616212,53.598121],[-2.615257,53.59997],[-2.615822,53.600588],[-2.615221,53.60133],[-2.615139,53.602863],[-2.613432,53.603711],[-2.61217,53.603957],[-2.611241,53.604986],[-2.608519,53.606415],[-2.60491,53.606976],[-2.602839,53.60873],[-2.601905,53.608355],[-2.600746,53.608399],[-2.59758,53.609046],[-2.595938,53.610792],[-2.59168,53.60976],[-2.591188,53.609443],[-2.591469,53.609003],[-2.5899,53.608693],[-2.589699,53.608198],[-2.588527,53.60841],[-2.58856,53.607925],[-2.587975,53.607723],[-2.587456,53.607942],[-2.587476,53.607644],[-2.586795,53.607408],[-2.587373,53.606931],[-2.586732,53.606045],[-2.585193,53.605333],[-2.58449,53.605534],[-2.584543,53.605207],[-2.583065,53.604695],[-2.582906,53.604204],[-2.583423,53.60379],[-2.582419,53.603543],[-2.581949,53.603067],[-2.58222,53.602788],[-2.581426,53.602666],[-2.581768,53.602375],[-2.581073,53.602351],[-2.581189,53.60202],[-2.58061,53.601979],[-2.580734,53.601511],[-2.579953,53.601124],[-2.580433,53.601076],[-2.580885,53.600024],[-2.580488,53.600052],[-2.580357,53.599531],[-2.579505,53.599002],[-2.578928,53.599183],[-2.579072,53.598911],[-2.578506,53.598954],[-2.57838,53.598367],[-2.577874,53.598349],[-2.578125,53.597914],[-2.576742,53.59733],[-2.576553,53.596884],[-2.576904,53.596746],[-2.576158,53.596598],[-2.57626,53.596134],[-2.575527,53.596371],[-2.575954,53.596164],[-2.575196,53.595912],[-2.57535,53.59523],[-2.573953,53.594807],[-2.574003,53.594291],[-2.569197,53.595565],[-2.56163,53.598643],[-2.559521,53.598943],[-2.55895,53.600344],[-2.558095,53.600458],[-2.55778,53.600846],[-2.557662,53.601659],[-2.55726,53.601798],[-2.55729,53.603048],[-2.556614,53.603657],[-2.555869,53.603908],[-2.555786,53.604374],[-2.552646,53.604986],[-2.552217,53.607356],[-2.5517,53.607905],[-2.550248,53.607719],[-2.549811,53.608143],[-2.547392,53.608759],[-2.547285,53.609178],[-2.546122,53.608962],[-2.544932,53.60917],[-2.542743,53.610048],[-2.540518,53.610274],[-2.538049,53.61132],[-2.537152,53.612717],[-2.53445,53.614547],[-2.533495,53.615064],[-2.531114,53.615487],[-2.529756,53.616353],[-2.529402,53.617018],[-2.525088,53.618722],[-2.511323,53.626995],[-2.507931,53.625404],[-2.496803,53.622696],[-2.479186,53.61701],[-2.473033,53.616559],[-2.470493,53.619902],[-2.46712,53.620948],[-2.466019,53.621699],[-2.463467,53.62232],[-2.463409,53.622004],[-2.4597,53.620043],[-2.457524,53.620985],[-2.455729,53.621482],[-2.455023,53.621357],[-2.453781,53.621974],[-2.454348,53.622413],[-2.453179,53.622778],[-2.453556,53.623465],[-2.454262,53.623464],[-2.455311,53.624142],[-2.456612,53.623965],[-2.458289,53.624631],[-2.456816,53.625729],[-2.45622,53.626807],[-2.454917,53.626927],[-2.453404,53.627959],[-2.4519,53.62779],[-2.452115,53.628233],[-2.450653,53.627811],[-2.44925,53.63112],[-2.448392,53.631862],[-2.44968,53.633378],[-2.449242,53.63558],[-2.447967,53.636636],[-2.449171,53.637853],[-2.448614,53.637885],[-2.448878,53.639058],[-2.45027,53.641432],[-2.449697,53.641545],[-2.44994,53.641904],[-2.448846,53.642071],[-2.446743,53.641448],[-2.445863,53.641918],[-2.445983,53.641638],[-2.44562,53.641624],[-2.445264,53.642017],[-2.443078,53.64241],[-2.443032,53.643058],[-2.442286,53.643783],[-2.438682,53.646072],[-2.432841,53.641575]]]}}]}