{"type":"FeatureCollection","features":[{"type":"Feature","properties":{"slug":"boston","gss_code":"E07000136","name":"Boston"},"geometry":{"type":"MultiPolygon","coordinates":[[[[-0.034959,52.870398],[-0.040349,52.868451],[-0.059243,52.863669],[-0.065631,52.862895],[-0.066021,52.8635],[-0.068962,52.864196],[-0.063648,52.865953],[-0.042882,52.87106],[-0.038196,52.872019],[-0.037986,52.871808],[-0.038841,52.871555],[-0.037678,52.871795],[-0.036977,52.872051],[-0.037766,52.871841],[-0.037934,52.872107],[-0.036982,52.87242],[-0.034959,52.870398]]],[[[0.04876,52.913436],[0.047769,52.912917],[0.046563,52.914061],[0.04554,52.913979],[0.046472,52.91404],[0.046875,52.913483],[0.043955,52.913134],[0.046951,52.913431],[0.047201,52.912554],[0.045187,52.911034],[0.044184,52.91117],[0.043238,52.910822],[0.042824,52.91244],[0.043208,52.912409],[0.042865,52.91264],[0.044164,52.914846],[0.046619,52.914827],[0.04876,52.913436]]],[[[0.053101,52.915841],[0.051814,52.915142],[0.051746,52.915421],[0.050427,52.915145],[0.051713,52.91511],[0.050794,52.914491],[0.050381,52.914657],[0.050106,52.914622],[0.050488,52.914602],[0.050679,52.91443],[0.05035,52.914561],[0.049683,52.914599],[0.050504,52.914489],[0.050186,52.914085],[0.048581,52.914596],[0.050038,52.914072],[0.049816,52.913907],[0.049248,52.914208],[0.049729,52.913889],[0.049417,52.913762],[0.047505,52.914388],[0.046853,52.915027],[0.047365,52.916104],[0.050636,52.91611],[0.04945,52.915688],[0.050806,52.916148],[0.0511,52.915899],[0.051285,52.916161],[0.053104,52.916221],[0.053101,52.915841]]],[[[0.06111,52.923718],[0.064013,52.924046],[0.064577,52.923672],[0.063072,52.922785],[0.062807,52.923351],[0.060709,52.92359],[0.059481,52.924239],[0.06111,52.923718]]],[[[0.061659,52.924429],[0.063646,52.924127],[0.062439,52.923892],[0.062007,52.924192],[0.061069,52.924194],[0.060479,52.924698],[0.060297,52.924496],[0.059939,52.924757],[0.060222,52.92445],[0.060457,52.924559],[0.060482,52.924672],[0.061003,52.924181],[0.061998,52.924145],[0.062197,52.92386],[0.061117,52.923787],[0.059829,52.924472],[0.060348,52.924019],[0.059315,52.924376],[0.058377,52.924391],[0.0592,52.924335],[0.060147,52.923689],[0.062223,52.923317],[0.061624,52.923099],[0.059278,52.9239],[0.060185,52.923477],[0.059979,52.923379],[0.057943,52.924342],[0.059291,52.923624],[0.057455,52.92427],[0.058242,52.923812],[0.056031,52.924327],[0.060535,52.925173],[0.060768,52.924749],[0.061659,52.924429]]],[[[0.09734,52.96183],[0.097351,52.960624],[0.096791,52.960674],[0.096327,52.96116],[0.096546,52.961336],[0.095852,52.961832],[0.096239,52.962203],[0.096838,52.962085],[0.096627,52.962221],[0.096258,52.96223],[0.096134,52.96219],[0.095224,52.961358],[0.095893,52.961724],[0.09633,52.961242],[0.095957,52.96107],[0.096598,52.960643],[0.095101,52.960632],[0.093694,52.961073],[0.09654,52.963708],[0.097231,52.963403],[0.097166,52.962625],[0.097983,52.962361],[0.09734,52.96183]]],[[[0.101219,52.966043],[0.100911,52.966003],[0.101019,52.966159],[0.100522,52.966893],[0.100962,52.966136],[0.100079,52.966333],[0.100152,52.966937],[0.099455,52.965983],[0.099891,52.966328],[0.099859,52.96589],[0.099306,52.965691],[0.099849,52.965792],[0.100052,52.966257],[0.100895,52.96594],[0.10081,52.965675],[0.099949,52.965446],[0.100162,52.965911],[0.099805,52.965274],[0.099081,52.965394],[0.100682,52.964905],[0.099401,52.964761],[0.098881,52.965253],[0.098165,52.964049],[0.099045,52.96498],[0.099329,52.964685],[0.098707,52.964158],[0.09953,52.964689],[0.100034,52.963859],[0.099184,52.964043],[0.098586,52.963505],[0.099133,52.963685],[0.099177,52.963144],[0.098287,52.962494],[0.097663,52.963534],[0.097882,52.96349],[0.096907,52.964148],[0.098731,52.966061],[0.099303,52.967605],[0.100108,52.967347],[0.100647,52.967696],[0.101004,52.967511],[0.101219,52.966043]],[[0.098082,52.963449],[0.098542,52.96392],[0.097882,52.96349],[0.098082,52.963449]]],[[[0.150221,53.05695],[0.152195,53.05725],[0.152404,53.056826],[0.154571,53.056396],[0.154809,53.055968],[0.156064,53.055922],[0.158342,53.053995],[0.16027,53.053514],[0.162757,53.053577],[0.163361,53.054374],[0.163892,53.054184],[0.170513,53.05012],[0.192887,53.037675],[0.199582,53.032639],[0.199166,53.032118],[0.198172,53.032313],[0.197519,53.030923],[0.196597,53.03059],[0.196344,53.031266],[0.19716,53.03338],[0.196754,53.033003],[0.196296,53.031197],[0.196529,53.030555],[0.197311,53.030756],[0.196486,53.030414],[0.195455,53.030426],[0.194942,53.031159],[0.195553,53.031547],[0.195368,53.03211],[0.195317,53.031794],[0.194986,53.031984],[0.194751,53.032445],[0.194077,53.03276],[0.194391,53.032862],[0.193315,53.032751],[0.193153,53.033219],[0.191479,53.03429],[0.188545,53.035224],[0.189144,53.034704],[0.190954,53.034153],[0.19143,53.034269],[0.193161,53.033136],[0.193186,53.032741],[0.194739,53.032367],[0.194927,53.031918],[0.195411,53.031594],[0.194773,53.031156],[0.194929,53.030653],[0.194378,53.030555],[0.194018,53.031048],[0.194466,53.030069],[0.193377,53.030275],[0.192998,53.02982],[0.192134,53.030724],[0.192351,53.030245],[0.191691,53.029986],[0.191538,53.03098],[0.191656,53.029961],[0.192188,53.030172],[0.193078,53.029752],[0.193461,53.030205],[0.195437,53.029671],[0.194754,53.028642],[0.193613,53.029261],[0.193379,53.02889],[0.19283,53.029066],[0.191562,53.028817],[0.191392,53.029319],[0.191505,53.028813],[0.191647,53.028787],[0.192726,53.029035],[0.193325,53.028856],[0.194475,53.02879],[0.194241,53.028412],[0.193838,53.028716],[0.194023,53.028355],[0.192353,53.02808],[0.190253,53.029369],[0.189749,53.029394],[0.189617,53.030001],[0.189306,53.029798],[0.188899,53.030186],[0.188407,53.030115],[0.189709,53.02936],[0.190242,53.02933],[0.192326,53.027753],[0.19039,53.028105],[0.189417,53.029121],[0.190114,53.028217],[0.190547,53.027972],[0.1914,53.027713],[0.190746,53.027655],[0.189676,53.028463],[0.190654,53.02769],[0.189564,53.028125],[0.187985,53.028221],[0.18815,53.029065],[0.187792,53.029319],[0.187836,53.028167],[0.189566,53.028077],[0.190361,53.027604],[0.189951,53.027297],[0.187093,53.027296],[0.186169,53.02789],[0.185542,53.030042],[0.186017,53.027955],[0.183836,53.028948],[0.184294,53.029198],[0.183674,53.028915],[0.18323,53.029095],[0.183338,53.028765],[0.183829,53.028876],[0.186904,53.027235],[0.185594,53.02711],[0.184524,53.024785],[0.184589,53.025007],[0.184405,53.025724],[0.184157,53.026187],[0.184429,53.026924],[0.184113,53.026211],[0.184202,53.025855],[0.183744,53.026557],[0.182886,53.026958],[0.183909,53.026261],[0.184518,53.024993],[0.184241,53.023968],[0.1832,53.023333],[0.183406,53.025997],[0.18304,53.023324],[0.182933,53.023684],[0.1827,53.023877],[0.183108,53.024816],[0.182875,53.024533],[0.182408,53.025747],[0.182768,53.024509],[0.182677,53.023773],[0.182944,53.023051],[0.182141,53.022686],[0.182602,53.024329],[0.181861,53.02492],[0.181176,53.026578],[0.181821,53.024907],[0.182538,53.024336],[0.181714,53.022615],[0.181234,53.022218],[0.181401,53.022806],[0.180953,53.02451],[0.181338,53.022621],[0.181127,53.022359],[0.180481,53.022523],[0.180718,53.022937],[0.180521,53.025302],[0.180622,53.022873],[0.180228,53.022446],[0.179979,53.023281],[0.179775,53.023584],[0.180132,53.024586],[0.179945,53.024112],[0.179084,53.024548],[0.179217,53.025764],[0.178415,53.026494],[0.179173,53.025747],[0.178943,53.024631],[0.179899,53.024058],[0.179694,53.023587],[0.179765,53.022869],[0.180382,53.021953],[0.179748,53.022005],[0.179689,53.021769],[0.178683,53.0228],[0.179038,53.023627],[0.178586,53.022819],[0.178115,53.023135],[0.17841,53.024291],[0.178141,53.023372],[0.178014,53.02424],[0.177999,53.023243],[0.177356,53.023361],[0.177233,53.024616],[0.177166,53.02333],[0.173525,53.02499],[0.174823,53.025714],[0.175332,53.026262],[0.175541,53.027343],[0.175277,53.026275],[0.173473,53.024995],[0.176846,53.023352],[0.177937,53.0232],[0.179471,53.021757],[0.179333,53.021449],[0.17847,53.022162],[0.17911,53.021446],[0.178908,53.021092],[0.178369,53.021282],[0.178156,53.021009],[0.177275,53.022057],[0.177928,53.021105],[0.176925,53.021645],[0.177552,53.021297],[0.177281,53.021123],[0.178087,53.020978],[0.178466,53.02102],[0.178613,53.020773],[0.177669,53.02045],[0.177707,53.020684],[0.175757,53.021463],[0.175657,53.021977],[0.174579,53.022599],[0.175693,53.021469],[0.177633,53.020648],[0.177055,53.020156],[0.175992,53.02089],[0.176503,53.020273],[0.177134,53.020101],[0.176044,53.019903],[0.175562,53.020919],[0.175899,53.020094],[0.173288,53.021022],[0.175867,53.020047],[0.17573,53.019849],[0.174866,53.02007],[0.175617,53.019845],[0.175099,53.019682],[0.173155,53.0197],[0.172367,53.020154],[0.170462,53.020878],[0.171338,53.021407],[0.170413,53.02087],[0.169552,53.021109],[0.168876,53.020743],[0.170325,53.020855],[0.171632,53.020309],[0.171091,53.020054],[0.171868,53.020283],[0.173212,53.019556],[0.172336,53.019123],[0.172373,53.01882],[0.171951,53.019315],[0.17008,53.019734],[0.170157,53.01947],[0.171748,53.019185],[0.172519,53.018207],[0.171607,53.017996],[0.171575,53.017329],[0.170437,53.017465],[0.169868,53.018348],[0.170675,53.018312],[0.168725,53.018887],[0.168412,53.019434],[0.167843,53.01956],[0.168701,53.018858],[0.169816,53.018467],[0.169845,53.018147],[0.169107,53.018132],[0.169808,53.018091],[0.170183,53.017485],[0.170984,53.017208],[0.170385,53.01676],[0.169185,53.01717],[0.170273,53.016653],[0.169022,53.016465],[0.169469,53.016326],[0.168129,53.015821],[0.166479,53.016732],[0.164636,53.016744],[0.166487,53.016706],[0.168077,53.015742],[0.164941,53.014135],[0.165313,53.014742],[0.164968,53.015161],[0.165193,53.014626],[0.164394,53.013859],[0.163951,53.014927],[0.162665,53.016014],[0.163414,53.016314],[0.162226,53.016076],[0.160972,53.016688],[0.161635,53.016139],[0.161072,53.016002],[0.162587,53.016014],[0.163084,53.015631],[0.162828,53.015349],[0.163836,53.014954],[0.164247,53.013896],[0.164441,53.013801],[0.164749,53.013881],[0.163116,53.013125],[0.162748,53.012446],[0.162256,53.012769],[0.161485,53.01287],[0.161302,53.013976],[0.160818,53.013902],[0.161261,53.0137],[0.161452,53.012861],[0.162384,53.012572],[0.161736,53.0122],[0.161642,53.012424],[0.160879,53.012785],[0.161052,53.012553],[0.160233,53.012682],[0.1615,53.012425],[0.16162,53.012039],[0.160802,53.011772],[0.160621,53.012259],[0.160625,53.011826],[0.160938,53.011682],[0.160425,53.011471],[0.159999,53.011756],[0.159621,53.011746],[0.159529,53.012108],[0.159491,53.011584],[0.158877,53.011858],[0.159214,53.012638],[0.158759,53.012335],[0.158881,53.011793],[0.158499,53.011787],[0.159539,53.011539],[0.159927,53.011739],[0.1604,53.01134],[0.159674,53.011131],[0.160141,53.011019],[0.159693,53.010635],[0.159688,53.011018],[0.159422,53.011144],[0.159661,53.010813],[0.158798,53.010478],[0.15778,53.011222],[0.157852,53.011558],[0.157385,53.012412],[0.157593,53.013359],[0.157342,53.01391],[0.15724,53.014045],[0.156584,53.014239],[0.157275,53.013983],[0.157568,53.013309],[0.157324,53.012846],[0.157359,53.012048],[0.157806,53.011563],[0.157232,53.01165],[0.157083,53.01222],[0.157172,53.011667],[0.158758,53.010429],[0.157953,53.010035],[0.156915,53.010245],[0.15693,53.010754],[0.156379,53.010961],[0.156365,53.011355],[0.155932,53.011364],[0.156284,53.011087],[0.155054,53.011183],[0.154275,53.012885],[0.155004,53.011177],[0.156741,53.010792],[0.156854,53.010211],[0.15766,53.010049],[0.157719,53.009605],[0.15614,53.009563],[0.156148,53.009819],[0.156064,53.010138],[0.154942,53.010782],[0.156104,53.00984],[0.156057,53.009568],[0.155066,53.009283],[0.153817,53.010658],[0.151103,53.011603],[0.150872,53.0115],[0.150513,53.011248],[0.151056,53.011564],[0.153183,53.010808],[0.155096,53.009196],[0.155942,53.00943],[0.155601,53.009004],[0.153319,53.00929],[0.152865,53.009195],[0.154366,53.009112],[0.153244,53.008917],[0.153203,53.008505],[0.15229,53.009034],[0.153051,53.008339],[0.151892,53.008202],[0.151848,53.00851],[0.151335,53.008647],[0.151784,53.008343],[0.150752,53.007007],[0.15015,53.007106],[0.149852,53.007958],[0.149787,53.007455],[0.148436,53.008267],[0.148379,53.009075],[0.147042,53.009563],[0.148323,53.009072],[0.148379,53.008279],[0.150165,53.006983],[0.150721,53.006973],[0.15083,53.00647],[0.150381,53.005806],[0.150414,53.006462],[0.149502,53.006159],[0.148623,53.006659],[0.148582,53.007099],[0.148359,53.006727],[0.147583,53.007448],[0.147595,53.007084],[0.146836,53.00686],[0.147656,53.007037],[0.149475,53.006118],[0.14931,53.005747],[0.149071,53.005902],[0.149396,53.004745],[0.148896,53.004716],[0.148644,53.005714],[0.14852,53.005332],[0.14788,53.005315],[0.148643,53.005294],[0.148818,53.004754],[0.147355,53.004906],[0.147915,53.004665],[0.149417,53.004667],[0.149596,53.004229],[0.148852,53.00391],[0.147885,53.004017],[0.148857,53.003872],[0.147234,53.002835],[0.146182,53.004113],[0.14648,53.004741],[0.146473,53.00481],[0.14591,53.005204],[0.14645,53.004749],[0.146004,53.00416],[0.145283,53.00448],[0.145381,53.004763],[0.14528,53.005257],[0.145017,53.004863],[0.144252,53.004996],[0.145291,53.00478],[0.145239,53.004443],[0.146117,53.004067],[0.14677,53.003061],[0.145844,53.003497],[0.145735,53.003251],[0.146574,53.003121],[0.147127,53.002523],[0.145881,53.00185],[0.145285,53.002284],[0.144091,53.00232],[0.143228,53.003323],[0.143935,53.002452],[0.143622,53.002238],[0.145154,53.002249],[0.145778,53.001818],[0.144883,53.001561],[0.144503,53.000343],[0.143843,53.000457],[0.14379,53.000821],[0.143673,53.000506],[0.14413,53.000329],[0.14347,52.999896],[0.141991,53.001688],[0.140987,53.002218],[0.140727,53.001892],[0.139895,53.002185],[0.137729,53.004109],[0.137475,53.003976],[0.138197,53.003657],[0.137432,53.003534],[0.1388,53.002705],[0.139964,53.001467],[0.141351,53.00149],[0.143314,52.999785],[0.142114,52.998829],[0.141886,52.999718],[0.14175,52.999057],[0.141206,52.999133],[0.141555,52.99878],[0.140332,52.997974],[0.139801,52.998308],[0.140352,52.997794],[0.14027,52.997422],[0.140048,52.997842],[0.138061,52.998091],[0.139728,52.997859],[0.14005,52.997465],[0.139456,52.99729],[0.140432,52.997334],[0.140486,52.996914],[0.139275,52.997018],[0.139123,52.997372],[0.139126,52.997093],[0.138744,52.997109],[0.138619,52.997381],[0.13873,52.997084],[0.140409,52.996818],[0.139424,52.996191],[0.139229,52.996546],[0.138052,52.996917],[0.138243,52.997233],[0.137939,52.996976],[0.136841,52.997346],[0.136629,52.997876],[0.135912,52.998106],[0.137627,52.999567],[0.138182,52.999637],[0.138637,52.999912],[0.138842,52.99972],[0.138887,53.00009],[0.13822,53.000006],[0.138627,52.999953],[0.137597,52.999585],[0.135643,52.998109],[0.136569,52.997837],[0.136621,52.997501],[0.135648,52.997704],[0.135192,52.997728],[0.135515,52.997598],[0.135259,52.996797],[0.133948,52.996994],[0.135718,52.996625],[0.135345,52.996833],[0.135675,52.997652],[0.138923,52.996515],[0.139095,52.996105],[0.13789,52.996132],[0.136409,52.996988],[0.137804,52.996132],[0.138606,52.996067],[0.138105,52.995625],[0.13705,52.995475],[0.136349,52.995968],[0.136934,52.995489],[0.136608,52.995377],[0.136509,52.995502],[0.134343,52.995894],[0.136482,52.995467],[0.135865,52.995005],[0.13522,52.99513],[0.135679,52.99491],[0.134498,52.99487],[0.135889,52.994684],[0.135902,52.993769],[0.135276,52.993876],[0.134361,52.994748],[0.135238,52.993863],[0.136024,52.993498],[0.13603,52.993289],[0.134479,52.993457],[0.134133,52.994116],[0.132456,52.994359],[0.132042,52.994652],[0.131809,52.994754],[0.13164,52.994782],[0.131425,52.994643],[0.131146,52.994328],[0.131141,52.994255],[0.1317,52.993992],[0.131185,52.994316],[0.131646,52.994743],[0.132404,52.994347],[0.13408,52.99408],[0.13412,52.993624],[0.133577,52.993957],[0.133723,52.993544],[0.133149,52.993711],[0.13352,52.993542],[0.135651,52.993185],[0.134117,52.992896],[0.133561,52.993314],[0.134126,52.992857],[0.135274,52.993018],[0.135044,52.992574],[0.133052,52.992974],[0.133317,52.992699],[0.134889,52.992547],[0.134307,52.991953],[0.134191,52.992209],[0.133939,52.992296],[0.13332,52.992279],[0.134126,52.992206],[0.134226,52.991803],[0.13331,52.99136],[0.132919,52.991851],[0.131683,52.991961],[0.131863,52.993872],[0.131746,52.993977],[0.131462,52.992948],[0.130776,52.992981],[0.131409,52.992896],[0.131725,52.991805],[0.132899,52.991789],[0.133162,52.990946],[0.130048,52.989956],[0.129697,52.991228],[0.129933,52.990014],[0.128884,52.989312],[0.128691,52.9904],[0.128461,52.990792],[0.127825,52.990401],[0.127652,52.990787],[0.129399,52.991989],[0.127819,52.991147],[0.12762,52.990823],[0.127691,52.990347],[0.128575,52.990422],[0.128754,52.989306],[0.127742,52.988712],[0.12779,52.988006],[0.126948,52.988342],[0.127716,52.987587],[0.126959,52.986725],[0.127012,52.987852],[0.125418,52.988901],[0.124142,52.989248],[0.123671,52.989944],[0.125029,52.990117],[0.124202,52.990243],[0.123623,52.989975],[0.124101,52.98923],[0.12572,52.988531],[0.12491,52.988244],[0.125767,52.988493],[0.12688,52.987871],[0.126727,52.987058],[0.126112,52.986797],[0.125753,52.987669],[0.125916,52.98683],[0.125291,52.986846],[0.123904,52.987418],[0.123498,52.988118],[0.122646,52.988369],[0.123426,52.988111],[0.123957,52.987333],[0.125233,52.986807],[0.126121,52.986743],[0.126618,52.986966],[0.126969,52.986409],[0.126233,52.986284],[0.126182,52.985704],[0.123704,52.987055],[0.125378,52.986074],[0.124928,52.98598],[0.12403,52.986613],[0.124689,52.986028],[0.124958,52.985962],[0.124978,52.98585],[0.124487,52.986079],[0.124882,52.985802],[0.124425,52.985772],[0.1249,52.985786],[0.125035,52.985854],[0.125136,52.985999],[0.126261,52.985631],[0.125498,52.985038],[0.12446,52.985308],[0.125349,52.985031],[0.124299,52.984344],[0.123777,52.984632],[0.12418,52.985177],[0.12339,52.985512],[0.123869,52.985767],[0.122777,52.985749],[0.122829,52.986223],[0.122673,52.985702],[0.122344,52.98581],[0.124123,52.985168],[0.123741,52.984711],[0.121729,52.985536],[0.12218,52.986951],[0.121637,52.985578],[0.124069,52.984245],[0.123528,52.983795],[0.122781,52.983885],[0.123319,52.983572],[0.12221,52.984026],[0.122381,52.983701],[0.123325,52.983516],[0.122529,52.983205],[0.121123,52.983399],[0.12251,52.983053],[0.121361,52.98293],[0.122108,52.982731],[0.121209,52.982538],[0.122251,52.982519],[0.122038,52.982055],[0.120455,52.982441],[0.121799,52.982039],[0.121938,52.981734],[0.12085,52.982069],[0.121601,52.981733],[0.120711,52.981],[0.119998,52.981739],[0.120724,52.98084],[0.120176,52.98034],[0.11954,52.981043],[0.120066,52.980257],[0.119635,52.98025],[0.118271,52.981223],[0.118746,52.98161],[0.118125,52.981321],[0.118209,52.98245],[0.118768,52.982672],[0.118832,52.98264],[0.119251,52.983046],[0.119289,52.983355],[0.120056,52.983518],[0.119607,52.983151],[0.120196,52.98339],[0.11988,52.983839],[0.120638,52.984148],[0.121435,52.985099],[0.120622,52.984861],[0.121026,52.984938],[0.120779,52.984362],[0.119201,52.983473],[0.118905,52.982754],[0.118219,52.982587],[0.117728,52.981239],[0.118403,52.980977],[0.11783,52.980634],[0.118556,52.980879],[0.119999,52.980036],[0.120055,52.97953],[0.119145,52.979764],[0.118896,52.98031],[0.119155,52.979401],[0.118675,52.979157],[0.117996,52.979365],[0.118702,52.979045],[0.117818,52.978888],[0.118077,52.978558],[0.116444,52.978019],[0.115276,52.978493],[0.115982,52.97879],[0.115955,52.979796],[0.115193,52.979957],[0.115168,52.980479],[0.115104,52.979973],[0.11436,52.980053],[0.115891,52.979711],[0.115922,52.978828],[0.114711,52.978997],[0.115229,52.978871],[0.115131,52.978456],[0.113672,52.978584],[0.113249,52.979085],[0.11263,52.979293],[0.113241,52.980051],[0.112744,52.979759],[0.11252,52.979233],[0.113265,52.979042],[0.113603,52.978579],[0.115467,52.978365],[0.116025,52.977914],[0.115314,52.977633],[0.115305,52.977116],[0.114853,52.977232],[0.115352,52.976903],[0.114957,52.975966],[0.113457,52.977684],[0.113493,52.977474],[0.112987,52.977676],[0.114953,52.97583],[0.114377,52.974878],[0.113804,52.974849],[0.112659,52.976141],[0.113669,52.974843],[0.114115,52.974771],[0.113024,52.973307],[0.112191,52.973502],[0.112671,52.973639],[0.112032,52.974607],[0.112449,52.975067],[0.111907,52.975848],[0.112124,52.976244],[0.111506,52.976395],[0.112178,52.975254],[0.111307,52.975309],[0.111545,52.97544],[0.11135,52.975734],[0.111444,52.975416],[0.110578,52.975726],[0.111275,52.975435],[0.110977,52.975121],[0.110394,52.975239],[0.109822,52.976024],[0.110244,52.97752],[0.112428,52.979205],[0.112085,52.979408],[0.10988,52.977681],[0.11122,52.978495],[0.11013,52.977466],[0.109838,52.976225],[0.109388,52.976267],[0.109386,52.976574],[0.109223,52.975921],[0.108875,52.975968],[0.10857,52.976329],[0.109062,52.97681],[0.108527,52.976348],[0.108794,52.975914],[0.10921,52.97588],[0.109365,52.976219],[0.109705,52.976115],[0.110396,52.975122],[0.110979,52.975056],[0.112279,52.975139],[0.111854,52.974514],[0.112486,52.973698],[0.109797,52.974992],[0.112124,52.973656],[0.111281,52.973234],[0.111092,52.974144],[0.110832,52.974196],[0.107981,52.973425],[0.10754,52.973562],[0.107216,52.973884],[0.107106,52.974334],[0.106823,52.974629],[0.107618,52.974799],[0.106701,52.974799],[0.107926,52.97549],[0.108839,52.9751],[0.108615,52.974696],[0.108048,52.97512],[0.108376,52.974625],[0.108657,52.974689],[0.108766,52.974743],[0.108871,52.975093],[0.108136,52.975525],[0.108485,52.975732],[0.107728,52.975513],[0.107598,52.975839],[0.10666,52.974857],[0.107232,52.973753],[0.107675,52.973424],[0.10822,52.973388],[0.11096,52.974116],[0.111098,52.973265],[0.111359,52.973118],[0.110571,52.973112],[0.111322,52.973062],[0.111991,52.973356],[0.112699,52.973052],[0.11139,52.972639],[0.110762,52.972924],[0.109456,52.973042],[0.110913,52.972768],[0.110017,52.972822],[0.111263,52.972488],[0.111075,52.971999],[0.109048,52.972691],[0.110985,52.971851],[0.109566,52.971952],[0.108693,52.972521],[0.107547,52.973075],[0.106794,52.973033],[0.107832,52.972852],[0.10697,52.972728],[0.107843,52.972742],[0.109553,52.97191],[0.110259,52.97183],[0.10931,52.971841],[0.1087,52.972123],[0.10845,52.972151],[0.108117,52.971978],[0.108651,52.972107],[0.109169,52.971842],[0.111462,52.971288],[0.110793,52.970929],[0.110394,52.971197],[0.108967,52.9717],[0.110691,52.970945],[0.110344,52.970903],[0.108333,52.971536],[0.110128,52.970917],[0.109584,52.970668],[0.108768,52.970966],[0.108266,52.9708],[0.10823,52.971115],[0.10807,52.971215],[0.106871,52.97154],[0.108211,52.97105],[0.107823,52.970866],[0.107151,52.971121],[0.107711,52.970814],[0.108264,52.970738],[0.107804,52.970516],[0.105699,52.97163],[0.105496,52.972575],[0.104474,52.971977],[0.103486,52.972029],[0.104315,52.972985],[0.104656,52.972771],[0.104554,52.97306],[0.105775,52.974209],[0.106437,52.974049],[0.106024,52.974279],[0.105792,52.974246],[0.103417,52.972307],[0.103484,52.971981],[0.104442,52.971921],[0.105496,52.972529],[0.105493,52.971714],[0.106743,52.970816],[0.104688,52.971336],[0.106656,52.970562],[0.105041,52.970937],[0.105947,52.970472],[0.105255,52.970286],[0.104401,52.97082],[0.105185,52.970271],[0.104974,52.970138],[0.103822,52.970815],[0.104407,52.970138],[0.105032,52.970106],[0.10599,52.970288],[0.106638,52.970501],[0.106847,52.970758],[0.107513,52.97048],[0.108733,52.970376],[0.109206,52.969981],[0.108535,52.969374],[0.107728,52.969504],[0.10915,52.969117],[0.10703,52.96953],[0.109379,52.968971],[0.108368,52.96862],[0.106851,52.969322],[0.105594,52.969477],[0.106865,52.969293],[0.10636,52.96904],[0.10769,52.968913],[0.107356,52.968183],[0.104458,52.969532],[0.103503,52.969598],[0.104514,52.969485],[0.10723,52.968117],[0.107546,52.968132],[0.107262,52.967889],[0.106596,52.968279],[0.107367,52.967582],[0.106319,52.968327],[0.107013,52.967757],[0.106305,52.967656],[0.107435,52.967515],[0.10729,52.966977],[0.106354,52.967309],[0.10507,52.968379],[0.105871,52.967587],[0.106414,52.967231],[0.107179,52.96696],[0.10565,52.967455],[0.106801,52.96678],[0.105452,52.96732],[0.106404,52.966732],[0.105354,52.967082],[0.1046,52.968066],[0.10416,52.968073],[0.105364,52.967022],[0.106696,52.966431],[0.105833,52.966629],[0.106162,52.966366],[0.10579,52.966394],[0.105332,52.966897],[0.105717,52.966383],[0.105094,52.966695],[0.105665,52.966271],[0.105179,52.966231],[0.103744,52.96771],[0.105268,52.966041],[0.104556,52.966547],[0.104901,52.965962],[0.104411,52.966513],[0.104874,52.965802],[0.103883,52.966589],[0.104554,52.9659],[0.104241,52.965346],[0.103724,52.965419],[0.102603,52.966477],[0.102967,52.967355],[0.102929,52.968294],[0.102809,52.967583],[0.1022,52.967776],[0.102179,52.968269],[0.101898,52.96853],[0.101242,52.968817],[0.100708,52.968893],[0.100631,52.968827],[0.100596,52.96847],[0.101015,52.968669],[0.100697,52.968864],[0.101523,52.968677],[0.101933,52.968315],[0.101192,52.968301],[0.102087,52.968269],[0.102104,52.967786],[0.102769,52.967524],[0.102302,52.9667],[0.102165,52.967444],[0.101456,52.967754],[0.102169,52.967404],[0.102191,52.966717],[0.102441,52.966525],[0.101716,52.966864],[0.101774,52.967099],[0.101656,52.966818],[0.10248,52.966348],[0.101399,52.966815],[0.103912,52.965232],[0.102935,52.965023],[0.101363,52.96592],[0.1011,52.967619],[0.100625,52.967878],[0.100382,52.967662],[0.099405,52.967894],[0.099881,52.969405],[0.099635,52.969688],[0.097704,52.970151],[0.099742,52.969424],[0.099536,52.968918],[0.099205,52.968869],[0.09958,52.968798],[0.099225,52.967804],[0.098713,52.968231],[0.09886,52.967817],[0.096412,52.968441],[0.095806,52.969131],[0.096149,52.968453],[0.099147,52.967608],[0.098324,52.965747],[0.098223,52.966465],[0.097771,52.966151],[0.097167,52.966613],[0.098157,52.965696],[0.097636,52.965092],[0.097478,52.965443],[0.097158,52.965116],[0.096382,52.96556],[0.096957,52.965114],[0.097513,52.965017],[0.097326,52.964797],[0.096586,52.964228],[0.096259,52.964357],[0.095514,52.965592],[0.094203,52.966765],[0.09406,52.966806],[0.092656,52.966581],[0.094128,52.966752],[0.095448,52.965515],[0.095079,52.965374],[0.095867,52.964551],[0.09374,52.964979],[0.096118,52.964224],[0.091341,52.964414],[0.096289,52.963988],[0.095855,52.963436],[0.09252,52.964205],[0.095676,52.963358],[0.095035,52.96277],[0.094714,52.963175],[0.093161,52.963379],[0.094712,52.963112],[0.094793,52.962751],[0.094404,52.962834],[0.094977,52.962685],[0.095641,52.963173],[0.094259,52.961871],[0.093008,52.962097],[0.093208,52.962294],[0.092044,52.963077],[0.09209,52.962809],[0.091621,52.962951],[0.093042,52.96236],[0.092405,52.962217],[0.092662,52.961822],[0.094048,52.961653],[0.09283,52.961189],[0.091653,52.961485],[0.091207,52.962232],[0.091517,52.961579],[0.090989,52.961639],[0.092904,52.961122],[0.092227,52.960836],[0.090232,52.961658],[0.092364,52.960718],[0.092089,52.960388],[0.086266,52.961787],[0.092089,52.960336],[0.091292,52.959886],[0.086461,52.961042],[0.091198,52.959814],[0.090211,52.959368],[0.088576,52.95977],[0.090044,52.959343],[0.087357,52.959123],[0.087358,52.958869],[0.090744,52.95945],[0.09321,52.960836],[0.093556,52.96052],[0.09356,52.960793],[0.094329,52.960653],[0.094024,52.960396],[0.09484,52.960693],[0.095819,52.959972],[0.094849,52.959833],[0.094574,52.960112],[0.094746,52.959791],[0.093635,52.959449],[0.093388,52.960019],[0.093804,52.960057],[0.093396,52.960133],[0.092912,52.959904],[0.09227,52.959405],[0.093149,52.95966],[0.093892,52.958833],[0.092743,52.959234],[0.093682,52.958448],[0.092945,52.958155],[0.092538,52.958508],[0.092729,52.958892],[0.093405,52.95865],[0.092152,52.959223],[0.092241,52.958668],[0.091308,52.958901],[0.091534,52.958492],[0.091703,52.95876],[0.092799,52.958044],[0.093576,52.958234],[0.093359,52.957632],[0.092464,52.957061],[0.090993,52.95732],[0.091442,52.957964],[0.09089,52.95873],[0.090956,52.958221],[0.089531,52.95826],[0.089726,52.958757],[0.089428,52.958288],[0.088857,52.958498],[0.08941,52.958254],[0.089279,52.957987],[0.087918,52.958195],[0.087912,52.957593],[0.086885,52.958144],[0.087535,52.95829],[0.086594,52.958326],[0.086124,52.957434],[0.085722,52.957474],[0.08553,52.957168],[0.086223,52.957419],[0.086002,52.957208],[0.086704,52.956945],[0.086877,52.957237],[0.08629,52.957528],[0.0865,52.957865],[0.086821,52.957631],[0.086741,52.958107],[0.087482,52.95755],[0.089419,52.957552],[0.093253,52.956497],[0.092557,52.956309],[0.090995,52.956804],[0.092261,52.956276],[0.091377,52.955874],[0.090171,52.956934],[0.08895,52.957326],[0.090077,52.956956],[0.088912,52.95676],[0.089074,52.956406],[0.087157,52.956431],[0.087032,52.956318],[0.088931,52.956211],[0.089619,52.956866],[0.090388,52.956671],[0.091144,52.955828],[0.090089,52.955998],[0.090611,52.95577],[0.090124,52.955764],[0.090567,52.955716],[0.091641,52.955786],[0.09261,52.956083],[0.091579,52.955409],[0.091208,52.955708],[0.091475,52.95505],[0.089982,52.955324],[0.091043,52.955102],[0.089874,52.953845],[0.089399,52.955234],[0.08983,52.953891],[0.089359,52.953313],[0.089404,52.954469],[0.087807,52.955167],[0.088998,52.955196],[0.08865,52.955604],[0.088028,52.955717],[0.088635,52.955573],[0.088567,52.955235],[0.088198,52.9555],[0.088202,52.955206],[0.087348,52.955407],[0.086647,52.955289],[0.087285,52.955365],[0.089352,52.954432],[0.089333,52.953111],[0.089028,52.953276],[0.089038,52.954062],[0.088944,52.953368],[0.088593,52.953937],[0.088531,52.952815],[0.088243,52.953813],[0.088152,52.953385],[0.087904,52.953609],[0.088262,52.952454],[0.087679,52.952664],[0.087832,52.954511],[0.087485,52.953515],[0.087623,52.952676],[0.087855,52.952411],[0.087417,52.952544],[0.087337,52.953413],[0.087263,52.952518],[0.087206,52.953267],[0.087458,52.953926],[0.087541,52.954543],[0.087443,52.954698],[0.086985,52.95478],[0.087519,52.9545],[0.087106,52.953531],[0.086527,52.954158],[0.087149,52.953229],[0.086324,52.954198],[0.085159,52.954275],[0.086407,52.954069],[0.08677,52.953463],[0.085443,52.954071],[0.086686,52.953487],[0.087186,52.952498],[0.087536,52.952261],[0.087049,52.951964],[0.08698,52.952419],[0.086263,52.952827],[0.08701,52.95188],[0.085877,52.952286],[0.086692,52.951949],[0.08662,52.951648],[0.085526,52.951956],[0.085466,52.952389],[0.083979,52.953869],[0.084455,52.953895],[0.083853,52.954005],[0.083839,52.953939],[0.083273,52.95406],[0.084104,52.953732],[0.084636,52.953038],[0.083768,52.953514],[0.082839,52.953589],[0.085366,52.952354],[0.085475,52.951876],[0.084899,52.951791],[0.084926,52.952385],[0.084224,52.952722],[0.084915,52.95232],[0.08475,52.951874],[0.084286,52.952144],[0.08452,52.951853],[0.084964,52.951698],[0.086025,52.951766],[0.085955,52.951042],[0.085521,52.951105],[0.086655,52.950784],[0.085579,52.95046],[0.084725,52.951172],[0.08541,52.95035],[0.085397,52.94996],[0.084967,52.949981],[0.084257,52.950528],[0.084324,52.951694],[0.083984,52.951915],[0.083521,52.951993],[0.083849,52.952022],[0.083887,52.952623],[0.083752,52.952397],[0.083025,52.952926],[0.083858,52.952245],[0.08352,52.952033],[0.08336,52.952247],[0.082456,52.952512],[0.083344,52.952218],[0.083502,52.951925],[0.084268,52.951668],[0.084105,52.950967],[0.083408,52.951779],[0.084044,52.950943],[0.083016,52.951432],[0.084034,52.950852],[0.082478,52.951603],[0.08413,52.95071],[0.083726,52.9507],[0.084883,52.949747],[0.084368,52.950023],[0.083901,52.949838],[0.084614,52.949825],[0.084909,52.949607],[0.084422,52.949617],[0.085129,52.94929],[0.084082,52.94937],[0.084741,52.949201],[0.084368,52.949164],[0.083382,52.949699],[0.082353,52.951055],[0.081468,52.951544],[0.081656,52.951726],[0.081653,52.951848],[0.082426,52.951904],[0.08183,52.951895],[0.08153,52.951821],[0.081343,52.951546],[0.081923,52.951062],[0.081687,52.951061],[0.081084,52.950896],[0.081377,52.950659],[0.081921,52.951032],[0.081994,52.950749],[0.08224,52.951098],[0.082057,52.950496],[0.082549,52.950699],[0.082697,52.9504],[0.082347,52.950244],[0.082791,52.950382],[0.083267,52.94971],[0.081433,52.949662],[0.081346,52.949939],[0.081958,52.950192],[0.081363,52.950221],[0.081188,52.949891],[0.080945,52.950222],[0.081079,52.949631],[0.081822,52.949523],[0.081356,52.94921],[0.080904,52.949346],[0.08073,52.949247],[0.08067,52.948954],[0.080771,52.949177],[0.081428,52.949196],[0.081789,52.94942],[0.081587,52.948753],[0.081867,52.949268],[0.08186,52.94966],[0.082517,52.949657],[0.082382,52.949357],[0.08264,52.949686],[0.082666,52.949271],[0.082902,52.949616],[0.083179,52.949022],[0.083269,52.949351],[0.083726,52.949021],[0.083596,52.948566],[0.082759,52.948539],[0.083052,52.948254],[0.082274,52.948724],[0.082606,52.948444],[0.082126,52.948531],[0.081498,52.948276],[0.082185,52.948499],[0.083122,52.948205],[0.083484,52.94848],[0.084554,52.947269],[0.083977,52.947007],[0.083879,52.947472],[0.083739,52.947671],[0.082982,52.947942],[0.082727,52.947927],[0.082635,52.947883],[0.082432,52.947653],[0.082837,52.947928],[0.083791,52.947528],[0.083583,52.946779],[0.082829,52.947285],[0.082574,52.947121],[0.083518,52.946761],[0.083246,52.946243],[0.081772,52.947551],[0.080989,52.94797],[0.081064,52.948469],[0.080649,52.948348],[0.080916,52.948043],[0.080295,52.947731],[0.081283,52.947785],[0.08312,52.946236],[0.082166,52.946253],[0.080964,52.947296],[0.08232,52.94599],[0.081898,52.945711],[0.081838,52.945977],[0.081329,52.946503],[0.080604,52.946773],[0.081795,52.945962],[0.081635,52.945794],[0.082286,52.945499],[0.081228,52.945695],[0.080482,52.946353],[0.080314,52.94611],[0.082114,52.945235],[0.081283,52.944895],[0.079841,52.945276],[0.079558,52.946091],[0.079953,52.946746],[0.079227,52.946127],[0.079646,52.946926],[0.079031,52.946006],[0.079061,52.9457],[0.079111,52.946085],[0.079587,52.945965],[0.07976,52.945495],[0.079003,52.945413],[0.079736,52.945388],[0.079964,52.944796],[0.079024,52.944826],[0.078662,52.945145],[0.078706,52.944889],[0.080289,52.944553],[0.080175,52.945124],[0.081137,52.944855],[0.081811,52.944849],[0.081592,52.944301],[0.080468,52.943833],[0.079986,52.944101],[0.078992,52.944416],[0.07775,52.944296],[0.07767,52.943955],[0.077873,52.944206],[0.079355,52.944273],[0.080749,52.943684],[0.080689,52.943371],[0.080191,52.94324],[0.07911,52.943716],[0.079166,52.94335],[0.07777,52.943014],[0.077145,52.943337],[0.07738,52.943596],[0.077078,52.943361],[0.077135,52.943034],[0.076472,52.942911],[0.077176,52.942914],[0.077306,52.943087],[0.079781,52.942495],[0.078589,52.942339],[0.079901,52.942246],[0.079454,52.941893],[0.078383,52.942143],[0.079255,52.941899],[0.079014,52.941205],[0.078025,52.941394],[0.078111,52.941715],[0.078006,52.941457],[0.076389,52.941565],[0.078966,52.941142],[0.078335,52.941134],[0.078933,52.94098],[0.078763,52.940726],[0.077912,52.94099],[0.078661,52.940717],[0.078583,52.940297],[0.078115,52.940253],[0.077858,52.940768],[0.076354,52.941393],[0.07583,52.941282],[0.075843,52.941519],[0.075542,52.941256],[0.075393,52.941913],[0.075483,52.941257],[0.075577,52.941202],[0.076399,52.941347],[0.077837,52.940732],[0.078033,52.940307],[0.077393,52.940255],[0.077125,52.940676],[0.076655,52.940886],[0.075861,52.941004],[0.075748,52.940785],[0.076672,52.940793],[0.076089,52.940419],[0.075005,52.94062],[0.074647,52.940517],[0.074641,52.940744],[0.073782,52.940321],[0.075022,52.940579],[0.076075,52.940372],[0.076744,52.940695],[0.077357,52.940202],[0.078315,52.940108],[0.078214,52.939853],[0.077832,52.940053],[0.078329,52.939581],[0.077912,52.939236],[0.077458,52.939773],[0.076077,52.940099],[0.076692,52.93968],[0.077461,52.939746],[0.077854,52.939266],[0.07714,52.939106],[0.077836,52.939084],[0.077481,52.939024],[0.07789,52.938251],[0.076794,52.938484],[0.076441,52.938862],[0.0755,52.938779],[0.07547,52.939387],[0.075236,52.939599],[0.075065,52.939632],[0.074041,52.93954],[0.075203,52.939588],[0.075358,52.938815],[0.077515,52.93815],[0.07673,52.937811],[0.075953,52.937928],[0.076559,52.938047],[0.075174,52.937957],[0.074976,52.938167],[0.075324,52.938407],[0.075162,52.939282],[0.075026,52.938732],[0.074358,52.939103],[0.0743,52.938891],[0.073739,52.939048],[0.073967,52.939249],[0.072359,52.938897],[0.072062,52.938439],[0.073229,52.939016],[0.075239,52.938494],[0.074898,52.938391],[0.074902,52.938088],[0.075218,52.937785],[0.073849,52.938344],[0.075175,52.93773],[0.075956,52.93782],[0.075114,52.937398],[0.074751,52.937374],[0.074733,52.937637],[0.07427,52.9377],[0.074662,52.937584],[0.074485,52.937334],[0.072955,52.937774],[0.073297,52.937367],[0.072912,52.937379],[0.07189,52.936887],[0.072395,52.936866],[0.072924,52.937348],[0.074493,52.937278],[0.073398,52.937183],[0.074039,52.936953],[0.075595,52.937475],[0.07564,52.937123],[0.075323,52.937146],[0.074676,52.937014],[0.075007,52.936945],[0.074183,52.936682],[0.073159,52.93689],[0.074343,52.936622],[0.074834,52.936877],[0.074666,52.93661],[0.075804,52.937165],[0.075735,52.936821],[0.07687,52.937126],[0.07753,52.936808],[0.07663,52.936754],[0.076529,52.936552],[0.07717,52.936631],[0.077321,52.936371],[0.076895,52.936152],[0.076095,52.936356],[0.075963,52.935842],[0.075203,52.936275],[0.072756,52.93676],[0.072335,52.936207],[0.071824,52.936427],[0.072233,52.936057],[0.073011,52.936657],[0.075148,52.936237],[0.074321,52.935845],[0.075053,52.936075],[0.076045,52.935781],[0.076135,52.936306],[0.076931,52.936074],[0.077352,52.936315],[0.077907,52.935597],[0.076903,52.935246],[0.076642,52.935581],[0.075174,52.935839],[0.076106,52.935571],[0.075393,52.935399],[0.075708,52.934891],[0.075605,52.935307],[0.076482,52.935586],[0.076761,52.935161],[0.077764,52.935448],[0.078348,52.934955],[0.07629,52.93451],[0.076069,52.934834],[0.076149,52.934443],[0.07524,52.934363],[0.075248,52.934963],[0.074183,52.935301],[0.074113,52.935721],[0.073928,52.935969],[0.073235,52.93618],[0.073271,52.93592],[0.072719,52.935966],[0.072465,52.93548],[0.07278,52.935754],[0.073065,52.935521],[0.072893,52.935754],[0.073417,52.935967],[0.07403,52.935721],[0.074019,52.935256],[0.073228,52.935273],[0.072947,52.934983],[0.073326,52.935258],[0.075142,52.934974],[0.074918,52.934391],[0.073306,52.93479],[0.07373,52.934671],[0.073286,52.934509],[0.073642,52.934054],[0.073606,52.934593],[0.07497,52.934329],[0.074614,52.93393],[0.074234,52.934212],[0.07453,52.933837],[0.07508,52.934295],[0.075905,52.934253],[0.078337,52.934862],[0.078147,52.933779],[0.076121,52.933752],[0.075744,52.934039],[0.076,52.933772],[0.075132,52.933312],[0.07428,52.933438],[0.075037,52.933228],[0.075905,52.933692],[0.078191,52.93365],[0.07414,52.932473],[0.068758,52.931418],[0.063024,52.930954],[0.057239,52.930956],[0.051382,52.931491],[0.04498,52.932771],[0.040216,52.934234],[0.032834,52.937687],[0.031473,52.939249],[0.031125,52.93917],[0.031385,52.93836],[0.025527,52.939473],[0.011693,52.951093],[0.004917,52.955558],[0.001347,52.959371],[-0.000848,52.960419],[-0.008676,52.96686],[-0.012903,52.968426],[-0.013486,52.968016],[-0.01482,52.968147],[-0.014766,52.967841],[-0.018392,52.967777],[-0.022634,52.966524],[-0.024635,52.967043],[-0.025493,52.968665],[-0.025455,52.97018],[-0.022258,52.972255],[-0.021695,52.97305],[-0.022105,52.973781],[-0.023788,52.974692],[-0.024082,52.975384],[-0.023383,52.976524],[-0.025428,52.977879],[-0.028708,52.981127],[-0.029396,52.981656],[-0.029693,52.9815],[-0.026068,52.978022],[-0.023932,52.97669],[-0.024489,52.975359],[-0.024198,52.974596],[-0.022163,52.973011],[-0.025878,52.970469],[-0.026174,52.968612],[-0.025793,52.966794],[-0.026103,52.966563],[-0.023089,52.96607],[-0.021483,52.9663],[-0.018467,52.967382],[-0.015034,52.967146],[-0.012274,52.967338],[-0.009894,52.966703],[-0.002917,52.960729],[-0.003286,52.960249],[-0.002813,52.960625],[-0.001975,52.959865],[-0.002205,52.959514],[-0.00255,52.959595],[-0.002172,52.959249],[-0.001535,52.959041],[-0.00206,52.959486],[-0.001002,52.958698],[-0.000327,52.957876],[-0.000515,52.958413],[-0.001892,52.959437],[-0.001718,52.95966],[0.011144,52.950023],[0.018961,52.943444],[0.02286,52.939951],[0.022978,52.939611],[0.022263,52.939581],[0.021925,52.93907],[0.02211,52.938609],[0.023325,52.937711],[0.024558,52.93711],[0.022147,52.938636],[0.022443,52.939512],[0.027711,52.937375],[0.027409,52.93779],[0.030375,52.937342],[0.032845,52.936324],[0.034461,52.934927],[0.033747,52.933772],[0.03234,52.933352],[0.029992,52.933699],[0.027548,52.935556],[0.029919,52.933662],[0.032321,52.933281],[0.033345,52.933469],[0.033784,52.933635],[0.035097,52.935032],[0.036852,52.933908],[0.037034,52.93274],[0.037192,52.933325],[0.036757,52.934196],[0.039526,52.933078],[0.047251,52.931308],[0.05543,52.930082],[0.065772,52.930085],[0.078119,52.931881],[0.068739,52.929709],[0.070603,52.929902],[0.070665,52.929445],[0.069872,52.929509],[0.070595,52.929364],[0.070672,52.928995],[0.069516,52.929515],[0.068867,52.929559],[0.070005,52.929235],[0.067904,52.9295],[0.070167,52.929174],[0.070516,52.928589],[0.070287,52.928726],[0.06945,52.928871],[0.068989,52.928813],[0.068528,52.929153],[0.06892,52.928746],[0.067592,52.929454],[0.067364,52.929316],[0.068812,52.928741],[0.067755,52.929067],[0.06851,52.928688],[0.068264,52.928617],[0.067022,52.929369],[0.067805,52.928735],[0.067474,52.928648],[0.066765,52.929294],[0.066951,52.92896],[0.066128,52.9291],[0.067215,52.928756],[0.066722,52.928594],[0.065462,52.929157],[0.066642,52.928494],[0.070154,52.928692],[0.070311,52.928445],[0.069662,52.928377],[0.069743,52.928126],[0.068819,52.928318],[0.069849,52.927929],[0.06921,52.927764],[0.067973,52.928426],[0.068423,52.927795],[0.067258,52.928484],[0.067686,52.928182],[0.067108,52.92803],[0.067721,52.928152],[0.068447,52.927736],[0.067115,52.927809],[0.065094,52.928722],[0.065034,52.929005],[0.064936,52.928872],[0.065188,52.92863],[0.067087,52.927756],[0.067758,52.927702],[0.067188,52.927455],[0.068863,52.927775],[0.068769,52.927355],[0.0685,52.927569],[0.067594,52.926861],[0.066613,52.9269],[0.067578,52.92683],[0.068726,52.927192],[0.068964,52.926521],[0.068068,52.926205],[0.067428,52.926621],[0.067947,52.926143],[0.067144,52.926057],[0.065411,52.926877],[0.065143,52.927569],[0.06727,52.927133],[0.065134,52.927603],[0.066072,52.927809],[0.066964,52.927549],[0.066089,52.92798],[0.065495,52.927803],[0.065698,52.927886],[0.065701,52.928027],[0.065597,52.928184],[0.065688,52.927918],[0.065174,52.927774],[0.065247,52.928132],[0.064804,52.927789],[0.064487,52.928296],[0.06448,52.927936],[0.063686,52.928202],[0.064569,52.927822],[0.063875,52.927541],[0.063044,52.927682],[0.062742,52.928224],[0.063041,52.92843],[0.064884,52.92856],[0.06348,52.929189],[0.064449,52.928617],[0.062686,52.929142],[0.064028,52.928654],[0.063407,52.928542],[0.062315,52.928909],[0.063327,52.928539],[0.062351,52.92861],[0.062418,52.928399],[0.06193,52.9283],[0.060376,52.92879],[0.060888,52.928406],[0.061881,52.928268],[0.062657,52.928343],[0.062888,52.927806],[0.06239,52.927884],[0.060923,52.927718],[0.059999,52.927468],[0.059374,52.928083],[0.059459,52.928541],[0.059321,52.928076],[0.059879,52.927412],[0.058782,52.926839],[0.057765,52.927173],[0.058768,52.926797],[0.057996,52.926484],[0.05685,52.926945],[0.056459,52.927775],[0.056896,52.926739],[0.057883,52.926445],[0.05811,52.926476],[0.061114,52.927673],[0.062447,52.927788],[0.063826,52.927421],[0.064718,52.927664],[0.064873,52.927249],[0.064054,52.927149],[0.063219,52.926405],[0.061172,52.926614],[0.05784,52.925813],[0.056257,52.926623],[0.056014,52.927652],[0.055999,52.926769],[0.05668,52.926148],[0.05614,52.926056],[0.055586,52.926503],[0.055271,52.926574],[0.054988,52.926138],[0.055399,52.926532],[0.056101,52.926001],[0.057152,52.926156],[0.057931,52.925737],[0.061123,52.926499],[0.061691,52.92636],[0.060177,52.925566],[0.057615,52.925373],[0.055324,52.925588],[0.057249,52.925179],[0.06026,52.925533],[0.061889,52.92633],[0.063376,52.926293],[0.064554,52.927113],[0.06699,52.925674],[0.066701,52.925287],[0.066306,52.925322],[0.064511,52.926626],[0.06531,52.92586],[0.06443,52.926196],[0.066395,52.925077],[0.066079,52.924816],[0.064247,52.926043],[0.065785,52.92494],[0.065429,52.924915],[0.0639,52.925798],[0.065399,52.924883],[0.06606,52.92476],[0.065411,52.924094],[0.064152,52.924695],[0.064245,52.925337],[0.063144,52.926022],[0.064215,52.925149],[0.062405,52.925842],[0.064181,52.925039],[0.064074,52.924687],[0.064539,52.924459],[0.063035,52.92507],[0.062297,52.925193],[0.06238,52.925518],[0.062112,52.925282],[0.06255,52.924997],[0.061256,52.925191],[0.061601,52.925014],[0.061316,52.924926],[0.062868,52.925006],[0.064773,52.92436],[0.064666,52.923909],[0.062338,52.924594],[0.060968,52.9247],[0.060802,52.925028],[0.060476,52.925225],[0.055351,52.92439],[0.059886,52.923314],[0.060763,52.923313],[0.061245,52.923024],[0.060765,52.923177],[0.059629,52.923273],[0.060542,52.92299],[0.06159,52.923023],[0.062686,52.923275],[0.062907,52.922947],[0.061454,52.922075],[0.061156,52.922702],[0.060338,52.922575],[0.059334,52.923004],[0.058766,52.922939],[0.058528,52.923331],[0.057901,52.923578],[0.058551,52.923214],[0.057169,52.92349],[0.058052,52.923195],[0.057368,52.923143],[0.055776,52.92361],[0.057415,52.92311],[0.058549,52.923151],[0.058636,52.922929],[0.060079,52.922551],[0.056665,52.923087],[0.058938,52.92249],[0.061154,52.922571],[0.060956,52.922066],[0.061306,52.921931],[0.060588,52.921542],[0.059954,52.921886],[0.060462,52.9215],[0.05991,52.921256],[0.058934,52.921593],[0.058549,52.922302],[0.058902,52.921539],[0.059768,52.921188],[0.059081,52.920781],[0.058611,52.921148],[0.058747,52.920651],[0.057645,52.921077],[0.057406,52.921511],[0.057832,52.921851],[0.057524,52.921643],[0.057547,52.92179],[0.056559,52.92249],[0.056603,52.922645],[0.055479,52.923046],[0.056521,52.922647],[0.056501,52.922519],[0.056928,52.921921],[0.057432,52.921746],[0.056964,52.921584],[0.056111,52.92235],[0.05687,52.92159],[0.057802,52.920872],[0.0569,52.921074],[0.055077,52.922677],[0.05419,52.923011],[0.055086,52.922647],[0.056863,52.921035],[0.058574,52.920608],[0.057622,52.920106],[0.056806,52.92034],[0.056837,52.920779],[0.056167,52.920849],[0.054499,52.922333],[0.056108,52.920816],[0.056825,52.920723],[0.05667,52.920335],[0.057415,52.920055],[0.055951,52.919446],[0.05553,52.9194],[0.055648,52.919883],[0.055326,52.919406],[0.05459,52.919705],[0.054999,52.9209],[0.052504,52.922854],[0.053156,52.923998],[0.053055,52.924364],[0.05365,52.924469],[0.054348,52.925033],[0.053553,52.924489],[0.05278,52.924681],[0.053489,52.92545],[0.054054,52.925475],[0.05452,52.928178],[0.053991,52.925756],[0.053839,52.927173],[0.053697,52.92597],[0.053998,52.925517],[0.053437,52.925492],[0.052689,52.924795],[0.051899,52.925801],[0.053191,52.926706],[0.052802,52.926615],[0.052467,52.927068],[0.052958,52.927853],[0.052856,52.928176],[0.052418,52.92827],[0.052878,52.928772],[0.052475,52.928757],[0.052361,52.928253],[0.052928,52.927875],[0.052392,52.9271],[0.052552,52.926462],[0.051724,52.925885],[0.051893,52.92748],[0.051648,52.926256],[0.051269,52.926531],[0.051679,52.925797],[0.049895,52.925843],[0.051832,52.92569],[0.052297,52.924934],[0.051411,52.92503],[0.052384,52.924847],[0.052987,52.924056],[0.052183,52.922825],[0.051228,52.923209],[0.051011,52.923948],[0.051201,52.923181],[0.051483,52.922906],[0.051512,52.923033],[0.052278,52.922763],[0.053145,52.921776],[0.052032,52.922277],[0.053887,52.921235],[0.052896,52.921388],[0.051112,52.922312],[0.052938,52.921296],[0.050983,52.921823],[0.05285,52.921158],[0.054101,52.921089],[0.053063,52.920955],[0.052877,52.920817],[0.053341,52.920745],[0.052828,52.920625],[0.053305,52.920662],[0.054382,52.92108],[0.054823,52.920493],[0.053653,52.919604],[0.054233,52.919697],[0.053365,52.918471],[0.052509,52.91872],[0.052149,52.919326],[0.052463,52.918708],[0.05331,52.918439],[0.053113,52.918011],[0.051912,52.918753],[0.051665,52.920043],[0.051694,52.919536],[0.051267,52.919765],[0.05181,52.918768],[0.05301,52.917893],[0.052144,52.917783],[0.052127,52.918091],[0.051315,52.918593],[0.051089,52.919553],[0.051284,52.9185],[0.050776,52.918713],[0.052054,52.918056],[0.05204,52.917711],[0.052815,52.917765],[0.051722,52.91718],[0.051148,52.917398],[0.051016,52.918187],[0.051086,52.917533],[0.050274,52.917683],[0.049032,52.918791],[0.049633,52.918738],[0.048573,52.919276],[0.049538,52.918974],[0.048498,52.919492],[0.051266,52.920298],[0.05006,52.919992],[0.050507,52.920347],[0.050452,52.920697],[0.049889,52.920012],[0.04846,52.919739],[0.049056,52.921659],[0.04868,52.922753],[0.050269,52.923903],[0.050378,52.925183],[0.050181,52.923871],[0.048608,52.922806],[0.048952,52.921719],[0.04792,52.921962],[0.048906,52.92146],[0.04752,52.921303],[0.046943,52.921757],[0.047373,52.921994],[0.046862,52.921828],[0.047395,52.921064],[0.045413,52.922759],[0.046324,52.923486],[0.047391,52.923383],[0.046419,52.923548],[0.045394,52.922896],[0.045083,52.923868],[0.045889,52.923937],[0.046399,52.924377],[0.045139,52.924],[0.044957,52.924991],[0.047484,52.925328],[0.048169,52.925724],[0.047243,52.925331],[0.046471,52.925659],[0.046473,52.925359],[0.045272,52.925112],[0.044873,52.925488],[0.04562,52.926489],[0.046802,52.926537],[0.047705,52.927057],[0.048583,52.926973],[0.049194,52.927162],[0.049674,52.92696],[0.050143,52.926962],[0.050579,52.927157],[0.049714,52.926979],[0.049757,52.927326],[0.047925,52.927066],[0.048383,52.927142],[0.048645,52.927709],[0.048332,52.927219],[0.047389,52.927021],[0.046463,52.926563],[0.045589,52.926612],[0.045296,52.927218],[0.045553,52.926584],[0.044822,52.925679],[0.043712,52.92665],[0.044619,52.926843],[0.043602,52.926733],[0.042807,52.927694],[0.044236,52.927545],[0.045419,52.928296],[0.046316,52.927974],[0.047187,52.927858],[0.048454,52.928941],[0.049369,52.928845],[0.048443,52.929],[0.047181,52.9279],[0.04571,52.928202],[0.046578,52.928576],[0.045624,52.928283],[0.044877,52.928598],[0.045083,52.929095],[0.044669,52.928804],[0.04483,52.928584],[0.045283,52.928381],[0.045266,52.928308],[0.044186,52.927606],[0.042058,52.928297],[0.041816,52.928653],[0.042506,52.928962],[0.041732,52.928752],[0.041739,52.929232],[0.042645,52.929823],[0.043487,52.92992],[0.042591,52.929856],[0.041818,52.929336],[0.041113,52.930539],[0.042536,52.930839],[0.040755,52.930707],[0.041589,52.928635],[0.03944,52.930061],[0.039848,52.930486],[0.039357,52.930096],[0.041836,52.928328],[0.038929,52.929146],[0.038539,52.930168],[0.038763,52.930417],[0.038581,52.931094],[0.039124,52.931347],[0.038999,52.931637],[0.03844,52.931013],[0.038704,52.930499],[0.03842,52.930225],[0.037286,52.930056],[0.037278,52.930326],[0.036942,52.931061],[0.037215,52.930263],[0.036748,52.929954],[0.036002,52.929924],[0.035175,52.930989],[0.034536,52.930938],[0.035166,52.930957],[0.03591,52.929906],[0.035727,52.92897],[0.035081,52.928524],[0.035775,52.928967],[0.035971,52.929871],[0.036847,52.929915],[0.038307,52.930153],[0.038725,52.929091],[0.038096,52.928403],[0.038229,52.928051],[0.037085,52.927924],[0.038212,52.927975],[0.038807,52.929056],[0.039522,52.928787],[0.039494,52.927707],[0.039593,52.928753],[0.04222,52.928037],[0.044502,52.92569],[0.045079,52.922702],[0.046328,52.92134],[0.046136,52.921079],[0.046415,52.921234],[0.047681,52.920554],[0.046101,52.92028],[0.045054,52.921122],[0.046124,52.920238],[0.047713,52.920477],[0.048028,52.920129],[0.046079,52.918994],[0.047995,52.919995],[0.048158,52.919129],[0.046894,52.919017],[0.04828,52.919025],[0.047796,52.918638],[0.048423,52.918882],[0.049069,52.917974],[0.048285,52.917759],[0.044726,52.918346],[0.044126,52.920037],[0.044627,52.920586],[0.04406,52.920004],[0.044569,52.918419],[0.044058,52.918651],[0.044376,52.918334],[0.046883,52.917803],[0.04903,52.917664],[0.049371,52.918052],[0.049793,52.917241],[0.049285,52.91649],[0.047369,52.916639],[0.04821,52.917128],[0.047724,52.917024],[0.046798,52.917462],[0.047572,52.917032],[0.046569,52.917159],[0.047278,52.916961],[0.047029,52.916658],[0.043145,52.918236],[0.042644,52.918984],[0.043382,52.92068],[0.042973,52.921497],[0.043357,52.921482],[0.043627,52.921563],[0.044103,52.922529],[0.043339,52.921526],[0.042685,52.921788],[0.042479,52.922891],[0.043693,52.924037],[0.043624,52.924398],[0.042972,52.924875],[0.043439,52.925052],[0.043339,52.92557],[0.043036,52.925749],[0.043336,52.925061],[0.042465,52.924959],[0.04203,52.925213],[0.042382,52.925422],[0.042448,52.925562],[0.041588,52.926279],[0.041796,52.925744],[0.042387,52.925494],[0.040635,52.925546],[0.03985,52.926518],[0.039348,52.926598],[0.038887,52.926543],[0.038671,52.926925],[0.038557,52.927001],[0.037551,52.927321],[0.038646,52.926914],[0.038914,52.926113],[0.036583,52.926147],[0.036217,52.926426],[0.036331,52.926151],[0.038781,52.925996],[0.038961,52.9261],[0.039103,52.926497],[0.039634,52.92654],[0.040602,52.925124],[0.040614,52.925473],[0.041525,52.925365],[0.043337,52.92445],[0.043468,52.923946],[0.042272,52.922928],[0.042446,52.921963],[0.040637,52.92307],[0.039095,52.92328],[0.03991,52.923859],[0.03972,52.92433],[0.039465,52.924091],[0.039246,52.924309],[0.039568,52.923881],[0.038399,52.923835],[0.039426,52.923826],[0.038775,52.923292],[0.037688,52.923532],[0.037375,52.924269],[0.03611,52.9245],[0.036001,52.925368],[0.035628,52.925635],[0.035276,52.925579],[0.035895,52.925387],[0.035969,52.924566],[0.036365,52.924371],[0.035387,52.924014],[0.03521,52.924424],[0.035291,52.924051],[0.034822,52.923951],[0.034541,52.924737],[0.034606,52.923952],[0.033116,52.923864],[0.034918,52.92384],[0.037162,52.924189],[0.037474,52.923427],[0.036735,52.923311],[0.035353,52.922035],[0.037622,52.923381],[0.038248,52.92321],[0.036792,52.921964],[0.034588,52.921322],[0.031308,52.921618],[0.031403,52.922501],[0.031118,52.921673],[0.02909,52.921234],[0.029398,52.921039],[0.029292,52.919846],[0.028864,52.919829],[0.02913,52.919045],[0.029804,52.921327],[0.031187,52.921521],[0.034514,52.921204],[0.033511,52.920815],[0.035353,52.9212],[0.035377,52.920946],[0.036549,52.920466],[0.035755,52.919913],[0.036612,52.920473],[0.035623,52.92088],[0.035504,52.921219],[0.037121,52.921983],[0.038555,52.923077],[0.040175,52.922955],[0.04135,52.922345],[0.042508,52.921424],[0.041566,52.920834],[0.042564,52.921353],[0.042912,52.920807],[0.04212,52.919033],[0.041428,52.919201],[0.040947,52.919806],[0.040695,52.920006],[0.041031,52.921575],[0.040839,52.921232],[0.04062,52.922038],[0.040172,52.922226],[0.040617,52.921498],[0.040041,52.921522],[0.040654,52.921449],[0.040837,52.921109],[0.040589,52.920233],[0.040593,52.919993],[0.040854,52.919778],[0.04029,52.919961],[0.039845,52.920838],[0.038996,52.921339],[0.03761,52.921044],[0.036848,52.920092],[0.037669,52.921036],[0.039093,52.921235],[0.039804,52.920766],[0.039448,52.92029],[0.039861,52.920383],[0.040272,52.919846],[0.040563,52.919707],[0.038804,52.919776],[0.04042,52.919566],[0.039027,52.919239],[0.040724,52.919487],[0.040712,52.919274],[0.04109,52.918962],[0.041009,52.918869],[0.041121,52.918946],[0.041127,52.919022],[0.040738,52.919671],[0.041345,52.91905],[0.042141,52.918796],[0.043457,52.917329],[0.043272,52.916824],[0.041875,52.918049],[0.041491,52.918249],[0.040881,52.917936],[0.040188,52.918021],[0.040891,52.917888],[0.041606,52.918157],[0.042161,52.917518],[0.040689,52.917066],[0.042408,52.917436],[0.042815,52.916907],[0.041917,52.916554],[0.04285,52.916881],[0.043325,52.916713],[0.042301,52.916334],[0.043556,52.916692],[0.043671,52.917173],[0.044158,52.917222],[0.044353,52.916734],[0.04432,52.917151],[0.044874,52.917034],[0.045338,52.916832],[0.044926,52.916353],[0.045444,52.916805],[0.046267,52.916468],[0.045836,52.916492],[0.045408,52.915768],[0.046003,52.9164],[0.047022,52.91619],[0.046628,52.915219],[0.043918,52.915116],[0.043801,52.915253],[0.042821,52.915586],[0.042576,52.915598],[0.042127,52.915231],[0.042747,52.915581],[0.043762,52.915097],[0.039918,52.914365],[0.040424,52.914995],[0.042093,52.915447],[0.041602,52.915599],[0.041115,52.915526],[0.042018,52.915428],[0.040467,52.915074],[0.039748,52.91438],[0.039291,52.914467],[0.039819,52.915139],[0.039841,52.915231],[0.039721,52.915405],[0.038895,52.91582],[0.039797,52.915229],[0.039161,52.914537],[0.038341,52.915002],[0.037762,52.916976],[0.036422,52.91771],[0.036243,52.91872],[0.034896,52.919267],[0.034747,52.919778],[0.034537,52.919904],[0.034216,52.919964],[0.032795,52.919979],[0.034522,52.919862],[0.034767,52.919327],[0.033603,52.919083],[0.033253,52.918094],[0.031915,52.917445],[0.03324,52.918042],[0.033614,52.919038],[0.034762,52.919234],[0.036131,52.918664],[0.036211,52.917782],[0.036668,52.917315],[0.035702,52.91772],[0.035812,52.917519],[0.034847,52.917697],[0.034376,52.917464],[0.035498,52.917508],[0.034885,52.917174],[0.035923,52.917457],[0.036032,52.917119],[0.035614,52.916706],[0.036146,52.91718],[0.036944,52.917266],[0.037706,52.916552],[0.037619,52.916108],[0.036231,52.915413],[0.035758,52.915544],[0.035845,52.916014],[0.03497,52.916038],[0.03578,52.916007],[0.035632,52.915601],[0.0342,52.915366],[0.035608,52.915541],[0.03577,52.915069],[0.034849,52.915006],[0.035723,52.915007],[0.035806,52.915052],[0.035888,52.915373],[0.03665,52.915453],[0.037563,52.915982],[0.03813,52.914845],[0.036547,52.914498],[0.038214,52.914801],[0.040234,52.91414],[0.044028,52.914873],[0.042825,52.912807],[0.041527,52.913515],[0.042831,52.912705],[0.042757,52.912386],[0.042303,52.912359],[0.041315,52.91317],[0.042271,52.9123],[0.042745,52.912291],[0.04269,52.911914],[0.042106,52.911791],[0.042183,52.911982],[0.040889,52.912827],[0.041799,52.912012],[0.041326,52.911933],[0.040944,52.912279],[0.041042,52.911996],[0.041324,52.91191],[0.042107,52.911953],[0.042077,52.911726],[0.04269,52.911854],[0.042773,52.911551],[0.041381,52.911185],[0.040279,52.91235],[0.039999,52.913247],[0.039347,52.913517],[0.039954,52.913216],[0.040227,52.912229],[0.038931,52.912497],[0.038632,52.913216],[0.038506,52.912846],[0.038799,52.912551],[0.039166,52.91232],[0.040532,52.912007],[0.041286,52.910968],[0.040809,52.910835],[0.040307,52.911491],[0.038198,52.912565],[0.039114,52.911928],[0.038717,52.911938],[0.040181,52.911521],[0.040439,52.910821],[0.039378,52.910896],[0.040402,52.910778],[0.040307,52.910268],[0.042603,52.911391],[0.043182,52.910712],[0.04423,52.911037],[0.044867,52.910825],[0.042395,52.909094],[0.042042,52.909268],[0.042209,52.909612],[0.041824,52.909826],[0.040154,52.909663],[0.03859,52.91067],[0.040167,52.909615],[0.041972,52.909683],[0.041922,52.909261],[0.042261,52.908924],[0.038156,52.90587],[0.037066,52.905832],[0.035684,52.906865],[0.037241,52.907897],[0.038218,52.909306],[0.038026,52.910124],[0.037312,52.910318],[0.036834,52.910943],[0.037308,52.913158],[0.036805,52.912463],[0.035864,52.913575],[0.034768,52.914179],[0.031636,52.914393],[0.03065,52.915416],[0.028687,52.916422],[0.029152,52.916788],[0.030051,52.916859],[0.029234,52.91681],[0.029146,52.917803],[0.029119,52.917228],[0.027684,52.917329],[0.027244,52.917919],[0.027573,52.91839],[0.027212,52.917975],[0.027281,52.917608],[0.026699,52.917542],[0.025551,52.916726],[0.023959,52.91719],[0.025462,52.916664],[0.027096,52.917514],[0.027724,52.917253],[0.029032,52.917152],[0.029045,52.916859],[0.028474,52.91655],[0.026455,52.91663],[0.024556,52.915051],[0.022037,52.915136],[0.021013,52.915931],[0.021897,52.91514],[0.022361,52.914976],[0.02088,52.915022],[0.020365,52.914342],[0.012672,52.916477],[0.020204,52.914248],[0.019025,52.911496],[0.020855,52.914908],[0.022017,52.914757],[0.022689,52.915024],[0.022806,52.914335],[0.022794,52.915046],[0.024623,52.914933],[0.024966,52.914816],[0.024771,52.914182],[0.025039,52.914708],[0.02503,52.914808],[0.024782,52.914927],[0.026435,52.91645],[0.028325,52.916398],[0.02876,52.91602],[0.028377,52.91521],[0.028948,52.915927],[0.030417,52.915247],[0.029601,52.914635],[0.030482,52.915161],[0.031673,52.914103],[0.033846,52.914194],[0.034637,52.913945],[0.035679,52.913347],[0.034745,52.913005],[0.035787,52.913253],[0.036598,52.91222],[0.036453,52.911482],[0.035854,52.912485],[0.034639,52.912682],[0.035972,52.912245],[0.034466,52.912195],[0.035937,52.912172],[0.034831,52.91188],[0.033018,52.912813],[0.034032,52.912209],[0.033646,52.911966],[0.032991,52.912289],[0.033429,52.912001],[0.033653,52.911939],[0.033971,52.912033],[0.034887,52.911826],[0.03559,52.91188],[0.034958,52.911479],[0.035861,52.911902],[0.036443,52.911306],[0.036639,52.910441],[0.035998,52.910197],[0.034855,52.91098],[0.034208,52.911281],[0.033547,52.911319],[0.034624,52.911029],[0.035887,52.910171],[0.036862,52.910236],[0.036104,52.909685],[0.034366,52.910665],[0.035446,52.910047],[0.033887,52.910489],[0.036078,52.909611],[0.035869,52.909285],[0.034465,52.910049],[0.035835,52.9092],[0.035428,52.908554],[0.034681,52.908685],[0.033855,52.909651],[0.032276,52.910171],[0.033836,52.909625],[0.034551,52.908705],[0.034137,52.908556],[0.03317,52.909174],[0.033676,52.90873],[0.034145,52.908526],[0.035289,52.908503],[0.033752,52.907852],[0.033536,52.908127],[0.033704,52.907843],[0.033304,52.907684],[0.03572,52.908582],[0.036915,52.910038],[0.037819,52.909395],[0.036599,52.907864],[0.035929,52.907792],[0.035018,52.907104],[0.036448,52.905607],[0.035868,52.904918],[0.031846,52.906354],[0.032135,52.90653],[0.032544,52.907186],[0.033789,52.906859],[0.033612,52.907094],[0.032547,52.907224],[0.031981,52.906509],[0.03096,52.906581],[0.031229,52.907704],[0.030754,52.908217],[0.031914,52.909189],[0.029891,52.910388],[0.029593,52.911222],[0.02998,52.912647],[0.029536,52.911416],[0.029149,52.91213],[0.028491,52.912339],[0.02826,52.913646],[0.028424,52.912293],[0.027904,52.912058],[0.029046,52.912122],[0.029822,52.91027],[0.03173,52.909176],[0.030578,52.908394],[0.031019,52.907585],[0.030613,52.906632],[0.029387,52.90701],[0.028833,52.907678],[0.029828,52.908774],[0.027786,52.9092],[0.028431,52.909584],[0.0283,52.909826],[0.028378,52.909587],[0.027569,52.909344],[0.026583,52.910465],[0.026564,52.911034],[0.025631,52.911698],[0.0265,52.911045],[0.026506,52.910608],[0.025051,52.911414],[0.024488,52.911373],[0.026068,52.910787],[0.027397,52.909341],[0.026357,52.908241],[0.026211,52.90857],[0.025712,52.908521],[0.026169,52.909081],[0.025673,52.908574],[0.025689,52.908497],[0.02579,52.908445],[0.026195,52.90854],[0.026123,52.908117],[0.024481,52.908818],[0.024051,52.90958],[0.023337,52.909917],[0.023427,52.910217],[0.023305,52.910458],[0.023124,52.910585],[0.022574,52.910685],[0.021965,52.911436],[0.022457,52.910678],[0.023348,52.910181],[0.021782,52.909435],[0.023281,52.909861],[0.024537,52.908655],[0.025537,52.908079],[0.027952,52.908086],[0.028883,52.906905],[0.032813,52.905788],[0.032853,52.905538],[0.031898,52.905716],[0.031512,52.905666],[0.032734,52.905553],[0.032642,52.904876],[0.031735,52.905098],[0.031012,52.904943],[0.030841,52.905263],[0.030927,52.904955],[0.031027,52.904924],[0.031259,52.90494],[0.031727,52.905066],[0.032462,52.904767],[0.032775,52.904892],[0.03315,52.90559],[0.035637,52.904675],[0.036412,52.904189],[0.036074,52.903816],[0.034189,52.903536],[0.031334,52.904266],[0.028611,52.904147],[0.02884,52.905665],[0.026896,52.906243],[0.025283,52.905996],[0.024832,52.907157],[0.024001,52.907894],[0.021826,52.906835],[0.020205,52.908516],[0.019847,52.908626],[0.019214,52.908591],[0.019284,52.909486],[0.018498,52.910117],[0.018844,52.910906],[0.018429,52.91009],[0.019234,52.909493],[0.019235,52.908872],[0.018593,52.909333],[0.017868,52.909507],[0.017302,52.909562],[0.018436,52.910435],[0.017222,52.909522],[0.018604,52.909291],[0.019068,52.908431],[0.016004,52.908212],[0.01862,52.908236],[0.019987,52.908533],[0.021768,52.906759],[0.022018,52.906682],[0.023977,52.907708],[0.025179,52.905864],[0.026951,52.906074],[0.028683,52.905525],[0.028035,52.904072],[0.024613,52.904453],[0.020469,52.904151],[0.019931,52.905702],[0.020874,52.906095],[0.020983,52.906244],[0.020963,52.90634],[0.019583,52.906932],[0.020944,52.906283],[0.019887,52.905797],[0.020315,52.904079],[0.01903,52.903256],[0.018066,52.903845],[0.018383,52.903345],[0.017776,52.90334],[0.018902,52.903183],[0.018192,52.902468],[0.017523,52.902474],[0.015227,52.903455],[0.015803,52.903647],[0.015119,52.903541],[0.014357,52.903947],[0.014182,52.904988],[0.015902,52.905912],[0.015154,52.905609],[0.014957,52.906131],[0.01504,52.905642],[0.014491,52.905318],[0.013275,52.905516],[0.012654,52.906051],[0.012928,52.906638],[0.014975,52.907947],[0.01293,52.906692],[0.012539,52.905849],[0.01008,52.904005],[0.012754,52.905896],[0.013259,52.90545],[0.014279,52.905342],[0.013975,52.904655],[0.014245,52.903886],[0.01362,52.903881],[0.013041,52.903321],[0.014389,52.903797],[0.017715,52.902304],[0.018442,52.902412],[0.020511,52.903953],[0.022191,52.904245],[0.025196,52.904227],[0.027275,52.903759],[0.031083,52.904057],[0.032846,52.903638],[0.033719,52.903107],[0.032407,52.902016],[0.030092,52.902877],[0.030938,52.90218],[0.03241,52.901946],[0.034009,52.903302],[0.036444,52.903248],[0.032281,52.90109],[0.031078,52.901757],[0.029893,52.90181],[0.031129,52.90171],[0.032008,52.901096],[0.031421,52.900777],[0.031192,52.90111],[0.030563,52.901454],[0.029753,52.901561],[0.030713,52.901336],[0.031308,52.900811],[0.030081,52.900322],[0.028548,52.901279],[0.029126,52.901676],[0.028551,52.902509],[0.029057,52.901717],[0.02768,52.90118],[0.027258,52.900556],[0.02565,52.901678],[0.026096,52.902035],[0.027687,52.901935],[0.026032,52.902076],[0.02524,52.902462],[0.024599,52.902139],[0.022532,52.902803],[0.024519,52.902107],[0.025426,52.902293],[0.025924,52.902062],[0.025532,52.901733],[0.02386,52.901774],[0.023126,52.901457],[0.022775,52.902008],[0.022971,52.901361],[0.02212,52.900936],[0.020652,52.901141],[0.02093,52.901372],[0.017764,52.900878],[0.015014,52.901534],[0.015138,52.902068],[0.015001,52.901593],[0.013637,52.902178],[0.011219,52.902292],[0.01083,52.902253],[0.008728,52.902901],[0.009021,52.903113],[0.008676,52.902978],[0.007895,52.902314],[0.007778,52.901764],[0.008611,52.902847],[0.010802,52.902217],[0.010101,52.90188],[0.011169,52.902244],[0.011827,52.902117],[0.010526,52.90143],[0.00913,52.899926],[0.009041,52.899328],[0.009182,52.899907],[0.010562,52.900824],[0.010705,52.90148],[0.012546,52.902135],[0.013328,52.902024],[0.012641,52.90151],[0.013625,52.902085],[0.015905,52.901087],[0.01614,52.900574],[0.015964,52.901064],[0.01771,52.900739],[0.020025,52.901023],[0.021965,52.900743],[0.023538,52.90145],[0.024927,52.901679],[0.025599,52.901198],[0.025078,52.901183],[0.024726,52.90108],[0.024136,52.900236],[0.025083,52.901128],[0.026858,52.900433],[0.02973,52.900047],[0.026964,52.898887],[0.026807,52.899054],[0.026314,52.899099],[0.026781,52.89901],[0.024762,52.898173],[0.024668,52.898419],[0.024485,52.898187],[0.023185,52.898619],[0.022532,52.899711],[0.022926,52.900096],[0.022472,52.899758],[0.022324,52.89993],[0.023007,52.898698],[0.021914,52.899081],[0.021817,52.89956],[0.021828,52.899154],[0.019056,52.899173],[0.017322,52.898669],[0.016919,52.899463],[0.017182,52.898618],[0.015374,52.898025],[0.014187,52.898289],[0.014831,52.898054],[0.013766,52.897785],[0.01637,52.898115],[0.019696,52.899139],[0.021578,52.899053],[0.024289,52.898058],[0.020999,52.896945],[0.020454,52.897443],[0.019183,52.898124],[0.017271,52.897733],[0.019246,52.898067],[0.020458,52.897381],[0.02067,52.896819],[0.019259,52.896403],[0.018993,52.896692],[0.017921,52.896671],[0.016326,52.897228],[0.015293,52.896745],[0.013929,52.89537],[0.013657,52.895772],[0.014793,52.896712],[0.014735,52.897098],[0.014249,52.897301],[0.013078,52.897227],[0.012747,52.897178],[0.012095,52.896746],[0.012192,52.896725],[0.012882,52.89719],[0.014682,52.897099],[0.013711,52.895933],[0.01357,52.895687],[0.013636,52.895456],[0.012599,52.895919],[0.013863,52.895325],[0.014136,52.895361],[0.014794,52.896228],[0.016324,52.89716],[0.017901,52.896598],[0.018833,52.896629],[0.019099,52.896283],[0.017237,52.895626],[0.016585,52.89582],[0.017065,52.895542],[0.013239,52.894228],[0.012271,52.894762],[0.013042,52.894158],[0.010989,52.893434],[0.009482,52.894494],[0.010523,52.895197],[0.010152,52.895583],[0.010705,52.895803],[0.010702,52.895875],[0.010363,52.896181],[0.010666,52.895856],[0.010067,52.89563],[0.010428,52.895177],[0.009691,52.894817],[0.009306,52.894784],[0.009164,52.895364],[0.008245,52.89522],[0.008065,52.896148],[0.009361,52.896311],[0.009131,52.896922],[0.00931,52.89633],[0.008072,52.896217],[0.007857,52.895704],[0.007053,52.895495],[0.007946,52.895663],[0.008239,52.89511],[0.008998,52.895288],[0.009132,52.894521],[0.007835,52.89475],[0.007754,52.895085],[0.005706,52.894876],[0.007749,52.894957],[0.005745,52.894295],[0.003626,52.895548],[0.004906,52.89567],[0.005464,52.896788],[0.004852,52.895687],[0.002835,52.895647],[0.003642,52.89611],[0.002616,52.895691],[0.00174,52.895775],[0.00233,52.896282],[0.004279,52.896922],[0.004026,52.897656],[0.005769,52.897707],[0.002618,52.897932],[0.004604,52.899679],[0.005169,52.899697],[0.005475,52.899263],[0.005212,52.899733],[0.004722,52.899741],[0.006157,52.900909],[0.00253,52.898054],[0.002493,52.897906],[0.002768,52.897745],[0.003913,52.897626],[0.004097,52.896927],[0.001868,52.896207],[0.001171,52.896982],[0.00197,52.897639],[0.000606,52.896595],[0.00107,52.896728],[0.001735,52.896186],[0.001667,52.895656],[0.002881,52.895377],[0.001949,52.895044],[-8.8e-05,52.89525],[0.000157,52.895955],[-0.000383,52.894936],[-0.004551,52.895374],[-0.002609,52.895165],[-0.003293,52.894639],[-0.002206,52.894344],[-0.003184,52.894647],[-0.00195,52.894823],[-0.002299,52.8951],[0.000204,52.894646],[2.1e-05,52.89519],[0.002007,52.894954],[0.003265,52.895452],[0.00552,52.894106],[0.005491,52.893289],[0.00259,52.893613],[0.005547,52.893193],[0.005851,52.89414],[0.007055,52.894528],[0.00932,52.894293],[0.010001,52.893896],[0.009722,52.892951],[0.008801,52.892507],[0.008437,52.892782],[0.008715,52.892484],[0.007841,52.89207],[0.006818,52.892458],[0.00766,52.891969],[0.005969,52.891245],[0.005316,52.891396],[0.004874,52.892068],[0.005253,52.891418],[0.005342,52.89137],[0.005932,52.891198],[0.003855,52.890272],[0.003967,52.891135],[0.003265,52.891776],[0.003926,52.890844],[0.001887,52.891264],[0.002067,52.89147],[-0.00044,52.890355],[-0.00117,52.890384],[-0.000775,52.890941],[-0.000277,52.892328],[0.00019,52.892496],[-0.000184,52.892497],[-0.000548,52.892259],[-0.000614,52.891483],[-0.001639,52.889847],[-0.001247,52.890291],[-0.000423,52.890293],[0.001478,52.891179],[0.003537,52.890793],[0.0035,52.890116],[-0.002013,52.887626],[-0.004355,52.888403],[-0.002006,52.889474],[-0.001518,52.888998],[-0.001883,52.889486],[-0.002116,52.889465],[-0.004703,52.888441],[-0.002287,52.887501],[-0.00669,52.885604],[-0.007312,52.886303],[-0.007752,52.886177],[-0.007909,52.886468],[-0.005199,52.887795],[-0.004751,52.887524],[-0.005164,52.88782],[-0.004778,52.888023],[-0.007953,52.886482],[-0.007752,52.886142],[-0.00728,52.886242],[-0.006923,52.885448],[-0.011107,52.883665],[-0.010881,52.88441],[-0.011284,52.884699],[-0.008843,52.885856],[-0.008307,52.885603],[-0.008821,52.885889],[-0.009785,52.885541],[-0.011261,52.884772],[-0.011775,52.884191],[-0.012828,52.883981],[-0.017083,52.881834],[-0.012729,52.883974],[-0.011793,52.884116],[-0.011472,52.884515],[-0.011002,52.884452],[-0.011295,52.883538],[-0.025274,52.877317],[-0.025615,52.877598],[-0.020715,52.879844],[-0.019609,52.880646],[-0.025695,52.877616],[-0.025725,52.877136],[-0.028569,52.875976],[-0.039171,52.87228],[-0.043513,52.871429],[-0.04423,52.871738],[-0.044435,52.871184],[-0.065082,52.86618],[-0.069791,52.864392],[-0.080466,52.866921],[-0.082052,52.865367],[-0.084794,52.864546],[-0.087288,52.865891],[-0.088881,52.865886],[-0.089992,52.866329],[-0.090195,52.86676],[-0.088974,52.867313],[-0.089474,52.867799],[-0.09099,52.867759],[-0.092838,52.868167],[-0.093272,52.867621],[-0.091871,52.867379],[-0.091849,52.867071],[-0.092826,52.866492],[-0.09445,52.866621],[-0.096419,52.869257],[-0.096251,52.869827],[-0.097421,52.87029],[-0.096896,52.871214],[-0.098584,52.872006],[-0.099922,52.870607],[-0.100905,52.871796],[-0.100327,52.871672],[-0.099754,52.872741],[-0.098852,52.872825],[-0.098748,52.873085],[-0.1005,52.874672],[-0.101379,52.874305],[-0.103566,52.876914],[-0.107293,52.876766],[-0.109919,52.877949],[-0.112369,52.877978],[-0.11405,52.878891],[-0.114227,52.879591],[-0.115088,52.879323],[-0.117407,52.880334],[-0.11782,52.881061],[-0.116645,52.881589],[-0.119995,52.882639],[-0.121577,52.88217],[-0.122034,52.882501],[-0.122487,52.882407],[-0.123723,52.881866],[-0.124278,52.880959],[-0.126088,52.880614],[-0.125481,52.879752],[-0.126823,52.879995],[-0.127592,52.879812],[-0.128181,52.880158],[-0.126986,52.880596],[-0.129191,52.881773],[-0.129169,52.882125],[-0.131143,52.883529],[-0.132194,52.88381],[-0.132266,52.884515],[-0.133568,52.885621],[-0.135177,52.884381],[-0.135564,52.884449],[-0.135671,52.885139],[-0.135191,52.885461],[-0.136494,52.88578],[-0.137765,52.885602],[-0.138206,52.884674],[-0.139359,52.88482],[-0.140973,52.884472],[-0.141938,52.884956],[-0.142652,52.884908],[-0.143463,52.886335],[-0.145253,52.887056],[-0.144146,52.887545],[-0.145383,52.888164],[-0.145228,52.888726],[-0.143921,52.889186],[-0.144741,52.88959],[-0.144735,52.890769],[-0.145729,52.891282],[-0.14697,52.891213],[-0.147358,52.891926],[-0.151635,52.894238],[-0.151612,52.895372],[-0.151029,52.896085],[-0.149511,52.896285],[-0.148742,52.897245],[-0.147777,52.897387],[-0.14893,52.897967],[-0.148578,52.898785],[-0.14686,52.898419],[-0.146643,52.898672],[-0.146965,52.899405],[-0.147601,52.899573],[-0.148732,52.900733],[-0.149279,52.900285],[-0.150273,52.900308],[-0.151035,52.901822],[-0.14994,52.90271],[-0.150722,52.904111],[-0.150703,52.905996],[-0.154312,52.908042],[-0.155199,52.90962],[-0.15682,52.910945],[-0.156292,52.911816],[-0.156617,52.912163],[-0.159324,52.912268],[-0.159297,52.911673],[-0.160163,52.911436],[-0.161149,52.912695],[-0.166054,52.912097],[-0.167307,52.912337],[-0.168083,52.914369],[-0.169774,52.914395],[-0.171607,52.916194],[-0.171785,52.917645],[-0.176177,52.918443],[-0.177865,52.919053],[-0.178507,52.918293],[-0.178248,52.916803],[-0.179732,52.915454],[-0.184315,52.914575],[-0.185619,52.914921],[-0.186525,52.9156],[-0.186013,52.916468],[-0.187988,52.916683],[-0.188473,52.915778],[-0.189719,52.915804],[-0.189867,52.915427],[-0.190837,52.91534],[-0.190669,52.914938],[-0.192083,52.914663],[-0.192281,52.915214],[-0.191624,52.915949],[-0.192299,52.916941],[-0.195178,52.917772],[-0.198512,52.918285],[-0.201744,52.920576],[-0.20821,52.922478],[-0.213755,52.923677],[-0.21423,52.923288],[-0.219217,52.924136],[-0.230244,52.92497],[-0.239392,52.926237],[-0.245515,52.927937],[-0.2467,52.928845],[-0.224,52.956073],[-0.21543,52.960862],[-0.201198,52.97746],[-0.199679,52.981204],[-0.198924,52.981777],[-0.19916,52.982973],[-0.198382,52.983807],[-0.198892,52.98431],[-0.198796,52.985606],[-0.196645,52.989015],[-0.189776,52.99646],[-0.193728,52.99787],[-0.199407,53.003281],[-0.201489,53.004106],[-0.202029,53.005998],[-0.203829,53.007843],[-0.203619,53.009198],[-0.206856,53.011193],[-0.207003,53.012325],[-0.209437,53.014644],[-0.213285,53.016361],[-0.214213,53.017358],[-0.214659,53.019209],[-0.213608,53.019988],[-0.21345,53.020678],[-0.215077,53.021517],[-0.216583,53.024061],[-0.218797,53.025137],[-0.219176,53.025685],[-0.220356,53.025869],[-0.221003,53.026551],[-0.223253,53.027504],[-0.224131,53.028726],[-0.224828,53.02903],[-0.224995,53.030048],[-0.224351,53.032312],[-0.223924,53.033179],[-0.222713,53.033906],[-0.223121,53.034848],[-0.219555,53.039073],[-0.220968,53.03942],[-0.218083,53.043493],[-0.21801,53.044715],[-0.220278,53.048009],[-0.21793,53.051648],[-0.214058,53.062385],[-0.211356,53.067519],[-0.21076,53.070154],[-0.206623,53.070576],[-0.204292,53.070243],[-0.198851,53.070355],[-0.19612,53.069557],[-0.189714,53.063139],[-0.164236,53.050081],[-0.138044,53.030042],[-0.118422,53.012017],[-0.114741,53.010258],[-0.063922,53.008226],[-0.063193,53.008958],[-0.055429,53.006757],[-0.051503,53.004902],[-0.032611,53.004817],[-0.023912,53.005685],[-0.0218,53.005334],[-0.01917,53.0043],[-0.014989,53.004734],[-0.010753,53.002017],[-0.007061,53.00112],[-0.006455,53.002774],[-0.004821,53.004865],[0.000504,53.008852],[0.009684,53.012212],[0.017702,53.016024],[0.020482,53.016175],[0.020495,53.01695],[0.023148,53.01744],[0.035748,53.026803],[0.044661,53.03019],[0.045229,53.030067],[0.046095,53.032296],[0.046589,53.035445],[0.045988,53.035472],[0.045497,53.038083],[0.044214,53.040797],[0.036218,53.069417],[0.042022,53.070311],[0.048072,53.070704],[0.082758,53.070914],[0.08305,53.071681],[0.087488,53.071645],[0.092794,53.072662],[0.094544,53.074225],[0.096358,53.074443],[0.118336,53.080758],[0.124479,53.083396],[0.129234,53.08496],[0.131837,53.085302],[0.137098,53.086741],[0.139795,53.085227],[0.13975,53.084688],[0.141708,53.082366],[0.144338,53.069637],[0.14375,53.06915],[0.145023,53.063749],[0.147169,53.059978],[0.150221,53.05695]],[[0.191016,53.029722],[0.191119,53.03069],[0.190952,53.030775],[0.190243,53.031002],[0.190367,53.031385],[0.190085,53.031147],[0.19028,53.030945],[0.191094,53.03066],[0.190988,53.029697],[0.191656,53.029961],[0.191016,53.029722]],[[0.159297,53.012829],[0.158968,53.014107],[0.159214,53.012638],[0.159297,53.012829]],[[0.108111,52.971905],[0.108215,52.971578],[0.106935,52.972019],[0.108333,52.971536],[0.108111,52.971905]],[[0.089847,52.962498],[0.090017,52.961919],[0.089112,52.962151],[0.090232,52.961658],[0.089847,52.962498]],[[0.08663,52.955957],[0.085268,52.956816],[0.085813,52.956334],[0.085153,52.95634],[0.086169,52.955811],[0.085294,52.955821],[0.084984,52.95619],[0.084992,52.955691],[0.084781,52.956118],[0.084426,52.955128],[0.085339,52.955747],[0.087282,52.955646],[0.086712,52.955804],[0.087032,52.956318],[0.08663,52.955957]],[[0.084608,52.954285],[0.083978,52.954273],[0.083969,52.954516],[0.083853,52.954005],[0.084608,52.954285]],[[0.050649,52.922843],[0.051463,52.922814],[0.051483,52.922906],[0.050649,52.922843]],[[0.052574,52.920094],[0.053397,52.919682],[0.05307,52.919512],[0.053653,52.919604],[0.052574,52.920094]],[[0.047449,52.923377],[0.047868,52.924168],[0.048648,52.924174],[0.047893,52.924208],[0.0477,52.924108],[0.047391,52.923383],[0.047449,52.923377]],[[0.037746,52.924348],[0.038233,52.923837],[0.038399,52.923835],[0.037746,52.924348]],[[0.028775,52.922892],[0.029241,52.923171],[0.029164,52.923243],[0.028701,52.922945],[0.028543,52.921581],[0.02909,52.921234],[0.028775,52.922892]],[[0.028851,52.923542],[0.029361,52.924057],[0.029141,52.924416],[0.028634,52.924567],[0.026725,52.924069],[0.026654,52.924006],[0.026856,52.92359],[0.026736,52.924027],[0.028648,52.924533],[0.029287,52.924096],[0.028771,52.923553],[0.029164,52.923243],[0.028851,52.923542]]]]}}]}