{"type":"FeatureCollection","features":[{"type":"Feature","properties":{"slug":"bracknell-forest","gss_code":"E06000036","name":"Bracknell Forest"},"geometry":{"type":"Polygon","coordinates":[[[-0.757329,51.459025],[-0.752752,51.462227],[-0.745893,51.458805],[-0.740771,51.458831],[-0.724526,51.456139],[-0.723306,51.457711],[-0.7204,51.459904],[-0.714418,51.467144],[-0.710476,51.466395],[-0.710133,51.467472],[-0.70571,51.467738],[-0.688866,51.46696],[-0.682288,51.463384],[-0.679777,51.46301],[-0.672746,51.457849],[-0.668902,51.459683],[-0.665016,51.462466],[-0.662645,51.462549],[-0.660972,51.461854],[-0.656756,51.461494],[-0.658259,51.453082],[-0.658224,51.449316],[-0.661982,51.444319],[-0.653868,51.441368],[-0.650799,51.441767],[-0.64195,51.441006],[-0.630553,51.442192],[-0.637146,51.428005],[-0.63123,51.422861],[-0.632072,51.41921],[-0.631292,51.416826],[-0.631309,51.414455],[-0.635321,51.414168],[-0.635447,51.414396],[-0.638327,51.414655],[-0.640441,51.415795],[-0.641071,51.417069],[-0.64321,51.418897],[-0.64916,51.421225],[-0.653862,51.423951],[-0.657988,51.423927],[-0.663096,51.426016],[-0.667948,51.430748],[-0.676261,51.431583],[-0.678977,51.430034],[-0.678838,51.428358],[-0.680579,51.425351],[-0.68478,51.42163],[-0.690083,51.418872],[-0.693667,51.415015],[-0.696117,51.413024],[-0.696192,51.411366],[-0.69654,51.41091],[-0.692737,51.40739],[-0.686611,51.40296],[-0.679433,51.393052],[-0.673163,51.388741],[-0.671387,51.385781],[-0.667634,51.384571],[-0.697007,51.374395],[-0.710369,51.370653],[-0.724091,51.368466],[-0.731853,51.366431],[-0.735335,51.36501],[-0.741455,51.357118],[-0.744326,51.354563],[-0.748053,51.352348],[-0.749752,51.349934],[-0.752416,51.348541],[-0.755157,51.34548],[-0.756944,51.344296],[-0.759428,51.343521],[-0.758193,51.340568],[-0.761432,51.340409],[-0.764662,51.33703],[-0.768968,51.335486],[-0.77268,51.332843],[-0.775466,51.331959],[-0.776588,51.333171],[-0.778002,51.333374],[-0.78014,51.334785],[-0.782782,51.33569],[-0.782665,51.335957],[-0.783334,51.336362],[-0.78332,51.337427],[-0.784651,51.338232],[-0.786284,51.338588],[-0.787079,51.339185],[-0.789063,51.339191],[-0.789205,51.339577],[-0.789978,51.339802],[-0.793186,51.339973],[-0.794072,51.341012],[-0.794929,51.34096],[-0.798315,51.341782],[-0.798902,51.341506],[-0.804152,51.341353],[-0.804681,51.341656],[-0.807036,51.341085],[-0.809468,51.341039],[-0.81408,51.341565],[-0.815098,51.342342],[-0.815383,51.344171],[-0.813957,51.3454],[-0.815777,51.346361],[-0.816119,51.34715],[-0.818768,51.34785],[-0.818494,51.348178],[-0.81908,51.348423],[-0.819049,51.34883],[-0.824797,51.350075],[-0.826389,51.352287],[-0.827832,51.352351],[-0.828124,51.352864],[-0.830426,51.352894],[-0.830927,51.353335],[-0.832055,51.35297],[-0.836026,51.352619],[-0.836557,51.352296],[-0.837374,51.352886],[-0.834387,51.354496],[-0.834272,51.355385],[-0.833646,51.355814],[-0.832459,51.357915],[-0.829088,51.360933],[-0.828335,51.362621],[-0.827446,51.363541],[-0.814533,51.369533],[-0.813571,51.370318],[-0.809195,51.37095],[-0.78884,51.371751],[-0.795766,51.392354],[-0.797832,51.395653],[-0.798955,51.400135],[-0.801475,51.405095],[-0.801972,51.409063],[-0.798082,51.409185],[-0.794614,51.408555],[-0.792505,51.40885],[-0.793231,51.411394],[-0.795739,51.413226],[-0.796673,51.414454],[-0.798683,51.419491],[-0.798666,51.42135],[-0.797862,51.423738],[-0.798519,51.433123],[-0.798046,51.436066],[-0.799661,51.438976],[-0.800038,51.44118],[-0.800048,51.444955],[-0.799131,51.446382],[-0.797035,51.447615],[-0.795952,51.449525],[-0.792782,51.451418],[-0.789922,51.452402],[-0.787067,51.455643],[-0.783874,51.460774],[-0.783767,51.464576],[-0.782565,51.46869],[-0.775652,51.468722],[-0.77516,51.468386],[-0.769642,51.467759],[-0.77014,51.465195],[-0.769803,51.46341],[-0.764628,51.459723],[-0.762942,51.4597],[-0.760745,51.459105],[-0.757329,51.459025]]]}}]}