{"type":"FeatureCollection","features":[{"type":"Feature","properties":{"slug":"bradford","gss_code":"E08000032","name":"Bradford"},"geometry":{"type":"Polygon","coordinates":[[[-1.878848,53.954248],[-1.877527,53.953115],[-1.876091,53.950842],[-1.876215,53.948677],[-1.874405,53.945296],[-1.872099,53.943884],[-1.86579,53.942246],[-1.863999,53.941181],[-1.862101,53.940549],[-1.861736,53.939032],[-1.862614,53.936959],[-1.862992,53.934423],[-1.861438,53.933161],[-1.859502,53.932475],[-1.855981,53.93223],[-1.854399,53.931429],[-1.852055,53.930982],[-1.850144,53.931354],[-1.847345,53.932556],[-1.843524,53.932984],[-1.839413,53.931253],[-1.836167,53.931411],[-1.836424,53.932153],[-1.837182,53.932448],[-1.838492,53.932683],[-1.842277,53.934257],[-1.848781,53.936023],[-1.847765,53.938568],[-1.847731,53.940801],[-1.845024,53.939884],[-1.841723,53.939377],[-1.838438,53.939677],[-1.835565,53.939483],[-1.830125,53.940383],[-1.8302,53.938017],[-1.82594,53.938249],[-1.824019,53.939041],[-1.823393,53.938351],[-1.820157,53.938054],[-1.817053,53.938584],[-1.815068,53.93835],[-1.811311,53.938779],[-1.806226,53.938666],[-1.805089,53.939023],[-1.803539,53.93793],[-1.802863,53.935957],[-1.799037,53.936762],[-1.797513,53.936495],[-1.797872,53.93624],[-1.797157,53.935565],[-1.797373,53.93422],[-1.796222,53.933584],[-1.796355,53.930899],[-1.797145,53.93034],[-1.798429,53.9301],[-1.798028,53.929715],[-1.794068,53.929236],[-1.785266,53.929702],[-1.782355,53.929443],[-1.781173,53.928213],[-1.779885,53.925373],[-1.775979,53.921488],[-1.77228,53.920887],[-1.768963,53.921567],[-1.767828,53.924011],[-1.765425,53.924723],[-1.762429,53.924109],[-1.757235,53.92141],[-1.755506,53.921042],[-1.754483,53.921104],[-1.749731,53.922603],[-1.745626,53.923004],[-1.745042,53.922378],[-1.746071,53.920904],[-1.745997,53.918539],[-1.742164,53.91458],[-1.738701,53.912899],[-1.733698,53.911891],[-1.729018,53.910322],[-1.727217,53.910167],[-1.727229,53.908977],[-1.728871,53.908279],[-1.729334,53.906379],[-1.730643,53.9044],[-1.731244,53.902646],[-1.731136,53.90214],[-1.730466,53.901981],[-1.730871,53.901966],[-1.731381,53.90062],[-1.732328,53.89997],[-1.73205,53.898514],[-1.730995,53.897052],[-1.732052,53.89597],[-1.731035,53.895762],[-1.730054,53.894977],[-1.728785,53.894813],[-1.728331,53.894184],[-1.72676,53.894429],[-1.724939,53.893871],[-1.720859,53.893762],[-1.71727,53.892346],[-1.717253,53.891114],[-1.720623,53.891316],[-1.722642,53.890887],[-1.72676,53.888207],[-1.727174,53.887771],[-1.725429,53.885694],[-1.729243,53.885771],[-1.729567,53.886395],[-1.73488,53.886993],[-1.738343,53.886484],[-1.74205,53.885444],[-1.742433,53.884894],[-1.749095,53.885724],[-1.751152,53.885026],[-1.756345,53.884704],[-1.757987,53.885191],[-1.763348,53.888777],[-1.767295,53.890229],[-1.767577,53.889812],[-1.770208,53.890237],[-1.773465,53.889029],[-1.779527,53.891192],[-1.77668,53.893852],[-1.787465,53.8969],[-1.794963,53.894628],[-1.800424,53.885965],[-1.798407,53.884748],[-1.794781,53.880482],[-1.784531,53.88049],[-1.78144,53.879427],[-1.780801,53.878807],[-1.778738,53.878572],[-1.779332,53.877582],[-1.778956,53.876764],[-1.779432,53.87651],[-1.778655,53.875621],[-1.779465,53.874356],[-1.778919,53.873988],[-1.778335,53.871863],[-1.775845,53.870555],[-1.773836,53.87036],[-1.773379,53.869854],[-1.77281,53.869967],[-1.771902,53.869328],[-1.772161,53.868718],[-1.769198,53.867989],[-1.769301,53.867249],[-1.767448,53.866777],[-1.7643,53.866968],[-1.763243,53.865902],[-1.761086,53.864855],[-1.760995,53.863847],[-1.759662,53.863692],[-1.757976,53.866608],[-1.754024,53.866032],[-1.753558,53.867473],[-1.744421,53.865589],[-1.746362,53.864132],[-1.746355,53.863379],[-1.742944,53.863346],[-1.738523,53.86445],[-1.738235,53.863611],[-1.736222,53.863874],[-1.736199,53.864123],[-1.733711,53.864198],[-1.731342,53.864833],[-1.72863,53.864981],[-1.728295,53.865772],[-1.725645,53.865668],[-1.724658,53.865069],[-1.722865,53.864857],[-1.720328,53.864879],[-1.71884,53.864134],[-1.716673,53.865106],[-1.715286,53.866245],[-1.712634,53.865116],[-1.71034,53.863495],[-1.709632,53.864079],[-1.70842,53.864302],[-1.708238,53.862568],[-1.70695,53.862129],[-1.707137,53.861656],[-1.706609,53.861077],[-1.705275,53.86099],[-1.705105,53.860284],[-1.702146,53.860548],[-1.702111,53.857844],[-1.699861,53.857775],[-1.699701,53.857176],[-1.695092,53.857538],[-1.695047,53.855336],[-1.69305,53.852963],[-1.694006,53.85131],[-1.694343,53.850042],[-1.695164,53.849486],[-1.696495,53.847334],[-1.700989,53.845399],[-1.702389,53.843357],[-1.70368,53.842348],[-1.70325,53.839964],[-1.705053,53.837121],[-1.703143,53.836354],[-1.704702,53.834465],[-1.703723,53.832538],[-1.704888,53.831817],[-1.704978,53.830833],[-1.706641,53.828581],[-1.705566,53.827657],[-1.706332,53.825654],[-1.704974,53.823184],[-1.708014,53.81569],[-1.707895,53.813653],[-1.706904,53.81256],[-1.708297,53.810094],[-1.706132,53.806496],[-1.706616,53.804081],[-1.701292,53.80252],[-1.701282,53.802261],[-1.70369,53.801808],[-1.708528,53.794303],[-1.711096,53.791629],[-1.70977,53.791172],[-1.70794,53.789925],[-1.707218,53.787967],[-1.707876,53.786695],[-1.711996,53.78307],[-1.701187,53.783493],[-1.697131,53.784217],[-1.693471,53.784343],[-1.691094,53.785101],[-1.688768,53.785325],[-1.688144,53.78578],[-1.6858,53.785284],[-1.682271,53.786415],[-1.681794,53.784968],[-1.680471,53.784149],[-1.680265,53.783547],[-1.679943,53.783722],[-1.679962,53.783366],[-1.679142,53.783221],[-1.679204,53.782901],[-1.678654,53.782922],[-1.677568,53.782325],[-1.677949,53.782052],[-1.677316,53.781954],[-1.676842,53.781223],[-1.675855,53.781029],[-1.676206,53.78086],[-1.67593,53.780434],[-1.674787,53.780366],[-1.674233,53.780005],[-1.67369,53.780378],[-1.67352,53.780066],[-1.672886,53.78014],[-1.672864,53.779852],[-1.671558,53.779969],[-1.667819,53.779227],[-1.667365,53.779579],[-1.666774,53.779477],[-1.664499,53.780113],[-1.664191,53.779775],[-1.660956,53.77989],[-1.660647,53.779599],[-1.660358,53.779912],[-1.658112,53.779773],[-1.657055,53.780233],[-1.657218,53.779777],[-1.656184,53.779983],[-1.655509,53.779733],[-1.651426,53.779662],[-1.651059,53.780201],[-1.65055,53.779748],[-1.650196,53.780006],[-1.649922,53.779705],[-1.648981,53.779903],[-1.6489,53.779634],[-1.648234,53.779959],[-1.647803,53.779537],[-1.647159,53.779836],[-1.646988,53.779582],[-1.646031,53.779672],[-1.645756,53.780284],[-1.644895,53.780235],[-1.644061,53.779598],[-1.64268,53.779935],[-1.642686,53.780193],[-1.641464,53.779658],[-1.640624,53.779976],[-1.640334,53.778323],[-1.640743,53.777898],[-1.640399,53.777462],[-1.640915,53.777058],[-1.640467,53.776959],[-1.640391,53.776293],[-1.640912,53.776272],[-1.640592,53.775667],[-1.641285,53.774098],[-1.640722,53.773754],[-1.641045,53.773391],[-1.642403,53.773044],[-1.642138,53.772461],[-1.642707,53.772649],[-1.642738,53.772376],[-1.646486,53.771419],[-1.647871,53.770339],[-1.647658,53.770109],[-1.649563,53.768996],[-1.649241,53.768684],[-1.649564,53.768198],[-1.651922,53.767422],[-1.651786,53.766962],[-1.653035,53.766525],[-1.65461,53.766519],[-1.655105,53.766947],[-1.656487,53.767248],[-1.657911,53.767018],[-1.659619,53.767258],[-1.662917,53.76675],[-1.663745,53.765087],[-1.665548,53.763844],[-1.669994,53.762136],[-1.67321,53.762039],[-1.675512,53.760608],[-1.677437,53.760149],[-1.677807,53.759413],[-1.681621,53.756469],[-1.686653,53.758091],[-1.686996,53.757685],[-1.690626,53.758398],[-1.689594,53.759575],[-1.689977,53.759944],[-1.693825,53.760706],[-1.695789,53.761781],[-1.695327,53.762001],[-1.697797,53.762426],[-1.701534,53.764066],[-1.701894,53.763854],[-1.702562,53.764342],[-1.702937,53.764079],[-1.70488,53.764848],[-1.709112,53.762471],[-1.710631,53.762853],[-1.714432,53.762458],[-1.713702,53.761712],[-1.717916,53.760447],[-1.718086,53.760632],[-1.719563,53.759524],[-1.722218,53.758834],[-1.725593,53.756159],[-1.726503,53.755056],[-1.726377,53.754302],[-1.727287,53.75286],[-1.728713,53.751595],[-1.730394,53.751301],[-1.731191,53.749915],[-1.732334,53.749124],[-1.733154,53.748979],[-1.733918,53.748199],[-1.733765,53.746918],[-1.740815,53.74791],[-1.741069,53.747541],[-1.742774,53.747095],[-1.743267,53.747431],[-1.74569,53.747119],[-1.746629,53.747327],[-1.747352,53.746691],[-1.745931,53.743692],[-1.747478,53.742732],[-1.74585,53.742304],[-1.747157,53.737992],[-1.745901,53.73449],[-1.749923,53.734239],[-1.754786,53.734707],[-1.760909,53.734645],[-1.760403,53.734255],[-1.761478,53.733978],[-1.761867,53.73279],[-1.762909,53.731288],[-1.763779,53.730757],[-1.763796,53.730211],[-1.765796,53.729146],[-1.766772,53.72816],[-1.769184,53.727264],[-1.771091,53.725428],[-1.772514,53.725197],[-1.773711,53.724356],[-1.774694,53.726688],[-1.776329,53.728294],[-1.778574,53.729654],[-1.77953,53.729649],[-1.778822,53.730374],[-1.779157,53.731567],[-1.77861,53.732107],[-1.779176,53.73252],[-1.778949,53.733088],[-1.779711,53.734084],[-1.778966,53.734791],[-1.779339,53.737085],[-1.779865,53.737808],[-1.781228,53.738059],[-1.781994,53.738871],[-1.785128,53.739828],[-1.784774,53.740859],[-1.785387,53.741118],[-1.78554,53.741991],[-1.788802,53.742501],[-1.789012,53.743239],[-1.7941,53.74549],[-1.795067,53.746764],[-1.796003,53.747246],[-1.795772,53.747945],[-1.794075,53.74857],[-1.793423,53.749289],[-1.793624,53.750573],[-1.794328,53.751552],[-1.793881,53.752078],[-1.794563,53.753051],[-1.798429,53.75465],[-1.799271,53.754476],[-1.801081,53.75494],[-1.80114,53.75558],[-1.802506,53.756681],[-1.801736,53.757329],[-1.802445,53.758854],[-1.802089,53.759328],[-1.805471,53.761453],[-1.806257,53.761596],[-1.807355,53.763118],[-1.807672,53.763027],[-1.809368,53.764381],[-1.812117,53.764259],[-1.812577,53.76387],[-1.815502,53.763793],[-1.820981,53.764209],[-1.823965,53.763746],[-1.825942,53.762988],[-1.827836,53.763733],[-1.832333,53.760896],[-1.834202,53.759281],[-1.836934,53.759686],[-1.837918,53.758254],[-1.839072,53.757513],[-1.840238,53.755629],[-1.844417,53.754956],[-1.846384,53.753236],[-1.848368,53.753543],[-1.849191,53.753296],[-1.850804,53.753431],[-1.852606,53.752657],[-1.854184,53.75105],[-1.852829,53.749529],[-1.855456,53.748308],[-1.856247,53.749923],[-1.85577,53.750104],[-1.855555,53.75082],[-1.859533,53.752224],[-1.860028,53.752035],[-1.86163,53.752453],[-1.862324,53.752395],[-1.863675,53.751149],[-1.864006,53.751395],[-1.864915,53.75131],[-1.865099,53.752724],[-1.866292,53.752414],[-1.868351,53.753329],[-1.869436,53.755267],[-1.872653,53.754941],[-1.872396,53.755711],[-1.869542,53.758264],[-1.87004,53.75861],[-1.869391,53.759734],[-1.869549,53.760228],[-1.870163,53.760452],[-1.87018,53.761232],[-1.872035,53.762773],[-1.871735,53.763692],[-1.871868,53.764519],[-1.872421,53.764713],[-1.872147,53.765323],[-1.87253,53.766114],[-1.872185,53.766296],[-1.87261,53.767785],[-1.871905,53.770116],[-1.872846,53.771044],[-1.87187,53.775346],[-1.873351,53.778595],[-1.878446,53.778856],[-1.880691,53.779903],[-1.885743,53.779927],[-1.887522,53.779623],[-1.888991,53.780885],[-1.914628,53.781588],[-1.926979,53.787489],[-1.929377,53.78761],[-1.947089,53.786806],[-1.959716,53.784271],[-1.980849,53.786353],[-1.986765,53.796151],[-1.995904,53.799621],[-2.009658,53.807102],[-2.018276,53.807697],[-2.027117,53.809022],[-2.031617,53.809103],[-2.031946,53.809749],[-2.03567,53.812597],[-2.036156,53.81397],[-2.036932,53.814556],[-2.050293,53.819875],[-2.061222,53.82562],[-2.046925,53.82951],[-2.045075,53.838896],[-2.04613,53.850141],[-2.045072,53.85125],[-2.038351,53.855222],[-2.031708,53.858594],[-2.021631,53.871497],[-2.013485,53.869738],[-2.013038,53.870519],[-1.999455,53.872065],[-1.995482,53.868679],[-1.987653,53.867737],[-1.982359,53.868862],[-1.980199,53.871115],[-1.978724,53.873806],[-1.97698,53.875601],[-1.975983,53.878947],[-1.97801,53.884175],[-1.977151,53.887783],[-1.978723,53.891072],[-1.981206,53.894074],[-1.980733,53.895178],[-1.98117,53.896993],[-1.979706,53.897292],[-1.978936,53.897939],[-1.979349,53.90118],[-1.976975,53.900924],[-1.974886,53.901179],[-1.968349,53.90382],[-1.964964,53.903367],[-1.952417,53.903528],[-1.953321,53.906578],[-1.953229,53.911712],[-1.956784,53.913744],[-1.957345,53.913625],[-1.959648,53.915542],[-1.961683,53.918354],[-1.974033,53.924124],[-1.976867,53.926418],[-1.971922,53.92998],[-1.970218,53.929084],[-1.970415,53.928437],[-1.967241,53.927522],[-1.965889,53.927887],[-1.965916,53.930426],[-1.968019,53.931825],[-1.963076,53.933404],[-1.967778,53.940401],[-1.969961,53.941889],[-1.970527,53.943333],[-1.96893,53.943432],[-1.969352,53.943899],[-1.968829,53.943934],[-1.962289,53.943208],[-1.962385,53.945321],[-1.963054,53.945796],[-1.963893,53.948039],[-1.965049,53.948235],[-1.966175,53.951561],[-1.958205,53.953953],[-1.949362,53.953012],[-1.950658,53.95667],[-1.9441,53.956126],[-1.941695,53.952478],[-1.934298,53.951942],[-1.93088,53.950269],[-1.92798,53.950459],[-1.92277,53.955634],[-1.920101,53.955658],[-1.919122,53.954917],[-1.916996,53.955516],[-1.913164,53.955992],[-1.912905,53.956534],[-1.91196,53.95695],[-1.908499,53.957558],[-1.906274,53.958378],[-1.9035,53.958275],[-1.903892,53.957473],[-1.903573,53.957236],[-1.898841,53.955391],[-1.895711,53.955078],[-1.893138,53.955384],[-1.890514,53.957343],[-1.889705,53.959275],[-1.887417,53.960151],[-1.886379,53.960894],[-1.88553,53.96194],[-1.885458,53.963017],[-1.882242,53.963137],[-1.879513,53.962839],[-1.878723,53.962392],[-1.87814,53.958992],[-1.879815,53.956806],[-1.879941,53.955902],[-1.878848,53.954248]]]}}]}