{"type":"FeatureCollection","features":[{"type":"Feature","properties":{"slug":"braintree","gss_code":"E07000067","name":"Braintree"},"geometry":{"type":"Polygon","coordinates":[[[0.688142,52.083402],[0.689969,52.080093],[0.691753,52.07942],[0.692969,52.078501],[0.697675,52.079602],[0.702081,52.079495],[0.703027,52.07906],[0.703074,52.078495],[0.704806,52.078163],[0.706883,52.076745],[0.706295,52.075083],[0.706707,52.074686],[0.706279,52.074198],[0.706591,52.073855],[0.707726,52.073785],[0.708907,52.073118],[0.709478,52.073275],[0.712118,52.072242],[0.712051,52.071757],[0.712758,52.070994],[0.711834,52.070866],[0.710945,52.06998],[0.711338,52.068716],[0.70988,52.066987],[0.707652,52.066295],[0.707171,52.066796],[0.705158,52.066898],[0.704155,52.066429],[0.70404,52.06588],[0.70348,52.065865],[0.703178,52.065273],[0.703811,52.064797],[0.703568,52.063423],[0.704973,52.062674],[0.705952,52.060887],[0.706976,52.059989],[0.707847,52.057586],[0.708899,52.056905],[0.708877,52.056239],[0.710966,52.055558],[0.710592,52.055309],[0.711124,52.054413],[0.710868,52.053679],[0.713046,52.053212],[0.713089,52.052404],[0.714251,52.052272],[0.715034,52.051498],[0.716065,52.051167],[0.716263,52.048687],[0.714392,52.048952],[0.714156,52.048571],[0.713723,52.048596],[0.712709,52.049025],[0.71196,52.048441],[0.70986,52.048635],[0.703984,52.047325],[0.70313,52.047384],[0.70266,52.047889],[0.701197,52.048099],[0.700564,52.048491],[0.6994,52.048438],[0.699669,52.048298],[0.698991,52.04688],[0.698392,52.046859],[0.698683,52.04452],[0.696975,52.042972],[0.696441,52.039484],[0.698822,52.036711],[0.702444,52.037718],[0.703841,52.036148],[0.712531,52.034897],[0.710725,52.03306],[0.708336,52.032511],[0.706547,52.029535],[0.710574,52.028249],[0.712587,52.028318],[0.714397,52.027319],[0.719691,52.027903],[0.737233,52.032379],[0.738108,52.032173],[0.739056,52.032397],[0.740818,52.031034],[0.741727,52.029444],[0.741786,52.02729],[0.740782,52.025111],[0.74128,52.023214],[0.742292,52.023092],[0.74264,52.022714],[0.742328,52.020664],[0.741493,52.020265],[0.74241,52.016357],[0.741168,52.01497],[0.739433,52.014959],[0.739633,52.014315],[0.737816,52.01228],[0.738539,52.011524],[0.738655,52.01056],[0.74115,52.009333],[0.742571,52.007745],[0.743468,52.00752],[0.744039,52.00804],[0.745224,52.007778],[0.745332,52.006831],[0.746411,52.006701],[0.749159,52.00555],[0.749307,52.004397],[0.750479,52.003121],[0.749635,52.002169],[0.749864,51.999858],[0.751342,51.999261],[0.752029,51.999427],[0.752456,51.998583],[0.757432,51.99875],[0.761047,51.997547],[0.761103,51.996898],[0.760213,51.996594],[0.76048,51.995719],[0.759574,51.995448],[0.760341,51.994737],[0.759584,51.993763],[0.761541,51.993592],[0.762913,51.990866],[0.761689,51.988263],[0.75965,51.987018],[0.760127,51.986376],[0.759668,51.985429],[0.760469,51.984532],[0.762262,51.983932],[0.767099,51.983793],[0.771061,51.982081],[0.772696,51.982568],[0.774633,51.982592],[0.773874,51.98084],[0.774035,51.980136],[0.772702,51.979027],[0.772572,51.978104],[0.77305,51.974046],[0.773948,51.972141],[0.773712,51.971523],[0.772487,51.9709],[0.772261,51.970425],[0.772853,51.969798],[0.774313,51.96968],[0.77608,51.96752],[0.781792,51.966351],[0.781303,51.965876],[0.78229,51.965081],[0.781605,51.963474],[0.77779,51.960915],[0.77743,51.960574],[0.778269,51.960408],[0.777576,51.959885],[0.773149,51.960133],[0.773068,51.960686],[0.769859,51.961885],[0.771592,51.962441],[0.770753,51.962974],[0.768509,51.961908],[0.767874,51.959897],[0.768339,51.959264],[0.767705,51.957639],[0.766705,51.956821],[0.766183,51.955747],[0.764042,51.95432],[0.756049,51.953185],[0.749708,51.954789],[0.747686,51.95214],[0.748544,51.951665],[0.745854,51.948585],[0.74576,51.945881],[0.74692,51.945371],[0.744938,51.9439],[0.74447,51.942686],[0.740899,51.94071],[0.740273,51.939995],[0.740598,51.936332],[0.741467,51.934147],[0.740451,51.932939],[0.740141,51.931639],[0.738898,51.930903],[0.738212,51.930016],[0.737358,51.929886],[0.736764,51.929384],[0.736787,51.928087],[0.734789,51.925495],[0.734847,51.924407],[0.733831,51.924614],[0.732113,51.923325],[0.730444,51.923311],[0.731475,51.918824],[0.730171,51.91584],[0.728345,51.914968],[0.726686,51.912903],[0.724242,51.91261],[0.723375,51.910975],[0.722222,51.910186],[0.723905,51.9084],[0.724323,51.908834],[0.725021,51.908478],[0.727246,51.909127],[0.72907,51.90804],[0.727671,51.907202],[0.727219,51.907225],[0.726279,51.906165],[0.72653,51.906057],[0.72536,51.905127],[0.723449,51.905566],[0.722602,51.903576],[0.720641,51.903599],[0.720865,51.904444],[0.720324,51.904577],[0.716833,51.904577],[0.715142,51.904937],[0.713993,51.904035],[0.712879,51.90222],[0.711116,51.902693],[0.71098,51.904189],[0.70689,51.90521],[0.705441,51.904794],[0.705664,51.903904],[0.704819,51.90357],[0.699684,51.903485],[0.699531,51.901794],[0.700062,51.899735],[0.702558,51.89852],[0.704867,51.896682],[0.709216,51.895114],[0.710582,51.895156],[0.710349,51.894294],[0.711619,51.893104],[0.712513,51.892963],[0.712951,51.891179],[0.712548,51.891141],[0.712927,51.88973],[0.712571,51.888897],[0.713206,51.886942],[0.711862,51.886535],[0.715037,51.884836],[0.716177,51.883535],[0.716491,51.883639],[0.717663,51.882226],[0.717243,51.8821],[0.720101,51.880786],[0.722785,51.87881],[0.718175,51.877928],[0.720036,51.875603],[0.722757,51.875924],[0.722888,51.874631],[0.723539,51.873942],[0.722143,51.872976],[0.717161,51.87212],[0.716329,51.871267],[0.718704,51.869912],[0.719415,51.87061],[0.722207,51.869364],[0.723034,51.86978],[0.726101,51.869873],[0.730461,51.867553],[0.73214,51.868298],[0.731878,51.868636],[0.734883,51.870181],[0.736607,51.87168],[0.740742,51.870621],[0.740561,51.870292],[0.747222,51.8686],[0.746187,51.867602],[0.747795,51.866589],[0.749442,51.866211],[0.75152,51.86485],[0.752926,51.863132],[0.745873,51.859746],[0.746182,51.859518],[0.747347,51.860094],[0.748755,51.859096],[0.747638,51.858459],[0.748294,51.857728],[0.74697,51.857098],[0.74656,51.857286],[0.745235,51.856385],[0.747532,51.854827],[0.750344,51.853602],[0.742395,51.851194],[0.741523,51.850543],[0.741146,51.849686],[0.737122,51.848354],[0.736195,51.849326],[0.733124,51.848463],[0.734592,51.847102],[0.736334,51.847288],[0.739102,51.84474],[0.739293,51.843863],[0.7388,51.843286],[0.740099,51.843283],[0.740183,51.84288],[0.739411,51.843169],[0.738509,51.842937],[0.738396,51.841745],[0.741561,51.84129],[0.741661,51.839671],[0.739652,51.839962],[0.738402,51.839565],[0.738726,51.838872],[0.738349,51.837855],[0.736707,51.837552],[0.735213,51.837731],[0.735211,51.840522],[0.734793,51.841453],[0.734351,51.841967],[0.733204,51.842001],[0.732894,51.841697],[0.732005,51.841668],[0.727905,51.839487],[0.72213,51.838765],[0.719469,51.837445],[0.718914,51.83768],[0.715767,51.8372],[0.711898,51.834557],[0.714184,51.833522],[0.717552,51.833005],[0.71813,51.833194],[0.721332,51.830236],[0.718552,51.829121],[0.716263,51.827572],[0.717787,51.825623],[0.716832,51.824717],[0.714431,51.823658],[0.709083,51.819871],[0.708909,51.818904],[0.704789,51.822686],[0.700937,51.825177],[0.698773,51.828418],[0.697269,51.829127],[0.69695,51.828662],[0.693117,51.827885],[0.692514,51.826739],[0.691672,51.826531],[0.690593,51.825655],[0.68923,51.825623],[0.689076,51.824646],[0.689905,51.824453],[0.690102,51.824069],[0.689858,51.822984],[0.689496,51.823027],[0.686814,51.8213],[0.684169,51.820958],[0.682102,51.820125],[0.682339,51.819642],[0.681852,51.819096],[0.682546,51.81846],[0.681604,51.817529],[0.682582,51.816829],[0.682379,51.81621],[0.681738,51.815717],[0.680935,51.815704],[0.679856,51.81514],[0.680008,51.814011],[0.678941,51.81377],[0.67779,51.812884],[0.677634,51.812368],[0.678691,51.810645],[0.678158,51.810714],[0.676775,51.810032],[0.673362,51.81043],[0.670058,51.809452],[0.669112,51.808367],[0.668456,51.80597],[0.667429,51.805977],[0.666668,51.805227],[0.664689,51.805323],[0.662444,51.806238],[0.661025,51.806235],[0.659756,51.805678],[0.659201,51.804827],[0.659834,51.803625],[0.656689,51.80152],[0.65649,51.800648],[0.655611,51.800072],[0.655349,51.799372],[0.654609,51.799113],[0.654953,51.79873],[0.654296,51.797922],[0.654629,51.797115],[0.654091,51.796886],[0.654307,51.79632],[0.6535,51.795601],[0.655348,51.793849],[0.655953,51.792439],[0.655445,51.791431],[0.655914,51.790895],[0.654825,51.789689],[0.654991,51.789225],[0.653125,51.788441],[0.651108,51.784833],[0.649898,51.784794],[0.649008,51.784181],[0.645761,51.783097],[0.644654,51.7816],[0.640592,51.779652],[0.637074,51.777213],[0.633958,51.777613],[0.63368,51.777154],[0.632552,51.772654],[0.632681,51.771623],[0.636834,51.770342],[0.638301,51.770352],[0.638418,51.768826],[0.63642,51.768309],[0.63756,51.766802],[0.639214,51.76678],[0.640058,51.767843],[0.641871,51.767053],[0.643497,51.766872],[0.645195,51.764247],[0.647117,51.763847],[0.648315,51.761996],[0.647504,51.761511],[0.647053,51.761793],[0.645663,51.760897],[0.639486,51.760047],[0.639477,51.75932],[0.638552,51.759655],[0.637538,51.757648],[0.635337,51.75833],[0.635919,51.759813],[0.635189,51.760043],[0.634983,51.761434],[0.6338,51.761459],[0.633359,51.760151],[0.630612,51.761042],[0.629885,51.761989],[0.628737,51.761992],[0.627958,51.761537],[0.624992,51.761965],[0.623097,51.76131],[0.61963,51.760842],[0.619125,51.761146],[0.619459,51.762533],[0.618606,51.762565],[0.618818,51.761015],[0.61814,51.760948],[0.618125,51.760286],[0.618693,51.758548],[0.615013,51.758093],[0.614677,51.758829],[0.6139,51.758751],[0.614381,51.760824],[0.611081,51.760401],[0.608631,51.759301],[0.606748,51.758943],[0.605434,51.758281],[0.605401,51.757876],[0.604816,51.757905],[0.604272,51.757469],[0.604778,51.757296],[0.604557,51.756919],[0.605189,51.756342],[0.604381,51.754841],[0.60262,51.753714],[0.601762,51.753772],[0.601145,51.753223],[0.600463,51.753276],[0.599404,51.752098],[0.59989,51.752027],[0.599965,51.751523],[0.598702,51.750416],[0.59885,51.75127],[0.59499,51.753936],[0.594885,51.755004],[0.590696,51.755877],[0.589572,51.754006],[0.584527,51.751151],[0.581126,51.752389],[0.578462,51.752813],[0.575768,51.752581],[0.572982,51.751771],[0.572098,51.751901],[0.5725,51.752178],[0.570942,51.754391],[0.569341,51.755827],[0.568576,51.755969],[0.567835,51.757458],[0.567993,51.757924],[0.566514,51.758674],[0.565957,51.761836],[0.566753,51.762757],[0.565872,51.763207],[0.566266,51.764834],[0.565583,51.765052],[0.565194,51.764791],[0.562582,51.767263],[0.560325,51.770875],[0.558398,51.775398],[0.557575,51.7757],[0.55494,51.778033],[0.554268,51.7791],[0.551033,51.780282],[0.549268,51.781808],[0.549,51.781702],[0.545771,51.784949],[0.545437,51.784881],[0.543805,51.787561],[0.543253,51.787565],[0.542546,51.788406],[0.541905,51.790453],[0.539626,51.790859],[0.536154,51.792188],[0.531211,51.795154],[0.529045,51.797235],[0.52826,51.79881],[0.528389,51.800226],[0.526508,51.801836],[0.523804,51.803429],[0.524788,51.804984],[0.524308,51.806986],[0.524901,51.807009],[0.525088,51.807307],[0.524753,51.809686],[0.527544,51.809247],[0.528343,51.810679],[0.52914,51.810579],[0.529873,51.810071],[0.530221,51.810474],[0.532423,51.810278],[0.534122,51.810836],[0.532699,51.812455],[0.532845,51.814486],[0.532276,51.816087],[0.530915,51.816386],[0.524019,51.819664],[0.523684,51.820538],[0.525663,51.821031],[0.525798,51.821462],[0.522532,51.822176],[0.524454,51.823359],[0.525204,51.822961],[0.525537,51.822167],[0.528466,51.822642],[0.52857,51.823326],[0.530201,51.823204],[0.529497,51.824446],[0.52984,51.82597],[0.529546,51.827493],[0.530078,51.827842],[0.529799,51.829009],[0.530205,51.829613],[0.528772,51.831085],[0.530155,51.832661],[0.529829,51.836479],[0.526738,51.83859],[0.52376,51.840089],[0.523239,51.841283],[0.520366,51.844015],[0.524943,51.849254],[0.519262,51.850449],[0.513804,51.853168],[0.512093,51.854408],[0.511442,51.855546],[0.512134,51.857273],[0.511766,51.860637],[0.513539,51.863799],[0.513505,51.864397],[0.508048,51.864507],[0.50585,51.865579],[0.503275,51.86485],[0.502687,51.86527],[0.501272,51.864633],[0.495825,51.867375],[0.494726,51.869581],[0.491564,51.869746],[0.490796,51.870386],[0.485035,51.869322],[0.48337,51.869722],[0.482301,51.869634],[0.48187,51.869774],[0.48275,51.87035],[0.483272,51.871556],[0.482693,51.872692],[0.479895,51.87401],[0.473203,51.876264],[0.472389,51.876995],[0.472788,51.877306],[0.469389,51.877652],[0.467783,51.878228],[0.467205,51.878656],[0.470639,51.878181],[0.469434,51.880272],[0.462737,51.886655],[0.455696,51.891377],[0.453414,51.894169],[0.451148,51.898006],[0.451745,51.89828],[0.451053,51.899013],[0.45051,51.898921],[0.448216,51.901544],[0.444792,51.904053],[0.440033,51.908278],[0.439459,51.913113],[0.437537,51.9191],[0.437302,51.919622],[0.435822,51.919765],[0.434633,51.920822],[0.433016,51.924798],[0.428087,51.92586],[0.426457,51.925827],[0.423396,51.926413],[0.421347,51.926274],[0.420193,51.93031],[0.421551,51.931432],[0.421363,51.931988],[0.423,51.931921],[0.422824,51.933266],[0.420928,51.93615],[0.420439,51.938448],[0.421005,51.938957],[0.419928,51.939585],[0.419081,51.941111],[0.42108,51.941697],[0.420565,51.943564],[0.420855,51.944246],[0.424778,51.947831],[0.423451,51.949112],[0.425175,51.95199],[0.427213,51.951404],[0.43005,51.953832],[0.427159,51.954498],[0.426331,51.956927],[0.425423,51.957739],[0.425611,51.958229],[0.423242,51.958737],[0.422749,51.959158],[0.421549,51.959144],[0.420006,51.958353],[0.418821,51.958494],[0.417791,51.96004],[0.417933,51.961339],[0.416422,51.962728],[0.417548,51.963713],[0.417617,51.965261],[0.416941,51.965611],[0.417858,51.96588],[0.417796,51.966334],[0.415562,51.968689],[0.413832,51.969074],[0.412476,51.971061],[0.413144,51.971947],[0.412292,51.973091],[0.4131,51.97355],[0.414311,51.973513],[0.414169,51.974046],[0.417871,51.974103],[0.419637,51.974665],[0.421249,51.974779],[0.421822,51.974636],[0.422832,51.973455],[0.423623,51.973217],[0.424657,51.974551],[0.424386,51.975392],[0.425124,51.975898],[0.424025,51.976409],[0.4236,51.977069],[0.423558,51.978298],[0.424365,51.978601],[0.423523,51.978594],[0.424144,51.984167],[0.426944,51.986759],[0.425668,51.989806],[0.423444,51.991915],[0.421373,51.99281],[0.420695,51.993487],[0.420195,51.994804],[0.421444,51.995912],[0.420892,51.996722],[0.421976,51.99716],[0.423011,51.998196],[0.422588,51.998165],[0.420153,52.000818],[0.420257,52.001618],[0.418682,52.003757],[0.418858,52.004659],[0.417734,52.005596],[0.417082,52.007497],[0.415403,52.008827],[0.415211,52.010696],[0.413858,52.011667],[0.420073,52.014167],[0.419916,52.014538],[0.420966,52.014835],[0.42802,52.01461],[0.427955,52.014957],[0.431245,52.013591],[0.432821,52.013274],[0.437702,52.014037],[0.435806,52.016637],[0.433083,52.018605],[0.431368,52.019099],[0.430965,52.020515],[0.430449,52.020552],[0.430111,52.024781],[0.431125,52.02549],[0.430947,52.027744],[0.432673,52.032387],[0.432468,52.034069],[0.430176,52.034025],[0.431419,52.038936],[0.423302,52.038995],[0.41284,52.038074],[0.394032,52.031841],[0.390781,52.035688],[0.38968,52.036458],[0.387668,52.040832],[0.388189,52.043717],[0.386247,52.044235],[0.383094,52.045995],[0.379613,52.049563],[0.382297,52.051003],[0.39042,52.060288],[0.392472,52.061144],[0.396016,52.060719],[0.399015,52.063513],[0.400722,52.063289],[0.400859,52.063516],[0.40222,52.063453],[0.402391,52.063812],[0.403569,52.0638],[0.404638,52.065502],[0.406267,52.065347],[0.409698,52.064279],[0.414582,52.065078],[0.418785,52.064905],[0.420658,52.066076],[0.422971,52.066889],[0.424565,52.067014],[0.426138,52.067693],[0.428794,52.067678],[0.428989,52.068366],[0.43107,52.068392],[0.43538,52.069083],[0.437059,52.070297],[0.438126,52.072312],[0.441231,52.072253],[0.441234,52.071808],[0.442306,52.071719],[0.446099,52.072117],[0.444255,52.07017],[0.443946,52.068531],[0.446765,52.06884],[0.447264,52.069589],[0.447392,52.069097],[0.446763,52.068471],[0.447009,52.067809],[0.449644,52.067576],[0.451806,52.06788],[0.451877,52.069389],[0.452728,52.069384],[0.45273,52.068024],[0.453618,52.068129],[0.453798,52.071113],[0.456064,52.071309],[0.455968,52.070833],[0.4619,52.072353],[0.46022,52.073003],[0.460782,52.07379],[0.459753,52.073938],[0.458695,52.07486],[0.458036,52.074876],[0.458114,52.076257],[0.462424,52.076249],[0.465384,52.076617],[0.466567,52.07841],[0.470215,52.07592],[0.469871,52.074347],[0.470794,52.073463],[0.474721,52.075193],[0.475836,52.074454],[0.475468,52.073522],[0.481028,52.072263],[0.482985,52.072479],[0.484139,52.070324],[0.487146,52.069627],[0.490246,52.06708],[0.489469,52.066423],[0.489288,52.065586],[0.487287,52.063977],[0.487727,52.062467],[0.490104,52.059956],[0.491332,52.059279],[0.492123,52.059405],[0.492399,52.058729],[0.493226,52.058777],[0.493251,52.058489],[0.494689,52.058103],[0.495001,52.057461],[0.500129,52.056685],[0.500502,52.056201],[0.500488,52.053846],[0.504589,52.054475],[0.506114,52.055406],[0.506557,52.056334],[0.509208,52.057569],[0.509051,52.058148],[0.51113,52.059864],[0.513161,52.059702],[0.513328,52.059024],[0.514793,52.059293],[0.515819,52.058619],[0.517301,52.058812],[0.518342,52.058367],[0.518402,52.057705],[0.519339,52.057312],[0.523243,52.056777],[0.524988,52.057129],[0.530058,52.059387],[0.534339,52.059735],[0.5373,52.058992],[0.537082,52.058764],[0.537657,52.058172],[0.538551,52.057882],[0.542699,52.057875],[0.543182,52.05855],[0.546367,52.059772],[0.546714,52.061444],[0.547609,52.061998],[0.55035,52.062214],[0.550981,52.061696],[0.551516,52.062038],[0.551719,52.062795],[0.54967,52.064073],[0.549441,52.065165],[0.550317,52.066226],[0.550151,52.067225],[0.551271,52.068025],[0.551422,52.068803],[0.553425,52.068865],[0.555741,52.068372],[0.556008,52.068704],[0.55541,52.068711],[0.555112,52.069139],[0.556727,52.069783],[0.558493,52.070046],[0.561523,52.071131],[0.562368,52.070773],[0.564905,52.071003],[0.565059,52.071327],[0.566925,52.070984],[0.566696,52.070499],[0.567437,52.070215],[0.567808,52.069568],[0.568355,52.069707],[0.571744,52.069049],[0.576281,52.071164],[0.576206,52.072873],[0.576779,52.073614],[0.577336,52.073162],[0.578133,52.073955],[0.578973,52.073535],[0.582558,52.074486],[0.582003,52.075852],[0.584295,52.075514],[0.584825,52.074164],[0.585885,52.074463],[0.587838,52.074328],[0.588569,52.074714],[0.589397,52.074584],[0.589677,52.075265],[0.591284,52.074621],[0.593101,52.075025],[0.593417,52.074655],[0.594191,52.0748],[0.59476,52.074181],[0.596,52.074613],[0.595765,52.075015],[0.595282,52.075002],[0.595599,52.075951],[0.595034,52.076213],[0.596257,52.07631],[0.598398,52.07528],[0.600058,52.075665],[0.602689,52.077058],[0.603295,52.076977],[0.604363,52.079494],[0.605508,52.080253],[0.60618,52.08026],[0.607446,52.080919],[0.608726,52.080664],[0.609399,52.08031],[0.60916,52.079929],[0.612253,52.078795],[0.615279,52.078137],[0.615672,52.077648],[0.617129,52.077819],[0.618126,52.077554],[0.6182,52.076966],[0.619341,52.076552],[0.620351,52.07699],[0.620151,52.078788],[0.62255,52.079285],[0.624028,52.079024],[0.624209,52.079346],[0.625655,52.079256],[0.62676,52.07984],[0.626201,52.080399],[0.626747,52.081025],[0.62828,52.081737],[0.631768,52.081867],[0.632942,52.082862],[0.632478,52.083299],[0.63254,52.084543],[0.634406,52.086258],[0.637113,52.086668],[0.637877,52.086159],[0.641695,52.086294],[0.642334,52.085567],[0.643745,52.085607],[0.64415,52.08517],[0.645265,52.084897],[0.645671,52.085211],[0.646545,52.085134],[0.647209,52.084348],[0.651937,52.083133],[0.652948,52.083448],[0.654651,52.085055],[0.658611,52.085427],[0.660861,52.083699],[0.663253,52.084107],[0.664468,52.084993],[0.664403,52.085492],[0.665773,52.086024],[0.668467,52.086226],[0.668935,52.085818],[0.670243,52.085773],[0.670881,52.086103],[0.671684,52.085838],[0.672443,52.08617],[0.673795,52.084716],[0.675718,52.08393],[0.675973,52.084508],[0.678945,52.083886],[0.680866,52.085048],[0.68109,52.086454],[0.683117,52.08704],[0.684288,52.086947],[0.687693,52.085576],[0.688253,52.084776],[0.688142,52.083402]]]}}]}