{"type":"FeatureCollection","features":[{"type":"Feature","properties":{"slug":"breckland","gss_code":"E07000143","name":"Breckland"},"geometry":{"type":"Polygon","coordinates":[[[0.853208,52.807207],[0.858283,52.807665],[0.865419,52.807428],[0.866837,52.80406],[0.869979,52.801437],[0.871739,52.798105],[0.873319,52.797897],[0.874167,52.798273],[0.876127,52.79732],[0.877856,52.797536],[0.880199,52.796423],[0.880594,52.793937],[0.881899,52.793475],[0.883617,52.793456],[0.886706,52.792452],[0.887407,52.792717],[0.8884,52.792601],[0.887831,52.792127],[0.890789,52.790717],[0.892134,52.793055],[0.891866,52.793507],[0.893079,52.794416],[0.900517,52.796026],[0.904525,52.797365],[0.906891,52.798524],[0.912878,52.800171],[0.915075,52.801188],[0.915652,52.802141],[0.917646,52.803312],[0.918015,52.802812],[0.919691,52.802296],[0.920155,52.802644],[0.922038,52.801736],[0.92212,52.80121],[0.923802,52.800851],[0.923991,52.799189],[0.924836,52.79917],[0.925355,52.798717],[0.924449,52.798525],[0.924854,52.798148],[0.923972,52.797546],[0.924766,52.797387],[0.925156,52.79684],[0.926234,52.796621],[0.927225,52.795857],[0.926775,52.795111],[0.926984,52.79288],[0.928356,52.7914],[0.929768,52.791623],[0.93053,52.789358],[0.932224,52.78911],[0.93275,52.789656],[0.933259,52.789501],[0.933027,52.789084],[0.934975,52.789066],[0.938444,52.787979],[0.938573,52.791321],[0.936844,52.795581],[0.950784,52.804701],[0.95278,52.804157],[0.960359,52.803796],[0.963182,52.803],[0.963301,52.803368],[0.96655,52.803096],[0.967663,52.807738],[0.973858,52.807575],[0.973808,52.807264],[0.975761,52.807019],[0.975463,52.804728],[0.977126,52.804841],[0.977144,52.804374],[0.980948,52.804603],[0.980705,52.801394],[0.984925,52.801154],[0.985994,52.801442],[0.987963,52.800693],[0.988537,52.799538],[0.989989,52.798298],[0.99358,52.79836],[0.993669,52.797338],[0.995554,52.795345],[0.996133,52.793563],[0.996983,52.792527],[0.996141,52.792282],[0.996652,52.79176],[0.996046,52.790882],[0.993544,52.788932],[0.991949,52.786633],[0.991395,52.78549],[0.991701,52.785394],[0.990368,52.784064],[0.992277,52.784011],[0.992167,52.780044],[0.999072,52.779006],[1.002232,52.776137],[1.001714,52.772451],[1.001107,52.772489],[1.000241,52.765785],[1.003208,52.765266],[1.011261,52.762986],[1.017448,52.764778],[1.028227,52.768611],[1.031566,52.769298],[1.033112,52.769195],[1.03384,52.76966],[1.036278,52.769729],[1.040452,52.76904],[1.04138,52.770231],[1.042049,52.770227],[1.044772,52.769043],[1.05155,52.763462],[1.051572,52.76311],[1.053329,52.761958],[1.052749,52.759656],[1.054984,52.757091],[1.055086,52.756133],[1.054373,52.755958],[1.05109,52.750413],[1.053703,52.749241],[1.055298,52.74778],[1.055807,52.746419],[1.057899,52.745589],[1.058311,52.745099],[1.059589,52.744943],[1.060367,52.743783],[1.061571,52.743182],[1.062338,52.743048],[1.063582,52.74346],[1.067326,52.743234],[1.07565,52.741688],[1.079724,52.74126],[1.080939,52.740212],[1.080725,52.736989],[1.081296,52.735602],[1.082536,52.734844],[1.082186,52.73212],[1.082848,52.729743],[1.087426,52.728614],[1.088553,52.723195],[1.090555,52.722614],[1.090525,52.721649],[1.092079,52.721103],[1.093716,52.719759],[1.096307,52.719518],[1.098134,52.717709],[1.099542,52.717288],[1.099829,52.71638],[1.10352,52.716307],[1.105203,52.714693],[1.104,52.712792],[1.099623,52.711853],[1.096492,52.709459],[1.092688,52.707744],[1.08998,52.70554],[1.085126,52.703994],[1.084247,52.702543],[1.085381,52.700735],[1.087129,52.699027],[1.087469,52.696778],[1.089922,52.696034],[1.094521,52.693675],[1.100775,52.689736],[1.101721,52.688476],[1.10205,52.686728],[1.101763,52.685979],[1.105257,52.684344],[1.106021,52.684837],[1.108322,52.682523],[1.105934,52.679749],[1.106564,52.679522],[1.104696,52.678253],[1.10302,52.675922],[1.099895,52.67285],[1.09979,52.670411],[1.100653,52.666867],[1.100485,52.664874],[1.098439,52.660128],[1.097645,52.649772],[1.093366,52.651057],[1.089658,52.647382],[1.081984,52.648714],[1.079034,52.648738],[1.076675,52.645179],[1.076767,52.640358],[1.076353,52.639544],[1.076008,52.639648],[1.074662,52.63814],[1.073718,52.639414],[1.074216,52.639886],[1.07417,52.64172],[1.073039,52.64372],[1.071613,52.644508],[1.071313,52.644345],[1.068144,52.645382],[1.066048,52.64724],[1.064045,52.650286],[1.06263,52.653964],[1.061522,52.655098],[1.060008,52.655742],[1.058428,52.658585],[1.057332,52.659238],[1.055844,52.661276],[1.055106,52.662588],[1.055422,52.663342],[1.054432,52.663329],[1.054806,52.661465],[1.054366,52.660602],[1.054986,52.66059],[1.054806,52.658947],[1.053382,52.65907],[1.052869,52.656511],[1.051722,52.65656],[1.05149,52.656013],[1.050815,52.656028],[1.04907,52.651889],[1.047339,52.652236],[1.044983,52.648725],[1.042758,52.649203],[1.043096,52.646512],[1.03715,52.64424],[1.033776,52.643574],[1.031605,52.642586],[1.026077,52.641537],[1.023477,52.639763],[1.024128,52.638965],[1.023267,52.636464],[1.025153,52.635999],[1.02554,52.630023],[1.021572,52.623309],[1.020074,52.619684],[1.019555,52.616273],[1.018776,52.615731],[1.022216,52.614617],[1.024237,52.614938],[1.025479,52.614578],[1.028277,52.615623],[1.028605,52.616406],[1.030078,52.617332],[1.032578,52.616912],[1.033132,52.616501],[1.034356,52.616516],[1.034505,52.616076],[1.036919,52.615781],[1.03697,52.615302],[1.03575,52.615038],[1.036225,52.612168],[1.037441,52.610096],[1.03731,52.609018],[1.039432,52.606036],[1.038044,52.604211],[1.037702,52.602617],[1.03761,52.595999],[1.039142,52.59566],[1.039156,52.59433],[1.040327,52.593857],[1.039814,52.5927],[1.040064,52.590857],[1.039486,52.588173],[1.038155,52.588465],[1.037626,52.587454],[1.032124,52.588871],[1.027028,52.589413],[1.021812,52.586557],[1.009916,52.587895],[1.002399,52.591303],[1.000025,52.591832],[0.993123,52.591643],[0.987541,52.593053],[0.984812,52.593356],[0.979611,52.592657],[0.975408,52.594419],[0.970954,52.595159],[0.96375,52.594626],[0.961883,52.59313],[0.961624,52.592477],[0.96157,52.591085],[0.962765,52.589043],[0.962345,52.586748],[0.96288,52.585943],[0.954586,52.586936],[0.953712,52.584942],[0.96258,52.58348],[0.962188,52.581177],[0.961594,52.580669],[0.960845,52.580642],[0.960349,52.57997],[0.958501,52.579831],[0.955439,52.580301],[0.95008,52.577887],[0.947028,52.575833],[0.949953,52.574324],[0.952707,52.56762],[0.960039,52.562431],[0.960871,52.561311],[0.964294,52.560642],[0.96605,52.559917],[0.96736,52.559878],[0.968281,52.558757],[0.973509,52.554794],[0.976028,52.554452],[0.976219,52.553958],[0.977356,52.553448],[0.981236,52.552558],[0.983164,52.552437],[0.986175,52.551223],[0.989592,52.551727],[1.001848,52.549617],[1.001841,52.549335],[1.004914,52.54979],[1.007347,52.548205],[1.011357,52.54331],[1.012066,52.543236],[1.012074,52.542935],[1.016023,52.542954],[1.016402,52.542354],[1.023799,52.54237],[1.028223,52.541256],[1.029249,52.539729],[1.031989,52.538074],[1.037968,52.536664],[1.041563,52.5362],[1.056027,52.535503],[1.061398,52.53719],[1.062505,52.536579],[1.063776,52.53522],[1.070064,52.531759],[1.073654,52.530715],[1.079086,52.527985],[1.081205,52.525228],[1.08521,52.522634],[1.08972,52.522119],[1.092906,52.521226],[1.095256,52.518023],[1.091682,52.516503],[1.089577,52.514934],[1.089518,52.514551],[1.085528,52.512488],[1.083881,52.512821],[1.081957,52.509859],[1.079009,52.506935],[1.080927,52.505058],[1.080969,52.503192],[1.079349,52.500945],[1.079328,52.499555],[1.082532,52.484571],[1.087724,52.481234],[1.084495,52.479009],[1.085615,52.471016],[1.088005,52.470426],[1.09064,52.468702],[1.091742,52.468805],[1.095275,52.470383],[1.096068,52.468977],[1.09682,52.465686],[1.095287,52.464003],[1.094662,52.460416],[1.073056,52.454745],[1.06403,52.442116],[1.06602,52.440853],[1.065199,52.436747],[1.062875,52.433213],[1.065576,52.43207],[1.067501,52.428825],[1.058728,52.426892],[1.058933,52.424815],[1.05704,52.420079],[1.051942,52.419194],[1.045431,52.419932],[1.04568,52.421005],[1.042792,52.425648],[1.03553,52.422315],[1.028227,52.419674],[1.021216,52.416377],[1.021545,52.415451],[1.023866,52.41547],[1.024328,52.415942],[1.028128,52.417267],[1.028174,52.414705],[1.034048,52.415716],[1.031469,52.410328],[1.029505,52.410784],[1.028456,52.409825],[1.026331,52.408763],[1.023029,52.408441],[1.021399,52.40597],[1.022863,52.404655],[1.023094,52.403838],[1.021373,52.400879],[1.02157,52.400433],[1.023633,52.399544],[1.024361,52.398739],[1.023152,52.397739],[1.023495,52.397084],[1.020712,52.395364],[1.02019,52.394215],[1.022279,52.39308],[1.023151,52.392224],[1.02371,52.389237],[1.025342,52.386282],[1.027512,52.384324],[1.029971,52.378249],[1.029107,52.378275],[1.029098,52.378593],[1.027686,52.378572],[1.021465,52.378033],[1.014202,52.375692],[1.006814,52.375743],[1.003468,52.374592],[0.998663,52.371757],[0.997812,52.37154],[0.990918,52.370814],[0.988401,52.371554],[0.987137,52.371524],[0.980319,52.369519],[0.977986,52.370017],[0.967471,52.370113],[0.965304,52.370397],[0.963176,52.371603],[0.957014,52.371913],[0.955337,52.372846],[0.954583,52.372818],[0.954697,52.373655],[0.9538,52.373847],[0.954103,52.374502],[0.950924,52.375092],[0.949651,52.376184],[0.948907,52.376287],[0.948306,52.375778],[0.94696,52.375983],[0.94654,52.37689],[0.9454,52.377403],[0.945137,52.377893],[0.943626,52.378175],[0.942161,52.378972],[0.941579,52.379993],[0.941631,52.381068],[0.940473,52.382205],[0.940652,52.382415],[0.940033,52.382504],[0.940332,52.382937],[0.937377,52.384276],[0.936542,52.385222],[0.936789,52.386692],[0.936268,52.386641],[0.935413,52.387185],[0.933659,52.387321],[0.932797,52.387968],[0.931488,52.387929],[0.931728,52.388384],[0.931088,52.388256],[0.931101,52.388672],[0.930538,52.388352],[0.930187,52.388843],[0.928511,52.388282],[0.927213,52.388281],[0.925299,52.388819],[0.925272,52.389291],[0.924205,52.38916],[0.923979,52.389619],[0.923391,52.389339],[0.922946,52.390039],[0.922332,52.389505],[0.921329,52.389572],[0.921576,52.388883],[0.920718,52.389182],[0.920382,52.388925],[0.919992,52.389362],[0.918961,52.388874],[0.917454,52.388699],[0.915819,52.388974],[0.914807,52.388636],[0.913118,52.388768],[0.911005,52.387902],[0.911112,52.387466],[0.909212,52.38751],[0.907715,52.386217],[0.907015,52.386331],[0.904928,52.385783],[0.903157,52.386661],[0.901811,52.38639],[0.900736,52.386639],[0.899593,52.387563],[0.899013,52.387475],[0.897441,52.388249],[0.894529,52.388142],[0.893458,52.388465],[0.892516,52.389049],[0.892926,52.389542],[0.892062,52.390528],[0.889754,52.39094],[0.887152,52.390882],[0.880942,52.391758],[0.874846,52.389922],[0.872336,52.389902],[0.868688,52.390478],[0.866873,52.390346],[0.863458,52.391293],[0.861806,52.39298],[0.859708,52.393424],[0.856873,52.395186],[0.857107,52.398091],[0.855439,52.399441],[0.849459,52.399584],[0.840911,52.400846],[0.838157,52.400764],[0.835287,52.399983],[0.834257,52.399169],[0.833132,52.398914],[0.829866,52.397294],[0.829383,52.396138],[0.827646,52.394905],[0.824388,52.394567],[0.823138,52.393728],[0.820499,52.39341],[0.819697,52.393828],[0.81834,52.393673],[0.816605,52.393963],[0.816015,52.39354],[0.814812,52.393417],[0.812784,52.390918],[0.808172,52.389524],[0.804389,52.389502],[0.803657,52.38925],[0.800725,52.389784],[0.796131,52.391242],[0.794853,52.391115],[0.792,52.389859],[0.787902,52.387617],[0.786572,52.387221],[0.785928,52.386489],[0.783761,52.386261],[0.779549,52.387269],[0.777354,52.386758],[0.775254,52.386959],[0.773435,52.386327],[0.772569,52.386679],[0.770296,52.389806],[0.768146,52.390015],[0.767301,52.390407],[0.765966,52.390357],[0.762681,52.388966],[0.762438,52.388117],[0.7607,52.386767],[0.759136,52.386498],[0.75431,52.384272],[0.752541,52.38406],[0.751232,52.383409],[0.750868,52.383561],[0.750485,52.383061],[0.749844,52.382926],[0.74691,52.383364],[0.746744,52.38382],[0.744878,52.384905],[0.744637,52.385952],[0.743398,52.387395],[0.740966,52.38819],[0.740563,52.388945],[0.741261,52.389494],[0.74139,52.390164],[0.740854,52.391228],[0.741817,52.392694],[0.741124,52.392665],[0.740997,52.392234],[0.738613,52.393093],[0.737589,52.395138],[0.733344,52.395389],[0.722219,52.393692],[0.716033,52.394021],[0.712438,52.394623],[0.708184,52.396048],[0.694657,52.396824],[0.686011,52.398675],[0.680898,52.400631],[0.671796,52.405192],[0.668541,52.409058],[0.67218,52.412801],[0.67382,52.415322],[0.680611,52.420986],[0.683155,52.422569],[0.684812,52.424909],[0.690115,52.4268],[0.691343,52.427735],[0.696149,52.43328],[0.705057,52.438309],[0.71485,52.444514],[0.717552,52.446719],[0.718882,52.449631],[0.716802,52.449701],[0.715808,52.449333],[0.714855,52.449896],[0.71339,52.450046],[0.707517,52.451942],[0.706477,52.452557],[0.705559,52.452587],[0.701157,52.451337],[0.696929,52.451371],[0.694471,52.451017],[0.683973,52.453165],[0.681504,52.454175],[0.6784,52.454729],[0.672616,52.458947],[0.671975,52.46031],[0.668327,52.462083],[0.666307,52.462542],[0.66343,52.462067],[0.660665,52.460151],[0.658809,52.459467],[0.658226,52.458751],[0.65665,52.458141],[0.656355,52.457242],[0.654798,52.457364],[0.651335,52.456871],[0.649858,52.455638],[0.648473,52.455298],[0.649323,52.454906],[0.649347,52.454506],[0.647203,52.452909],[0.646738,52.453548],[0.645483,52.453631],[0.645213,52.452556],[0.642974,52.452278],[0.64222,52.451047],[0.638681,52.45103],[0.636117,52.45138],[0.633548,52.45037],[0.628944,52.450069],[0.627178,52.450902],[0.627952,52.451121],[0.629315,52.452454],[0.629787,52.454054],[0.622621,52.453669],[0.62206,52.454386],[0.620291,52.454346],[0.61938,52.452725],[0.621908,52.451658],[0.621829,52.451271],[0.619006,52.449555],[0.615727,52.448981],[0.60986,52.450319],[0.60848,52.451628],[0.609369,52.451996],[0.609479,52.452716],[0.60508,52.452741],[0.599593,52.453274],[0.598578,52.453958],[0.597101,52.454263],[0.595516,52.454273],[0.593233,52.453629],[0.591447,52.453996],[0.588545,52.453602],[0.58685,52.452932],[0.586944,52.452526],[0.586316,52.452208],[0.582501,52.451861],[0.582579,52.463905],[0.583674,52.468027],[0.590805,52.484325],[0.596915,52.495212],[0.601995,52.508815],[0.602812,52.513215],[0.605179,52.520538],[0.608457,52.526743],[0.613367,52.531634],[0.612491,52.532834],[0.612126,52.534734],[0.61071,52.535678],[0.609802,52.538772],[0.608705,52.54012],[0.604526,52.542123],[0.605183,52.542863],[0.604751,52.543288],[0.602227,52.54378],[0.601178,52.543462],[0.597684,52.543279],[0.596764,52.543847],[0.595904,52.543779],[0.594313,52.545812],[0.592966,52.545718],[0.593113,52.546733],[0.591554,52.547069],[0.590293,52.548138],[0.587915,52.552198],[0.585749,52.553271],[0.586417,52.555299],[0.584016,52.555018],[0.582922,52.556029],[0.581367,52.555995],[0.580138,52.557994],[0.579481,52.558354],[0.579874,52.559548],[0.577966,52.559972],[0.576864,52.561105],[0.572518,52.561929],[0.571475,52.562592],[0.568998,52.562598],[0.567443,52.564932],[0.565347,52.564937],[0.562238,52.565952],[0.561312,52.566611],[0.559773,52.565513],[0.55839,52.56602],[0.557545,52.565671],[0.556802,52.565808],[0.556306,52.564637],[0.553383,52.565158],[0.550567,52.565175],[0.548979,52.566052],[0.543475,52.565047],[0.541195,52.56548],[0.539045,52.565239],[0.536534,52.565822],[0.535908,52.566739],[0.535072,52.56702],[0.53265,52.574579],[0.530521,52.576126],[0.53289,52.578078],[0.535739,52.579804],[0.538079,52.586258],[0.539864,52.586693],[0.541555,52.585932],[0.542902,52.585979],[0.543965,52.58623],[0.544045,52.586558],[0.545905,52.586721],[0.546516,52.587394],[0.547559,52.587898],[0.548379,52.587845],[0.549084,52.588548],[0.552452,52.589169],[0.553248,52.589811],[0.554824,52.590302],[0.556132,52.590321],[0.557228,52.590913],[0.557995,52.590542],[0.559129,52.59082],[0.559352,52.591653],[0.561585,52.593392],[0.5622,52.595165],[0.564099,52.596382],[0.56486,52.597781],[0.565636,52.602026],[0.565046,52.605435],[0.566106,52.608015],[0.567108,52.6141],[0.56165,52.613185],[0.575471,52.645198],[0.578508,52.653515],[0.573067,52.653817],[0.562177,52.655296],[0.564399,52.663066],[0.564239,52.666399],[0.564964,52.66853],[0.564736,52.67159],[0.56339,52.673227],[0.553201,52.678635],[0.550982,52.680521],[0.555098,52.681937],[0.556079,52.682774],[0.557782,52.683189],[0.559165,52.682855],[0.560176,52.682987],[0.562833,52.684163],[0.566265,52.686497],[0.568697,52.687085],[0.571038,52.689102],[0.572395,52.68855],[0.575175,52.689617],[0.577948,52.689611],[0.578804,52.690483],[0.582094,52.691248],[0.584067,52.692118],[0.584945,52.692236],[0.586111,52.691811],[0.588585,52.692877],[0.590193,52.693067],[0.592244,52.693921],[0.59568,52.694041],[0.598212,52.694987],[0.601856,52.695566],[0.604333,52.696304],[0.605475,52.697104],[0.60773,52.697564],[0.610443,52.698811],[0.612094,52.699989],[0.614375,52.699891],[0.617701,52.700249],[0.622551,52.701672],[0.626019,52.701814],[0.630458,52.69768],[0.62983,52.697321],[0.634629,52.693156],[0.636418,52.693859],[0.638297,52.691857],[0.640584,52.692057],[0.643971,52.691665],[0.647749,52.690678],[0.647968,52.693317],[0.649019,52.693397],[0.648544,52.695335],[0.649362,52.701049],[0.649868,52.70141],[0.652153,52.701483],[0.652533,52.701931],[0.654525,52.701584],[0.65523,52.701924],[0.653986,52.702428],[0.653758,52.704064],[0.659427,52.704785],[0.659948,52.703893],[0.662569,52.703989],[0.662846,52.70313],[0.671497,52.702905],[0.671591,52.701812],[0.672289,52.701996],[0.672773,52.70185],[0.672483,52.701512],[0.672892,52.701552],[0.672703,52.700611],[0.673163,52.700444],[0.672343,52.700167],[0.674675,52.698374],[0.676501,52.699461],[0.67721,52.699499],[0.679929,52.69909],[0.681597,52.699178],[0.681916,52.69878],[0.683579,52.698754],[0.6839,52.698222],[0.68608,52.698336],[0.687754,52.697936],[0.68834,52.698028],[0.688297,52.698452],[0.689023,52.698667],[0.689167,52.699033],[0.689998,52.699123],[0.689725,52.699675],[0.690833,52.70067],[0.69137,52.700385],[0.69296,52.700987],[0.696859,52.700911],[0.699611,52.701755],[0.698976,52.702368],[0.700068,52.703818],[0.698781,52.703757],[0.698995,52.7066],[0.699629,52.707784],[0.705465,52.710324],[0.707106,52.708792],[0.708932,52.709064],[0.709831,52.708449],[0.711047,52.709062],[0.710853,52.709967],[0.710197,52.710007],[0.70952,52.710675],[0.708066,52.711296],[0.708574,52.712112],[0.708251,52.712436],[0.711283,52.714006],[0.710957,52.714575],[0.711407,52.714887],[0.710862,52.715559],[0.711686,52.716404],[0.713281,52.71745],[0.717075,52.718642],[0.717141,52.721372],[0.718227,52.721794],[0.716718,52.722952],[0.715457,52.724647],[0.704533,52.731631],[0.700513,52.735678],[0.701127,52.736191],[0.68853,52.736275],[0.680344,52.737703],[0.675293,52.739154],[0.668133,52.740557],[0.668911,52.742091],[0.67339,52.745981],[0.688725,52.751972],[0.687737,52.753692],[0.691428,52.759293],[0.688407,52.76068],[0.689156,52.762092],[0.690081,52.770032],[0.695166,52.769805],[0.696006,52.772938],[0.700487,52.773445],[0.699508,52.775705],[0.699836,52.77619],[0.697739,52.778975],[0.695913,52.78054],[0.698377,52.780964],[0.698875,52.783785],[0.700387,52.783996],[0.699853,52.786192],[0.707939,52.788472],[0.708388,52.786529],[0.717902,52.784056],[0.718344,52.782893],[0.717873,52.782853],[0.717833,52.782346],[0.730363,52.781805],[0.730325,52.780995],[0.741508,52.780007],[0.751836,52.77849],[0.752093,52.77698],[0.75288,52.775714],[0.755939,52.775809],[0.758294,52.776318],[0.758591,52.776053],[0.760017,52.776187],[0.763541,52.776944],[0.765842,52.776708],[0.769476,52.778166],[0.769849,52.779175],[0.773106,52.775852],[0.774518,52.775329],[0.777395,52.771581],[0.779782,52.771862],[0.78028,52.76941],[0.787961,52.76986],[0.795831,52.769097],[0.799104,52.769414],[0.801891,52.77006],[0.799983,52.77423],[0.799765,52.776695],[0.801028,52.778872],[0.802108,52.779181],[0.802762,52.779755],[0.803042,52.781375],[0.806771,52.781461],[0.809119,52.780052],[0.810902,52.781155],[0.810591,52.782565],[0.809427,52.782509],[0.809135,52.783225],[0.80965,52.783978],[0.810604,52.783946],[0.811148,52.784285],[0.81159,52.786448],[0.816078,52.786517],[0.8161,52.786842],[0.819326,52.78614],[0.819961,52.789626],[0.819293,52.792449],[0.818075,52.79439],[0.821333,52.796872],[0.823933,52.797273],[0.829241,52.797424],[0.832015,52.798939],[0.83273,52.799829],[0.831947,52.800015],[0.832745,52.8016],[0.83041,52.80302],[0.8298,52.804756],[0.831418,52.805429],[0.832538,52.806584],[0.83769,52.809687],[0.839443,52.811127],[0.840454,52.809858],[0.842038,52.809202],[0.853208,52.807207]]]}}]}