{"type":"FeatureCollection","features":[{"type":"Feature","properties":{"slug":"brentwood","gss_code":"E07000068","name":"Brentwood"},"geometry":{"type":"Polygon","coordinates":[[[0.360551,51.690384],[0.362886,51.691709],[0.368946,51.692837],[0.371768,51.694927],[0.373104,51.695432],[0.376698,51.698503],[0.377518,51.69872],[0.37797,51.697937],[0.380505,51.69738],[0.38009,51.696929],[0.380759,51.696198],[0.380488,51.694424],[0.381716,51.694107],[0.381827,51.693647],[0.385846,51.691992],[0.388127,51.6916],[0.389569,51.690983],[0.391169,51.691722],[0.392025,51.691457],[0.392882,51.690555],[0.392831,51.687825],[0.394336,51.687755],[0.395719,51.686166],[0.396892,51.686531],[0.396705,51.684413],[0.398965,51.683527],[0.39881,51.68322],[0.401498,51.682421],[0.399703,51.681329],[0.397826,51.67946],[0.404897,51.678692],[0.406261,51.674471],[0.407426,51.672808],[0.41256,51.670896],[0.411566,51.670332],[0.411204,51.669653],[0.408874,51.669429],[0.408715,51.668937],[0.407416,51.668411],[0.406654,51.667231],[0.405763,51.666944],[0.406005,51.666296],[0.402703,51.663283],[0.400148,51.66227],[0.401026,51.661629],[0.401955,51.661442],[0.401552,51.660604],[0.40272,51.660307],[0.402766,51.659683],[0.401504,51.659269],[0.401828,51.658644],[0.400459,51.657605],[0.400609,51.657087],[0.399186,51.656206],[0.397779,51.654273],[0.396882,51.653684],[0.39741,51.653496],[0.399256,51.653781],[0.400699,51.652599],[0.401874,51.652513],[0.402404,51.651912],[0.401817,51.649752],[0.402252,51.649555],[0.402583,51.649903],[0.402875,51.649672],[0.402574,51.648373],[0.402242,51.648524],[0.401933,51.647946],[0.402467,51.647534],[0.403656,51.647468],[0.402881,51.646858],[0.403019,51.645825],[0.401472,51.64602],[0.401324,51.645482],[0.400846,51.645611],[0.40023,51.645127],[0.39938,51.645226],[0.398848,51.64478],[0.396408,51.644897],[0.395678,51.64435],[0.394871,51.644464],[0.394487,51.643957],[0.394856,51.643224],[0.394386,51.641519],[0.392671,51.639598],[0.392116,51.63966],[0.391942,51.639245],[0.391084,51.639429],[0.390431,51.639009],[0.38996,51.639168],[0.387754,51.637629],[0.387415,51.637741],[0.386759,51.636901],[0.387127,51.636762],[0.3871,51.636089],[0.385213,51.632802],[0.386242,51.631466],[0.385856,51.631031],[0.387207,51.629755],[0.387626,51.628343],[0.386819,51.626937],[0.386967,51.626089],[0.385021,51.623232],[0.384227,51.619565],[0.378699,51.616602],[0.376663,51.615758],[0.376266,51.615872],[0.375127,51.615173],[0.375772,51.614889],[0.377698,51.612107],[0.379358,51.60358],[0.382535,51.599546],[0.383609,51.598724],[0.382798,51.598087],[0.38189,51.595536],[0.382657,51.594266],[0.383914,51.593711],[0.383425,51.593461],[0.384817,51.591202],[0.38603,51.585919],[0.38129,51.585001],[0.383239,51.576756],[0.382973,51.573691],[0.383655,51.572105],[0.382718,51.571954],[0.383666,51.56977],[0.381723,51.568301],[0.382605,51.565824],[0.379231,51.565736],[0.343784,51.567821],[0.29029,51.564299],[0.286687,51.571553],[0.287124,51.57271],[0.286669,51.573567],[0.285025,51.574184],[0.281966,51.578896],[0.273811,51.586814],[0.272096,51.587658],[0.269879,51.592467],[0.269334,51.595298],[0.270315,51.59755],[0.269866,51.599554],[0.264646,51.599741],[0.258251,51.60092],[0.257914,51.601275],[0.254009,51.601598],[0.253916,51.60192],[0.254696,51.602732],[0.255165,51.60267],[0.256625,51.603606],[0.257156,51.604925],[0.257999,51.604912],[0.258079,51.606507],[0.261677,51.607461],[0.263115,51.60732],[0.264325,51.607832],[0.264562,51.608321],[0.259049,51.612284],[0.257692,51.614183],[0.252794,51.617429],[0.237351,51.624073],[0.224088,51.631738],[0.222077,51.630126],[0.217547,51.629093],[0.212109,51.627187],[0.212251,51.626979],[0.208497,51.626688],[0.203614,51.625173],[0.200312,51.624936],[0.199352,51.63127],[0.196949,51.634335],[0.19606,51.63665],[0.195921,51.638884],[0.194623,51.640979],[0.193238,51.641352],[0.190554,51.642796],[0.188959,51.644464],[0.188444,51.645831],[0.18473,51.648664],[0.177305,51.652126],[0.175703,51.655792],[0.179009,51.656389],[0.179601,51.655589],[0.180646,51.655049],[0.180703,51.653728],[0.182239,51.653079],[0.182985,51.653161],[0.184001,51.654038],[0.184517,51.65409],[0.18657,51.652738],[0.189287,51.65312],[0.191225,51.6527],[0.19299,51.653099],[0.193601,51.654907],[0.192313,51.655658],[0.192446,51.657225],[0.190908,51.65836],[0.191312,51.65892],[0.190858,51.65982],[0.193075,51.660972],[0.196116,51.660995],[0.197416,51.660545],[0.19922,51.660459],[0.200927,51.659695],[0.208157,51.660971],[0.208448,51.662395],[0.206935,51.663682],[0.206787,51.664486],[0.208103,51.665235],[0.208816,51.664816],[0.210594,51.664816],[0.213301,51.665534],[0.213602,51.66659],[0.212816,51.66714],[0.212691,51.667912],[0.213523,51.668999],[0.213107,51.670645],[0.21386,51.67323],[0.214935,51.673635],[0.214666,51.674017],[0.215027,51.674853],[0.216055,51.67509],[0.218158,51.674618],[0.220005,51.675387],[0.223633,51.675418],[0.224444,51.674993],[0.226079,51.675009],[0.227493,51.674294],[0.229437,51.674699],[0.231684,51.673596],[0.234131,51.673523],[0.23515,51.674045],[0.236168,51.673543],[0.239002,51.674109],[0.240087,51.67566],[0.239067,51.676901],[0.237638,51.677323],[0.237087,51.677898],[0.235998,51.67805],[0.234269,51.679334],[0.233726,51.679349],[0.232185,51.683358],[0.233495,51.684404],[0.235435,51.684663],[0.236729,51.683622],[0.238451,51.682868],[0.240226,51.682751],[0.240336,51.683554],[0.243198,51.685001],[0.242738,51.685499],[0.244398,51.68773],[0.246977,51.68873],[0.248793,51.688821],[0.248986,51.689213],[0.252003,51.689011],[0.252888,51.689885],[0.254222,51.689814],[0.255027,51.690242],[0.25495,51.692308],[0.257082,51.694032],[0.257756,51.695186],[0.257778,51.695806],[0.257012,51.696695],[0.258397,51.697334],[0.259894,51.697585],[0.263594,51.699252],[0.26574,51.699707],[0.266282,51.698749],[0.265708,51.698523],[0.265727,51.698144],[0.266356,51.696211],[0.266868,51.695819],[0.268008,51.696098],[0.268036,51.69644],[0.269442,51.696371],[0.269909,51.696662],[0.272932,51.696448],[0.274102,51.696864],[0.275322,51.696227],[0.275889,51.695445],[0.279671,51.693643],[0.283478,51.694111],[0.284654,51.69335],[0.283913,51.69272],[0.28867,51.690497],[0.292632,51.687293],[0.291821,51.686295],[0.293896,51.686432],[0.297226,51.684417],[0.29876,51.682655],[0.302125,51.680965],[0.303189,51.681788],[0.303426,51.682727],[0.30299,51.683525],[0.303915,51.683424],[0.305059,51.684811],[0.303867,51.684997],[0.303892,51.685283],[0.305598,51.688049],[0.305717,51.689036],[0.306894,51.6902],[0.307421,51.691884],[0.307456,51.694291],[0.313531,51.702211],[0.321257,51.708286],[0.323827,51.709795],[0.32377,51.710334],[0.321704,51.711348],[0.322003,51.712157],[0.323372,51.713269],[0.323062,51.714168],[0.324587,51.714317],[0.330037,51.716431],[0.333999,51.717013],[0.335958,51.713631],[0.335976,51.712076],[0.336975,51.709305],[0.3392,51.706777],[0.339686,51.703963],[0.338886,51.701513],[0.340103,51.701117],[0.343901,51.698407],[0.344691,51.697093],[0.344969,51.69552],[0.346633,51.693905],[0.353056,51.692098],[0.357376,51.691424],[0.360551,51.690384]]]}}]}