{"type":"FeatureCollection","features":[{"type":"Feature","properties":{"slug":"brent","gss_code":"E09000005","name":"Brent"},"geometry":{"type":"Polygon","coordinates":[[[-0.257548,51.592175],[-0.252945,51.588901],[-0.248234,51.584314],[-0.251729,51.583376],[-0.254264,51.581669],[-0.254545,51.579772],[-0.252679,51.575144],[-0.251265,51.573154],[-0.253053,51.572395],[-0.252514,51.571518],[-0.248565,51.568511],[-0.247002,51.568619],[-0.247362,51.568957],[-0.246541,51.569035],[-0.246072,51.569808],[-0.24655,51.570024],[-0.245966,51.571008],[-0.246734,51.571588],[-0.245963,51.572216],[-0.245217,51.571917],[-0.244199,51.572584],[-0.243896,51.572306],[-0.242428,51.5725],[-0.242453,51.572816],[-0.241374,51.572719],[-0.241131,51.57213],[-0.24005,51.572382],[-0.24001,51.572095],[-0.238849,51.572238],[-0.23799,51.571777],[-0.23816,51.572071],[-0.237612,51.572466],[-0.235859,51.572298],[-0.23548,51.572547],[-0.235669,51.57231],[-0.234561,51.571774],[-0.233417,51.571983],[-0.228794,51.567971],[-0.225465,51.565868],[-0.22066,51.561664],[-0.218498,51.559336],[-0.191468,51.536292],[-0.193016,51.53395],[-0.192347,51.533261],[-0.192998,51.531984],[-0.196479,51.527639],[-0.197802,51.5279],[-0.198175,51.530418],[-0.20108,51.531906],[-0.201675,51.53256],[-0.203013,51.532896],[-0.207814,51.532792],[-0.211186,51.531925],[-0.215267,51.531361],[-0.215107,51.53017],[-0.215856,51.529752],[-0.216021,51.52792],[-0.217791,51.5286],[-0.223728,51.529947],[-0.225434,51.53016],[-0.22766,51.529914],[-0.227562,51.530155],[-0.230717,51.53087],[-0.234409,51.532638],[-0.237529,51.532005],[-0.243236,51.531765],[-0.246282,51.532738],[-0.247266,51.53349],[-0.250752,51.534147],[-0.250878,51.53388],[-0.255985,51.53395],[-0.256546,51.534966],[-0.257741,51.535367],[-0.260353,51.534493],[-0.263318,51.532668],[-0.264761,51.532158],[-0.264867,51.531572],[-0.266251,51.530687],[-0.268574,51.529823],[-0.26968,51.530002],[-0.270271,51.529767],[-0.270446,51.530047],[-0.274571,51.529559],[-0.280372,51.528347],[-0.285726,51.529172],[-0.289383,51.531683],[-0.284012,51.533532],[-0.283479,51.532808],[-0.281484,51.533231],[-0.280959,51.532588],[-0.278964,51.533228],[-0.278485,51.534583],[-0.278117,51.534551],[-0.277769,51.535072],[-0.282457,51.538649],[-0.28663,51.536784],[-0.293396,51.534928],[-0.295166,51.534877],[-0.295755,51.535291],[-0.296448,51.535259],[-0.299852,51.533082],[-0.302705,51.531987],[-0.307454,51.533087],[-0.306265,51.534177],[-0.305949,51.539367],[-0.304718,51.539859],[-0.308518,51.543199],[-0.307987,51.544414],[-0.308875,51.545207],[-0.307113,51.54533],[-0.308646,51.546467],[-0.311479,51.547566],[-0.312526,51.549028],[-0.317661,51.551569],[-0.327006,51.555031],[-0.335556,51.556557],[-0.334857,51.557866],[-0.33393,51.557698],[-0.334035,51.558755],[-0.331265,51.561414],[-0.330042,51.562231],[-0.328237,51.562541],[-0.328672,51.565975],[-0.329689,51.566193],[-0.329849,51.567128],[-0.325051,51.568259],[-0.325216,51.568457],[-0.322148,51.569677],[-0.324805,51.573314],[-0.325352,51.575936],[-0.326634,51.578601],[-0.3202,51.580375],[-0.312532,51.584453],[-0.304697,51.587053],[-0.301448,51.587271],[-0.282458,51.585052],[-0.282334,51.58584],[-0.284197,51.590496],[-0.285639,51.591897],[-0.288934,51.592821],[-0.290406,51.593544],[-0.286249,51.594936],[-0.285775,51.594729],[-0.285569,51.595211],[-0.283353,51.595743],[-0.27651,51.59651],[-0.276964,51.596937],[-0.273067,51.598387],[-0.270989,51.598384],[-0.267113,51.600372],[-0.257548,51.592175]]]}}]}