{"type":"FeatureCollection","features":[{"type":"Feature","properties":{"slug":"brighton-and-hove","gss_code":"E06000043","name":"Brighton and Hove"},"geometry":{"type":"MultiPolygon","coordinates":[[[[-0.168239,50.885247],[-0.167647,50.884858],[-0.168323,50.882859],[-0.168124,50.88077],[-0.161905,50.881002],[-0.154956,50.879722],[-0.152908,50.879857],[-0.152749,50.882493],[-0.153157,50.884811],[-0.152469,50.885465],[-0.144637,50.886978],[-0.142118,50.885785],[-0.142454,50.884261],[-0.138897,50.884489],[-0.1371,50.884614],[-0.135005,50.88665],[-0.135534,50.885085],[-0.135858,50.880516],[-0.135279,50.878098],[-0.129616,50.878745],[-0.124212,50.878027],[-0.1243,50.876186],[-0.122234,50.876123],[-0.1218,50.873428],[-0.115313,50.874228],[-0.111361,50.873155],[-0.104915,50.872343],[-0.103495,50.872774],[-0.104462,50.874604],[-0.097963,50.876543],[-0.098476,50.8775],[-0.097519,50.877945],[-0.0948,50.876538],[-0.09436,50.876781],[-0.084928,50.87312],[-0.086102,50.871073],[-0.08464,50.868983],[-0.082865,50.86745],[-0.084134,50.866915],[-0.083197,50.862991],[-0.082804,50.863072],[-0.08167,50.860687],[-0.080014,50.860932],[-0.078832,50.853805],[-0.072498,50.848331],[-0.070779,50.845819],[-0.072448,50.843997],[-0.073452,50.841215],[-0.063297,50.841419],[-0.060378,50.841979],[-0.057363,50.843211],[-0.053541,50.844267],[-0.048908,50.844348],[-0.045614,50.844958],[-0.043491,50.844253],[-0.043447,50.843298],[-0.042549,50.842631],[-0.03686,50.841173],[-0.036315,50.839508],[-0.038992,50.837872],[-0.038076,50.836413],[-0.038856,50.834676],[-0.039104,50.828633],[-0.042458,50.824253],[-0.045115,50.8234],[-0.04582,50.823536],[-0.045484,50.822374],[-0.045968,50.821825],[-0.039685,50.82153],[-0.03327,50.8188],[-0.031003,50.817415],[-0.030229,50.817349],[-0.026339,50.818017],[-0.020428,50.82183],[-0.019302,50.819649],[-0.016586,50.816274],[-0.016002,50.814875],[-0.020623,50.812889],[-0.028199,50.808284],[-0.031766,50.804546],[-0.034391,50.802464],[-0.037097,50.800928],[-0.038577,50.799083],[-0.042332,50.800067],[-0.042595,50.799738],[-0.04348,50.799991],[-0.043714,50.799744],[-0.045108,50.800535],[-0.050045,50.801533],[-0.053393,50.801576],[-0.053812,50.800861],[-0.053848,50.80125],[-0.054927,50.801582],[-0.055173,50.801123],[-0.055854,50.801578],[-0.056434,50.801476],[-0.05738,50.802065],[-0.057877,50.801855],[-0.058627,50.802389],[-0.059189,50.802325],[-0.064822,50.804387],[-0.068204,50.805269],[-0.0687,50.804964],[-0.068573,50.805177],[-0.069977,50.80575],[-0.070418,50.805879],[-0.070672,50.805543],[-0.073603,50.806889],[-0.085483,50.810266],[-0.086895,50.810337],[-0.088065,50.810931],[-0.09208,50.811779],[-0.092588,50.811759],[-0.094516,50.80908],[-0.095594,50.808581],[-0.09702,50.808402],[-0.103337,50.809187],[-0.096416,50.808519],[-0.094381,50.80932],[-0.093535,50.810457],[-0.103712,50.812217],[-0.10391,50.811769],[-0.103435,50.811685],[-0.103962,50.810503],[-0.104551,50.810547],[-0.104491,50.811289],[-0.106417,50.811666],[-0.10781,50.811577],[-0.107956,50.8102],[-0.106367,50.808265],[-0.107782,50.809632],[-0.108162,50.810405],[-0.107541,50.81272],[-0.136069,50.818835],[-0.136833,50.818878],[-0.13703,50.818511],[-0.139127,50.81885],[-0.139314,50.818534],[-0.156973,50.8218],[-0.172186,50.823763],[-0.172199,50.823449],[-0.173419,50.82387],[-0.17471,50.823832],[-0.174844,50.823289],[-0.174767,50.823818],[-0.176834,50.824095],[-0.203829,50.826497],[-0.205174,50.82616],[-0.216046,50.827585],[-0.215295,50.830369],[-0.216585,50.830682],[-0.216666,50.832962],[-0.217571,50.832917],[-0.228403,50.845634],[-0.229324,50.845734],[-0.230616,50.848318],[-0.234333,50.85111],[-0.235383,50.852412],[-0.236382,50.857522],[-0.238994,50.858722],[-0.239753,50.861952],[-0.241505,50.862876],[-0.244716,50.863435],[-0.244971,50.863809],[-0.240576,50.865202],[-0.239798,50.866048],[-0.238754,50.869719],[-0.237551,50.87179],[-0.23382,50.875158],[-0.232671,50.875939],[-0.226719,50.878181],[-0.225522,50.878068],[-0.224647,50.877239],[-0.224555,50.876292],[-0.214147,50.875179],[-0.213882,50.870465],[-0.209257,50.870505],[-0.205402,50.870087],[-0.202637,50.875857],[-0.200921,50.874914],[-0.198988,50.870121],[-0.197354,50.869551],[-0.194371,50.869645],[-0.189219,50.869028],[-0.187734,50.86857],[-0.189748,50.874416],[-0.187725,50.875586],[-0.186271,50.875674],[-0.185073,50.876585],[-0.181861,50.880905],[-0.181302,50.88365],[-0.182417,50.888271],[-0.180758,50.888291],[-0.177783,50.890461],[-0.169322,50.889917],[-0.169124,50.891366],[-0.16858,50.891372],[-0.168578,50.892379],[-0.165839,50.892335],[-0.168239,50.885247]]],[[[-0.10617,50.809539],[-0.104633,50.809602],[-0.105099,50.810284],[-0.104439,50.809517],[-0.103337,50.809187],[-0.10617,50.809539]]]]}}]}