{"type":"FeatureCollection","features":[{"type":"Feature","properties":{"slug":"bristol","gss_code":"E06000023","name":"Bristol, City of"},"geometry":{"type":"Polygon","coordinates":[[[-2.660365,51.527731],[-2.658129,51.526686],[-2.653609,51.523067],[-2.651403,51.520704],[-2.651665,51.51993],[-2.652718,51.519647],[-2.65276,51.519237],[-2.653744,51.518609],[-2.653204,51.516089],[-2.654494,51.514962],[-2.653958,51.514483],[-2.654486,51.513724],[-2.651508,51.512844],[-2.647162,51.512166],[-2.638514,51.512062],[-2.62613,51.51473],[-2.622624,51.514489],[-2.620899,51.514837],[-2.611134,51.513448],[-2.602443,51.513783],[-2.58799,51.517063],[-2.580988,51.517409],[-2.582003,51.514627],[-2.583087,51.512944],[-2.585106,51.512475],[-2.585852,51.512671],[-2.589228,51.511536],[-2.591223,51.509682],[-2.590503,51.508405],[-2.58802,51.50773],[-2.588545,51.50561],[-2.587863,51.504941],[-2.58769,51.503449],[-2.58815,51.501235],[-2.585244,51.501156],[-2.585628,51.501844],[-2.584519,51.502641],[-2.581715,51.50119],[-2.579871,51.50068],[-2.578097,51.500938],[-2.575477,51.500752],[-2.573163,51.500408],[-2.569928,51.499246],[-2.569087,51.499549],[-2.565973,51.498289],[-2.565065,51.497581],[-2.565339,51.496185],[-2.56472,51.496135],[-2.564789,51.495516],[-2.562241,51.495293],[-2.561591,51.495855],[-2.561225,51.495607],[-2.560513,51.49591],[-2.560077,51.496442],[-2.554662,51.496348],[-2.556156,51.494061],[-2.555348,51.492686],[-2.551602,51.492233],[-2.542171,51.49295],[-2.542537,51.49455],[-2.541743,51.495741],[-2.538952,51.495003],[-2.537704,51.497073],[-2.534329,51.496745],[-2.531741,51.495697],[-2.530286,51.496371],[-2.52935,51.496209],[-2.527754,51.494922],[-2.528555,51.494085],[-2.527938,51.493824],[-2.527473,51.492654],[-2.52533,51.493226],[-2.52334,51.49244],[-2.520686,51.492582],[-2.518037,51.492985],[-2.515865,51.493867],[-2.515319,51.493075],[-2.515966,51.492573],[-2.510999,51.489986],[-2.511393,51.48929],[-2.516799,51.485155],[-2.515128,51.481758],[-2.51524,51.481466],[-2.511478,51.474832],[-2.511073,51.472846],[-2.510836,51.471595],[-2.511508,51.47023],[-2.512609,51.4704],[-2.512923,51.469051],[-2.512285,51.468606],[-2.513252,51.465661],[-2.511403,51.465212],[-2.512246,51.462333],[-2.51339,51.462079],[-2.513137,51.461628],[-2.514258,51.461437],[-2.515363,51.459931],[-2.516228,51.46],[-2.518463,51.459078],[-2.518603,51.458167],[-2.519215,51.457573],[-2.518463,51.455658],[-2.518594,51.45427],[-2.519177,51.453733],[-2.518937,51.452611],[-2.522278,51.449803],[-2.525129,51.448972],[-2.526124,51.449145],[-2.527229,51.448664],[-2.529931,51.448232],[-2.531666,51.446442],[-2.534768,51.44653],[-2.535606,51.447341],[-2.537681,51.447013],[-2.539122,51.446294],[-2.539225,51.44555],[-2.538059,51.444822],[-2.5361,51.444715],[-2.53078,51.445593],[-2.528322,51.444955],[-2.526751,51.443865],[-2.526449,51.442557],[-2.527044,51.43625],[-2.525355,51.434124],[-2.523542,51.432606],[-2.521664,51.431718],[-2.516991,51.430816],[-2.513436,51.429632],[-2.510701,51.429269],[-2.510462,51.428782],[-2.521941,51.431447],[-2.524002,51.432549],[-2.526291,51.434777],[-2.527893,51.433832],[-2.52668,51.433866],[-2.525464,51.432939],[-2.527389,51.431498],[-2.523747,51.429917],[-2.523839,51.428272],[-2.523032,51.42563],[-2.526838,51.425736],[-2.529297,51.42471],[-2.531313,51.423308],[-2.531221,51.422416],[-2.529254,51.421279],[-2.529461,51.420915],[-2.532606,51.419365],[-2.534455,51.417489],[-2.53327,51.417157],[-2.533523,51.416608],[-2.534345,51.416656],[-2.534209,51.414707],[-2.534816,51.41412],[-2.534502,51.413848],[-2.535512,51.412706],[-2.536926,51.412024],[-2.536007,51.411137],[-2.538599,51.410705],[-2.54094,51.409551],[-2.542315,51.408748],[-2.542322,51.408075],[-2.543345,51.407408],[-2.545072,51.408153],[-2.545427,51.40864],[-2.547484,51.409055],[-2.548848,51.408823],[-2.549016,51.409285],[-2.552907,51.409092],[-2.553147,51.409612],[-2.55586,51.409278],[-2.5562,51.408849],[-2.556085,51.411275],[-2.559671,51.411243],[-2.559555,51.411645],[-2.560875,51.411721],[-2.561839,51.409933],[-2.563137,51.408601],[-2.562254,51.40832],[-2.563179,51.407472],[-2.564347,51.407043],[-2.564356,51.406394],[-2.565377,51.406012],[-2.564726,51.405134],[-2.56684,51.40474],[-2.566595,51.404339],[-2.567589,51.404015],[-2.567166,51.403648],[-2.56757,51.403325],[-2.566501,51.402781],[-2.5671,51.402511],[-2.567566,51.401352],[-2.568233,51.401373],[-2.570754,51.399369],[-2.571827,51.399622],[-2.571991,51.400427],[-2.573445,51.400869],[-2.574047,51.400288],[-2.576346,51.401124],[-2.578102,51.399362],[-2.58201,51.400893],[-2.583004,51.399684],[-2.583765,51.399762],[-2.583851,51.400396],[-2.584398,51.400425],[-2.584413,51.400049],[-2.585186,51.400125],[-2.585095,51.39952],[-2.589929,51.398168],[-2.590132,51.397545],[-2.59219,51.398194],[-2.591839,51.397673],[-2.592549,51.397255],[-2.593512,51.397982],[-2.594069,51.397692],[-2.595735,51.397929],[-2.597567,51.399011],[-2.597049,51.400155],[-2.600937,51.400222],[-2.600997,51.399531],[-2.602789,51.39882],[-2.604294,51.399376],[-2.604871,51.400442],[-2.606501,51.401394],[-2.60722,51.400979],[-2.608421,51.401358],[-2.611602,51.401173],[-2.612494,51.401345],[-2.612344,51.402266],[-2.61371,51.402696],[-2.614067,51.402348],[-2.617468,51.402397],[-2.617364,51.401751],[-2.619158,51.401943],[-2.619099,51.403913],[-2.61966,51.404383],[-2.621926,51.404317],[-2.622322,51.403706],[-2.623231,51.404126],[-2.625931,51.403818],[-2.625805,51.403154],[-2.627372,51.402515],[-2.627955,51.40186],[-2.629587,51.402295],[-2.630467,51.402111],[-2.633252,51.403442],[-2.633153,51.405284],[-2.634897,51.406008],[-2.635465,51.406976],[-2.633269,51.407474],[-2.631692,51.408499],[-2.630883,51.410112],[-2.632354,51.410316],[-2.631122,51.411664],[-2.629786,51.414722],[-2.629122,51.414719],[-2.628744,51.416001],[-2.631227,51.415952],[-2.632524,51.417566],[-2.630612,51.418707],[-2.632464,51.420346],[-2.634605,51.421049],[-2.634823,51.421561],[-2.636317,51.422143],[-2.637086,51.4232],[-2.634037,51.425842],[-2.633469,51.43027],[-2.633498,51.435808],[-2.629525,51.437372],[-2.630522,51.438225],[-2.630009,51.438486],[-2.630375,51.439611],[-2.634234,51.439277],[-2.640085,51.440441],[-2.639895,51.441358],[-2.638967,51.441869],[-2.637972,51.441977],[-2.636631,51.443216],[-2.636844,51.444268],[-2.635594,51.444924],[-2.635618,51.445302],[-2.633085,51.447236],[-2.62966,51.446136],[-2.627005,51.446668],[-2.626425,51.448351],[-2.625801,51.448755],[-2.627936,51.452628],[-2.628684,51.454889],[-2.631851,51.457737],[-2.632093,51.458692],[-2.631542,51.459967],[-2.631846,51.461566],[-2.634367,51.466802],[-2.637197,51.468232],[-2.641476,51.469069],[-2.646103,51.470504],[-2.648734,51.472047],[-2.650434,51.47352],[-2.651134,51.473658],[-2.651814,51.477509],[-2.652621,51.479203],[-2.65882,51.484098],[-2.661353,51.486378],[-2.662499,51.486757],[-2.663583,51.486709],[-2.664599,51.486086],[-2.665511,51.484031],[-2.667332,51.482974],[-2.665903,51.483851],[-2.664904,51.48628],[-2.663504,51.486941],[-2.662245,51.48691],[-2.660783,51.486305],[-2.657264,51.483012],[-2.656784,51.48296],[-2.652563,51.479793],[-2.65158,51.478055],[-2.651172,51.473912],[-2.650548,51.473899],[-2.649505,51.473148],[-2.64868,51.472112],[-2.647996,51.471995],[-2.645595,51.47038],[-2.641519,51.469167],[-2.636806,51.468256],[-2.63391,51.466609],[-2.631551,51.46144],[-2.631256,51.459592],[-2.631573,51.458447],[-2.631218,51.457741],[-2.628361,51.454655],[-2.627776,51.452535],[-2.626217,51.450369],[-2.625103,51.447445],[-2.621587,51.445607],[-2.619212,51.445366],[-2.605545,51.446469],[-2.597892,51.445536],[-2.592645,51.445767],[-2.587524,51.445003],[-2.584798,51.445722],[-2.581673,51.447506],[-2.580114,51.447993],[-2.578404,51.447777],[-2.577394,51.44718],[-2.577816,51.44473],[-2.57717,51.444024],[-2.570846,51.44284],[-2.566695,51.444167],[-2.560638,51.445023],[-2.557844,51.446377],[-2.557602,51.447173],[-2.558592,51.448733],[-2.557532,51.449544],[-2.553947,51.451062],[-2.555263,51.45094],[-2.558922,51.449248],[-2.559186,51.448264],[-2.558325,51.446741],[-2.560595,51.445441],[-2.562429,51.444927],[-2.5668,51.444519],[-2.571066,51.44321],[-2.576695,51.444162],[-2.577192,51.444974],[-2.576867,51.447283],[-2.578358,51.448296],[-2.580625,51.448251],[-2.585584,51.445782],[-2.587806,51.44537],[-2.593293,51.44619],[-2.596295,51.445994],[-2.596533,51.446325],[-2.598685,51.445945],[-2.604441,51.446737],[-2.60738,51.446773],[-2.617437,51.445897],[-2.620896,51.446108],[-2.623743,51.447421],[-2.624266,51.448294],[-2.623117,51.448309],[-2.623502,51.448527],[-2.623171,51.448678],[-2.624286,51.449027],[-2.624436,51.449477],[-2.623992,51.44956],[-2.625181,51.450362],[-2.626583,51.452553],[-2.627078,51.454758],[-2.629908,51.457751],[-2.630272,51.459187],[-2.630035,51.460723],[-2.632911,51.467392],[-2.635833,51.468959],[-2.643896,51.470771],[-2.64869,51.473706],[-2.64981,51.475042],[-2.649412,51.477041],[-2.650779,51.479798],[-2.648335,51.480863],[-2.649488,51.48105],[-2.651255,51.480514],[-2.652217,51.481567],[-2.656136,51.484073],[-2.656491,51.484885],[-2.657196,51.485055],[-2.659665,51.487123],[-2.661912,51.487862],[-2.66373,51.487863],[-2.666048,51.487038],[-2.667897,51.48401],[-2.671846,51.481861],[-2.674162,51.480998],[-2.677643,51.480727],[-2.679744,51.481248],[-2.685781,51.484579],[-2.692387,51.489968],[-2.69663,51.492775],[-2.697464,51.494179],[-2.698892,51.494312],[-2.702485,51.495847],[-2.708726,51.497731],[-2.70956,51.498701],[-2.710089,51.502218],[-2.710629,51.502818],[-2.714558,51.505211],[-2.718357,51.506223],[-2.714673,51.505678],[-2.7137,51.505928],[-2.717748,51.507736],[-2.718218,51.50824],[-2.716308,51.507126],[-2.715575,51.507302],[-2.71263,51.509833],[-2.711776,51.510025],[-2.711572,51.510889],[-2.710109,51.512568],[-2.706727,51.514707],[-2.705622,51.515097],[-2.702863,51.515329],[-2.702168,51.516203],[-2.700293,51.517344],[-2.698873,51.519191],[-2.687983,51.529421],[-2.687071,51.529387],[-2.686539,51.530879],[-2.682567,51.534799],[-2.681075,51.535715],[-2.681018,51.536279],[-2.679326,51.538039],[-2.678839,51.539104],[-2.673814,51.544431],[-2.663689,51.536996],[-2.664478,51.536013],[-2.663739,51.534868],[-2.665728,51.533679],[-2.664614,51.531532],[-2.665425,51.530966],[-2.660365,51.527731]]]}}]}