{"type":"FeatureCollection","features":[{"type":"Feature","properties":{"slug":"broadland","gss_code":"E07000144","name":"Broadland"},"geometry":{"type":"MultiPolygon","coordinates":[[[[1.604596,52.624273],[1.604475,52.624304],[1.604637,52.624273],[1.604596,52.624273]]],[[[1.596726,52.628667],[1.596687,52.628672],[1.596708,52.628672],[1.596726,52.628667]]],[[[1.638911,52.630411],[1.638809,52.630436],[1.639802,52.630429],[1.638911,52.630411]]],[[[1.509609,52.683564],[1.509606,52.683566],[1.509584,52.683621],[1.509609,52.683564]]],[[[1.45763,52.703516],[1.457624,52.703519],[1.457682,52.703559],[1.45763,52.703516]]],[[[1.215423,52.82891],[1.218101,52.829452],[1.217886,52.828858],[1.21917,52.828305],[1.22147,52.828314],[1.222266,52.827452],[1.223783,52.827516],[1.224307,52.826602],[1.223468,52.826063],[1.224439,52.826007],[1.224325,52.825215],[1.225226,52.825323],[1.228304,52.824406],[1.229682,52.824855],[1.230081,52.824469],[1.231977,52.824023],[1.231228,52.823585],[1.232449,52.823547],[1.233229,52.822989],[1.234139,52.823693],[1.235785,52.823851],[1.2376,52.823279],[1.237865,52.822966],[1.237494,52.822355],[1.23799,52.821714],[1.237581,52.82095],[1.238222,52.820425],[1.240079,52.820675],[1.241197,52.820267],[1.242714,52.820777],[1.244456,52.819908],[1.247543,52.821073],[1.248172,52.820563],[1.248906,52.820958],[1.251083,52.820522],[1.251212,52.820052],[1.250157,52.819754],[1.251561,52.818598],[1.251313,52.818202],[1.250702,52.818124],[1.25111,52.817834],[1.250676,52.817402],[1.251347,52.815649],[1.251035,52.815449],[1.252229,52.814392],[1.252176,52.814052],[1.25299,52.814356],[1.253726,52.813629],[1.254783,52.813446],[1.256914,52.813921],[1.257716,52.813482],[1.258658,52.813688],[1.259799,52.812748],[1.26047,52.813194],[1.261974,52.812686],[1.2626,52.815297],[1.26747,52.819057],[1.270389,52.819321],[1.274125,52.81882],[1.273888,52.818155],[1.275713,52.817325],[1.276561,52.817438],[1.277673,52.814906],[1.281319,52.809324],[1.283435,52.807717],[1.286649,52.80889],[1.288883,52.804668],[1.296418,52.805995],[1.296637,52.806811],[1.29882,52.806966],[1.299304,52.807283],[1.29979,52.807217],[1.299832,52.806374],[1.300678,52.806275],[1.299634,52.804742],[1.302622,52.804663],[1.303236,52.805452],[1.305858,52.806568],[1.306592,52.807357],[1.308287,52.806731],[1.308885,52.805267],[1.3089,52.804392],[1.308246,52.804029],[1.308612,52.803764],[1.307576,52.80298],[1.308117,52.802029],[1.312614,52.801556],[1.31494,52.800889],[1.31141,52.796057],[1.30893,52.796335],[1.308383,52.795734],[1.309295,52.795],[1.312504,52.793701],[1.314882,52.793308],[1.313802,52.790475],[1.317094,52.789165],[1.315924,52.788689],[1.314564,52.785546],[1.314568,52.783139],[1.315605,52.780656],[1.31481,52.779756],[1.315382,52.779398],[1.316129,52.779489],[1.316357,52.77868],[1.31688,52.778481],[1.317062,52.777343],[1.318675,52.777378],[1.319526,52.776694],[1.320093,52.775376],[1.320889,52.775136],[1.321308,52.774485],[1.320869,52.773391],[1.321399,52.773324],[1.32338,52.771373],[1.324225,52.77129],[1.325024,52.770271],[1.327004,52.768938],[1.326604,52.767114],[1.327793,52.766933],[1.333953,52.768069],[1.336239,52.76941],[1.337546,52.768637],[1.339201,52.76392],[1.341339,52.760538],[1.345035,52.755799],[1.348737,52.752881],[1.356987,52.75132],[1.357173,52.748826],[1.356638,52.747549],[1.35705,52.746247],[1.357656,52.746397],[1.363844,52.745637],[1.363645,52.744762],[1.364601,52.744448],[1.371545,52.743255],[1.3742,52.742097],[1.379873,52.741218],[1.384826,52.739676],[1.385024,52.739379],[1.386531,52.739363],[1.387577,52.740059],[1.388828,52.739115],[1.390704,52.73853],[1.390805,52.736911],[1.392146,52.734672],[1.392513,52.732477],[1.394837,52.731079],[1.396565,52.731046],[1.397331,52.729106],[1.401041,52.730835],[1.405901,52.732514],[1.404822,52.728844],[1.39986,52.728596],[1.399748,52.728119],[1.400364,52.727399],[1.40137,52.727018],[1.406657,52.725912],[1.409702,52.725664],[1.408565,52.722784],[1.40756,52.722237],[1.407346,52.720974],[1.405288,52.721432],[1.403202,52.718698],[1.403767,52.71854],[1.402444,52.7157],[1.403859,52.715402],[1.408139,52.712667],[1.408639,52.70905],[1.410644,52.70875],[1.412045,52.707999],[1.413763,52.707632],[1.414299,52.706689],[1.417263,52.705969],[1.419095,52.70483],[1.42149,52.704822],[1.423955,52.70352],[1.423976,52.701969],[1.423458,52.701893],[1.423783,52.700929],[1.42274,52.698878],[1.419567,52.697295],[1.418197,52.695205],[1.415671,52.694753],[1.416,52.693521],[1.418649,52.691636],[1.421546,52.691509],[1.422693,52.690682],[1.424095,52.690296],[1.426056,52.690159],[1.429351,52.691305],[1.431702,52.689856],[1.433011,52.689475],[1.433951,52.68935],[1.435901,52.689966],[1.439509,52.691166],[1.439779,52.691605],[1.439073,52.692828],[1.439224,52.693441],[1.43994,52.693913],[1.441862,52.694356],[1.44293,52.695444],[1.442396,52.698625],[1.441419,52.700705],[1.441702,52.70127],[1.446797,52.702486],[1.449792,52.702835],[1.452412,52.702856],[1.455273,52.702403],[1.456897,52.70256],[1.460727,52.705248],[1.46119,52.704907],[1.461449,52.705043],[1.462375,52.704216],[1.462923,52.702541],[1.465176,52.699009],[1.468228,52.697571],[1.467162,52.695795],[1.467093,52.694623],[1.46844,52.693708],[1.47087,52.693504],[1.471599,52.693175],[1.471826,52.690293],[1.473769,52.689203],[1.475117,52.68897],[1.477152,52.689413],[1.481525,52.692549],[1.484052,52.693147],[1.48887,52.692849],[1.489344,52.691842],[1.48884,52.689331],[1.489375,52.68845],[1.49133,52.687642],[1.495117,52.686903],[1.498305,52.686726],[1.500061,52.687525],[1.500529,52.689498],[1.501893,52.690203],[1.503077,52.689888],[1.504627,52.688679],[1.505859,52.688754],[1.507592,52.689666],[1.509914,52.690148],[1.511464,52.690006],[1.512911,52.689194],[1.512951,52.688676],[1.509592,52.686087],[1.508926,52.684478],[1.509386,52.683231],[1.510408,52.682354],[1.511817,52.681616],[1.512936,52.681532],[1.512784,52.679966],[1.511389,52.679863],[1.509691,52.678815],[1.507491,52.675711],[1.507868,52.675695],[1.509837,52.677905],[1.510089,52.678647],[1.511316,52.679527],[1.512934,52.679693],[1.513493,52.681268],[1.516401,52.681952],[1.516399,52.681741],[1.517677,52.683058],[1.517322,52.684446],[1.518966,52.686704],[1.522859,52.685531],[1.524451,52.682961],[1.525961,52.68211],[1.527668,52.681653],[1.530788,52.681573],[1.532724,52.682922],[1.53546,52.683436],[1.536986,52.682918],[1.537214,52.681871],[1.537926,52.68131],[1.540164,52.680765],[1.54298,52.679483],[1.54629,52.679751],[1.5492,52.681223],[1.549828,52.681205],[1.551881,52.675261],[1.552904,52.673619],[1.553925,52.672585],[1.55608,52.671382],[1.559909,52.670007],[1.561094,52.66834],[1.561813,52.666043],[1.560559,52.66238],[1.55849,52.661369],[1.551811,52.660017],[1.5513,52.659668],[1.55822,52.661187],[1.560592,52.662054],[1.559753,52.658388],[1.556646,52.654334],[1.556778,52.651372],[1.559415,52.649731],[1.565882,52.64911],[1.5661,52.648543],[1.566603,52.648498],[1.56628,52.649074],[1.566888,52.64896],[1.567032,52.648563],[1.567086,52.64896],[1.567607,52.648901],[1.569134,52.648283],[1.569688,52.647088],[1.566548,52.643791],[1.565985,52.640445],[1.564925,52.640393],[1.566006,52.640399],[1.56618,52.639858],[1.561447,52.640535],[1.559639,52.640449],[1.566116,52.639732],[1.567738,52.637804],[1.569647,52.637238],[1.57175,52.637364],[1.574472,52.639283],[1.57744,52.637245],[1.58171,52.636451],[1.585163,52.636495],[1.588675,52.637901],[1.59085,52.6374],[1.588959,52.637942],[1.58851,52.637931],[1.58777,52.63777],[1.588753,52.638244],[1.589966,52.638163],[1.591331,52.637535],[1.591087,52.637334],[1.591755,52.636977],[1.591437,52.635455],[1.591851,52.636814],[1.591669,52.63715],[1.591125,52.637364],[1.591514,52.637464],[1.592135,52.63682],[1.591245,52.634249],[1.593522,52.631648],[1.592554,52.629082],[1.593845,52.628472],[1.597715,52.628278],[1.598254,52.627743],[1.598295,52.62639],[1.599577,52.625183],[1.606057,52.623773],[1.611177,52.624756],[1.61228,52.62541],[1.613979,52.627222],[1.616447,52.627839],[1.617759,52.628701],[1.618085,52.628288],[1.61744,52.625564],[1.619953,52.623581],[1.621151,52.623826],[1.621459,52.623539],[1.620502,52.624787],[1.621258,52.62552],[1.622405,52.625844],[1.622789,52.626558],[1.624515,52.626412],[1.625979,52.627103],[1.627323,52.62677],[1.629582,52.626997],[1.629559,52.627437],[1.630749,52.627869],[1.631685,52.630071],[1.63367,52.631447],[1.633527,52.632405],[1.634372,52.631831],[1.634097,52.63142],[1.634519,52.631675],[1.637545,52.63032],[1.642956,52.630198],[1.643085,52.629886],[1.643357,52.63021],[1.643999,52.630231],[1.641896,52.628898],[1.642346,52.628782],[1.641212,52.627286],[1.641615,52.626697],[1.648896,52.62453],[1.65418,52.624168],[1.658661,52.62519],[1.659346,52.625658],[1.662981,52.621198],[1.664838,52.619609],[1.665783,52.619519],[1.667485,52.618309],[1.668104,52.617636],[1.668076,52.616952],[1.669145,52.616707],[1.669628,52.617267],[1.671254,52.617347],[1.672753,52.616638],[1.673373,52.615347],[1.674163,52.614748],[1.676759,52.614343],[1.677926,52.613155],[1.677988,52.612175],[1.675168,52.609612],[1.673719,52.609371],[1.671354,52.610249],[1.668186,52.610205],[1.666832,52.60965],[1.665216,52.607997],[1.663266,52.607297],[1.661914,52.607083],[1.6593,52.60741],[1.655682,52.606529],[1.653921,52.605134],[1.654387,52.604565],[1.65382,52.603703],[1.650683,52.601976],[1.64557,52.602831],[1.642737,52.604605],[1.641977,52.604228],[1.642339,52.602999],[1.640366,52.601425],[1.639406,52.599189],[1.63705,52.59809],[1.634787,52.594683],[1.634823,52.592862],[1.63101,52.592502],[1.64436,52.589601],[1.645241,52.589155],[1.644521,52.588403],[1.640881,52.58839],[1.638787,52.587546],[1.637772,52.586019],[1.637862,52.583851],[1.636067,52.581832],[1.632977,52.58093],[1.632385,52.581159],[1.632077,52.580912],[1.629541,52.581005],[1.627367,52.579939],[1.626508,52.578528],[1.626329,52.576539],[1.625023,52.575399],[1.623663,52.574767],[1.620391,52.57371],[1.618476,52.573648],[1.616826,52.573971],[1.61452,52.57517],[1.611702,52.575391],[1.609558,52.575035],[1.607209,52.574188],[1.606724,52.572452],[1.608331,52.570216],[1.608023,52.569392],[1.606458,52.568689],[1.602684,52.56813],[1.600232,52.566828],[1.596908,52.564412],[1.59504,52.562204],[1.594978,52.560751],[1.594321,52.559691],[1.591833,52.558233],[1.589419,52.557853],[1.584157,52.55826],[1.582089,52.557856],[1.58017,52.556856],[1.578855,52.556743],[1.578121,52.556909],[1.578572,52.55743],[1.578089,52.557531],[1.577991,52.556947],[1.5775,52.557255],[1.577662,52.557689],[1.577311,52.557345],[1.57687,52.557761],[1.573703,52.558867],[1.56881,52.559338],[1.565905,52.559102],[1.563122,52.55777],[1.561299,52.557423],[1.560094,52.557634],[1.556467,52.559559],[1.554719,52.559808],[1.552693,52.559413],[1.546591,52.556266],[1.543884,52.555485],[1.541872,52.555529],[1.540596,52.555997],[1.539604,52.556979],[1.53856,52.561166],[1.538267,52.560857],[1.536024,52.562378],[1.534094,52.562637],[1.532876,52.562308],[1.530994,52.561043],[1.530009,52.559746],[1.528501,52.559542],[1.526162,52.560249],[1.522637,52.562591],[1.52168,52.563813],[1.521557,52.564987],[1.524901,52.568264],[1.524936,52.570018],[1.522908,52.573104],[1.518447,52.575842],[1.514987,52.576654],[1.512802,52.575935],[1.509609,52.573967],[1.507279,52.573019],[1.504831,52.57241],[1.504569,52.572571],[1.500303,52.571166],[1.497909,52.571324],[1.496303,52.572174],[1.49277,52.575597],[1.49191,52.578719],[1.488161,52.580869],[1.488599,52.584993],[1.488234,52.584926],[1.487395,52.586065],[1.483973,52.587978],[1.484137,52.588197],[1.483631,52.587859],[1.476345,52.586438],[1.473475,52.586467],[1.469291,52.587012],[1.467394,52.588109],[1.467338,52.590271],[1.466302,52.591675],[1.46227,52.594581],[1.456867,52.593932],[1.45459,52.594582],[1.45353,52.596012],[1.454847,52.599822],[1.453704,52.601454],[1.450744,52.602653],[1.447705,52.603217],[1.447465,52.603525],[1.444153,52.604513],[1.438387,52.609892],[1.437063,52.610835],[1.435585,52.611334],[1.442808,52.61649],[1.442249,52.616809],[1.441928,52.616552],[1.442446,52.616272],[1.441997,52.616353],[1.439391,52.614772],[1.439619,52.614629],[1.436131,52.612418],[1.435309,52.611481],[1.434629,52.611843],[1.434937,52.612209],[1.435349,52.612133],[1.435137,52.612446],[1.435494,52.61237],[1.435471,52.612672],[1.436726,52.613199],[1.436493,52.613363],[1.436901,52.613311],[1.436842,52.61376],[1.437361,52.613635],[1.437258,52.614002],[1.438041,52.614077],[1.438152,52.614582],[1.438485,52.614466],[1.438315,52.614703],[1.43936,52.615009],[1.439376,52.615473],[1.441304,52.61669],[1.441026,52.617041],[1.438416,52.61744],[1.437947,52.617183],[1.438777,52.61711],[1.438597,52.616814],[1.437896,52.616756],[1.438726,52.616583],[1.439192,52.617115],[1.43917,52.616498],[1.440313,52.616844],[1.439755,52.616431],[1.440209,52.616259],[1.440632,52.616727],[1.440602,52.6164],[1.439826,52.616026],[1.438116,52.616386],[1.439552,52.61591],[1.437528,52.615907],[1.439081,52.615571],[1.438681,52.615093],[1.437579,52.615485],[1.437472,52.615164],[1.438525,52.615027],[1.437437,52.61509],[1.43797,52.614774],[1.437066,52.615082],[1.437908,52.614694],[1.437501,52.614707],[1.437665,52.614459],[1.436955,52.614716],[1.43755,52.614372],[1.437033,52.614498],[1.437395,52.6143],[1.43701,52.614104],[1.43616,52.614455],[1.43596,52.61428],[1.436818,52.614022],[1.436618,52.61388],[1.435628,52.614168],[1.436443,52.613748],[1.436239,52.613478],[1.435403,52.613899],[1.43511,52.613739],[1.436141,52.613362],[1.43593,52.613162],[1.43513,52.613547],[1.435733,52.613019],[1.434483,52.613155],[1.434121,52.612771],[1.434821,52.61259],[1.434469,52.612035],[1.433526,52.612444],[1.433809,52.613227],[1.437349,52.616608],[1.437729,52.618322],[1.438288,52.618255],[1.438574,52.618746],[1.438423,52.619073],[1.437798,52.619048],[1.437901,52.619418],[1.436915,52.618896],[1.437328,52.619391],[1.436538,52.619185],[1.437059,52.619577],[1.436159,52.61936],[1.436766,52.620138],[1.436137,52.620233],[1.436292,52.61986],[1.435798,52.619576],[1.435428,52.619778],[1.43577,52.620179],[1.435269,52.619846],[1.434432,52.620149],[1.43495,52.620977],[1.432478,52.621384],[1.432565,52.621661],[1.433535,52.621469],[1.432941,52.621814],[1.432457,52.621691],[1.43236,52.621489],[1.431948,52.619708],[1.430652,52.618631],[1.429424,52.61832],[1.428266,52.618612],[1.424571,52.621556],[1.422064,52.622342],[1.420282,52.622258],[1.418396,52.621152],[1.416576,52.621348],[1.416263,52.621923],[1.416047,52.621425],[1.413545,52.621148],[1.410802,52.620015],[1.407697,52.617976],[1.406998,52.61395],[1.406123,52.613767],[1.404621,52.614579],[1.403208,52.614728],[1.400713,52.613233],[1.399925,52.61203],[1.399614,52.609292],[1.398842,52.608525],[1.393714,52.606294],[1.391473,52.604794],[1.387823,52.604622],[1.383845,52.605239],[1.381474,52.606358],[1.381007,52.608853],[1.378488,52.611916],[1.377222,52.614495],[1.377078,52.619524],[1.376663,52.620665],[1.37596,52.62109],[1.373481,52.621449],[1.370478,52.623617],[1.369237,52.624143],[1.369676,52.624816],[1.371536,52.624292],[1.371639,52.624655],[1.369558,52.625184],[1.369014,52.624191],[1.367822,52.624414],[1.368032,52.625244],[1.366235,52.62542],[1.366195,52.625108],[1.367845,52.625135],[1.367155,52.625013],[1.367581,52.624844],[1.367288,52.624511],[1.365569,52.624606],[1.360095,52.623176],[1.350764,52.621347],[1.349626,52.62166],[1.349209,52.622914],[1.347533,52.62437],[1.347557,52.6239],[1.34531,52.62409],[1.345324,52.624376],[1.347386,52.624417],[1.345332,52.624423],[1.345316,52.625222],[1.345225,52.624732],[1.344394,52.624772],[1.345207,52.624616],[1.345147,52.624084],[1.344601,52.624128],[1.343172,52.625367],[1.34123,52.625991],[1.333686,52.626326],[1.331947,52.626262],[1.329938,52.6251],[1.328948,52.626127],[1.329834,52.625002],[1.329532,52.624736],[1.325281,52.623188],[1.322525,52.625916],[1.326547,52.627013],[1.327227,52.62889],[1.328357,52.629736],[1.328768,52.630614],[1.329865,52.637584],[1.342244,52.641319],[1.340572,52.649708],[1.322977,52.645024],[1.314105,52.649419],[1.309126,52.652999],[1.307251,52.652774],[1.307141,52.652272],[1.29998,52.65329],[1.299758,52.652734],[1.295515,52.653326],[1.294032,52.653957],[1.29443,52.65428],[1.292601,52.654928],[1.292403,52.660187],[1.29304,52.660764],[1.292549,52.661293],[1.291706,52.66134],[1.292028,52.662962],[1.293853,52.666615],[1.2937,52.66851],[1.292105,52.66865],[1.293025,52.671481],[1.292066,52.671665],[1.29524,52.672911],[1.294423,52.673047],[1.294821,52.673616],[1.296685,52.674367],[1.299638,52.674268],[1.30014,52.676812],[1.297124,52.67708],[1.296991,52.67745],[1.296232,52.67746],[1.296041,52.678167],[1.295307,52.678703],[1.296058,52.681364],[1.295356,52.681584],[1.295232,52.682467],[1.292302,52.684912],[1.283033,52.677315],[1.262869,52.677392],[1.266285,52.673043],[1.26929,52.670932],[1.272225,52.666646],[1.272978,52.666767],[1.277073,52.665987],[1.277914,52.662839],[1.278628,52.662096],[1.280796,52.661916],[1.280472,52.660621],[1.284994,52.660174],[1.284225,52.657656],[1.27942,52.657217],[1.253316,52.64959],[1.253325,52.649161],[1.251166,52.64825],[1.248508,52.647743],[1.246622,52.649827],[1.246639,52.650679],[1.24788,52.652093],[1.2471,52.653384],[1.244102,52.655822],[1.24261,52.656589],[1.239596,52.657191],[1.234321,52.658985],[1.233458,52.660073],[1.233287,52.662587],[1.23517,52.664693],[1.234738,52.665782],[1.235457,52.666294],[1.234251,52.667996],[1.233103,52.668003],[1.231551,52.668581],[1.230985,52.669585],[1.229212,52.669222],[1.227601,52.670571],[1.22543,52.67121],[1.224558,52.672131],[1.221549,52.673108],[1.219752,52.672642],[1.218046,52.672656],[1.219218,52.670918],[1.218967,52.669163],[1.21813,52.66922],[1.216506,52.666201],[1.213124,52.662682],[1.210936,52.662336],[1.209914,52.66139],[1.207469,52.660595],[1.206599,52.660852],[1.205786,52.660073],[1.205036,52.659996],[1.202834,52.661103],[1.202363,52.661854],[1.202527,52.663516],[1.201922,52.664041],[1.20247,52.666768],[1.203562,52.667887],[1.203765,52.669084],[1.20361,52.669881],[1.202621,52.670341],[1.202674,52.671153],[1.20179,52.672911],[1.199187,52.675026],[1.197769,52.675682],[1.196861,52.675477],[1.196393,52.676985],[1.194617,52.677467],[1.193628,52.678074],[1.192092,52.677868],[1.190692,52.678516],[1.187113,52.677362],[1.184922,52.675514],[1.184395,52.674126],[1.18206,52.671686],[1.176203,52.667827],[1.174289,52.667258],[1.174294,52.665833],[1.173822,52.665125],[1.167462,52.664867],[1.163687,52.66521],[1.159951,52.666609],[1.152026,52.668139],[1.149551,52.669233],[1.147296,52.671366],[1.145697,52.668292],[1.146355,52.660032],[1.145669,52.659384],[1.138185,52.659767],[1.138888,52.657797],[1.137682,52.657703],[1.13801,52.655334],[1.140314,52.6551],[1.140197,52.654435],[1.140073,52.65386],[1.138672,52.653959],[1.137696,52.649812],[1.137705,52.646942],[1.137033,52.646934],[1.136481,52.644763],[1.135152,52.644816],[1.135202,52.642856],[1.132226,52.642571],[1.132058,52.645746],[1.123862,52.645137],[1.116083,52.645454],[1.109752,52.647278],[1.097646,52.649468],[1.098439,52.660128],[1.100485,52.664874],[1.100653,52.666867],[1.09979,52.670411],[1.099895,52.67285],[1.10302,52.675922],[1.104696,52.678253],[1.106564,52.679522],[1.105934,52.679749],[1.108322,52.682523],[1.106021,52.684837],[1.105257,52.684344],[1.101763,52.685979],[1.10205,52.686728],[1.101721,52.688476],[1.100775,52.689736],[1.094521,52.693675],[1.089922,52.696034],[1.087469,52.696778],[1.087129,52.699027],[1.085381,52.700735],[1.084247,52.702543],[1.085126,52.703994],[1.08998,52.70554],[1.092688,52.707744],[1.096492,52.709459],[1.099623,52.711853],[1.104,52.712792],[1.105203,52.714693],[1.10352,52.716307],[1.099829,52.71638],[1.099542,52.717288],[1.098134,52.717709],[1.096307,52.719518],[1.093716,52.719759],[1.092079,52.721103],[1.090525,52.721649],[1.090555,52.722614],[1.088553,52.723195],[1.087426,52.728614],[1.082848,52.729743],[1.082186,52.73212],[1.082536,52.734844],[1.081296,52.735602],[1.080725,52.736989],[1.080939,52.740212],[1.079724,52.74126],[1.07565,52.741688],[1.067326,52.743234],[1.063582,52.74346],[1.062338,52.743048],[1.061571,52.743182],[1.060367,52.743783],[1.059589,52.744943],[1.058311,52.745099],[1.057899,52.745589],[1.055807,52.746419],[1.055298,52.74778],[1.053703,52.749241],[1.05109,52.750413],[1.054373,52.755958],[1.055086,52.756133],[1.054984,52.757091],[1.052749,52.759656],[1.053329,52.761958],[1.051572,52.76311],[1.05155,52.763462],[1.044772,52.769043],[1.042049,52.770227],[1.04138,52.770231],[1.040452,52.76904],[1.036278,52.769729],[1.03384,52.76966],[1.033112,52.769195],[1.031566,52.769298],[1.028227,52.768611],[1.017448,52.764778],[1.011261,52.762986],[1.003208,52.765266],[1.000241,52.765785],[1.001107,52.772489],[1.001714,52.772451],[1.002232,52.776137],[0.999072,52.779006],[0.992167,52.780044],[0.992277,52.784011],[0.990368,52.784064],[0.991701,52.785394],[0.991395,52.78549],[0.991949,52.786633],[0.993544,52.788932],[0.996046,52.790882],[0.996652,52.79176],[0.996141,52.792282],[0.996983,52.792527],[0.996133,52.793563],[0.995554,52.795345],[0.993669,52.797338],[0.993516,52.799359],[0.995021,52.800788],[0.995533,52.800596],[0.998216,52.80098],[0.999499,52.801543],[1.001078,52.801401],[1.002559,52.802089],[1.004426,52.802294],[1.006527,52.801899],[1.010381,52.801978],[1.013582,52.801053],[1.017074,52.800673],[1.016942,52.80025],[1.018911,52.799969],[1.02228,52.800031],[1.019308,52.804671],[1.02,52.804746],[1.020759,52.806555],[1.022588,52.806887],[1.022132,52.807454],[1.028686,52.807102],[1.030482,52.80764],[1.031224,52.808156],[1.031988,52.810323],[1.034649,52.811266],[1.035345,52.811875],[1.037514,52.811934],[1.040128,52.811516],[1.042894,52.811984],[1.044278,52.811814],[1.047584,52.813117],[1.047597,52.813363],[1.060404,52.815029],[1.062025,52.814861],[1.06225,52.815165],[1.073387,52.816884],[1.079937,52.815465],[1.081686,52.815577],[1.083133,52.816121],[1.084709,52.815986],[1.085384,52.81561],[1.087902,52.815847],[1.088499,52.816163],[1.088266,52.816475],[1.089859,52.816879],[1.090492,52.816658],[1.092404,52.818313],[1.092774,52.819007],[1.092227,52.819538],[1.092944,52.819662],[1.093904,52.820858],[1.094828,52.820946],[1.095273,52.822073],[1.09585,52.822118],[1.095384,52.823133],[1.095582,52.824389],[1.097534,52.825803],[1.098408,52.827257],[1.100113,52.828575],[1.101787,52.829342],[1.104534,52.828471],[1.106659,52.826852],[1.110411,52.82485],[1.112426,52.824135],[1.114444,52.8221],[1.117281,52.821277],[1.118779,52.819532],[1.12438,52.818403],[1.127033,52.815986],[1.126872,52.8155],[1.128336,52.814592],[1.131501,52.815216],[1.134739,52.81469],[1.136095,52.81376],[1.143646,52.813092],[1.144407,52.812567],[1.149601,52.812105],[1.15047,52.815499],[1.148307,52.815907],[1.148281,52.818909],[1.147241,52.819002],[1.147056,52.82032],[1.14372,52.820646],[1.14527,52.823907],[1.146973,52.824217],[1.147478,52.823699],[1.154202,52.82179],[1.156455,52.8217],[1.162847,52.825029],[1.163979,52.826142],[1.165838,52.825806],[1.166394,52.82628],[1.166012,52.826674],[1.166538,52.827283],[1.166817,52.829434],[1.167238,52.8299],[1.168204,52.829672],[1.169645,52.82996],[1.169938,52.830301],[1.171637,52.830079],[1.172561,52.830611],[1.172858,52.830304],[1.173513,52.830588],[1.173864,52.830199],[1.174569,52.83041],[1.174824,52.829823],[1.175644,52.829381],[1.17554,52.828771],[1.176107,52.828011],[1.177418,52.827521],[1.179645,52.827151],[1.18026,52.827479],[1.180838,52.827181],[1.180505,52.824006],[1.181086,52.823457],[1.181001,52.821815],[1.182013,52.821484],[1.181098,52.820395],[1.184722,52.82047],[1.185182,52.819885],[1.18815,52.820123],[1.189676,52.819722],[1.191306,52.81846],[1.19277,52.816562],[1.193274,52.816611],[1.193388,52.815318],[1.195954,52.815409],[1.198155,52.815936],[1.20197,52.815672],[1.202985,52.81595],[1.20324,52.820068],[1.203935,52.822191],[1.206128,52.823245],[1.206866,52.824296],[1.206592,52.824597],[1.20711,52.824778],[1.206423,52.825291],[1.207442,52.824914],[1.207802,52.825102],[1.207264,52.826224],[1.207913,52.82651],[1.206661,52.826526],[1.206932,52.827239],[1.207886,52.828044],[1.20989,52.828009],[1.212815,52.828653],[1.214388,52.829714],[1.21447,52.829133],[1.215423,52.82891]]]]}}]}