{"type":"FeatureCollection","features":[{"type":"Feature","properties":{"slug":"bromsgrove","gss_code":"E07000234","name":"Bromsgrove"},"geometry":{"type":"Polygon","coordinates":[[[-2.095672,52.444917],[-2.09328,52.445283],[-2.092846,52.445002],[-2.094155,52.443758],[-2.092463,52.44302],[-2.090215,52.442594],[-2.090723,52.441571],[-2.090376,52.440954],[-2.089406,52.440693],[-2.088793,52.440141],[-2.087711,52.438243],[-2.087288,52.436853],[-2.087664,52.435854],[-2.087462,52.434565],[-2.086933,52.43463],[-2.086403,52.433612],[-2.085557,52.4334],[-2.086061,52.432875],[-2.084741,52.432133],[-2.083448,52.431999],[-2.082675,52.432289],[-2.082121,52.431729],[-2.079892,52.432272],[-2.078264,52.433045],[-2.077936,52.433938],[-2.074812,52.433998],[-2.074733,52.432706],[-2.074303,52.432695],[-2.073285,52.433783],[-2.070971,52.433702],[-2.069767,52.434335],[-2.068601,52.434469],[-2.068052,52.435195],[-2.067626,52.434722],[-2.068009,52.432964],[-2.067546,52.432559],[-2.062349,52.432455],[-2.063825,52.4307],[-2.06535,52.43044],[-2.066706,52.429741],[-2.066654,52.429217],[-2.065871,52.428808],[-2.065788,52.428087],[-2.062467,52.427431],[-2.060713,52.427538],[-2.059516,52.428857],[-2.058942,52.430792],[-2.059159,52.432625],[-2.058647,52.433577],[-2.058698,52.435028],[-2.059309,52.435397],[-2.059467,52.436248],[-2.060206,52.436399],[-2.059451,52.43726],[-2.05923,52.438866],[-2.059631,52.439369],[-2.058491,52.440767],[-2.055711,52.441314],[-2.053595,52.440617],[-2.052165,52.440533],[-2.051484,52.440829],[-2.04916,52.43968],[-2.047091,52.440407],[-2.046385,52.439956],[-2.044681,52.440074],[-2.04455,52.440678],[-2.040395,52.44128],[-2.039849,52.440718],[-2.039739,52.441404],[-2.037881,52.441558],[-2.037109,52.440723],[-2.037131,52.439839],[-2.03863,52.438979],[-2.038489,52.438519],[-2.039843,52.437558],[-2.03813,52.434066],[-2.03844,52.433729],[-2.037593,52.433073],[-2.038155,52.432496],[-2.037532,52.432458],[-2.03766,52.431561],[-2.036876,52.43099],[-2.037491,52.430855],[-2.036959,52.430548],[-2.037868,52.430075],[-2.037343,52.429698],[-2.037528,52.429309],[-2.038061,52.429247],[-2.038111,52.428802],[-2.037572,52.428041],[-2.036944,52.428038],[-2.036988,52.427546],[-2.029706,52.427302],[-2.028971,52.428847],[-2.029325,52.429044],[-2.027799,52.429231],[-2.02619,52.43016],[-2.026038,52.432094],[-2.023684,52.432609],[-2.023739,52.433332],[-2.024881,52.434042],[-2.024766,52.434882],[-2.01699,52.432683],[-2.015805,52.432664],[-2.01528,52.432174],[-2.015459,52.428611],[-2.013783,52.429552],[-2.012571,52.429805],[-2.013178,52.428721],[-2.009741,52.426522],[-2.007297,52.428094],[-2.006558,52.427928],[-2.004686,52.42841],[-2.004317,52.426371],[-2.003515,52.426261],[-2.003392,52.425392],[-2.001649,52.422999],[-2.002819,52.422331],[-2.001275,52.421872],[-2.002043,52.420988],[-2.000368,52.420244],[-1.999018,52.418714],[-1.99701,52.417942],[-1.997061,52.417426],[-1.991042,52.415413],[-1.988697,52.416369],[-1.988219,52.416989],[-1.986037,52.416726],[-1.988862,52.414122],[-1.991075,52.413559],[-1.993245,52.413573],[-1.995609,52.412496],[-1.996926,52.410354],[-1.997798,52.409738],[-2.001013,52.410309],[-2.002077,52.410871],[-2.00279,52.410678],[-2.004201,52.410969],[-2.004639,52.409223],[-2.006441,52.409134],[-2.008097,52.40862],[-2.009234,52.410363],[-2.010901,52.409528],[-2.012808,52.409461],[-2.012349,52.408205],[-2.012678,52.407317],[-2.014274,52.40688],[-2.015071,52.406123],[-2.017549,52.405582],[-2.020478,52.406868],[-2.022028,52.406817],[-2.02316,52.406292],[-2.024177,52.406371],[-2.027534,52.408105],[-2.027861,52.407885],[-2.027271,52.407568],[-2.027315,52.407113],[-2.028058,52.406432],[-2.033435,52.403033],[-2.033641,52.402328],[-2.031313,52.401004],[-2.029427,52.400571],[-2.025783,52.400418],[-2.025056,52.400664],[-2.02167,52.400099],[-2.020724,52.399342],[-2.01943,52.396482],[-2.018074,52.394949],[-2.016903,52.394261],[-2.015075,52.394669],[-2.014184,52.394225],[-2.013366,52.392073],[-2.012951,52.3887],[-2.011353,52.386181],[-2.00846,52.386962],[-2.006137,52.38567],[-2.005001,52.384155],[-2.004166,52.383957],[-2.002208,52.3842],[-2.002186,52.383529],[-2.001279,52.383565],[-2.000177,52.381632],[-1.99803,52.381062],[-1.994511,52.381181],[-1.99288,52.381952],[-1.988971,52.382642],[-1.988077,52.383596],[-1.98819,52.384503],[-1.983624,52.387334],[-1.978927,52.387872],[-1.978592,52.387514],[-1.977797,52.387704],[-1.975577,52.387111],[-1.972457,52.388126],[-1.971621,52.389216],[-1.970546,52.389657],[-1.969716,52.389689],[-1.96896,52.389212],[-1.968827,52.389458],[-1.966362,52.389465],[-1.964927,52.392188],[-1.960435,52.389093],[-1.959562,52.388989],[-1.959408,52.388242],[-1.958912,52.388248],[-1.953614,52.393371],[-1.952543,52.393321],[-1.945449,52.390696],[-1.939672,52.3896],[-1.936346,52.387905],[-1.934315,52.387236],[-1.934154,52.38755],[-1.934636,52.38789],[-1.932858,52.390325],[-1.932072,52.390505],[-1.928073,52.392891],[-1.928272,52.393139],[-1.924383,52.396693],[-1.923136,52.396225],[-1.922437,52.396856],[-1.918578,52.398193],[-1.918297,52.400134],[-1.916469,52.401544],[-1.915303,52.403164],[-1.91465,52.406755],[-1.913959,52.406661],[-1.913675,52.407464],[-1.910812,52.406691],[-1.909667,52.404447],[-1.906626,52.404094],[-1.904588,52.403146],[-1.90069,52.403836],[-1.896133,52.403327],[-1.892381,52.404433],[-1.885939,52.404688],[-1.886193,52.404357],[-1.882697,52.399813],[-1.878354,52.399898],[-1.877866,52.402429],[-1.872334,52.402157],[-1.872378,52.404678],[-1.868767,52.404712],[-1.868682,52.4042],[-1.866281,52.404556],[-1.865023,52.40436],[-1.864801,52.404774],[-1.863822,52.404363],[-1.863495,52.404568],[-1.861775,52.403553],[-1.857043,52.402698],[-1.853204,52.401442],[-1.851704,52.400554],[-1.850646,52.401823],[-1.845474,52.400406],[-1.845598,52.399427],[-1.84755,52.395412],[-1.84998,52.393182],[-1.858195,52.387424],[-1.857284,52.386649],[-1.858078,52.386461],[-1.861355,52.383848],[-1.860945,52.383202],[-1.8618,52.381444],[-1.861301,52.380097],[-1.862043,52.378995],[-1.86194,52.37849],[-1.863119,52.37745],[-1.863445,52.376048],[-1.865026,52.374519],[-1.865328,52.37363],[-1.8666,52.373278],[-1.866766,52.372709],[-1.867558,52.372288],[-1.86754,52.371701],[-1.868952,52.370669],[-1.868914,52.370281],[-1.870238,52.369924],[-1.869999,52.369463],[-1.870495,52.368647],[-1.873687,52.366089],[-1.873463,52.365343],[-1.876125,52.363582],[-1.876666,52.363765],[-1.879658,52.362555],[-1.880863,52.362665],[-1.884318,52.361722],[-1.887805,52.36146],[-1.888974,52.361093],[-1.886617,52.356361],[-1.885169,52.356052],[-1.884546,52.354473],[-1.884871,52.353695],[-1.880064,52.348974],[-1.876075,52.345669],[-1.87476,52.340167],[-1.872827,52.337019],[-1.871196,52.335978],[-1.868449,52.333005],[-1.865368,52.333336],[-1.864877,52.333107],[-1.86751,52.331262],[-1.866638,52.318203],[-1.86717,52.318154],[-1.868469,52.314773],[-1.870378,52.312579],[-1.874813,52.312465],[-1.880953,52.310871],[-1.890007,52.318242],[-1.890956,52.320504],[-1.891869,52.321426],[-1.893028,52.321353],[-1.895025,52.321849],[-1.897545,52.321547],[-1.898968,52.322067],[-1.899005,52.321783],[-1.908784,52.320473],[-1.909388,52.323515],[-1.912153,52.32297],[-1.91415,52.323075],[-1.922065,52.322477],[-1.926325,52.323707],[-1.93309,52.324212],[-1.93931,52.323759],[-1.94095,52.323237],[-1.943009,52.320931],[-1.944873,52.321517],[-1.950008,52.321979],[-1.952586,52.319866],[-1.955012,52.320962],[-1.955767,52.318983],[-1.956986,52.317641],[-1.957871,52.318313],[-1.9586,52.318217],[-1.958348,52.317547],[-1.959918,52.31639],[-1.95994,52.315933],[-1.960512,52.315661],[-1.960202,52.315083],[-1.960717,52.314699],[-1.969603,52.315026],[-1.968686,52.312965],[-1.973974,52.308422],[-1.977424,52.309843],[-1.980631,52.309211],[-1.982006,52.308306],[-1.979873,52.306064],[-1.976492,52.30371],[-1.979108,52.300898],[-1.980602,52.300232],[-1.981597,52.299332],[-1.984983,52.300093],[-1.984839,52.298963],[-1.983413,52.298756],[-1.984047,52.295397],[-1.983715,52.295027],[-1.985181,52.293393],[-1.984151,52.2921],[-1.988427,52.289902],[-1.990895,52.29205],[-1.992797,52.290613],[-1.994862,52.290515],[-2.002018,52.288139],[-1.999175,52.285634],[-1.997953,52.283598],[-2.00246,52.279582],[-2.003939,52.279249],[-2.004763,52.279527],[-2.005018,52.279086],[-2.006309,52.278531],[-2.00797,52.278681],[-2.009154,52.27806],[-2.010354,52.278743],[-2.011692,52.278366],[-2.01505,52.278516],[-2.02002,52.279554],[-2.020915,52.278727],[-2.022901,52.278433],[-2.023255,52.278099],[-2.024819,52.280382],[-2.027616,52.28101],[-2.030467,52.282544],[-2.0344,52.282832],[-2.033894,52.283151],[-2.035233,52.283652],[-2.035619,52.284318],[-2.035975,52.284219],[-2.038388,52.28563],[-2.041525,52.286517],[-2.043319,52.287398],[-2.047012,52.287863],[-2.051201,52.286972],[-2.055543,52.284705],[-2.060889,52.284194],[-2.061853,52.284743],[-2.070821,52.287292],[-2.074195,52.288635],[-2.076741,52.289079],[-2.084296,52.28886],[-2.087584,52.289049],[-2.089337,52.289485],[-2.091791,52.288574],[-2.087424,52.294483],[-2.08488,52.296953],[-2.087678,52.303519],[-2.08796,52.303839],[-2.08969,52.303403],[-2.090308,52.303864],[-2.090402,52.304922],[-2.088708,52.306339],[-2.087232,52.309894],[-2.085278,52.312141],[-2.085186,52.312707],[-2.085861,52.313217],[-2.085164,52.313499],[-2.08633,52.314525],[-2.095104,52.313366],[-2.094112,52.315424],[-2.095643,52.314543],[-2.10031,52.313429],[-2.102167,52.31345],[-2.10996,52.314609],[-2.11234,52.314426],[-2.114482,52.313459],[-2.114308,52.313173],[-2.117126,52.313145],[-2.124055,52.314503],[-2.122194,52.316625],[-2.118591,52.319041],[-2.115747,52.322097],[-2.118387,52.322748],[-2.117863,52.323032],[-2.11859,52.325171],[-2.117298,52.325177],[-2.117614,52.326568],[-2.117035,52.327257],[-2.116149,52.3271],[-2.118475,52.332088],[-2.117533,52.335331],[-2.116283,52.335538],[-2.11523,52.335129],[-2.114668,52.335336],[-2.113514,52.336318],[-2.113283,52.337162],[-2.114167,52.337818],[-2.114198,52.338522],[-2.116465,52.338764],[-2.11609,52.340181],[-2.116774,52.340113],[-2.117416,52.341634],[-2.116979,52.342026],[-2.118858,52.342224],[-2.119283,52.341458],[-2.121291,52.340334],[-2.124681,52.340264],[-2.124752,52.341993],[-2.122775,52.34238],[-2.123094,52.342764],[-2.125341,52.343947],[-2.126386,52.345569],[-2.129031,52.345641],[-2.131471,52.34708],[-2.129086,52.350677],[-2.127325,52.351975],[-2.127727,52.352238],[-2.129723,52.352049],[-2.130731,52.351328],[-2.132006,52.350117],[-2.133017,52.348013],[-2.137169,52.34998],[-2.135967,52.351133],[-2.135856,52.351753],[-2.135526,52.351591],[-2.135342,52.353051],[-2.134115,52.353282],[-2.132466,52.354655],[-2.132427,52.355372],[-2.131245,52.356487],[-2.130759,52.35793],[-2.128545,52.358474],[-2.125801,52.358662],[-2.124314,52.359282],[-2.12241,52.358791],[-2.121424,52.358858],[-2.119213,52.357889],[-2.119566,52.359526],[-2.120967,52.360606],[-2.121212,52.361263],[-2.1209,52.363022],[-2.120186,52.363343],[-2.120096,52.363848],[-2.121867,52.366305],[-2.122496,52.366488],[-2.12209,52.366853],[-2.123135,52.372993],[-2.124352,52.374211],[-2.128447,52.382123],[-2.131119,52.385381],[-2.132521,52.386196],[-2.131461,52.387886],[-2.129896,52.388797],[-2.132251,52.390007],[-2.132068,52.390328],[-2.1334,52.391446],[-2.133395,52.391883],[-2.137701,52.393899],[-2.136192,52.395394],[-2.137856,52.395526],[-2.135182,52.398566],[-2.132034,52.39819],[-2.131352,52.399461],[-2.130974,52.399383],[-2.129236,52.400762],[-2.126023,52.402244],[-2.127233,52.402836],[-2.126248,52.403304],[-2.127733,52.40462],[-2.127517,52.405042],[-2.128496,52.406052],[-2.134036,52.4103],[-2.144505,52.411402],[-2.144255,52.41002],[-2.145735,52.409567],[-2.154465,52.409799],[-2.158264,52.409284],[-2.160322,52.416477],[-2.162016,52.416169],[-2.162575,52.415626],[-2.163171,52.416167],[-2.163922,52.417244],[-2.163887,52.419229],[-2.16467,52.42151],[-2.167707,52.42378],[-2.163811,52.423258],[-2.16417,52.423908],[-2.164173,52.427884],[-2.164851,52.430204],[-2.146603,52.426373],[-2.143578,52.426054],[-2.136027,52.426268],[-2.135479,52.428061],[-2.133091,52.427618],[-2.132274,52.42993],[-2.13046,52.429632],[-2.12927,52.429901],[-2.12975,52.430727],[-2.129021,52.430918],[-2.129697,52.43221],[-2.122881,52.433421],[-2.119662,52.434719],[-2.117519,52.433944],[-2.117248,52.43436],[-2.114643,52.43566],[-2.112897,52.437415],[-2.111757,52.437278],[-2.108777,52.441223],[-2.107025,52.442206],[-2.105249,52.444208],[-2.10224,52.443962],[-2.098565,52.445284],[-2.095672,52.444917]]]}}]}