{"type":"FeatureCollection","features":[{"type":"Feature","properties":{"slug":"bromley","gss_code":"E09000006","name":"Bromley"},"geometry":{"type":"Polygon","coordinates":[[[0.047998,51.4336],[0.051058,51.431525],[0.054432,51.427933],[0.058207,51.424872],[0.058599,51.424595],[0.061007,51.425082],[0.061705,51.4237],[0.063138,51.424135],[0.064462,51.425034],[0.064157,51.425334],[0.066581,51.426009],[0.066619,51.426503],[0.071701,51.429443],[0.073476,51.431249],[0.073079,51.431355],[0.073355,51.431761],[0.074374,51.431462],[0.074861,51.430814],[0.07536,51.431987],[0.081162,51.430646],[0.083213,51.429869],[0.089224,51.423994],[0.095128,51.420083],[0.104483,51.415225],[0.107598,51.414094],[0.113124,51.412906],[0.11992,51.4134],[0.125435,51.414779],[0.12827,51.414959],[0.132845,51.414247],[0.13918,51.411597],[0.148869,51.408429],[0.148692,51.408131],[0.1511,51.406642],[0.152822,51.406273],[0.155249,51.403971],[0.154967,51.403659],[0.155514,51.403575],[0.156435,51.402494],[0.157361,51.400783],[0.157729,51.398147],[0.15898,51.395821],[0.162384,51.39249],[0.158274,51.39224],[0.147741,51.392801],[0.147534,51.392156],[0.149836,51.390872],[0.148654,51.388668],[0.149417,51.387855],[0.148902,51.387572],[0.150459,51.386018],[0.149992,51.385841],[0.1498,51.38487],[0.149787,51.383671],[0.150466,51.383447],[0.150373,51.381093],[0.149609,51.38109],[0.149613,51.38009],[0.151133,51.379896],[0.150975,51.379085],[0.152353,51.37869],[0.15219,51.378336],[0.153236,51.378036],[0.152537,51.37523],[0.151736,51.375436],[0.1496,51.373583],[0.150834,51.372921],[0.151206,51.372187],[0.150127,51.370157],[0.152058,51.369694],[0.15162,51.368379],[0.151025,51.368322],[0.149438,51.369163],[0.148877,51.368124],[0.14728,51.367014],[0.148348,51.366372],[0.145049,51.362851],[0.145391,51.362503],[0.144501,51.361061],[0.144563,51.360691],[0.145389,51.360337],[0.144848,51.358435],[0.145895,51.358225],[0.145114,51.355764],[0.144046,51.354862],[0.143631,51.353018],[0.14314,51.353049],[0.142876,51.352659],[0.14262,51.350735],[0.140984,51.350146],[0.141287,51.349779],[0.138714,51.347525],[0.139493,51.3473],[0.139441,51.346983],[0.138268,51.347085],[0.137197,51.345872],[0.1362,51.345937],[0.137109,51.344801],[0.136958,51.344175],[0.131777,51.345507],[0.131669,51.345194],[0.125213,51.345868],[0.122239,51.344658],[0.118456,51.344148],[0.117587,51.343129],[0.117232,51.343164],[0.116681,51.341303],[0.117283,51.339781],[0.118471,51.339982],[0.119014,51.338684],[0.118299,51.338405],[0.120011,51.33474],[0.121684,51.333636],[0.120246,51.332137],[0.117892,51.330621],[0.1179,51.329647],[0.117336,51.329499],[0.116642,51.330004],[0.115744,51.329507],[0.114211,51.327398],[0.110154,51.328036],[0.109759,51.326684],[0.107238,51.327524],[0.104902,51.327413],[0.103241,51.325996],[0.100792,51.325586],[0.100176,51.324072],[0.09618,51.321293],[0.092777,51.319811],[0.087785,51.318312],[0.086822,51.317193],[0.085029,51.316023],[0.085642,51.314785],[0.085071,51.312599],[0.083572,51.310528],[0.084748,51.308346],[0.084086,51.308049],[0.084878,51.306045],[0.082816,51.305634],[0.085433,51.302519],[0.086211,51.300174],[0.089396,51.297764],[0.091185,51.296827],[0.089262,51.296086],[0.085693,51.293084],[0.08158,51.291835],[0.073368,51.291605],[0.067563,51.290383],[0.05851,51.289354],[0.05605,51.292395],[0.05439,51.292089],[0.05079,51.293987],[0.048496,51.293722],[0.045732,51.294004],[0.044767,51.293087],[0.042396,51.292673],[0.043313,51.296582],[0.044298,51.298581],[0.043093,51.299054],[0.04262,51.301329],[0.041543,51.30298],[0.040918,51.302721],[0.036337,51.305863],[0.032909,51.307521],[0.030282,51.305558],[0.027978,51.304685],[0.024839,51.302155],[0.023599,51.299704],[0.020953,51.296778],[0.020874,51.295572],[0.019101,51.291684],[0.015009,51.291786],[0.008386,51.310561],[0.010354,51.316146],[0.006598,51.315685],[0.005546,51.318444],[0.00487,51.322076],[0.002255,51.329135],[0.002173,51.329778],[0.00294,51.330409],[0.003313,51.332155],[0.000864,51.333602],[-0.00296,51.345519],[-0.004617,51.349593],[-0.005309,51.352575],[-0.008561,51.355758],[-0.011768,51.357247],[-0.013146,51.357231],[-0.015558,51.358813],[-0.018289,51.361236],[-0.018877,51.362741],[-0.022272,51.365883],[-0.023568,51.365291],[-0.024461,51.366768],[-0.023104,51.367017],[-0.023592,51.372227],[-0.026114,51.376489],[-0.026767,51.379376],[-0.027974,51.379363],[-0.028347,51.378103],[-0.029816,51.377338],[-0.036779,51.376996],[-0.03636,51.37901],[-0.036958,51.378962],[-0.037842,51.383267],[-0.036523,51.388432],[-0.042816,51.389463],[-0.04492,51.390698],[-0.046168,51.392017],[-0.046816,51.391839],[-0.048056,51.393143],[-0.051248,51.393471],[-0.051702,51.393996],[-0.052425,51.394154],[-0.052589,51.394618],[-0.053473,51.394915],[-0.051019,51.396987],[-0.050419,51.398013],[-0.050816,51.397652],[-0.052107,51.398259],[-0.050608,51.399524],[-0.052931,51.401437],[-0.056787,51.40053],[-0.059415,51.399231],[-0.06053,51.399139],[-0.06014,51.399565],[-0.06222,51.401548],[-0.064617,51.401722],[-0.06448,51.402037],[-0.066503,51.402632],[-0.068571,51.403841],[-0.069961,51.406002],[-0.072835,51.408486],[-0.073522,51.410562],[-0.072743,51.412689],[-0.075149,51.413542],[-0.076483,51.414427],[-0.080368,51.415541],[-0.081083,51.417305],[-0.078557,51.419874],[-0.075041,51.425627],[-0.073907,51.426213],[-0.070886,51.426232],[-0.068902,51.42563],[-0.068658,51.425993],[-0.067886,51.425925],[-0.066022,51.425075],[-0.065809,51.425331],[-0.064553,51.425058],[-0.064408,51.425319],[-0.062404,51.425155],[-0.061426,51.424798],[-0.061405,51.424471],[-0.058099,51.423172],[-0.056755,51.422965],[-0.055136,51.422943],[-0.054737,51.423726],[-0.051802,51.42357],[-0.051748,51.422517],[-0.045992,51.422795],[-0.046251,51.422375],[-0.043676,51.422893],[-0.04381,51.423154],[-0.041572,51.423652],[-0.040997,51.424263],[-0.038453,51.423957],[-0.03747,51.424982],[-0.034195,51.42511],[-0.034213,51.424754],[-0.031794,51.42471],[-0.031971,51.425536],[-0.030081,51.425645],[-0.025963,51.423612],[-0.02434,51.423117],[-0.022574,51.421557],[-0.022242,51.421776],[-0.020998,51.420976],[-0.021649,51.420442],[-0.020759,51.419946],[-0.021396,51.418342],[-0.022558,51.417564],[-0.021697,51.417279],[-0.022174,51.416742],[-0.020999,51.416024],[-0.017798,51.415744],[-0.017967,51.415056],[-0.014274,51.415161],[-0.014538,51.413931],[-0.01424,51.41365],[-0.010312,51.413578],[-0.006591,51.414663],[-0.006553,51.415979],[-0.005583,51.41582],[-0.004967,51.4146],[-0.00328,51.415036],[-0.003391,51.415651],[-0.000729,51.415907],[-0.000119,51.417575],[0.001743,51.418586],[0.003534,51.417427],[0.005671,51.418526],[0.005216,51.419356],[0.006309,51.42103],[0.006729,51.420945],[0.006863,51.421503],[0.007389,51.421402],[0.008106,51.42304],[0.009982,51.422482],[0.011883,51.424086],[0.013366,51.424682],[0.013539,51.425102],[0.014418,51.425215],[0.01412,51.426175],[0.015981,51.42619],[0.018748,51.427058],[0.021219,51.426863],[0.025459,51.428973],[0.036231,51.422389],[0.039056,51.424688],[0.038474,51.427584],[0.037845,51.427801],[0.038365,51.428281],[0.03754,51.431368],[0.037709,51.433341],[0.033737,51.431695],[0.033256,51.432231],[0.032494,51.431891],[0.031607,51.432555],[0.031159,51.432094],[0.031405,51.432583],[0.028593,51.434034],[0.029087,51.434674],[0.028687,51.43641],[0.027181,51.436527],[0.025436,51.435667],[0.024782,51.438208],[0.028816,51.438772],[0.028593,51.440404],[0.030549,51.444328],[0.033503,51.443582],[0.035526,51.442469],[0.039755,51.440981],[0.042171,51.43949],[0.043336,51.437749],[0.045191,51.436601],[0.045137,51.436238],[0.047998,51.4336]]]}}]}