{"type":"FeatureCollection","features":[{"type":"Feature","properties":{"slug":"broxbourne","gss_code":"E07000095","name":"Broxbourne"},"geometry":{"type":"Polygon","coordinates":[[[-0.012478,51.779136],[0.005574,51.780069],[0.002005,51.77575],[0.002806,51.774025],[0.00416,51.772812],[0.00523,51.770923],[0.00731,51.769073],[0.008671,51.768545],[0.009196,51.767708],[0.010478,51.767301],[0.011131,51.766468],[0.01205,51.766126],[0.012082,51.764922],[0.014029,51.76438],[0.013745,51.764315],[0.014512,51.76321],[0.013135,51.762858],[0.012082,51.760982],[0.013389,51.758946],[0.013475,51.758116],[0.012992,51.757465],[0.010078,51.755602],[0.004171,51.755372],[0.002265,51.754147],[0.003263,51.753568],[0.001769,51.745921],[0.001257,51.745136],[-0.004925,51.742081],[-0.006234,51.74171],[-0.007425,51.741733],[-0.012049,51.743001],[-0.01298,51.742751],[-0.013511,51.742217],[-0.013593,51.740971],[-0.012635,51.737611],[-0.013747,51.7354],[-0.012968,51.733394],[-0.013924,51.731444],[-0.013536,51.728387],[-0.01412,51.723121],[-0.0155,51.715328],[-0.017579,51.707403],[-0.01973,51.703274],[-0.016156,51.689891],[-0.011958,51.687075],[-0.010947,51.685552],[-0.011802,51.683935],[-0.011919,51.680878],[-0.019772,51.681152],[-0.028377,51.682332],[-0.043672,51.683097],[-0.043658,51.683352],[-0.047059,51.683439],[-0.049309,51.684244],[-0.051704,51.683537],[-0.057013,51.682973],[-0.062089,51.682977],[-0.06715,51.684056],[-0.078959,51.688843],[-0.083889,51.689913],[-0.094829,51.690098],[-0.098401,51.690911],[-0.105779,51.691876],[-0.106061,51.692618],[-0.105668,51.694344],[-0.106401,51.696747],[-0.107491,51.705514],[-0.107172,51.707998],[-0.107568,51.711171],[-0.107332,51.712789],[-0.105529,51.71357],[-0.108021,51.714119],[-0.111876,51.717073],[-0.113379,51.718707],[-0.114083,51.720807],[-0.110239,51.723176],[-0.107938,51.72533],[-0.10751,51.725358],[-0.105487,51.727681],[-0.105264,51.728911],[-0.103138,51.729246],[-0.101851,51.730122],[-0.102378,51.731745],[-0.101838,51.731817],[-0.101459,51.732976],[-0.098654,51.735946],[-0.088801,51.735314],[-0.081247,51.734392],[-0.069177,51.734272],[-0.065436,51.734733],[-0.062856,51.734512],[-0.058351,51.734701],[-0.055079,51.736987],[-0.055076,51.740792],[-0.055719,51.740866],[-0.055466,51.742536],[-0.052409,51.742345],[-0.050759,51.744178],[-0.050745,51.747001],[-0.049931,51.750901],[-0.050306,51.750922],[-0.048848,51.761346],[-0.048783,51.764918],[-0.047896,51.768813],[-0.046921,51.769165],[-0.045619,51.770231],[-0.044605,51.770234],[-0.038879,51.772576],[-0.038537,51.772107],[-0.037055,51.772675],[-0.034646,51.772816],[-0.033468,51.773704],[-0.032591,51.773677],[-0.030354,51.77155],[-0.028207,51.7714],[-0.028012,51.772149],[-0.025455,51.772112],[-0.026078,51.774333],[-0.024173,51.774107],[-0.023027,51.773504],[-0.021676,51.773535],[-0.0212,51.773922],[-0.021225,51.775069],[-0.019976,51.775581],[-0.020044,51.776207],[-0.017638,51.776711],[-0.01889,51.776592],[-0.019259,51.77713],[-0.019822,51.777188],[-0.019455,51.778404],[-0.021046,51.778684],[-0.019834,51.778958],[-0.01992,51.779716],[-0.018125,51.779662],[-0.018103,51.780524],[-0.012708,51.780505],[-0.012478,51.779136]]]}}]}