{"type":"FeatureCollection","features":[{"type":"Feature","properties":{"slug":"broxtowe","gss_code":"E07000172","name":"Broxtowe"},"geometry":{"type":"Polygon","coordinates":[[[-1.322604,53.049241],[-1.321053,53.049035],[-1.320139,53.047822],[-1.319001,53.047329],[-1.317449,53.047989],[-1.31441,53.048249],[-1.310442,53.046368],[-1.311014,53.048011],[-1.310688,53.048349],[-1.308095,53.04785],[-1.30682,53.047261],[-1.305772,53.046164],[-1.306954,53.045055],[-1.307845,53.043011],[-1.305138,53.044852],[-1.303525,53.041884],[-1.301185,53.043269],[-1.300944,53.04417],[-1.299103,53.046326],[-1.298115,53.046511],[-1.295286,53.046105],[-1.288036,53.048256],[-1.284826,53.048227],[-1.281513,53.047759],[-1.280499,53.04704],[-1.278753,53.047091],[-1.276762,53.045558],[-1.277638,53.044466],[-1.278615,53.043961],[-1.275579,53.04318],[-1.272632,53.041938],[-1.270664,53.041844],[-1.270212,53.040348],[-1.268589,53.039],[-1.267062,53.038909],[-1.266045,53.038353],[-1.263759,53.038427],[-1.262988,53.039234],[-1.258229,53.040388],[-1.257636,53.040934],[-1.253092,53.039626],[-1.251865,53.038406],[-1.247405,53.035688],[-1.247113,53.035067],[-1.238776,53.03263],[-1.24126,53.031151],[-1.235361,53.027918],[-1.234818,53.026872],[-1.229064,53.022744],[-1.231913,53.021142],[-1.231623,53.020109],[-1.231967,53.019481],[-1.230956,53.01846],[-1.23112,53.016985],[-1.230664,53.016233],[-1.232546,53.01273],[-1.232597,53.011367],[-1.23149,53.010512],[-1.231087,53.009527],[-1.229329,53.008827],[-1.228234,53.008929],[-1.222879,53.007423],[-1.221092,53.007439],[-1.218634,53.006505],[-1.220043,53.005299],[-1.220436,53.003393],[-1.216402,53.000426],[-1.213921,52.997385],[-1.217809,52.994205],[-1.219115,52.991444],[-1.212364,52.990422],[-1.209206,52.989092],[-1.203408,52.987541],[-1.203612,52.987024],[-1.205294,52.987391],[-1.205489,52.987121],[-1.210526,52.986163],[-1.213163,52.984744],[-1.213875,52.983719],[-1.215052,52.983144],[-1.217937,52.983984],[-1.222529,52.986027],[-1.224093,52.984162],[-1.22201,52.983325],[-1.222764,52.982251],[-1.223696,52.981682],[-1.224863,52.982247],[-1.226079,52.981174],[-1.235058,52.982546],[-1.239381,52.982654],[-1.242131,52.983588],[-1.245461,52.98522],[-1.246839,52.984543],[-1.246506,52.98311],[-1.244888,52.981186],[-1.243757,52.978803],[-1.242608,52.977827],[-1.240865,52.978044],[-1.239854,52.977603],[-1.239818,52.976501],[-1.237114,52.971884],[-1.236799,52.971502],[-1.235075,52.971476],[-1.231979,52.967643],[-1.237824,52.966465],[-1.239167,52.965398],[-1.239542,52.964014],[-1.240762,52.963051],[-1.240995,52.962417],[-1.241921,52.962151],[-1.24329,52.960914],[-1.242952,52.960805],[-1.243351,52.959468],[-1.245723,52.955908],[-1.246827,52.953105],[-1.245791,52.95094],[-1.245071,52.950393],[-1.244719,52.949523],[-1.241841,52.947671],[-1.23787,52.945758],[-1.235658,52.945284],[-1.234193,52.943536],[-1.234281,52.942078],[-1.231401,52.942274],[-1.226897,52.941083],[-1.22634,52.942419],[-1.224259,52.942464],[-1.222791,52.941406],[-1.22103,52.940805],[-1.218084,52.940593],[-1.216222,52.937189],[-1.214715,52.936084],[-1.215292,52.933992],[-1.209347,52.933308],[-1.20889,52.933999],[-1.20605,52.932767],[-1.205108,52.933397],[-1.202639,52.932022],[-1.200465,52.930254],[-1.198996,52.93123],[-1.196631,52.929649],[-1.19742,52.929121],[-1.182301,52.917336],[-1.187532,52.914788],[-1.191127,52.91363],[-1.197564,52.909963],[-1.199009,52.909479],[-1.205709,52.912442],[-1.208297,52.912648],[-1.210505,52.91227],[-1.212079,52.911485],[-1.213356,52.91018],[-1.213825,52.905645],[-1.214423,52.90462],[-1.21392,52.904415],[-1.214843,52.903733],[-1.220164,52.902358],[-1.220798,52.900423],[-1.21922,52.896909],[-1.220493,52.895564],[-1.222547,52.89531],[-1.227747,52.89556],[-1.230252,52.894707],[-1.230815,52.894052],[-1.233457,52.89292],[-1.235919,52.892393],[-1.239706,52.892289],[-1.239802,52.894454],[-1.24082,52.895265],[-1.241826,52.895344],[-1.242592,52.896244],[-1.244633,52.896551],[-1.244388,52.897002],[-1.246274,52.897565],[-1.246719,52.89841],[-1.247511,52.898792],[-1.246957,52.899325],[-1.247501,52.899833],[-1.24732,52.900175],[-1.24505,52.90217],[-1.246583,52.903082],[-1.247655,52.903187],[-1.250692,52.902615],[-1.251204,52.902005],[-1.253311,52.902458],[-1.253988,52.901945],[-1.25642,52.901789],[-1.259565,52.903465],[-1.265275,52.905051],[-1.267496,52.905293],[-1.274048,52.905129],[-1.275857,52.905927],[-1.280468,52.908916],[-1.28196,52.91079],[-1.283535,52.916796],[-1.283524,52.918634],[-1.282822,52.919289],[-1.282519,52.921459],[-1.285196,52.924563],[-1.285777,52.926065],[-1.283644,52.927794],[-1.281576,52.92889],[-1.280614,52.93047],[-1.278211,52.932834],[-1.278377,52.934368],[-1.277842,52.93576],[-1.279159,52.936828],[-1.278839,52.937645],[-1.279413,52.938059],[-1.279046,52.938928],[-1.280475,52.939487],[-1.28112,52.94077],[-1.281225,52.941133],[-1.280266,52.941622],[-1.282201,52.944391],[-1.281712,52.945054],[-1.282901,52.945158],[-1.28191,52.94639],[-1.281368,52.946437],[-1.28126,52.947209],[-1.282088,52.947529],[-1.282142,52.947954],[-1.281031,52.949158],[-1.282404,52.950197],[-1.282414,52.951235],[-1.284149,52.952528],[-1.285749,52.952846],[-1.286429,52.953856],[-1.288224,52.954519],[-1.288996,52.95402],[-1.290219,52.954565],[-1.290653,52.954151],[-1.291848,52.954998],[-1.29166,52.955414],[-1.292501,52.955574],[-1.291692,52.95616],[-1.290563,52.959774],[-1.289464,52.960823],[-1.288606,52.961069],[-1.289162,52.96448],[-1.288665,52.964948],[-1.289286,52.96541],[-1.288528,52.965918],[-1.289417,52.966321],[-1.288254,52.96759],[-1.287729,52.967652],[-1.287625,52.968828],[-1.288403,52.969039],[-1.287749,52.969662],[-1.288376,52.96976],[-1.288664,52.969336],[-1.28881,52.969877],[-1.289623,52.969731],[-1.290676,52.970676],[-1.29747,52.984674],[-1.296746,52.985158],[-1.296181,52.984946],[-1.295652,52.985669],[-1.295355,52.98543],[-1.294579,52.98579],[-1.294678,52.986917],[-1.295271,52.986868],[-1.295477,52.987853],[-1.296708,52.987772],[-1.29727,52.988413],[-1.298056,52.988527],[-1.297763,52.989688],[-1.299236,52.989507],[-1.300489,52.990145],[-1.301235,52.99105],[-1.30072,52.991831],[-1.301555,52.992313],[-1.300503,52.992654],[-1.30037,52.993196],[-1.301081,52.993301],[-1.301423,52.993709],[-1.300669,52.994185],[-1.300928,52.994636],[-1.301438,52.99436],[-1.301579,52.994835],[-1.30234,52.995009],[-1.301739,52.995924],[-1.303136,52.99683],[-1.302468,52.997202],[-1.303608,52.998012],[-1.302945,52.99806],[-1.303003,52.99838],[-1.302355,52.998444],[-1.302496,52.998791],[-1.301913,52.99906],[-1.302449,52.999187],[-1.30269,52.999684],[-1.303546,52.999746],[-1.302839,53.000296],[-1.304074,53.000061],[-1.304399,53.000305],[-1.303679,53.000603],[-1.303677,53.001035],[-1.304923,53.001393],[-1.30455,53.001725],[-1.306339,53.002487],[-1.305741,53.002663],[-1.306323,53.003288],[-1.307266,53.003036],[-1.307026,53.003471],[-1.307986,53.003873],[-1.30868,53.003525],[-1.309288,53.003844],[-1.31002,53.003401],[-1.312316,53.004597],[-1.313367,53.004573],[-1.313493,53.006616],[-1.314561,53.007221],[-1.315541,53.008483],[-1.31919,53.010216],[-1.319603,53.011769],[-1.318274,53.013797],[-1.320188,53.015511],[-1.318577,53.016148],[-1.321894,53.019972],[-1.32446,53.025873],[-1.325885,53.027384],[-1.327767,53.028415],[-1.328036,53.029331],[-1.329187,53.030554],[-1.330428,53.030767],[-1.330971,53.030428],[-1.331131,53.030927],[-1.331782,53.030876],[-1.331215,53.031879],[-1.332027,53.032463],[-1.331726,53.032781],[-1.332132,53.032956],[-1.331851,53.033206],[-1.332266,53.034014],[-1.333203,53.033941],[-1.332697,53.034295],[-1.333098,53.034572],[-1.332615,53.034622],[-1.333346,53.035516],[-1.332712,53.03618],[-1.332615,53.036652],[-1.333115,53.036956],[-1.33263,53.037185],[-1.332554,53.038266],[-1.333079,53.03959],[-1.334626,53.040682],[-1.334201,53.04128],[-1.334724,53.041229],[-1.334964,53.041605],[-1.33365,53.041683],[-1.33359,53.042185],[-1.332366,53.042203],[-1.333794,53.042915],[-1.332934,53.043455],[-1.33362,53.044042],[-1.333042,53.044004],[-1.332912,53.044551],[-1.333992,53.044699],[-1.333724,53.045669],[-1.334664,53.047255],[-1.333297,53.048131],[-1.333548,53.049183],[-1.334489,53.050314],[-1.335765,53.050754],[-1.336119,53.051346],[-1.335802,53.051648],[-1.336321,53.051667],[-1.336392,53.052173],[-1.335868,53.052966],[-1.335193,53.052624],[-1.333485,53.053149],[-1.332626,53.053075],[-1.331044,53.054085],[-1.329607,53.05448],[-1.322604,53.049241]]]}}]}