{"type":"FeatureCollection","features":[{"type":"Feature","properties":{"slug":"buckinghamshire","gss_code":"E06000060","name":"Buckinghamshire"},"geometry":{"type":"Polygon","coordinates":[[[-0.944391,52.070032],[-0.941749,52.068774],[-0.94154,52.068226],[-0.939279,52.067354],[-0.940459,52.067427],[-0.942043,52.06659],[-0.940482,52.065047],[-0.941647,52.064273],[-0.939316,52.06216],[-0.93764,52.062856],[-0.933744,52.062636],[-0.93788,52.061202],[-0.936594,52.058189],[-0.935712,52.057918],[-0.933448,52.055083],[-0.931872,52.054027],[-0.931833,52.052182],[-0.930112,52.049542],[-0.9307,52.048811],[-0.930186,52.048644],[-0.930283,52.045741],[-0.929817,52.04505],[-0.930403,52.043735],[-0.930207,52.043127],[-0.928177,52.042222],[-0.927265,52.039405],[-0.924445,52.036194],[-0.922564,52.035351],[-0.914376,52.029843],[-0.912108,52.026586],[-0.911776,52.024972],[-0.908377,52.02224],[-0.90603,52.021221],[-0.904578,52.022334],[-0.903875,52.023704],[-0.900246,52.025019],[-0.899698,52.026388],[-0.898301,52.027474],[-0.897264,52.027286],[-0.895776,52.028237],[-0.893961,52.028651],[-0.891657,52.029735],[-0.890117,52.031534],[-0.889156,52.031446],[-0.887379,52.030248],[-0.883186,52.02826],[-0.88073,52.028591],[-0.880217,52.029062],[-0.877558,52.029905],[-0.876903,52.03069],[-0.877323,52.031074],[-0.876218,52.032594],[-0.876123,52.033547],[-0.873953,52.035015],[-0.87313,52.035104],[-0.873335,52.035482],[-0.872066,52.036244],[-0.87317,52.037366],[-0.872121,52.03977],[-0.871274,52.04022],[-0.866938,52.040081],[-0.867135,52.038571],[-0.865067,52.038104],[-0.865405,52.0377],[-0.861172,52.035737],[-0.861346,52.035542],[-0.859124,52.034384],[-0.857815,52.033214],[-0.858071,52.033011],[-0.855943,52.031637],[-0.856957,52.030505],[-0.851926,52.027986],[-0.852435,52.027411],[-0.849531,52.025982],[-0.84741,52.025528],[-0.847008,52.024611],[-0.844991,52.022647],[-0.839191,52.021107],[-0.835312,52.01881],[-0.831813,52.018142],[-0.829174,52.016033],[-0.827208,52.01521],[-0.824933,52.014828],[-0.819818,52.012286],[-0.819301,52.011664],[-0.819614,52.010701],[-0.819259,52.010622],[-0.819338,52.007318],[-0.817996,52.006072],[-0.816329,52.005434],[-0.813797,52.005532],[-0.812243,52.006016],[-0.807789,51.999918],[-0.806293,51.995749],[-0.804512,51.98616],[-0.803504,51.985504],[-0.799474,51.986969],[-0.794118,51.987126],[-0.78924,51.987948],[-0.782824,51.98852],[-0.776278,51.988625],[-0.771206,51.982913],[-0.761997,51.985558],[-0.757805,51.983007],[-0.755436,51.980648],[-0.748193,51.977015],[-0.743647,51.975247],[-0.747555,51.973557],[-0.740379,51.969863],[-0.73308,51.971944],[-0.73047,51.97235],[-0.729756,51.973017],[-0.723729,51.975289],[-0.713941,51.977871],[-0.713971,51.978563],[-0.712734,51.978904],[-0.713192,51.979844],[-0.714397,51.980061],[-0.71384,51.980454],[-0.71449,51.980999],[-0.717092,51.981485],[-0.71787,51.982416],[-0.715229,51.984948],[-0.715488,51.985608],[-0.713817,51.987719],[-0.713384,51.989816],[-0.709319,51.988343],[-0.703751,51.988023],[-0.701577,51.986965],[-0.701553,51.985447],[-0.700078,51.985419],[-0.700074,51.984419],[-0.696276,51.98225],[-0.693136,51.982454],[-0.689788,51.981202],[-0.688809,51.981128],[-0.687917,51.980598],[-0.682185,51.979566],[-0.678358,51.978254],[-0.67745,51.976745],[-0.670856,51.976542],[-0.670424,51.97791],[-0.669129,51.978421],[-0.668662,51.977633],[-0.666108,51.976082],[-0.651244,51.968245],[-0.652873,51.967751],[-0.65351,51.967138],[-0.653138,51.966447],[-0.653644,51.965811],[-0.653634,51.963898],[-0.65547,51.961251],[-0.655278,51.96058],[-0.659365,51.959863],[-0.660304,51.957804],[-0.662124,51.955548],[-0.664154,51.956522],[-0.6657,51.955578],[-0.665402,51.95501],[-0.667562,51.954477],[-0.67175,51.956217],[-0.672076,51.95591],[-0.672785,51.954492],[-0.672607,51.952861],[-0.67308,51.952221],[-0.671441,51.950746],[-0.671284,51.94974],[-0.669704,51.948665],[-0.670644,51.947235],[-0.67216,51.946636],[-0.672698,51.94597],[-0.672108,51.94518],[-0.67076,51.944787],[-0.670253,51.944134],[-0.670544,51.943583],[-0.67386,51.943201],[-0.674034,51.944406],[-0.67494,51.945058],[-0.67862,51.944397],[-0.682289,51.942763],[-0.682969,51.941822],[-0.682279,51.941325],[-0.682078,51.939804],[-0.681055,51.938627],[-0.681695,51.938367],[-0.681259,51.938072],[-0.68159,51.937636],[-0.680296,51.936435],[-0.680284,51.935494],[-0.681579,51.935142],[-0.682957,51.935844],[-0.688831,51.929149],[-0.691463,51.927055],[-0.690292,51.925432],[-0.69262,51.920577],[-0.695844,51.917108],[-0.698516,51.913147],[-0.702157,51.909119],[-0.696301,51.904082],[-0.695766,51.901828],[-0.694459,51.900729],[-0.69222,51.900162],[-0.690681,51.9004],[-0.689702,51.900178],[-0.682683,51.900279],[-0.678422,51.901523],[-0.675667,51.901415],[-0.673236,51.901818],[-0.672544,51.901293],[-0.672845,51.900799],[-0.672321,51.900175],[-0.671204,51.899999],[-0.66882,51.897853],[-0.667955,51.897803],[-0.667254,51.89663],[-0.666383,51.896652],[-0.665867,51.896252],[-0.665338,51.896414],[-0.662877,51.895531],[-0.662535,51.89598],[-0.659567,51.894222],[-0.658986,51.893004],[-0.65956,51.892279],[-0.660367,51.892222],[-0.659634,51.890616],[-0.657959,51.890428],[-0.657683,51.889912],[-0.655314,51.888797],[-0.654813,51.887917],[-0.651986,51.886852],[-0.651472,51.887039],[-0.650998,51.886594],[-0.649814,51.88629],[-0.648263,51.886297],[-0.647964,51.885656],[-0.64727,51.885971],[-0.647181,51.885443],[-0.642197,51.884333],[-0.64067,51.883675],[-0.638061,51.883154],[-0.63734,51.88264],[-0.629076,51.88247],[-0.628424,51.88212],[-0.623022,51.884518],[-0.622274,51.88454],[-0.620089,51.885486],[-0.612561,51.877558],[-0.60897,51.875564],[-0.58686,51.870539],[-0.583564,51.870324],[-0.582482,51.867803],[-0.57975,51.866374],[-0.577267,51.865993],[-0.576302,51.865143],[-0.576205,51.864533],[-0.57558,51.8645],[-0.573862,51.862474],[-0.573496,51.860849],[-0.569248,51.858071],[-0.571441,51.855036],[-0.570732,51.854586],[-0.569268,51.851764],[-0.567442,51.85104],[-0.56414,51.851603],[-0.56368,51.851239],[-0.563856,51.850991],[-0.56682,51.850808],[-0.565367,51.848366],[-0.564053,51.847096],[-0.561987,51.845556],[-0.557344,51.845109],[-0.556233,51.84473],[-0.555612,51.843833],[-0.555927,51.843311],[-0.553308,51.841664],[-0.551046,51.839614],[-0.548245,51.835892],[-0.546894,51.835228],[-0.545297,51.835051],[-0.541858,51.832965],[-0.537619,51.831473],[-0.539632,51.828263],[-0.541502,51.826992],[-0.542359,51.825291],[-0.54373,51.824576],[-0.546265,51.825873],[-0.548936,51.828021],[-0.550032,51.828141],[-0.553614,51.826753],[-0.555377,51.828391],[-0.557138,51.830967],[-0.560656,51.830083],[-0.56127,51.828871],[-0.557977,51.82554],[-0.558348,51.824788],[-0.558795,51.824662],[-0.560787,51.826382],[-0.562422,51.823734],[-0.566228,51.820942],[-0.567145,51.819805],[-0.569739,51.819081],[-0.571057,51.81897],[-0.572425,51.819433],[-0.572554,51.819046],[-0.573672,51.819206],[-0.574132,51.818611],[-0.57517,51.818817],[-0.576242,51.816937],[-0.574303,51.81625],[-0.577216,51.81178],[-0.581574,51.807587],[-0.581826,51.806905],[-0.591655,51.808136],[-0.594484,51.81115],[-0.594832,51.814023],[-0.597605,51.814283],[-0.603182,51.81329],[-0.606426,51.812351],[-0.611869,51.812045],[-0.612424,51.812924],[-0.613675,51.813663],[-0.614294,51.813484],[-0.615554,51.814959],[-0.618389,51.814532],[-0.620674,51.814922],[-0.621809,51.816038],[-0.622745,51.81587],[-0.624425,51.816255],[-0.625651,51.815873],[-0.62676,51.817245],[-0.627601,51.817303],[-0.63294,51.819946],[-0.634412,51.818611],[-0.635949,51.81802],[-0.637219,51.817938],[-0.641009,51.816392],[-0.644381,51.815762],[-0.64777,51.813606],[-0.651116,51.815258],[-0.656229,51.815853],[-0.659248,51.815427],[-0.662901,51.81624],[-0.664275,51.815592],[-0.665335,51.815509],[-0.666648,51.815984],[-0.667245,51.815805],[-0.668876,51.817204],[-0.669077,51.818608],[-0.671823,51.819627],[-0.672231,51.819481],[-0.676773,51.823954],[-0.678456,51.826026],[-0.679686,51.829113],[-0.682101,51.83227],[-0.683303,51.83551],[-0.687994,51.839931],[-0.69031,51.841287],[-0.690831,51.840477],[-0.692071,51.840264],[-0.69545,51.841111],[-0.691772,51.845068],[-0.68677,51.849221],[-0.688361,51.850658],[-0.692327,51.857049],[-0.694596,51.856454],[-0.696427,51.858157],[-0.699972,51.85797],[-0.701933,51.857434],[-0.703577,51.856085],[-0.707164,51.854404],[-0.709161,51.855998],[-0.710557,51.857817],[-0.714246,51.857356],[-0.714639,51.857672],[-0.715758,51.857497],[-0.720344,51.856154],[-0.722582,51.854229],[-0.722019,51.8512],[-0.722599,51.850032],[-0.725306,51.849797],[-0.727268,51.850378],[-0.731199,51.849041],[-0.731988,51.848094],[-0.732918,51.847632],[-0.734622,51.844207],[-0.736385,51.842401],[-0.741439,51.842615],[-0.745744,51.842109],[-0.744799,51.837617],[-0.737883,51.834045],[-0.736706,51.831897],[-0.737852,51.830948],[-0.731497,51.826543],[-0.730431,51.825176],[-0.728962,51.821762],[-0.723402,51.817625],[-0.721352,51.816646],[-0.719211,51.81613],[-0.714345,51.817309],[-0.711851,51.818328],[-0.711498,51.819106],[-0.709295,51.82054],[-0.701148,51.814863],[-0.699139,51.81197],[-0.69628,51.810155],[-0.692551,51.805802],[-0.688757,51.803113],[-0.68265,51.79721],[-0.684023,51.796273],[-0.68219,51.794584],[-0.68397,51.79379],[-0.690191,51.792339],[-0.683977,51.789286],[-0.684088,51.788995],[-0.6815,51.788059],[-0.679401,51.784755],[-0.679133,51.782074],[-0.677487,51.780945],[-0.676186,51.778464],[-0.677372,51.775869],[-0.676094,51.773285],[-0.675999,51.771257],[-0.673449,51.768477],[-0.668801,51.76578],[-0.666814,51.765183],[-0.663624,51.764801],[-0.657928,51.762871],[-0.652596,51.759482],[-0.651395,51.75996],[-0.648596,51.758553],[-0.64921,51.757662],[-0.647841,51.757325],[-0.646869,51.756009],[-0.643458,51.754017],[-0.630998,51.753041],[-0.629469,51.753328],[-0.629966,51.753946],[-0.628282,51.754678],[-0.626219,51.753636],[-0.625528,51.754388],[-0.623709,51.753477],[-0.623227,51.75437],[-0.620202,51.752883],[-0.617286,51.75265],[-0.613766,51.750913],[-0.613539,51.748299],[-0.612936,51.747427],[-0.611116,51.748095],[-0.6091,51.749471],[-0.605152,51.749868],[-0.600867,51.751356],[-0.595269,51.751315],[-0.58638,51.752116],[-0.584145,51.746768],[-0.580812,51.743639],[-0.579432,51.741258],[-0.57617,51.737822],[-0.572763,51.735864],[-0.569934,51.735936],[-0.569641,51.736071],[-0.57037,51.736802],[-0.569246,51.737816],[-0.568399,51.737542],[-0.566818,51.739036],[-0.566201,51.738469],[-0.5637,51.739617],[-0.562955,51.738279],[-0.565583,51.736546],[-0.563446,51.735668],[-0.56032,51.737289],[-0.559245,51.737332],[-0.558442,51.735647],[-0.560646,51.734076],[-0.559539,51.733412],[-0.558349,51.734108],[-0.556002,51.733214],[-0.554525,51.734129],[-0.55372,51.734065],[-0.552999,51.733334],[-0.554304,51.732337],[-0.550083,51.730575],[-0.551555,51.730041],[-0.55308,51.728406],[-0.553597,51.728411],[-0.551434,51.725168],[-0.551665,51.72447],[-0.550533,51.724709],[-0.550296,51.724397],[-0.550414,51.723043],[-0.55584,51.721822],[-0.558481,51.7193],[-0.561099,51.718079],[-0.56242,51.715871],[-0.563148,51.711682],[-0.558077,51.708479],[-0.557212,51.707077],[-0.555331,51.705533],[-0.552419,51.704038],[-0.548835,51.703649],[-0.547668,51.703181],[-0.546751,51.701325],[-0.546885,51.698636],[-0.544381,51.697249],[-0.543217,51.695136],[-0.542953,51.693765],[-0.5434,51.692785],[-0.547115,51.689214],[-0.548628,51.687011],[-0.549058,51.6838],[-0.548689,51.682655],[-0.547875,51.682514],[-0.547553,51.682992],[-0.546711,51.683],[-0.546284,51.680437],[-0.539626,51.68027],[-0.538889,51.679834],[-0.536445,51.68086],[-0.535051,51.680901],[-0.534795,51.68169],[-0.532118,51.681778],[-0.531934,51.680757],[-0.531123,51.680683],[-0.527602,51.68168],[-0.524273,51.682113],[-0.524986,51.679976],[-0.524934,51.678721],[-0.522465,51.678813],[-0.521655,51.67984],[-0.518977,51.680264],[-0.516806,51.680203],[-0.515394,51.679435],[-0.513486,51.679877],[-0.510897,51.679817],[-0.509818,51.678688],[-0.507927,51.677979],[-0.505108,51.673077],[-0.507892,51.671959],[-0.51002,51.669881],[-0.512468,51.668601],[-0.514063,51.667046],[-0.514718,51.665453],[-0.517512,51.667055],[-0.520995,51.668045],[-0.522532,51.663569],[-0.522361,51.659346],[-0.522778,51.658398],[-0.524254,51.657937],[-0.532626,51.663007],[-0.533275,51.660922],[-0.535169,51.66043],[-0.536892,51.660624],[-0.536923,51.659794],[-0.536247,51.659047],[-0.536463,51.655491],[-0.536082,51.655467],[-0.53613,51.654872],[-0.534253,51.652953],[-0.536666,51.652369],[-0.530928,51.649133],[-0.531958,51.64768],[-0.534905,51.645632],[-0.537392,51.642907],[-0.538838,51.640448],[-0.539261,51.638039],[-0.534131,51.637151],[-0.535641,51.635809],[-0.53567,51.634815],[-0.534541,51.629901],[-0.531981,51.625513],[-0.530059,51.617151],[-0.528231,51.614698],[-0.526973,51.614417],[-0.5263,51.613778],[-0.524283,51.610204],[-0.522502,51.605062],[-0.520535,51.601908],[-0.519519,51.600998],[-0.517655,51.600256],[-0.51143,51.599644],[-0.503422,51.599912],[-0.500596,51.59969],[-0.500545,51.598522],[-0.499635,51.596703],[-0.499402,51.595315],[-0.498568,51.594444],[-0.498782,51.593076],[-0.499542,51.592143],[-0.498621,51.591902],[-0.498822,51.591218],[-0.497912,51.590961],[-0.497209,51.589339],[-0.495741,51.588116],[-0.494942,51.586547],[-0.494825,51.584777],[-0.489603,51.581772],[-0.488553,51.579619],[-0.489466,51.578155],[-0.488935,51.577271],[-0.488121,51.576942],[-0.48806,51.576458],[-0.484026,51.575127],[-0.484542,51.574296],[-0.485534,51.573841],[-0.485061,51.572299],[-0.484013,51.571196],[-0.484763,51.566871],[-0.482579,51.565726],[-0.483222,51.56514],[-0.482245,51.563915],[-0.482794,51.562822],[-0.480752,51.561781],[-0.481041,51.560706],[-0.477519,51.560282],[-0.476987,51.559625],[-0.476596,51.558031],[-0.47733,51.555272],[-0.477784,51.554838],[-0.478882,51.554836],[-0.482665,51.551522],[-0.484228,51.551455],[-0.486597,51.550034],[-0.488149,51.54743],[-0.489514,51.547181],[-0.489311,51.546383],[-0.491393,51.546078],[-0.491564,51.545329],[-0.490782,51.545042],[-0.492098,51.542448],[-0.491807,51.541573],[-0.493585,51.541005],[-0.49549,51.538429],[-0.493329,51.535837],[-0.491596,51.534917],[-0.491207,51.534325],[-0.490482,51.534157],[-0.491189,51.533273],[-0.490129,51.532071],[-0.489887,51.530437],[-0.488974,51.529089],[-0.489456,51.52762],[-0.490819,51.526444],[-0.490257,51.524585],[-0.490522,51.522483],[-0.491173,51.52128],[-0.490367,51.52017],[-0.491631,51.518897],[-0.49233,51.517077],[-0.491199,51.515257],[-0.489561,51.514078],[-0.489921,51.513414],[-0.489787,51.511527],[-0.485536,51.510028],[-0.485854,51.509843],[-0.483591,51.508081],[-0.484024,51.507688],[-0.483268,51.507214],[-0.483266,51.506641],[-0.48395,51.505687],[-0.485096,51.505166],[-0.484896,51.504373],[-0.485292,51.504018],[-0.484693,51.503601],[-0.485227,51.502579],[-0.486298,51.501772],[-0.486263,51.500863],[-0.487236,51.500969],[-0.487496,51.500359],[-0.48876,51.500198],[-0.489765,51.49899],[-0.489598,51.498645],[-0.488853,51.49856],[-0.489507,51.497561],[-0.489025,51.497368],[-0.488703,51.495974],[-0.489627,51.495526],[-0.490025,51.494748],[-0.496077,51.494999],[-0.500539,51.49482],[-0.5009,51.495353],[-0.50881,51.493925],[-0.514145,51.493333],[-0.53182,51.493394],[-0.528748,51.497068],[-0.52786,51.49882],[-0.527979,51.501587],[-0.528907,51.501511],[-0.526169,51.507922],[-0.526695,51.509313],[-0.528854,51.510088],[-0.541723,51.509533],[-0.542387,51.508965],[-0.54251,51.509468],[-0.552122,51.509093],[-0.566094,51.510508],[-0.568709,51.511269],[-0.566668,51.514501],[-0.568969,51.517721],[-0.565044,51.520692],[-0.565381,51.521272],[-0.567498,51.521453],[-0.571062,51.523362],[-0.571774,51.52428],[-0.572436,51.527412],[-0.574545,51.528562],[-0.575095,51.5293],[-0.572837,51.529704],[-0.569931,51.529731],[-0.568008,51.530286],[-0.567593,51.530561],[-0.567256,51.532981],[-0.56918,51.532991],[-0.572754,51.533937],[-0.575979,51.53391],[-0.578363,51.530463],[-0.579228,51.528125],[-0.580868,51.525712],[-0.580992,51.523074],[-0.588412,51.523175],[-0.589777,51.522675],[-0.589851,51.524108],[-0.594983,51.524237],[-0.594666,51.525724],[-0.596472,51.525837],[-0.596222,51.52793],[-0.602199,51.528844],[-0.605981,51.529958],[-0.606403,51.532139],[-0.608434,51.53204],[-0.610536,51.531502],[-0.611811,51.533021],[-0.613376,51.5328],[-0.613795,51.533826],[-0.614322,51.533725],[-0.614562,51.53424],[-0.616512,51.53394],[-0.616824,51.534724],[-0.617914,51.534579],[-0.618273,51.535212],[-0.619636,51.535469],[-0.618955,51.536822],[-0.619703,51.53788],[-0.623771,51.537771],[-0.630536,51.538895],[-0.635367,51.537859],[-0.636791,51.537952],[-0.639723,51.537133],[-0.641493,51.537152],[-0.644544,51.536362],[-0.645389,51.534101],[-0.653057,51.529998],[-0.653451,51.53035],[-0.654271,51.530146],[-0.653997,51.529783],[-0.657909,51.528868],[-0.659212,51.528276],[-0.659945,51.528447],[-0.660142,51.525456],[-0.659573,51.520706],[-0.660143,51.520357],[-0.659068,51.520236],[-0.65888,51.519369],[-0.657885,51.51943],[-0.656811,51.518852],[-0.655024,51.518845],[-0.654868,51.517623],[-0.654217,51.517562],[-0.653241,51.515077],[-0.653961,51.511042],[-0.653039,51.510791],[-0.653968,51.508277],[-0.655415,51.508303],[-0.655601,51.506813],[-0.658952,51.507138],[-0.659271,51.504902],[-0.653915,51.504225],[-0.654344,51.501623],[-0.654795,51.501713],[-0.655087,51.50105],[-0.653465,51.500507],[-0.647858,51.500825],[-0.644932,51.50224],[-0.64297,51.502693],[-0.642212,51.500627],[-0.644447,51.496485],[-0.643679,51.496065],[-0.643117,51.496062],[-0.642812,51.496486],[-0.641074,51.496497],[-0.638134,51.496014],[-0.637673,51.495426],[-0.635706,51.495007],[-0.633828,51.492695],[-0.633882,51.492382],[-0.636128,51.492367],[-0.638104,51.491855],[-0.64036,51.490303],[-0.646074,51.49013],[-0.647226,51.489466],[-0.650779,51.485792],[-0.651936,51.485471],[-0.654759,51.487066],[-0.659058,51.487105],[-0.662284,51.487926],[-0.66578,51.488353],[-0.668191,51.489172],[-0.669979,51.490079],[-0.673501,51.492718],[-0.678499,51.494564],[-0.679365,51.497136],[-0.682407,51.501252],[-0.682834,51.503448],[-0.686284,51.507173],[-0.688467,51.508472],[-0.693305,51.510342],[-0.695258,51.510344],[-0.699025,51.50963],[-0.701838,51.510367],[-0.703165,51.511107],[-0.703565,51.512625],[-0.701603,51.518593],[-0.701504,51.521172],[-0.702052,51.523948],[-0.699994,51.529074],[-0.699722,51.531251],[-0.697692,51.534783],[-0.698092,51.536827],[-0.697807,51.53779],[-0.696402,51.540023],[-0.693634,51.542608],[-0.692678,51.544025],[-0.69127,51.548676],[-0.691203,51.556819],[-0.69219,51.559324],[-0.694177,51.562176],[-0.694529,51.563184],[-0.696238,51.56508],[-0.699778,51.56571],[-0.701579,51.565627],[-0.703356,51.562816],[-0.705304,51.562276],[-0.708648,51.563148],[-0.710946,51.564164],[-0.712243,51.565352],[-0.711543,51.568659],[-0.712288,51.572242],[-0.715112,51.576127],[-0.716845,51.577189],[-0.718945,51.577692],[-0.722923,51.577829],[-0.727864,51.577243],[-0.73376,51.574925],[-0.737594,51.573863],[-0.740957,51.571657],[-0.745108,51.570687],[-0.748788,51.56836],[-0.754559,51.566231],[-0.757169,51.564787],[-0.762631,51.566381],[-0.768508,51.565823],[-0.76989,51.566428],[-0.771248,51.567827],[-0.774743,51.566778],[-0.776534,51.565723],[-0.779365,51.560163],[-0.782382,51.556264],[-0.786889,51.55377],[-0.790975,51.552838],[-0.792964,51.551359],[-0.794503,51.551157],[-0.803268,51.551916],[-0.807128,51.552761],[-0.810515,51.552697],[-0.817051,51.550988],[-0.824361,51.550409],[-0.826257,51.549254],[-0.827676,51.546652],[-0.829087,51.545611],[-0.831254,51.545789],[-0.833121,51.545467],[-0.834557,51.545877],[-0.835731,51.546758],[-0.83776,51.546973],[-0.841,51.545088],[-0.842709,51.544772],[-0.847047,51.545201],[-0.856261,51.548706],[-0.85753,51.548813],[-0.859926,51.548365],[-0.862525,51.54902],[-0.863634,51.549941],[-0.864965,51.553181],[-0.86793,51.556202],[-0.871155,51.557666],[-0.872748,51.560311],[-0.875599,51.561739],[-0.879723,51.562128],[-0.883479,51.56144],[-0.88737,51.559471],[-0.88958,51.55697],[-0.890382,51.554858],[-0.893636,51.549312],[-0.896882,51.544863],[-0.903312,51.545927],[-0.902222,51.548566],[-0.902841,51.552905],[-0.901681,51.556166],[-0.90624,51.556813],[-0.910207,51.557774],[-0.913601,51.561734],[-0.91469,51.561492],[-0.915958,51.561735],[-0.9171,51.562573],[-0.918521,51.561494],[-0.919546,51.561883],[-0.921378,51.564648],[-0.924146,51.563525],[-0.928228,51.565952],[-0.92778,51.568112],[-0.930411,51.568565],[-0.930226,51.569005],[-0.930582,51.569157],[-0.934246,51.569983],[-0.936674,51.571449],[-0.938427,51.571156],[-0.940019,51.576308],[-0.939401,51.580184],[-0.939822,51.582143],[-0.941333,51.584445],[-0.941471,51.585507],[-0.934337,51.58863],[-0.933197,51.588637],[-0.928548,51.590085],[-0.928165,51.59069],[-0.92488,51.590888],[-0.92101,51.594648],[-0.91947,51.595504],[-0.919873,51.595602],[-0.919695,51.59592],[-0.916899,51.59929],[-0.917127,51.600027],[-0.920175,51.603611],[-0.921867,51.603678],[-0.923942,51.604211],[-0.92914,51.604324],[-0.92981,51.604136],[-0.931213,51.602364],[-0.93214,51.601861],[-0.933667,51.60166],[-0.936179,51.602275],[-0.936018,51.603346],[-0.939175,51.604325],[-0.942399,51.604521],[-0.943139,51.605016],[-0.942563,51.607476],[-0.944133,51.609389],[-0.943989,51.610763],[-0.940079,51.614175],[-0.938644,51.617787],[-0.939459,51.618528],[-0.945719,51.61848],[-0.947534,51.620405],[-0.949793,51.620678],[-0.950071,51.622741],[-0.949489,51.625604],[-0.95003,51.628907],[-0.948873,51.631366],[-0.943591,51.630502],[-0.943339,51.631098],[-0.942317,51.631775],[-0.940111,51.632768],[-0.938217,51.635114],[-0.935492,51.635625],[-0.934586,51.636699],[-0.937538,51.641649],[-0.940211,51.643632],[-0.941621,51.644194],[-0.944606,51.64655],[-0.945143,51.648334],[-0.948341,51.649445],[-0.950726,51.650741],[-0.949951,51.650929],[-0.944984,51.649791],[-0.944002,51.651174],[-0.944453,51.652161],[-0.948181,51.652111],[-0.946318,51.653784],[-0.939792,51.654033],[-0.939536,51.654293],[-0.933169,51.652602],[-0.931497,51.653165],[-0.931434,51.655309],[-0.930959,51.6552],[-0.929431,51.655749],[-0.929185,51.653777],[-0.927251,51.651444],[-0.927652,51.654686],[-0.925172,51.654999],[-0.924609,51.655725],[-0.923215,51.656461],[-0.923098,51.656997],[-0.925051,51.659694],[-0.926547,51.660014],[-0.928343,51.661056],[-0.929536,51.663359],[-0.932213,51.664868],[-0.931387,51.665118],[-0.930796,51.666094],[-0.929353,51.666282],[-0.928612,51.665274],[-0.927816,51.66558],[-0.924889,51.665428],[-0.92491,51.666907],[-0.918636,51.67123],[-0.917729,51.6724],[-0.915694,51.67246],[-0.910381,51.673849],[-0.907022,51.673423],[-0.904703,51.672202],[-0.901203,51.670987],[-0.897042,51.670019],[-0.894745,51.668254],[-0.883971,51.667727],[-0.877707,51.668385],[-0.8786,51.67002],[-0.881368,51.67242],[-0.884135,51.673775],[-0.888933,51.673956],[-0.892142,51.674779],[-0.895069,51.674665],[-0.897896,51.676401],[-0.895764,51.677309],[-0.894321,51.678889],[-0.893813,51.679108],[-0.892464,51.678288],[-0.891017,51.67865],[-0.886764,51.681391],[-0.881836,51.680542],[-0.879896,51.680865],[-0.881901,51.684588],[-0.885664,51.686762],[-0.892647,51.689054],[-0.893816,51.690453],[-0.894773,51.692522],[-0.890753,51.697284],[-0.889256,51.699901],[-0.889563,51.701257],[-0.887235,51.703325],[-0.886558,51.705083],[-0.887071,51.705211],[-0.888577,51.707361],[-0.889268,51.707115],[-0.889677,51.708125],[-0.888641,51.709005],[-0.88885,51.709977],[-0.888327,51.710375],[-0.888253,51.712374],[-0.887623,51.71367],[-0.887682,51.718343],[-0.889396,51.720143],[-0.891339,51.721471],[-0.893464,51.722046],[-0.895446,51.721851],[-0.897165,51.722849],[-0.8997,51.724999],[-0.901656,51.728146],[-0.900593,51.729361],[-0.903336,51.731066],[-0.903555,51.731255],[-0.903143,51.731393],[-0.905383,51.733312],[-0.906094,51.73336],[-0.908755,51.735103],[-0.909682,51.736777],[-0.910774,51.736783],[-0.910534,51.73705],[-0.911061,51.737123],[-0.910992,51.736859],[-0.912194,51.737042],[-0.912558,51.7367],[-0.913767,51.737779],[-0.914555,51.737418],[-0.914814,51.737884],[-0.916279,51.736962],[-0.916489,51.737207],[-0.916937,51.736885],[-0.91763,51.737431],[-0.918269,51.73721],[-0.918234,51.7378],[-0.918733,51.737745],[-0.918554,51.738089],[-0.918971,51.738238],[-0.918627,51.738684],[-0.919723,51.738926],[-0.919156,51.739208],[-0.919296,51.739473],[-0.919895,51.739454],[-0.919362,51.739648],[-0.920389,51.740523],[-0.920344,51.742713],[-0.920939,51.744619],[-0.924115,51.747715],[-0.928478,51.745936],[-0.932015,51.749186],[-0.93321,51.752344],[-0.935983,51.753445],[-0.940397,51.752873],[-0.940961,51.753355],[-0.942369,51.75297],[-0.943551,51.753531],[-0.944117,51.753309],[-0.944909,51.753643],[-0.946949,51.755509],[-0.947659,51.755384],[-0.947707,51.755698],[-0.948357,51.755674],[-0.949259,51.756288],[-0.949652,51.755946],[-0.95028,51.756168],[-0.950616,51.755896],[-0.951043,51.756624],[-0.95249,51.757174],[-0.952679,51.757539],[-0.960584,51.758743],[-0.961651,51.75883],[-0.961823,51.758608],[-0.963025,51.759165],[-0.963515,51.758902],[-0.96815,51.75859],[-0.969761,51.758803],[-0.970069,51.758517],[-0.970697,51.758665],[-0.971431,51.758101],[-0.973853,51.758017],[-0.975245,51.758873],[-0.976199,51.760115],[-0.977045,51.759996],[-0.977319,51.760307],[-0.979685,51.760718],[-0.98142,51.760023],[-0.981267,51.759449],[-0.980592,51.75927],[-0.981216,51.758038],[-0.980737,51.757098],[-0.981657,51.755869],[-0.981289,51.754595],[-0.980442,51.753919],[-0.980819,51.753379],[-0.983353,51.752425],[-0.98625,51.752062],[-0.987207,51.752192],[-0.986882,51.753169],[-0.989088,51.753141],[-0.989114,51.753756],[-0.989954,51.753474],[-0.990617,51.754087],[-0.992738,51.754081],[-0.992833,51.754481],[-0.993499,51.754745],[-0.997448,51.753409],[-0.998509,51.753646],[-0.998068,51.754477],[-0.998398,51.75489],[-0.999471,51.754507],[-1.003742,51.755038],[-1.00396,51.754455],[-1.005668,51.754996],[-1.007585,51.754928],[-1.007394,51.755939],[-1.023611,51.755519],[-1.025219,51.755808],[-1.027085,51.757262],[-1.028217,51.757027],[-1.029828,51.757881],[-1.031971,51.756995],[-1.032661,51.755786],[-1.032138,51.755346],[-1.032633,51.754624],[-1.03256,51.753132],[-1.03122,51.752139],[-1.030552,51.749174],[-1.029614,51.748901],[-1.030013,51.746595],[-1.029622,51.745959],[-1.030435,51.744929],[-1.031606,51.744379],[-1.034487,51.744636],[-1.036068,51.744078],[-1.037188,51.744133],[-1.037651,51.744607],[-1.038342,51.744065],[-1.039041,51.744705],[-1.043375,51.744558],[-1.044103,51.745076],[-1.045471,51.744599],[-1.045972,51.745053],[-1.04524,51.745205],[-1.045785,51.745437],[-1.045567,51.745911],[-1.047273,51.746546],[-1.04816,51.747625],[-1.050731,51.748333],[-1.052877,51.749402],[-1.053422,51.749289],[-1.05325,51.749724],[-1.054954,51.752194],[-1.056313,51.751976],[-1.058244,51.752333],[-1.064113,51.754038],[-1.065099,51.753611],[-1.065811,51.753832],[-1.066385,51.753625],[-1.068241,51.754887],[-1.067952,51.755389],[-1.068662,51.75601],[-1.072892,51.758323],[-1.077784,51.758501],[-1.080852,51.756554],[-1.083088,51.760394],[-1.082721,51.760483],[-1.082801,51.764115],[-1.081408,51.76713],[-1.079276,51.769406],[-1.079928,51.770138],[-1.078848,51.771266],[-1.080819,51.772161],[-1.080761,51.772878],[-1.082706,51.773511],[-1.079946,51.77747],[-1.082948,51.780296],[-1.08574,51.781304],[-1.096709,51.782235],[-1.097148,51.781667],[-1.096929,51.781186],[-1.097603,51.780453],[-1.106361,51.781631],[-1.105897,51.781941],[-1.110651,51.783832],[-1.115382,51.786899],[-1.121943,51.787081],[-1.12209,51.788395],[-1.122863,51.788531],[-1.119992,51.792293],[-1.120439,51.792963],[-1.123541,51.794181],[-1.121234,51.796874],[-1.117406,51.799167],[-1.119872,51.80023],[-1.120787,51.804328],[-1.12489,51.807511],[-1.124044,51.808049],[-1.122932,51.810199],[-1.122481,51.809928],[-1.120378,51.810252],[-1.117908,51.81109],[-1.117224,51.814221],[-1.116045,51.815205],[-1.113443,51.815876],[-1.110097,51.817305],[-1.114239,51.818253],[-1.117453,51.820424],[-1.119008,51.820765],[-1.123397,51.824579],[-1.123224,51.825322],[-1.126471,51.828528],[-1.127431,51.829071],[-1.130113,51.829726],[-1.13049,51.831111],[-1.133737,51.831758],[-1.137838,51.833534],[-1.140503,51.834272],[-1.140754,51.834676],[-1.132884,51.838395],[-1.129044,51.839206],[-1.127143,51.841216],[-1.124139,51.842592],[-1.121599,51.845342],[-1.117243,51.843843],[-1.112832,51.841442],[-1.108427,51.841339],[-1.102521,51.840287],[-1.100276,51.838506],[-1.097328,51.837444],[-1.092256,51.834488],[-1.089342,51.834054],[-1.087998,51.833474],[-1.086196,51.831325],[-1.080865,51.829552],[-1.078449,51.829255],[-1.075918,51.82935],[-1.073279,51.830264],[-1.072114,51.831277],[-1.071607,51.833943],[-1.068588,51.834636],[-1.067198,51.834479],[-1.066322,51.833175],[-1.061907,51.832384],[-1.059217,51.835422],[-1.048997,51.838989],[-1.048329,51.839602],[-1.047143,51.839753],[-1.047277,51.840138],[-1.051582,51.839869],[-1.055755,51.841819],[-1.062006,51.844164],[-1.062198,51.846545],[-1.063567,51.847793],[-1.061597,51.848629],[-1.066031,51.852817],[-1.066014,51.853233],[-1.063083,51.854322],[-1.0635,51.855522],[-1.063045,51.855749],[-1.063443,51.856154],[-1.06312,51.856322],[-1.064296,51.857648],[-1.06348,51.858582],[-1.064515,51.859992],[-1.064516,51.861071],[-1.066127,51.864889],[-1.065136,51.865203],[-1.065564,51.86601],[-1.064451,51.866348],[-1.065593,51.868188],[-1.064548,51.868211],[-1.064642,51.868697],[-1.069166,51.874645],[-1.071757,51.874871],[-1.074567,51.875562],[-1.076138,51.875453],[-1.076099,51.876513],[-1.077605,51.876731],[-1.076566,51.877598],[-1.076536,51.878776],[-1.074133,51.880023],[-1.07285,51.881082],[-1.071951,51.881394],[-1.071036,51.881298],[-1.070949,51.881874],[-1.070165,51.882063],[-1.070504,51.88266],[-1.069691,51.883122],[-1.069801,51.884304],[-1.07142,51.885116],[-1.069993,51.885463],[-1.069634,51.886063],[-1.068606,51.886562],[-1.068975,51.887263],[-1.069977,51.887589],[-1.070417,51.888716],[-1.071793,51.888786],[-1.073542,51.888102],[-1.075459,51.888298],[-1.076083,51.887834],[-1.076809,51.88778],[-1.077257,51.888059],[-1.076508,51.888602],[-1.077269,51.889474],[-1.078714,51.89014],[-1.08087,51.890368],[-1.082037,51.890923],[-1.083126,51.890765],[-1.08579,51.891127],[-1.090018,51.892358],[-1.090604,51.892968],[-1.093519,51.893937],[-1.092901,51.894665],[-1.092905,51.895686],[-1.091316,51.897542],[-1.087059,51.897447],[-1.084254,51.899545],[-1.085999,51.900865],[-1.085379,51.901903],[-1.08582,51.902882],[-1.085004,51.904624],[-1.086279,51.905319],[-1.085563,51.907462],[-1.083545,51.910024],[-1.082712,51.911868],[-1.082278,51.911937],[-1.082636,51.915813],[-1.081862,51.915696],[-1.080037,51.916127],[-1.079356,51.917222],[-1.081181,51.917441],[-1.083349,51.918169],[-1.085041,51.919869],[-1.086329,51.920402],[-1.086673,51.922646],[-1.085964,51.923148],[-1.082586,51.923039],[-1.082632,51.925682],[-1.081249,51.927561],[-1.082117,51.927714],[-1.0815,51.92803],[-1.078065,51.927476],[-1.075022,51.930691],[-1.077488,51.931343],[-1.077549,51.931643],[-1.070033,51.934205],[-1.064152,51.934639],[-1.062112,51.935137],[-1.060546,51.938176],[-1.059122,51.939138],[-1.058699,51.940072],[-1.055919,51.942599],[-1.055845,51.945964],[-1.054787,51.946537],[-1.054616,51.947959],[-1.055504,51.949038],[-1.056765,51.949283],[-1.059304,51.949305],[-1.063567,51.948236],[-1.064892,51.948263],[-1.067355,51.946568],[-1.070326,51.94587],[-1.070954,51.946205],[-1.072743,51.944907],[-1.076064,51.94332],[-1.077563,51.943156],[-1.078992,51.943394],[-1.080425,51.944737],[-1.078814,51.946698],[-1.081274,51.950448],[-1.082845,51.951517],[-1.086171,51.952352],[-1.089525,51.954017],[-1.088852,51.955626],[-1.095234,51.957107],[-1.095167,51.957432],[-1.091807,51.962236],[-1.088793,51.964808],[-1.087682,51.967006],[-1.08717,51.966889],[-1.085744,51.968443],[-1.08492,51.968474],[-1.083766,51.970327],[-1.084177,51.972344],[-1.082144,51.972818],[-1.07971,51.975943],[-1.078424,51.979379],[-1.079397,51.979706],[-1.078186,51.981057],[-1.062235,51.994837],[-1.057874,51.999417],[-1.053131,52.002446],[-1.054911,52.003135],[-1.055285,52.002687],[-1.057574,52.003195],[-1.058968,52.004923],[-1.058585,52.007296],[-1.059034,52.007974],[-1.06082,52.008627],[-1.063714,52.008374],[-1.064576,52.008609],[-1.067391,52.00822],[-1.069866,52.007163],[-1.07392,52.006281],[-1.075649,52.007529],[-1.075751,52.008261],[-1.076677,52.008199],[-1.077144,52.008806],[-1.077618,52.008229],[-1.078585,52.008596],[-1.080209,52.008134],[-1.08,52.007697],[-1.080903,52.007734],[-1.0808,52.007348],[-1.08178,52.006863],[-1.084284,52.00643],[-1.085225,52.006579],[-1.085417,52.006168],[-1.086345,52.006326],[-1.086427,52.005894],[-1.088062,52.005782],[-1.089562,52.006335],[-1.089114,52.006693],[-1.089907,52.008325],[-1.090891,52.008872],[-1.090512,52.009342],[-1.091417,52.010329],[-1.093399,52.01068],[-1.092802,52.011097],[-1.094122,52.012225],[-1.09367,52.012493],[-1.094081,52.012552],[-1.093841,52.012831],[-1.094562,52.013051],[-1.093738,52.013366],[-1.094564,52.014316],[-1.095919,52.01497],[-1.097701,52.014827],[-1.097607,52.014436],[-1.099323,52.013632],[-1.100122,52.012534],[-1.101983,52.012479],[-1.102878,52.01209],[-1.103416,52.01272],[-1.105059,52.013411],[-1.10631,52.013448],[-1.106729,52.013763],[-1.106537,52.014243],[-1.107266,52.014667],[-1.109074,52.015254],[-1.109789,52.015126],[-1.11035,52.015687],[-1.11183,52.015677],[-1.111594,52.016208],[-1.112228,52.016259],[-1.11198,52.016592],[-1.115149,52.016518],[-1.115626,52.01561],[-1.116423,52.015406],[-1.116217,52.015187],[-1.118086,52.015426],[-1.118258,52.01634],[-1.118887,52.016347],[-1.118928,52.016664],[-1.119435,52.01635],[-1.120004,52.017146],[-1.121523,52.016968],[-1.123115,52.017276],[-1.124563,52.017096],[-1.124576,52.016703],[-1.125691,52.017028],[-1.12584,52.017454],[-1.127423,52.017805],[-1.127567,52.018181],[-1.128401,52.018304],[-1.128426,52.017992],[-1.128897,52.017921],[-1.129979,52.01833],[-1.130504,52.018164],[-1.130731,52.01864],[-1.132021,52.018842],[-1.132571,52.019332],[-1.133403,52.019096],[-1.133611,52.019406],[-1.134183,52.019292],[-1.134448,52.019611],[-1.136158,52.020034],[-1.13598,52.02112],[-1.136663,52.022293],[-1.136119,52.022402],[-1.136303,52.022953],[-1.135775,52.022927],[-1.135302,52.023665],[-1.13545,52.024272],[-1.134286,52.025697],[-1.133531,52.026044],[-1.133677,52.026595],[-1.132473,52.029689],[-1.132939,52.03174],[-1.131788,52.031948],[-1.130805,52.03339],[-1.129959,52.03351],[-1.126601,52.037189],[-1.127102,52.037976],[-1.125914,52.038742],[-1.126493,52.038881],[-1.126339,52.039353],[-1.125183,52.040112],[-1.125146,52.040582],[-1.123143,52.04163],[-1.122203,52.044954],[-1.119689,52.046491],[-1.117224,52.047345],[-1.11358,52.048098],[-1.111171,52.047952],[-1.110987,52.048204],[-1.106259,52.049081],[-1.10562,52.048865],[-1.106035,52.048119],[-1.105067,52.048331],[-1.103602,52.047761],[-1.102419,52.047931],[-1.09887,52.048641],[-1.098445,52.049034],[-1.098534,52.049886],[-1.098179,52.049781],[-1.098072,52.050245],[-1.096127,52.051351],[-1.094977,52.051605],[-1.094518,52.051277],[-1.092446,52.051127],[-1.090328,52.051414],[-1.0889,52.052377],[-1.083275,52.052361],[-1.08313,52.052786],[-1.082232,52.052885],[-1.081106,52.054471],[-1.0804,52.0561],[-1.080872,52.056773],[-1.078941,52.057266],[-1.078165,52.057762],[-1.078249,52.058055],[-1.077479,52.057879],[-1.076652,52.058851],[-1.071657,52.058135],[-1.070713,52.059556],[-1.068106,52.061053],[-1.06481,52.061543],[-1.062065,52.062735],[-1.057818,52.061033],[-1.052959,52.05966],[-1.051797,52.060717],[-1.049772,52.061394],[-1.048254,52.062847],[-1.041443,52.065552],[-1.03907,52.066099],[-1.038116,52.066057],[-1.037052,52.065245],[-1.034618,52.064549],[-1.033158,52.063523],[-1.030947,52.062897],[-1.026672,52.064232],[-1.026063,52.065561],[-1.028629,52.068044],[-1.029555,52.070038],[-1.031704,52.071182],[-1.041593,52.073416],[-1.042175,52.073649],[-1.042064,52.073935],[-1.028789,52.075017],[-1.026318,52.075676],[-1.026338,52.075429],[-1.023081,52.074938],[-1.021456,52.074959],[-1.020076,52.0733],[-1.016261,52.072644],[-1.013507,52.072867],[-1.012865,52.071599],[-1.0109,52.072001],[-1.007541,52.072095],[-1.006508,52.071431],[-1.006272,52.071593],[-1.006945,52.072438],[-1.005877,52.073403],[-1.004837,52.073475],[-1.000445,52.07249],[-0.994947,52.073176],[-0.993943,52.072832],[-0.993439,52.072123],[-0.991373,52.071007],[-0.987883,52.070474],[-0.987425,52.070765],[-0.986368,52.070192],[-0.984279,52.069717],[-0.98396,52.070079],[-0.982347,52.069888],[-0.981141,52.071343],[-0.977464,52.071676],[-0.975299,52.072496],[-0.973357,52.072723],[-0.972224,52.072333],[-0.970148,52.072368],[-0.967805,52.070911],[-0.965103,52.074839],[-0.962727,52.076356],[-0.960763,52.078644],[-0.959549,52.079283],[-0.951873,52.081534],[-0.950323,52.079866],[-0.948828,52.079764],[-0.947203,52.07918],[-0.945102,52.076885],[-0.941972,52.076263],[-0.941814,52.075958],[-0.940056,52.075842],[-0.94449,52.073185],[-0.944391,52.070032]]]}}]}