{"type":"FeatureCollection","features":[{"type":"Feature","properties":{"slug":"burnley","gss_code":"E07000117","name":"Burnley"},"geometry":{"type":"Polygon","coordinates":[[[-2.182818,53.82221],[-2.182094,53.822614],[-2.181414,53.822212],[-2.179058,53.822869],[-2.176592,53.822647],[-2.175812,53.822877],[-2.17542,53.822636],[-2.174977,53.822942],[-2.172169,53.823292],[-2.171215,53.822783],[-2.170386,53.822996],[-2.169678,53.822667],[-2.167883,53.822784],[-2.167303,53.82247],[-2.16449,53.822543],[-2.159087,53.823319],[-2.154275,53.823153],[-2.15202,53.823707],[-2.150433,53.822981],[-2.14995,53.820733],[-2.148547,53.819768],[-2.144108,53.820013],[-2.142114,53.820447],[-2.135346,53.815958],[-2.13347,53.817359],[-2.128623,53.819796],[-2.112279,53.805708],[-2.126274,53.799483],[-2.128359,53.799031],[-2.127799,53.798265],[-2.128348,53.797042],[-2.127912,53.796551],[-2.127856,53.794663],[-2.12901,53.793672],[-2.129722,53.791632],[-2.129215,53.790921],[-2.125696,53.789653],[-2.124816,53.788055],[-2.127323,53.786112],[-2.130484,53.785138],[-2.132174,53.783414],[-2.135462,53.781248],[-2.136363,53.780104],[-2.135032,53.776843],[-2.131341,53.774409],[-2.130464,53.772389],[-2.130069,53.768284],[-2.130783,53.765162],[-2.130074,53.763087],[-2.131586,53.758067],[-2.129522,53.75459],[-2.131303,53.751376],[-2.134507,53.74894],[-2.138839,53.747497],[-2.141724,53.745737],[-2.14189,53.7439],[-2.14118,53.743277],[-2.140942,53.74187],[-2.143114,53.739098],[-2.144849,53.738963],[-2.143845,53.737333],[-2.145244,53.736852],[-2.145306,53.736058],[-2.14794,53.735329],[-2.148471,53.734227],[-2.149093,53.733871],[-2.149775,53.734648],[-2.152105,53.735309],[-2.153125,53.734422],[-2.155998,53.735325],[-2.156877,53.734893],[-2.156184,53.733652],[-2.156902,53.733194],[-2.159982,53.732827],[-2.160149,53.732346],[-2.163911,53.731279],[-2.166236,53.728999],[-2.167227,53.727341],[-2.169879,53.725716],[-2.171421,53.725189],[-2.173291,53.72301],[-2.179502,53.727932],[-2.185395,53.730741],[-2.189036,53.731707],[-2.191997,53.732166],[-2.192171,53.731918],[-2.196635,53.732897],[-2.20339,53.732385],[-2.20492,53.733906],[-2.217674,53.738285],[-2.22538,53.738557],[-2.232555,53.73761],[-2.233036,53.739264],[-2.235125,53.742193],[-2.239868,53.747273],[-2.242398,53.749075],[-2.241712,53.749639],[-2.242426,53.749087],[-2.245111,53.750942],[-2.248881,53.752857],[-2.251697,53.755045],[-2.253919,53.753567],[-2.255876,53.752831],[-2.256054,53.752232],[-2.257901,53.750664],[-2.257138,53.750165],[-2.257453,53.749858],[-2.259344,53.749554],[-2.26175,53.748488],[-2.262714,53.748938],[-2.266797,53.748097],[-2.264242,53.747429],[-2.262821,53.746261],[-2.263292,53.745318],[-2.265649,53.744025],[-2.267012,53.742643],[-2.268597,53.742281],[-2.271323,53.742286],[-2.275222,53.743751],[-2.27829,53.743447],[-2.281631,53.745055],[-2.283731,53.744589],[-2.285267,53.743708],[-2.287191,53.744851],[-2.286844,53.745256],[-2.287519,53.746712],[-2.293304,53.749796],[-2.295272,53.75199],[-2.299171,53.750764],[-2.301479,53.748886],[-2.302994,53.748405],[-2.303299,53.748671],[-2.314109,53.747039],[-2.313724,53.751575],[-2.316402,53.751957],[-2.319915,53.755567],[-2.322139,53.757396],[-2.325825,53.758615],[-2.326493,53.759579],[-2.327223,53.759736],[-2.328006,53.760838],[-2.328609,53.761032],[-2.32863,53.761475],[-2.328043,53.76181],[-2.328363,53.762839],[-2.327858,53.763538],[-2.328425,53.764379],[-2.328646,53.766367],[-2.32907,53.766625],[-2.328757,53.767013],[-2.330118,53.768029],[-2.330372,53.769033],[-2.331427,53.769551],[-2.331317,53.770025],[-2.330706,53.770282],[-2.331168,53.770936],[-2.330374,53.773536],[-2.331682,53.777678],[-2.331195,53.778781],[-2.329314,53.779628],[-2.329187,53.780085],[-2.330055,53.780985],[-2.335797,53.782495],[-2.336098,53.783421],[-2.335584,53.785072],[-2.33738,53.786363],[-2.338757,53.7891],[-2.337839,53.789554],[-2.336233,53.791697],[-2.341095,53.79252],[-2.340802,53.793231],[-2.341272,53.793718],[-2.340852,53.794172],[-2.342306,53.794827],[-2.340631,53.79517],[-2.338586,53.794988],[-2.336222,53.795447],[-2.336116,53.796572],[-2.335244,53.79728],[-2.335476,53.797885],[-2.334664,53.799036],[-2.33506,53.799724],[-2.334691,53.801067],[-2.332991,53.802823],[-2.332044,53.8033],[-2.332137,53.804123],[-2.329762,53.806639],[-2.329063,53.806688],[-2.328833,53.807045],[-2.327032,53.806462],[-2.325928,53.806512],[-2.325648,53.807779],[-2.323109,53.810105],[-2.321786,53.810234],[-2.320924,53.810695],[-2.319688,53.810635],[-2.318908,53.811726],[-2.317626,53.811872],[-2.31748,53.81218],[-2.315601,53.812647],[-2.315045,53.81169],[-2.311363,53.812925],[-2.309842,53.814426],[-2.309259,53.817008],[-2.308567,53.81802],[-2.306106,53.819445],[-2.301965,53.821079],[-2.302092,53.820225],[-2.303185,53.820056],[-2.303951,53.819513],[-2.303663,53.818339],[-2.302964,53.817906],[-2.303047,53.814513],[-2.302058,53.813544],[-2.29922,53.814105],[-2.298381,53.815036],[-2.297059,53.814304],[-2.296442,53.813811],[-2.297293,53.813188],[-2.296762,53.812929],[-2.297097,53.811944],[-2.297783,53.811609],[-2.295485,53.808772],[-2.294694,53.808439],[-2.293275,53.808955],[-2.290612,53.809306],[-2.288184,53.808909],[-2.288336,53.808684],[-2.285405,53.807716],[-2.282669,53.807364],[-2.281445,53.80796],[-2.279984,53.808186],[-2.279327,53.809004],[-2.279077,53.8104],[-2.27682,53.812591],[-2.275349,53.812762],[-2.273019,53.81413],[-2.269805,53.815004],[-2.268731,53.814703],[-2.268195,53.814062],[-2.268547,53.813188],[-2.266969,53.811844],[-2.266496,53.810054],[-2.262085,53.809633],[-2.260959,53.808496],[-2.261069,53.807767],[-2.250674,53.81161],[-2.235405,53.813791],[-2.233181,53.814628],[-2.228608,53.815023],[-2.226384,53.816076],[-2.224173,53.816391],[-2.22397,53.81785],[-2.212958,53.814032],[-2.210622,53.813668],[-2.210113,53.814203],[-2.206966,53.813301],[-2.20743,53.811437],[-2.204289,53.814693],[-2.197356,53.819609],[-2.195758,53.821535],[-2.194828,53.821972],[-2.195499,53.823618],[-2.196262,53.824039],[-2.19693,53.825196],[-2.195222,53.825068],[-2.192637,53.823326],[-2.18817,53.822561],[-2.182818,53.82221]]]}}]}