{"type":"FeatureCollection","features":[{"type":"Feature","properties":{"slug":"bury","gss_code":"E08000002","name":"Bury"},"geometry":{"type":"Polygon","coordinates":[[[-2.333402,53.655187],[-2.326591,53.655584],[-2.325303,53.655413],[-2.320433,53.656007],[-2.320092,53.655604],[-2.318475,53.655219],[-2.316664,53.654915],[-2.316726,53.655278],[-2.315583,53.655055],[-2.315647,53.655749],[-2.313425,53.657726],[-2.313553,53.658642],[-2.311978,53.659137],[-2.311766,53.659824],[-2.310666,53.659971],[-2.309948,53.660494],[-2.308396,53.660723],[-2.306972,53.66141],[-2.307026,53.66195],[-2.30603,53.663042],[-2.303893,53.663893],[-2.304038,53.664458],[-2.300211,53.667045],[-2.299006,53.666709],[-2.295796,53.664391],[-2.295892,53.662635],[-2.293792,53.65793],[-2.294293,53.657232],[-2.293863,53.656127],[-2.295504,53.655622],[-2.296416,53.654978],[-2.295574,53.654921],[-2.295568,53.653046],[-2.297161,53.652607],[-2.297701,53.651768],[-2.297338,53.65019],[-2.29758,53.648334],[-2.295767,53.64145],[-2.295124,53.640091],[-2.292376,53.638041],[-2.291251,53.636295],[-2.289946,53.635235],[-2.288786,53.633656],[-2.28886,53.632898],[-2.286979,53.631924],[-2.285908,53.630776],[-2.284867,53.628108],[-2.283512,53.626994],[-2.284496,53.625375],[-2.282458,53.623106],[-2.282423,53.621762],[-2.283165,53.620776],[-2.282853,53.620263],[-2.280727,53.620926],[-2.278247,53.620317],[-2.277692,53.618695],[-2.276017,53.618237],[-2.275808,53.61885],[-2.272551,53.618512],[-2.271766,53.614478],[-2.266618,53.609154],[-2.264411,53.607642],[-2.263977,53.607793],[-2.261807,53.606594],[-2.259405,53.606071],[-2.255725,53.606122],[-2.251003,53.607213],[-2.250465,53.604915],[-2.248968,53.603391],[-2.249112,53.602766],[-2.248165,53.602135],[-2.246452,53.601861],[-2.245059,53.601109],[-2.245567,53.599131],[-2.247617,53.599404],[-2.250473,53.599133],[-2.252864,53.597972],[-2.25555,53.597127],[-2.258256,53.595025],[-2.258382,53.593715],[-2.259222,53.592182],[-2.263983,53.592518],[-2.264961,53.592363],[-2.265515,53.591616],[-2.266292,53.591388],[-2.269977,53.591962],[-2.269318,53.589994],[-2.270133,53.589161],[-2.271986,53.590239],[-2.275465,53.591543],[-2.27664,53.591515],[-2.27864,53.58925],[-2.278794,53.588489],[-2.278057,53.587328],[-2.277989,53.585987],[-2.278582,53.585463],[-2.280115,53.585852],[-2.281854,53.586947],[-2.282438,53.586723],[-2.282444,53.584124],[-2.281439,53.582743],[-2.28072,53.58273],[-2.280392,53.582095],[-2.278953,53.582085],[-2.278741,53.581524],[-2.277632,53.580893],[-2.277636,53.580117],[-2.273598,53.579304],[-2.272182,53.579423],[-2.271052,53.579975],[-2.269094,53.580337],[-2.268485,53.580792],[-2.267793,53.582294],[-2.26799,53.58368],[-2.267611,53.584448],[-2.265496,53.585603],[-2.261063,53.584747],[-2.25924,53.58527],[-2.25512,53.582933],[-2.254581,53.582466],[-2.25449,53.580862],[-2.250679,53.578435],[-2.250322,53.576599],[-2.246691,53.573684],[-2.243305,53.571704],[-2.244025,53.570159],[-2.245126,53.570264],[-2.245524,53.568603],[-2.243291,53.567797],[-2.245861,53.565483],[-2.247164,53.563427],[-2.248094,53.563187],[-2.247172,53.56188],[-2.246491,53.561578],[-2.244234,53.562046],[-2.242624,53.561545],[-2.241688,53.561584],[-2.241536,53.561305],[-2.240861,53.561567],[-2.24087,53.561183],[-2.239056,53.560911],[-2.238396,53.560183],[-2.237812,53.560126],[-2.236542,53.559228],[-2.241721,53.557152],[-2.237411,53.553661],[-2.236263,53.551086],[-2.235639,53.547396],[-2.234165,53.543364],[-2.234364,53.541728],[-2.23632,53.54068],[-2.23723,53.538861],[-2.238449,53.538792],[-2.239358,53.54008],[-2.248021,53.54416],[-2.251737,53.544609],[-2.253024,53.543987],[-2.258759,53.543155],[-2.267525,53.538044],[-2.26846,53.537102],[-2.268644,53.535923],[-2.26838,53.535342],[-2.267765,53.535237],[-2.268297,53.534972],[-2.267398,53.5338],[-2.266023,53.530233],[-2.265848,53.527003],[-2.264114,53.52469],[-2.26248,53.525],[-2.256756,53.527168],[-2.246645,53.529236],[-2.248805,53.524806],[-2.251785,53.525761],[-2.251455,53.524016],[-2.253477,53.524253],[-2.252867,53.522495],[-2.253497,53.522446],[-2.253419,53.521809],[-2.254414,53.521667],[-2.254222,53.520667],[-2.256491,53.520259],[-2.256236,53.519955],[-2.256655,53.519697],[-2.256966,53.517946],[-2.258565,53.518025],[-2.259015,53.51842],[-2.270716,53.517316],[-2.271574,53.517495],[-2.274468,53.516419],[-2.280542,53.515859],[-2.282531,53.515242],[-2.285099,53.513574],[-2.289521,53.512767],[-2.290796,53.512021],[-2.291742,53.514015],[-2.294354,53.515411],[-2.295981,53.515763],[-2.297697,53.515655],[-2.30226,53.517087],[-2.302597,53.517727],[-2.302071,53.520397],[-2.302864,53.521875],[-2.310473,53.527187],[-2.312267,53.527531],[-2.319459,53.527005],[-2.324517,53.527268],[-2.32836,53.529583],[-2.335207,53.531347],[-2.338194,53.533614],[-2.337096,53.535194],[-2.33699,53.535808],[-2.337739,53.537023],[-2.337217,53.537171],[-2.33731,53.537528],[-2.337884,53.537973],[-2.338669,53.538066],[-2.34136,53.54134],[-2.341784,53.543242],[-2.34148,53.545882],[-2.343853,53.545268],[-2.347545,53.547354],[-2.351278,53.54777],[-2.35586,53.549325],[-2.362429,53.550457],[-2.362328,53.551345],[-2.367221,53.551666],[-2.373589,53.553914],[-2.371771,53.554317],[-2.368204,53.553302],[-2.366715,53.553347],[-2.363925,53.555473],[-2.362186,53.556115],[-2.361476,53.555495],[-2.360975,53.553369],[-2.359711,53.552792],[-2.358296,53.553233],[-2.357069,53.554385],[-2.356657,53.556131],[-2.355916,53.556698],[-2.357286,53.557861],[-2.356015,53.560345],[-2.357315,53.563254],[-2.36099,53.568276],[-2.366349,53.568508],[-2.368181,53.569359],[-2.369545,53.570457],[-2.370957,53.570734],[-2.373646,53.570354],[-2.373858,53.572087],[-2.372614,53.572837],[-2.372507,53.573817],[-2.373235,53.573928],[-2.373515,53.576478],[-2.374811,53.577941],[-2.374494,53.58019],[-2.375248,53.580498],[-2.376637,53.582028],[-2.376008,53.582418],[-2.375303,53.585912],[-2.376001,53.586579],[-2.376145,53.587773],[-2.376624,53.58785],[-2.376494,53.58883],[-2.375051,53.589642],[-2.37461,53.590475],[-2.376101,53.59124],[-2.375891,53.591528],[-2.377057,53.592917],[-2.376884,53.593291],[-2.372926,53.594028],[-2.36897,53.595513],[-2.368392,53.596057],[-2.369455,53.597417],[-2.368488,53.597983],[-2.368646,53.598372],[-2.366804,53.600135],[-2.366321,53.601918],[-2.364614,53.603009],[-2.365141,53.604268],[-2.36445,53.604703],[-2.363676,53.606072],[-2.364038,53.606681],[-2.363641,53.607787],[-2.364543,53.609047],[-2.362994,53.610307],[-2.368569,53.61555],[-2.369419,53.615254],[-2.374193,53.616187],[-2.375022,53.617067],[-2.376305,53.617494],[-2.374925,53.618038],[-2.375353,53.618452],[-2.376018,53.618226],[-2.377645,53.620521],[-2.379436,53.620298],[-2.379675,53.620817],[-2.376814,53.621194],[-2.377296,53.621916],[-2.376359,53.62208],[-2.376809,53.622066],[-2.378021,53.623276],[-2.383455,53.625545],[-2.381179,53.627339],[-2.379043,53.627041],[-2.379293,53.629296],[-2.379126,53.630852],[-2.376675,53.631136],[-2.376287,53.63181],[-2.370928,53.632042],[-2.371012,53.631381],[-2.370442,53.631589],[-2.369773,53.632584],[-2.370271,53.63317],[-2.368559,53.635139],[-2.368285,53.636494],[-2.369041,53.637104],[-2.368555,53.637977],[-2.370061,53.638018],[-2.372438,53.642343],[-2.370519,53.644652],[-2.369169,53.645073],[-2.367009,53.645012],[-2.366665,53.646742],[-2.367035,53.647669],[-2.366123,53.650636],[-2.365483,53.652002],[-2.362869,53.654977],[-2.36265,53.65592],[-2.368849,53.663105],[-2.371236,53.667081],[-2.361607,53.665071],[-2.35557,53.664507],[-2.3554,53.659454],[-2.353339,53.658483],[-2.333402,53.655187]]]}}]}