{"type":"FeatureCollection","features":[{"type":"Feature","properties":{"slug":"calderdale","gss_code":"E08000033","name":"Calderdale"},"geometry":{"type":"Polygon","coordinates":[[[-1.959716,53.784271],[-1.947089,53.786806],[-1.929377,53.78761],[-1.926979,53.787489],[-1.914628,53.781588],[-1.888991,53.780885],[-1.887522,53.779623],[-1.885743,53.779927],[-1.880691,53.779903],[-1.878446,53.778856],[-1.873351,53.778595],[-1.87187,53.775346],[-1.872846,53.771044],[-1.871905,53.770116],[-1.87261,53.767785],[-1.872185,53.766296],[-1.87253,53.766114],[-1.872147,53.765323],[-1.872421,53.764713],[-1.871868,53.764519],[-1.871735,53.763692],[-1.872035,53.762773],[-1.87018,53.761232],[-1.870163,53.760452],[-1.869549,53.760228],[-1.869391,53.759734],[-1.87004,53.75861],[-1.869542,53.758264],[-1.872396,53.755711],[-1.872653,53.754941],[-1.869436,53.755267],[-1.868351,53.753329],[-1.866292,53.752414],[-1.865099,53.752724],[-1.864915,53.75131],[-1.864006,53.751395],[-1.863675,53.751149],[-1.862324,53.752395],[-1.86163,53.752453],[-1.860028,53.752035],[-1.859533,53.752224],[-1.855555,53.75082],[-1.85577,53.750104],[-1.856247,53.749923],[-1.855456,53.748308],[-1.852829,53.749529],[-1.854184,53.75105],[-1.852606,53.752657],[-1.850804,53.753431],[-1.849191,53.753296],[-1.848368,53.753543],[-1.846384,53.753236],[-1.844417,53.754956],[-1.840238,53.755629],[-1.839072,53.757513],[-1.837918,53.758254],[-1.836934,53.759686],[-1.834202,53.759281],[-1.832333,53.760896],[-1.827836,53.763733],[-1.825942,53.762988],[-1.823965,53.763746],[-1.820981,53.764209],[-1.815502,53.763793],[-1.812577,53.76387],[-1.812117,53.764259],[-1.809368,53.764381],[-1.807672,53.763027],[-1.807355,53.763118],[-1.806257,53.761596],[-1.805471,53.761453],[-1.802089,53.759328],[-1.802445,53.758854],[-1.801736,53.757329],[-1.802506,53.756681],[-1.80114,53.75558],[-1.801081,53.75494],[-1.799271,53.754476],[-1.798429,53.75465],[-1.794563,53.753051],[-1.793881,53.752078],[-1.794328,53.751552],[-1.793624,53.750573],[-1.793423,53.749289],[-1.794075,53.74857],[-1.795772,53.747945],[-1.796003,53.747246],[-1.795067,53.746764],[-1.7941,53.74549],[-1.789012,53.743239],[-1.788802,53.742501],[-1.78554,53.741991],[-1.785387,53.741118],[-1.784774,53.740859],[-1.785128,53.739828],[-1.781994,53.738871],[-1.781228,53.738059],[-1.779865,53.737808],[-1.779339,53.737085],[-1.778966,53.734791],[-1.779711,53.734084],[-1.778949,53.733088],[-1.779176,53.73252],[-1.77861,53.732107],[-1.779157,53.731567],[-1.778822,53.730374],[-1.77953,53.729649],[-1.778574,53.729654],[-1.776329,53.728294],[-1.774694,53.726688],[-1.773711,53.724356],[-1.772514,53.725197],[-1.771091,53.725428],[-1.770086,53.726252],[-1.765935,53.726314],[-1.759883,53.725261],[-1.758496,53.725453],[-1.756804,53.72617],[-1.753637,53.72586],[-1.753985,53.723097],[-1.755405,53.723115],[-1.755409,53.720736],[-1.75103,53.719721],[-1.748061,53.719468],[-1.747813,53.718932],[-1.746303,53.718789],[-1.744972,53.718263],[-1.744481,53.715834],[-1.743987,53.715614],[-1.741197,53.716916],[-1.735871,53.713243],[-1.737753,53.713021],[-1.737656,53.712525],[-1.738825,53.71216],[-1.736038,53.710291],[-1.73582,53.709097],[-1.739613,53.704474],[-1.739593,53.704068],[-1.738644,53.704105],[-1.738753,53.702336],[-1.736956,53.702278],[-1.739539,53.699455],[-1.738567,53.698368],[-1.737298,53.698185],[-1.733239,53.694805],[-1.735529,53.689685],[-1.734646,53.6887],[-1.734824,53.688327],[-1.734022,53.688082],[-1.731153,53.685552],[-1.732184,53.684581],[-1.727225,53.682811],[-1.730416,53.681654],[-1.731406,53.680362],[-1.732348,53.680516],[-1.735987,53.682475],[-1.736654,53.684789],[-1.738838,53.685399],[-1.740562,53.687064],[-1.740828,53.689816],[-1.741573,53.69137],[-1.743875,53.692296],[-1.746295,53.694468],[-1.747737,53.694529],[-1.751964,53.692959],[-1.759851,53.692677],[-1.759672,53.691912],[-1.760699,53.691509],[-1.760722,53.690422],[-1.76179,53.689644],[-1.769962,53.687725],[-1.774642,53.685575],[-1.778407,53.684533],[-1.78003,53.683591],[-1.787133,53.682489],[-1.789323,53.682797],[-1.795343,53.681365],[-1.803103,53.680164],[-1.804273,53.679397],[-1.812153,53.677602],[-1.815873,53.675608],[-1.818776,53.672912],[-1.825724,53.670256],[-1.826868,53.670261],[-1.827992,53.669856],[-1.831562,53.67019],[-1.835534,53.668975],[-1.838403,53.670887],[-1.841187,53.671376],[-1.842345,53.671897],[-1.851104,53.672812],[-1.852223,53.67216],[-1.85363,53.672548],[-1.853531,53.671889],[-1.851297,53.670418],[-1.851189,53.669673],[-1.849378,53.669172],[-1.847524,53.667755],[-1.843566,53.666122],[-1.847791,53.664536],[-1.849663,53.665947],[-1.851062,53.665688],[-1.852927,53.66481],[-1.852242,53.664206],[-1.853238,53.663756],[-1.860405,53.662688],[-1.860019,53.662052],[-1.862182,53.662149],[-1.863445,53.661069],[-1.864796,53.661056],[-1.867003,53.659506],[-1.867987,53.660165],[-1.868962,53.659183],[-1.869945,53.659432],[-1.870624,53.658833],[-1.872836,53.658017],[-1.873339,53.657887],[-1.874257,53.658365],[-1.875024,53.658069],[-1.874728,53.657265],[-1.875271,53.656902],[-1.882307,53.653852],[-1.892733,53.648516],[-1.892249,53.647941],[-1.894266,53.646627],[-1.894599,53.645422],[-1.897798,53.644652],[-1.903312,53.645089],[-1.905181,53.644955],[-1.906996,53.645426],[-1.910829,53.645596],[-1.926559,53.647599],[-1.929543,53.648344],[-1.934152,53.64834],[-1.935953,53.645194],[-1.941327,53.640777],[-1.947817,53.637372],[-1.957372,53.634139],[-1.963215,53.632731],[-1.964429,53.631794],[-1.966093,53.629415],[-1.972744,53.625773],[-1.979508,53.62306],[-1.986522,53.623927],[-1.993711,53.623923],[-2.004542,53.62241],[-2.00412,53.619493],[-2.009471,53.61678],[-2.014773,53.615349],[-2.018652,53.61597],[-2.023036,53.615839],[-2.024586,53.617395],[-2.02644,53.620805],[-2.026172,53.62242],[-2.026816,53.624167],[-2.030062,53.627778],[-2.030887,53.62924],[-2.029746,53.630837],[-2.029029,53.634224],[-2.029997,53.636169],[-2.036927,53.638198],[-2.041143,53.640845],[-2.04158,53.642487],[-2.041577,53.645418],[-2.040706,53.648378],[-2.039679,53.648983],[-2.040527,53.650918],[-2.03954,53.65106],[-2.039609,53.651937],[-2.036586,53.655313],[-2.035694,53.657618],[-2.035709,53.659328],[-2.036517,53.661088],[-2.037429,53.661921],[-2.037095,53.662343],[-2.044835,53.665469],[-2.048524,53.667689],[-2.049619,53.66878],[-2.052202,53.669448],[-2.052918,53.670317],[-2.054392,53.673032],[-2.054858,53.675663],[-2.053495,53.677892],[-2.048902,53.680227],[-2.051242,53.683692],[-2.055545,53.682663],[-2.056224,53.683141],[-2.060523,53.682687],[-2.061826,53.682817],[-2.071326,53.678859],[-2.071741,53.678208],[-2.073346,53.677512],[-2.077421,53.6774],[-2.080452,53.678342],[-2.083078,53.678104],[-2.08409,53.677631],[-2.08373,53.676047],[-2.0844,53.672888],[-2.085203,53.672163],[-2.086119,53.671919],[-2.086432,53.670958],[-2.087265,53.670751],[-2.090297,53.670927],[-2.09289,53.670161],[-2.096071,53.671522],[-2.097022,53.672622],[-2.114105,53.671119],[-2.118085,53.671245],[-2.125387,53.674838],[-2.124968,53.675156],[-2.126225,53.675618],[-2.126718,53.676881],[-2.126879,53.6796],[-2.127678,53.681557],[-2.129863,53.683103],[-2.132854,53.684397],[-2.134127,53.685734],[-2.135986,53.684477],[-2.137919,53.683884],[-2.139715,53.682809],[-2.141092,53.678973],[-2.142258,53.678006],[-2.143536,53.678498],[-2.144641,53.67948],[-2.146328,53.682232],[-2.148177,53.68612],[-2.147272,53.688855],[-2.145255,53.692295],[-2.150887,53.694696],[-2.161147,53.69764],[-2.162605,53.6992],[-2.162047,53.704366],[-2.162287,53.705955],[-2.163326,53.708386],[-2.165757,53.710197],[-2.166832,53.713513],[-2.169276,53.715736],[-2.171998,53.717165],[-2.171131,53.71808],[-2.171341,53.718837],[-2.169735,53.719418],[-2.173291,53.72301],[-2.171421,53.725189],[-2.169879,53.725716],[-2.167227,53.727341],[-2.166236,53.728999],[-2.163911,53.731279],[-2.160149,53.732346],[-2.159982,53.732827],[-2.156902,53.733194],[-2.156184,53.733652],[-2.156877,53.734893],[-2.155998,53.735325],[-2.153125,53.734422],[-2.152105,53.735309],[-2.149775,53.734648],[-2.149093,53.733871],[-2.148471,53.734227],[-2.14794,53.735329],[-2.145306,53.736058],[-2.145244,53.736852],[-2.143845,53.737333],[-2.144849,53.738963],[-2.143114,53.739098],[-2.140942,53.74187],[-2.14118,53.743277],[-2.14189,53.7439],[-2.141724,53.745737],[-2.138839,53.747497],[-2.134507,53.74894],[-2.133436,53.749675],[-2.131303,53.751376],[-2.129522,53.75459],[-2.131586,53.758067],[-2.130074,53.763087],[-2.130783,53.765162],[-2.130069,53.768284],[-2.130464,53.772389],[-2.131341,53.774409],[-2.135032,53.776843],[-2.136363,53.780104],[-2.135462,53.781248],[-2.132174,53.783414],[-2.130484,53.785138],[-2.127323,53.786112],[-2.124816,53.788055],[-2.125696,53.789653],[-2.129215,53.790921],[-2.129722,53.791632],[-2.12901,53.793672],[-2.127856,53.794663],[-2.127912,53.796551],[-2.128348,53.797042],[-2.127799,53.798265],[-2.128359,53.799031],[-2.126274,53.799483],[-2.112279,53.805708],[-2.102295,53.809488],[-2.097025,53.812202],[-2.091736,53.814237],[-2.084979,53.818521],[-2.061222,53.82562],[-2.050293,53.819875],[-2.036932,53.814556],[-2.036156,53.81397],[-2.03567,53.812597],[-2.031946,53.809749],[-2.031617,53.809103],[-2.027117,53.809022],[-2.018276,53.807697],[-2.009658,53.807102],[-1.995904,53.799621],[-1.986765,53.796151],[-1.980849,53.786353],[-1.959716,53.784271]]]}}]}