{"type":"FeatureCollection","features":[{"type":"Feature","properties":{"slug":"cannock-chase","gss_code":"E07000192","name":"Cannock Chase"},"geometry":{"type":"Polygon","coordinates":[[[-1.944688,52.773535],[-1.943958,52.773739],[-1.942912,52.773102],[-1.937387,52.771395],[-1.932502,52.76781],[-1.931633,52.767601],[-1.930405,52.768115],[-1.929711,52.76807],[-1.928809,52.767183],[-1.928637,52.766155],[-1.927447,52.765095],[-1.926251,52.764142],[-1.922998,52.762492],[-1.917826,52.760921],[-1.913116,52.759939],[-1.911387,52.759029],[-1.911747,52.758329],[-1.914627,52.755942],[-1.917199,52.754656],[-1.912341,52.75242],[-1.910807,52.751191],[-1.911508,52.750834],[-1.913838,52.74727],[-1.913222,52.747097],[-1.913866,52.74596],[-1.912338,52.743213],[-1.913141,52.741769],[-1.914122,52.741602],[-1.916263,52.738896],[-1.918734,52.739219],[-1.919519,52.737876],[-1.919908,52.737985],[-1.925758,52.734886],[-1.927095,52.733013],[-1.92716,52.731439],[-1.933923,52.727647],[-1.934497,52.723733],[-1.933424,52.721149],[-1.935862,52.720855],[-1.93554,52.719907],[-1.935826,52.718703],[-1.937701,52.716273],[-1.937326,52.714103],[-1.933945,52.713691],[-1.932473,52.713765],[-1.930542,52.714567],[-1.927607,52.714372],[-1.924057,52.713552],[-1.919022,52.710297],[-1.917173,52.712004],[-1.915511,52.710639],[-1.916619,52.709316],[-1.921241,52.70792],[-1.925662,52.707635],[-1.926423,52.70652],[-1.929409,52.705006],[-1.930155,52.704351],[-1.930116,52.70297],[-1.931491,52.701614],[-1.93228,52.699756],[-1.933258,52.698619],[-1.934135,52.698269],[-1.934206,52.697801],[-1.932621,52.696314],[-1.936513,52.695586],[-1.941318,52.696852],[-1.94303,52.696883],[-1.946629,52.695676],[-1.949632,52.695668],[-1.947502,52.693641],[-1.948161,52.690833],[-1.949203,52.689278],[-1.950777,52.687975],[-1.95366,52.686647],[-1.954587,52.684525],[-1.95925,52.684149],[-1.958073,52.679349],[-1.95831,52.676827],[-1.961999,52.678225],[-1.963225,52.674633],[-1.962471,52.674429],[-1.962686,52.673785],[-1.960471,52.673039],[-1.959488,52.671916],[-1.959536,52.671053],[-1.961147,52.667944],[-1.954613,52.662683],[-1.960066,52.662065],[-1.956325,52.65702],[-1.955809,52.656181],[-1.956303,52.656225],[-1.955074,52.654137],[-1.955466,52.653607],[-1.960557,52.653711],[-1.960771,52.649276],[-1.959958,52.649212],[-1.960281,52.644163],[-1.960963,52.642815],[-1.963015,52.64377],[-1.964591,52.640887],[-1.967398,52.641092],[-1.967462,52.641644],[-1.969495,52.641627],[-1.971123,52.641572],[-1.97336,52.640668],[-1.975125,52.641414],[-1.976206,52.639697],[-1.978727,52.640068],[-1.981316,52.63983],[-1.982954,52.641349],[-1.984877,52.639695],[-1.98655,52.640409],[-1.983767,52.643622],[-1.988384,52.644182],[-1.989946,52.644688],[-1.991604,52.644692],[-1.991829,52.645161],[-1.993026,52.645341],[-1.992863,52.646245],[-1.994254,52.648014],[-1.993626,52.64925],[-1.994131,52.650235],[-1.993375,52.650944],[-1.993493,52.653057],[-1.994455,52.653238],[-1.994119,52.653764],[-1.996261,52.655155],[-1.996771,52.656286],[-1.99772,52.656726],[-1.997646,52.657842],[-2.000486,52.660184],[-2.000804,52.66135],[-2.000367,52.661939],[-2.001105,52.662585],[-2.001084,52.664574],[-2.000716,52.664799],[-2.001707,52.666095],[-2.001224,52.666728],[-2.004918,52.669132],[-2.007019,52.669635],[-2.009993,52.669335],[-2.013216,52.669444],[-2.0158,52.670541],[-2.016793,52.671803],[-2.019132,52.672749],[-2.02391,52.672299],[-2.02524,52.671793],[-2.026435,52.671848],[-2.028262,52.670978],[-2.029806,52.671216],[-2.035617,52.67112],[-2.037673,52.672364],[-2.040633,52.673392],[-2.041759,52.67529],[-2.043004,52.675921],[-2.045858,52.676039],[-2.04766,52.677572],[-2.050042,52.677212],[-2.051355,52.678021],[-2.051908,52.679002],[-2.049481,52.681582],[-2.049739,52.682978],[-2.049128,52.68302],[-2.049144,52.683245],[-2.049687,52.684577],[-2.051419,52.685835],[-2.051647,52.686978],[-2.054632,52.690059],[-2.052018,52.691268],[-2.047664,52.694178],[-2.044954,52.698317],[-2.040964,52.701629],[-2.03691,52.703367],[-2.031083,52.705138],[-2.030625,52.712153],[-2.026255,52.724679],[-2.027034,52.725826],[-2.026035,52.72665],[-2.025249,52.728394],[-2.025791,52.731916],[-2.025326,52.734597],[-2.026802,52.736318],[-2.017906,52.741517],[-2.017016,52.742566],[-2.018023,52.744295],[-2.016822,52.746578],[-2.015468,52.750994],[-2.015064,52.751069],[-2.015159,52.753103],[-2.01478,52.753511],[-2.017815,52.757107],[-2.018466,52.758831],[-2.015698,52.759677],[-2.01267,52.759595],[-2.007332,52.760799],[-2.003786,52.760655],[-1.99938,52.762893],[-1.996776,52.763644],[-1.988337,52.762829],[-1.986689,52.762985],[-1.982697,52.76206],[-1.977394,52.762437],[-1.97313,52.761558],[-1.97205,52.763444],[-1.970536,52.765026],[-1.967726,52.764986],[-1.965753,52.765521],[-1.959705,52.768389],[-1.955935,52.769168],[-1.950599,52.771663],[-1.948639,52.773985],[-1.947712,52.773805],[-1.946601,52.774197],[-1.944688,52.773535]]]}}]}