{"type":"FeatureCollection","features":[{"type":"Feature","properties":{"slug":"canterbury","gss_code":"E07000106","name":"Canterbury"},"geometry":{"type":"MultiPolygon","coordinates":[[[[1.122791,51.296104],[1.124767,51.296206],[1.12541,51.295766],[1.123747,51.295496],[1.121865,51.295862],[1.121884,51.29642],[1.122791,51.296104]]],[[[1.233072,51.325962],[1.231243,51.326751],[1.231995,51.32811],[1.231677,51.328657],[1.232402,51.328826],[1.234154,51.32773],[1.234526,51.326741],[1.234174,51.326126],[1.233072,51.325962]]],[[[1.224264,51.37726],[1.225155,51.374197],[1.225294,51.371671],[1.224836,51.370047],[1.225964,51.369254],[1.230036,51.368932],[1.230488,51.368369],[1.229274,51.365146],[1.228656,51.364502],[1.220558,51.366745],[1.212874,51.366044],[1.211551,51.365014],[1.210782,51.363615],[1.213831,51.356772],[1.214417,51.355992],[1.217431,51.353839],[1.220239,51.352373],[1.220586,51.351533],[1.220302,51.349916],[1.221616,51.349478],[1.223254,51.349648],[1.225253,51.349297],[1.227919,51.348182],[1.22861,51.346852],[1.227572,51.345488],[1.227681,51.344643],[1.229748,51.342546],[1.230822,51.340104],[1.231723,51.339067],[1.23788,51.336122],[1.242622,51.334768],[1.244654,51.333144],[1.244746,51.332148],[1.246793,51.330211],[1.247822,51.329718],[1.249834,51.329381],[1.248319,51.328607],[1.245648,51.328795],[1.242163,51.330713],[1.235553,51.330734],[1.234059,51.332291],[1.231895,51.332397],[1.230407,51.331675],[1.231763,51.330311],[1.232189,51.328994],[1.230306,51.328657],[1.227786,51.326812],[1.229305,51.325918],[1.229679,51.325178],[1.22683,51.325542],[1.224148,51.325273],[1.222879,51.324269],[1.220586,51.323998],[1.220153,51.323079],[1.217874,51.322154],[1.217534,51.32112],[1.215753,51.320697],[1.214658,51.321808],[1.212518,51.32246],[1.210718,51.323957],[1.209643,51.323574],[1.205651,51.32384],[1.202374,51.323231],[1.198839,51.321201],[1.199551,51.320184],[1.199241,51.319756],[1.196436,51.319294],[1.195092,51.31803],[1.193091,51.317623],[1.1949,51.317897],[1.194046,51.316932],[1.18985,51.316596],[1.188611,51.314922],[1.187829,51.314444],[1.184093,51.315171],[1.181498,51.314372],[1.178522,51.3141],[1.177715,51.313733],[1.178147,51.312565],[1.177821,51.311686],[1.174482,51.312369],[1.172163,51.312074],[1.171012,51.311615],[1.170654,51.310325],[1.166196,51.308204],[1.166814,51.308604],[1.166538,51.309161],[1.163155,51.309421],[1.159516,51.307527],[1.159509,51.306154],[1.160581,51.305402],[1.161919,51.305015],[1.16509,51.305298],[1.164079,51.303335],[1.162737,51.303252],[1.160581,51.30248],[1.159097,51.301519],[1.157126,51.302183],[1.154606,51.300968],[1.152351,51.300708],[1.151309,51.300089],[1.142521,51.299986],[1.141691,51.299503],[1.141182,51.297902],[1.140429,51.297601],[1.139588,51.297624],[1.138323,51.298476],[1.136874,51.298843],[1.129244,51.296558],[1.125571,51.295795],[1.125081,51.296227],[1.122861,51.296147],[1.121855,51.296536],[1.121584,51.296066],[1.120108,51.296691],[1.119379,51.297439],[1.120207,51.296482],[1.117445,51.297045],[1.120642,51.29626],[1.122141,51.295582],[1.123809,51.295368],[1.129046,51.296363],[1.136928,51.298691],[1.138148,51.298424],[1.139401,51.29755],[1.140452,51.29747],[1.14151,51.298012],[1.14183,51.299254],[1.14268,51.299929],[1.146636,51.299693],[1.149795,51.30007],[1.151182,51.299899],[1.1524,51.300525],[1.15468,51.300784],[1.157179,51.302025],[1.159164,51.301395],[1.162616,51.303014],[1.164263,51.303193],[1.165727,51.305678],[1.165891,51.307805],[1.170956,51.310243],[1.171876,51.311731],[1.174533,51.312165],[1.17779,51.311517],[1.178415,51.312749],[1.178115,51.313823],[1.181437,51.31417],[1.184255,51.314982],[1.184971,51.314817],[1.184966,51.314514],[1.185056,51.314786],[1.187204,51.314215],[1.18805,51.314278],[1.188876,51.314721],[1.190008,51.31644],[1.194191,51.31679],[1.196342,51.319077],[1.199483,51.31969],[1.199768,51.320211],[1.199063,51.321066],[1.199955,51.321782],[1.202889,51.323003],[1.205926,51.323664],[1.209625,51.323332],[1.21094,51.32361],[1.211851,51.32253],[1.214428,51.321645],[1.215187,51.320443],[1.215844,51.320428],[1.215377,51.320178],[1.217647,51.320901],[1.21829,51.322102],[1.220361,51.322915],[1.220849,51.322583],[1.222683,51.322973],[1.222698,51.322031],[1.22484,51.321821],[1.225954,51.320215],[1.225428,51.319879],[1.225949,51.319266],[1.225488,51.318726],[1.22584,51.318028],[1.22787,51.317652],[1.227816,51.317092],[1.228625,51.31647],[1.229296,51.316458],[1.229384,51.316066],[1.226331,51.314187],[1.225722,51.314241],[1.224737,51.313787],[1.224757,51.312475],[1.223587,51.312298],[1.221641,51.31301],[1.219225,51.312162],[1.219771,51.310642],[1.221852,51.310099],[1.221702,51.308881],[1.219808,51.308865],[1.218536,51.309843],[1.217046,51.309766],[1.216513,51.31041],[1.214008,51.311359],[1.213184,51.310069],[1.213249,51.307406],[1.21254,51.306642],[1.212949,51.305882],[1.211958,51.305129],[1.211006,51.305352],[1.209779,51.305105],[1.209932,51.304438],[1.208296,51.303669],[1.207461,51.302526],[1.208106,51.302018],[1.207496,51.301252],[1.205835,51.301312],[1.205084,51.30081],[1.204444,51.299132],[1.206125,51.298772],[1.205252,51.297719],[1.203941,51.297574],[1.204194,51.296867],[1.203106,51.295044],[1.204238,51.294365],[1.20281,51.293181],[1.203022,51.29279],[1.200717,51.292101],[1.199945,51.291554],[1.202075,51.290023],[1.202785,51.290357],[1.202624,51.289947],[1.203483,51.289593],[1.203467,51.28915],[1.202669,51.288775],[1.205175,51.285706],[1.206177,51.28516],[1.206755,51.285921],[1.208608,51.285472],[1.208302,51.284417],[1.210251,51.28447],[1.210626,51.284917],[1.211346,51.285056],[1.211872,51.284459],[1.211711,51.28388],[1.212319,51.283497],[1.211968,51.28289],[1.212233,51.282642],[1.211319,51.282238],[1.210322,51.282281],[1.209717,51.281769],[1.210511,51.281682],[1.210398,51.280926],[1.208887,51.280358],[1.207942,51.27909],[1.206677,51.278331],[1.206091,51.276883],[1.205206,51.276189],[1.204536,51.276194],[1.203402,51.275569],[1.194801,51.269287],[1.195779,51.268295],[1.197085,51.267902],[1.195193,51.26553],[1.194552,51.262267],[1.196407,51.26187],[1.19498,51.25889],[1.193449,51.259068],[1.19263,51.257179],[1.195263,51.25609],[1.196471,51.257664],[1.196862,51.259072],[1.201045,51.258699],[1.200403,51.257475],[1.204381,51.256443],[1.204376,51.255439],[1.205656,51.254548],[1.207681,51.255194],[1.211545,51.252427],[1.208649,51.248238],[1.206336,51.246263],[1.200939,51.239938],[1.19893,51.238467],[1.197679,51.236876],[1.195275,51.231698],[1.193829,51.230546],[1.19194,51.227065],[1.18905,51.223307],[1.187415,51.219748],[1.185549,51.21782],[1.190381,51.219562],[1.193244,51.220141],[1.197144,51.219636],[1.202459,51.217591],[1.208449,51.213164],[1.219347,51.209444],[1.222194,51.207395],[1.218791,51.203458],[1.207786,51.195133],[1.207388,51.194225],[1.206029,51.193097],[1.203086,51.191354],[1.197693,51.187099],[1.198211,51.186634],[1.194331,51.185229],[1.195505,51.18476],[1.194946,51.184299],[1.192138,51.183837],[1.188266,51.18591],[1.18344,51.189892],[1.182447,51.190318],[1.180641,51.190477],[1.180573,51.189363],[1.179496,51.188288],[1.177606,51.187382],[1.174355,51.186418],[1.169917,51.183948],[1.163444,51.184215],[1.163763,51.185162],[1.15958,51.187877],[1.157802,51.19101],[1.15363,51.190911],[1.152432,51.188237],[1.151993,51.188214],[1.151464,51.185246],[1.150048,51.185596],[1.149894,51.185271],[1.147632,51.177174],[1.143998,51.178325],[1.140078,51.181522],[1.138679,51.183147],[1.134397,51.184964],[1.131112,51.185715],[1.126635,51.185577],[1.123903,51.186255],[1.120261,51.186567],[1.116043,51.187813],[1.11666,51.191034],[1.117937,51.192602],[1.117782,51.193809],[1.118422,51.196221],[1.11811,51.196329],[1.11469,51.196895],[1.115024,51.19411],[1.113653,51.189757],[1.112896,51.188721],[1.108967,51.186971],[1.097309,51.188923],[1.094998,51.188648],[1.092446,51.189318],[1.091198,51.189016],[1.089761,51.189727],[1.085245,51.190261],[1.080358,51.191648],[1.078287,51.192982],[1.077064,51.194943],[1.074611,51.196734],[1.069968,51.199362],[1.070141,51.20074],[1.066543,51.201271],[1.063911,51.202151],[1.060731,51.203792],[1.059409,51.204835],[1.058258,51.205004],[1.055095,51.191733],[1.054763,51.18859],[1.050889,51.18646],[1.049578,51.184988],[1.042045,51.18712],[1.04185,51.18651],[1.042431,51.185529],[1.04205,51.184438],[1.041208,51.183046],[1.039838,51.182188],[1.028517,51.181005],[1.024071,51.180253],[1.021289,51.179346],[1.017615,51.179461],[1.014184,51.181052],[1.007686,51.181633],[1.00397,51.180053],[0.997842,51.182667],[0.989873,51.187924],[0.9894,51.190233],[0.989703,51.190782],[0.993641,51.191009],[0.997061,51.191724],[1.002915,51.197389],[1.003276,51.202926],[1.005398,51.208486],[1.004505,51.211743],[1.002668,51.212647],[1.000147,51.212858],[0.999416,51.213842],[1.000691,51.215254],[0.997227,51.221286],[0.995118,51.222794],[0.991799,51.223562],[0.990327,51.224307],[0.990569,51.22605],[0.991378,51.226791],[0.990558,51.22829],[0.991085,51.228894],[0.991336,51.230411],[0.986174,51.235868],[0.986458,51.237836],[0.987458,51.238395],[0.989836,51.240813],[0.990896,51.242467],[0.990412,51.245797],[0.992552,51.246696],[0.994896,51.248098],[0.995409,51.248775],[0.997634,51.249769],[0.998239,51.251228],[0.99757,51.251876],[0.996575,51.251911],[0.993135,51.254345],[0.99325,51.255027],[0.991644,51.255136],[0.987233,51.256913],[0.979197,51.26268],[0.973406,51.267437],[0.973279,51.268595],[0.974635,51.269632],[0.977,51.270172],[0.977169,51.272477],[0.980167,51.27458],[0.983193,51.27467],[0.981752,51.277671],[0.983224,51.277588],[0.985574,51.278157],[0.988706,51.279604],[0.989195,51.279005],[0.99057,51.27905],[0.993687,51.279724],[0.996203,51.2809],[0.997565,51.280632],[1.005968,51.283783],[1.004051,51.288179],[1.011058,51.302813],[1.010201,51.304076],[1.010328,51.304935],[1.009073,51.305716],[1.00922,51.307078],[1.007575,51.307806],[1.006652,51.309541],[1.011818,51.311834],[1.013623,51.312219],[1.0143,51.312046],[1.014571,51.312352],[1.017101,51.312909],[1.015974,51.314046],[1.014815,51.316309],[1.015248,51.316272],[1.015066,51.316736],[1.012461,51.318177],[1.009595,51.318674],[1.007887,51.319594],[1.00511,51.319687],[1.000949,51.318988],[0.990575,51.324629],[0.973726,51.335305],[0.972369,51.336502],[0.971965,51.338244],[0.967593,51.337151],[0.967678,51.336357],[0.965237,51.336557],[0.963907,51.335948],[0.962754,51.336933],[0.9611,51.337525],[0.958078,51.337947],[0.950417,51.345603],[0.955754,51.34514],[0.960454,51.345162],[0.964002,51.345552],[0.968106,51.346489],[0.976845,51.346193],[0.978299,51.346617],[0.981186,51.346663],[0.982305,51.34696],[0.990266,51.346804],[1.00144,51.348314],[1.0077,51.349936],[1.012854,51.352514],[1.013627,51.353923],[1.015389,51.355068],[1.017326,51.357104],[1.019794,51.359021],[1.021594,51.359867],[1.022542,51.361333],[1.023276,51.361525],[1.024606,51.362821],[1.025423,51.363156],[1.024571,51.363749],[1.025042,51.363856],[1.026897,51.363122],[1.026143,51.362917],[1.026245,51.36261],[1.028258,51.363194],[1.025544,51.364059],[1.025211,51.364515],[1.030641,51.36451],[1.033181,51.365577],[1.059746,51.365835],[1.063156,51.366299],[1.066594,51.367278],[1.066922,51.367598],[1.065733,51.367289],[1.066457,51.368534],[1.06817,51.368946],[1.074369,51.368936],[1.088905,51.368141],[1.095074,51.368626],[1.096943,51.36923],[1.098507,51.370544],[1.098517,51.371158],[1.098134,51.371054],[1.098585,51.371219],[1.098951,51.373037],[1.098978,51.372624],[1.112736,51.372001],[1.119119,51.372157],[1.126653,51.37349],[1.126356,51.373827],[1.124705,51.374019],[1.12095,51.37384],[1.120891,51.374062],[1.122529,51.374153],[1.126329,51.373925],[1.12907,51.373309],[1.136747,51.373043],[1.149082,51.373142],[1.166095,51.374508],[1.173155,51.375415],[1.17835,51.376709],[1.182436,51.377318],[1.192111,51.377965],[1.192802,51.378365],[1.19646,51.378939],[1.199339,51.379894],[1.200582,51.379755],[1.202647,51.380172],[1.20318,51.379901],[1.21584,51.38008],[1.224175,51.379334],[1.224264,51.37726]],[[1.067923,51.368574],[1.068569,51.368807],[1.070065,51.368591],[1.070613,51.367823],[1.07004,51.367263],[1.068306,51.367344],[1.067397,51.366272],[1.068396,51.36733],[1.070123,51.367248],[1.07066,51.367762],[1.070289,51.368671],[1.069039,51.368885],[1.068272,51.368819],[1.067637,51.368477],[1.066922,51.367598],[1.067923,51.368574]]]]}}]}