{"type":"FeatureCollection","features":[{"type":"Feature","properties":{"slug":"castle-point","gss_code":"E07000069","name":"Castle Point"},"geometry":{"type":"MultiPolygon","coordinates":[[[[0.524541,51.516963],[0.522901,51.517569],[0.521731,51.518725],[0.521363,51.521389],[0.524661,51.517962],[0.52437,51.51736],[0.525269,51.517069],[0.524541,51.516963]]],[[[0.631833,51.519876],[0.631113,51.520862],[0.631555,51.519852],[0.630946,51.520767],[0.631312,51.520021],[0.630516,51.520678],[0.630717,51.520123],[0.631431,51.51987],[0.630951,51.519559],[0.630414,51.520439],[0.630466,51.519868],[0.629231,51.519942],[0.629121,51.520503],[0.628432,51.520368],[0.629151,51.520581],[0.629325,51.520322],[0.629617,51.520664],[0.629811,51.520386],[0.629718,51.52069],[0.629959,51.520451],[0.629962,51.520755],[0.63116,51.521003],[0.631833,51.519876]]],[[[0.626073,51.522468],[0.625925,51.522726],[0.625166,51.523373],[0.625994,51.523744],[0.628028,51.523412],[0.626073,51.522468]]],[[[0.632945,51.523335],[0.633996,51.523506],[0.634312,51.523216],[0.633937,51.522385],[0.63344,51.52256],[0.632904,51.52232],[0.632961,51.52254],[0.63208,51.52218],[0.631886,51.522737],[0.631492,51.522731],[0.63065,51.521805],[0.630714,51.522291],[0.63039,51.522422],[0.63083,51.522381],[0.630174,51.522682],[0.62996,51.523316],[0.63218,51.523643],[0.632945,51.523335]]],[[[0.623966,51.524411],[0.625555,51.524589],[0.624437,51.524403],[0.625543,51.52453],[0.62527,51.523916],[0.625626,51.523841],[0.624993,51.523493],[0.624836,51.523048],[0.624057,51.523466],[0.62457,51.523686],[0.623946,51.523492],[0.623678,51.523715],[0.62424,51.523807],[0.624311,51.52387],[0.624365,51.524207],[0.624258,51.524347],[0.623913,51.524344],[0.624335,51.524206],[0.624255,51.523835],[0.623633,51.523737],[0.623739,51.524324],[0.623444,51.523926],[0.622793,51.524567],[0.623196,51.524763],[0.623395,51.52435],[0.623728,51.524406],[0.623197,51.524816],[0.623587,51.524869],[0.623966,51.524411]]],[[[0.629362,51.523906],[0.628349,51.523606],[0.626924,51.524002],[0.625727,51.523937],[0.625661,51.524243],[0.627976,51.52479],[0.629362,51.523906]]],[[[0.622765,51.524763],[0.62247,51.525439],[0.62331,51.525412],[0.623499,51.524938],[0.622765,51.524763]]],[[[0.63197,51.52459],[0.631134,51.524452],[0.630953,51.524891],[0.63108,51.524419],[0.63044,51.524317],[0.630864,51.524618],[0.630655,51.524866],[0.630819,51.524609],[0.630403,51.524474],[0.630442,51.525005],[0.630274,51.524491],[0.630389,51.524288],[0.63006,51.524251],[0.629704,51.524663],[0.629981,51.524779],[0.629921,51.525273],[0.629739,51.524761],[0.629358,51.525256],[0.629582,51.524808],[0.629387,51.52469],[0.629959,51.524226],[0.628886,51.524279],[0.629226,51.524624],[0.62872,51.524423],[0.628305,51.52465],[0.628876,51.524951],[0.62818,51.524683],[0.627917,51.525274],[0.628243,51.525692],[0.629211,51.525903],[0.63197,51.52459]]],[[[0.625564,51.525639],[0.625481,51.524874],[0.62443,51.524767],[0.625508,51.524656],[0.624099,51.524448],[0.623835,51.524783],[0.624215,51.524982],[0.624345,51.524736],[0.624447,51.525404],[0.623752,51.524955],[0.623469,51.525175],[0.624071,51.525481],[0.624678,51.52579],[0.624592,51.526141],[0.624997,51.52574],[0.625168,51.526626],[0.62591,51.526619],[0.625564,51.525639]]],[[[0.619201,51.526188],[0.618288,51.526654],[0.620566,51.526542],[0.621837,51.526848],[0.621709,51.526555],[0.619201,51.526188]]],[[[0.625039,51.526149],[0.624173,51.526305],[0.623981,51.526047],[0.624464,51.52613],[0.623969,51.525912],[0.624071,51.525481],[0.623432,51.525193],[0.623348,51.525624],[0.622379,51.52545],[0.622166,51.5266],[0.622671,51.526862],[0.625082,51.526636],[0.625039,51.526149]]],[[[0.620987,51.526678],[0.620402,51.526774],[0.621068,51.526995],[0.620987,51.526678]]],[[[0.628964,51.526067],[0.627532,51.525421],[0.627865,51.524922],[0.625852,51.524307],[0.625686,51.525118],[0.626032,51.524663],[0.626412,51.524692],[0.6256,51.525172],[0.62567,51.525645],[0.626327,51.525595],[0.62576,51.525726],[0.626061,51.526885],[0.626509,51.526783],[0.626208,51.526405],[0.6265,51.52627],[0.626591,51.526627],[0.62675,51.525962],[0.62672,51.526611],[0.627192,51.52617],[0.627395,51.52659],[0.625614,51.527018],[0.626086,51.527425],[0.627953,51.527391],[0.62777,51.527128],[0.628278,51.527107],[0.628255,51.52655],[0.628964,51.526067]]],[[[0.624779,51.526862],[0.622309,51.526957],[0.621062,51.526818],[0.622337,51.527447],[0.625483,51.527601],[0.624779,51.526862]]],[[[0.617434,51.527333],[0.617618,51.527824],[0.618347,51.527382],[0.617434,51.527333]]],[[[0.612883,51.527974],[0.613444,51.528302],[0.613575,51.527717],[0.613807,51.528282],[0.614579,51.528004],[0.614434,51.527711],[0.615012,51.527892],[0.616787,51.527262],[0.618806,51.527354],[0.620386,51.526969],[0.619734,51.526752],[0.61889,51.527078],[0.618125,51.526811],[0.616917,51.527011],[0.616817,51.526761],[0.614048,51.527039],[0.611997,51.527866],[0.611698,51.528541],[0.61304,51.528249],[0.612883,51.527974]]],[[[0.610699,51.528193],[0.60925,51.528248],[0.609403,51.528491],[0.609164,51.528335],[0.608847,51.528675],[0.608316,51.528466],[0.608441,51.528749],[0.608965,51.528693],[0.610699,51.528193]]],[[[0.611422,51.52818],[0.610672,51.528459],[0.611103,51.528795],[0.611422,51.52818]]],[[[0.6188,51.527641],[0.618447,51.527899],[0.618874,51.527522],[0.618511,51.527426],[0.617545,51.528065],[0.618214,51.528734],[0.619262,51.528407],[0.6188,51.527641]]],[[[0.623449,51.527729],[0.621906,51.527578],[0.621927,51.52796],[0.621823,51.527537],[0.621287,51.527396],[0.621171,51.5277],[0.621227,51.527279],[0.620628,51.527081],[0.620572,51.52789],[0.620553,51.527059],[0.619994,51.52714],[0.620282,51.527559],[0.619948,51.52715],[0.619819,51.52744],[0.619421,51.527317],[0.61944,51.52764],[0.619106,51.527396],[0.619181,51.527755],[0.6189,51.527471],[0.619303,51.528385],[0.622062,51.528736],[0.623449,51.527729]]],[[[0.624053,51.528327],[0.625295,51.52842],[0.625572,51.528114],[0.624258,51.527631],[0.623544,51.527856],[0.622454,51.528856],[0.624053,51.528327]]],[[[0.605614,51.529061],[0.605637,51.529319],[0.608089,51.528574],[0.606489,51.528601],[0.606522,51.52882],[0.605231,51.529127],[0.60536,51.52934],[0.604835,51.529219],[0.605071,51.529487],[0.604289,51.529581],[0.605023,51.52958],[0.605422,51.529397],[0.605614,51.529061]]],[[[0.617085,51.529007],[0.61761,51.529368],[0.618224,51.528814],[0.617448,51.528174],[0.617509,51.527714],[0.617079,51.527303],[0.617042,51.527856],[0.616735,51.52736],[0.616034,51.52756],[0.616369,51.52799],[0.615984,51.527615],[0.614119,51.528195],[0.61495,51.528594],[0.615806,51.528212],[0.615469,51.528448],[0.616165,51.528415],[0.61519,51.528536],[0.615314,51.528926],[0.615877,51.5292],[0.616503,51.528622],[0.616004,51.529221],[0.617509,51.529489],[0.617085,51.529007]]],[[[0.622456,51.528932],[0.620041,51.528863],[0.620524,51.528648],[0.619152,51.528553],[0.617819,51.529371],[0.62106,51.529496],[0.622456,51.528932]]],[[[0.615314,51.528926],[0.614319,51.528401],[0.612262,51.528471],[0.611933,51.528786],[0.616376,51.529674],[0.617728,51.529685],[0.616357,51.529477],[0.615314,51.528926]]],[[[0.606688,51.529757],[0.60786,51.529219],[0.610756,51.52884],[0.610168,51.528595],[0.607822,51.528977],[0.605883,51.529836],[0.605343,51.529683],[0.606067,51.529312],[0.605151,51.529664],[0.604866,51.530139],[0.606688,51.529757]]],[[[0.600003,51.53025],[0.598846,51.530856],[0.60096,51.530395],[0.600003,51.53025]]],[[[0.604286,51.530792],[0.602758,51.530698],[0.602954,51.530942],[0.602528,51.531175],[0.604286,51.530792]]],[[[0.604545,51.531794],[0.604541,51.532126],[0.60572,51.531079],[0.60572,51.530759],[0.605053,51.530842],[0.605499,51.531016],[0.603091,51.532539],[0.603514,51.532687],[0.604278,51.532338],[0.603707,51.532345],[0.604342,51.532277],[0.604545,51.531794]]],[[[0.614024,51.532438],[0.612513,51.532955],[0.615587,51.53246],[0.614024,51.532438]]],[[[0.608764,51.531817],[0.608824,51.532163],[0.61392,51.530868],[0.612628,51.530235],[0.610349,51.530452],[0.611096,51.530848],[0.609356,51.530628],[0.607627,51.531728],[0.607847,51.531923],[0.607346,51.531855],[0.606691,51.532869],[0.604915,51.534217],[0.607528,51.533399],[0.608776,51.532297],[0.608424,51.5321],[0.608764,51.531817]]],[[[0.612964,51.533062],[0.611593,51.533156],[0.608929,51.534304],[0.612964,51.533062]]],[[[0.604479,51.533371],[0.603964,51.533414],[0.602144,51.534881],[0.604479,51.533371]]],[[[0.603718,51.533252],[0.603341,51.533337],[0.603651,51.533231],[0.603277,51.533102],[0.603828,51.53313],[0.605018,51.532376],[0.605779,51.531414],[0.604565,51.532526],[0.602149,51.533316],[0.603067,51.532836],[0.601804,51.53303],[0.602048,51.533339],[0.601726,51.533472],[0.601157,51.533279],[0.599169,51.533839],[0.59769,51.533798],[0.60124,51.534936],[0.603718,51.533252]]],[[[0.58212,51.535933],[0.582141,51.536091],[0.582605,51.535953],[0.58212,51.535933]]],[[[0.581761,51.535917],[0.581586,51.536146],[0.581935,51.536154],[0.581761,51.535917]]],[[[0.580444,51.536086],[0.579753,51.536318],[0.580294,51.536329],[0.580444,51.536086]]],[[[0.627427,51.534584],[0.627915,51.533847],[0.626697,51.532128],[0.624278,51.53222],[0.624653,51.532633],[0.61928,51.532695],[0.617194,51.53338],[0.615495,51.533154],[0.611709,51.533884],[0.609033,51.534826],[0.61414,51.534905],[0.6172,51.53562],[0.621224,51.535776],[0.624283,51.536429],[0.627427,51.534584]]],[[[0.596099,51.536434],[0.598996,51.535841],[0.597675,51.535501],[0.59975,51.535718],[0.600615,51.535468],[0.59984,51.535091],[0.600122,51.535312],[0.599569,51.535093],[0.599805,51.535586],[0.599031,51.535063],[0.598497,51.535163],[0.59886,51.534976],[0.59936,51.535162],[0.598375,51.534602],[0.598383,51.534978],[0.598078,51.534409],[0.596702,51.534097],[0.593321,51.535179],[0.594492,51.535124],[0.59111,51.535868],[0.591689,51.535641],[0.588983,51.535787],[0.586063,51.536583],[0.585856,51.537283],[0.596099,51.536434]]],[[[0.623389,51.536563],[0.622669,51.536989],[0.623503,51.536834],[0.62436,51.536739],[0.623389,51.536563]]],[[[0.587526,51.53762],[0.587442,51.53792],[0.59056,51.537411],[0.588086,51.537396],[0.582438,51.538211],[0.5859,51.538153],[0.587526,51.53762]]],[[[0.626964,51.538174],[0.625908,51.538154],[0.626757,51.538298],[0.626964,51.538174]]],[[[0.564116,51.539405],[0.563331,51.539111],[0.561702,51.539541],[0.56181,51.539797],[0.560922,51.540182],[0.562454,51.540402],[0.56344,51.54116],[0.563852,51.540862],[0.563833,51.541316],[0.564594,51.541291],[0.564389,51.540971],[0.564582,51.540882],[0.564116,51.539405]]],[[[0.558429,51.543707],[0.559053,51.543515],[0.55898,51.543896],[0.560298,51.543559],[0.560264,51.543192],[0.559443,51.543345],[0.560503,51.543071],[0.560565,51.543337],[0.561067,51.543257],[0.56289,51.542249],[0.559849,51.542966],[0.557724,51.543827],[0.557512,51.543749],[0.557276,51.54334],[0.557608,51.543765],[0.558079,51.543591],[0.557883,51.54333],[0.55845,51.543502],[0.559552,51.54285],[0.558452,51.542939],[0.55808,51.543277],[0.558235,51.543075],[0.557621,51.543268],[0.558258,51.542958],[0.557718,51.542865],[0.557348,51.543179],[0.557113,51.543206],[0.557516,51.543014],[0.556844,51.543089],[0.557616,51.542867],[0.556741,51.542977],[0.557004,51.54284],[0.55645,51.542549],[0.557818,51.542777],[0.557931,51.542439],[0.55641,51.5425],[0.556488,51.542238],[0.556847,51.54238],[0.557337,51.541956],[0.557719,51.542139],[0.558563,51.54178],[0.558953,51.541944],[0.559224,51.541579],[0.558785,51.542232],[0.558735,51.541912],[0.557882,51.542169],[0.558583,51.542702],[0.559614,51.542688],[0.559304,51.542348],[0.559687,51.542529],[0.559823,51.541928],[0.559958,51.542697],[0.560507,51.542633],[0.560325,51.542336],[0.560725,51.542588],[0.561819,51.54232],[0.561538,51.542156],[0.562321,51.542171],[0.56221,51.54189],[0.562474,51.542118],[0.563612,51.541649],[0.561299,51.541921],[0.561262,51.541652],[0.559857,51.541744],[0.559585,51.541551],[0.560362,51.541124],[0.559931,51.541671],[0.561318,51.541543],[0.560573,51.541299],[0.561013,51.541068],[0.561813,51.541399],[0.561427,51.541444],[0.561617,51.541647],[0.563554,51.541546],[0.562969,51.541158],[0.562465,51.541344],[0.562856,51.54105],[0.561897,51.541315],[0.56279,51.541005],[0.562196,51.540552],[0.562109,51.540748],[0.562014,51.540485],[0.561042,51.540389],[0.560695,51.540783],[0.561051,51.540934],[0.559853,51.541131],[0.560966,51.540429],[0.560011,51.54045],[0.559224,51.540876],[0.559387,51.541267],[0.559164,51.540904],[0.557821,51.541642],[0.556827,51.54163],[0.556351,51.54196],[0.556625,51.541649],[0.555801,51.541757],[0.555811,51.541974],[0.555555,51.541699],[0.556138,51.541692],[0.555535,51.541599],[0.557326,51.541377],[0.554873,51.541039],[0.5528,51.541815],[0.551467,51.542314],[0.552883,51.542881],[0.552702,51.542403],[0.552946,51.542682],[0.553112,51.542229],[0.552732,51.542048],[0.553189,51.542199],[0.553315,51.541846],[0.553686,51.542259],[0.55313,51.542375],[0.553128,51.542833],[0.553755,51.543113],[0.554788,51.542541],[0.553919,51.542423],[0.554714,51.54234],[0.553827,51.542026],[0.553499,51.541744],[0.554393,51.541854],[0.554744,51.542209],[0.555319,51.541959],[0.554793,51.541666],[0.555212,51.54148],[0.555436,51.541998],[0.555028,51.542318],[0.555601,51.542171],[0.556126,51.542544],[0.55572,51.542346],[0.555196,51.542615],[0.555814,51.542838],[0.555147,51.542671],[0.554396,51.543012],[0.554422,51.543227],[0.555276,51.543063],[0.554428,51.543262],[0.5548,51.543692],[0.555935,51.543368],[0.555081,51.543841],[0.555707,51.5439],[0.555394,51.543768],[0.555793,51.54361],[0.556938,51.543951],[0.557135,51.543794],[0.556692,51.543677],[0.557283,51.543805],[0.557155,51.543544],[0.5575,51.543863],[0.557219,51.543974],[0.558699,51.543957],[0.558429,51.543707]],[[0.560145,51.542042],[0.560808,51.542237],[0.560325,51.542336],[0.560145,51.542042]],[[0.562074,51.540829],[0.561429,51.54092],[0.562109,51.540748],[0.562074,51.540829]]],[[[0.548253,51.547095],[0.548814,51.546674],[0.547015,51.547142],[0.549018,51.546168],[0.548634,51.546616],[0.549088,51.546523],[0.550854,51.54561],[0.5492,51.546067],[0.551002,51.545143],[0.552253,51.545347],[0.552148,51.545057],[0.551629,51.545037],[0.552222,51.544808],[0.552756,51.545272],[0.55661,51.544471],[0.555861,51.544234],[0.555339,51.544513],[0.55575,51.544251],[0.55498,51.544199],[0.554511,51.544533],[0.554172,51.544171],[0.552779,51.54499],[0.553404,51.544529],[0.552569,51.544709],[0.554294,51.544058],[0.552054,51.544655],[0.551997,51.544404],[0.553044,51.544237],[0.551812,51.544105],[0.554253,51.543827],[0.552882,51.543792],[0.553736,51.543569],[0.552353,51.543567],[0.553194,51.54342],[0.552555,51.543182],[0.551862,51.543486],[0.552208,51.543756],[0.55183,51.543518],[0.551534,51.543872],[0.551295,51.543505],[0.551844,51.543262],[0.551134,51.543219],[0.552528,51.54304],[0.55082,51.542693],[0.550873,51.542917],[0.550516,51.54246],[0.551525,51.542627],[0.551397,51.542295],[0.550401,51.542293],[0.5528,51.541815],[0.554819,51.540919],[0.5564,51.540993],[0.555779,51.540837],[0.556697,51.540763],[0.556538,51.541003],[0.557178,51.541158],[0.557249,51.54093],[0.557618,51.541575],[0.558645,51.54096],[0.557538,51.541122],[0.557783,51.540703],[0.556725,51.540759],[0.558126,51.54062],[0.558131,51.540915],[0.558894,51.5406],[0.558252,51.540584],[0.559037,51.540365],[0.559183,51.540684],[0.559527,51.540478],[0.559081,51.540352],[0.563736,51.538832],[0.563366,51.539099],[0.564051,51.539352],[0.563992,51.539121],[0.564825,51.540829],[0.564487,51.541028],[0.565047,51.541294],[0.564475,51.539875],[0.564127,51.538588],[0.564818,51.539612],[0.56499,51.539247],[0.565083,51.539629],[0.56456,51.539866],[0.565297,51.5413],[0.568735,51.540281],[0.567573,51.540475],[0.568743,51.539943],[0.567764,51.539798],[0.567823,51.539567],[0.569321,51.539648],[0.569181,51.540155],[0.573228,51.539089],[0.573904,51.538696],[0.571518,51.538696],[0.572999,51.538445],[0.574758,51.537491],[0.576414,51.537193],[0.577489,51.537219],[0.577627,51.537599],[0.577445,51.537292],[0.57673,51.537238],[0.576612,51.537657],[0.577029,51.537762],[0.576688,51.537734],[0.576349,51.537518],[0.576557,51.537254],[0.575163,51.537485],[0.5753,51.537669],[0.574743,51.537559],[0.574524,51.537845],[0.575158,51.537953],[0.574427,51.537844],[0.57468,51.538095],[0.574322,51.537924],[0.574464,51.538159],[0.573745,51.538357],[0.5741,51.538809],[0.577161,51.538188],[0.581997,51.538095],[0.583634,51.537712],[0.581471,51.537832],[0.583048,51.537667],[0.581171,51.537403],[0.581518,51.537545],[0.580834,51.537728],[0.581236,51.537836],[0.580372,51.537905],[0.580753,51.537651],[0.580301,51.53741],[0.5803,51.537635],[0.580072,51.537898],[0.579707,51.537945],[0.579561,51.537752],[0.580206,51.537616],[0.579852,51.537421],[0.579652,51.537531],[0.579123,51.537654],[0.580281,51.537268],[0.58086,51.537578],[0.580761,51.53736],[0.582466,51.537456],[0.582262,51.537338],[0.583287,51.537618],[0.582713,51.537183],[0.583644,51.537581],[0.58342,51.537171],[0.583926,51.537525],[0.58392,51.537086],[0.584549,51.537429],[0.58392,51.537625],[0.585131,51.537434],[0.585277,51.537204],[0.584617,51.537278],[0.584713,51.53747],[0.584375,51.537147],[0.584998,51.537007],[0.580594,51.537178],[0.580866,51.536682],[0.58402,51.536859],[0.584178,51.536654],[0.584565,51.536875],[0.584113,51.536412],[0.584665,51.536626],[0.584879,51.536382],[0.584497,51.536264],[0.584988,51.536402],[0.585052,51.536475],[0.584665,51.536733],[0.585508,51.536533],[0.584732,51.536757],[0.585488,51.53706],[0.58589,51.536486],[0.583592,51.536106],[0.584009,51.536311],[0.583553,51.536388],[0.583738,51.536555],[0.58354,51.536491],[0.583409,51.536062],[0.583168,51.53649],[0.583233,51.536254],[0.582777,51.536267],[0.583228,51.536025],[0.582796,51.535946],[0.581808,51.536482],[0.579769,51.536445],[0.579631,51.536616],[0.580599,51.536658],[0.580267,51.537209],[0.579784,51.537007],[0.579105,51.537172],[0.579468,51.537398],[0.578964,51.537199],[0.578462,51.537502],[0.578584,51.537211],[0.578171,51.537603],[0.578339,51.537171],[0.577803,51.537452],[0.577609,51.53719],[0.57947,51.536834],[0.579461,51.536531],[0.579098,51.536613],[0.579827,51.535751],[0.579999,51.536016],[0.580708,51.535907],[0.580167,51.53572],[0.580978,51.535686],[0.58077,51.535903],[0.581416,51.535645],[0.581105,51.536185],[0.581554,51.535745],[0.583739,51.535649],[0.583874,51.53588],[0.585202,51.535938],[0.585464,51.535591],[0.585435,51.535989],[0.586658,51.536258],[0.58725,51.536071],[0.58666,51.535822],[0.587439,51.536031],[0.58737,51.535603],[0.587452,51.535985],[0.588482,51.535616],[0.588364,51.535403],[0.588817,51.535543],[0.589797,51.535132],[0.589307,51.535033],[0.589859,51.53511],[0.589078,51.535434],[0.590285,51.535434],[0.589929,51.535053],[0.589884,51.534892],[0.589954,51.534821],[0.59189,51.534278],[0.589924,51.534886],[0.590341,51.535433],[0.590798,51.535066],[0.590521,51.534992],[0.590854,51.535036],[0.590606,51.53538],[0.591473,51.535331],[0.594363,51.534439],[0.591865,51.534795],[0.591574,51.535085],[0.591741,51.534789],[0.591106,51.535042],[0.59091,51.534855],[0.593142,51.534505],[0.592218,51.534443],[0.594516,51.534316],[0.594402,51.534048],[0.593881,51.534133],[0.59441,51.534008],[0.594659,51.534317],[0.595603,51.533823],[0.594891,51.533908],[0.596511,51.533579],[0.595578,51.53399],[0.599268,51.533528],[0.598762,51.533006],[0.597426,51.533313],[0.598739,51.532899],[0.599462,51.533014],[0.599058,51.533189],[0.599578,51.53355],[0.60017,51.533004],[0.601534,51.532947],[0.602063,51.532499],[0.602374,51.532699],[0.602465,51.53228],[0.602834,51.532563],[0.602543,51.532666],[0.603002,51.532654],[0.60286,51.532214],[0.603371,51.532245],[0.603218,51.531821],[0.603608,51.531868],[0.603242,51.531701],[0.603752,51.531603],[0.603427,51.531341],[0.604104,51.531197],[0.604416,51.531607],[0.604424,51.531192],[0.604618,51.531433],[0.604941,51.530935],[0.602529,51.531337],[0.601935,51.531677],[0.602905,51.5314],[0.603064,51.53162],[0.602109,51.531885],[0.602178,51.53213],[0.601815,51.53191],[0.601459,51.532322],[0.601594,51.531928],[0.601267,51.532313],[0.600706,51.53232],[0.600907,51.532503],[0.600298,51.532375],[0.600512,51.532587],[0.599291,51.532817],[0.600195,51.532306],[0.598917,51.532603],[0.599292,51.532425],[0.598742,51.532364],[0.598229,51.532878],[0.59795,51.532612],[0.596833,51.532962],[0.596549,51.533484],[0.596642,51.532496],[0.598594,51.532193],[0.598028,51.532141],[0.598433,51.531879],[0.598911,51.531874],[0.598467,51.532043],[0.599009,51.532173],[0.600364,51.532083],[0.599028,51.531917],[0.600147,51.531947],[0.599494,51.531473],[0.600158,51.531605],[0.600003,51.531779],[0.600178,51.531917],[0.600388,51.531975],[0.600331,51.531582],[0.600856,51.532038],[0.601065,51.531792],[0.600509,51.531642],[0.601201,51.531766],[0.601423,51.531591],[0.600971,51.531522],[0.602286,51.53117],[0.601893,51.530984],[0.601726,51.531209],[0.601742,51.530972],[0.601451,51.531389],[0.601629,51.53098],[0.600895,51.530709],[0.600749,51.531158],[0.60129,51.53126],[0.600637,51.53141],[0.600627,51.531004],[0.600146,51.530994],[0.600221,51.531302],[0.599867,51.530985],[0.596933,51.531931],[0.596583,51.532415],[0.596591,51.531267],[0.595809,51.530619],[0.597386,51.530865],[0.598638,51.530256],[0.598481,51.529866],[0.597332,51.529786],[0.597235,51.530196],[0.597929,51.530281],[0.597256,51.530232],[0.597061,51.530129],[0.597366,51.529685],[0.597509,51.529563],[0.598524,51.529753],[0.598672,51.530097],[0.600993,51.529582],[0.6044,51.53023],[0.604699,51.529936],[0.604023,51.529648],[0.601729,51.529631],[0.60352,51.529622],[0.608265,51.527939],[0.608706,51.528252],[0.610397,51.528099],[0.609981,51.527483],[0.610023,51.52778],[0.609049,51.528033],[0.608465,51.527847],[0.610184,51.527241],[0.610874,51.528357],[0.611694,51.527949],[0.611245,51.527761],[0.612104,51.527635],[0.611832,51.527208],[0.610625,51.527643],[0.610417,51.527256],[0.612033,51.527],[0.612188,51.527617],[0.612162,51.526989],[0.612727,51.526894],[0.613029,51.527264],[0.612857,51.526877],[0.614884,51.526551],[0.617142,51.526317],[0.616962,51.526696],[0.617409,51.52669],[0.617389,51.526365],[0.618007,51.526236],[0.617478,51.526672],[0.618232,51.526665],[0.618631,51.526151],[0.619818,51.525867],[0.619163,51.526074],[0.621417,51.526338],[0.621745,51.526511],[0.622104,51.526851],[0.622199,51.525766],[0.620799,51.525743],[0.622161,51.525664],[0.621802,51.525257],[0.622227,51.52554],[0.622648,51.524454],[0.624381,51.522707],[0.624193,51.523113],[0.625313,51.522929],[0.624452,51.522584],[0.624537,51.522227],[0.625203,51.522774],[0.62581,51.522736],[0.625943,51.522258],[0.625043,51.521696],[0.625115,51.521944],[0.62456,51.521975],[0.624227,51.521787],[0.624178,51.521826],[0.623311,51.521559],[0.623268,51.521268],[0.62401,51.521606],[0.624151,51.521376],[0.623195,51.521209],[0.623198,51.521443],[0.622847,51.521165],[0.622467,51.521585],[0.622651,51.521135],[0.621441,51.521286],[0.62162,51.521095],[0.620834,51.521028],[0.620613,51.521438],[0.620468,51.520984],[0.619954,51.521355],[0.618954,51.521015],[0.618917,51.521442],[0.617745,51.521948],[0.617516,51.521666],[0.616932,51.522179],[0.616727,51.522011],[0.616923,51.521414],[0.617517,51.521228],[0.617223,51.520984],[0.617896,51.520625],[0.617684,51.520998],[0.618152,51.52078],[0.618446,51.520273],[0.618614,51.520649],[0.622109,51.520414],[0.624392,51.520869],[0.624855,51.520718],[0.627172,51.522157],[0.627472,51.521335],[0.627178,51.520652],[0.627498,51.520637],[0.627464,51.521892],[0.627778,51.52173],[0.627348,51.522207],[0.627786,51.522494],[0.628373,51.521652],[0.627868,51.521196],[0.628389,51.521578],[0.62806,51.521001],[0.628658,51.521487],[0.628475,51.521173],[0.628806,51.521373],[0.629256,51.52081],[0.628493,51.520622],[0.629431,51.52079],[0.629164,51.521117],[0.62949,51.521119],[0.628855,51.521434],[0.629195,51.5216],[0.629473,51.521193],[0.629465,51.521502],[0.628971,51.522052],[0.628443,51.522028],[0.628271,51.522677],[0.628796,51.522655],[0.628738,51.522909],[0.629047,51.522487],[0.629382,51.522668],[0.629601,51.521774],[0.629435,51.522671],[0.629782,51.522473],[0.629779,51.52273],[0.629318,51.523129],[0.62962,51.523224],[0.630273,51.521914],[0.630546,51.522051],[0.630032,51.521593],[0.629737,51.520855],[0.630693,51.521071],[0.629811,51.52096],[0.630521,51.521868],[0.630534,51.521473],[0.63083,51.521904],[0.631087,51.521387],[0.630848,51.521114],[0.631432,51.521367],[0.630941,51.521862],[0.631654,51.522399],[0.631991,51.522137],[0.632881,51.522299],[0.631461,51.521775],[0.631589,51.521413],[0.631968,51.521886],[0.632255,51.521561],[0.633279,51.521668],[0.633663,51.522356],[0.634344,51.522192],[0.63389,51.521325],[0.633199,51.521136],[0.633929,51.521303],[0.635454,51.52176],[0.635038,51.521857],[0.633996,51.521355],[0.634252,51.521842],[0.635134,51.52204],[0.634242,51.521905],[0.634678,51.522241],[0.634121,51.522318],[0.63443,51.523211],[0.634819,51.522277],[0.635379,51.52203],[0.636226,51.522195],[0.634837,51.522298],[0.634815,51.523001],[0.635519,51.523023],[0.635927,51.522624],[0.636632,51.522766],[0.636859,51.521936],[0.635406,51.521515],[0.635369,51.521241],[0.634928,51.521395],[0.635157,51.521207],[0.634644,51.520988],[0.632685,51.520845],[0.632489,51.51938],[0.631474,51.519615],[0.631922,51.519934],[0.631798,51.520243],[0.632386,51.520491],[0.631643,51.520461],[0.632507,51.520656],[0.631577,51.520583],[0.632644,51.52084],[0.63158,51.520635],[0.632473,51.520943],[0.631586,51.520785],[0.631837,51.520962],[0.631239,51.521151],[0.631977,51.520991],[0.63191,51.521184],[0.632817,51.521293],[0.633014,51.521011],[0.632869,51.521305],[0.63126,51.521244],[0.629845,51.520775],[0.627881,51.520483],[0.627983,51.520071],[0.627239,51.519772],[0.626616,51.51969],[0.626355,51.520323],[0.625696,51.520237],[0.626326,51.520244],[0.626743,51.518547],[0.624797,51.518559],[0.624793,51.518979],[0.624482,51.51867],[0.625039,51.516397],[0.620768,51.515802],[0.617012,51.514328],[0.609566,51.513815],[0.600014,51.51226],[0.599984,51.511905],[0.598811,51.512011],[0.599986,51.511963],[0.59999,51.512168],[0.597787,51.512119],[0.589436,51.510882],[0.587942,51.5117],[0.587403,51.513099],[0.586329,51.513215],[0.584455,51.5128],[0.584154,51.511168],[0.580541,51.509209],[0.576833,51.508825],[0.572997,51.507805],[0.553265,51.510544],[0.553654,51.509884],[0.552178,51.511398],[0.549041,51.516011],[0.546356,51.518379],[0.539521,51.520673],[0.539377,51.52033],[0.537037,51.520251],[0.539217,51.520669],[0.532422,51.519409],[0.533233,51.519369],[0.532193,51.518822],[0.531685,51.519187],[0.531072,51.519059],[0.531672,51.51915],[0.532017,51.518874],[0.531445,51.518892],[0.531957,51.518758],[0.531543,51.518593],[0.53056,51.518941],[0.528663,51.518774],[0.530461,51.518911],[0.531297,51.518632],[0.529066,51.518534],[0.529212,51.518348],[0.528854,51.518569],[0.52848,51.518339],[0.525735,51.519897],[0.524644,51.521701],[0.524214,51.521695],[0.525021,51.520412],[0.523733,51.522038],[0.524492,51.521861],[0.522916,51.524342],[0.520721,51.527265],[0.518251,51.529678],[0.519273,51.529685],[0.518127,51.529752],[0.518084,51.530028],[0.520793,51.531029],[0.519228,51.530345],[0.520012,51.530287],[0.520889,51.530801],[0.52103,51.530521],[0.520465,51.53018],[0.521103,51.530532],[0.521253,51.531012],[0.520817,51.530998],[0.522058,51.531911],[0.522152,51.531164],[0.521215,51.530626],[0.522294,51.531173],[0.522502,51.531827],[0.522141,51.531993],[0.522508,51.532241],[0.522917,51.532368],[0.522616,51.531901],[0.523857,51.532196],[0.522966,51.532085],[0.52302,51.532394],[0.52411,51.532461],[0.523969,51.532193],[0.525132,51.532422],[0.524565,51.532158],[0.525029,51.53211],[0.525504,51.532392],[0.525153,51.532082],[0.526868,51.531633],[0.525213,51.532086],[0.525591,51.532389],[0.526068,51.532298],[0.526059,51.532],[0.526392,51.532182],[0.527645,51.531447],[0.527337,51.531692],[0.531378,51.531088],[0.530616,51.530993],[0.532071,51.530532],[0.531204,51.530838],[0.531591,51.531017],[0.532457,51.530626],[0.532336,51.530432],[0.532453,51.530216],[0.532456,51.530595],[0.533553,51.530283],[0.535218,51.53056],[0.537418,51.532092],[0.537811,51.532026],[0.537676,51.532475],[0.538646,51.533454],[0.539059,51.533688],[0.539021,51.532832],[0.539093,51.533687],[0.539966,51.533945],[0.539522,51.53373],[0.53911,51.53247],[0.538692,51.532702],[0.539187,51.532032],[0.538757,51.532111],[0.539226,51.531875],[0.538738,51.531786],[0.539226,51.531746],[0.539063,51.531554],[0.539231,51.531647],[0.539235,51.531798],[0.539377,51.531463],[0.539046,51.531342],[0.538066,51.532016],[0.538968,51.531305],[0.539756,51.531572],[0.540763,51.532702],[0.539835,51.531719],[0.539402,51.531718],[0.539213,51.532573],[0.539473,51.531877],[0.539733,51.532144],[0.539333,51.532545],[0.53971,51.532637],[0.539231,51.532661],[0.539666,51.532836],[0.539817,51.533833],[0.540588,51.533965],[0.540246,51.53376],[0.540015,51.533323],[0.540206,51.532934],[0.54069,51.533107],[0.540668,51.53336],[0.540062,51.533296],[0.54031,51.533784],[0.54046,51.533536],[0.540473,51.533861],[0.54149,51.533948],[0.541712,51.533547],[0.541364,51.533284],[0.543199,51.53446],[0.543436,51.535182],[0.543526,51.53475],[0.543192,51.536921],[0.54333,51.537357],[0.543721,51.537321],[0.543702,51.537078],[0.543911,51.537623],[0.543732,51.537376],[0.543448,51.537537],[0.54418,51.538791],[0.543971,51.539767],[0.544419,51.539496],[0.54398,51.539891],[0.544394,51.54136],[0.544528,51.54131],[0.544844,51.541465],[0.544929,51.541238],[0.544619,51.540659],[0.545024,51.541248],[0.544901,51.541516],[0.5445,51.541363],[0.544321,51.541588],[0.544015,51.542738],[0.544643,51.542983],[0.544464,51.542007],[0.544799,51.543101],[0.543956,51.54292],[0.543897,51.543864],[0.544503,51.543184],[0.544338,51.544243],[0.544161,51.543675],[0.543856,51.544275],[0.544203,51.544199],[0.544267,51.545006],[0.54434,51.544371],[0.545007,51.546739],[0.546594,51.547294],[0.546208,51.547421],[0.548253,51.547095]],[[0.6316,51.52138],[0.632783,51.521476],[0.631589,51.521413],[0.6316,51.52138]]],[[[0.582691,51.582954],[0.586893,51.579999],[0.588379,51.579499],[0.588989,51.578777],[0.591648,51.577856],[0.612939,51.575473],[0.632077,51.570529],[0.63159,51.569931],[0.63412,51.569484],[0.635141,51.567953],[0.633115,51.565482],[0.634392,51.565263],[0.634677,51.561802],[0.635576,51.56065],[0.633137,51.559094],[0.631685,51.557645],[0.629365,51.556386],[0.628526,51.555398],[0.627015,51.555401],[0.62553,51.553664],[0.627191,51.551197],[0.62416,51.547658],[0.624785,51.543787],[0.623913,51.542082],[0.623213,51.542124],[0.623275,51.541325],[0.623757,51.541258],[0.622979,51.540915],[0.62296,51.540468],[0.62474,51.540409],[0.623997,51.539033],[0.624335,51.538563],[0.625429,51.538072],[0.627017,51.538125],[0.62645,51.537626],[0.624291,51.537322],[0.626291,51.53754],[0.625288,51.53706],[0.623356,51.537206],[0.625255,51.536986],[0.624417,51.536785],[0.622639,51.537019],[0.621884,51.537395],[0.621928,51.53754],[0.621702,51.537896],[0.621369,51.537858],[0.62179,51.537543],[0.621584,51.537657],[0.620487,51.537733],[0.621577,51.537634],[0.621884,51.537304],[0.621482,51.53745],[0.621198,51.537486],[0.620352,51.537276],[0.620369,51.536954],[0.621122,51.537443],[0.621742,51.537261],[0.621208,51.537374],[0.620839,51.537182],[0.621726,51.537118],[0.620574,51.536413],[0.621123,51.536507],[0.621764,51.537101],[0.621783,51.537242],[0.622351,51.537116],[0.622201,51.536667],[0.622484,51.537005],[0.623277,51.536447],[0.622347,51.536165],[0.621823,51.536437],[0.622274,51.536152],[0.621542,51.535967],[0.620354,51.535874],[0.620171,51.536404],[0.619244,51.536509],[0.617972,51.536357],[0.620076,51.536383],[0.620248,51.535828],[0.617925,51.535768],[0.617571,51.535999],[0.61727,51.535953],[0.617724,51.535747],[0.614322,51.535392],[0.613294,51.534977],[0.612876,51.53514],[0.613762,51.535288],[0.610752,51.535166],[0.613084,51.534942],[0.608442,51.534939],[0.607681,51.535125],[0.608693,51.535159],[0.605825,51.535843],[0.605421,51.535498],[0.604841,51.535557],[0.605107,51.536058],[0.604202,51.53605],[0.604346,51.536687],[0.604016,51.536117],[0.603866,51.536504],[0.603811,51.53617],[0.602444,51.536569],[0.603343,51.536531],[0.602628,51.536685],[0.604158,51.536992],[0.6023,51.536722],[0.602292,51.536595],[0.600334,51.537253],[0.600741,51.536954],[0.599873,51.53715],[0.600227,51.537329],[0.599739,51.537648],[0.599733,51.537232],[0.599085,51.537292],[0.599421,51.537153],[0.587494,51.538917],[0.587711,51.538991],[0.587082,51.539004],[0.588326,51.538674],[0.580465,51.539704],[0.580561,51.539472],[0.57867,51.539292],[0.578268,51.539565],[0.579586,51.539496],[0.57802,51.539609],[0.578015,51.539939],[0.577576,51.539661],[0.578138,51.539338],[0.577048,51.539652],[0.57708,51.540171],[0.577015,51.539608],[0.577205,51.539515],[0.576635,51.539633],[0.576506,51.540323],[0.576393,51.53969],[0.574497,51.540211],[0.575911,51.540183],[0.575011,51.540605],[0.575192,51.540321],[0.574619,51.540427],[0.574363,51.540178],[0.570297,51.541157],[0.567594,51.54158],[0.566763,51.54143],[0.5639,51.542417],[0.559588,51.544659],[0.555327,51.545026],[0.550954,51.545963],[0.547338,51.547682],[0.545114,51.547693],[0.54432,51.547139],[0.544327,51.546272],[0.542252,51.548472],[0.541721,51.548491],[0.539107,51.551732],[0.538062,51.554328],[0.538587,51.554313],[0.537992,51.554659],[0.538663,51.555435],[0.538147,51.555388],[0.538265,51.556039],[0.539741,51.558883],[0.539692,51.56008],[0.541552,51.564069],[0.541724,51.565765],[0.542329,51.565753],[0.543364,51.566318],[0.543802,51.567284],[0.542725,51.567449],[0.542277,51.567836],[0.542233,51.569446],[0.54299,51.57192],[0.545145,51.57476],[0.54943,51.577427],[0.557592,51.580609],[0.564659,51.583873],[0.567041,51.585512],[0.568017,51.58667],[0.568426,51.586578],[0.568791,51.587317],[0.567866,51.587226],[0.566252,51.587783],[0.565919,51.588245],[0.570102,51.587683],[0.582691,51.582954]]]]}}]}