{"type":"FeatureCollection","features":[{"type":"Feature","properties":{"slug":"central-bedfordshire","gss_code":"E06000056","name":"Central Bedfordshire"},"geometry":{"type":"Polygon","coordinates":[[[-0.281103,52.18955],[-0.27556,52.188601],[-0.272509,52.187528],[-0.267569,52.187301],[-0.25625,52.185818],[-0.254208,52.185819],[-0.249785,52.184371],[-0.253448,52.180858],[-0.257714,52.178148],[-0.257229,52.177679],[-0.260694,52.176401],[-0.257391,52.174292],[-0.254844,52.173397],[-0.25416,52.172765],[-0.254399,52.172185],[-0.253776,52.172032],[-0.253543,52.172568],[-0.249988,52.172322],[-0.240118,52.170233],[-0.228863,52.166243],[-0.226096,52.164938],[-0.223231,52.162656],[-0.223604,52.162253],[-0.221213,52.160976],[-0.219758,52.161542],[-0.216662,52.158767],[-0.218089,52.158166],[-0.219425,52.157009],[-0.222703,52.15313],[-0.22488,52.149755],[-0.227949,52.147793],[-0.234804,52.144727],[-0.219168,52.143893],[-0.21721,52.144078],[-0.213607,52.143379],[-0.20932,52.143843],[-0.207779,52.144537],[-0.206204,52.144449],[-0.204138,52.143979],[-0.203417,52.143356],[-0.19807,52.142005],[-0.190783,52.141468],[-0.181679,52.13976],[-0.176025,52.139762],[-0.174475,52.140328],[-0.171535,52.139503],[-0.169133,52.14026],[-0.166106,52.139892],[-0.163751,52.140128],[-0.163945,52.142392],[-0.162712,52.1426],[-0.162657,52.143061],[-0.160087,52.143023],[-0.159673,52.144068],[-0.156466,52.143972],[-0.154403,52.144411],[-0.152706,52.14316],[-0.150513,52.143619],[-0.151441,52.14181],[-0.149691,52.138835],[-0.148352,52.138953],[-0.144434,52.138164],[-0.144197,52.129943],[-0.145605,52.11789],[-0.143986,52.117742],[-0.145887,52.115568],[-0.147888,52.114253],[-0.146833,52.113702],[-0.146748,52.112842],[-0.145738,52.111763],[-0.146944,52.11117],[-0.14543,52.109902],[-0.147049,52.109027],[-0.145897,52.107895],[-0.147665,52.107117],[-0.146233,52.105987],[-0.147834,52.10389],[-0.146871,52.103014],[-0.148429,52.101556],[-0.147165,52.10041],[-0.148504,52.099664],[-0.147485,52.098845],[-0.150335,52.097014],[-0.148487,52.095443],[-0.149137,52.095117],[-0.148674,52.094679],[-0.148993,52.09451],[-0.148588,52.093463],[-0.14929,52.093148],[-0.148887,52.092703],[-0.149748,52.092171],[-0.149001,52.091226],[-0.15045,52.088832],[-0.154084,52.086241],[-0.15461,52.085189],[-0.154311,52.084964],[-0.155014,52.084672],[-0.154867,52.084125],[-0.155298,52.084206],[-0.155197,52.083834],[-0.155707,52.083807],[-0.155425,52.083357],[-0.156227,52.083452],[-0.155922,52.082627],[-0.156748,52.081749],[-0.15625,52.08137],[-0.156669,52.081175],[-0.156229,52.081051],[-0.160544,52.0797],[-0.164166,52.077035],[-0.164514,52.076332],[-0.164298,52.075248],[-0.164783,52.075056],[-0.164366,52.074618],[-0.166247,52.070698],[-0.167831,52.069006],[-0.169824,52.06545],[-0.171601,52.063328],[-0.17254,52.060223],[-0.180545,52.06135],[-0.194983,52.062415],[-0.195636,52.060972],[-0.197724,52.059501],[-0.197094,52.05901],[-0.199138,52.05725],[-0.199183,52.056665],[-0.209008,52.047301],[-0.211181,52.044533],[-0.211966,52.042845],[-0.219493,52.036741],[-0.212823,52.026568],[-0.207533,52.020241],[-0.206045,52.016114],[-0.201256,52.009825],[-0.2039,52.008745],[-0.213491,52.008514],[-0.213645,52.008861],[-0.217119,52.005997],[-0.218353,52.006338],[-0.219366,52.005409],[-0.220724,52.005755],[-0.221771,52.004675],[-0.223194,52.005078],[-0.224749,52.003927],[-0.227632,52.002987],[-0.229182,52.002942],[-0.232055,52.000538],[-0.236868,51.997947],[-0.238523,51.998157],[-0.237601,51.999058],[-0.244079,51.999023],[-0.244959,51.993114],[-0.24564,51.993052],[-0.245014,51.992894],[-0.245743,51.988921],[-0.246216,51.987933],[-0.248401,51.987882],[-0.248451,51.987432],[-0.246611,51.98748],[-0.247983,51.98508],[-0.257449,51.985386],[-0.258297,51.983114],[-0.259282,51.983159],[-0.260255,51.979705],[-0.263175,51.979625],[-0.267186,51.980266],[-0.270654,51.979612],[-0.271666,51.981501],[-0.273901,51.98121],[-0.273186,51.982415],[-0.274108,51.983043],[-0.274863,51.982836],[-0.274669,51.984282],[-0.273739,51.985335],[-0.273838,51.986659],[-0.272801,51.987226],[-0.272281,51.988136],[-0.272853,51.988236],[-0.272879,51.988687],[-0.274598,51.989139],[-0.274445,51.989625],[-0.275792,51.990956],[-0.275623,51.991844],[-0.277106,51.993624],[-0.27891,51.994697],[-0.282599,51.996053],[-0.283375,51.99666],[-0.283594,51.997381],[-0.282796,51.997717],[-0.282954,51.998722],[-0.28401,51.999377],[-0.281925,52.000911],[-0.282416,52.001564],[-0.283933,52.001816],[-0.284747,52.001215],[-0.28555,52.001523],[-0.287663,52.001505],[-0.290508,52.000772],[-0.292046,52.001058],[-0.294409,52.002042],[-0.296089,52.002192],[-0.300004,52.000755],[-0.29533,51.99541],[-0.300579,51.99227],[-0.304586,51.990522],[-0.306839,51.989],[-0.308462,51.986923],[-0.310408,51.982603],[-0.312557,51.981893],[-0.315065,51.981924],[-0.318089,51.982615],[-0.321751,51.982577],[-0.331777,51.983964],[-0.334412,51.98388],[-0.338729,51.982722],[-0.340689,51.982532],[-0.345777,51.983148],[-0.347096,51.98378],[-0.352376,51.983293],[-0.352587,51.983563],[-0.352071,51.983697],[-0.352359,51.984166],[-0.353018,51.983875],[-0.356231,51.985235],[-0.358713,51.985511],[-0.361325,51.985365],[-0.365682,51.983941],[-0.367296,51.983749],[-0.367603,51.982445],[-0.367273,51.982149],[-0.367969,51.980071],[-0.366902,51.978969],[-0.365905,51.978688],[-0.365867,51.97752],[-0.363383,51.97604],[-0.363814,51.975166],[-0.361893,51.974385],[-0.359383,51.973894],[-0.354034,51.974161],[-0.351951,51.973739],[-0.350747,51.97276],[-0.349316,51.971154],[-0.349704,51.970479],[-0.349084,51.970008],[-0.351728,51.966201],[-0.35076,51.965376],[-0.351275,51.964655],[-0.349162,51.963741],[-0.351189,51.961967],[-0.350225,51.957578],[-0.353888,51.95716],[-0.363305,51.952864],[-0.366088,51.950674],[-0.36987,51.949439],[-0.372582,51.948019],[-0.374105,51.947769],[-0.374213,51.948686],[-0.381556,51.950609],[-0.382524,51.950916],[-0.382912,51.951414],[-0.382986,51.953452],[-0.38177,51.955297],[-0.379807,51.957065],[-0.379374,51.958138],[-0.37951,51.963412],[-0.380423,51.96538],[-0.379247,51.967318],[-0.378206,51.971636],[-0.378903,51.97365],[-0.378721,51.975886],[-0.379535,51.976591],[-0.37963,51.977958],[-0.380245,51.978348],[-0.380686,51.979432],[-0.384832,51.978288],[-0.386317,51.97945],[-0.388626,51.978591],[-0.388835,51.978052],[-0.390373,51.977619],[-0.391359,51.976983],[-0.391147,51.975547],[-0.391623,51.975125],[-0.391748,51.973514],[-0.393325,51.971806],[-0.393069,51.970521],[-0.393615,51.969377],[-0.393433,51.968577],[-0.394158,51.968323],[-0.394776,51.967371],[-0.398944,51.967437],[-0.399439,51.967671],[-0.398882,51.964929],[-0.400222,51.964879],[-0.401284,51.960589],[-0.402212,51.960524],[-0.401669,51.956372],[-0.403706,51.956144],[-0.403994,51.955575],[-0.403989,51.955341],[-0.402811,51.954998],[-0.403329,51.953616],[-0.402901,51.950953],[-0.403476,51.950512],[-0.402116,51.948952],[-0.403936,51.947882],[-0.404508,51.947033],[-0.405218,51.946989],[-0.404716,51.946165],[-0.40523,51.946035],[-0.405035,51.945483],[-0.4063,51.941294],[-0.405444,51.938429],[-0.403426,51.935997],[-0.403744,51.935873],[-0.40248,51.933394],[-0.405648,51.932466],[-0.402485,51.930167],[-0.397679,51.928784],[-0.389345,51.925779],[-0.388621,51.925097],[-0.389349,51.924749],[-0.388458,51.923467],[-0.387868,51.921372],[-0.384727,51.919462],[-0.384431,51.91957],[-0.383579,51.918275],[-0.385169,51.91682],[-0.385616,51.91568],[-0.386612,51.915628],[-0.387219,51.915944],[-0.393008,51.914412],[-0.393733,51.915462],[-0.40122,51.913053],[-0.402437,51.909703],[-0.40756,51.910692],[-0.414758,51.911531],[-0.418339,51.912778],[-0.419065,51.912304],[-0.420924,51.915253],[-0.421163,51.917453],[-0.422099,51.920095],[-0.422458,51.920169],[-0.421682,51.925681],[-0.426312,51.926727],[-0.431555,51.926948],[-0.437816,51.927747],[-0.438715,51.927026],[-0.438483,51.926054],[-0.441361,51.926177],[-0.446504,51.925583],[-0.4503,51.924731],[-0.456423,51.924603],[-0.458657,51.923944],[-0.462393,51.923543],[-0.465829,51.924104],[-0.470441,51.924171],[-0.475751,51.923685],[-0.482278,51.922349],[-0.485701,51.922701],[-0.486572,51.922148],[-0.478497,51.917331],[-0.481562,51.912884],[-0.482276,51.907795],[-0.490722,51.905243],[-0.491523,51.906338],[-0.494047,51.906075],[-0.497659,51.904004],[-0.505923,51.900612],[-0.484896,51.891342],[-0.483941,51.8883],[-0.479763,51.888519],[-0.466654,51.888194],[-0.455275,51.882287],[-0.449406,51.878351],[-0.441649,51.872122],[-0.4327,51.862423],[-0.425666,51.857127],[-0.423362,51.854784],[-0.42207,51.854481],[-0.420809,51.855086],[-0.416018,51.85931],[-0.414417,51.859035],[-0.414925,51.860772],[-0.416126,51.861995],[-0.412543,51.862868],[-0.410819,51.861783],[-0.409121,51.861495],[-0.405293,51.864375],[-0.403506,51.86645],[-0.400893,51.868652],[-0.397596,51.869668],[-0.39586,51.870581],[-0.393184,51.869727],[-0.391468,51.870129],[-0.388522,51.871867],[-0.386993,51.871213],[-0.380326,51.870186],[-0.37866,51.87016],[-0.377444,51.870838],[-0.376025,51.869874],[-0.375354,51.870429],[-0.374583,51.870057],[-0.37518,51.86949],[-0.369755,51.868115],[-0.365784,51.870762],[-0.368298,51.87306],[-0.362871,51.874024],[-0.358009,51.873197],[-0.354834,51.874015],[-0.353884,51.870556],[-0.355215,51.867255],[-0.353745,51.864331],[-0.350323,51.860839],[-0.349524,51.857183],[-0.347085,51.855486],[-0.342173,51.853014],[-0.340946,51.850575],[-0.339486,51.849606],[-0.341455,51.848338],[-0.341436,51.847744],[-0.342276,51.847394],[-0.342038,51.846641],[-0.344305,51.845376],[-0.357671,51.840016],[-0.358966,51.841409],[-0.363308,51.842105],[-0.364058,51.841183],[-0.36495,51.837917],[-0.367525,51.835105],[-0.368539,51.832868],[-0.36873,51.831083],[-0.370766,51.830567],[-0.373229,51.829269],[-0.373959,51.829191],[-0.380838,51.831103],[-0.39274,51.835572],[-0.398,51.837183],[-0.409176,51.84295],[-0.411985,51.846174],[-0.41393,51.8465],[-0.419331,51.848745],[-0.421501,51.850205],[-0.421631,51.849551],[-0.423448,51.849712],[-0.423485,51.849403],[-0.424848,51.849444],[-0.424913,51.846709],[-0.425235,51.846721],[-0.431654,51.848887],[-0.432725,51.848126],[-0.438986,51.851835],[-0.447525,51.847602],[-0.454063,51.853033],[-0.457875,51.850599],[-0.461183,51.852614],[-0.464104,51.850147],[-0.465866,51.850807],[-0.468249,51.85306],[-0.469683,51.855898],[-0.474785,51.853904],[-0.478298,51.853137],[-0.47698,51.850166],[-0.471196,51.845468],[-0.479571,51.842144],[-0.490933,51.842819],[-0.492062,51.838353],[-0.491882,51.835278],[-0.49398,51.835634],[-0.496732,51.837325],[-0.501818,51.836795],[-0.505425,51.831662],[-0.506017,51.8273],[-0.507969,51.826461],[-0.511193,51.825894],[-0.509772,51.825101],[-0.50881,51.824048],[-0.503347,51.822444],[-0.501594,51.821487],[-0.502486,51.820577],[-0.500875,51.819394],[-0.504276,51.817697],[-0.503968,51.816581],[-0.502283,51.815459],[-0.506368,51.813966],[-0.510697,51.811107],[-0.517515,51.808457],[-0.519729,51.805095],[-0.520813,51.80577],[-0.521976,51.805489],[-0.5241,51.805811],[-0.529449,51.808288],[-0.530435,51.809451],[-0.532219,51.808753],[-0.532509,51.80892],[-0.536925,51.814125],[-0.541093,51.814999],[-0.541165,51.81473],[-0.54318,51.815464],[-0.542747,51.815759],[-0.543711,51.816984],[-0.541685,51.818445],[-0.544852,51.82065],[-0.548498,51.824158],[-0.553614,51.826753],[-0.550032,51.828141],[-0.548936,51.828021],[-0.546265,51.825873],[-0.54373,51.824576],[-0.542359,51.825291],[-0.541502,51.826992],[-0.539632,51.828263],[-0.537619,51.831473],[-0.541858,51.832965],[-0.545297,51.835051],[-0.546894,51.835228],[-0.548245,51.835892],[-0.551046,51.839614],[-0.553308,51.841664],[-0.555927,51.843311],[-0.555612,51.843833],[-0.556233,51.84473],[-0.557344,51.845109],[-0.561987,51.845556],[-0.564053,51.847096],[-0.565367,51.848366],[-0.56682,51.850808],[-0.563856,51.850991],[-0.56368,51.851239],[-0.56414,51.851603],[-0.567442,51.85104],[-0.569268,51.851764],[-0.570732,51.854586],[-0.571441,51.855036],[-0.569248,51.858071],[-0.573496,51.860849],[-0.573862,51.862474],[-0.57558,51.8645],[-0.576205,51.864533],[-0.576302,51.865143],[-0.577267,51.865993],[-0.57975,51.866374],[-0.582482,51.867803],[-0.583564,51.870324],[-0.58686,51.870539],[-0.60897,51.875564],[-0.612561,51.877558],[-0.620089,51.885486],[-0.622274,51.88454],[-0.623022,51.884518],[-0.628424,51.88212],[-0.629076,51.88247],[-0.63734,51.88264],[-0.638061,51.883154],[-0.64067,51.883675],[-0.642197,51.884333],[-0.647181,51.885443],[-0.64727,51.885971],[-0.647964,51.885656],[-0.648263,51.886297],[-0.649814,51.88629],[-0.650998,51.886594],[-0.651472,51.887039],[-0.651986,51.886852],[-0.654813,51.887917],[-0.655314,51.888797],[-0.657683,51.889912],[-0.657959,51.890428],[-0.659634,51.890616],[-0.660367,51.892222],[-0.65956,51.892279],[-0.658986,51.893004],[-0.659567,51.894222],[-0.662535,51.89598],[-0.662877,51.895531],[-0.665338,51.896414],[-0.665867,51.896252],[-0.666383,51.896652],[-0.667254,51.89663],[-0.667955,51.897803],[-0.66882,51.897853],[-0.671204,51.899999],[-0.672321,51.900175],[-0.672845,51.900799],[-0.672544,51.901293],[-0.673236,51.901818],[-0.675667,51.901415],[-0.678422,51.901523],[-0.682683,51.900279],[-0.689702,51.900178],[-0.690681,51.9004],[-0.69222,51.900162],[-0.694459,51.900729],[-0.695766,51.901828],[-0.696301,51.904082],[-0.702157,51.909119],[-0.698516,51.913147],[-0.695844,51.917108],[-0.69262,51.920577],[-0.690292,51.925432],[-0.691463,51.927055],[-0.688831,51.929149],[-0.682957,51.935844],[-0.681579,51.935142],[-0.680284,51.935494],[-0.680296,51.936435],[-0.68159,51.937636],[-0.681259,51.938072],[-0.681695,51.938367],[-0.681055,51.938627],[-0.682078,51.939804],[-0.682279,51.941325],[-0.682969,51.941822],[-0.682289,51.942763],[-0.67862,51.944397],[-0.67494,51.945058],[-0.674034,51.944406],[-0.67386,51.943201],[-0.670544,51.943583],[-0.670253,51.944134],[-0.67076,51.944787],[-0.672108,51.94518],[-0.672698,51.94597],[-0.67216,51.946636],[-0.670644,51.947235],[-0.669704,51.948665],[-0.671284,51.94974],[-0.671441,51.950746],[-0.67308,51.952221],[-0.672607,51.952861],[-0.672785,51.954492],[-0.672076,51.95591],[-0.67175,51.956217],[-0.667562,51.954477],[-0.665402,51.95501],[-0.6657,51.955578],[-0.664154,51.956522],[-0.662124,51.955548],[-0.660304,51.957804],[-0.659365,51.959863],[-0.655278,51.96058],[-0.65547,51.961251],[-0.653634,51.963898],[-0.653644,51.965811],[-0.653138,51.966447],[-0.65351,51.967138],[-0.652873,51.967751],[-0.651244,51.968245],[-0.653017,51.969249],[-0.652236,51.970337],[-0.651058,51.970539],[-0.649857,51.971269],[-0.647472,51.971585],[-0.645681,51.972228],[-0.648077,51.974405],[-0.649077,51.976216],[-0.651289,51.977617],[-0.656173,51.982026],[-0.656351,51.982727],[-0.655791,51.98377],[-0.656285,51.984361],[-0.655101,51.985175],[-0.655971,51.986738],[-0.655462,51.987252],[-0.655465,51.9882],[-0.657791,51.989816],[-0.660626,51.9908],[-0.659324,51.993043],[-0.660119,51.994682],[-0.660239,51.996691],[-0.66169,51.999736],[-0.659385,52.000037],[-0.658753,52.001737],[-0.656616,52.003983],[-0.656285,52.005394],[-0.650657,52.00967],[-0.649413,52.010265],[-0.64543,52.010334],[-0.64346,52.010901],[-0.644382,52.012645],[-0.644024,52.012773],[-0.645008,52.013657],[-0.648319,52.01525],[-0.649075,52.014891],[-0.650555,52.017042],[-0.65096,52.018547],[-0.647536,52.019035],[-0.645852,52.021684],[-0.640329,52.023661],[-0.640202,52.024071],[-0.641488,52.024764],[-0.640829,52.025316],[-0.643012,52.025898],[-0.642567,52.026711],[-0.643164,52.026832],[-0.642536,52.028089],[-0.643893,52.028269],[-0.642248,52.030294],[-0.644817,52.031221],[-0.643405,52.032559],[-0.643264,52.034662],[-0.64387,52.035535],[-0.643057,52.037257],[-0.668976,52.048717],[-0.667644,52.050395],[-0.665762,52.051568],[-0.664077,52.052016],[-0.663327,52.052529],[-0.66213,52.054351],[-0.661238,52.053959],[-0.659133,52.056963],[-0.658051,52.056776],[-0.656852,52.058006],[-0.654383,52.059496],[-0.653417,52.06174],[-0.651008,52.064144],[-0.648328,52.065803],[-0.6437,52.066673],[-0.641584,52.067721],[-0.638586,52.071698],[-0.638537,52.073126],[-0.636447,52.077088],[-0.635367,52.078183],[-0.632426,52.079749],[-0.631358,52.080975],[-0.62816,52.082144],[-0.625819,52.084457],[-0.62431,52.084235],[-0.623384,52.083742],[-0.621156,52.084342],[-0.618581,52.085616],[-0.616506,52.088218],[-0.615172,52.088947],[-0.611209,52.09011],[-0.609711,52.091041],[-0.608396,52.09114],[-0.605788,52.092122],[-0.607274,52.094561],[-0.605979,52.095483],[-0.604531,52.095824],[-0.603959,52.099124],[-0.602536,52.100135],[-0.598106,52.101034],[-0.596751,52.101685],[-0.601872,52.105027],[-0.600965,52.10537],[-0.600353,52.106142],[-0.59862,52.106875],[-0.597137,52.108567],[-0.593252,52.110487],[-0.591409,52.110695],[-0.590481,52.108773],[-0.586757,52.107056],[-0.583235,52.104559],[-0.586501,52.101483],[-0.587578,52.101094],[-0.588366,52.098449],[-0.589186,52.097499],[-0.585646,52.096711],[-0.583869,52.097303],[-0.582104,52.098429],[-0.580752,52.095856],[-0.579245,52.094488],[-0.578264,52.094105],[-0.574953,52.094338],[-0.572755,52.093457],[-0.570667,52.094938],[-0.566801,52.094768],[-0.56688,52.09439],[-0.561803,52.092325],[-0.55866,52.089698],[-0.557926,52.087626],[-0.55571,52.085285],[-0.550085,52.080705],[-0.5458,52.081585],[-0.545247,52.081212],[-0.543363,52.081881],[-0.541586,52.081883],[-0.535603,52.077966],[-0.533773,52.076978],[-0.533488,52.07714],[-0.531861,52.075943],[-0.530783,52.07592],[-0.522356,52.069406],[-0.518809,52.068571],[-0.517816,52.067891],[-0.517613,52.06738],[-0.518939,52.065704],[-0.517571,52.064851],[-0.516942,52.063842],[-0.517896,52.060331],[-0.514911,52.058979],[-0.511518,52.059559],[-0.51029,52.058714],[-0.510771,52.05543],[-0.508515,52.054543],[-0.506682,52.056501],[-0.504489,52.056781],[-0.505048,52.05899],[-0.50441,52.060028],[-0.503967,52.06253],[-0.501852,52.064378],[-0.499591,52.067708],[-0.504757,52.070129],[-0.504474,52.070728],[-0.502385,52.072167],[-0.499672,52.075565],[-0.492681,52.079247],[-0.486123,52.08388],[-0.485335,52.083208],[-0.483121,52.08448],[-0.482342,52.084243],[-0.480386,52.085228],[-0.478781,52.085512],[-0.476199,52.087029],[-0.47534,52.086701],[-0.471527,52.088009],[-0.467892,52.084394],[-0.46404,52.079612],[-0.461908,52.079142],[-0.459315,52.077715],[-0.45876,52.077015],[-0.45857,52.074012],[-0.457753,52.072836],[-0.453257,52.070693],[-0.447652,52.067181],[-0.440364,52.063355],[-0.440033,52.063287],[-0.437545,52.065565],[-0.435607,52.066056],[-0.434078,52.066938],[-0.429863,52.067773],[-0.42228,52.067403],[-0.416506,52.068683],[-0.405422,52.068806],[-0.398564,52.07033],[-0.397017,52.071003],[-0.39534,52.071053],[-0.394716,52.072481],[-0.39336,52.073332],[-0.389642,52.074565],[-0.384886,52.0755],[-0.385244,52.077263],[-0.387477,52.07949],[-0.388407,52.079681],[-0.389189,52.080817],[-0.385088,52.083826],[-0.383895,52.085765],[-0.382292,52.084245],[-0.376908,52.08774],[-0.378513,52.090312],[-0.381362,52.093139],[-0.381188,52.093565],[-0.374651,52.097208],[-0.371505,52.094647],[-0.366878,52.096779],[-0.365494,52.097668],[-0.367847,52.099298],[-0.364332,52.100733],[-0.359464,52.103365],[-0.356169,52.107758],[-0.353013,52.106386],[-0.351757,52.108097],[-0.351777,52.110436],[-0.348442,52.112289],[-0.344804,52.115956],[-0.345052,52.116492],[-0.344601,52.118167],[-0.346362,52.120597],[-0.346781,52.122861],[-0.349523,52.126788],[-0.34975,52.12794],[-0.355509,52.134518],[-0.355365,52.134978],[-0.362034,52.14292],[-0.360956,52.1434],[-0.361082,52.144168],[-0.357799,52.146004],[-0.355285,52.145502],[-0.34915,52.14533],[-0.346235,52.145972],[-0.347111,52.146343],[-0.345695,52.147326],[-0.343426,52.150856],[-0.335069,52.156097],[-0.333735,52.157632],[-0.33403,52.159056],[-0.332245,52.161362],[-0.330065,52.165342],[-0.329383,52.165713],[-0.327351,52.166004],[-0.326035,52.166921],[-0.324415,52.166598],[-0.321844,52.167077],[-0.321458,52.167657],[-0.321834,52.168439],[-0.321265,52.168838],[-0.316961,52.16747],[-0.31533,52.16769],[-0.313812,52.167244],[-0.310812,52.167139],[-0.308365,52.166494],[-0.308318,52.165819],[-0.307451,52.165464],[-0.306026,52.165559],[-0.306135,52.166359],[-0.304815,52.166449],[-0.303415,52.168196],[-0.303853,52.169082],[-0.303286,52.170762],[-0.302256,52.170582],[-0.301829,52.171003],[-0.302822,52.171724],[-0.303178,52.173718],[-0.301678,52.178225],[-0.297865,52.181091],[-0.294048,52.182895],[-0.289117,52.190926],[-0.286402,52.190765],[-0.281772,52.189354],[-0.281103,52.18955]]]}}]}