{"type":"FeatureCollection","features":[{"type":"Feature","properties":{"slug":"charnwood","gss_code":"E07000130","name":"Charnwood"},"geometry":{"type":"Polygon","coordinates":[[[-1.073699,52.823964],[-1.073371,52.823462],[-1.070774,52.822923],[-1.070362,52.822342],[-1.069462,52.822222],[-1.069646,52.82151],[-1.068812,52.821236],[-1.068839,52.820622],[-1.070065,52.820376],[-1.070108,52.819761],[-1.069714,52.819599],[-1.070429,52.819322],[-1.069892,52.81917],[-1.070566,52.818867],[-1.070183,52.817874],[-1.071115,52.817381],[-1.070564,52.816962],[-1.071534,52.816981],[-1.070961,52.81622],[-1.072004,52.815331],[-1.071392,52.814991],[-1.072073,52.814609],[-1.07214,52.814157],[-1.071738,52.814011],[-1.062204,52.816496],[-1.061756,52.815983],[-1.059205,52.81725],[-1.058554,52.81647],[-1.054987,52.815662],[-1.055128,52.81536],[-1.052581,52.815007],[-1.051768,52.813903],[-1.050337,52.814008],[-1.050515,52.813724],[-1.049766,52.813448],[-1.049643,52.813835],[-1.048876,52.81408],[-1.047269,52.81398],[-1.046004,52.814317],[-1.044707,52.814201],[-1.043577,52.814631],[-1.04219,52.81455],[-1.039929,52.816198],[-1.037467,52.816369],[-1.036395,52.815901],[-1.036009,52.814544],[-1.036885,52.810681],[-1.040133,52.804544],[-1.04244,52.801167],[-1.046623,52.780955],[-1.040646,52.777409],[-1.037947,52.77503],[-1.043482,52.771622],[-1.04208,52.769781],[-1.045345,52.767206],[-1.045906,52.766023],[-1.041423,52.766059],[-1.041541,52.763143],[-1.03861,52.763315],[-1.038537,52.761468],[-1.036842,52.758371],[-1.034721,52.757108],[-1.030382,52.756186],[-1.03366,52.753376],[-1.032321,52.751999],[-1.033528,52.751133],[-1.032536,52.750137],[-1.033053,52.749789],[-1.031159,52.748282],[-1.031481,52.747984],[-1.028568,52.744818],[-1.023665,52.74074],[-1.024256,52.740482],[-1.021845,52.737811],[-1.019324,52.737106],[-1.019928,52.735802],[-1.019362,52.735533],[-1.019407,52.735101],[-1.021479,52.735129],[-1.022986,52.734676],[-1.026192,52.734658],[-1.027322,52.734928],[-1.019911,52.72698],[-1.018768,52.726802],[-1.017244,52.724468],[-1.004715,52.723602],[-1.001051,52.723662],[-1.000668,52.722283],[-1.001088,52.720075],[-1.003562,52.720201],[-1.003279,52.717252],[-1.004854,52.717096],[-1.00765,52.717386],[-1.010795,52.714455],[-1.012699,52.713238],[-1.01336,52.713611],[-1.015593,52.710824],[-1.013224,52.710235],[-1.013005,52.70993],[-1.01341,52.7096],[-1.011558,52.706483],[-1.006766,52.705343],[-1.006807,52.704847],[-1.004847,52.704519],[-1.006313,52.698627],[-1.007976,52.696393],[-1.007503,52.696315],[-1.006096,52.69838],[-0.996041,52.695787],[-0.971169,52.691039],[-0.961011,52.684746],[-0.956168,52.682666],[-0.954746,52.684061],[-0.947238,52.682729],[-0.948924,52.680381],[-0.949109,52.678583],[-0.950208,52.678554],[-0.952943,52.677621],[-0.956415,52.675219],[-0.957396,52.674006],[-0.959653,52.673263],[-0.962251,52.673371],[-0.962311,52.673845],[-0.963565,52.674029],[-0.964297,52.674649],[-0.964583,52.674192],[-0.965041,52.674525],[-0.965801,52.674448],[-0.966506,52.67594],[-0.967934,52.675907],[-0.968345,52.676221],[-0.968018,52.676967],[-0.969318,52.677121],[-0.970018,52.677679],[-0.970668,52.67733],[-0.971387,52.678155],[-0.97223,52.677939],[-0.972945,52.678574],[-0.972522,52.678767],[-0.972893,52.679066],[-0.973235,52.678916],[-0.97489,52.679894],[-0.976775,52.68038],[-0.979032,52.681966],[-0.981355,52.681418],[-0.983026,52.678293],[-0.988226,52.672066],[-0.990356,52.673163],[-0.991526,52.673366],[-0.995028,52.670368],[-0.996599,52.6681],[-0.997894,52.667965],[-0.997019,52.66618],[-0.99869,52.665181],[-0.998103,52.664417],[-0.999647,52.662827],[-1.003825,52.66104],[-1.004091,52.660522],[-1.005169,52.660198],[-1.008797,52.657646],[-1.012008,52.657011],[-1.013839,52.655028],[-1.01473,52.655801],[-1.016446,52.655427],[-1.021325,52.65667],[-1.021468,52.656441],[-1.022793,52.657],[-1.024158,52.656576],[-1.024975,52.656695],[-1.025776,52.657213],[-1.026384,52.657024],[-1.027006,52.657831],[-1.028035,52.65745],[-1.029352,52.6585],[-1.030365,52.657546],[-1.032747,52.658235],[-1.032587,52.658646],[-1.038443,52.65904],[-1.039601,52.658949],[-1.039596,52.658734],[-1.038241,52.65682],[-1.037933,52.653979],[-1.041732,52.653866],[-1.041889,52.654128],[-1.045501,52.654387],[-1.045607,52.654609],[-1.058945,52.656426],[-1.059114,52.657251],[-1.056745,52.663832],[-1.057637,52.663922],[-1.058677,52.66348],[-1.058894,52.663727],[-1.059664,52.663577],[-1.059763,52.663853],[-1.062194,52.663854],[-1.066621,52.665747],[-1.067866,52.666861],[-1.068785,52.66692],[-1.069345,52.667356],[-1.069757,52.667149],[-1.074925,52.667987],[-1.075079,52.669626],[-1.085668,52.669271],[-1.0881,52.669909],[-1.088744,52.66974],[-1.089312,52.670281],[-1.090623,52.668498],[-1.105234,52.671865],[-1.105488,52.671539],[-1.109147,52.672798],[-1.110127,52.671457],[-1.114652,52.672708],[-1.118812,52.673186],[-1.11878,52.672767],[-1.119454,52.672712],[-1.11977,52.671802],[-1.12101,52.671826],[-1.120752,52.670604],[-1.121416,52.66959],[-1.125896,52.667474],[-1.128251,52.665111],[-1.129089,52.66539],[-1.129358,52.66915],[-1.129893,52.66922],[-1.12986,52.669527],[-1.13298,52.669766],[-1.13303,52.673158],[-1.135194,52.673221],[-1.135467,52.675418],[-1.137713,52.67538],[-1.136687,52.679917],[-1.144117,52.687941],[-1.147518,52.690662],[-1.151126,52.688504],[-1.151315,52.688897],[-1.152376,52.688438],[-1.154239,52.689659],[-1.155046,52.689616],[-1.154622,52.689874],[-1.15701,52.691043],[-1.156765,52.691243],[-1.157252,52.691523],[-1.161033,52.690548],[-1.163064,52.687949],[-1.165024,52.688813],[-1.16795,52.685349],[-1.172989,52.682665],[-1.173322,52.681726],[-1.172806,52.681545],[-1.173722,52.681265],[-1.173034,52.67978],[-1.173666,52.679785],[-1.173595,52.67946],[-1.174808,52.679111],[-1.17417,52.67909],[-1.174204,52.67864],[-1.175018,52.678324],[-1.176856,52.678514],[-1.177942,52.678129],[-1.178186,52.676851],[-1.179173,52.676344],[-1.178522,52.67543],[-1.17805,52.675462],[-1.17796,52.674147],[-1.179075,52.673184],[-1.178011,52.671479],[-1.180319,52.669361],[-1.179026,52.669096],[-1.17745,52.667519],[-1.17705,52.665358],[-1.177494,52.665164],[-1.176744,52.664291],[-1.185289,52.660644],[-1.187328,52.66106],[-1.188472,52.660404],[-1.192042,52.661406],[-1.193066,52.660337],[-1.196706,52.661674],[-1.195554,52.662296],[-1.196147,52.662261],[-1.19649,52.662913],[-1.197182,52.66284],[-1.197536,52.663427],[-1.198095,52.663422],[-1.199682,52.664402],[-1.200804,52.664817],[-1.202701,52.66446],[-1.202793,52.666558],[-1.201354,52.667057],[-1.20162,52.668845],[-1.207259,52.670383],[-1.207926,52.671284],[-1.212631,52.672506],[-1.21214,52.674446],[-1.213763,52.674681],[-1.214905,52.672197],[-1.215872,52.672447],[-1.216969,52.671612],[-1.216604,52.670933],[-1.221073,52.669692],[-1.226592,52.669927],[-1.229383,52.671432],[-1.227884,52.672436],[-1.230235,52.675438],[-1.234612,52.675943],[-1.2348,52.677047],[-1.236182,52.677584],[-1.235721,52.677894],[-1.236034,52.67818],[-1.239308,52.679833],[-1.24238,52.683243],[-1.244735,52.68462],[-1.249623,52.68476],[-1.252039,52.684345],[-1.252349,52.684885],[-1.254681,52.684441],[-1.256682,52.684604],[-1.257428,52.683357],[-1.259011,52.682072],[-1.265015,52.684758],[-1.265201,52.685511],[-1.265913,52.685681],[-1.265484,52.686291],[-1.269072,52.687297],[-1.271652,52.688567],[-1.279355,52.691165],[-1.281419,52.692184],[-1.28159,52.692822],[-1.280192,52.695258],[-1.275285,52.698289],[-1.275726,52.698686],[-1.278457,52.698248],[-1.279939,52.698856],[-1.282626,52.700234],[-1.285369,52.702584],[-1.286202,52.705675],[-1.285239,52.710081],[-1.28589,52.712089],[-1.28486,52.714098],[-1.28052,52.71486],[-1.277518,52.716403],[-1.266297,52.723438],[-1.262468,52.724271],[-1.266353,52.728589],[-1.262552,52.730009],[-1.263361,52.730907],[-1.260424,52.73194],[-1.260067,52.732383],[-1.257899,52.732889],[-1.255096,52.734327],[-1.252651,52.73495],[-1.252964,52.735271],[-1.250782,52.736083],[-1.249528,52.735273],[-1.247141,52.736369],[-1.249805,52.738274],[-1.251188,52.738535],[-1.251117,52.740873],[-1.25851,52.74444],[-1.263968,52.744573],[-1.267083,52.745758],[-1.265926,52.747084],[-1.266874,52.747444],[-1.267828,52.745656],[-1.27256,52.742192],[-1.275298,52.739545],[-1.279791,52.738083],[-1.286665,52.734695],[-1.287487,52.733972],[-1.29341,52.737041],[-1.294363,52.737104],[-1.295423,52.738036],[-1.297799,52.740527],[-1.297914,52.743058],[-1.29906,52.745396],[-1.300334,52.746487],[-1.301273,52.746608],[-1.302563,52.747438],[-1.305403,52.748538],[-1.306329,52.748362],[-1.306833,52.747845],[-1.308555,52.747804],[-1.311391,52.750254],[-1.312602,52.750278],[-1.31384,52.749122],[-1.319051,52.749943],[-1.32129,52.751317],[-1.32139,52.75331],[-1.32374,52.754902],[-1.324892,52.754844],[-1.325766,52.753819],[-1.328444,52.753247],[-1.329285,52.752344],[-1.332375,52.753029],[-1.331509,52.75555],[-1.334464,52.756979],[-1.333386,52.760203],[-1.335066,52.761798],[-1.334468,52.76187],[-1.33477,52.763165],[-1.334014,52.76384],[-1.329058,52.766401],[-1.328497,52.768239],[-1.32911,52.76976],[-1.327765,52.772472],[-1.328049,52.774666],[-1.327702,52.775701],[-1.322676,52.779115],[-1.319677,52.783525],[-1.318961,52.785389],[-1.315215,52.785338],[-1.314479,52.784687],[-1.313186,52.784532],[-1.308374,52.785246],[-1.30526,52.784986],[-1.303318,52.784022],[-1.299976,52.784392],[-1.296326,52.78412],[-1.293091,52.783396],[-1.291413,52.782349],[-1.289994,52.783834],[-1.288619,52.784182],[-1.285566,52.783742],[-1.284261,52.783969],[-1.282598,52.783671],[-1.279879,52.783848],[-1.279729,52.783338],[-1.278754,52.783194],[-1.274828,52.787573],[-1.278818,52.788218],[-1.279608,52.788683],[-1.279615,52.792302],[-1.279134,52.794288],[-1.278182,52.795087],[-1.278885,52.796066],[-1.27684,52.796728],[-1.276483,52.798681],[-1.275653,52.798706],[-1.276449,52.800328],[-1.274563,52.800557],[-1.27411,52.802302],[-1.272432,52.802268],[-1.271899,52.804656],[-1.270986,52.804551],[-1.268575,52.807773],[-1.261945,52.810447],[-1.25997,52.807112],[-1.255285,52.804098],[-1.253851,52.804316],[-1.251863,52.805469],[-1.250668,52.805109],[-1.248999,52.805692],[-1.245302,52.806138],[-1.243808,52.805245],[-1.241512,52.805296],[-1.239836,52.804134],[-1.2385,52.803919],[-1.234529,52.802109],[-1.231786,52.800551],[-1.231144,52.798622],[-1.231969,52.797763],[-1.231894,52.796932],[-1.230836,52.796228],[-1.229262,52.793283],[-1.226506,52.792489],[-1.225886,52.791678],[-1.224635,52.792304],[-1.222784,52.792154],[-1.222069,52.791767],[-1.221039,52.791978],[-1.218234,52.793265],[-1.218403,52.793742],[-1.217554,52.793783],[-1.217127,52.793405],[-1.216732,52.793599],[-1.215346,52.794849],[-1.211671,52.794962],[-1.206923,52.794236],[-1.206808,52.793716],[-1.206279,52.793539],[-1.200289,52.793788],[-1.198484,52.793052],[-1.198649,52.792135],[-1.200004,52.79193],[-1.199703,52.79098],[-1.199001,52.790594],[-1.197403,52.790782],[-1.19778,52.790317],[-1.198698,52.790378],[-1.197985,52.789463],[-1.194242,52.791003],[-1.191579,52.792763],[-1.191159,52.793376],[-1.191484,52.793957],[-1.190998,52.794206],[-1.19141,52.794828],[-1.189183,52.795861],[-1.188908,52.796544],[-1.186704,52.797609],[-1.185768,52.797683],[-1.185696,52.797978],[-1.182828,52.797899],[-1.182474,52.798318],[-1.180217,52.799171],[-1.178403,52.801602],[-1.176677,52.802633],[-1.175168,52.803181],[-1.172102,52.803046],[-1.170472,52.803735],[-1.170595,52.804296],[-1.163276,52.806522],[-1.163048,52.806232],[-1.154074,52.806294],[-1.149924,52.80488],[-1.147461,52.805034],[-1.145002,52.80397],[-1.143964,52.803877],[-1.137275,52.805677],[-1.132988,52.80539],[-1.130893,52.805827],[-1.128827,52.807683],[-1.127416,52.808326],[-1.125725,52.810182],[-1.123053,52.810946],[-1.121248,52.812366],[-1.120598,52.814306],[-1.121513,52.817421],[-1.120067,52.817912],[-1.119959,52.818819],[-1.119163,52.819151],[-1.111552,52.820012],[-1.102041,52.820203],[-1.094191,52.821969],[-1.091485,52.82008],[-1.087872,52.821054],[-1.083747,52.822911],[-1.080757,52.823477],[-1.078705,52.824248],[-1.077058,52.824019],[-1.074435,52.824727],[-1.073242,52.82415],[-1.073699,52.823964]]]}}]}