{"type":"FeatureCollection","features":[{"type":"Feature","properties":{"slug":"cheltenham","gss_code":"E07000078","name":"Cheltenham"},"geometry":{"type":"Polygon","coordinates":[[[-2.092424,51.934622],[-2.091691,51.934708],[-2.0918,51.93405],[-2.091293,51.933766],[-2.090974,51.93272],[-2.08961,51.931929],[-2.087216,51.931567],[-2.083543,51.931883],[-2.081878,51.931503],[-2.078842,51.932038],[-2.078817,51.931725],[-2.077031,51.931831],[-2.073932,51.930978],[-2.071899,51.931251],[-2.0707,51.930636],[-2.068758,51.93029],[-2.068394,51.930495],[-2.068395,51.930023],[-2.064455,51.928741],[-2.062489,51.92726],[-2.060207,51.928129],[-2.055023,51.927042],[-2.052592,51.926082],[-2.048479,51.923631],[-2.046486,51.922904],[-2.039943,51.922411],[-2.039729,51.91852],[-2.040595,51.915765],[-2.040527,51.9146],[-2.038023,51.913977],[-2.036509,51.91414],[-2.036652,51.912931],[-2.033663,51.912791],[-2.033677,51.911738],[-2.032699,51.91178],[-2.032672,51.911451],[-2.033361,51.911285],[-2.033568,51.910142],[-2.033171,51.909209],[-2.03459,51.907941],[-2.036212,51.908145],[-2.036387,51.907438],[-2.037536,51.907573],[-2.0379,51.905276],[-2.036553,51.905285],[-2.033779,51.904417],[-2.029903,51.904096],[-2.024641,51.902066],[-2.023599,51.902407],[-2.019257,51.902681],[-2.010215,51.902924],[-2.01267,51.898466],[-2.012607,51.897088],[-2.011844,51.895521],[-2.013008,51.8917],[-2.016703,51.885443],[-2.015836,51.884158],[-2.014891,51.884408],[-2.015602,51.883619],[-2.015612,51.881808],[-2.017196,51.879776],[-2.017953,51.879487],[-2.02111,51.87626],[-2.022104,51.876015],[-2.023278,51.872851],[-2.024793,51.870551],[-2.023918,51.86848],[-2.025347,51.865742],[-2.025252,51.864284],[-2.026948,51.864312],[-2.028036,51.865005],[-2.031728,51.8642],[-2.036543,51.864273],[-2.036991,51.86168],[-2.038523,51.860708],[-2.04183,51.859508],[-2.048117,51.858369],[-2.050248,51.85925],[-2.051088,51.859989],[-2.052018,51.859673],[-2.056168,51.862931],[-2.059365,51.864443],[-2.061946,51.864697],[-2.065874,51.864393],[-2.068357,51.864965],[-2.070757,51.865027],[-2.071251,51.865712],[-2.069936,51.867025],[-2.069607,51.868533],[-2.069934,51.868889],[-2.07067,51.868895],[-2.074791,51.868328],[-2.076242,51.868961],[-2.07668,51.870338],[-2.076221,51.872216],[-2.077015,51.872377],[-2.076825,51.872854],[-2.079799,51.873077],[-2.079343,51.872242],[-2.080286,51.871671],[-2.0798,51.87124],[-2.080719,51.870858],[-2.081051,51.871278],[-2.081737,51.871001],[-2.082406,51.871169],[-2.081304,51.87189],[-2.081821,51.872437],[-2.083527,51.87295],[-2.084435,51.872223],[-2.085712,51.873127],[-2.089894,51.872138],[-2.092288,51.871176],[-2.09277,51.872335],[-2.092366,51.873776],[-2.09317,51.875466],[-2.095167,51.874706],[-2.095661,51.875165],[-2.097464,51.874575],[-2.098011,51.875155],[-2.096245,51.875802],[-2.097041,51.876809],[-2.097058,51.878414],[-2.097519,51.878864],[-2.102269,51.875994],[-2.104274,51.876823],[-2.105902,51.878377],[-2.11399,51.8802],[-2.11795,51.8817],[-2.121964,51.882515],[-2.123252,51.883119],[-2.126025,51.879267],[-2.127726,51.87972],[-2.128596,51.882444],[-2.127386,51.883976],[-2.12751,51.884463],[-2.127139,51.884358],[-2.124402,51.886018],[-2.126078,51.88739],[-2.142418,51.884509],[-2.142943,51.889226],[-2.136881,51.899626],[-2.136295,51.900017],[-2.135375,51.902142],[-2.133462,51.904912],[-2.132979,51.90667],[-2.130319,51.909927],[-2.128878,51.913784],[-2.124499,51.919485],[-2.123598,51.919106],[-2.1204,51.918925],[-2.118929,51.917921],[-2.117577,51.917521],[-2.116806,51.917633],[-2.114878,51.916916],[-2.11465,51.916365],[-2.112513,51.916578],[-2.109622,51.915854],[-2.107838,51.91787],[-2.105135,51.921807],[-2.103251,51.923361],[-2.104146,51.924434],[-2.105212,51.9249],[-2.105479,51.926339],[-2.106364,51.927038],[-2.105991,51.928256],[-2.10662,51.929911],[-2.106094,51.930733],[-2.106639,51.930813],[-2.106563,51.931521],[-2.107121,51.931633],[-2.107683,51.933982],[-2.106922,51.934111],[-2.106793,51.934843],[-2.10586,51.934761],[-2.105158,51.936469],[-2.105753,51.936624],[-2.106823,51.937744],[-2.106565,51.938882],[-2.105043,51.937729],[-2.105297,51.937499],[-2.104912,51.937193],[-2.102779,51.936388],[-2.095067,51.936171],[-2.092424,51.934622]]]}}]}