{"type":"FeatureCollection","features":[{"type":"Feature","properties":{"slug":"chelmsford","gss_code":"E07000070","name":"Chelmsford"},"geometry":{"type":"MultiPolygon","coordinates":[[[[0.554384,51.616677],[0.554009,51.616818],[0.554049,51.617043],[0.555599,51.616753],[0.554384,51.616677]]],[[[0.570182,51.622372],[0.57019,51.622463],[0.5703,51.622391],[0.570182,51.622372]]],[[[0.633977,51.637956],[0.63349,51.638082],[0.633869,51.638639],[0.634565,51.638442],[0.633977,51.637956]]],[[[0.635967,51.638073],[0.636388,51.638286],[0.636425,51.637417],[0.635851,51.63732],[0.635614,51.637949],[0.633915,51.638749],[0.63586,51.638472],[0.635967,51.638073]]],[[[0.422579,51.844963],[0.425678,51.843297],[0.426111,51.842754],[0.425661,51.842434],[0.426399,51.841934],[0.42607,51.84151],[0.426798,51.840716],[0.427519,51.840577],[0.426862,51.840203],[0.428043,51.838363],[0.430657,51.836942],[0.431474,51.836104],[0.431652,51.835261],[0.430742,51.834209],[0.430566,51.833212],[0.43137,51.831647],[0.434117,51.831333],[0.434422,51.83104],[0.436706,51.831265],[0.439457,51.832462],[0.440118,51.832195],[0.440606,51.830808],[0.441109,51.830475],[0.443235,51.829392],[0.445773,51.828879],[0.447075,51.829123],[0.448537,51.830011],[0.449695,51.830183],[0.451376,51.833967],[0.453055,51.83463],[0.459343,51.835423],[0.461906,51.834605],[0.464731,51.837146],[0.465343,51.838702],[0.467098,51.839088],[0.467116,51.839588],[0.475197,51.840474],[0.486423,51.839927],[0.487342,51.841533],[0.486799,51.842649],[0.488901,51.842561],[0.492519,51.843277],[0.495899,51.844744],[0.500304,51.845504],[0.502079,51.846694],[0.506815,51.848155],[0.512512,51.848234],[0.51771,51.849207],[0.517694,51.849672],[0.519262,51.850449],[0.524943,51.849254],[0.520366,51.844015],[0.523239,51.841283],[0.52376,51.840089],[0.526738,51.83859],[0.529829,51.836479],[0.530155,51.832661],[0.528772,51.831085],[0.530205,51.829613],[0.529799,51.829009],[0.530078,51.827842],[0.529546,51.827493],[0.52984,51.82597],[0.529497,51.824446],[0.530201,51.823204],[0.52857,51.823326],[0.528466,51.822642],[0.525537,51.822167],[0.525204,51.822961],[0.524454,51.823359],[0.522532,51.822176],[0.525798,51.821462],[0.525663,51.821031],[0.523684,51.820538],[0.524019,51.819664],[0.530915,51.816386],[0.532276,51.816087],[0.532845,51.814486],[0.532699,51.812455],[0.534122,51.810836],[0.532423,51.810278],[0.530221,51.810474],[0.529873,51.810071],[0.52914,51.810579],[0.528343,51.810679],[0.527544,51.809247],[0.524753,51.809686],[0.525088,51.807307],[0.524901,51.807009],[0.524308,51.806986],[0.524788,51.804984],[0.523804,51.803429],[0.526508,51.801836],[0.528389,51.800226],[0.52826,51.79881],[0.529045,51.797235],[0.531211,51.795154],[0.536154,51.792188],[0.539626,51.790859],[0.541905,51.790453],[0.542546,51.788406],[0.543253,51.787565],[0.543805,51.787561],[0.545437,51.784881],[0.545771,51.784949],[0.549,51.781702],[0.549268,51.781808],[0.551033,51.780282],[0.554268,51.7791],[0.55494,51.778033],[0.557575,51.7757],[0.558398,51.775398],[0.560325,51.770875],[0.562582,51.767263],[0.565194,51.764791],[0.565583,51.765052],[0.566266,51.764834],[0.565872,51.763207],[0.566753,51.762757],[0.565957,51.761836],[0.566514,51.758674],[0.567993,51.757924],[0.567835,51.757458],[0.568576,51.755969],[0.569341,51.755827],[0.570942,51.754391],[0.5725,51.752178],[0.572098,51.751901],[0.572982,51.751771],[0.575768,51.752581],[0.578462,51.752813],[0.581126,51.752389],[0.584527,51.751151],[0.589572,51.754006],[0.590696,51.755877],[0.593366,51.755449],[0.592509,51.754161],[0.591694,51.751316],[0.592126,51.748675],[0.591806,51.745665],[0.593012,51.739354],[0.595158,51.734061],[0.591801,51.733699],[0.591204,51.733389],[0.589129,51.731821],[0.589498,51.730173],[0.59119,51.728203],[0.595367,51.725783],[0.604109,51.724944],[0.607339,51.723468],[0.6103,51.723337],[0.611153,51.722787],[0.608856,51.719512],[0.60523,51.715909],[0.604017,51.713733],[0.602075,51.711681],[0.602012,51.708851],[0.603787,51.70507],[0.60299,51.702921],[0.604564,51.700388],[0.606653,51.700851],[0.610363,51.70057],[0.612585,51.698799],[0.611185,51.696383],[0.612257,51.69494],[0.610906,51.694239],[0.610562,51.689761],[0.612382,51.690026],[0.612854,51.689482],[0.611303,51.689427],[0.612389,51.687315],[0.612205,51.685538],[0.611152,51.684098],[0.609159,51.684206],[0.608837,51.681947],[0.609569,51.681218],[0.611228,51.680556],[0.613239,51.680232],[0.615054,51.678945],[0.616142,51.678626],[0.617851,51.677579],[0.619766,51.67534],[0.619744,51.673562],[0.619217,51.673318],[0.619326,51.670997],[0.620927,51.667793],[0.623323,51.665625],[0.623326,51.662277],[0.624099,51.661571],[0.625271,51.658984],[0.626426,51.658076],[0.62612,51.6575],[0.628444,51.645941],[0.62755,51.644833],[0.629161,51.642882],[0.629024,51.641616],[0.628461,51.641567],[0.62849,51.639221],[0.63074,51.638897],[0.629579,51.63878],[0.629694,51.637728],[0.630359,51.637383],[0.631292,51.637417],[0.630716,51.637654],[0.631989,51.637938],[0.632025,51.638621],[0.631284,51.638698],[0.632896,51.638909],[0.632105,51.638724],[0.632227,51.638035],[0.63379,51.638671],[0.633367,51.638177],[0.632184,51.637925],[0.631997,51.637211],[0.635554,51.63701],[0.63654,51.635765],[0.637217,51.635681],[0.637307,51.636313],[0.637868,51.636659],[0.637387,51.637637],[0.637737,51.638415],[0.639839,51.63828],[0.644744,51.636995],[0.645024,51.635872],[0.644896,51.636778],[0.646735,51.636671],[0.645032,51.635822],[0.645217,51.635302],[0.644838,51.634921],[0.642723,51.633867],[0.643508,51.634165],[0.643243,51.633505],[0.642464,51.633487],[0.642676,51.633746],[0.642346,51.63355],[0.642358,51.632975],[0.642559,51.633448],[0.64311,51.633342],[0.642581,51.632619],[0.642462,51.632861],[0.642091,51.632666],[0.64221,51.633537],[0.641735,51.633644],[0.638188,51.633224],[0.637129,51.633795],[0.637009,51.633437],[0.633686,51.633133],[0.632225,51.632367],[0.631159,51.632844],[0.630117,51.632778],[0.627171,51.633514],[0.624918,51.632921],[0.622446,51.63298],[0.618359,51.632526],[0.613662,51.631233],[0.6135,51.630952],[0.612009,51.630882],[0.612047,51.630573],[0.611255,51.63014],[0.609656,51.630172],[0.607805,51.629747],[0.607635,51.631052],[0.605883,51.631722],[0.606649,51.631692],[0.606142,51.6319],[0.605226,51.631873],[0.605102,51.632356],[0.604873,51.632196],[0.604588,51.636038],[0.603163,51.636851],[0.603215,51.637917],[0.601977,51.638327],[0.59982,51.637999],[0.597955,51.638291],[0.595592,51.636972],[0.594659,51.637608],[0.594852,51.638086],[0.596529,51.638948],[0.597458,51.640818],[0.600258,51.643017],[0.60137,51.645922],[0.601141,51.646397],[0.600254,51.643181],[0.598444,51.641952],[0.597982,51.642299],[0.598602,51.642621],[0.598711,51.643339],[0.598462,51.643766],[0.599195,51.644293],[0.598227,51.644439],[0.598868,51.645306],[0.599883,51.645444],[0.599999,51.645574],[0.599113,51.646528],[0.59917,51.646996],[0.596059,51.649103],[0.595605,51.649129],[0.599127,51.646952],[0.598961,51.646544],[0.599787,51.645487],[0.598869,51.64541],[0.598103,51.644394],[0.598875,51.64433],[0.598325,51.643869],[0.59847,51.642685],[0.597772,51.642306],[0.598295,51.641728],[0.597018,51.640754],[0.596033,51.638875],[0.594294,51.638156],[0.5944,51.637436],[0.594969,51.636921],[0.595771,51.636755],[0.59787,51.638033],[0.599637,51.637721],[0.602718,51.637886],[0.602445,51.636865],[0.604142,51.635478],[0.603691,51.6354],[0.604133,51.635291],[0.603729,51.634981],[0.60406,51.634998],[0.604318,51.632217],[0.604025,51.631968],[0.606872,51.631038],[0.606543,51.629734],[0.605138,51.630237],[0.601268,51.630724],[0.598735,51.630598],[0.59748,51.632374],[0.594992,51.63249],[0.592289,51.631445],[0.590274,51.631128],[0.587995,51.631242],[0.587188,51.63101],[0.586894,51.630584],[0.587042,51.629077],[0.587475,51.629103],[0.587795,51.628536],[0.585811,51.626485],[0.585334,51.625349],[0.58566,51.625452],[0.585617,51.624426],[0.586621,51.623969],[0.585575,51.623753],[0.586043,51.62357],[0.584741,51.623668],[0.583888,51.624349],[0.58256,51.62454],[0.581544,51.62424],[0.58065,51.624705],[0.578496,51.625092],[0.577449,51.624998],[0.576058,51.624279],[0.575343,51.625328],[0.575736,51.624283],[0.574902,51.624147],[0.573988,51.62312],[0.570115,51.622797],[0.570004,51.622529],[0.569933,51.62277],[0.568376,51.622165],[0.566482,51.622588],[0.565047,51.62158],[0.563908,51.621412],[0.564135,51.620396],[0.562405,51.617893],[0.560801,51.617171],[0.556091,51.616784],[0.55407,51.617104],[0.554126,51.617472],[0.552204,51.617817],[0.549569,51.617987],[0.546813,51.617644],[0.545119,51.618137],[0.544433,51.617905],[0.543608,51.618299],[0.54473,51.619676],[0.543549,51.619726],[0.542476,51.620797],[0.540988,51.620877],[0.538573,51.620449],[0.538208,51.619839],[0.537579,51.619616],[0.5362,51.620326],[0.531877,51.61945],[0.530546,51.620063],[0.529067,51.620248],[0.520823,51.618791],[0.521083,51.6211],[0.520425,51.623124],[0.520805,51.624477],[0.52026,51.62541],[0.515594,51.624431],[0.514611,51.626965],[0.512896,51.626631],[0.51145,51.625912],[0.508603,51.625719],[0.508742,51.625121],[0.506807,51.624957],[0.504821,51.624372],[0.505449,51.621929],[0.50483,51.621716],[0.490705,51.624326],[0.481465,51.625558],[0.478191,51.625404],[0.465828,51.623467],[0.458963,51.623828],[0.457965,51.624292],[0.455173,51.62464],[0.446828,51.626669],[0.446192,51.628488],[0.446296,51.629536],[0.445511,51.630468],[0.44622,51.630629],[0.444163,51.633164],[0.442893,51.636998],[0.443387,51.638862],[0.445928,51.641203],[0.446933,51.641517],[0.445852,51.643484],[0.441955,51.644187],[0.442935,51.646655],[0.439973,51.64706],[0.433809,51.64951],[0.428925,51.649763],[0.423375,51.649462],[0.41273,51.650122],[0.412227,51.649854],[0.410224,51.651205],[0.402179,51.650982],[0.402404,51.651912],[0.401874,51.652513],[0.400699,51.652599],[0.399256,51.653781],[0.39741,51.653496],[0.396882,51.653684],[0.397779,51.654273],[0.399186,51.656206],[0.400609,51.657087],[0.400459,51.657605],[0.401828,51.658644],[0.401504,51.659269],[0.402766,51.659683],[0.40272,51.660307],[0.401552,51.660604],[0.401955,51.661442],[0.401026,51.661629],[0.400148,51.66227],[0.402703,51.663283],[0.406005,51.666296],[0.405763,51.666944],[0.406654,51.667231],[0.407416,51.668411],[0.408715,51.668937],[0.408874,51.669429],[0.411204,51.669653],[0.411566,51.670332],[0.41256,51.670896],[0.407426,51.672808],[0.406261,51.674471],[0.404897,51.678692],[0.397826,51.67946],[0.399703,51.681329],[0.401498,51.682421],[0.39881,51.68322],[0.398965,51.683527],[0.396705,51.684413],[0.396892,51.686531],[0.395719,51.686166],[0.394336,51.687755],[0.392831,51.687825],[0.392882,51.690555],[0.392025,51.691457],[0.391169,51.691722],[0.389569,51.690983],[0.388127,51.6916],[0.385846,51.691992],[0.381827,51.693647],[0.381716,51.694107],[0.380488,51.694424],[0.380759,51.696198],[0.38009,51.696929],[0.380505,51.69738],[0.37797,51.697937],[0.377518,51.69872],[0.376698,51.698503],[0.373104,51.695432],[0.371768,51.694927],[0.368946,51.692837],[0.362886,51.691709],[0.360551,51.690384],[0.357376,51.691424],[0.353056,51.692098],[0.346633,51.693905],[0.344969,51.69552],[0.344691,51.697093],[0.343901,51.698407],[0.340103,51.701117],[0.338886,51.701513],[0.339686,51.703963],[0.3392,51.706777],[0.336975,51.709305],[0.335976,51.712076],[0.335958,51.713631],[0.333999,51.717013],[0.333539,51.718731],[0.335219,51.719169],[0.339086,51.721007],[0.341019,51.72302],[0.342857,51.724182],[0.343431,51.725898],[0.344723,51.727791],[0.346187,51.729132],[0.347025,51.729417],[0.347451,51.73044],[0.347508,51.731584],[0.345035,51.735234],[0.345847,51.737914],[0.345558,51.740923],[0.346078,51.741868],[0.344021,51.747471],[0.344151,51.749365],[0.342063,51.751001],[0.341397,51.750852],[0.341114,51.752012],[0.342549,51.758133],[0.344159,51.760007],[0.344986,51.763438],[0.344968,51.766212],[0.347926,51.768233],[0.348283,51.768883],[0.347805,51.771357],[0.348102,51.7732],[0.346261,51.773242],[0.344463,51.774041],[0.340517,51.774114],[0.335264,51.775922],[0.333694,51.778814],[0.332543,51.778931],[0.332198,51.779629],[0.332636,51.780975],[0.3335,51.781116],[0.334142,51.781666],[0.334353,51.783126],[0.335091,51.783746],[0.33532,51.784752],[0.334954,51.785711],[0.340769,51.786437],[0.340699,51.788037],[0.338262,51.789085],[0.337699,51.790261],[0.337931,51.791412],[0.33983,51.792791],[0.340581,51.794478],[0.34682,51.793502],[0.350158,51.794022],[0.35474,51.793493],[0.358781,51.793983],[0.358918,51.794528],[0.362617,51.794907],[0.362303,51.795673],[0.359512,51.796271],[0.359045,51.79813],[0.361731,51.798395],[0.36046,51.800124],[0.36157,51.80115],[0.364758,51.799656],[0.366457,51.799627],[0.366635,51.799346],[0.368409,51.799149],[0.369681,51.799217],[0.374529,51.800834],[0.3788,51.799957],[0.379227,51.800388],[0.382787,51.799819],[0.381475,51.798211],[0.378504,51.798831],[0.378318,51.797988],[0.378596,51.797649],[0.380936,51.79726],[0.384165,51.797074],[0.384744,51.798799],[0.386832,51.798501],[0.38737,51.799781],[0.388009,51.799718],[0.388512,51.801606],[0.388333,51.803541],[0.389902,51.803888],[0.390006,51.805086],[0.391473,51.805064],[0.391558,51.805774],[0.394085,51.807106],[0.397334,51.807155],[0.398877,51.807497],[0.398923,51.809153],[0.40003,51.812762],[0.403579,51.812864],[0.404171,51.811505],[0.403272,51.81136],[0.402304,51.807713],[0.404615,51.807422],[0.404931,51.80778],[0.407069,51.808414],[0.406868,51.810412],[0.404952,51.812489],[0.407833,51.813287],[0.408076,51.812807],[0.410213,51.81326],[0.410701,51.81299],[0.413053,51.813216],[0.413637,51.814151],[0.414102,51.814064],[0.414398,51.814345],[0.414634,51.816053],[0.412983,51.818066],[0.410821,51.819615],[0.41074,51.821898],[0.408623,51.823513],[0.407089,51.825407],[0.406352,51.828732],[0.406365,51.83085],[0.407926,51.831655],[0.410662,51.832361],[0.411076,51.833373],[0.410874,51.834182],[0.409507,51.834817],[0.406564,51.835487],[0.407965,51.83571],[0.409986,51.836577],[0.403546,51.840198],[0.40393,51.842034],[0.40432,51.842756],[0.405342,51.842866],[0.406631,51.843978],[0.40799,51.846188],[0.411745,51.8458],[0.411147,51.84494],[0.411986,51.84373],[0.412052,51.844044],[0.412906,51.844265],[0.412811,51.845616],[0.413922,51.845565],[0.413767,51.848542],[0.414626,51.849626],[0.415059,51.853546],[0.412996,51.856323],[0.413172,51.856659],[0.414449,51.856663],[0.416755,51.857478],[0.418119,51.857257],[0.420069,51.855114],[0.423152,51.854683],[0.424078,51.854073],[0.424774,51.851324],[0.424046,51.849429],[0.424482,51.848417],[0.424276,51.846929],[0.424056,51.846236],[0.423466,51.846109],[0.422579,51.844963]]]]}}]}