{"type":"FeatureCollection","features":[{"type":"Feature","properties":{"slug":"cherwell","gss_code":"E07000177","name":"Cherwell"},"geometry":{"type":"Polygon","coordinates":[[[-1.321287,52.158306],[-1.319376,52.157667],[-1.319907,52.156965],[-1.318269,52.155811],[-1.31855,52.155467],[-1.317711,52.154542],[-1.318054,52.154256],[-1.317748,52.153352],[-1.316914,52.153105],[-1.315963,52.152276],[-1.314365,52.151767],[-1.314531,52.15142],[-1.313256,52.151078],[-1.312354,52.151287],[-1.312387,52.149804],[-1.310778,52.1495],[-1.311754,52.147919],[-1.309411,52.147633],[-1.308355,52.146858],[-1.308617,52.146544],[-1.30643,52.145553],[-1.308679,52.144345],[-1.308433,52.143509],[-1.304914,52.141639],[-1.305375,52.141214],[-1.30196,52.139795],[-1.302111,52.139293],[-1.299342,52.138393],[-1.299168,52.137189],[-1.297922,52.137146],[-1.297685,52.135285],[-1.295093,52.134712],[-1.29555,52.133823],[-1.293413,52.133051],[-1.293625,52.132586],[-1.290633,52.129301],[-1.288525,52.127975],[-1.284144,52.124057],[-1.282201,52.122637],[-1.281557,52.122621],[-1.278357,52.118635],[-1.276535,52.117307],[-1.27683,52.117076],[-1.272663,52.114315],[-1.270215,52.113569],[-1.264822,52.110765],[-1.259739,52.108622],[-1.257036,52.106164],[-1.252928,52.103874],[-1.254003,52.102487],[-1.251848,52.102018],[-1.25184,52.101366],[-1.250025,52.100485],[-1.249913,52.099755],[-1.248797,52.099079],[-1.247983,52.095741],[-1.256126,52.095668],[-1.258019,52.096336],[-1.261982,52.096447],[-1.262481,52.096922],[-1.264574,52.097367],[-1.269645,52.097997],[-1.271669,52.09794],[-1.273785,52.097416],[-1.274368,52.096792],[-1.274796,52.097201],[-1.276306,52.096825],[-1.28053,52.094199],[-1.28523,52.093257],[-1.285701,52.093542],[-1.287116,52.093082],[-1.28724,52.09261],[-1.295212,52.093427],[-1.295647,52.092921],[-1.297049,52.092577],[-1.298009,52.091833],[-1.29978,52.091419],[-1.303907,52.091625],[-1.304386,52.092084],[-1.308019,52.092283],[-1.312666,52.090584],[-1.316784,52.089791],[-1.316684,52.08893],[-1.320869,52.087569],[-1.321261,52.086543],[-1.320612,52.085785],[-1.321168,52.085595],[-1.321346,52.08487],[-1.319475,52.083861],[-1.320542,52.082195],[-1.319735,52.081141],[-1.319984,52.080757],[-1.319506,52.080777],[-1.31816,52.079921],[-1.317246,52.079973],[-1.316615,52.079606],[-1.313103,52.079901],[-1.308763,52.079506],[-1.299361,52.080102],[-1.299616,52.078312],[-1.297509,52.078057],[-1.29769,52.076998],[-1.298159,52.077002],[-1.298904,52.075355],[-1.30189,52.075194],[-1.301991,52.073789],[-1.303925,52.073554],[-1.303488,52.071979],[-1.305471,52.072093],[-1.306903,52.070314],[-1.300067,52.069363],[-1.300654,52.067663],[-1.301185,52.067654],[-1.301253,52.066104],[-1.302175,52.065019],[-1.303663,52.064276],[-1.307705,52.06426],[-1.307628,52.063166],[-1.30847,52.062368],[-1.309118,52.060726],[-1.30737,52.057575],[-1.31292,52.051453],[-1.312644,52.050894],[-1.311334,52.050534],[-1.307374,52.047199],[-1.302167,52.046379],[-1.302277,52.045878],[-1.300054,52.045353],[-1.300327,52.04483],[-1.299719,52.044258],[-1.300073,52.043647],[-1.299178,52.043193],[-1.298564,52.043357],[-1.298119,52.042829],[-1.297507,52.04278],[-1.297084,52.041725],[-1.296354,52.041489],[-1.296445,52.040862],[-1.295286,52.040299],[-1.29475,52.039048],[-1.293801,52.038591],[-1.294599,52.037824],[-1.293962,52.03747],[-1.294455,52.037095],[-1.293303,52.034312],[-1.292069,52.032788],[-1.291699,52.030978],[-1.2928,52.030249],[-1.292291,52.029701],[-1.293076,52.029933],[-1.293459,52.02968],[-1.294313,52.028036],[-1.293439,52.027521],[-1.29019,52.027448],[-1.285317,52.026477],[-1.286082,52.025616],[-1.28383,52.025038],[-1.284455,52.023754],[-1.283582,52.023199],[-1.284573,52.022819],[-1.28398,52.022615],[-1.284181,52.021888],[-1.283462,52.021677],[-1.284507,52.021464],[-1.28442,52.020911],[-1.283766,52.02044],[-1.282977,52.020738],[-1.28296,52.019912],[-1.281881,52.019666],[-1.282831,52.019203],[-1.281112,52.018547],[-1.280982,52.018133],[-1.281673,52.017785],[-1.280211,52.017025],[-1.280633,52.016524],[-1.278164,52.014273],[-1.278632,52.011368],[-1.279995,52.011575],[-1.280024,52.011055],[-1.282157,52.011316],[-1.284113,52.01113],[-1.284521,52.010822],[-1.283712,52.00936],[-1.279775,52.008757],[-1.278552,52.008289],[-1.278492,52.007834],[-1.277614,52.007238],[-1.277066,52.005359],[-1.277563,52.004742],[-1.278701,52.004539],[-1.28036,52.003428],[-1.280835,52.001437],[-1.28058,52.000972],[-1.28162,52.000293],[-1.281877,52.000522],[-1.282704,52.000354],[-1.283415,51.999459],[-1.283704,51.998108],[-1.282408,51.996308],[-1.283524,51.996155],[-1.284695,51.994705],[-1.28234,51.993101],[-1.283256,51.991939],[-1.282995,51.991513],[-1.283854,51.991365],[-1.284079,51.990689],[-1.285482,51.990694],[-1.286088,51.990394],[-1.286854,51.990672],[-1.287166,51.990296],[-1.288829,51.989744],[-1.288389,51.989288],[-1.287362,51.989591],[-1.286768,51.989415],[-1.287355,51.988728],[-1.287328,51.987552],[-1.284991,51.983549],[-1.284282,51.983587],[-1.284489,51.982591],[-1.283468,51.982003],[-1.282489,51.980673],[-1.283555,51.979656],[-1.282692,51.979247],[-1.281576,51.979976],[-1.281199,51.982238],[-1.280865,51.982364],[-1.270245,51.982947],[-1.267653,51.982626],[-1.260915,51.980926],[-1.259417,51.981264],[-1.257261,51.982522],[-1.254681,51.982911],[-1.25452,51.982686],[-1.252787,51.98334],[-1.25197,51.984111],[-1.251172,51.984229],[-1.25015,51.985311],[-1.249008,51.985714],[-1.248201,51.985638],[-1.247379,51.985065],[-1.241612,51.986293],[-1.239289,51.984588],[-1.236354,51.983719],[-1.234442,51.983534],[-1.232095,51.98236],[-1.230381,51.982035],[-1.2297,51.981367],[-1.227109,51.981248],[-1.223644,51.980407],[-1.22104,51.980181],[-1.217223,51.980334],[-1.206898,51.978265],[-1.203535,51.978579],[-1.198001,51.977291],[-1.19626,51.977431],[-1.194394,51.97932],[-1.19069,51.981523],[-1.18834,51.981218],[-1.184726,51.981704],[-1.183003,51.981492],[-1.180107,51.981695],[-1.176693,51.982512],[-1.176055,51.982045],[-1.174361,51.983324],[-1.172183,51.985984],[-1.163823,51.993412],[-1.156651,51.992234],[-1.15611,51.993444],[-1.15148,51.99311],[-1.148723,51.995052],[-1.143906,51.997019],[-1.140173,51.997651],[-1.134329,51.997296],[-1.133743,51.999643],[-1.131529,52.003096],[-1.131253,52.004885],[-1.128569,52.005519],[-1.128126,52.00537],[-1.126966,52.006042],[-1.126328,52.007045],[-1.125345,52.007105],[-1.12313,52.011358],[-1.12249,52.012234],[-1.12143,52.012411],[-1.119826,52.01568],[-1.116217,52.015187],[-1.116423,52.015406],[-1.115626,52.01561],[-1.115149,52.016518],[-1.11198,52.016592],[-1.112228,52.016259],[-1.111594,52.016208],[-1.11183,52.015677],[-1.11035,52.015687],[-1.109789,52.015126],[-1.109074,52.015254],[-1.107266,52.014667],[-1.106537,52.014243],[-1.106729,52.013763],[-1.10631,52.013448],[-1.105059,52.013411],[-1.103416,52.01272],[-1.102878,52.01209],[-1.101983,52.012479],[-1.100122,52.012534],[-1.099323,52.013632],[-1.097607,52.014436],[-1.097701,52.014827],[-1.095919,52.01497],[-1.094564,52.014316],[-1.093738,52.013366],[-1.094562,52.013051],[-1.093841,52.012831],[-1.094081,52.012552],[-1.09367,52.012493],[-1.094122,52.012225],[-1.092802,52.011097],[-1.093399,52.01068],[-1.091417,52.010329],[-1.090512,52.009342],[-1.090891,52.008872],[-1.089907,52.008325],[-1.089114,52.006693],[-1.089562,52.006335],[-1.088062,52.005782],[-1.086427,52.005894],[-1.086345,52.006326],[-1.085417,52.006168],[-1.085225,52.006579],[-1.084284,52.00643],[-1.08178,52.006863],[-1.0808,52.007348],[-1.080903,52.007734],[-1.08,52.007697],[-1.080209,52.008134],[-1.078585,52.008596],[-1.077618,52.008229],[-1.077144,52.008806],[-1.076677,52.008199],[-1.075751,52.008261],[-1.075649,52.007529],[-1.07392,52.006281],[-1.069866,52.007163],[-1.067391,52.00822],[-1.064576,52.008609],[-1.063714,52.008374],[-1.06082,52.008627],[-1.059034,52.007974],[-1.058585,52.007296],[-1.058968,52.004923],[-1.057574,52.003195],[-1.055285,52.002687],[-1.054911,52.003135],[-1.053131,52.002446],[-1.057874,51.999417],[-1.062235,51.994837],[-1.078186,51.981057],[-1.079397,51.979706],[-1.078424,51.979379],[-1.07971,51.975943],[-1.082144,51.972818],[-1.084177,51.972344],[-1.083766,51.970327],[-1.08492,51.968474],[-1.085744,51.968443],[-1.08717,51.966889],[-1.087682,51.967006],[-1.088793,51.964808],[-1.091807,51.962236],[-1.095167,51.957432],[-1.095234,51.957107],[-1.088852,51.955626],[-1.089525,51.954017],[-1.086171,51.952352],[-1.082845,51.951517],[-1.081274,51.950448],[-1.078814,51.946698],[-1.080425,51.944737],[-1.078992,51.943394],[-1.077563,51.943156],[-1.076064,51.94332],[-1.072743,51.944907],[-1.070954,51.946205],[-1.070326,51.94587],[-1.067355,51.946568],[-1.064892,51.948263],[-1.063567,51.948236],[-1.059304,51.949305],[-1.056765,51.949283],[-1.055504,51.949038],[-1.054616,51.947959],[-1.054787,51.946537],[-1.055845,51.945964],[-1.055919,51.942599],[-1.058699,51.940072],[-1.059122,51.939138],[-1.060546,51.938176],[-1.062112,51.935137],[-1.064152,51.934639],[-1.070033,51.934205],[-1.077549,51.931643],[-1.077488,51.931343],[-1.075022,51.930691],[-1.078065,51.927476],[-1.0815,51.92803],[-1.082117,51.927714],[-1.081249,51.927561],[-1.082632,51.925682],[-1.082586,51.923039],[-1.085964,51.923148],[-1.086673,51.922646],[-1.086329,51.920402],[-1.085041,51.919869],[-1.083349,51.918169],[-1.081181,51.917441],[-1.079356,51.917222],[-1.080037,51.916127],[-1.081862,51.915696],[-1.082636,51.915813],[-1.082278,51.911937],[-1.082712,51.911868],[-1.083545,51.910024],[-1.085563,51.907462],[-1.086279,51.905319],[-1.085004,51.904624],[-1.08582,51.902882],[-1.085379,51.901903],[-1.085999,51.900865],[-1.084254,51.899545],[-1.087059,51.897447],[-1.091316,51.897542],[-1.092905,51.895686],[-1.092901,51.894665],[-1.093519,51.893937],[-1.090604,51.892968],[-1.090018,51.892358],[-1.08579,51.891127],[-1.083126,51.890765],[-1.082037,51.890923],[-1.08087,51.890368],[-1.078714,51.89014],[-1.077269,51.889474],[-1.076508,51.888602],[-1.077257,51.888059],[-1.076809,51.88778],[-1.076083,51.887834],[-1.075459,51.888298],[-1.073542,51.888102],[-1.071793,51.888786],[-1.070417,51.888716],[-1.069977,51.887589],[-1.068975,51.887263],[-1.068606,51.886562],[-1.069634,51.886063],[-1.069993,51.885463],[-1.07142,51.885116],[-1.069801,51.884304],[-1.069691,51.883122],[-1.070504,51.88266],[-1.070165,51.882063],[-1.070949,51.881874],[-1.071036,51.881298],[-1.071951,51.881394],[-1.07285,51.881082],[-1.074133,51.880023],[-1.076536,51.878776],[-1.076566,51.877598],[-1.077605,51.876731],[-1.076099,51.876513],[-1.076138,51.875453],[-1.074567,51.875562],[-1.071757,51.874871],[-1.069166,51.874645],[-1.064642,51.868697],[-1.064548,51.868211],[-1.065593,51.868188],[-1.064451,51.866348],[-1.065564,51.86601],[-1.065136,51.865203],[-1.066127,51.864889],[-1.064516,51.861071],[-1.064515,51.859992],[-1.06348,51.858582],[-1.064296,51.857648],[-1.06312,51.856322],[-1.063443,51.856154],[-1.063045,51.855749],[-1.0635,51.855522],[-1.063083,51.854322],[-1.066014,51.853233],[-1.066031,51.852817],[-1.061597,51.848629],[-1.063567,51.847793],[-1.062198,51.846545],[-1.062006,51.844164],[-1.055755,51.841819],[-1.051582,51.839869],[-1.047277,51.840138],[-1.047143,51.839753],[-1.048329,51.839602],[-1.048997,51.838989],[-1.059217,51.835422],[-1.061907,51.832384],[-1.066322,51.833175],[-1.067198,51.834479],[-1.068588,51.834636],[-1.071607,51.833943],[-1.072114,51.831277],[-1.073279,51.830264],[-1.075918,51.82935],[-1.078449,51.829255],[-1.080865,51.829552],[-1.086196,51.831325],[-1.087998,51.833474],[-1.089342,51.834054],[-1.092256,51.834488],[-1.097328,51.837444],[-1.100276,51.838506],[-1.102521,51.840287],[-1.108427,51.841339],[-1.112832,51.841442],[-1.117243,51.843843],[-1.121599,51.845342],[-1.124139,51.842592],[-1.127143,51.841216],[-1.129044,51.839206],[-1.132884,51.838395],[-1.140754,51.834676],[-1.140503,51.834272],[-1.137838,51.833534],[-1.133737,51.831758],[-1.13049,51.831111],[-1.130113,51.829726],[-1.127431,51.829071],[-1.126471,51.828528],[-1.123224,51.825322],[-1.123397,51.824579],[-1.119008,51.820765],[-1.117453,51.820424],[-1.114239,51.818253],[-1.110097,51.817305],[-1.113443,51.815876],[-1.116045,51.815205],[-1.117224,51.814221],[-1.117908,51.81109],[-1.120378,51.810252],[-1.122481,51.809928],[-1.122932,51.810199],[-1.124044,51.808049],[-1.12489,51.807511],[-1.120787,51.804328],[-1.119872,51.80023],[-1.117406,51.799167],[-1.121234,51.796874],[-1.123541,51.794181],[-1.123788,51.794557],[-1.125913,51.794642],[-1.125206,51.795801],[-1.125006,51.798262],[-1.126818,51.799503],[-1.132335,51.797152],[-1.136807,51.796016],[-1.142118,51.79771],[-1.142584,51.797274],[-1.146223,51.797775],[-1.149302,51.797326],[-1.151596,51.796593],[-1.153531,51.796402],[-1.154076,51.796634],[-1.152929,51.797738],[-1.152323,51.799671],[-1.150751,51.801188],[-1.151896,51.803098],[-1.153824,51.80454],[-1.159587,51.807162],[-1.1643,51.81004],[-1.167121,51.809685],[-1.167274,51.810773],[-1.165691,51.811777],[-1.16741,51.813778],[-1.170454,51.813053],[-1.172052,51.812352],[-1.187317,51.812136],[-1.186605,51.808627],[-1.188481,51.808862],[-1.18802,51.806503],[-1.188486,51.804944],[-1.188338,51.803591],[-1.191515,51.800234],[-1.190679,51.798537],[-1.194519,51.796994],[-1.198176,51.798181],[-1.2025,51.797997],[-1.203815,51.798578],[-1.205812,51.80056],[-1.208342,51.798155],[-1.210448,51.80096],[-1.210357,51.802463],[-1.215833,51.803091],[-1.22134,51.801558],[-1.222847,51.802485],[-1.221876,51.802764],[-1.222067,51.803645],[-1.221116,51.805079],[-1.224573,51.806941],[-1.225389,51.806419],[-1.226049,51.806643],[-1.230902,51.809395],[-1.236598,51.80964],[-1.236582,51.808303],[-1.239347,51.808378],[-1.239402,51.809471],[-1.241964,51.809996],[-1.244751,51.807923],[-1.243652,51.806534],[-1.243708,51.805503],[-1.242794,51.80459],[-1.243536,51.803727],[-1.245404,51.802777],[-1.245087,51.80198],[-1.246231,51.801473],[-1.24823,51.799552],[-1.250219,51.798875],[-1.252484,51.798698],[-1.253809,51.797847],[-1.253331,51.796394],[-1.248891,51.793858],[-1.247396,51.793603],[-1.246349,51.793003],[-1.244346,51.790669],[-1.244091,51.789437],[-1.246828,51.788381],[-1.247028,51.787408],[-1.247907,51.786622],[-1.252704,51.786499],[-1.252481,51.787035],[-1.25295,51.787324],[-1.253031,51.78888],[-1.258094,51.793511],[-1.26144,51.792562],[-1.261819,51.792805],[-1.263675,51.792358],[-1.263956,51.793219],[-1.266089,51.79283],[-1.266481,51.793885],[-1.267664,51.793769],[-1.268645,51.795633],[-1.27124,51.794767],[-1.271555,51.794751],[-1.271535,51.795244],[-1.276998,51.794607],[-1.277218,51.795234],[-1.280043,51.795086],[-1.279699,51.795991],[-1.28286,51.795882],[-1.28365,51.796272],[-1.284539,51.795071],[-1.284642,51.793989],[-1.28568,51.79365],[-1.286416,51.792395],[-1.289215,51.79051],[-1.289608,51.790564],[-1.292323,51.789063],[-1.292214,51.788873],[-1.297268,51.786371],[-1.30019,51.784108],[-1.30282,51.780965],[-1.30395,51.781549],[-1.304781,51.783155],[-1.30426,51.784041],[-1.305391,51.785293],[-1.303364,51.785913],[-1.305109,51.786667],[-1.304055,51.787632],[-1.30525,51.788432],[-1.305226,51.788821],[-1.305321,51.788448],[-1.305626,51.788693],[-1.304721,51.789625],[-1.305695,51.7897],[-1.306314,51.789069],[-1.306483,51.790129],[-1.313168,51.788255],[-1.315164,51.788106],[-1.31633,51.787174],[-1.317761,51.787605],[-1.317415,51.788314],[-1.317824,51.788581],[-1.320372,51.7879],[-1.322285,51.787838],[-1.324622,51.791823],[-1.325894,51.791793],[-1.325831,51.796944],[-1.326769,51.801009],[-1.326383,51.805003],[-1.325564,51.805329],[-1.333078,51.809525],[-1.335355,51.811237],[-1.337397,51.811692],[-1.33397,51.814579],[-1.332763,51.816925],[-1.332382,51.81702],[-1.338176,51.819964],[-1.332357,51.820149],[-1.331093,51.820505],[-1.329385,51.82149],[-1.326243,51.825541],[-1.327184,51.827049],[-1.332542,51.831093],[-1.337084,51.830231],[-1.342001,51.830181],[-1.340567,51.832281],[-1.340346,51.833996],[-1.337801,51.834322],[-1.339438,51.83556],[-1.338325,51.835658],[-1.338539,51.8366],[-1.337466,51.836734],[-1.337617,51.837396],[-1.336709,51.837592],[-1.336938,51.838275],[-1.341361,51.840424],[-1.340797,51.840456],[-1.340534,51.840921],[-1.339865,51.845243],[-1.336995,51.849898],[-1.337029,51.851868],[-1.338753,51.854568],[-1.339175,51.856173],[-1.333994,51.862479],[-1.328185,51.860611],[-1.326459,51.860517],[-1.324561,51.859653],[-1.323034,51.861298],[-1.316408,51.860401],[-1.311143,51.86045],[-1.309583,51.861749],[-1.307502,51.862751],[-1.304552,51.861675],[-1.30212,51.861736],[-1.297083,51.861044],[-1.29535,51.862505],[-1.295169,51.863236],[-1.294385,51.863707],[-1.294678,51.864116],[-1.299302,51.866381],[-1.301422,51.868277],[-1.302358,51.868491],[-1.302233,51.868985],[-1.296952,51.872439],[-1.294323,51.873034],[-1.294113,51.872114],[-1.293069,51.872057],[-1.28814,51.87359],[-1.286144,51.875153],[-1.28851,51.881561],[-1.293868,51.88404],[-1.293877,51.884663],[-1.296028,51.885688],[-1.29785,51.88806],[-1.298102,51.889621],[-1.297694,51.889716],[-1.297163,51.889214],[-1.297137,51.890777],[-1.29611,51.890849],[-1.294968,51.891597],[-1.291198,51.892871],[-1.289787,51.893734],[-1.291348,51.896714],[-1.292267,51.89645],[-1.293961,51.897273],[-1.294969,51.896978],[-1.297168,51.897335],[-1.300742,51.89865],[-1.301202,51.899342],[-1.302417,51.900005],[-1.303691,51.902612],[-1.303883,51.90399],[-1.302189,51.906173],[-1.300539,51.90657],[-1.298986,51.908359],[-1.298396,51.90984],[-1.298662,51.912009],[-1.299178,51.912506],[-1.298919,51.913156],[-1.299664,51.913753],[-1.301931,51.914365],[-1.306392,51.916349],[-1.305248,51.917242],[-1.306126,51.918714],[-1.306224,51.919765],[-1.312336,51.920977],[-1.314414,51.921948],[-1.318024,51.921779],[-1.324721,51.922506],[-1.32512,51.923203],[-1.325229,51.92673],[-1.33054,51.927351],[-1.329461,51.930532],[-1.330269,51.932223],[-1.330173,51.933488],[-1.339991,51.93496],[-1.338332,51.937706],[-1.337697,51.938095],[-1.336437,51.93812],[-1.332465,51.942149],[-1.340603,51.942153],[-1.343288,51.941219],[-1.345267,51.941161],[-1.344564,51.942705],[-1.344936,51.944201],[-1.346416,51.94509],[-1.348341,51.9458],[-1.349591,51.945878],[-1.352449,51.947037],[-1.356272,51.946794],[-1.361858,51.948375],[-1.360759,51.951456],[-1.360734,51.95378],[-1.361159,51.956226],[-1.361778,51.956923],[-1.36184,51.958496],[-1.360618,51.961022],[-1.361965,51.964662],[-1.361611,51.966146],[-1.362141,51.967826],[-1.361396,51.968537],[-1.363042,51.968582],[-1.363209,51.967861],[-1.364947,51.967464],[-1.365142,51.968269],[-1.36562,51.968277],[-1.365967,51.969325],[-1.367151,51.970424],[-1.366972,51.970733],[-1.368166,51.971673],[-1.368246,51.972996],[-1.36898,51.973852],[-1.370239,51.973768],[-1.371833,51.974779],[-1.373126,51.974912],[-1.374591,51.975934],[-1.374916,51.975751],[-1.375556,51.976329],[-1.375085,51.976794],[-1.37577,51.97833],[-1.377235,51.979601],[-1.382953,51.979999],[-1.384461,51.980622],[-1.396541,51.978643],[-1.399778,51.979149],[-1.399774,51.979403],[-1.401868,51.97987],[-1.402607,51.97967],[-1.40407,51.978457],[-1.406719,51.977893],[-1.406377,51.975332],[-1.406928,51.974851],[-1.408805,51.974841],[-1.409547,51.972697],[-1.409989,51.97278],[-1.410624,51.973756],[-1.410364,51.976081],[-1.412532,51.978574],[-1.41519,51.979207],[-1.418087,51.980915],[-1.421436,51.981941],[-1.422325,51.982651],[-1.423121,51.982805],[-1.423126,51.983183],[-1.426579,51.98293],[-1.426903,51.984215],[-1.426205,51.98534],[-1.424453,51.986686],[-1.426887,51.987356],[-1.427764,51.987996],[-1.433599,51.988033],[-1.435517,51.989083],[-1.437372,51.989193],[-1.437685,51.988032],[-1.441025,51.985157],[-1.444318,51.984237],[-1.444877,51.983824],[-1.446663,51.983881],[-1.44713,51.983542],[-1.447644,51.983665],[-1.447874,51.983327],[-1.448156,51.983478],[-1.448179,51.983104],[-1.450075,51.98238],[-1.454077,51.979671],[-1.456147,51.979726],[-1.460716,51.97866],[-1.461035,51.978978],[-1.462767,51.979263],[-1.467341,51.978733],[-1.470062,51.978821],[-1.470915,51.978631],[-1.472204,51.977375],[-1.473943,51.977024],[-1.477992,51.977012],[-1.480737,51.976129],[-1.484362,51.976324],[-1.487686,51.975516],[-1.492006,51.975406],[-1.493668,51.974899],[-1.495383,51.976377],[-1.496959,51.977203],[-1.500922,51.9815],[-1.501346,51.981488],[-1.50139,51.983689],[-1.501872,51.984092],[-1.503435,51.984799],[-1.510853,51.986152],[-1.513415,51.987187],[-1.518193,51.989867],[-1.521231,51.992993],[-1.522826,51.996843],[-1.52161,52.001596],[-1.521164,52.005885],[-1.515579,52.014429],[-1.513571,52.018383],[-1.510947,52.021449],[-1.510116,52.026713],[-1.5074,52.03338],[-1.507479,52.03532],[-1.506899,52.037233],[-1.504944,52.04144],[-1.503461,52.043548],[-1.50184,52.049582],[-1.499636,52.052436],[-1.497353,52.058955],[-1.497238,52.06087],[-1.499186,52.063579],[-1.501817,52.066333],[-1.502619,52.069176],[-1.500069,52.069943],[-1.501855,52.071627],[-1.500815,52.072929],[-1.499179,52.073915],[-1.496809,52.074349],[-1.496312,52.074142],[-1.495013,52.07472],[-1.493495,52.074808],[-1.492172,52.075482],[-1.491742,52.07633],[-1.490665,52.077135],[-1.493292,52.0796],[-1.493688,52.081593],[-1.494355,52.082227],[-1.49056,52.083803],[-1.49074,52.08473],[-1.4904,52.084729],[-1.489953,52.086234],[-1.488905,52.086235],[-1.48779,52.087773],[-1.485607,52.087733],[-1.484733,52.091304],[-1.48682,52.091483],[-1.488143,52.092828],[-1.487804,52.093957],[-1.486199,52.094228],[-1.480067,52.093558],[-1.477302,52.101351],[-1.474141,52.101002],[-1.471776,52.099463],[-1.470738,52.097955],[-1.467559,52.097056],[-1.466931,52.09774],[-1.465082,52.097416],[-1.459738,52.097531],[-1.458519,52.097666],[-1.458207,52.098001],[-1.453534,52.098542],[-1.453607,52.097336],[-1.447188,52.097625],[-1.446978,52.098863],[-1.448328,52.100471],[-1.448061,52.105162],[-1.449221,52.108315],[-1.453469,52.112991],[-1.45158,52.114449],[-1.448471,52.116097],[-1.443875,52.115199],[-1.441229,52.115556],[-1.437071,52.116704],[-1.424962,52.118277],[-1.41963,52.117642],[-1.414417,52.115439],[-1.413573,52.114323],[-1.412906,52.114266],[-1.411459,52.113049],[-1.403894,52.11009],[-1.402797,52.108897],[-1.402633,52.106325],[-1.402232,52.10629],[-1.401979,52.105582],[-1.400615,52.105057],[-1.400338,52.104335],[-1.398919,52.103449],[-1.39801,52.103341],[-1.397875,52.102724],[-1.396716,52.101921],[-1.395536,52.101702],[-1.390898,52.098897],[-1.387553,52.097424],[-1.387147,52.096106],[-1.385731,52.095239],[-1.3854,52.094146],[-1.3777,52.096055],[-1.378307,52.096763],[-1.374424,52.099726],[-1.371552,52.099075],[-1.367573,52.100005],[-1.366155,52.099944],[-1.362554,52.101084],[-1.360576,52.100968],[-1.35777,52.10131],[-1.358825,52.10225],[-1.358519,52.102376],[-1.35891,52.102616],[-1.358515,52.102584],[-1.358366,52.102976],[-1.359462,52.104291],[-1.358977,52.10408],[-1.358404,52.104298],[-1.359302,52.104645],[-1.358903,52.104964],[-1.359722,52.10498],[-1.359067,52.10524],[-1.359666,52.105698],[-1.360979,52.105889],[-1.360618,52.106135],[-1.361375,52.106289],[-1.361227,52.106598],[-1.36161,52.106676],[-1.361283,52.106925],[-1.361742,52.107347],[-1.361224,52.107235],[-1.361362,52.107505],[-1.362315,52.108068],[-1.362378,52.107802],[-1.363144,52.108051],[-1.363006,52.108933],[-1.365292,52.110023],[-1.365058,52.110368],[-1.365395,52.110617],[-1.364817,52.110582],[-1.365183,52.111302],[-1.366309,52.111732],[-1.367238,52.111634],[-1.367231,52.111938],[-1.36794,52.111647],[-1.36909,52.112329],[-1.369558,52.112058],[-1.369521,52.112485],[-1.370367,52.112718],[-1.369817,52.112991],[-1.370357,52.113186],[-1.370146,52.113778],[-1.370576,52.113821],[-1.370896,52.114396],[-1.370241,52.114244],[-1.370149,52.115083],[-1.370326,52.11537],[-1.371047,52.115142],[-1.370744,52.11551],[-1.371441,52.116173],[-1.370624,52.116722],[-1.371055,52.116703],[-1.371398,52.117168],[-1.370842,52.117534],[-1.374583,52.118318],[-1.377689,52.118132],[-1.38161,52.116946],[-1.385379,52.117458],[-1.3907,52.116789],[-1.392182,52.117071],[-1.393303,52.118963],[-1.392079,52.119696],[-1.392377,52.120292],[-1.391426,52.121528],[-1.389174,52.121963],[-1.390092,52.122737],[-1.387556,52.125991],[-1.386829,52.126052],[-1.385463,52.128403],[-1.385279,52.128202],[-1.384669,52.12842],[-1.384412,52.127999],[-1.383765,52.128216],[-1.382728,52.127543],[-1.375199,52.130914],[-1.37115,52.133266],[-1.370166,52.133095],[-1.369601,52.134724],[-1.366147,52.136075],[-1.364049,52.136708],[-1.362821,52.134798],[-1.360015,52.135458],[-1.359823,52.135062],[-1.357779,52.135515],[-1.357659,52.13531],[-1.355732,52.136014],[-1.352075,52.134806],[-1.348708,52.135132],[-1.34938,52.135915],[-1.348313,52.1378],[-1.349115,52.138515],[-1.350255,52.140864],[-1.349936,52.141592],[-1.346829,52.14235],[-1.343373,52.144224],[-1.34104,52.144856],[-1.34281,52.14873],[-1.341611,52.15068],[-1.343459,52.153235],[-1.342344,52.154905],[-1.338236,52.158843],[-1.337147,52.158884],[-1.336429,52.159447],[-1.335813,52.159011],[-1.334668,52.159336],[-1.334005,52.159081],[-1.333948,52.165398],[-1.333088,52.167349],[-1.331897,52.168485],[-1.33087,52.16823],[-1.331044,52.167933],[-1.329939,52.167351],[-1.330074,52.166302],[-1.328373,52.165804],[-1.328666,52.165477],[-1.325309,52.162772],[-1.323896,52.162103],[-1.324666,52.161211],[-1.32438,52.160918],[-1.320875,52.159206],[-1.321287,52.158306]]]}}]}