{"type":"FeatureCollection","features":[{"type":"Feature","properties":{"slug":"cheshire-west-and-chester","gss_code":"E06000050","name":"Cheshire West and Chester"},"geometry":{"type":"MultiPolygon","coordinates":[[[[-3.083094,53.25581],[-3.085566,53.256643],[-3.083877,53.257041],[-3.083094,53.25581]]],[[[-3.110007,53.294832],[-3.111451,53.294642],[-3.10996,53.295713],[-3.111643,53.294673],[-3.113212,53.294875],[-3.109363,53.297045],[-3.1093,53.296072],[-3.110007,53.294832]]],[[[-2.495049,53.341693],[-2.494352,53.340714],[-2.497883,53.337691],[-2.503154,53.331577],[-2.504456,53.326844],[-2.50968,53.324494],[-2.512281,53.321346],[-2.510953,53.320968],[-2.506749,53.318337],[-2.504276,53.314315],[-2.502908,53.313383],[-2.504921,53.312747],[-2.505685,53.311831],[-2.505533,53.310681],[-2.505218,53.309702],[-2.502688,53.306877],[-2.502602,53.305178],[-2.502037,53.30461],[-2.500916,53.304405],[-2.500657,53.301679],[-2.501695,53.298644],[-2.498252,53.299809],[-2.497819,53.299837],[-2.497591,53.299341],[-2.497054,53.296006],[-2.497778,53.294827],[-2.497491,53.293313],[-2.498137,53.291753],[-2.498006,53.289909],[-2.495649,53.290487],[-2.489697,53.290992],[-2.485076,53.290824],[-2.478922,53.289828],[-2.471989,53.287314],[-2.472426,53.28665],[-2.469999,53.285721],[-2.464457,53.287279],[-2.453171,53.284551],[-2.452117,53.284075],[-2.452307,53.283749],[-2.449699,53.2826],[-2.448922,53.281798],[-2.447998,53.281724],[-2.447335,53.280733],[-2.447624,53.280551],[-2.44692,53.280116],[-2.447175,53.279613],[-2.448423,53.279387],[-2.44787,53.278971],[-2.448036,53.278599],[-2.448581,53.278413],[-2.449282,53.27878],[-2.450483,53.278171],[-2.449855,53.277485],[-2.45008,53.277162],[-2.448837,53.276241],[-2.448254,53.275113],[-2.446837,53.274363],[-2.446496,53.272291],[-2.445221,53.272616],[-2.444089,53.270472],[-2.439614,53.269221],[-2.435459,53.269329],[-2.433669,53.268628],[-2.432565,53.266971],[-2.430866,53.265432],[-2.428523,53.264701],[-2.42641,53.263308],[-2.428052,53.261395],[-2.427461,53.26117],[-2.427219,53.261565],[-2.424876,53.261022],[-2.422885,53.260069],[-2.417179,53.264792],[-2.416362,53.264575],[-2.41595,53.26506],[-2.414795,53.264623],[-2.414448,53.265132],[-2.41498,53.265619],[-2.414404,53.266042],[-2.415011,53.266898],[-2.413972,53.266963],[-2.414677,53.267905],[-2.414455,53.268319],[-2.41424,53.268077],[-2.413675,53.268333],[-2.413578,53.268004],[-2.412802,53.268151],[-2.413073,53.267904],[-2.41245,53.267795],[-2.411574,53.268264],[-2.409311,53.268161],[-2.408841,53.268425],[-2.407643,53.267155],[-2.406622,53.267393],[-2.40633,53.26695],[-2.404924,53.26715],[-2.404111,53.266776],[-2.403536,53.266874],[-2.403035,53.26667],[-2.403415,53.266454],[-2.403114,53.266144],[-2.40247,53.266316],[-2.401332,53.265883],[-2.401058,53.266084],[-2.400002,53.265331],[-2.399639,53.265839],[-2.399107,53.265677],[-2.397222,53.2661],[-2.396696,53.266924],[-2.395866,53.26643],[-2.395385,53.266476],[-2.395657,53.266691],[-2.394115,53.266754],[-2.391436,53.265442],[-2.391784,53.26465],[-2.391089,53.264341],[-2.390345,53.264174],[-2.389412,53.265108],[-2.388249,53.264967],[-2.388268,53.262321],[-2.389234,53.262408],[-2.388226,53.261821],[-2.388237,53.261335],[-2.386221,53.261017],[-2.385565,53.262843],[-2.387442,53.262611],[-2.387462,53.263645],[-2.386862,53.264099],[-2.386085,53.264093],[-2.385929,53.263729],[-2.385263,53.264059],[-2.38499,53.263407],[-2.384073,53.262882],[-2.383209,53.263043],[-2.382953,53.262564],[-2.3793,53.263095],[-2.378992,53.263376],[-2.379314,53.260492],[-2.381609,53.259264],[-2.381774,53.258783],[-2.381241,53.258679],[-2.381735,53.258253],[-2.381538,53.25784],[-2.381093,53.257784],[-2.380568,53.25688],[-2.379712,53.256503],[-2.379399,53.256691],[-2.378814,53.256103],[-2.377694,53.256239],[-2.37721,53.256095],[-2.377266,53.255648],[-2.375761,53.25582],[-2.37549,53.255352],[-2.374286,53.255335],[-2.37399,53.254946],[-2.374661,53.254815],[-2.374383,53.254547],[-2.373369,53.254745],[-2.372668,53.25437],[-2.370399,53.254471],[-2.369884,53.253317],[-2.369036,53.253428],[-2.368825,53.252692],[-2.367845,53.252731],[-2.367657,53.252481],[-2.368039,53.252346],[-2.367202,53.252094],[-2.367256,53.251117],[-2.36462,53.250566],[-2.365061,53.249875],[-2.364566,53.249298],[-2.365081,53.249027],[-2.36465,53.24868],[-2.363535,53.248435],[-2.362404,53.248561],[-2.361657,53.249066],[-2.360602,53.248813],[-2.360204,53.249227],[-2.359473,53.248834],[-2.359249,53.249194],[-2.357188,53.249129],[-2.356453,53.249397],[-2.355995,53.248763],[-2.35498,53.248845],[-2.354395,53.249227],[-2.354262,53.248666],[-2.353033,53.248314],[-2.351733,53.248631],[-2.35112,53.248383],[-2.350947,53.248839],[-2.34908,53.249032],[-2.348972,53.248672],[-2.35075,53.245934],[-2.350145,53.243767],[-2.346353,53.240937],[-2.352645,53.236955],[-2.353388,53.236915],[-2.353708,53.235972],[-2.359131,53.233361],[-2.359509,53.230582],[-2.3638,53.223571],[-2.367963,53.22332],[-2.377647,53.227152],[-2.380932,53.227814],[-2.385739,53.230385],[-2.396289,53.234362],[-2.398826,53.232102],[-2.396713,53.231103],[-2.398859,53.228276],[-2.402492,53.229726],[-2.402822,53.229296],[-2.40094,53.228306],[-2.401504,53.227905],[-2.399038,53.226764],[-2.39954,53.22595],[-2.397878,53.225228],[-2.398956,53.224048],[-2.399648,53.224026],[-2.401172,53.221759],[-2.403079,53.221152],[-2.406825,53.221292],[-2.407998,53.220877],[-2.409725,53.221045],[-2.411471,53.220755],[-2.4129,53.22116],[-2.413735,53.219913],[-2.413643,53.219338],[-2.414182,53.2193],[-2.412322,53.212582],[-2.409194,53.212755],[-2.408831,53.211805],[-2.408648,53.209097],[-2.410161,53.205696],[-2.407436,53.204732],[-2.406399,53.204024],[-2.403528,53.204237],[-2.402972,53.203361],[-2.400889,53.203283],[-2.399532,53.203914],[-2.398548,53.205276],[-2.397695,53.204861],[-2.396772,53.204899],[-2.39603,53.206093],[-2.395033,53.2061],[-2.393469,53.204907],[-2.392997,53.203188],[-2.392375,53.202783],[-2.391919,53.200128],[-2.390521,53.198096],[-2.389862,53.196086],[-2.388048,53.195928],[-2.387151,53.196192],[-2.38675,53.196785],[-2.384491,53.196594],[-2.384425,53.196869],[-2.382868,53.196529],[-2.382303,53.196759],[-2.381933,53.196234],[-2.379537,53.196449],[-2.377253,53.19576],[-2.376383,53.195952],[-2.37256,53.195551],[-2.372677,53.194228],[-2.37191,53.192669],[-2.372425,53.192377],[-2.371152,53.19044],[-2.373339,53.189456],[-2.37563,53.189159],[-2.376923,53.187262],[-2.372823,53.186449],[-2.373779,53.185426],[-2.373609,53.18517],[-2.370849,53.184535],[-2.370162,53.183675],[-2.368935,53.183377],[-2.368686,53.182917],[-2.37232,53.178741],[-2.373663,53.178754],[-2.374728,53.176546],[-2.377813,53.173817],[-2.376866,53.173068],[-2.378202,53.172082],[-2.383177,53.173484],[-2.384615,53.174575],[-2.387001,53.175515],[-2.390028,53.178017],[-2.391251,53.17832],[-2.39211,53.179915],[-2.39329,53.179923],[-2.396255,53.178857],[-2.396827,53.177962],[-2.398056,53.177213],[-2.398758,53.174618],[-2.399302,53.174529],[-2.397942,53.172298],[-2.40658,53.174137],[-2.405562,53.174782],[-2.410358,53.178114],[-2.412642,53.180877],[-2.41301,53.181967],[-2.412701,53.183775],[-2.413753,53.183938],[-2.416322,53.187892],[-2.41739,53.188839],[-2.420705,53.190201],[-2.421908,53.191117],[-2.427032,53.192951],[-2.425899,53.193742],[-2.426383,53.195037],[-2.428938,53.194959],[-2.429426,53.196557],[-2.430663,53.197965],[-2.434517,53.196675],[-2.435354,53.197776],[-2.43671,53.197385],[-2.437841,53.198239],[-2.438656,53.200088],[-2.440104,53.199776],[-2.440605,53.200397],[-2.443123,53.201363],[-2.444512,53.201039],[-2.445841,53.201219],[-2.447897,53.199947],[-2.451226,53.19936],[-2.451679,53.200142],[-2.454581,53.200967],[-2.454388,53.201667],[-2.455619,53.201868],[-2.456436,53.202634],[-2.45693,53.201849],[-2.458129,53.201469],[-2.459753,53.201477],[-2.460396,53.200004],[-2.460256,53.199081],[-2.45933,53.199181],[-2.459119,53.198749],[-2.458515,53.198668],[-2.458823,53.197973],[-2.458395,53.196815],[-2.45949,53.196194],[-2.460359,53.194648],[-2.460169,53.194222],[-2.460906,53.193848],[-2.460194,53.193607],[-2.460462,53.192901],[-2.458299,53.191886],[-2.458354,53.191535],[-2.456354,53.189872],[-2.456784,53.18874],[-2.456416,53.187328],[-2.457575,53.186393],[-2.457485,53.18505],[-2.456774,53.184716],[-2.456935,53.1844],[-2.456114,53.183621],[-2.45675,53.182766],[-2.456787,53.181806],[-2.456133,53.181264],[-2.456575,53.181039],[-2.45624,53.1788],[-2.4573,53.178478],[-2.456539,53.177667],[-2.457333,53.176617],[-2.45623,53.175905],[-2.45635,53.175334],[-2.455954,53.175083],[-2.454816,53.175149],[-2.453585,53.17431],[-2.45201,53.173809],[-2.450987,53.173821],[-2.449779,53.173011],[-2.448241,53.173072],[-2.447886,53.172128],[-2.44684,53.17228],[-2.446438,53.171878],[-2.445293,53.172111],[-2.445193,53.171689],[-2.443477,53.170838],[-2.442828,53.169926],[-2.443365,53.16947],[-2.441985,53.168807],[-2.441864,53.167958],[-2.442359,53.167814],[-2.442006,53.166179],[-2.442572,53.166179],[-2.442172,53.165232],[-2.443092,53.164932],[-2.442428,53.164675],[-2.442193,53.163766],[-2.44345,53.16293],[-2.442446,53.162865],[-2.442418,53.162527],[-2.443631,53.162239],[-2.444498,53.161278],[-2.444517,53.160928],[-2.443268,53.16068],[-2.443254,53.160194],[-2.443724,53.160207],[-2.443848,53.159869],[-2.446469,53.159869],[-2.451863,53.160894],[-2.452312,53.16065],[-2.452818,53.160954],[-2.45466,53.160938],[-2.455828,53.160472],[-2.456299,53.159623],[-2.456942,53.157272],[-2.456465,53.156868],[-2.457324,53.156435],[-2.459106,53.156213],[-2.461969,53.156568],[-2.464301,53.153157],[-2.469074,53.152762],[-2.472059,53.154534],[-2.474609,53.154625],[-2.476352,53.155215],[-2.477688,53.156488],[-2.48033,53.157224],[-2.483801,53.15951],[-2.48618,53.160157],[-2.485629,53.161281],[-2.484538,53.162172],[-2.485025,53.162738],[-2.487032,53.163412],[-2.489173,53.163566],[-2.490568,53.16352],[-2.491378,53.163006],[-2.492568,53.162921],[-2.493811,53.163563],[-2.494867,53.163414],[-2.496194,53.164282],[-2.498031,53.164237],[-2.4991,53.163682],[-2.499679,53.164156],[-2.500287,53.163684],[-2.500696,53.163975],[-2.500941,53.163564],[-2.501695,53.16371],[-2.500835,53.161428],[-2.502417,53.159863],[-2.503174,53.159728],[-2.504026,53.160048],[-2.505674,53.159679],[-2.506279,53.158986],[-2.506518,53.159216],[-2.507555,53.158997],[-2.508331,53.159461],[-2.510101,53.159195],[-2.510755,53.15943],[-2.512365,53.158904],[-2.512638,53.158491],[-2.51204,53.158312],[-2.512416,53.158028],[-2.513368,53.158012],[-2.514118,53.158875],[-2.516818,53.158973],[-2.51689,53.159487],[-2.518183,53.160124],[-2.519988,53.160093],[-2.520566,53.16041],[-2.521392,53.159614],[-2.522999,53.159159],[-2.522607,53.157689],[-2.522836,53.155354],[-2.523938,53.1544],[-2.526865,53.152839],[-2.528603,53.152439],[-2.532755,53.152203],[-2.542251,53.149761],[-2.548013,53.151407],[-2.550745,53.153183],[-2.55194,53.154517],[-2.553563,53.155584],[-2.553846,53.157125],[-2.555963,53.157987],[-2.558499,53.159616],[-2.55706,53.160338],[-2.55968,53.161883],[-2.56182,53.16267],[-2.565,53.162057],[-2.566573,53.162278],[-2.56676,53.162608],[-2.568108,53.162424],[-2.572403,53.163472],[-2.574146,53.161405],[-2.576671,53.161981],[-2.57883,53.160035],[-2.580766,53.159327],[-2.580345,53.159142],[-2.580868,53.15802],[-2.582856,53.157729],[-2.583581,53.155498],[-2.586185,53.156537],[-2.586683,53.157333],[-2.587529,53.157459],[-2.589012,53.157083],[-2.591644,53.157244],[-2.593546,53.158309],[-2.596505,53.158872],[-2.597127,53.155311],[-2.597495,53.155203],[-2.595792,53.152724],[-2.593414,53.150851],[-2.592252,53.149031],[-2.588714,53.146577],[-2.589731,53.146346],[-2.589873,53.145863],[-2.590774,53.146001],[-2.5907,53.145049],[-2.591378,53.145081],[-2.592005,53.144516],[-2.592355,53.144482],[-2.592529,53.144964],[-2.594394,53.144516],[-2.595935,53.144888],[-2.596855,53.144749],[-2.597112,53.145409],[-2.597692,53.145425],[-2.598628,53.146202],[-2.6002,53.146513],[-2.603018,53.145672],[-2.603149,53.145368],[-2.60353,53.145477],[-2.603526,53.145094],[-2.604349,53.145107],[-2.605624,53.145804],[-2.605838,53.146696],[-2.607721,53.148025],[-2.607865,53.148569],[-2.6083,53.148594],[-2.607924,53.148792],[-2.60819,53.149174],[-2.60872,53.149181],[-2.609336,53.149996],[-2.611741,53.150568],[-2.612707,53.150321],[-2.614133,53.150432],[-2.614281,53.150691],[-2.61508,53.150311],[-2.617713,53.150304],[-2.618246,53.150027],[-2.618443,53.150265],[-2.620346,53.150283],[-2.6209,53.151217],[-2.622431,53.151394],[-2.622763,53.151153],[-2.623194,53.151422],[-2.625243,53.150843],[-2.625631,53.150335],[-2.627272,53.149812],[-2.62836,53.148697],[-2.629066,53.148658],[-2.630002,53.146292],[-2.630919,53.146224],[-2.632049,53.145511],[-2.63471,53.14271],[-2.636591,53.142039],[-2.638259,53.141884],[-2.640035,53.141007],[-2.640327,53.139863],[-2.640788,53.13986],[-2.643344,53.135224],[-2.642178,53.134522],[-2.640293,53.134136],[-2.63962,53.133568],[-2.640528,53.132107],[-2.640429,53.129064],[-2.641147,53.128947],[-2.641263,53.128421],[-2.649962,53.129225],[-2.652428,53.130347],[-2.656244,53.13003],[-2.658308,53.130776],[-2.65973,53.130716],[-2.659693,53.129349],[-2.660638,53.127506],[-2.660517,53.125092],[-2.662437,53.121349],[-2.663764,53.120582],[-2.66694,53.120185],[-2.668768,53.118828],[-2.670093,53.118433],[-2.670728,53.117968],[-2.670041,53.117049],[-2.671375,53.116436],[-2.671145,53.11587],[-2.673797,53.115944],[-2.674437,53.115145],[-2.678502,53.11596],[-2.681978,53.116022],[-2.683639,53.117121],[-2.687479,53.117235],[-2.690487,53.118668],[-2.696628,53.119968],[-2.699653,53.119787],[-2.703671,53.117425],[-2.706054,53.118509],[-2.707108,53.117106],[-2.708567,53.116217],[-2.709204,53.114351],[-2.710048,53.113437],[-2.709699,53.111907],[-2.71,53.11178],[-2.708421,53.110267],[-2.707566,53.107813],[-2.706451,53.106614],[-2.708215,53.105548],[-2.709058,53.098651],[-2.711736,53.096415],[-2.711364,53.093642],[-2.713142,53.093014],[-2.71758,53.093528],[-2.722294,53.092194],[-2.724922,53.092319],[-2.730333,53.091528],[-2.731739,53.091809],[-2.732884,53.090083],[-2.735615,53.088724],[-2.73493,53.086553],[-2.74178,53.081861],[-2.744438,53.082292],[-2.745466,53.082157],[-2.74516,53.080663],[-2.746747,53.078873],[-2.748368,53.078532],[-2.748651,53.077952],[-2.750742,53.076519],[-2.751101,53.074423],[-2.749927,53.071706],[-2.751264,53.071418],[-2.752929,53.069226],[-2.743258,53.065795],[-2.741071,53.064521],[-2.741879,53.063482],[-2.739678,53.062425],[-2.740169,53.061357],[-2.737256,53.060999],[-2.737554,53.060459],[-2.735711,53.060186],[-2.735925,53.059778],[-2.734724,53.05868],[-2.732423,53.057684],[-2.734534,53.056605],[-2.734699,53.055084],[-2.730481,53.053521],[-2.729005,53.051636],[-2.726492,53.051125],[-2.723263,53.04884],[-2.722129,53.049004],[-2.719121,53.046141],[-2.719215,53.044849],[-2.718263,53.044214],[-2.718249,53.045564],[-2.716201,53.047625],[-2.71046,53.048212],[-2.709228,53.050165],[-2.709581,53.052245],[-2.707237,53.052937],[-2.704555,53.053157],[-2.704894,53.053937],[-2.702411,53.054321],[-2.700141,53.053117],[-2.693859,53.051842],[-2.691409,53.050049],[-2.689196,53.049311],[-2.68226,53.045322],[-2.668817,53.038654],[-2.671448,53.036422],[-2.672314,53.034025],[-2.677213,53.033278],[-2.678771,53.032659],[-2.678251,53.032352],[-2.678806,53.031984],[-2.678279,53.03146],[-2.67896,53.030945],[-2.678374,53.027995],[-2.679275,53.026736],[-2.679321,53.02594],[-2.679619,53.02562],[-2.68248,53.024901],[-2.683189,53.023495],[-2.685018,53.021713],[-2.682543,53.020242],[-2.678321,53.015011],[-2.680133,53.01521],[-2.688555,53.012486],[-2.690342,53.007808],[-2.69372,53.002771],[-2.696097,53.000769],[-2.700767,52.993274],[-2.704565,52.990417],[-2.711879,52.986084],[-2.715143,52.985046],[-2.716573,52.984053],[-2.720301,52.984004],[-2.725265,52.982933],[-2.726841,52.983273],[-2.727486,52.984014],[-2.728,52.983903],[-2.728908,52.984427],[-2.731173,52.984233],[-2.731571,52.984566],[-2.733383,52.984292],[-2.73468,52.985061],[-2.735332,52.984609],[-2.736365,52.984966],[-2.73633,52.98459],[-2.736747,52.984588],[-2.736853,52.984881],[-2.73727,52.984734],[-2.739382,52.985514],[-2.73952,52.985823],[-2.740229,52.985677],[-2.740959,52.986542],[-2.741832,52.986446],[-2.743741,52.987148],[-2.745733,52.987128],[-2.746325,52.986764],[-2.748167,52.986632],[-2.750775,52.986878],[-2.753718,52.986156],[-2.758532,52.98613],[-2.75994,52.98642],[-2.761601,52.987486],[-2.761686,52.989452],[-2.761071,52.989746],[-2.761014,52.990962],[-2.762538,52.991424],[-2.762393,52.991788],[-2.762876,52.991763],[-2.762738,52.992009],[-2.763791,52.992765],[-2.764127,52.992659],[-2.764411,52.993548],[-2.765579,52.993787],[-2.765617,52.994136],[-2.766458,52.994139],[-2.766857,52.994675],[-2.767918,52.994374],[-2.768491,52.99486],[-2.769146,52.99436],[-2.768551,52.994179],[-2.768736,52.99395],[-2.769354,52.994167],[-2.770427,52.993968],[-2.770831,52.993302],[-2.771227,52.993348],[-2.771501,52.994022],[-2.772611,52.993922],[-2.773527,52.994709],[-2.775228,52.994481],[-2.775889,52.994703],[-2.776477,52.994412],[-2.776874,52.994743],[-2.776765,52.994372],[-2.778418,52.994096],[-2.778216,52.993717],[-2.779736,52.993382],[-2.780505,52.993743],[-2.780387,52.994034],[-2.781026,52.993869],[-2.781586,52.994222],[-2.781476,52.994695],[-2.781142,52.994675],[-2.781622,52.995349],[-2.780932,52.995407],[-2.781213,52.99566],[-2.780702,52.9958],[-2.780945,52.996163],[-2.781946,52.996283],[-2.783665,52.995394],[-2.783908,52.995744],[-2.783913,52.995231],[-2.784416,52.995041],[-2.784092,52.99462],[-2.785002,52.994189],[-2.784902,52.993903],[-2.786139,52.994124],[-2.787691,52.995301],[-2.789324,52.995776],[-2.790967,52.995303],[-2.791775,52.994602],[-2.791494,52.994348],[-2.792105,52.99428],[-2.794254,52.992878],[-2.793931,52.992404],[-2.792031,52.992054],[-2.791794,52.991238],[-2.792365,52.990914],[-2.794503,52.990766],[-2.79479,52.991413],[-2.796102,52.991681],[-2.79633,52.991371],[-2.797225,52.991292],[-2.797616,52.990598],[-2.797168,52.990583],[-2.797665,52.990429],[-2.798136,52.989473],[-2.799383,52.989684],[-2.800518,52.99072],[-2.801,52.990562],[-2.801043,52.990944],[-2.801776,52.990766],[-2.80181,52.990425],[-2.802229,52.990558],[-2.802724,52.989755],[-2.803311,52.989594],[-2.803899,52.989996],[-2.803502,52.990596],[-2.804181,52.991041],[-2.803712,52.991458],[-2.804444,52.991658],[-2.810237,52.991756],[-2.809839,52.992552],[-2.810145,52.992755],[-2.812816,52.992807],[-2.812646,52.992477],[-2.813089,52.992357],[-2.813387,52.992922],[-2.814091,52.992771],[-2.8141,52.993119],[-2.815222,52.993115],[-2.815368,52.993496],[-2.81593,52.993464],[-2.816214,52.993791],[-2.81719,52.9936],[-2.820756,52.994426],[-2.822516,52.993513],[-2.824287,52.993362],[-2.827862,52.994373],[-2.828304,52.99542],[-2.82931,52.995384],[-2.830953,52.996098],[-2.832137,52.996011],[-2.832204,52.996548],[-2.833378,52.996871],[-2.834058,52.996717],[-2.835996,52.99715],[-2.835541,52.997475],[-2.835967,52.997778],[-2.834899,52.998255],[-2.834898,52.998658],[-2.836172,53.000632],[-2.836197,53.001578],[-2.837063,53.001953],[-2.837358,53.002895],[-2.838042,53.003041],[-2.838469,53.005228],[-2.838812,53.005214],[-2.839868,53.006948],[-2.840621,53.007223],[-2.840856,53.008442],[-2.840759,53.01042],[-2.838735,53.010179],[-2.83777,53.010664],[-2.838522,53.010946],[-2.841251,53.014315],[-2.843527,53.015395],[-2.844279,53.016494],[-2.844062,53.017668],[-2.846223,53.018848],[-2.847765,53.019038],[-2.85028,53.018058],[-2.851627,53.016988],[-2.858702,53.0199],[-2.858735,53.020769],[-2.861044,53.022849],[-2.859714,53.025687],[-2.860388,53.026428],[-2.860496,53.028554],[-2.860097,53.029352],[-2.859185,53.029942],[-2.859285,53.030546],[-2.858293,53.030919],[-2.858243,53.031469],[-2.856134,53.032982],[-2.855512,53.034539],[-2.856643,53.035983],[-2.855715,53.037256],[-2.858199,53.038063],[-2.85823,53.038534],[-2.858946,53.038941],[-2.861873,53.038604],[-2.86235,53.03918],[-2.8639,53.039339],[-2.866704,53.040563],[-2.861287,53.042564],[-2.861026,53.0428],[-2.861601,53.043825],[-2.86251,53.044204],[-2.864185,53.043323],[-2.866262,53.043637],[-2.866396,53.044433],[-2.865089,53.045009],[-2.864998,53.045561],[-2.869299,53.044533],[-2.86988,53.044747],[-2.870118,53.045361],[-2.869662,53.045739],[-2.868486,53.04593],[-2.865339,53.047966],[-2.863119,53.048623],[-2.863476,53.049611],[-2.863007,53.051634],[-2.86342,53.052124],[-2.864827,53.051838],[-2.865909,53.050273],[-2.866658,53.049849],[-2.867674,53.049628],[-2.86834,53.050062],[-2.868539,53.050612],[-2.867669,53.051314],[-2.866046,53.051552],[-2.865694,53.051902],[-2.866229,53.052347],[-2.866091,53.052736],[-2.862924,53.053337],[-2.861036,53.052049],[-2.859789,53.052727],[-2.859236,53.054165],[-2.860201,53.054769],[-2.86688,53.055166],[-2.867495,53.056],[-2.867093,53.056741],[-2.865598,53.057272],[-2.862423,53.056573],[-2.860886,53.057325],[-2.86096,53.057646],[-2.862408,53.058525],[-2.865676,53.058748],[-2.86798,53.056901],[-2.870287,53.056858],[-2.871764,53.057484],[-2.872563,53.058708],[-2.87198,53.059191],[-2.869679,53.05994],[-2.868293,53.059554],[-2.8658,53.060709],[-2.864678,53.060783],[-2.862419,53.060114],[-2.861713,53.060302],[-2.861513,53.060774],[-2.862661,53.061666],[-2.862884,53.06255],[-2.863922,53.063262],[-2.866683,53.063253],[-2.869627,53.063767],[-2.870434,53.064192],[-2.870201,53.064799],[-2.865509,53.066021],[-2.867686,53.066919],[-2.869358,53.069744],[-2.870532,53.070218],[-2.872319,53.070331],[-2.876214,53.06898],[-2.877653,53.06892],[-2.878199,53.069491],[-2.878048,53.070681],[-2.875633,53.072339],[-2.875363,53.073301],[-2.87583,53.073582],[-2.880799,53.073955],[-2.881751,53.074594],[-2.881255,53.075535],[-2.87952,53.076251],[-2.879273,53.077874],[-2.87725,53.079198],[-2.875722,53.081522],[-2.879913,53.08358],[-2.891051,53.087511],[-2.89182,53.088222],[-2.891915,53.090001],[-2.893576,53.091552],[-2.89579,53.091856],[-2.900944,53.090834],[-2.901854,53.091672],[-2.90216,53.092808],[-2.901447,53.093455],[-2.899149,53.094116],[-2.8994,53.097925],[-2.897139,53.099006],[-2.894838,53.098814],[-2.893954,53.098108],[-2.894223,53.097382],[-2.895302,53.097016],[-2.897555,53.09704],[-2.89782,53.096415],[-2.896791,53.095215],[-2.893487,53.096242],[-2.890351,53.099668],[-2.887304,53.104422],[-2.887244,53.105374],[-2.887951,53.105757],[-2.890959,53.104946],[-2.892814,53.104082],[-2.89338,53.104177],[-2.89308,53.105791],[-2.89163,53.107611],[-2.891716,53.109395],[-2.891009,53.109542],[-2.889902,53.108938],[-2.88863,53.108924],[-2.887805,53.109274],[-2.886588,53.110859],[-2.883879,53.111344],[-2.884026,53.113771],[-2.88162,53.118256],[-2.880942,53.121375],[-2.881413,53.121789],[-2.882118,53.12178],[-2.884094,53.120651],[-2.885237,53.120443],[-2.8865,53.121384],[-2.887192,53.120828],[-2.887973,53.120713],[-2.888033,53.119821],[-2.891704,53.118749],[-2.892347,53.118354],[-2.892062,53.11797],[-2.895122,53.116492],[-2.895181,53.115015],[-2.897002,53.113994],[-2.899415,53.114046],[-2.903392,53.111798],[-2.906059,53.112253],[-2.906785,53.112808],[-2.908022,53.113114],[-2.909405,53.113098],[-2.909667,53.112663],[-2.910232,53.112639],[-2.911953,53.113094],[-2.912691,53.113613],[-2.913795,53.113671],[-2.91438,53.114334],[-2.917297,53.114794],[-2.917098,53.115261],[-2.919725,53.116071],[-2.919962,53.116802],[-2.921305,53.117294],[-2.920836,53.118424],[-2.923138,53.118103],[-2.923967,53.118582],[-2.928559,53.119826],[-2.929043,53.12033],[-2.931925,53.120094],[-2.93441,53.121486],[-2.937645,53.120854],[-2.940403,53.122393],[-2.941382,53.122225],[-2.942371,53.121392],[-2.94367,53.121626],[-2.94498,53.122278],[-2.945011,53.123193],[-2.946906,53.12727],[-2.947998,53.127812],[-2.952349,53.128592],[-2.955585,53.129943],[-2.958171,53.130409],[-2.960158,53.132483],[-2.963813,53.132758],[-2.979498,53.150622],[-2.980604,53.150781],[-2.980364,53.149377],[-2.98265,53.148862],[-2.984565,53.14778],[-2.984984,53.148794],[-2.985689,53.148791],[-2.986404,53.149464],[-2.986397,53.150395],[-2.987315,53.151065],[-2.987699,53.152096],[-2.990426,53.153055],[-2.994263,53.153613],[-2.995088,53.154196],[-2.993059,53.154925],[-2.992274,53.156665],[-2.990507,53.156955],[-2.990693,53.157214],[-2.989957,53.157542],[-2.988124,53.156928],[-2.986666,53.157973],[-2.98464,53.158595],[-2.983614,53.158049],[-2.983756,53.157607],[-2.981492,53.156292],[-2.978913,53.157185],[-2.975198,53.157423],[-2.970926,53.160782],[-2.96837,53.160589],[-2.966263,53.159865],[-2.96122,53.16275],[-2.956358,53.163777],[-2.953479,53.165351],[-2.951026,53.165953],[-2.948907,53.166007],[-2.946553,53.167112],[-2.944041,53.165248],[-2.933907,53.169389],[-2.927841,53.17141],[-2.926589,53.173357],[-2.92285,53.175291],[-2.920956,53.177086],[-2.920319,53.17943],[-2.920387,53.182219],[-2.919487,53.182476],[-2.90538,53.193047],[-2.903903,53.192458],[-2.903258,53.191252],[-2.903735,53.189458],[-2.905081,53.187233],[-2.905045,53.185823],[-2.903736,53.184218],[-2.902479,53.183516],[-2.900164,53.182956],[-2.892746,53.1834],[-2.888293,53.185179],[-2.887971,53.185467],[-2.888635,53.186107],[-2.889204,53.185766],[-2.889699,53.185868],[-2.891999,53.184349],[-2.893141,53.184043],[-2.900791,53.183774],[-2.902956,53.184658],[-2.90426,53.18626],[-2.904171,53.187276],[-2.902438,53.189867],[-2.902597,53.191442],[-2.902427,53.19247],[-2.902013,53.192577],[-2.905791,53.193637],[-2.920492,53.182914],[-2.922299,53.189293],[-2.925163,53.191046],[-2.929238,53.194291],[-2.935653,53.196491],[-2.937566,53.197859],[-2.943676,53.204026],[-2.94951,53.21128],[-2.966163,53.21869],[-2.977837,53.225394],[-2.984912,53.228471],[-2.992559,53.233015],[-3.025905,53.248456],[-3.036063,53.251806],[-3.069136,53.253005],[-3.074425,53.253708],[-3.080523,53.254944],[-3.082686,53.255673],[-3.083848,53.257159],[-3.086035,53.256801],[-3.091123,53.259454],[-3.089681,53.259182],[-3.089157,53.259786],[-3.089681,53.259303],[-3.091393,53.259595],[-3.092545,53.260196],[-3.092169,53.261251],[-3.092604,53.260226],[-3.093139,53.260505],[-3.094346,53.261384],[-3.092968,53.262038],[-3.091604,53.262093],[-3.091199,53.262236],[-3.09104,53.262613],[-3.091125,53.262851],[-3.0914,53.262212],[-3.093007,53.262107],[-3.094447,53.261457],[-3.095395,53.262148],[-3.094926,53.262459],[-3.095433,53.262175],[-3.097444,53.263643],[-3.101655,53.267224],[-3.101334,53.267319],[-3.10168,53.267246],[-3.107222,53.271957],[-3.106126,53.271224],[-3.104078,53.270891],[-3.104087,53.270509],[-3.103968,53.270854],[-3.101893,53.270567],[-3.101901,53.268572],[-3.101657,53.268334],[-3.099108,53.268928],[-3.098635,53.268246],[-3.097791,53.26784],[-3.097612,53.267827],[-3.097313,53.267943],[-3.098319,53.2681],[-3.099145,53.269002],[-3.101668,53.268467],[-3.101562,53.269915],[-3.100003,53.269928],[-3.101515,53.270038],[-3.101613,53.270609],[-3.100771,53.270822],[-3.09951,53.270474],[-3.100577,53.27085],[-3.097526,53.271074],[-3.097967,53.271109],[-3.096968,53.271934],[-3.095516,53.272095],[-3.093778,53.271322],[-3.093298,53.270211],[-3.093845,53.270027],[-3.094221,53.270308],[-3.094331,53.270341],[-3.094491,53.270314],[-3.094723,53.269947],[-3.094348,53.270322],[-3.093872,53.270011],[-3.093233,53.270053],[-3.091676,53.269053],[-3.089002,53.268055],[-3.090944,53.267788],[-3.088812,53.268],[-3.091698,53.269211],[-3.093308,53.270557],[-3.093349,53.271161],[-3.089825,53.271871],[-3.089371,53.271717],[-3.087725,53.271637],[-3.0873,53.271404],[-3.087686,53.271113],[-3.087265,53.271375],[-3.087294,53.271455],[-3.087722,53.27167],[-3.089702,53.271952],[-3.089531,53.272511],[-3.088656,53.272744],[-3.085489,53.272136],[-3.085001,53.271287],[-3.085766,53.271056],[-3.084184,53.271245],[-3.084824,53.271319],[-3.085549,53.272254],[-3.088717,53.272875],[-3.090003,53.272352],[-3.090852,53.272781],[-3.08993,53.272043],[-3.092522,53.271386],[-3.094532,53.272324],[-3.095832,53.272482],[-3.099758,53.271568],[-3.102772,53.271522],[-3.10448,53.272714],[-3.10327,53.271884],[-3.102227,53.271813],[-3.102047,53.271991],[-3.103109,53.271969],[-3.104705,53.273308],[-3.105318,53.27314],[-3.1083,53.273658],[-3.1089,53.274058],[-3.108419,53.27438],[-3.108897,53.274218],[-3.109265,53.274526],[-3.108767,53.27478],[-3.10947,53.274657],[-3.108899,53.275097],[-3.109475,53.274719],[-3.109285,53.275294],[-3.109822,53.274976],[-3.109259,53.275888],[-3.10994,53.275736],[-3.1101,53.276725],[-3.109162,53.276894],[-3.10571,53.276352],[-3.103929,53.275905],[-3.10389,53.275572],[-3.103365,53.275478],[-3.103792,53.275844],[-3.102577,53.275728],[-3.102917,53.275914],[-3.101883,53.276163],[-3.099392,53.276065],[-3.09779,53.274738],[-3.096484,53.274407],[-3.097712,53.274739],[-3.098258,53.275445],[-3.096395,53.275597],[-3.095258,53.276152],[-3.098142,53.275508],[-3.099282,53.276177],[-3.101393,53.276305],[-3.099646,53.276937],[-3.102988,53.276174],[-3.103626,53.276501],[-3.10361,53.276163],[-3.107653,53.277134],[-3.104699,53.277753],[-3.105146,53.277843],[-3.104118,53.278268],[-3.100939,53.278094],[-3.097439,53.278359],[-3.096608,53.277702],[-3.095129,53.277213],[-3.089851,53.276726],[-3.089572,53.276445],[-3.090169,53.276017],[-3.090211,53.275805],[-3.089526,53.274774],[-3.090138,53.275962],[-3.089368,53.276517],[-3.089202,53.277252],[-3.089417,53.276727],[-3.094029,53.277325],[-3.090205,53.278055],[-3.088021,53.279677],[-3.08549,53.27948],[-3.085629,53.278643],[-3.084083,53.277774],[-3.085536,53.278677],[-3.085266,53.279325],[-3.084099,53.278767],[-3.07948,53.278493],[-3.080393,53.27857],[-3.080357,53.279389],[-3.078834,53.27984],[-3.077549,53.279578],[-3.078571,53.279862],[-3.078755,53.279873],[-3.079365,53.279792],[-3.080478,53.279383],[-3.080766,53.278786],[-3.081223,53.278774],[-3.081572,53.279196],[-3.081257,53.278734],[-3.081824,53.278666],[-3.084385,53.278936],[-3.085227,53.279579],[-3.084829,53.279738],[-3.087924,53.279897],[-3.089858,53.279617],[-3.089957,53.278567],[-3.092041,53.277938],[-3.097022,53.279124],[-3.098762,53.279231],[-3.100488,53.279086],[-3.101276,53.278629],[-3.104445,53.278961],[-3.108272,53.278436],[-3.10815,53.279328],[-3.108587,53.27987],[-3.106903,53.280515],[-3.105067,53.280408],[-3.104008,53.279418],[-3.102944,53.279047],[-3.100829,53.279461],[-3.098263,53.279355],[-3.096056,53.280216],[-3.094909,53.27927],[-3.09511,53.279578],[-3.094591,53.280103],[-3.093851,53.280307],[-3.091625,53.28182],[-3.094641,53.280173],[-3.095119,53.279764],[-3.095653,53.280265],[-3.095044,53.281221],[-3.095151,53.283085],[-3.092031,53.283582],[-3.090804,53.283092],[-3.089123,53.283191],[-3.088592,53.282814],[-3.087253,53.28278],[-3.088536,53.282857],[-3.089158,53.283283],[-3.088615,53.283052],[-3.089117,53.284549],[-3.088735,53.284661],[-3.089244,53.284854],[-3.088737,53.285058],[-3.089609,53.285215],[-3.089205,53.286115],[-3.089662,53.285241],[-3.089111,53.284293],[-3.089197,53.28339],[-3.09056,53.283202],[-3.091973,53.283764],[-3.094578,53.28348],[-3.094589,53.283689],[-3.095857,53.282728],[-3.09671,53.280429],[-3.097193,53.280186],[-3.097692,53.280525],[-3.097434,53.280085],[-3.098633,53.279927],[-3.103585,53.280966],[-3.103367,53.281361],[-3.103807,53.281012],[-3.107003,53.281534],[-3.107449,53.28191],[-3.106484,53.282978],[-3.10493,53.283359],[-3.103488,53.283139],[-3.1008,53.281689],[-3.103019,53.283105],[-3.104687,53.28348],[-3.106562,53.283307],[-3.106632,53.283824],[-3.106187,53.284524],[-3.105136,53.284172],[-3.105689,53.284658],[-3.102433,53.28444],[-3.100808,53.285356],[-3.100112,53.283893],[-3.09971,53.283653],[-3.098664,53.283483],[-3.099889,53.283768],[-3.100281,53.284374],[-3.100016,53.28453],[-3.0993,53.283779],[-3.098901,53.283743],[-3.098279,53.284197],[-3.098235,53.284747],[-3.098324,53.284215],[-3.099227,53.283828],[-3.100264,53.284874],[-3.100358,53.28554],[-3.10079,53.285511],[-3.100468,53.286331],[-3.098456,53.287443],[-3.097936,53.287446],[-3.096862,53.286645],[-3.095191,53.286027],[-3.094396,53.286165],[-3.095172,53.286067],[-3.097223,53.286951],[-3.096757,53.287494],[-3.097458,53.287135],[-3.097742,53.287478],[-3.096876,53.288091],[-3.09774,53.287571],[-3.098208,53.287622],[-3.09775,53.289061],[-3.097192,53.289065],[-3.096981,53.289348],[-3.097346,53.289092],[-3.097798,53.289368],[-3.098335,53.287676],[-3.09948,53.287191],[-3.099927,53.287353],[-3.099552,53.28714],[-3.100692,53.286414],[-3.10159,53.28534],[-3.102815,53.284852],[-3.104341,53.285677],[-3.103695,53.285056],[-3.105557,53.285302],[-3.108148,53.284922],[-3.108702,53.285435],[-3.107716,53.286262],[-3.106069,53.286756],[-3.105758,53.2866],[-3.105625,53.287469],[-3.104078,53.288277],[-3.103377,53.28811],[-3.102647,53.288159],[-3.102311,53.288731],[-3.102758,53.288166],[-3.10347,53.288227],[-3.104559,53.289104],[-3.104283,53.289587],[-3.102687,53.289701],[-3.103857,53.2897],[-3.104456,53.289575],[-3.104617,53.289379],[-3.104605,53.288886],[-3.104136,53.288428],[-3.105692,53.287648],[-3.106502,53.286744],[-3.107551,53.286483],[-3.108578,53.287025],[-3.108846,53.287891],[-3.107814,53.288229],[-3.107401,53.288803],[-3.107945,53.288194],[-3.108943,53.287889],[-3.1087,53.287036],[-3.107767,53.286488],[-3.109015,53.285543],[-3.108107,53.284101],[-3.108559,53.283091],[-3.110249,53.28383],[-3.109573,53.284414],[-3.109482,53.284943],[-3.109658,53.284375],[-3.109694,53.284996],[-3.110939,53.286436],[-3.109753,53.284941],[-3.109796,53.28435],[-3.110496,53.28391],[-3.10925,53.283048],[-3.109613,53.28258],[-3.11278,53.283359],[-3.112117,53.283518],[-3.114027,53.283595],[-3.112936,53.284233],[-3.112678,53.28407],[-3.112847,53.284241],[-3.11297,53.284253],[-3.114124,53.283613],[-3.114705,53.283952],[-3.112631,53.284657],[-3.112455,53.285015],[-3.112807,53.284608],[-3.113364,53.284643],[-3.113387,53.284958],[-3.112793,53.285327],[-3.112521,53.286607],[-3.111611,53.287241],[-3.112545,53.286685],[-3.112692,53.286985],[-3.112925,53.285347],[-3.113514,53.285],[-3.113957,53.285112],[-3.113669,53.28535],[-3.113733,53.285353],[-3.114013,53.285067],[-3.113572,53.284759],[-3.11497,53.284159],[-3.114942,53.283547],[-3.116116,53.283448],[-3.117769,53.283854],[-3.116078,53.285113],[-3.1178,53.284151],[-3.117925,53.28523],[-3.117436,53.285269],[-3.11766,53.285069],[-3.117502,53.284979],[-3.116407,53.285494],[-3.115989,53.285365],[-3.115716,53.285979],[-3.116015,53.28541],[-3.116464,53.285519],[-3.117579,53.285046],[-3.116716,53.285573],[-3.117345,53.285298],[-3.117545,53.285477],[-3.117104,53.285548],[-3.116396,53.28594],[-3.116893,53.285841],[-3.118007,53.285274],[-3.118228,53.284835],[-3.119602,53.285756],[-3.118381,53.286126],[-3.117708,53.285808],[-3.117125,53.286315],[-3.116402,53.286174],[-3.116219,53.286554],[-3.115595,53.28636],[-3.112419,53.288182],[-3.115587,53.286411],[-3.116173,53.286603],[-3.115378,53.286944],[-3.117329,53.286305],[-3.117774,53.285883],[-3.11839,53.286218],[-3.119298,53.285949],[-3.119629,53.286378],[-3.118886,53.286627],[-3.11802,53.286466],[-3.117447,53.286471],[-3.11716,53.286656],[-3.116828,53.28658],[-3.115538,53.287197],[-3.116839,53.286612],[-3.117198,53.286688],[-3.117549,53.286488],[-3.117989,53.286596],[-3.115496,53.287732],[-3.117268,53.286946],[-3.119363,53.286604],[-3.119819,53.286362],[-3.119659,53.286143],[-3.120088,53.286617],[-3.119171,53.287216],[-3.117911,53.287139],[-3.116345,53.287888],[-3.118078,53.287235],[-3.117297,53.287831],[-3.11817,53.287305],[-3.11891,53.287343],[-3.117304,53.288145],[-3.119664,53.287034],[-3.118525,53.288021],[-3.117015,53.288384],[-3.118559,53.288057],[-3.119419,53.287392],[-3.118933,53.288182],[-3.117841,53.288589],[-3.118974,53.288193],[-3.119411,53.287834],[-3.119567,53.287904],[-3.119228,53.288171],[-3.118199,53.288927],[-3.11706,53.289235],[-3.118247,53.28895],[-3.11968,53.28798],[-3.120268,53.288577],[-3.119552,53.289108],[-3.117607,53.28954],[-3.116683,53.290212],[-3.114676,53.289651],[-3.114367,53.289153],[-3.113284,53.289351],[-3.114313,53.289194],[-3.114457,53.289582],[-3.113531,53.289644],[-3.114534,53.289659],[-3.113109,53.29011],[-3.112682,53.291332],[-3.111926,53.291335],[-3.110633,53.290508],[-3.109312,53.290716],[-3.107,53.291739],[-3.105207,53.291636],[-3.106953,53.291784],[-3.109462,53.290754],[-3.110748,53.290611],[-3.111779,53.291385],[-3.111465,53.291453],[-3.113487,53.291451],[-3.113227,53.291693],[-3.113656,53.291506],[-3.113593,53.291438],[-3.113016,53.29136],[-3.113188,53.29034],[-3.114025,53.289899],[-3.116296,53.290504],[-3.117518,53.290239],[-3.117585,53.290922],[-3.117687,53.290335],[-3.117361,53.29013],[-3.117816,53.289702],[-3.12015,53.289307],[-3.120962,53.288564],[-3.122538,53.288256],[-3.122898,53.288294],[-3.123055,53.289324],[-3.118432,53.291931],[-3.117784,53.291591],[-3.117443,53.2915],[-3.116227,53.291624],[-3.11798,53.291759],[-3.116476,53.292094],[-3.115384,53.291886],[-3.113291,53.293044],[-3.111842,53.292667],[-3.113265,53.293094],[-3.115373,53.291959],[-3.116418,53.292155],[-3.118311,53.292],[-3.117089,53.292688],[-3.116829,53.292459],[-3.117043,53.292714],[-3.116604,53.292962],[-3.113147,53.294011],[-3.111222,53.293122],[-3.109607,53.293243],[-3.111205,53.293156],[-3.113,53.294065],[-3.116347,53.293107],[-3.114093,53.294378],[-3.109584,53.294226],[-3.109555,53.293766],[-3.109017,53.293651],[-3.109531,53.293789],[-3.109403,53.294217],[-3.10815,53.294322],[-3.108272,53.294188],[-3.107859,53.293978],[-3.10815,53.294261],[-3.106826,53.294474],[-3.107084,53.293924],[-3.106256,53.293432],[-3.105058,53.293238],[-3.104053,53.293336],[-3.103227,53.293701],[-3.101174,53.293066],[-3.099683,53.29322],[-3.097579,53.29398],[-3.096317,53.29395],[-3.097638,53.293998],[-3.099718,53.293268],[-3.101132,53.293131],[-3.103309,53.293813],[-3.105239,53.293323],[-3.10689,53.293944],[-3.105882,53.294069],[-3.106637,53.294124],[-3.106591,53.29448],[-3.10427,53.295751],[-3.10362,53.29526],[-3.104146,53.295812],[-3.10458,53.295643],[-3.103695,53.296132],[-3.102619,53.29428],[-3.10102,53.293751],[-3.100438,53.29384],[-3.10004,53.294217],[-3.099855,53.29463],[-3.099033,53.294918],[-3.097813,53.294699],[-3.097874,53.295164],[-3.099373,53.29486],[-3.099892,53.294647],[-3.100516,53.293847],[-3.100987,53.293793],[-3.102427,53.294218],[-3.102924,53.295113],[-3.102553,53.295101],[-3.103498,53.296229],[-3.102146,53.296349],[-3.10157,53.295823],[-3.100791,53.295685],[-3.098902,53.297191],[-3.097669,53.296893],[-3.095878,53.297432],[-3.097699,53.296914],[-3.098894,53.297227],[-3.100761,53.295761],[-3.102371,53.296467],[-3.101224,53.296483],[-3.102237,53.296601],[-3.104098,53.296167],[-3.106464,53.294829],[-3.108737,53.29488],[-3.109234,53.295504],[-3.108707,53.296956],[-3.108019,53.297153],[-3.107233,53.296486],[-3.105731,53.295922],[-3.105418,53.296381],[-3.104703,53.296181],[-3.104488,53.296259],[-3.104116,53.296691],[-3.104466,53.297023],[-3.10453,53.29704],[-3.104175,53.296723],[-3.104558,53.296246],[-3.10549,53.2964],[-3.105769,53.295966],[-3.107786,53.297046],[-3.106701,53.297663],[-3.103585,53.297669],[-3.103542,53.29873],[-3.103204,53.298805],[-3.103656,53.299226],[-3.103055,53.29944],[-3.103676,53.299312],[-3.104109,53.297775],[-3.106681,53.297793],[-3.109194,53.29714],[-3.091292,53.30723],[-3.080976,53.31192],[-3.080394,53.313246],[-3.07814,53.315068],[-3.076391,53.314448],[-3.074166,53.316381],[-3.068272,53.314195],[-3.064252,53.312197],[-3.059659,53.309004],[-3.048391,53.310961],[-3.048164,53.309612],[-3.045861,53.307357],[-3.042315,53.306526],[-3.041621,53.306123],[-3.042067,53.30588],[-3.041657,53.305199],[-3.039245,53.305442],[-3.038474,53.30515],[-3.036577,53.3024],[-3.036596,53.300985],[-3.031354,53.29853],[-3.030508,53.299229],[-3.02614,53.297749],[-3.023984,53.299385],[-3.022001,53.29844],[-3.021268,53.29901],[-3.018553,53.300007],[-3.012837,53.298971],[-3.011238,53.300134],[-3.005374,53.301413],[-3.002181,53.30256],[-2.995334,53.305621],[-2.992738,53.307109],[-2.984738,53.305325],[-2.980164,53.304659],[-2.979528,53.304275],[-2.974134,53.30321],[-2.971268,53.302025],[-2.969073,53.30184],[-2.968033,53.301255],[-2.967239,53.301573],[-2.96797,53.302034],[-2.965329,53.302991],[-2.961499,53.303806],[-2.960026,53.303321],[-2.958276,53.304119],[-2.954685,53.304254],[-2.951623,53.303876],[-2.949382,53.303169],[-2.94661,53.305511],[-2.939609,53.310388],[-2.931702,53.306036],[-2.9288,53.308294],[-2.920016,53.305322],[-2.917708,53.306092],[-2.914778,53.305661],[-2.911356,53.304175],[-2.907696,53.30149],[-2.905855,53.301143],[-2.901576,53.296514],[-2.899039,53.294915],[-2.893938,53.291969],[-2.892569,53.291553],[-2.890366,53.290023],[-2.888134,53.28928],[-2.884843,53.288787],[-2.890216,53.290241],[-2.895525,53.293516],[-2.89673,53.293946],[-2.896671,53.29424],[-2.89575,53.294453],[-2.897748,53.294695],[-2.900796,53.296513],[-2.900866,53.296924],[-2.896259,53.296629],[-2.88832,53.29521],[-2.887576,53.293656],[-2.8858,53.292811],[-2.879194,53.290925],[-2.876192,53.290651],[-2.870649,53.290933],[-2.861045,53.292763],[-2.855568,53.292022],[-2.854927,53.291528],[-2.858536,53.288995],[-2.858345,53.288138],[-2.857186,53.286931],[-2.857983,53.28854],[-2.857798,53.28912],[-2.857237,53.289498],[-2.856137,53.28941],[-2.856662,53.289631],[-2.855544,53.290808],[-2.851969,53.293078],[-2.85419,53.293115],[-2.855071,53.293852],[-2.853962,53.295278],[-2.848981,53.296797],[-2.841177,53.298148],[-2.839601,53.298737],[-2.840026,53.299373],[-2.848119,53.301897],[-2.848304,53.302297],[-2.847195,53.304119],[-2.847947,53.305624],[-2.847746,53.306255],[-2.846383,53.306944],[-2.843652,53.307452],[-2.835656,53.308305],[-2.83056,53.308178],[-2.82177,53.307282],[-2.815474,53.306048],[-2.813391,53.304898],[-2.807091,53.303109],[-2.800417,53.298971],[-2.78949,53.296851],[-2.789724,53.296525],[-2.78896,53.295451],[-2.78875,53.296733],[-2.785846,53.297633],[-2.761382,53.31007],[-2.760152,53.31039],[-2.759448,53.310129],[-2.759069,53.310652],[-2.754652,53.311809],[-2.752392,53.313604],[-2.75243,53.314708],[-2.747268,53.31231],[-2.739269,53.306839],[-2.736806,53.306613],[-2.734641,53.307069],[-2.733919,53.307857],[-2.73291,53.310512],[-2.730992,53.311853],[-2.728485,53.312365],[-2.724187,53.312433],[-2.723558,53.313125],[-2.715704,53.311871],[-2.707756,53.309574],[-2.700799,53.305793],[-2.693401,53.310082],[-2.693578,53.310262],[-2.692209,53.31111],[-2.687548,53.313431],[-2.68727,53.314063],[-2.685352,53.315332],[-2.678165,53.31416],[-2.648797,53.308223],[-2.645881,53.307333],[-2.641557,53.305035],[-2.644437,53.308629],[-2.645061,53.310135],[-2.639847,53.309388],[-2.639047,53.309603],[-2.638865,53.310097],[-2.635724,53.307949],[-2.632509,53.307521],[-2.62989,53.308081],[-2.629967,53.307846],[-2.629457,53.307778],[-2.627518,53.308645],[-2.624123,53.309398],[-2.624714,53.31178],[-2.622734,53.312014],[-2.617801,53.316135],[-2.619834,53.316871],[-2.617471,53.3176],[-2.617869,53.318204],[-2.621081,53.319198],[-2.619962,53.320265],[-2.616887,53.320606],[-2.61356,53.318832],[-2.610323,53.318158],[-2.609812,53.31768],[-2.610347,53.317697],[-2.610504,53.317376],[-2.609979,53.316861],[-2.610231,53.316325],[-2.609771,53.316193],[-2.609393,53.314984],[-2.608269,53.314799],[-2.61014,53.312707],[-2.609087,53.312071],[-2.608822,53.312479],[-2.609142,53.312681],[-2.607998,53.313863],[-2.60653,53.314026],[-2.606413,53.314827],[-2.604717,53.315516],[-2.603573,53.317972],[-2.602363,53.318499],[-2.599368,53.318675],[-2.598764,53.31907],[-2.596743,53.319375],[-2.595254,53.320146],[-2.595223,53.322454],[-2.592585,53.32245],[-2.592739,53.324742],[-2.590091,53.325889],[-2.588501,53.325955],[-2.588108,53.326478],[-2.588335,53.32743],[-2.586345,53.328741],[-2.58629,53.329397],[-2.581555,53.328366],[-2.580232,53.328608],[-2.579758,53.327925],[-2.578655,53.327634],[-2.578983,53.327085],[-2.578362,53.326018],[-2.576816,53.326116],[-2.575396,53.325677],[-2.569402,53.325241],[-2.567848,53.325404],[-2.566492,53.324194],[-2.563088,53.32308],[-2.560167,53.323931],[-2.558837,53.325712],[-2.557367,53.326111],[-2.553928,53.328727],[-2.551664,53.332374],[-2.54828,53.331031],[-2.544529,53.330525],[-2.543006,53.332467],[-2.541266,53.333448],[-2.539453,53.33639],[-2.538234,53.335953],[-2.518393,53.34239],[-2.515988,53.342769],[-2.514076,53.342703],[-2.512427,53.342116],[-2.508453,53.342994],[-2.503347,53.342099],[-2.50161,53.343425],[-2.49708,53.3447],[-2.495642,53.344394],[-2.493968,53.343299],[-2.495049,53.341693]],[[-3.101947,53.27209],[-3.10291,53.272552],[-3.101444,53.273095],[-3.099132,53.273373],[-3.101413,53.273191],[-3.102903,53.272688],[-3.103105,53.272433],[-3.102047,53.271991],[-3.101947,53.27209]],[[-3.114202,53.285381],[-3.114189,53.28601],[-3.114266,53.28538],[-3.113733,53.285353],[-3.114202,53.285381]],[[-3.100915,53.295046],[-3.100463,53.295478],[-3.098765,53.295746],[-3.100473,53.295508],[-3.100998,53.295061],[-3.102553,53.295101],[-3.100915,53.295046]],[[-3.103697,53.296809],[-3.103208,53.297055],[-3.103728,53.296832],[-3.104466,53.297023],[-3.103697,53.296809]]]]}}]}