{"type":"FeatureCollection","features":[{"type":"Feature","properties":{"slug":"chesterfield","gss_code":"E07000034","name":"Chesterfield"},"geometry":{"type":"Polygon","coordinates":[[[-1.353247,53.286469],[-1.34916,53.286594],[-1.348946,53.285941],[-1.348268,53.285658],[-1.347334,53.286146],[-1.346613,53.285704],[-1.342981,53.285645],[-1.339216,53.288761],[-1.339691,53.289091],[-1.33906,53.289862],[-1.337272,53.289572],[-1.337194,53.288366],[-1.336451,53.288114],[-1.33611,53.288853],[-1.333634,53.289758],[-1.322588,53.281376],[-1.316717,53.281656],[-1.309043,53.275427],[-1.307154,53.275402],[-1.305932,53.273627],[-1.305979,53.272621],[-1.304941,53.270291],[-1.304564,53.269812],[-1.303476,53.269488],[-1.301617,53.26698],[-1.302178,53.266618],[-1.302094,53.265346],[-1.301302,53.263892],[-1.302621,53.263266],[-1.309379,53.263442],[-1.316677,53.262505],[-1.321605,53.261026],[-1.322578,53.259787],[-1.323941,53.259157],[-1.331263,53.257232],[-1.326162,53.254406],[-1.323852,53.252629],[-1.322644,53.241222],[-1.319155,53.239548],[-1.323196,53.237819],[-1.326042,53.236049],[-1.332151,53.236677],[-1.331931,53.241603],[-1.335334,53.24128],[-1.336498,53.241767],[-1.338778,53.241432],[-1.338715,53.240467],[-1.339322,53.240452],[-1.339362,53.240111],[-1.343238,53.240424],[-1.347123,53.239468],[-1.347896,53.241783],[-1.34942,53.242816],[-1.349709,53.244844],[-1.35085,53.246329],[-1.354283,53.245724],[-1.35672,53.245711],[-1.36011,53.244626],[-1.362473,53.244437],[-1.366527,53.242668],[-1.367592,53.24268],[-1.370365,53.241962],[-1.37151,53.24125],[-1.374147,53.240947],[-1.375688,53.240847],[-1.377231,53.241213],[-1.380341,53.243797],[-1.382969,53.242655],[-1.383259,53.242021],[-1.387701,53.239458],[-1.388423,53.239615],[-1.389532,53.238869],[-1.39027,53.238857],[-1.390081,53.237882],[-1.391195,53.237626],[-1.390824,53.237243],[-1.391578,53.237194],[-1.391636,53.235613],[-1.394052,53.234986],[-1.393618,53.23401],[-1.398903,53.233878],[-1.400798,53.234282],[-1.401093,53.233578],[-1.400529,53.231348],[-1.399264,53.230574],[-1.396419,53.227087],[-1.396334,53.226299],[-1.397087,53.225441],[-1.39852,53.225235],[-1.395595,53.222696],[-1.401599,53.217779],[-1.40018,53.217016],[-1.399632,53.215491],[-1.399094,53.215455],[-1.401394,53.21374],[-1.405362,53.214302],[-1.405106,53.214684],[-1.409043,53.215655],[-1.409041,53.215378],[-1.409857,53.215348],[-1.409784,53.215151],[-1.411637,53.215543],[-1.41704,53.213984],[-1.420819,53.212465],[-1.421932,53.213395],[-1.422609,53.213503],[-1.422565,53.213867],[-1.423058,53.213836],[-1.422381,53.21412],[-1.422687,53.214377],[-1.427501,53.215361],[-1.42928,53.215429],[-1.433451,53.213819],[-1.437268,53.213151],[-1.440001,53.213593],[-1.440714,53.217106],[-1.439294,53.218785],[-1.441205,53.220631],[-1.44298,53.219805],[-1.444172,53.220751],[-1.44527,53.220001],[-1.447527,53.221414],[-1.457376,53.219638],[-1.459116,53.22065],[-1.460171,53.220323],[-1.461676,53.221649],[-1.467599,53.219516],[-1.468833,53.220646],[-1.470468,53.221357],[-1.475461,53.221635],[-1.478396,53.222321],[-1.479526,53.222229],[-1.47967,53.222713],[-1.478134,53.222913],[-1.478409,53.223722],[-1.4778,53.224315],[-1.476977,53.224373],[-1.475843,53.225084],[-1.47729,53.226241],[-1.481958,53.226246],[-1.483067,53.22899],[-1.484157,53.228976],[-1.484168,53.230711],[-1.482557,53.231019],[-1.483975,53.232483],[-1.48299,53.232636],[-1.483163,53.233314],[-1.480841,53.233474],[-1.480693,53.233254],[-1.478089,53.233768],[-1.471879,53.233422],[-1.471872,53.236124],[-1.471424,53.236022],[-1.471395,53.236249],[-1.471574,53.238504],[-1.472301,53.238904],[-1.471543,53.239413],[-1.477572,53.239736],[-1.478938,53.242397],[-1.478533,53.2434],[-1.480372,53.244678],[-1.481648,53.246468],[-1.481054,53.246541],[-1.481265,53.247894],[-1.480427,53.248719],[-1.479221,53.24824],[-1.478522,53.248512],[-1.477868,53.248251],[-1.474719,53.248792],[-1.473923,53.249211],[-1.473804,53.249837],[-1.474894,53.250098],[-1.475872,53.250873],[-1.478005,53.250958],[-1.478823,53.252339],[-1.475125,53.253447],[-1.476218,53.254724],[-1.473496,53.257262],[-1.472164,53.256537],[-1.470702,53.257259],[-1.47248,53.258314],[-1.471094,53.25936],[-1.472316,53.26006],[-1.472646,53.259806],[-1.473233,53.260086],[-1.473739,53.259704],[-1.474342,53.26004],[-1.474361,53.259462],[-1.475654,53.259632],[-1.478646,53.262796],[-1.480649,53.263362],[-1.477575,53.264018],[-1.47349,53.266076],[-1.472202,53.266386],[-1.471528,53.266989],[-1.470558,53.267151],[-1.469987,53.267672],[-1.467832,53.267494],[-1.466429,53.267591],[-1.466275,53.267963],[-1.465984,53.267743],[-1.464134,53.268025],[-1.462664,53.270305],[-1.465417,53.27031],[-1.465077,53.272225],[-1.466873,53.273931],[-1.466944,53.274636],[-1.464902,53.274938],[-1.465246,53.276001],[-1.464913,53.277205],[-1.465805,53.278076],[-1.464401,53.278456],[-1.460986,53.278057],[-1.459061,53.281111],[-1.458639,53.282972],[-1.457069,53.283745],[-1.455254,53.28176],[-1.454452,53.281379],[-1.451593,53.281932],[-1.447906,53.283151],[-1.447116,53.282854],[-1.443941,53.282704],[-1.441926,53.28207],[-1.439036,53.28021],[-1.438662,53.280625],[-1.436082,53.280854],[-1.43219,53.281874],[-1.423236,53.282715],[-1.423125,53.283461],[-1.421488,53.283425],[-1.418915,53.284895],[-1.417971,53.286272],[-1.41544,53.287639],[-1.414639,53.286816],[-1.40981,53.28674],[-1.407946,53.286274],[-1.402999,53.283351],[-1.401737,53.281574],[-1.399278,53.281972],[-1.399496,53.282459],[-1.396316,53.283423],[-1.396143,53.283791],[-1.396744,53.284562],[-1.391762,53.287139],[-1.391419,53.286472],[-1.387163,53.286105],[-1.38656,53.286946],[-1.387343,53.289878],[-1.386299,53.292285],[-1.386671,53.293753],[-1.385957,53.294115],[-1.385989,53.294895],[-1.380729,53.295494],[-1.380868,53.296606],[-1.377153,53.29685],[-1.377063,53.299004],[-1.374175,53.2984],[-1.371487,53.297316],[-1.371369,53.295652],[-1.37065,53.294468],[-1.369911,53.29372],[-1.367988,53.292961],[-1.3685,53.292099],[-1.366942,53.289194],[-1.360725,53.288716],[-1.359555,53.288325],[-1.358976,53.28775],[-1.353247,53.286469]]]}}]}