{"type":"FeatureCollection","features":[{"type":"Feature","properties":{"slug":"cheshire-east","gss_code":"E06000049","name":"Cheshire East"},"geometry":{"type":"Polygon","coordinates":[[[-2.424578,53.386644],[-2.423311,53.387227],[-2.422447,53.386353],[-2.420647,53.386738],[-2.419679,53.386237],[-2.418776,53.386333],[-2.417207,53.384766],[-2.410868,53.383947],[-2.408037,53.382816],[-2.407807,53.382558],[-2.408506,53.382099],[-2.407128,53.379841],[-2.403908,53.378511],[-2.400778,53.37777],[-2.399824,53.377046],[-2.399466,53.376466],[-2.400915,53.376006],[-2.400703,53.375246],[-2.398041,53.374857],[-2.397792,53.37444],[-2.396053,53.374453],[-2.393041,53.372471],[-2.39073,53.371917],[-2.390355,53.370723],[-2.387209,53.37107],[-2.386438,53.370344],[-2.383618,53.370085],[-2.382711,53.369429],[-2.382209,53.370291],[-2.380725,53.369864],[-2.380552,53.369523],[-2.381085,53.369284],[-2.379937,53.368823],[-2.380354,53.368501],[-2.379804,53.368172],[-2.380117,53.367644],[-2.378135,53.366852],[-2.377932,53.366016],[-2.375589,53.365279],[-2.373202,53.365602],[-2.370435,53.364573],[-2.370826,53.364129],[-2.369914,53.364078],[-2.369507,53.363614],[-2.368757,53.36389],[-2.368824,53.364534],[-2.367998,53.364138],[-2.366164,53.364292],[-2.365622,53.363334],[-2.364957,53.363101],[-2.363961,53.363282],[-2.36451,53.363876],[-2.36351,53.363964],[-2.363363,53.364513],[-2.36194,53.364011],[-2.359244,53.364345],[-2.359069,53.364754],[-2.360486,53.365722],[-2.360564,53.366619],[-2.360198,53.366849],[-2.357104,53.366894],[-2.357246,53.368447],[-2.353372,53.368014],[-2.352821,53.368347],[-2.351898,53.368055],[-2.350951,53.366542],[-2.348892,53.36591],[-2.348033,53.366267],[-2.347759,53.367833],[-2.34368,53.366549],[-2.34009,53.367444],[-2.338581,53.366183],[-2.33802,53.366169],[-2.337876,53.366654],[-2.337291,53.366825],[-2.334596,53.365721],[-2.332892,53.365457],[-2.331717,53.363872],[-2.330001,53.36395],[-2.329544,53.363257],[-2.330858,53.361799],[-2.328687,53.36064],[-2.32771,53.360506],[-2.326316,53.361442],[-2.324525,53.361456],[-2.323475,53.358277],[-2.322488,53.358514],[-2.322727,53.359139],[-2.322138,53.359526],[-2.321255,53.359456],[-2.319777,53.358587],[-2.317884,53.359105],[-2.315241,53.359046],[-2.313939,53.358374],[-2.314347,53.356791],[-2.312714,53.356073],[-2.312229,53.354788],[-2.309448,53.354422],[-2.307911,53.353529],[-2.305565,53.353126],[-2.305444,53.352676],[-2.304545,53.352334],[-2.304295,53.351351],[-2.303462,53.350649],[-2.30208,53.350683],[-2.301376,53.35033],[-2.301455,53.349045],[-2.299915,53.349869],[-2.298955,53.349951],[-2.298567,53.349699],[-2.299138,53.349001],[-2.298201,53.349097],[-2.297013,53.348647],[-2.298307,53.346675],[-2.296704,53.346039],[-2.296433,53.344942],[-2.298132,53.34443],[-2.297459,53.34381],[-2.302836,53.340993],[-2.301327,53.340122],[-2.29786,53.341901],[-2.296727,53.342056],[-2.295816,53.343044],[-2.294481,53.342807],[-2.294038,53.343066],[-2.291279,53.34302],[-2.290054,53.342292],[-2.287933,53.343089],[-2.285867,53.345019],[-2.286705,53.345528],[-2.284636,53.346508],[-2.28064,53.345969],[-2.278364,53.348616],[-2.273344,53.350376],[-2.271808,53.350699],[-2.267077,53.350573],[-2.266848,53.351711],[-2.264194,53.352979],[-2.26392,53.353676],[-2.264612,53.353979],[-2.261103,53.356141],[-2.258041,53.357044],[-2.258937,53.359461],[-2.256447,53.360677],[-2.254098,53.360854],[-2.249592,53.360592],[-2.245205,53.361139],[-2.244193,53.361044],[-2.244143,53.359779],[-2.23954,53.359233],[-2.237592,53.359253],[-2.232811,53.360271],[-2.232982,53.358795],[-2.222224,53.359781],[-2.22031,53.359428],[-2.219552,53.35849],[-2.216142,53.358867],[-2.216218,53.358131],[-2.214631,53.357935],[-2.21454,53.356719],[-2.210657,53.357286],[-2.20741,53.356799],[-2.208465,53.355004],[-2.201925,53.354848],[-2.201834,53.355431],[-2.192261,53.354015],[-2.191891,53.353645],[-2.189249,53.352831],[-2.185438,53.352652],[-2.185492,53.352011],[-2.188015,53.348737],[-2.185302,53.346949],[-2.184829,53.346992],[-2.180977,53.344044],[-2.182753,53.343129],[-2.190732,53.342127],[-2.192699,53.341032],[-2.192809,53.339846],[-2.194163,53.33865],[-2.190494,53.337644],[-2.189108,53.335269],[-2.184877,53.332691],[-2.184292,53.332876],[-2.184093,53.332332],[-2.183898,53.332719],[-2.183078,53.332536],[-2.182657,53.332139],[-2.183094,53.332076],[-2.18293,53.331883],[-2.182257,53.331839],[-2.181881,53.331355],[-2.181642,53.33163],[-2.180001,53.331078],[-2.179619,53.33058],[-2.179918,53.330339],[-2.179325,53.330174],[-2.179374,53.330641],[-2.178494,53.331248],[-2.175973,53.331043],[-2.174918,53.33134],[-2.174247,53.331046],[-2.173543,53.331396],[-2.173387,53.331043],[-2.172898,53.331198],[-2.172246,53.33088],[-2.172386,53.331159],[-2.171713,53.331368],[-2.171193,53.331171],[-2.170486,53.331843],[-2.170309,53.331293],[-2.169833,53.331272],[-2.169936,53.330621],[-2.169235,53.331198],[-2.168766,53.330415],[-2.167279,53.329964],[-2.167455,53.329534],[-2.166159,53.329817],[-2.165854,53.329565],[-2.16621,53.329228],[-2.163698,53.328445],[-2.163837,53.328068],[-2.161337,53.327929],[-2.161388,53.327365],[-2.160711,53.3272],[-2.161001,53.327686],[-2.160225,53.32758],[-2.160333,53.328039],[-2.158442,53.328936],[-2.154165,53.327795],[-2.152535,53.328553],[-2.151968,53.331015],[-2.15141,53.331236],[-2.151765,53.332209],[-2.151323,53.332925],[-2.151034,53.336119],[-2.150008,53.338297],[-2.149044,53.338561],[-2.148324,53.339441],[-2.146738,53.340142],[-2.146664,53.340612],[-2.144099,53.342871],[-2.146127,53.343775],[-2.147177,53.344811],[-2.147718,53.34483],[-2.151191,53.348133],[-2.149661,53.349633],[-2.146546,53.350863],[-2.147166,53.351129],[-2.146326,53.351898],[-2.145734,53.351728],[-2.142533,53.35419],[-2.140327,53.355052],[-2.138197,53.356891],[-2.139169,53.357767],[-2.139871,53.360155],[-2.139228,53.361581],[-2.139693,53.362901],[-2.13929,53.363647],[-2.139481,53.364615],[-2.137714,53.366611],[-2.139265,53.366657],[-2.139025,53.367317],[-2.136513,53.366995],[-2.133377,53.364986],[-2.129221,53.364963],[-2.127884,53.364617],[-2.127622,53.363982],[-2.12718,53.364037],[-2.124295,53.361967],[-2.122639,53.36211],[-2.122079,53.363037],[-2.120729,53.363896],[-2.117743,53.364317],[-2.117566,53.364082],[-2.116872,53.36456],[-2.115869,53.364343],[-2.11548,53.364769],[-2.111832,53.364592],[-2.111479,53.364309],[-2.110762,53.364739],[-2.109921,53.364515],[-2.107512,53.364732],[-2.106655,53.365179],[-2.105779,53.365094],[-2.103938,53.366041],[-2.101343,53.366081],[-2.101127,53.365832],[-2.099002,53.36625],[-2.095092,53.366068],[-2.094154,53.365452],[-2.093694,53.365502],[-2.092804,53.364473],[-2.090903,53.364089],[-2.087002,53.361578],[-2.083897,53.360154],[-2.083786,53.359508],[-2.075596,53.357704],[-2.072574,53.357554],[-2.072268,53.357879],[-2.071197,53.357743],[-2.071073,53.35798],[-2.070321,53.357591],[-2.070095,53.357937],[-2.069154,53.358084],[-2.068418,53.357884],[-2.068631,53.357506],[-2.068239,53.357364],[-2.065739,53.357904],[-2.065057,53.357704],[-2.063395,53.358776],[-2.062514,53.358724],[-2.062465,53.358418],[-2.061786,53.358663],[-2.061309,53.358356],[-2.059677,53.35891],[-2.059172,53.360238],[-2.058783,53.360213],[-2.057463,53.362055],[-2.056337,53.362413],[-2.05638,53.363255],[-2.056927,53.36335],[-2.05696,53.36373],[-2.056253,53.364309],[-2.05532,53.366891],[-2.053908,53.367328],[-2.051988,53.3674],[-2.050113,53.369083],[-2.04863,53.369443],[-2.046668,53.369369],[-2.043953,53.37063],[-2.043022,53.371716],[-2.041106,53.3727],[-2.040564,53.374088],[-2.038854,53.372986],[-2.038421,53.371892],[-2.032632,53.372034],[-2.030957,53.371515],[-2.031058,53.370262],[-2.034107,53.367795],[-2.032123,53.366418],[-2.031787,53.365736],[-2.030167,53.366226],[-2.028694,53.364668],[-2.027046,53.363712],[-2.025995,53.363708],[-2.02496,53.364102],[-2.023649,53.36545],[-2.023509,53.366407],[-2.021806,53.366778],[-2.020287,53.366084],[-2.017426,53.365652],[-2.016273,53.363352],[-2.015606,53.362845],[-2.014151,53.362598],[-2.011754,53.361623],[-2.010474,53.362581],[-2.009049,53.362008],[-2.010691,53.358254],[-2.010903,53.356685],[-2.010441,53.355245],[-2.008909,53.355278],[-2.006785,53.354572],[-2.00671,53.353546],[-2.007267,53.35347],[-2.006567,53.351973],[-2.006703,53.351655],[-2.008425,53.351103],[-2.007705,53.349287],[-2.007838,53.347766],[-2.00466,53.34601],[-2.010138,53.341902],[-2.014319,53.340059],[-2.013394,53.335665],[-2.01365,53.33242],[-2.009283,53.331389],[-2.01081,53.329786],[-2.011797,53.327597],[-2.011114,53.326657],[-2.011553,53.325954],[-2.010866,53.324732],[-2.009936,53.324501],[-2.01078,53.324099],[-2.010266,53.322897],[-2.008975,53.322994],[-2.008169,53.322347],[-2.006052,53.321668],[-2.004331,53.321408],[-2.003731,53.321663],[-2.001551,53.318922],[-2.003178,53.316947],[-2.004202,53.314611],[-2.004333,53.311157],[-2.008666,53.304506],[-2.009329,53.302314],[-2.0087,53.300182],[-2.008654,53.294656],[-2.009641,53.289436],[-2.008171,53.289433],[-2.008134,53.287488],[-2.008274,53.283477],[-2.009278,53.280067],[-2.008132,53.276712],[-2.007398,53.275913],[-2.006636,53.271574],[-2.00616,53.271404],[-2.005197,53.26904],[-2.005407,53.267589],[-2.007732,53.264524],[-2.009425,53.260615],[-2.000355,53.255402],[-2.00103,53.253851],[-2.001861,53.248544],[-1.999216,53.246355],[-1.99971,53.24502],[-1.991117,53.241015],[-1.988038,53.240265],[-1.983738,53.238628],[-1.981903,53.238561],[-1.978976,53.233185],[-1.978437,53.232619],[-1.975479,53.231436],[-1.974827,53.23082],[-1.974949,53.228515],[-1.9759,53.227589],[-1.977705,53.22754],[-1.978476,53.22701],[-1.978934,53.227173],[-1.979294,53.226716],[-1.981948,53.226358],[-1.983392,53.2258],[-1.986653,53.225467],[-1.98669,53.225128],[-1.987726,53.224892],[-1.988186,53.2241],[-1.990249,53.223022],[-1.990162,53.22103],[-1.989146,53.219565],[-1.989266,53.219309],[-1.989933,53.21936],[-1.989449,53.218015],[-1.989634,53.215806],[-1.988026,53.214605],[-1.98738,53.213604],[-1.987085,53.211971],[-1.988526,53.21117],[-1.988901,53.209957],[-1.990359,53.209645],[-1.990873,53.208261],[-1.992993,53.207494],[-1.993014,53.206519],[-1.99376,53.20527],[-1.992774,53.204868],[-1.994192,53.204124],[-1.994661,53.199752],[-1.996401,53.19877],[-1.996742,53.197588],[-1.998655,53.197124],[-1.998808,53.196096],[-2.000366,53.194538],[-2.000073,53.193902],[-2.001749,53.192956],[-2.004982,53.193494],[-2.005503,53.192847],[-2.006915,53.192421],[-2.009133,53.192964],[-2.00993,53.192878],[-2.010952,53.192449],[-2.011121,53.19193],[-2.014222,53.190641],[-2.016381,53.189288],[-2.018232,53.189085],[-2.021332,53.189827],[-2.024441,53.191802],[-2.028581,53.193372],[-2.031743,53.193238],[-2.033689,53.193703],[-2.034552,53.19315],[-2.03653,53.193171],[-2.037817,53.193758],[-2.039265,53.193525],[-2.040465,53.192536],[-2.042757,53.192851],[-2.044098,53.192566],[-2.04611,53.192777],[-2.047415,53.192278],[-2.048314,53.191462],[-2.04831,53.190991],[-2.049466,53.19042],[-2.052261,53.18783],[-2.054896,53.186832],[-2.055049,53.185957],[-2.053254,53.185267],[-2.052394,53.18391],[-2.054507,53.183144],[-2.056432,53.182904],[-2.056799,53.181711],[-2.058951,53.181224],[-2.059317,53.180836],[-2.059609,53.179956],[-2.058429,53.179663],[-2.058248,53.178692],[-2.056892,53.17767],[-2.058056,53.176389],[-2.063254,53.174905],[-2.067795,53.174882],[-2.070498,53.173157],[-2.069868,53.17277],[-2.069076,53.172916],[-2.07005,53.1717],[-2.07153,53.171917],[-2.075533,53.171249],[-2.078101,53.170416],[-2.079804,53.171066],[-2.082101,53.170935],[-2.083029,53.170136],[-2.085606,53.170255],[-2.087398,53.169837],[-2.087529,53.170174],[-2.089215,53.170787],[-2.090708,53.172354],[-2.092773,53.172953],[-2.0935,53.17256],[-2.094599,53.172631],[-2.09577,53.171191],[-2.096906,53.171161],[-2.097673,53.171553],[-2.098741,53.170362],[-2.101788,53.168914],[-2.103841,53.169875],[-2.108724,53.168349],[-2.109893,53.168637],[-2.110015,53.169309],[-2.110406,53.169399],[-2.111729,53.168623],[-2.115432,53.169537],[-2.115931,53.171083],[-2.113881,53.171902],[-2.114406,53.172577],[-2.114971,53.172675],[-2.116113,53.171893],[-2.117498,53.171709],[-2.119315,53.172874],[-2.119378,53.173791],[-2.118851,53.174202],[-2.119724,53.174689],[-2.121604,53.174438],[-2.124103,53.173403],[-2.124771,53.17349],[-2.125016,53.173958],[-2.124607,53.174686],[-2.125368,53.17519],[-2.127947,53.174648],[-2.129356,53.175535],[-2.130064,53.176768],[-2.12977,53.178339],[-2.133744,53.18304],[-2.138152,53.184006],[-2.140211,53.183895],[-2.142174,53.182245],[-2.142271,53.181144],[-2.141361,53.179806],[-2.1416,53.179353],[-2.142385,53.179111],[-2.142647,53.177793],[-2.144298,53.176921],[-2.144455,53.176236],[-2.14352,53.175438],[-2.144508,53.174707],[-2.144866,53.173768],[-2.144461,53.173545],[-2.144496,53.171338],[-2.141423,53.156612],[-2.145422,53.157321],[-2.147275,53.158574],[-2.148506,53.158222],[-2.150998,53.159661],[-2.15238,53.159787],[-2.154632,53.159266],[-2.155545,53.159653],[-2.155049,53.157676],[-2.155637,53.1566],[-2.15858,53.154173],[-2.159543,53.152906],[-2.16386,53.151372],[-2.168058,53.14816],[-2.169289,53.148206],[-2.171669,53.147404],[-2.172409,53.148021],[-2.174367,53.146522],[-2.176581,53.145531],[-2.180094,53.142563],[-2.186534,53.135977],[-2.193506,53.129565],[-2.202645,53.121632],[-2.211315,53.115824],[-2.212908,53.11505],[-2.21286,53.114303],[-2.217056,53.110977],[-2.216971,53.109957],[-2.22243,53.107622],[-2.222611,53.107318],[-2.221996,53.106827],[-2.222867,53.106043],[-2.223132,53.104992],[-2.222076,53.104675],[-2.223074,53.103795],[-2.224696,53.103605],[-2.227015,53.104128],[-2.230353,53.103767],[-2.231953,53.10311],[-2.233999,53.10294],[-2.237951,53.101047],[-2.237769,53.100772],[-2.238921,53.100019],[-2.238995,53.098273],[-2.240519,53.096555],[-2.242571,53.095151],[-2.243461,53.093834],[-2.246378,53.091611],[-2.246432,53.090308],[-2.247423,53.08987],[-2.249663,53.090724],[-2.249088,53.091635],[-2.249737,53.092232],[-2.249845,53.092825],[-2.249426,53.092988],[-2.249853,53.093259],[-2.250915,53.092853],[-2.250675,53.093089],[-2.253248,53.093977],[-2.253427,53.093071],[-2.255899,53.090674],[-2.257125,53.090016],[-2.258102,53.090224],[-2.260978,53.089009],[-2.267028,53.088111],[-2.268392,53.088547],[-2.269242,53.087574],[-2.271112,53.086731],[-2.277059,53.085912],[-2.276268,53.084957],[-2.27547,53.084838],[-2.274498,53.083854],[-2.275289,53.082189],[-2.278496,53.080913],[-2.285026,53.079735],[-2.288486,53.079759],[-2.290657,53.078904],[-2.29195,53.078974],[-2.293376,53.078326],[-2.294461,53.078296],[-2.295442,53.079253],[-2.295263,53.079726],[-2.295767,53.080397],[-2.296752,53.081059],[-2.299825,53.081408],[-2.301551,53.081275],[-2.301876,53.082122],[-2.303403,53.082996],[-2.30972,53.082482],[-2.313651,53.081331],[-2.316782,53.081186],[-2.31783,53.081441],[-2.322407,53.078991],[-2.322905,53.078116],[-2.323709,53.077656],[-2.329009,53.07658],[-2.329487,53.075365],[-2.328768,53.074099],[-2.329901,53.073213],[-2.330402,53.07088],[-2.331621,53.069714],[-2.335874,53.067407],[-2.336253,53.06634],[-2.338848,53.064421],[-2.339095,53.06317],[-2.341448,53.059996],[-2.344481,53.059047],[-2.347586,53.05617],[-2.348598,53.055845],[-2.349036,53.056373],[-2.350196,53.056708],[-2.350001,53.057067],[-2.351646,53.05729],[-2.35165,53.057672],[-2.352728,53.057878],[-2.352791,53.058346],[-2.353735,53.058849],[-2.354471,53.058744],[-2.354645,53.058418],[-2.35668,53.058215],[-2.357579,53.054719],[-2.359429,53.05474],[-2.361501,53.054105],[-2.361719,53.055097],[-2.366601,53.054553],[-2.370293,53.054811],[-2.370748,53.054351],[-2.372299,53.054575],[-2.373619,53.054204],[-2.37506,53.054531],[-2.376201,53.052971],[-2.377173,53.052937],[-2.377431,53.052641],[-2.380988,53.052727],[-2.381481,53.052475],[-2.382193,53.05116],[-2.380728,53.04966],[-2.382271,53.049227],[-2.383278,53.04851],[-2.385124,53.048091],[-2.38358,53.047429],[-2.382159,53.04585],[-2.383529,53.045554],[-2.382476,53.044222],[-2.382536,53.042888],[-2.383228,53.041746],[-2.38446,53.041698],[-2.383867,53.040817],[-2.384551,53.038448],[-2.383845,53.036595],[-2.384287,53.033896],[-2.386125,53.033603],[-2.384265,53.031844],[-2.382783,53.031638],[-2.381308,53.030565],[-2.379785,53.027591],[-2.384227,53.026168],[-2.381292,53.024153],[-2.38144,53.023826],[-2.377519,53.019957],[-2.370422,53.01453],[-2.372796,53.013461],[-2.3733,53.011689],[-2.374705,53.010602],[-2.376416,53.010156],[-2.378411,53.010364],[-2.379284,53.009594],[-2.380781,53.009167],[-2.380703,53.00882],[-2.381182,53.008839],[-2.380998,53.008548],[-2.381729,53.008341],[-2.38169,53.007982],[-2.382277,53.008121],[-2.383045,53.007787],[-2.382952,53.007222],[-2.381791,53.006909],[-2.381809,53.006249],[-2.380806,53.005202],[-2.380977,53.004051],[-2.380513,53.003823],[-2.380667,53.002766],[-2.380148,53.002092],[-2.380512,53.002016],[-2.380503,53.001425],[-2.379992,53.000808],[-2.380805,52.999722],[-2.380245,52.999006],[-2.380949,52.998162],[-2.383264,52.997781],[-2.384101,52.997961],[-2.385384,52.996668],[-2.389082,52.996169],[-2.389211,52.995514],[-2.389735,52.995392],[-2.391197,52.996478],[-2.397485,52.994998],[-2.400802,52.995456],[-2.402697,52.995039],[-2.403329,52.995103],[-2.404089,52.995954],[-2.404801,52.995717],[-2.406987,52.995917],[-2.407608,52.995668],[-2.407141,52.995471],[-2.40728,52.995175],[-2.405056,52.994235],[-2.40507,52.993089],[-2.405581,52.992468],[-2.404475,52.991654],[-2.405227,52.990801],[-2.408322,52.989764],[-2.40831,52.989129],[-2.409382,52.989111],[-2.410862,52.987925],[-2.41223,52.988259],[-2.416202,52.988197],[-2.417538,52.987897],[-2.418625,52.988087],[-2.418889,52.988483],[-2.420553,52.987828],[-2.421022,52.987169],[-2.423787,52.986342],[-2.425475,52.986398],[-2.428883,52.98578],[-2.430006,52.98615],[-2.431639,52.986064],[-2.432358,52.987067],[-2.433598,52.986652],[-2.435368,52.986709],[-2.438169,52.985568],[-2.438491,52.984615],[-2.435684,52.98295],[-2.436681,52.982099],[-2.436355,52.981512],[-2.43499,52.980818],[-2.43409,52.979661],[-2.434224,52.978877],[-2.436044,52.977694],[-2.434531,52.977148],[-2.434217,52.976366],[-2.434833,52.975476],[-2.435661,52.975159],[-2.436276,52.973391],[-2.435394,52.973038],[-2.434469,52.971705],[-2.434895,52.970373],[-2.434668,52.969557],[-2.438983,52.969342],[-2.440542,52.96995],[-2.441646,52.969978],[-2.442991,52.970781],[-2.446517,52.968236],[-2.449185,52.967182],[-2.450265,52.966054],[-2.451009,52.966243],[-2.452901,52.965426],[-2.459521,52.964687],[-2.460132,52.96401],[-2.461543,52.963764],[-2.46385,52.964082],[-2.464487,52.963663],[-2.465259,52.963715],[-2.467862,52.96225],[-2.470359,52.961484],[-2.471453,52.961555],[-2.472267,52.96212],[-2.475238,52.962476],[-2.475907,52.961943],[-2.477785,52.961744],[-2.477644,52.960797],[-2.478518,52.960229],[-2.479971,52.960011],[-2.481133,52.958837],[-2.484055,52.960133],[-2.484678,52.961259],[-2.486875,52.962938],[-2.487716,52.965126],[-2.490788,52.965047],[-2.490679,52.966298],[-2.491701,52.967684],[-2.495678,52.968488],[-2.499023,52.968435],[-2.500814,52.967253],[-2.506539,52.965837],[-2.506897,52.964913],[-2.508067,52.965751],[-2.509415,52.965956],[-2.509919,52.966487],[-2.511098,52.96686],[-2.511232,52.967879],[-2.510744,52.968083],[-2.511637,52.96904],[-2.511769,52.96994],[-2.513059,52.971174],[-2.514316,52.971924],[-2.517015,52.972328],[-2.517863,52.972916],[-2.519622,52.973279],[-2.520138,52.974002],[-2.521341,52.974346],[-2.522115,52.973725],[-2.521549,52.972985],[-2.522313,52.972667],[-2.52187,52.972411],[-2.522567,52.972054],[-2.522352,52.971139],[-2.522983,52.971116],[-2.52323,52.970329],[-2.522491,52.970036],[-2.523172,52.969651],[-2.522691,52.969466],[-2.522315,52.968209],[-2.523371,52.967842],[-2.522791,52.967324],[-2.523986,52.966027],[-2.523715,52.964989],[-2.524468,52.964751],[-2.523336,52.964304],[-2.523824,52.963718],[-2.523058,52.963123],[-2.523048,52.961589],[-2.522607,52.961159],[-2.523495,52.960879],[-2.522902,52.960073],[-2.523532,52.960079],[-2.523791,52.959709],[-2.523252,52.959754],[-2.523459,52.959212],[-2.522764,52.958868],[-2.523258,52.957432],[-2.523882,52.957159],[-2.523589,52.956204],[-2.524267,52.955916],[-2.523281,52.954355],[-2.524349,52.953947],[-2.524547,52.953555],[-2.525356,52.953685],[-2.526472,52.952494],[-2.527287,52.952225],[-2.527481,52.951803],[-2.526865,52.951168],[-2.529302,52.949415],[-2.529516,52.947165],[-2.532034,52.947286],[-2.535061,52.948087],[-2.539151,52.95193],[-2.541015,52.952746],[-2.546355,52.956838],[-2.547946,52.95706],[-2.550473,52.956665],[-2.553697,52.957466],[-2.55393,52.957915],[-2.555873,52.959027],[-2.557615,52.962176],[-2.55911,52.962222],[-2.560616,52.963646],[-2.561263,52.964952],[-2.561671,52.964244],[-2.564356,52.963533],[-2.566513,52.963949],[-2.568117,52.963096],[-2.568031,52.962468],[-2.568843,52.961962],[-2.571256,52.962147],[-2.572102,52.962858],[-2.572398,52.962497],[-2.57287,52.962849],[-2.573492,52.962716],[-2.573797,52.962323],[-2.573247,52.961463],[-2.571521,52.96076],[-2.570277,52.959772],[-2.571801,52.959217],[-2.573089,52.959239],[-2.573565,52.958509],[-2.574933,52.958333],[-2.57506,52.957308],[-2.576658,52.956177],[-2.578144,52.955729],[-2.583625,52.95628],[-2.584429,52.955589],[-2.586203,52.955314],[-2.588478,52.957023],[-2.588288,52.957568],[-2.588917,52.958063],[-2.589017,52.958943],[-2.590612,52.959255],[-2.591328,52.960411],[-2.592649,52.960897],[-2.594918,52.960993],[-2.595882,52.962162],[-2.597693,52.963006],[-2.595802,52.96554],[-2.596332,52.966529],[-2.596028,52.967669],[-2.597033,52.968574],[-2.596891,52.96956],[-2.598447,52.971718],[-2.596623,52.973476],[-2.592756,52.974169],[-2.5954,52.97593],[-2.598894,52.975113],[-2.59963,52.975433],[-2.599156,52.976702],[-2.596703,52.977868],[-2.594889,52.979607],[-2.595925,52.979699],[-2.598109,52.979067],[-2.600625,52.978791],[-2.604205,52.978983],[-2.605679,52.979395],[-2.603699,52.981797],[-2.604142,52.983098],[-2.603775,52.98356],[-2.604786,52.98412],[-2.605466,52.985432],[-2.607142,52.98674],[-2.6067,52.987273],[-2.607566,52.98774],[-2.607734,52.988362],[-2.614985,52.987766],[-2.618968,52.986611],[-2.62194,52.986742],[-2.625756,52.989182],[-2.627592,52.990967],[-2.627634,52.992015],[-2.628237,52.992511],[-2.628028,52.995169],[-2.630923,52.995884],[-2.632651,52.996671],[-2.634068,52.995992],[-2.635075,52.996734],[-2.636372,52.996511],[-2.637371,52.994851],[-2.642805,52.993481],[-2.644529,52.995013],[-2.648611,52.995261],[-2.648713,52.995732],[-2.65168,52.994892],[-2.652357,52.994994],[-2.654419,52.993323],[-2.655428,52.993138],[-2.657685,52.991614],[-2.658185,52.991676],[-2.658298,52.992056],[-2.660807,52.991451],[-2.664379,52.989016],[-2.668101,52.988211],[-2.668118,52.98774],[-2.671575,52.987123],[-2.674662,52.985663],[-2.676186,52.986495],[-2.679675,52.986565],[-2.680903,52.986111],[-2.683735,52.986417],[-2.684569,52.98613],[-2.684668,52.986604],[-2.685556,52.986445],[-2.687078,52.98683],[-2.686443,52.988244],[-2.688776,52.989936],[-2.691839,52.990505],[-2.694415,52.993344],[-2.694469,52.993942],[-2.696697,52.994863],[-2.699292,52.995439],[-2.696097,53.000769],[-2.69372,53.002771],[-2.690342,53.007808],[-2.688555,53.012486],[-2.680133,53.01521],[-2.678321,53.015011],[-2.682543,53.020242],[-2.685018,53.021713],[-2.683189,53.023495],[-2.68248,53.024901],[-2.679619,53.02562],[-2.679321,53.02594],[-2.679275,53.026736],[-2.678374,53.027995],[-2.67896,53.030945],[-2.678279,53.03146],[-2.678806,53.031984],[-2.678251,53.032352],[-2.678771,53.032659],[-2.677213,53.033278],[-2.672314,53.034025],[-2.671448,53.036422],[-2.668817,53.038654],[-2.68226,53.045322],[-2.689196,53.049311],[-2.691409,53.050049],[-2.693859,53.051842],[-2.700141,53.053117],[-2.702411,53.054321],[-2.704894,53.053937],[-2.704555,53.053157],[-2.707237,53.052937],[-2.709581,53.052245],[-2.709228,53.050165],[-2.71046,53.048212],[-2.716201,53.047625],[-2.718249,53.045564],[-2.718263,53.044214],[-2.719215,53.044849],[-2.719121,53.046141],[-2.722129,53.049004],[-2.723263,53.04884],[-2.726492,53.051125],[-2.729005,53.051636],[-2.730481,53.053521],[-2.734699,53.055084],[-2.734534,53.056605],[-2.732423,53.057684],[-2.734724,53.05868],[-2.735925,53.059778],[-2.735711,53.060186],[-2.737554,53.060459],[-2.737256,53.060999],[-2.740169,53.061357],[-2.739678,53.062425],[-2.741879,53.063482],[-2.741071,53.064521],[-2.743258,53.065795],[-2.752929,53.069226],[-2.751264,53.071418],[-2.749927,53.071706],[-2.751101,53.074423],[-2.750742,53.076519],[-2.748651,53.077952],[-2.748368,53.078532],[-2.746747,53.078873],[-2.74516,53.080663],[-2.745466,53.082157],[-2.744438,53.082292],[-2.74178,53.081861],[-2.73493,53.086553],[-2.735615,53.088724],[-2.732884,53.090083],[-2.731739,53.091809],[-2.730333,53.091528],[-2.724922,53.092319],[-2.722294,53.092194],[-2.71758,53.093528],[-2.713142,53.093014],[-2.711364,53.093642],[-2.711736,53.096415],[-2.709058,53.098651],[-2.708215,53.105548],[-2.706451,53.106614],[-2.707566,53.107813],[-2.708421,53.110267],[-2.71,53.11178],[-2.709699,53.111907],[-2.710048,53.113437],[-2.709204,53.114351],[-2.708567,53.116217],[-2.707108,53.117106],[-2.706054,53.118509],[-2.703671,53.117425],[-2.699653,53.119787],[-2.696628,53.119968],[-2.690487,53.118668],[-2.687479,53.117235],[-2.683639,53.117121],[-2.681978,53.116022],[-2.678502,53.11596],[-2.674437,53.115145],[-2.673797,53.115944],[-2.671145,53.11587],[-2.671375,53.116436],[-2.670041,53.117049],[-2.670728,53.117968],[-2.670093,53.118433],[-2.668768,53.118828],[-2.66694,53.120185],[-2.663764,53.120582],[-2.662437,53.121349],[-2.660517,53.125092],[-2.660638,53.127506],[-2.659693,53.129349],[-2.65973,53.130716],[-2.658308,53.130776],[-2.656244,53.13003],[-2.652428,53.130347],[-2.649962,53.129225],[-2.641263,53.128421],[-2.641147,53.128947],[-2.640429,53.129064],[-2.640528,53.132107],[-2.63962,53.133568],[-2.640293,53.134136],[-2.642178,53.134522],[-2.643344,53.135224],[-2.640788,53.13986],[-2.640327,53.139863],[-2.640035,53.141007],[-2.638259,53.141884],[-2.636591,53.142039],[-2.63471,53.14271],[-2.632049,53.145511],[-2.630919,53.146224],[-2.630002,53.146292],[-2.629066,53.148658],[-2.62836,53.148697],[-2.627272,53.149812],[-2.625631,53.150335],[-2.625243,53.150843],[-2.623194,53.151422],[-2.622763,53.151153],[-2.622431,53.151394],[-2.6209,53.151217],[-2.620346,53.150283],[-2.618443,53.150265],[-2.618246,53.150027],[-2.617713,53.150304],[-2.61508,53.150311],[-2.614281,53.150691],[-2.614133,53.150432],[-2.612707,53.150321],[-2.611741,53.150568],[-2.609336,53.149996],[-2.60872,53.149181],[-2.60819,53.149174],[-2.607924,53.148792],[-2.6083,53.148594],[-2.607865,53.148569],[-2.607721,53.148025],[-2.605838,53.146696],[-2.605624,53.145804],[-2.604349,53.145107],[-2.603526,53.145094],[-2.60353,53.145477],[-2.603149,53.145368],[-2.603018,53.145672],[-2.6002,53.146513],[-2.598628,53.146202],[-2.597692,53.145425],[-2.597112,53.145409],[-2.596855,53.144749],[-2.595935,53.144888],[-2.594394,53.144516],[-2.592529,53.144964],[-2.592355,53.144482],[-2.592005,53.144516],[-2.591378,53.145081],[-2.5907,53.145049],[-2.590774,53.146001],[-2.589873,53.145863],[-2.589731,53.146346],[-2.588714,53.146577],[-2.592252,53.149031],[-2.593414,53.150851],[-2.595792,53.152724],[-2.597495,53.155203],[-2.597127,53.155311],[-2.596505,53.158872],[-2.593546,53.158309],[-2.591644,53.157244],[-2.589012,53.157083],[-2.587529,53.157459],[-2.586683,53.157333],[-2.586185,53.156537],[-2.583581,53.155498],[-2.582856,53.157729],[-2.580868,53.15802],[-2.580345,53.159142],[-2.580766,53.159327],[-2.57883,53.160035],[-2.576671,53.161981],[-2.574146,53.161405],[-2.572403,53.163472],[-2.568108,53.162424],[-2.56676,53.162608],[-2.566573,53.162278],[-2.565,53.162057],[-2.56182,53.16267],[-2.55968,53.161883],[-2.55706,53.160338],[-2.558499,53.159616],[-2.555963,53.157987],[-2.553846,53.157125],[-2.553563,53.155584],[-2.55194,53.154517],[-2.550745,53.153183],[-2.548013,53.151407],[-2.542251,53.149761],[-2.532755,53.152203],[-2.528603,53.152439],[-2.526865,53.152839],[-2.523938,53.1544],[-2.522836,53.155354],[-2.522607,53.157689],[-2.522999,53.159159],[-2.521392,53.159614],[-2.520566,53.16041],[-2.519988,53.160093],[-2.518183,53.160124],[-2.51689,53.159487],[-2.516818,53.158973],[-2.514118,53.158875],[-2.513368,53.158012],[-2.512416,53.158028],[-2.51204,53.158312],[-2.512638,53.158491],[-2.512365,53.158904],[-2.510755,53.15943],[-2.510101,53.159195],[-2.508331,53.159461],[-2.507555,53.158997],[-2.506518,53.159216],[-2.506279,53.158986],[-2.505674,53.159679],[-2.504026,53.160048],[-2.503174,53.159728],[-2.502417,53.159863],[-2.500835,53.161428],[-2.501695,53.16371],[-2.500941,53.163564],[-2.500696,53.163975],[-2.500287,53.163684],[-2.499679,53.164156],[-2.4991,53.163682],[-2.498031,53.164237],[-2.496194,53.164282],[-2.494867,53.163414],[-2.493811,53.163563],[-2.492568,53.162921],[-2.491378,53.163006],[-2.490568,53.16352],[-2.489173,53.163566],[-2.487032,53.163412],[-2.485025,53.162738],[-2.484538,53.162172],[-2.485629,53.161281],[-2.48618,53.160157],[-2.483801,53.15951],[-2.48033,53.157224],[-2.477688,53.156488],[-2.476352,53.155215],[-2.474609,53.154625],[-2.472059,53.154534],[-2.469074,53.152762],[-2.464301,53.153157],[-2.461969,53.156568],[-2.459106,53.156213],[-2.457324,53.156435],[-2.456465,53.156868],[-2.456942,53.157272],[-2.456299,53.159623],[-2.455828,53.160472],[-2.45466,53.160938],[-2.452818,53.160954],[-2.452312,53.16065],[-2.451863,53.160894],[-2.446469,53.159869],[-2.443848,53.159869],[-2.443724,53.160207],[-2.443254,53.160194],[-2.443268,53.16068],[-2.444517,53.160928],[-2.444498,53.161278],[-2.443631,53.162239],[-2.442418,53.162527],[-2.442446,53.162865],[-2.44345,53.16293],[-2.442193,53.163766],[-2.442428,53.164675],[-2.443092,53.164932],[-2.442172,53.165232],[-2.442572,53.166179],[-2.442006,53.166179],[-2.442359,53.167814],[-2.441864,53.167958],[-2.441985,53.168807],[-2.443365,53.16947],[-2.442828,53.169926],[-2.443477,53.170838],[-2.445193,53.171689],[-2.445293,53.172111],[-2.446438,53.171878],[-2.44684,53.17228],[-2.447886,53.172128],[-2.448241,53.173072],[-2.449779,53.173011],[-2.450987,53.173821],[-2.45201,53.173809],[-2.453585,53.17431],[-2.454816,53.175149],[-2.455954,53.175083],[-2.45635,53.175334],[-2.45623,53.175905],[-2.457333,53.176617],[-2.456539,53.177667],[-2.4573,53.178478],[-2.45624,53.1788],[-2.456575,53.181039],[-2.456133,53.181264],[-2.456787,53.181806],[-2.45675,53.182766],[-2.456114,53.183621],[-2.456935,53.1844],[-2.456774,53.184716],[-2.457485,53.18505],[-2.457575,53.186393],[-2.456416,53.187328],[-2.456784,53.18874],[-2.456354,53.189872],[-2.458354,53.191535],[-2.458299,53.191886],[-2.460462,53.192901],[-2.460194,53.193607],[-2.460906,53.193848],[-2.460169,53.194222],[-2.460359,53.194648],[-2.45949,53.196194],[-2.458395,53.196815],[-2.458823,53.197973],[-2.458515,53.198668],[-2.459119,53.198749],[-2.45933,53.199181],[-2.460256,53.199081],[-2.460396,53.200004],[-2.459753,53.201477],[-2.458129,53.201469],[-2.45693,53.201849],[-2.456436,53.202634],[-2.455619,53.201868],[-2.454388,53.201667],[-2.454581,53.200967],[-2.451679,53.200142],[-2.451226,53.19936],[-2.447897,53.199947],[-2.445841,53.201219],[-2.444512,53.201039],[-2.443123,53.201363],[-2.440605,53.200397],[-2.440104,53.199776],[-2.438656,53.200088],[-2.437841,53.198239],[-2.43671,53.197385],[-2.435354,53.197776],[-2.434517,53.196675],[-2.430663,53.197965],[-2.429426,53.196557],[-2.428938,53.194959],[-2.426383,53.195037],[-2.425899,53.193742],[-2.427032,53.192951],[-2.421908,53.191117],[-2.420705,53.190201],[-2.41739,53.188839],[-2.416322,53.187892],[-2.413753,53.183938],[-2.412701,53.183775],[-2.41301,53.181967],[-2.412642,53.180877],[-2.410358,53.178114],[-2.405562,53.174782],[-2.40658,53.174137],[-2.397942,53.172298],[-2.399302,53.174529],[-2.398758,53.174618],[-2.398056,53.177213],[-2.396827,53.177962],[-2.396255,53.178857],[-2.39329,53.179923],[-2.39211,53.179915],[-2.391251,53.17832],[-2.390028,53.178017],[-2.387001,53.175515],[-2.384615,53.174575],[-2.383177,53.173484],[-2.378202,53.172082],[-2.376866,53.173068],[-2.377813,53.173817],[-2.374728,53.176546],[-2.373663,53.178754],[-2.37232,53.178741],[-2.368686,53.182917],[-2.368935,53.183377],[-2.370162,53.183675],[-2.370849,53.184535],[-2.373609,53.18517],[-2.373779,53.185426],[-2.372823,53.186449],[-2.376923,53.187262],[-2.37563,53.189159],[-2.373339,53.189456],[-2.371152,53.19044],[-2.372425,53.192377],[-2.37191,53.192669],[-2.372677,53.194228],[-2.37256,53.195551],[-2.376383,53.195952],[-2.377253,53.19576],[-2.379537,53.196449],[-2.381933,53.196234],[-2.382303,53.196759],[-2.382868,53.196529],[-2.384425,53.196869],[-2.384491,53.196594],[-2.38675,53.196785],[-2.387151,53.196192],[-2.388048,53.195928],[-2.389862,53.196086],[-2.390521,53.198096],[-2.391919,53.200128],[-2.392375,53.202783],[-2.392997,53.203188],[-2.393469,53.204907],[-2.395033,53.2061],[-2.39603,53.206093],[-2.396772,53.204899],[-2.397695,53.204861],[-2.398548,53.205276],[-2.399532,53.203914],[-2.400889,53.203283],[-2.402972,53.203361],[-2.403528,53.204237],[-2.406399,53.204024],[-2.407436,53.204732],[-2.410161,53.205696],[-2.408648,53.209097],[-2.408831,53.211805],[-2.409194,53.212755],[-2.412322,53.212582],[-2.414182,53.2193],[-2.413643,53.219338],[-2.413735,53.219913],[-2.4129,53.22116],[-2.411471,53.220755],[-2.409725,53.221045],[-2.407998,53.220877],[-2.406825,53.221292],[-2.403079,53.221152],[-2.401172,53.221759],[-2.399648,53.224026],[-2.398956,53.224048],[-2.397878,53.225228],[-2.39954,53.22595],[-2.399038,53.226764],[-2.401504,53.227905],[-2.40094,53.228306],[-2.402822,53.229296],[-2.402492,53.229726],[-2.398859,53.228276],[-2.396713,53.231103],[-2.398826,53.232102],[-2.396289,53.234362],[-2.385739,53.230385],[-2.380932,53.227814],[-2.377647,53.227152],[-2.367963,53.22332],[-2.3638,53.223571],[-2.359509,53.230582],[-2.359131,53.233361],[-2.353708,53.235972],[-2.353388,53.236915],[-2.352645,53.236955],[-2.346353,53.240937],[-2.350145,53.243767],[-2.35075,53.245934],[-2.348972,53.248672],[-2.34908,53.249032],[-2.350947,53.248839],[-2.35112,53.248383],[-2.351733,53.248631],[-2.353033,53.248314],[-2.354262,53.248666],[-2.354395,53.249227],[-2.35498,53.248845],[-2.355995,53.248763],[-2.356453,53.249397],[-2.357188,53.249129],[-2.359249,53.249194],[-2.359473,53.248834],[-2.360204,53.249227],[-2.360602,53.248813],[-2.361657,53.249066],[-2.362404,53.248561],[-2.363535,53.248435],[-2.36465,53.24868],[-2.365081,53.249027],[-2.364566,53.249298],[-2.365061,53.249875],[-2.36462,53.250566],[-2.367256,53.251117],[-2.367202,53.252094],[-2.368039,53.252346],[-2.367657,53.252481],[-2.367845,53.252731],[-2.368825,53.252692],[-2.369036,53.253428],[-2.369884,53.253317],[-2.370399,53.254471],[-2.372668,53.25437],[-2.373369,53.254745],[-2.374383,53.254547],[-2.374661,53.254815],[-2.37399,53.254946],[-2.374286,53.255335],[-2.37549,53.255352],[-2.375761,53.25582],[-2.377266,53.255648],[-2.37721,53.256095],[-2.377694,53.256239],[-2.378814,53.256103],[-2.379399,53.256691],[-2.379712,53.256503],[-2.380568,53.25688],[-2.381093,53.257784],[-2.381538,53.25784],[-2.381735,53.258253],[-2.381241,53.258679],[-2.381774,53.258783],[-2.381609,53.259264],[-2.379314,53.260492],[-2.378992,53.263376],[-2.3793,53.263095],[-2.382953,53.262564],[-2.383209,53.263043],[-2.384073,53.262882],[-2.38499,53.263407],[-2.385263,53.264059],[-2.385929,53.263729],[-2.386085,53.264093],[-2.386862,53.264099],[-2.387462,53.263645],[-2.387442,53.262611],[-2.385565,53.262843],[-2.386221,53.261017],[-2.388237,53.261335],[-2.388226,53.261821],[-2.389234,53.262408],[-2.388268,53.262321],[-2.388249,53.264967],[-2.389412,53.265108],[-2.390345,53.264174],[-2.391089,53.264341],[-2.391784,53.26465],[-2.391436,53.265442],[-2.394115,53.266754],[-2.395657,53.266691],[-2.395385,53.266476],[-2.395866,53.26643],[-2.396696,53.266924],[-2.397222,53.2661],[-2.399107,53.265677],[-2.399639,53.265839],[-2.400002,53.265331],[-2.401058,53.266084],[-2.401332,53.265883],[-2.40247,53.266316],[-2.403114,53.266144],[-2.403415,53.266454],[-2.403035,53.26667],[-2.403536,53.266874],[-2.404111,53.266776],[-2.404924,53.26715],[-2.40633,53.26695],[-2.406622,53.267393],[-2.407643,53.267155],[-2.408841,53.268425],[-2.409311,53.268161],[-2.411574,53.268264],[-2.41245,53.267795],[-2.413073,53.267904],[-2.412802,53.268151],[-2.413578,53.268004],[-2.413675,53.268333],[-2.41424,53.268077],[-2.414455,53.268319],[-2.414677,53.267905],[-2.413972,53.266963],[-2.415011,53.266898],[-2.414404,53.266042],[-2.41498,53.265619],[-2.414448,53.265132],[-2.414795,53.264623],[-2.41595,53.26506],[-2.416362,53.264575],[-2.417179,53.264792],[-2.422885,53.260069],[-2.424876,53.261022],[-2.427219,53.261565],[-2.427461,53.26117],[-2.428052,53.261395],[-2.42641,53.263308],[-2.428523,53.264701],[-2.430866,53.265432],[-2.432565,53.266971],[-2.433669,53.268628],[-2.435459,53.269329],[-2.439614,53.269221],[-2.444089,53.270472],[-2.445221,53.272616],[-2.446496,53.272291],[-2.446837,53.274363],[-2.448254,53.275113],[-2.448837,53.276241],[-2.45008,53.277162],[-2.449855,53.277485],[-2.450483,53.278171],[-2.449282,53.27878],[-2.448581,53.278413],[-2.448036,53.278599],[-2.44787,53.278971],[-2.448423,53.279387],[-2.447175,53.279613],[-2.44692,53.280116],[-2.447624,53.280551],[-2.447335,53.280733],[-2.447998,53.281724],[-2.448922,53.281798],[-2.449699,53.2826],[-2.452307,53.283749],[-2.452117,53.284075],[-2.453171,53.284551],[-2.464457,53.287279],[-2.469999,53.285721],[-2.472426,53.28665],[-2.471989,53.287314],[-2.478922,53.289828],[-2.485076,53.290824],[-2.489697,53.290992],[-2.495649,53.290487],[-2.498006,53.289909],[-2.498137,53.291753],[-2.497491,53.293313],[-2.497778,53.294827],[-2.497054,53.296006],[-2.497591,53.299341],[-2.497819,53.299837],[-2.498252,53.299809],[-2.501695,53.298644],[-2.500657,53.301679],[-2.500916,53.304405],[-2.502037,53.30461],[-2.502602,53.305178],[-2.502688,53.306877],[-2.505218,53.309702],[-2.505533,53.310681],[-2.505685,53.311831],[-2.504921,53.312747],[-2.502908,53.313383],[-2.504276,53.314315],[-2.506749,53.318337],[-2.510953,53.320968],[-2.512281,53.321346],[-2.50968,53.324494],[-2.504456,53.326844],[-2.503154,53.331577],[-2.497883,53.337691],[-2.494352,53.340714],[-2.495049,53.341693],[-2.493968,53.343299],[-2.495642,53.344394],[-2.49708,53.3447],[-2.50161,53.343425],[-2.503347,53.342099],[-2.508453,53.342994],[-2.512427,53.342116],[-2.514076,53.342703],[-2.515988,53.342769],[-2.518393,53.34239],[-2.52105,53.3479],[-2.51956,53.347955],[-2.516695,53.348912],[-2.515461,53.349681],[-2.513096,53.352539],[-2.511176,53.352837],[-2.510976,53.3533],[-2.510155,53.353241],[-2.509902,53.353682],[-2.508896,53.353631],[-2.508238,53.354316],[-2.506841,53.354849],[-2.506985,53.355246],[-2.503094,53.356126],[-2.502172,53.357109],[-2.502751,53.357544],[-2.499694,53.359095],[-2.497824,53.359409],[-2.497695,53.360565],[-2.496625,53.36098],[-2.496594,53.361695],[-2.494377,53.362107],[-2.493553,53.362449],[-2.493591,53.362738],[-2.49283,53.362694],[-2.49281,53.36361],[-2.492035,53.363985],[-2.492101,53.364796],[-2.489783,53.365656],[-2.489647,53.366856],[-2.487235,53.366879],[-2.487463,53.367411],[-2.486878,53.367904],[-2.483643,53.367504],[-2.480725,53.367604],[-2.480066,53.36713],[-2.479842,53.367359],[-2.479084,53.367152],[-2.47718,53.366099],[-2.47504,53.366019],[-2.471713,53.364888],[-2.471766,53.364654],[-2.464996,53.363531],[-2.463239,53.364472],[-2.460953,53.364184],[-2.458842,53.368286],[-2.450923,53.367077],[-2.450457,53.366551],[-2.447158,53.365886],[-2.43988,53.366663],[-2.439663,53.370542],[-2.437739,53.370245],[-2.436038,53.370536],[-2.435795,53.370715],[-2.436483,53.370954],[-2.435549,53.372678],[-2.434603,53.372158],[-2.432777,53.374032],[-2.431277,53.37339],[-2.427489,53.375911],[-2.428723,53.376406],[-2.425506,53.379691],[-2.42647,53.382794],[-2.426219,53.384518],[-2.426827,53.384719],[-2.425381,53.386723],[-2.42659,53.387462],[-2.425153,53.387215],[-2.424578,53.386644]]]}}]}