{"type":"FeatureCollection","features":[{"type":"Feature","properties":{"slug":"chorley","gss_code":"E07000118","name":"Chorley"},"geometry":{"type":"MultiPolygon","coordinates":[[[[-2.807291,53.628111],[-2.80732,53.62814],[-2.806147,53.628006],[-2.807291,53.628111]]],[[[-2.808095,53.629954],[-2.808158,53.630705],[-2.80706,53.631278],[-2.808041,53.630407],[-2.808095,53.629954]]],[[[-2.807282,53.638733],[-2.807066,53.639395],[-2.806827,53.639681],[-2.807282,53.638733]]],[[[-2.808832,53.653346],[-2.810749,53.649581],[-2.810933,53.648203],[-2.806547,53.641608],[-2.80873,53.641858],[-2.809818,53.642366],[-2.809497,53.643702],[-2.810227,53.644269],[-2.809769,53.644907],[-2.81231,53.645684],[-2.811699,53.646916],[-2.814407,53.648447],[-2.814638,53.651224],[-2.81404,53.651951],[-2.812343,53.652551],[-2.812082,53.653097],[-2.814855,53.653605],[-2.816776,53.654674],[-2.816444,53.655797],[-2.814617,53.65602],[-2.812868,53.65546],[-2.812414,53.65634],[-2.814749,53.657985],[-2.814982,53.661063],[-2.817762,53.661334],[-2.821449,53.662496],[-2.820859,53.664164],[-2.819739,53.665609],[-2.821032,53.666875],[-2.823364,53.668124],[-2.822546,53.668918],[-2.817699,53.670674],[-2.816463,53.672735],[-2.809249,53.660127],[-2.808832,53.653346]]],[[[-2.823129,53.679858],[-2.823133,53.67986],[-2.823067,53.679862],[-2.823129,53.679858]]],[[[-2.564591,53.742459],[-2.562866,53.741544],[-2.563538,53.74077],[-2.563259,53.739864],[-2.563616,53.739266],[-2.561605,53.737858],[-2.560729,53.73778],[-2.55936,53.735164],[-2.557155,53.734612],[-2.55709,53.732528],[-2.556526,53.732328],[-2.556614,53.730927],[-2.5559,53.729018],[-2.557027,53.727417],[-2.555216,53.725292],[-2.550745,53.726544],[-2.546311,53.724977],[-2.546684,53.723263],[-2.547333,53.722446],[-2.546337,53.721247],[-2.544538,53.721043],[-2.543772,53.721319],[-2.542217,53.720195],[-2.54083,53.719739],[-2.541425,53.718854],[-2.5399,53.718123],[-2.539596,53.717624],[-2.539896,53.71656],[-2.53893,53.713402],[-2.54029,53.712744],[-2.540872,53.712046],[-2.540097,53.711292],[-2.541681,53.711002],[-2.543235,53.709911],[-2.541984,53.708917],[-2.541549,53.707938],[-2.542806,53.706657],[-2.54271,53.706269],[-2.54203,53.705528],[-2.542202,53.705161],[-2.540968,53.704473],[-2.540942,53.703946],[-2.54003,53.703291],[-2.53978,53.702184],[-2.537355,53.700979],[-2.536408,53.699413],[-2.534832,53.698774],[-2.535212,53.698231],[-2.532758,53.697395],[-2.531885,53.696493],[-2.530922,53.696447],[-2.529957,53.695965],[-2.529051,53.696032],[-2.527694,53.695303],[-2.525316,53.694888],[-2.523113,53.695506],[-2.522565,53.695091],[-2.521321,53.695048],[-2.521215,53.694565],[-2.520073,53.694456],[-2.518377,53.693502],[-2.51762,53.693699],[-2.517519,53.693203],[-2.516732,53.693125],[-2.515656,53.692403],[-2.515351,53.691578],[-2.516029,53.690777],[-2.515252,53.689935],[-2.516402,53.689077],[-2.517019,53.688122],[-2.516937,53.687367],[-2.517852,53.686623],[-2.517301,53.684931],[-2.518378,53.682778],[-2.517703,53.680982],[-2.518328,53.677372],[-2.520348,53.67539],[-2.524587,53.675095],[-2.525549,53.674676],[-2.526224,53.673575],[-2.526472,53.671188],[-2.528341,53.669411],[-2.529158,53.667208],[-2.532344,53.664902],[-2.528714,53.659855],[-2.52855,53.656125],[-2.526526,53.655072],[-2.525373,53.653777],[-2.525007,53.652441],[-2.523031,53.650247],[-2.52211,53.648012],[-2.521481,53.6453],[-2.52208,53.644197],[-2.52391,53.642714],[-2.524584,53.641317],[-2.520062,53.630482],[-2.518331,53.630282],[-2.514822,53.629237],[-2.511323,53.626995],[-2.525088,53.618722],[-2.529402,53.617018],[-2.529756,53.616353],[-2.531114,53.615487],[-2.533495,53.615064],[-2.53445,53.614547],[-2.537152,53.612717],[-2.538049,53.61132],[-2.540518,53.610274],[-2.542743,53.610048],[-2.544932,53.60917],[-2.546122,53.608962],[-2.547285,53.609178],[-2.547392,53.608759],[-2.549811,53.608143],[-2.550248,53.607719],[-2.5517,53.607905],[-2.552217,53.607356],[-2.552646,53.604986],[-2.555786,53.604374],[-2.555869,53.603908],[-2.556614,53.603657],[-2.55729,53.603048],[-2.55726,53.601798],[-2.557662,53.601659],[-2.55778,53.600846],[-2.558095,53.600458],[-2.55895,53.600344],[-2.559521,53.598943],[-2.56163,53.598643],[-2.569197,53.595565],[-2.574003,53.594291],[-2.573953,53.594807],[-2.57535,53.59523],[-2.575196,53.595912],[-2.575954,53.596164],[-2.575527,53.596371],[-2.57626,53.596134],[-2.576158,53.596598],[-2.576904,53.596746],[-2.576553,53.596884],[-2.576742,53.59733],[-2.578125,53.597914],[-2.577874,53.598349],[-2.57838,53.598367],[-2.578506,53.598954],[-2.579072,53.598911],[-2.578928,53.599183],[-2.579505,53.599002],[-2.580357,53.599531],[-2.580488,53.600052],[-2.580885,53.600024],[-2.580433,53.601076],[-2.579953,53.601124],[-2.580734,53.601511],[-2.58061,53.601979],[-2.581189,53.60202],[-2.581073,53.602351],[-2.581768,53.602375],[-2.581426,53.602666],[-2.58222,53.602788],[-2.581949,53.603067],[-2.582419,53.603543],[-2.583423,53.60379],[-2.582906,53.604204],[-2.583065,53.604695],[-2.584543,53.605207],[-2.58449,53.605534],[-2.585193,53.605333],[-2.586732,53.606045],[-2.587373,53.606931],[-2.586795,53.607408],[-2.587476,53.607644],[-2.587456,53.607942],[-2.587975,53.607723],[-2.58856,53.607925],[-2.588527,53.60841],[-2.589699,53.608198],[-2.5899,53.608693],[-2.591469,53.609003],[-2.591188,53.609443],[-2.59168,53.60976],[-2.595938,53.610792],[-2.59758,53.609046],[-2.600746,53.608399],[-2.601905,53.608355],[-2.602839,53.60873],[-2.60491,53.606976],[-2.608519,53.606415],[-2.611241,53.604986],[-2.61217,53.603957],[-2.613432,53.603711],[-2.615139,53.602863],[-2.615221,53.60133],[-2.615822,53.600588],[-2.615257,53.59997],[-2.616212,53.598121],[-2.617816,53.596985],[-2.617379,53.595849],[-2.618796,53.595384],[-2.619927,53.594258],[-2.620804,53.594172],[-2.621434,53.594465],[-2.622869,53.593602],[-2.623937,53.593885],[-2.625936,53.593696],[-2.627495,53.595251],[-2.628232,53.595317],[-2.628256,53.597367],[-2.629139,53.597983],[-2.629833,53.599165],[-2.631378,53.599914],[-2.631762,53.603243],[-2.632204,53.603533],[-2.631283,53.605218],[-2.63146,53.60608],[-2.632399,53.606495],[-2.632125,53.60728],[-2.633337,53.607531],[-2.634592,53.608283],[-2.636077,53.608365],[-2.636909,53.607966],[-2.63663,53.607734],[-2.63979,53.607329],[-2.640268,53.607641],[-2.641163,53.607296],[-2.642209,53.607568],[-2.64373,53.607214],[-2.646917,53.607297],[-2.647733,53.606736],[-2.650096,53.606136],[-2.652568,53.605868],[-2.655141,53.60445],[-2.658865,53.604173],[-2.65937,53.603648],[-2.660999,53.603303],[-2.663924,53.603512],[-2.664945,53.603245],[-2.666671,53.603542],[-2.667956,53.604324],[-2.669663,53.604539],[-2.669955,53.605038],[-2.6717,53.605113],[-2.673159,53.604756],[-2.675539,53.605072],[-2.676276,53.604816],[-2.677749,53.604975],[-2.677984,53.604643],[-2.679036,53.604681],[-2.679041,53.604428],[-2.680074,53.604101],[-2.683247,53.603616],[-2.684058,53.603856],[-2.685528,53.603214],[-2.686451,53.603165],[-2.688069,53.604132],[-2.690981,53.604684],[-2.695882,53.604502],[-2.696302,53.604919],[-2.696039,53.60624],[-2.697224,53.607434],[-2.698588,53.613249],[-2.699385,53.61424],[-2.697719,53.614529],[-2.695325,53.615819],[-2.694647,53.615777],[-2.694349,53.616177],[-2.69345,53.616358],[-2.69337,53.616815],[-2.692162,53.617222],[-2.692615,53.618202],[-2.69208,53.61904],[-2.691248,53.61948],[-2.690947,53.620309],[-2.691336,53.621154],[-2.692089,53.621367],[-2.692302,53.621811],[-2.691819,53.622286],[-2.692215,53.624113],[-2.691907,53.624897],[-2.694444,53.626625],[-2.696286,53.626318],[-2.696157,53.624829],[-2.695318,53.623991],[-2.69564,53.623448],[-2.696929,53.622942],[-2.700815,53.62275],[-2.703731,53.621373],[-2.704885,53.619935],[-2.704864,53.618761],[-2.709956,53.617784],[-2.712808,53.618413],[-2.721393,53.618718],[-2.726959,53.620921],[-2.734345,53.622481],[-2.735453,53.62292],[-2.736168,53.623685],[-2.743278,53.622068],[-2.749209,53.618231],[-2.756286,53.615969],[-2.758793,53.614658],[-2.759332,53.615235],[-2.760664,53.615467],[-2.760586,53.615829],[-2.761248,53.616238],[-2.761009,53.616518],[-2.764106,53.61776],[-2.765464,53.618741],[-2.766159,53.618836],[-2.766218,53.619152],[-2.767721,53.619103],[-2.768763,53.619465],[-2.769257,53.619151],[-2.770597,53.619178],[-2.771692,53.619625],[-2.773818,53.619751],[-2.77421,53.620209],[-2.775749,53.620338],[-2.775858,53.620083],[-2.777145,53.620268],[-2.779122,53.619597],[-2.780474,53.620698],[-2.780889,53.623483],[-2.792982,53.623043],[-2.788653,53.61917],[-2.788286,53.61815],[-2.787362,53.617347],[-2.788246,53.617183],[-2.78992,53.615083],[-2.790765,53.614592],[-2.79338,53.615012],[-2.795946,53.615978],[-2.796119,53.616547],[-2.797621,53.6172],[-2.797508,53.617967],[-2.798233,53.618232],[-2.797158,53.619141],[-2.7989,53.619837],[-2.798154,53.621089],[-2.799212,53.621421],[-2.800808,53.622754],[-2.801051,53.624183],[-2.800507,53.624812],[-2.80106,53.625022],[-2.802545,53.626624],[-2.805987,53.628094],[-2.807472,53.62829],[-2.80791,53.628778],[-2.807868,53.630305],[-2.80616,53.631762],[-2.805749,53.632925],[-2.807278,53.638281],[-2.806371,53.640096],[-2.806013,53.64004],[-2.805917,53.640864],[-2.81075,53.648308],[-2.80859,53.653794],[-2.808718,53.658743],[-2.809869,53.662157],[-2.808931,53.661868],[-2.81022,53.66266],[-2.81575,53.671637],[-2.816583,53.674517],[-2.818463,53.676637],[-2.818052,53.678012],[-2.818163,53.67878],[-2.820062,53.68008],[-2.822886,53.679989],[-2.82398,53.680687],[-2.823279,53.683252],[-2.822344,53.68418],[-2.821327,53.68467],[-2.819357,53.68442],[-2.818445,53.684772],[-2.818147,53.685526],[-2.818547,53.686591],[-2.819591,53.687195],[-2.818705,53.687677],[-2.815929,53.687879],[-2.814513,53.687568],[-2.809199,53.68753],[-2.808063,53.687276],[-2.807401,53.686717],[-2.806751,53.686791],[-2.805749,53.687633],[-2.804027,53.688101],[-2.795883,53.687481],[-2.79367,53.688078],[-2.793912,53.689036],[-2.791938,53.689278],[-2.789869,53.690489],[-2.787186,53.691353],[-2.778122,53.691193],[-2.776565,53.690907],[-2.770317,53.691443],[-2.766111,53.692459],[-2.76561,53.69283],[-2.750999,53.69284],[-2.748279,53.692378],[-2.746602,53.692708],[-2.74604,53.692432],[-2.744109,53.687754],[-2.742768,53.687489],[-2.742729,53.687828],[-2.741501,53.688104],[-2.737554,53.68778],[-2.737465,53.68745],[-2.734452,53.687301],[-2.732731,53.686555],[-2.730039,53.686214],[-2.732291,53.684265],[-2.729465,53.683673],[-2.72912,53.683333],[-2.731059,53.681999],[-2.731624,53.679822],[-2.733265,53.677192],[-2.733833,53.674776],[-2.73355,53.674283],[-2.732872,53.674186],[-2.731798,53.67459],[-2.730275,53.673938],[-2.719697,53.673185],[-2.717294,53.672658],[-2.715504,53.671822],[-2.712467,53.67142],[-2.710582,53.676093],[-2.70806,53.676014],[-2.708952,53.678471],[-2.708455,53.678516],[-2.708484,53.681001],[-2.70806,53.681532],[-2.707212,53.681491],[-2.70722,53.681196],[-2.70628,53.681117],[-2.705862,53.680737],[-2.705025,53.68101],[-2.704203,53.680605],[-2.703547,53.680762],[-2.703077,53.680362],[-2.700685,53.680271],[-2.700619,53.680029],[-2.696843,53.680321],[-2.695596,53.67963],[-2.694789,53.679911],[-2.694597,53.679558],[-2.692309,53.679718],[-2.691285,53.679154],[-2.690214,53.679549],[-2.689923,53.679143],[-2.689359,53.679523],[-2.688502,53.679052],[-2.685004,53.679448],[-2.683749,53.679065],[-2.683332,53.679418],[-2.68319,53.679127],[-2.68235,53.679094],[-2.681882,53.679424],[-2.680129,53.679127],[-2.679139,53.679568],[-2.676308,53.679263],[-2.673594,53.680004],[-2.671034,53.679612],[-2.667832,53.680177],[-2.667238,53.681382],[-2.664988,53.681929],[-2.660865,53.680758],[-2.658829,53.680673],[-2.659071,53.682615],[-2.658335,53.686074],[-2.6574,53.687172],[-2.657596,53.68773],[-2.656726,53.687632],[-2.655847,53.68852],[-2.657205,53.688918],[-2.657928,53.690686],[-2.659439,53.691245],[-2.661682,53.691559],[-2.663906,53.691428],[-2.666456,53.691996],[-2.673633,53.692564],[-2.675827,53.693629],[-2.677595,53.69373],[-2.677526,53.700059],[-2.676807,53.70473],[-2.675554,53.706944],[-2.673738,53.709004],[-2.67042,53.711454],[-2.662707,53.715028],[-2.658428,53.717723],[-2.65804,53.717539],[-2.658542,53.71736],[-2.658236,53.717005],[-2.65726,53.717356],[-2.656723,53.717007],[-2.656771,53.716246],[-2.655886,53.715454],[-2.65628,53.71486],[-2.655567,53.714588],[-2.656394,53.71399],[-2.655545,53.713808],[-2.655886,53.713306],[-2.656819,53.713291],[-2.656957,53.712886],[-2.655495,53.712705],[-2.654394,53.712119],[-2.653526,53.712337],[-2.651365,53.712098],[-2.647554,53.714387],[-2.646945,53.714403],[-2.64841,53.715322],[-2.647942,53.715901],[-2.637354,53.718064],[-2.632714,53.718063],[-2.629781,53.717238],[-2.629737,53.718335],[-2.629087,53.719449],[-2.628101,53.719954],[-2.627884,53.720659],[-2.625497,53.722704],[-2.622905,53.723877],[-2.623918,53.725355],[-2.624297,53.729048],[-2.61851,53.732362],[-2.616931,53.732479],[-2.610748,53.737057],[-2.610151,53.73703],[-2.61196,53.738624],[-2.608402,53.738321],[-2.607082,53.739242],[-2.605898,53.738533],[-2.60565,53.738714],[-2.60459,53.738386],[-2.604682,53.738943],[-2.602484,53.739808],[-2.602476,53.740547],[-2.600968,53.740582],[-2.601015,53.740881],[-2.600033,53.74141],[-2.599939,53.742155],[-2.595621,53.743406],[-2.594209,53.743475],[-2.590207,53.742894],[-2.587454,53.743103],[-2.585677,53.744448],[-2.584267,53.745009],[-2.583847,53.745709],[-2.582346,53.746711],[-2.579853,53.747546],[-2.578658,53.748835],[-2.577722,53.750818],[-2.576716,53.751264],[-2.573004,53.751351],[-2.572962,53.751047],[-2.569106,53.749696],[-2.567063,53.749611],[-2.563854,53.748758],[-2.561602,53.746901],[-2.562468,53.746118],[-2.561752,53.744737],[-2.56466,53.743647],[-2.564591,53.742459]],[[-2.808348,53.661689],[-2.806093,53.661675],[-2.793754,53.662694],[-2.792563,53.662512],[-2.791985,53.662023],[-2.790626,53.661668],[-2.78741,53.661734],[-2.786479,53.662176],[-2.784771,53.661788],[-2.783382,53.662],[-2.78148,53.660761],[-2.779967,53.660813],[-2.779121,53.660463],[-2.775523,53.660747],[-2.773649,53.660267],[-2.775451,53.660798],[-2.778952,53.660544],[-2.779999,53.660881],[-2.781298,53.660823],[-2.783472,53.662054],[-2.784702,53.661831],[-2.78641,53.662224],[-2.78741,53.661797],[-2.790866,53.661737],[-2.792568,53.662558],[-2.793794,53.662781],[-2.787154,53.668216],[-2.784335,53.669386],[-2.779686,53.670685],[-2.763357,53.670897],[-2.77776,53.670809],[-2.776347,53.671852],[-2.773598,53.676927],[-2.773667,53.677911],[-2.773794,53.676673],[-2.77486,53.675465],[-2.776406,53.671855],[-2.777837,53.670806],[-2.779488,53.670775],[-2.784321,53.669445],[-2.787094,53.668309],[-2.78888,53.667172],[-2.793813,53.662841],[-2.805737,53.661761],[-2.808931,53.661868],[-2.808348,53.661689]]]]}}]}