{"type":"FeatureCollection","features":[{"type":"Feature","properties":{"slug":"cotswold","gss_code":"E07000079","name":"Cotswold"},"geometry":{"type":"Polygon","coordinates":[[[-1.755942,52.101924],[-1.755472,52.101977],[-1.754936,52.101225],[-1.754005,52.100923],[-1.754685,52.10033],[-1.754384,52.099867],[-1.754822,52.099324],[-1.753631,52.097624],[-1.751815,52.097005],[-1.750908,52.095475],[-1.747964,52.094087],[-1.747035,52.093287],[-1.740394,52.091426],[-1.73856,52.091358],[-1.732916,52.094971],[-1.732185,52.096962],[-1.730226,52.09794],[-1.729868,52.098936],[-1.728729,52.099494],[-1.728561,52.10012],[-1.728543,52.097998],[-1.729635,52.095255],[-1.73019,52.095246],[-1.730508,52.092786],[-1.730165,52.091582],[-1.729264,52.091977],[-1.728683,52.091725],[-1.728398,52.090974],[-1.728848,52.08876],[-1.728085,52.088721],[-1.728071,52.088384],[-1.7291,52.085444],[-1.729129,52.084131],[-1.729452,52.084066],[-1.729067,52.081514],[-1.728184,52.081448],[-1.730656,52.073291],[-1.728118,52.072728],[-1.728811,52.071573],[-1.727748,52.071328],[-1.727128,52.070703],[-1.72488,52.069991],[-1.724267,52.069492],[-1.716993,52.06811],[-1.714306,52.066701],[-1.713112,52.066553],[-1.711841,52.06661],[-1.712659,52.068027],[-1.712213,52.070508],[-1.709859,52.073306],[-1.70789,52.072507],[-1.701699,52.072834],[-1.701485,52.070357],[-1.703345,52.067664],[-1.704064,52.063138],[-1.70545,52.061456],[-1.705053,52.059634],[-1.702958,52.05741],[-1.702493,52.056177],[-1.699673,52.054648],[-1.692153,52.05435],[-1.69018,52.054736],[-1.690013,52.053181],[-1.688636,52.051833],[-1.690606,52.051448],[-1.691164,52.048243],[-1.693041,52.045006],[-1.694796,52.042939],[-1.695002,52.040525],[-1.693981,52.039528],[-1.691742,52.039711],[-1.691861,52.039351],[-1.691291,52.039485],[-1.690819,52.038795],[-1.68953,52.038326],[-1.689736,52.038185],[-1.687445,52.037467],[-1.687385,52.037799],[-1.685963,52.037685],[-1.685712,52.037379],[-1.683725,52.037799],[-1.683265,52.037326],[-1.683103,52.037538],[-1.681086,52.037395],[-1.679405,52.036795],[-1.678345,52.036989],[-1.678117,52.036496],[-1.677553,52.036706],[-1.677731,52.03704],[-1.676401,52.036717],[-1.67599,52.036958],[-1.675872,52.036697],[-1.675276,52.036804],[-1.675417,52.03653],[-1.673394,52.036025],[-1.673287,52.036309],[-1.671762,52.036275],[-1.670653,52.036713],[-1.667452,52.036244],[-1.666049,52.034404],[-1.666017,52.033548],[-1.665705,52.033584],[-1.66583,52.033281],[-1.664953,52.032583],[-1.66481,52.031775],[-1.663824,52.031267],[-1.663305,52.031646],[-1.660103,52.031504],[-1.660331,52.031784],[-1.659975,52.032],[-1.659102,52.031644],[-1.656547,52.032115],[-1.656045,52.032426],[-1.656369,52.032703],[-1.655679,52.034713],[-1.653582,52.0354],[-1.652246,52.035363],[-1.652174,52.034959],[-1.651826,52.035248],[-1.651366,52.034922],[-1.651272,52.035208],[-1.650888,52.035172],[-1.650221,52.03467],[-1.649275,52.034648],[-1.649345,52.034306],[-1.648089,52.034005],[-1.648083,52.034246],[-1.647116,52.034493],[-1.646337,52.035099],[-1.646106,52.034661],[-1.645489,52.034805],[-1.645417,52.034237],[-1.645236,52.034624],[-1.644465,52.034418],[-1.644054,52.034943],[-1.644638,52.035438],[-1.644179,52.035718],[-1.643614,52.03576],[-1.643944,52.035286],[-1.6432,52.035326],[-1.639213,52.03724],[-1.638507,52.036753],[-1.637945,52.037057],[-1.63702,52.036979],[-1.636941,52.037498],[-1.636648,52.037021],[-1.635695,52.037148],[-1.636031,52.036906],[-1.635572,52.036636],[-1.6349,52.036992],[-1.632269,52.03589],[-1.63127,52.036455],[-1.629705,52.036753],[-1.629132,52.037274],[-1.628479,52.036874],[-1.628093,52.037418],[-1.626854,52.0379],[-1.626775,52.038435],[-1.62446,52.038953],[-1.624101,52.038507],[-1.625111,52.037671],[-1.624733,52.037356],[-1.625078,52.037123],[-1.62415,52.036694],[-1.624156,52.036089],[-1.622503,52.036043],[-1.621416,52.035143],[-1.620668,52.035243],[-1.620631,52.034803],[-1.621265,52.034686],[-1.620614,52.034405],[-1.619277,52.034995],[-1.618938,52.034182],[-1.617496,52.033366],[-1.618054,52.033153],[-1.617598,52.032613],[-1.617617,52.031569],[-1.618587,52.03042],[-1.618831,52.029034],[-1.62011,52.027738],[-1.620824,52.027766],[-1.621592,52.027219],[-1.624539,52.026377],[-1.627039,52.027365],[-1.628337,52.027192],[-1.63448,52.022825],[-1.635221,52.021951],[-1.638628,52.020531],[-1.640308,52.018758],[-1.642928,52.014714],[-1.643296,52.012812],[-1.642045,52.01113],[-1.64193,52.010293],[-1.642879,52.009223],[-1.651927,52.005547],[-1.655652,52.003126],[-1.659086,51.999856],[-1.661338,51.999332],[-1.665751,51.997405],[-1.669934,51.993165],[-1.669279,51.989219],[-1.665754,51.987489],[-1.664639,51.985102],[-1.664099,51.984928],[-1.664929,51.983167],[-1.665336,51.980563],[-1.667521,51.978399],[-1.668943,51.975273],[-1.66608,51.971131],[-1.664279,51.96645],[-1.662529,51.964005],[-1.660959,51.963348],[-1.657223,51.963114],[-1.652375,51.961512],[-1.653467,51.959847],[-1.655179,51.959815],[-1.655367,51.957503],[-1.652334,51.957684],[-1.648927,51.958925],[-1.645768,51.956984],[-1.635313,51.956829],[-1.632491,51.955651],[-1.628869,51.9532],[-1.625354,51.949933],[-1.623035,51.946551],[-1.615189,51.937682],[-1.617284,51.937291],[-1.61991,51.937473],[-1.623598,51.935738],[-1.628257,51.933133],[-1.630007,51.931525],[-1.633764,51.929197],[-1.634021,51.929338],[-1.636118,51.927453],[-1.637834,51.926703],[-1.640021,51.925114],[-1.643369,51.923725],[-1.64553,51.922294],[-1.643845,51.922001],[-1.64282,51.922199],[-1.641182,51.921562],[-1.641671,51.921203],[-1.641242,51.920596],[-1.641845,51.920095],[-1.641459,51.919773],[-1.642611,51.919035],[-1.643003,51.919446],[-1.643217,51.918919],[-1.644837,51.918692],[-1.644869,51.918093],[-1.645504,51.917782],[-1.645131,51.917571],[-1.644551,51.917772],[-1.644462,51.916982],[-1.6434,51.916713],[-1.644014,51.916483],[-1.643574,51.916087],[-1.644707,51.915478],[-1.643972,51.914956],[-1.645373,51.914865],[-1.644589,51.914173],[-1.644889,51.913716],[-1.644221,51.914015],[-1.644336,51.913487],[-1.643705,51.913581],[-1.643916,51.913058],[-1.642664,51.912702],[-1.641439,51.913717],[-1.640763,51.912825],[-1.640657,51.913386],[-1.63987,51.912858],[-1.639149,51.913069],[-1.639117,51.912514],[-1.638347,51.912466],[-1.637952,51.912037],[-1.637429,51.912189],[-1.637443,51.912957],[-1.636904,51.912349],[-1.636252,51.912806],[-1.634841,51.912883],[-1.634705,51.912258],[-1.635364,51.912013],[-1.634183,51.911587],[-1.636069,51.910661],[-1.635095,51.910403],[-1.635889,51.910014],[-1.635115,51.909797],[-1.635299,51.909336],[-1.634662,51.909332],[-1.635024,51.908817],[-1.634695,51.908302],[-1.635189,51.907816],[-1.63496,51.907394],[-1.635967,51.907105],[-1.633684,51.905697],[-1.635634,51.904389],[-1.635013,51.903921],[-1.635436,51.90384],[-1.635166,51.902692],[-1.635769,51.9019],[-1.633583,51.900045],[-1.634462,51.899767],[-1.634249,51.899538],[-1.633253,51.899583],[-1.633051,51.899225],[-1.634177,51.898508],[-1.637792,51.897309],[-1.639544,51.897121],[-1.641549,51.895537],[-1.64282,51.895388],[-1.642709,51.895712],[-1.643505,51.895888],[-1.644224,51.894861],[-1.644567,51.894958],[-1.644883,51.894601],[-1.645026,51.8949],[-1.647471,51.894903],[-1.648716,51.895441],[-1.651367,51.895872],[-1.6532,51.89697],[-1.655571,51.896602],[-1.657589,51.897188],[-1.657641,51.896643],[-1.658652,51.896551],[-1.658967,51.895653],[-1.660254,51.895172],[-1.660317,51.894813],[-1.66167,51.894447],[-1.661269,51.893537],[-1.663021,51.892226],[-1.66255,51.891712],[-1.66262,51.887344],[-1.663925,51.886092],[-1.666014,51.885026],[-1.666978,51.882962],[-1.666873,51.881456],[-1.668957,51.881504],[-1.669262,51.879566],[-1.668473,51.879604],[-1.668952,51.878059],[-1.667125,51.877986],[-1.667112,51.877],[-1.668041,51.876338],[-1.671649,51.875126],[-1.673573,51.874051],[-1.674462,51.872576],[-1.675569,51.872632],[-1.678866,51.869825],[-1.680782,51.869163],[-1.683547,51.868716],[-1.686351,51.866292],[-1.686868,51.8655],[-1.685052,51.864316],[-1.687191,51.862827],[-1.681157,51.85964],[-1.680607,51.858742],[-1.680912,51.858041],[-1.680589,51.85473],[-1.676385,51.85031],[-1.678685,51.849467],[-1.679207,51.845994],[-1.681128,51.841904],[-1.683053,51.840324],[-1.685427,51.836932],[-1.686462,51.834456],[-1.68604,51.830749],[-1.684606,51.825572],[-1.684163,51.825687],[-1.683126,51.820294],[-1.68112,51.816053],[-1.678093,51.817023],[-1.67686,51.817025],[-1.677814,51.812957],[-1.680273,51.807127],[-1.683753,51.801338],[-1.685738,51.799863],[-1.686876,51.798239],[-1.69345,51.79415],[-1.702148,51.790995],[-1.707721,51.7883],[-1.713849,51.786126],[-1.719489,51.783212],[-1.717526,51.78152],[-1.708404,51.777521],[-1.700705,51.770584],[-1.69925,51.764631],[-1.699649,51.764531],[-1.69848,51.761606],[-1.696431,51.757142],[-1.693678,51.753662],[-1.695652,51.752308],[-1.694375,51.751013],[-1.694732,51.750757],[-1.693925,51.749073],[-1.694866,51.748575],[-1.691644,51.746661],[-1.692678,51.746001],[-1.688305,51.741986],[-1.687021,51.739884],[-1.68904,51.739146],[-1.687485,51.736798],[-1.686626,51.734136],[-1.687391,51.734025],[-1.687173,51.733391],[-1.685791,51.733394],[-1.685508,51.730634],[-1.686799,51.728519],[-1.690108,51.726389],[-1.695818,51.723773],[-1.695588,51.722974],[-1.694852,51.722556],[-1.695107,51.722381],[-1.693706,51.721588],[-1.692586,51.72002],[-1.690719,51.719223],[-1.69098,51.719083],[-1.688819,51.717382],[-1.689778,51.716794],[-1.688917,51.716541],[-1.689018,51.71604],[-1.688476,51.715732],[-1.688879,51.715106],[-1.687675,51.715115],[-1.687301,51.714555],[-1.687902,51.714066],[-1.687599,51.713705],[-1.688359,51.713973],[-1.688768,51.71361],[-1.688209,51.713288],[-1.688138,51.713616],[-1.687835,51.713555],[-1.687679,51.712826],[-1.687318,51.712777],[-1.688,51.712045],[-1.686166,51.710176],[-1.681892,51.709037],[-1.67531,51.703761],[-1.666523,51.698365],[-1.6647,51.696879],[-1.662933,51.696746],[-1.662441,51.696437],[-1.659028,51.697504],[-1.657438,51.696451],[-1.656215,51.693816],[-1.655292,51.693629],[-1.655068,51.692486],[-1.655484,51.691455],[-1.654221,51.690281],[-1.651092,51.688802],[-1.650844,51.688213],[-1.651816,51.687525],[-1.653391,51.687181],[-1.648838,51.685414],[-1.648254,51.684087],[-1.652655,51.681525],[-1.655577,51.681808],[-1.659563,51.680756],[-1.660551,51.681289],[-1.66189,51.680363],[-1.66228,51.680757],[-1.662167,51.68154],[-1.663293,51.681295],[-1.66531,51.681776],[-1.665862,51.68105],[-1.667113,51.68104],[-1.668459,51.680438],[-1.669079,51.681271],[-1.672029,51.681948],[-1.672653,51.682702],[-1.67354,51.68224],[-1.674649,51.682223],[-1.675208,51.682535],[-1.676264,51.684211],[-1.67439,51.683709],[-1.673863,51.683984],[-1.673769,51.684767],[-1.676025,51.686847],[-1.675008,51.687328],[-1.676015,51.688407],[-1.677325,51.689149],[-1.677634,51.688892],[-1.679184,51.68916],[-1.679113,51.689397],[-1.681338,51.690397],[-1.683135,51.690126],[-1.684166,51.691193],[-1.686839,51.69122],[-1.688489,51.69217],[-1.690775,51.692075],[-1.693565,51.692658],[-1.696611,51.6921],[-1.697669,51.690849],[-1.697317,51.69038],[-1.69797,51.690242],[-1.698191,51.689235],[-1.69904,51.688865],[-1.69897,51.687668],[-1.699338,51.687459],[-1.699651,51.687758],[-1.700585,51.687797],[-1.701102,51.687013],[-1.700648,51.686444],[-1.702117,51.686041],[-1.702692,51.685934],[-1.70316,51.686393],[-1.703903,51.686454],[-1.703703,51.685898],[-1.705925,51.684725],[-1.706022,51.683441],[-1.707373,51.683386],[-1.709572,51.681687],[-1.709289,51.68102],[-1.709718,51.680095],[-1.708791,51.679492],[-1.709377,51.678819],[-1.709294,51.677908],[-1.710185,51.677278],[-1.709407,51.676317],[-1.710547,51.67584],[-1.711182,51.674851],[-1.710989,51.671791],[-1.712796,51.67193],[-1.717383,51.670994],[-1.720799,51.668816],[-1.72131,51.6689],[-1.721598,51.669667],[-1.722257,51.669704],[-1.722951,51.668989],[-1.724553,51.668753],[-1.724674,51.66813],[-1.726652,51.667838],[-1.727488,51.667209],[-1.728116,51.667244],[-1.728585,51.667777],[-1.72948,51.667441],[-1.730272,51.667762],[-1.731607,51.667447],[-1.735597,51.667706],[-1.737078,51.667328],[-1.739313,51.66742],[-1.740573,51.666717],[-1.740505,51.666066],[-1.741631,51.666063],[-1.742115,51.665381],[-1.744653,51.664744],[-1.744908,51.664094],[-1.749053,51.662985],[-1.749287,51.663319],[-1.750124,51.662974],[-1.751008,51.663323],[-1.751667,51.662729],[-1.752845,51.663031],[-1.753222,51.662299],[-1.753822,51.662173],[-1.754614,51.662622],[-1.757875,51.66319],[-1.760072,51.663014],[-1.760963,51.663282],[-1.761406,51.663105],[-1.761472,51.662416],[-1.766406,51.662708],[-1.768308,51.663983],[-1.768486,51.665664],[-1.770277,51.667969],[-1.77285,51.667891],[-1.773552,51.668367],[-1.774594,51.668251],[-1.776954,51.669372],[-1.777899,51.669108],[-1.781291,51.669153],[-1.784362,51.667892],[-1.7886,51.667007],[-1.790689,51.668603],[-1.792063,51.670361],[-1.795437,51.672794],[-1.794698,51.676179],[-1.794297,51.676171],[-1.794439,51.676772],[-1.795208,51.67725],[-1.796611,51.677084],[-1.799357,51.68084],[-1.801182,51.685397],[-1.802616,51.685365],[-1.803694,51.688269],[-1.806155,51.690545],[-1.80718,51.69252],[-1.806628,51.692821],[-1.811152,51.697479],[-1.807466,51.699124],[-1.811947,51.702004],[-1.811969,51.703122],[-1.818514,51.702335],[-1.819327,51.699533],[-1.818801,51.699042],[-1.819346,51.698188],[-1.818726,51.696825],[-1.819417,51.695983],[-1.819398,51.694334],[-1.818737,51.692958],[-1.816993,51.691301],[-1.815335,51.688628],[-1.813656,51.687804],[-1.812481,51.686309],[-1.815875,51.681366],[-1.816106,51.680357],[-1.815755,51.679747],[-1.817186,51.679576],[-1.820758,51.677763],[-1.820541,51.677396],[-1.821748,51.676768],[-1.82142,51.675933],[-1.822001,51.675378],[-1.822448,51.675397],[-1.823286,51.673543],[-1.823075,51.673044],[-1.822231,51.673031],[-1.821885,51.672669],[-1.821072,51.672783],[-1.821231,51.672048],[-1.820011,51.671014],[-1.818346,51.671178],[-1.818553,51.670566],[-1.817626,51.669486],[-1.81796,51.669213],[-1.816874,51.668044],[-1.816513,51.664815],[-1.815285,51.663544],[-1.815977,51.662959],[-1.819612,51.662705],[-1.834486,51.657507],[-1.83747,51.656985],[-1.84011,51.656134],[-1.846521,51.656487],[-1.850611,51.656286],[-1.8512,51.657871],[-1.852863,51.659591],[-1.853138,51.660555],[-1.853669,51.660767],[-1.853268,51.660982],[-1.854329,51.661925],[-1.857452,51.662206],[-1.860538,51.664859],[-1.860814,51.666671],[-1.860241,51.66842],[-1.862852,51.669992],[-1.864895,51.670624],[-1.865571,51.673508],[-1.866419,51.674434],[-1.868828,51.675155],[-1.868795,51.675865],[-1.872457,51.678736],[-1.873884,51.68259],[-1.878774,51.681874],[-1.882338,51.680603],[-1.882852,51.680908],[-1.8933,51.676901],[-1.895132,51.676963],[-1.89902,51.67969],[-1.899656,51.678858],[-1.899805,51.677744],[-1.898498,51.676768],[-1.8969,51.674281],[-1.896769,51.672774],[-1.894747,51.670498],[-1.893954,51.670222],[-1.89198,51.668427],[-1.891775,51.666909],[-1.888439,51.665822],[-1.887868,51.665225],[-1.889205,51.664898],[-1.888482,51.664484],[-1.888832,51.664174],[-1.888107,51.66255],[-1.888668,51.661997],[-1.887869,51.661733],[-1.887996,51.660988],[-1.887107,51.660584],[-1.887392,51.660041],[-1.886677,51.660027],[-1.886724,51.659356],[-1.876267,51.652981],[-1.87676,51.652478],[-1.876611,51.651549],[-1.877351,51.651965],[-1.880703,51.652377],[-1.882266,51.650916],[-1.884318,51.649885],[-1.88615,51.64928],[-1.887999,51.649191],[-1.888404,51.648865],[-1.892224,51.651127],[-1.895107,51.652332],[-1.89574,51.653061],[-1.903875,51.65602],[-1.905656,51.655528],[-1.908812,51.656441],[-1.908852,51.65518],[-1.915282,51.655861],[-1.920936,51.657231],[-1.92185,51.658054],[-1.921869,51.658705],[-1.926756,51.660217],[-1.925719,51.661123],[-1.928622,51.661547],[-1.938921,51.667812],[-1.938545,51.668132],[-1.939121,51.669154],[-1.941279,51.669808],[-1.94206,51.670417],[-1.942564,51.670023],[-1.945126,51.669823],[-1.947244,51.669135],[-1.949464,51.667422],[-1.952221,51.667829],[-1.951867,51.667169],[-1.952441,51.665474],[-1.954906,51.665356],[-1.954626,51.662569],[-1.958652,51.661102],[-1.957946,51.659676],[-1.962968,51.658687],[-1.962154,51.656637],[-1.961246,51.656853],[-1.960858,51.656182],[-1.950674,51.637035],[-1.952259,51.636865],[-1.952233,51.637407],[-1.954102,51.637886],[-1.957287,51.637917],[-1.958468,51.638615],[-1.960321,51.638954],[-1.964851,51.638806],[-1.968644,51.639951],[-1.974446,51.638855],[-1.97458,51.63838],[-1.976428,51.638317],[-1.977199,51.63793],[-1.976469,51.643253],[-1.980214,51.642881],[-1.983032,51.643479],[-1.984838,51.643161],[-1.985812,51.643871],[-1.986534,51.645652],[-1.987655,51.646413],[-1.991228,51.647504],[-1.991551,51.648489],[-1.991259,51.648974],[-1.991844,51.649605],[-1.993733,51.649653],[-1.995311,51.651377],[-1.997284,51.651297],[-2.00191,51.649141],[-2.003109,51.649031],[-2.006154,51.649349],[-2.010493,51.648914],[-2.012797,51.65068],[-2.014443,51.650748],[-2.015101,51.650368],[-2.020133,51.652614],[-2.020902,51.653669],[-2.021157,51.655095],[-2.024596,51.654282],[-2.025544,51.655272],[-2.027794,51.656381],[-2.027996,51.656756],[-2.031817,51.658318],[-2.03366,51.658455],[-2.040783,51.661844],[-2.046201,51.665454],[-2.046093,51.665937],[-2.047354,51.666678],[-2.047086,51.666934],[-2.053399,51.669713],[-2.054675,51.671388],[-2.057174,51.672443],[-2.073477,51.659498],[-2.105639,51.632957],[-2.107376,51.631559],[-2.107789,51.631641],[-2.108112,51.630907],[-2.113719,51.626323],[-2.117533,51.622578],[-2.120663,51.620603],[-2.134519,51.607915],[-2.152553,51.590326],[-2.15424,51.591372],[-2.156631,51.592006],[-2.158124,51.593501],[-2.162008,51.593458],[-2.167682,51.59455],[-2.167865,51.594955],[-2.170893,51.595723],[-2.174652,51.596145],[-2.175549,51.596508],[-2.175892,51.597036],[-2.176437,51.596909],[-2.176692,51.597471],[-2.177383,51.597325],[-2.179527,51.600014],[-2.182809,51.599388],[-2.181062,51.596508],[-2.183744,51.595861],[-2.183318,51.594947],[-2.190024,51.592476],[-2.192087,51.594231],[-2.19246,51.595813],[-2.194899,51.595535],[-2.201264,51.596214],[-2.206678,51.595941],[-2.205843,51.600475],[-2.206098,51.601484],[-2.207516,51.603414],[-2.210841,51.602955],[-2.212755,51.601243],[-2.217954,51.599159],[-2.222532,51.596184],[-2.225895,51.595186],[-2.230542,51.595084],[-2.235641,51.593985],[-2.241904,51.592092],[-2.241134,51.589691],[-2.241598,51.589636],[-2.242565,51.588262],[-2.244669,51.583561],[-2.244996,51.583548],[-2.245098,51.581383],[-2.250726,51.582055],[-2.251146,51.583425],[-2.256816,51.582797],[-2.264203,51.583021],[-2.267074,51.582476],[-2.267405,51.582688],[-2.268924,51.581684],[-2.269526,51.581823],[-2.271238,51.578619],[-2.27263,51.577557],[-2.274473,51.578911],[-2.274329,51.579143],[-2.276562,51.579896],[-2.278669,51.577803],[-2.282746,51.578517],[-2.281278,51.579622],[-2.282049,51.580701],[-2.280716,51.581044],[-2.282072,51.582268],[-2.284933,51.583242],[-2.285285,51.582747],[-2.285756,51.583064],[-2.287278,51.583157],[-2.286551,51.584471],[-2.284593,51.584151],[-2.283503,51.584964],[-2.286008,51.585534],[-2.287672,51.586583],[-2.290528,51.587414],[-2.291005,51.58693],[-2.292106,51.587382],[-2.291873,51.587703],[-2.293425,51.587702],[-2.293029,51.588302],[-2.294086,51.588574],[-2.2927,51.589964],[-2.290448,51.590968],[-2.2893,51.592361],[-2.29023,51.59255],[-2.289854,51.593204],[-2.291637,51.593696],[-2.290125,51.596515],[-2.287596,51.599318],[-2.287215,51.600171],[-2.287507,51.601216],[-2.286712,51.603131],[-2.285181,51.604735],[-2.280822,51.611533],[-2.278691,51.613021],[-2.274325,51.614587],[-2.275793,51.615458],[-2.275872,51.616794],[-2.276852,51.619149],[-2.278298,51.620218],[-2.278074,51.620494],[-2.279689,51.620936],[-2.279328,51.621188],[-2.282213,51.622189],[-2.286312,51.627884],[-2.287168,51.628447],[-2.28768,51.62815],[-2.288241,51.628354],[-2.289176,51.62951],[-2.290247,51.630315],[-2.290773,51.6303],[-2.290864,51.630622],[-2.292284,51.630337],[-2.29376,51.632514],[-2.299671,51.6316],[-2.308526,51.628005],[-2.308174,51.627762],[-2.309097,51.627548],[-2.310327,51.626464],[-2.31225,51.626161],[-2.314331,51.625062],[-2.314785,51.625505],[-2.316414,51.625517],[-2.317473,51.626538],[-2.320261,51.627568],[-2.321459,51.630236],[-2.322861,51.631582],[-2.322624,51.632536],[-2.323569,51.632974],[-2.322998,51.63475],[-2.322323,51.635408],[-2.317972,51.637038],[-2.31713,51.637095],[-2.316231,51.636626],[-2.313642,51.638168],[-2.311337,51.638845],[-2.31063,51.639619],[-2.309092,51.640397],[-2.307171,51.642898],[-2.309687,51.642787],[-2.310159,51.643701],[-2.312293,51.644083],[-2.312507,51.644722],[-2.315275,51.645833],[-2.313358,51.647543],[-2.310944,51.648355],[-2.309725,51.649257],[-2.307753,51.650043],[-2.304287,51.652231],[-2.302794,51.653616],[-2.299412,51.653199],[-2.298333,51.654465],[-2.296893,51.654521],[-2.296945,51.654829],[-2.295574,51.654969],[-2.295782,51.655433],[-2.292832,51.656157],[-2.293052,51.657846],[-2.292777,51.658283],[-2.291806,51.658165],[-2.291742,51.659657],[-2.292408,51.659519],[-2.292166,51.66015],[-2.291698,51.660253],[-2.291492,51.659947],[-2.290058,51.661178],[-2.289419,51.662201],[-2.289515,51.663239],[-2.287425,51.663505],[-2.287266,51.665047],[-2.285824,51.665524],[-2.283466,51.66572],[-2.283425,51.666831],[-2.289697,51.669458],[-2.286736,51.669932],[-2.28649,51.669472],[-2.283849,51.670048],[-2.284502,51.671567],[-2.283886,51.672024],[-2.282634,51.672099],[-2.281798,51.673643],[-2.283027,51.674247],[-2.284906,51.673308],[-2.285476,51.674211],[-2.286145,51.674272],[-2.286012,51.67458],[-2.286445,51.674729],[-2.285792,51.677473],[-2.286853,51.678396],[-2.287164,51.680636],[-2.285689,51.679291],[-2.284321,51.67957],[-2.285165,51.680394],[-2.285362,51.681411],[-2.280256,51.681941],[-2.28025,51.681449],[-2.276955,51.680483],[-2.276384,51.681365],[-2.276154,51.680635],[-2.271529,51.682887],[-2.26842,51.681466],[-2.267619,51.680257],[-2.265337,51.678279],[-2.258682,51.677241],[-2.247016,51.676308],[-2.246612,51.674284],[-2.244336,51.673762],[-2.24249,51.673946],[-2.243276,51.672109],[-2.242476,51.670837],[-2.240291,51.66899],[-2.24032,51.668484],[-2.238501,51.667338],[-2.23941,51.666858],[-2.237848,51.666627],[-2.237531,51.66538],[-2.235787,51.665159],[-2.235789,51.663171],[-2.234069,51.662958],[-2.234053,51.662455],[-2.233591,51.662269],[-2.232346,51.662206],[-2.232697,51.660931],[-2.226687,51.660166],[-2.219298,51.659737],[-2.21327,51.660734],[-2.20265,51.659724],[-2.202592,51.659948],[-2.197296,51.659696],[-2.196954,51.660562],[-2.192328,51.659763],[-2.191454,51.662053],[-2.18875,51.66507],[-2.187899,51.667515],[-2.18778,51.669689],[-2.188162,51.670132],[-2.187549,51.670288],[-2.188481,51.670674],[-2.190717,51.672635],[-2.194877,51.672063],[-2.196406,51.67268],[-2.19815,51.673989],[-2.200606,51.674549],[-2.202347,51.67725],[-2.201989,51.67898],[-2.20472,51.681482],[-2.206191,51.681956],[-2.210052,51.681837],[-2.211797,51.682183],[-2.206684,51.685756],[-2.204938,51.688741],[-2.201888,51.689319],[-2.201426,51.689889],[-2.200499,51.689977],[-2.199874,51.691322],[-2.200623,51.69284],[-2.196552,51.692523],[-2.195901,51.691745],[-2.193751,51.69123],[-2.193291,51.690728],[-2.189181,51.691559],[-2.187868,51.6904],[-2.187489,51.688385],[-2.182869,51.688822],[-2.182268,51.688719],[-2.180815,51.687619],[-2.177177,51.687656],[-2.175171,51.690748],[-2.172562,51.690639],[-2.172218,51.690981],[-2.171486,51.690886],[-2.171514,51.690347],[-2.168309,51.690298],[-2.168274,51.689986],[-2.16672,51.690224],[-2.166555,51.689785],[-2.164128,51.690556],[-2.160603,51.687219],[-2.158946,51.686385],[-2.15288,51.688926],[-2.151968,51.690086],[-2.149909,51.689379],[-2.150259,51.689785],[-2.149415,51.690183],[-2.149696,51.690961],[-2.149286,51.692001],[-2.146219,51.694196],[-2.140877,51.69889],[-2.140768,51.699322],[-2.135916,51.698922],[-2.129902,51.69729],[-2.129145,51.700714],[-2.126037,51.702827],[-2.12404,51.704923],[-2.123727,51.70618],[-2.125119,51.707464],[-2.129345,51.709314],[-2.13109,51.708732],[-2.133227,51.708602],[-2.133086,51.711778],[-2.132328,51.711898],[-2.133091,51.714696],[-2.132509,51.714815],[-2.133542,51.71778],[-2.134054,51.718158],[-2.133458,51.718221],[-2.13329,51.718654],[-2.13447,51.723216],[-2.13041,51.723895],[-2.127002,51.724925],[-2.124684,51.724455],[-2.120664,51.725027],[-2.117688,51.724704],[-2.116729,51.725056],[-2.112447,51.725395],[-2.110062,51.726024],[-2.108083,51.725486],[-2.107929,51.725701],[-2.105885,51.72549],[-2.104913,51.725697],[-2.104552,51.725417],[-2.104175,51.72562],[-2.102414,51.725175],[-2.098523,51.726275],[-2.0984,51.726676],[-2.09707,51.727124],[-2.091569,51.72823],[-2.090024,51.729059],[-2.088449,51.729212],[-2.084735,51.72833],[-2.083853,51.728693],[-2.083324,51.729443],[-2.081628,51.729724],[-2.083282,51.731552],[-2.082959,51.732275],[-2.083823,51.732051],[-2.084539,51.732408],[-2.083892,51.73313],[-2.084115,51.734869],[-2.083582,51.735864],[-2.080358,51.734585],[-2.077214,51.736064],[-2.075207,51.734902],[-2.074863,51.73437],[-2.073946,51.734972],[-2.071987,51.735507],[-2.072036,51.736663],[-2.070403,51.737842],[-2.068624,51.738461],[-2.068772,51.73909],[-2.070749,51.739498],[-2.077554,51.739126],[-2.07996,51.739293],[-2.080252,51.743677],[-2.083157,51.744656],[-2.088653,51.745221],[-2.089597,51.747006],[-2.092725,51.746202],[-2.096335,51.744585],[-2.097471,51.743666],[-2.09865,51.741934],[-2.100671,51.741517],[-2.100468,51.740747],[-2.101921,51.74102],[-2.103624,51.742837],[-2.105867,51.743963],[-2.106304,51.744902],[-2.106297,51.746738],[-2.107158,51.747586],[-2.106115,51.749952],[-2.1067,51.750367],[-2.107134,51.752068],[-2.105585,51.7538],[-2.105695,51.754612],[-2.1067,51.755643],[-2.106179,51.757476],[-2.104394,51.758731],[-2.103644,51.759709],[-2.103788,51.762143],[-2.102958,51.764151],[-2.10371,51.766032],[-2.102703,51.767284],[-2.100817,51.766425],[-2.099104,51.766145],[-2.092974,51.766104],[-2.091291,51.765665],[-2.089726,51.765684],[-2.083311,51.766744],[-2.079777,51.76767],[-2.07381,51.768385],[-2.07297,51.769744],[-2.074062,51.770181],[-2.076859,51.770566],[-2.076771,51.772073],[-2.07594,51.773265],[-2.076356,51.774001],[-2.077756,51.774752],[-2.078292,51.774627],[-2.07922,51.775058],[-2.080012,51.776045],[-2.079483,51.777285],[-2.080769,51.778321],[-2.082754,51.778455],[-2.083124,51.780409],[-2.08251,51.78111],[-2.080983,51.781811],[-2.082823,51.782623],[-2.083539,51.783645],[-2.083181,51.785108],[-2.083631,51.786248],[-2.082951,51.786963],[-2.084045,51.78811],[-2.083845,51.788911],[-2.089507,51.790881],[-2.092646,51.792409],[-2.098374,51.793178],[-2.098859,51.794259],[-2.100227,51.795129],[-2.10134,51.795506],[-2.105006,51.795853],[-2.105684,51.797002],[-2.106924,51.797177],[-2.108887,51.796784],[-2.110949,51.798986],[-2.112575,51.799502],[-2.114051,51.799051],[-2.115636,51.799458],[-2.117424,51.800616],[-2.119502,51.803362],[-2.1194,51.804311],[-2.118838,51.804611],[-2.118231,51.805911],[-2.117593,51.809163],[-2.121887,51.809569],[-2.123695,51.8102],[-2.128824,51.815807],[-2.132687,51.816601],[-2.134924,51.817616],[-2.135431,51.818893],[-2.134408,51.819317],[-2.134254,51.819919],[-2.131971,51.819369],[-2.121177,51.81956],[-2.117423,51.821092],[-2.114895,51.82279],[-2.113611,51.824648],[-2.1141,51.826901],[-2.111577,51.827232],[-2.110583,51.82821],[-2.111146,51.828502],[-2.111134,51.830668],[-2.111613,51.83179],[-2.110292,51.831783],[-2.111565,51.833418],[-2.113136,51.83445],[-2.110239,51.833813],[-2.107833,51.833906],[-2.105867,51.834676],[-2.100986,51.837571],[-2.100137,51.840215],[-2.100824,51.841253],[-2.10016,51.841659],[-2.100339,51.842329],[-2.098732,51.842992],[-2.098733,51.84336],[-2.104722,51.842248],[-2.107529,51.842778],[-2.102889,51.845312],[-2.103549,51.845962],[-2.101746,51.847283],[-2.101127,51.847398],[-2.098526,51.850182],[-2.096882,51.851224],[-2.097815,51.854431],[-2.098556,51.855534],[-2.09841,51.85656],[-2.096564,51.856194],[-2.094667,51.856385],[-2.091957,51.856128],[-2.091129,51.856675],[-2.089291,51.856798],[-2.087456,51.856367],[-2.083922,51.854625],[-2.082138,51.854922],[-2.080102,51.855715],[-2.080004,51.856245],[-2.080487,51.856544],[-2.079978,51.856905],[-2.074608,51.858261],[-2.074497,51.858689],[-2.071926,51.860193],[-2.070674,51.861873],[-2.070289,51.864432],[-2.070757,51.865027],[-2.068357,51.864965],[-2.065874,51.864393],[-2.061946,51.864697],[-2.059365,51.864443],[-2.056168,51.862931],[-2.052018,51.859673],[-2.051088,51.859989],[-2.050248,51.85925],[-2.048117,51.858369],[-2.047254,51.858341],[-2.04183,51.859508],[-2.038523,51.860708],[-2.036991,51.86168],[-2.036543,51.864273],[-2.031728,51.8642],[-2.028036,51.865005],[-2.026948,51.864312],[-2.025252,51.864284],[-2.025347,51.865742],[-2.023918,51.86848],[-2.024793,51.870551],[-2.023278,51.872851],[-2.022104,51.876015],[-2.02111,51.87626],[-2.017953,51.879487],[-2.017196,51.879776],[-2.015612,51.881808],[-2.015602,51.883619],[-2.014891,51.884408],[-2.015836,51.884158],[-2.016703,51.885443],[-2.013008,51.8917],[-2.011844,51.895521],[-2.012607,51.897088],[-2.01267,51.898466],[-2.010215,51.902924],[-2.009669,51.905868],[-2.00042,51.904075],[-1.998064,51.907394],[-1.996296,51.912031],[-1.994922,51.913411],[-1.994169,51.914977],[-1.986762,51.910902],[-1.981165,51.908939],[-1.981143,51.908388],[-1.976038,51.906284],[-1.972538,51.905845],[-1.965755,51.904294],[-1.962167,51.902794],[-1.96058,51.902458],[-1.957557,51.902289],[-1.953297,51.902865],[-1.952791,51.903118],[-1.953208,51.90411],[-1.952796,51.905027],[-1.945718,51.905464],[-1.942475,51.905277],[-1.942358,51.904874],[-1.939542,51.904977],[-1.940081,51.90634],[-1.938862,51.906903],[-1.93576,51.906235],[-1.933077,51.905119],[-1.929407,51.904695],[-1.929866,51.903912],[-1.927241,51.903154],[-1.926675,51.903271],[-1.926735,51.901313],[-1.927412,51.900854],[-1.928339,51.899019],[-1.927317,51.89643],[-1.921662,51.894212],[-1.914945,51.889156],[-1.912159,51.887601],[-1.907519,51.887585],[-1.905985,51.88802],[-1.901667,51.887012],[-1.900214,51.88931],[-1.899412,51.889107],[-1.898296,51.889936],[-1.897693,51.891086],[-1.896638,51.891129],[-1.895354,51.893349],[-1.896016,51.8943],[-1.882177,51.894279],[-1.883414,51.8925],[-1.8835,51.891976],[-1.882886,51.891532],[-1.874781,51.88996],[-1.872602,51.890237],[-1.873386,51.893657],[-1.869065,51.891854],[-1.86205,51.889722],[-1.860412,51.890713],[-1.858656,51.89246],[-1.855826,51.893384],[-1.855221,51.893147],[-1.853609,51.89343],[-1.854854,51.895784],[-1.857029,51.896781],[-1.862118,51.897459],[-1.872967,51.896647],[-1.878525,51.897281],[-1.878538,51.896692],[-1.880735,51.896791],[-1.880413,51.897964],[-1.87713,51.900854],[-1.871204,51.903947],[-1.868404,51.908068],[-1.871729,51.90896],[-1.877202,51.909196],[-1.88324,51.910931],[-1.883653,51.910789],[-1.887861,51.911888],[-1.88666,51.91462],[-1.88679,51.917289],[-1.890462,51.917695],[-1.890331,51.918201],[-1.891403,51.918561],[-1.891977,51.919605],[-1.890822,51.921274],[-1.890913,51.922458],[-1.887206,51.926193],[-1.889292,51.926772],[-1.891365,51.927907],[-1.894485,51.928624],[-1.896609,51.929787],[-1.906329,51.93139],[-1.906412,51.932047],[-1.907235,51.932307],[-1.916286,51.93435],[-1.918354,51.935784],[-1.923187,51.934889],[-1.924148,51.940335],[-1.926952,51.944622],[-1.928472,51.949934],[-1.931041,51.954405],[-1.931556,51.95748],[-1.929681,51.958191],[-1.928374,51.959057],[-1.927532,51.960465],[-1.923457,51.96276],[-1.92045,51.96328],[-1.916714,51.962602],[-1.91559,51.963585],[-1.915358,51.965462],[-1.914682,51.965795],[-1.914648,51.966614],[-1.913572,51.968209],[-1.913071,51.968662],[-1.910905,51.969369],[-1.910228,51.968579],[-1.909161,51.968106],[-1.90669,51.968329],[-1.904044,51.969158],[-1.903121,51.96813],[-1.900604,51.96713],[-1.901286,51.966173],[-1.90191,51.963615],[-1.902805,51.962322],[-1.899524,51.961444],[-1.897075,51.960318],[-1.893425,51.960196],[-1.890719,51.960569],[-1.881983,51.965331],[-1.880033,51.964253],[-1.877169,51.964445],[-1.874571,51.965067],[-1.874245,51.965567],[-1.876402,51.968123],[-1.875235,51.970029],[-1.875429,51.971492],[-1.87308,51.974371],[-1.873075,51.976563],[-1.872153,51.977501],[-1.869638,51.978786],[-1.86843,51.980595],[-1.871737,51.98155],[-1.883375,51.983673],[-1.878603,51.988516],[-1.876201,51.989559],[-1.874485,51.990987],[-1.869427,51.993583],[-1.86752,51.994023],[-1.865364,51.995159],[-1.861758,51.993196],[-1.857562,51.991449],[-1.854061,51.990825],[-1.847342,51.988524],[-1.845014,51.988102],[-1.841738,51.987762],[-1.831947,51.987794],[-1.82479,51.989153],[-1.823267,51.988222],[-1.820397,51.9874],[-1.812223,51.98802],[-1.810527,51.991383],[-1.808247,51.99444],[-1.805276,51.996136],[-1.801679,51.996895],[-1.804796,51.999007],[-1.806309,52.000948],[-1.806875,52.002673],[-1.81793,52.001384],[-1.821088,52.003274],[-1.826197,52.004758],[-1.833021,52.005896],[-1.837185,52.005855],[-1.83905,52.006783],[-1.835309,52.009162],[-1.835667,52.011232],[-1.834408,52.014611],[-1.834122,52.01702],[-1.83566,52.022503],[-1.826238,52.029146],[-1.825023,52.030933],[-1.828951,52.032074],[-1.82932,52.031803],[-1.83056,52.032139],[-1.830626,52.032832],[-1.829087,52.03633],[-1.829413,52.037217],[-1.830127,52.037687],[-1.829751,52.039072],[-1.832406,52.040134],[-1.832944,52.041764],[-1.83484,52.043288],[-1.834589,52.043733],[-1.838889,52.043707],[-1.847814,52.046537],[-1.853842,52.049761],[-1.857325,52.052247],[-1.85917,52.052159],[-1.859315,52.052423],[-1.860243,52.052144],[-1.860497,52.052542],[-1.861271,52.052365],[-1.861551,52.05289],[-1.863449,52.053418],[-1.861814,52.055833],[-1.861403,52.058311],[-1.862877,52.063432],[-1.864988,52.066278],[-1.871682,52.065426],[-1.874406,52.069991],[-1.872918,52.070162],[-1.869499,52.071385],[-1.872005,52.071917],[-1.869045,52.073857],[-1.863179,52.073775],[-1.855607,52.074441],[-1.854365,52.072869],[-1.853389,52.072367],[-1.850884,52.074555],[-1.849185,52.077279],[-1.84662,52.079421],[-1.837636,52.074275],[-1.834466,52.073111],[-1.831753,52.072769],[-1.8318,52.073215],[-1.829786,52.075269],[-1.822466,52.08114],[-1.818943,52.085404],[-1.817818,52.084794],[-1.816127,52.079612],[-1.813943,52.078726],[-1.812737,52.078744],[-1.812283,52.081934],[-1.813121,52.082754],[-1.80936,52.085885],[-1.809187,52.087217],[-1.809792,52.08756],[-1.806459,52.092669],[-1.802289,52.096941],[-1.795543,52.100773],[-1.791724,52.099611],[-1.790135,52.100592],[-1.788259,52.103634],[-1.789668,52.106237],[-1.789417,52.106375],[-1.785685,52.107038],[-1.773932,52.110631],[-1.771012,52.111874],[-1.767692,52.112578],[-1.766278,52.109686],[-1.763834,52.108575],[-1.762473,52.107322],[-1.758901,52.106139],[-1.758831,52.10545],[-1.758079,52.104929],[-1.757698,52.103213],[-1.755942,52.101924]]]}}]}