{"type":"FeatureCollection","features":[{"type":"Feature","properties":{"slug":"coventry","gss_code":"E08000026","name":"Coventry"},"geometry":{"type":"Polygon","coordinates":[[[-1.522093,52.456327],[-1.517633,52.456817],[-1.519122,52.45516],[-1.519769,52.4534],[-1.505014,52.450068],[-1.502972,52.450764],[-1.498825,52.450977],[-1.496005,52.452119],[-1.495573,52.451932],[-1.494326,52.45269],[-1.494825,52.452983],[-1.492603,52.454585],[-1.492906,52.454884],[-1.491707,52.455012],[-1.49142,52.456524],[-1.491922,52.456621],[-1.492015,52.457499],[-1.492789,52.45845],[-1.491986,52.458602],[-1.489649,52.457999],[-1.489364,52.458421],[-1.488207,52.458519],[-1.48679,52.458227],[-1.486818,52.45765],[-1.485022,52.457721],[-1.484554,52.457212],[-1.483127,52.458116],[-1.479096,52.457105],[-1.478931,52.456827],[-1.477351,52.457002],[-1.472858,52.456416],[-1.466354,52.458523],[-1.464235,52.45807],[-1.463867,52.4583],[-1.462014,52.457842],[-1.461333,52.455779],[-1.460571,52.455797],[-1.460325,52.455232],[-1.459776,52.455598],[-1.458746,52.454751],[-1.460399,52.453632],[-1.452165,52.449658],[-1.446053,52.447546],[-1.445474,52.448298],[-1.443647,52.447422],[-1.444374,52.447092],[-1.443645,52.44679],[-1.44434,52.446395],[-1.445015,52.446427],[-1.446655,52.442602],[-1.439817,52.440274],[-1.440093,52.439686],[-1.431865,52.437526],[-1.431694,52.43679],[-1.42993,52.436793],[-1.428785,52.435779],[-1.425208,52.434797],[-1.424146,52.434],[-1.423938,52.432908],[-1.42443,52.430708],[-1.432398,52.415692],[-1.434782,52.412584],[-1.437836,52.41055],[-1.437997,52.409758],[-1.437246,52.407917],[-1.432644,52.402713],[-1.431032,52.400275],[-1.430876,52.398124],[-1.432658,52.395039],[-1.435819,52.392265],[-1.444964,52.386377],[-1.450896,52.383763],[-1.459265,52.381568],[-1.463131,52.37967],[-1.46146,52.377449],[-1.462924,52.376403],[-1.460448,52.374824],[-1.462084,52.374083],[-1.46375,52.373771],[-1.464014,52.373267],[-1.466332,52.374536],[-1.464696,52.375531],[-1.466609,52.377204],[-1.471008,52.376473],[-1.475913,52.374709],[-1.48041,52.374318],[-1.482278,52.377119],[-1.486605,52.37683],[-1.504499,52.377807],[-1.50817,52.375822],[-1.509268,52.373223],[-1.513012,52.370043],[-1.513722,52.369016],[-1.515002,52.370194],[-1.517977,52.371939],[-1.51847,52.373547],[-1.520001,52.373094],[-1.521084,52.37455],[-1.519811,52.375553],[-1.522781,52.377514],[-1.524651,52.379401],[-1.529919,52.377863],[-1.532662,52.376216],[-1.535479,52.377609],[-1.545677,52.369271],[-1.541893,52.366633],[-1.542877,52.366045],[-1.543335,52.366344],[-1.546808,52.365357],[-1.54939,52.366339],[-1.552412,52.363892],[-1.555006,52.365103],[-1.557455,52.365733],[-1.555843,52.367752],[-1.558254,52.368655],[-1.556907,52.369731],[-1.555551,52.372057],[-1.556761,52.372464],[-1.5549,52.373696],[-1.554993,52.374424],[-1.559302,52.375599],[-1.562635,52.376891],[-1.563146,52.37919],[-1.564818,52.382295],[-1.567799,52.384778],[-1.570538,52.384213],[-1.568776,52.38367],[-1.569562,52.382898],[-1.571374,52.383365],[-1.573018,52.382537],[-1.576708,52.382788],[-1.575789,52.384576],[-1.580116,52.384894],[-1.587997,52.38611],[-1.593943,52.387894],[-1.594717,52.387458],[-1.59739,52.388242],[-1.597693,52.388043],[-1.602506,52.389755],[-1.603143,52.390362],[-1.6016,52.391481],[-1.60104,52.392869],[-1.600017,52.39287],[-1.60077,52.395058],[-1.602251,52.394948],[-1.602692,52.395809],[-1.601588,52.395939],[-1.604274,52.400009],[-1.604308,52.403473],[-1.601225,52.403738],[-1.601331,52.404648],[-1.603676,52.404482],[-1.605799,52.405927],[-1.605876,52.407286],[-1.603395,52.40776],[-1.604053,52.409134],[-1.603687,52.409196],[-1.60461,52.415913],[-1.6022,52.415828],[-1.602176,52.416057],[-1.603239,52.41678],[-1.604706,52.41868],[-1.611095,52.422341],[-1.611055,52.42275],[-1.609382,52.424111],[-1.606453,52.425387],[-1.607242,52.425835],[-1.610584,52.426262],[-1.613287,52.427215],[-1.61445,52.427968],[-1.611397,52.432134],[-1.608113,52.431098],[-1.606546,52.431],[-1.606236,52.432921],[-1.609745,52.433629],[-1.609735,52.434903],[-1.608943,52.435712],[-1.609577,52.436556],[-1.609564,52.437976],[-1.608271,52.438841],[-1.607329,52.439054],[-1.605693,52.440052],[-1.604402,52.440042],[-1.598982,52.439503],[-1.596682,52.438444],[-1.595862,52.439689],[-1.595229,52.439926],[-1.592846,52.445358],[-1.593672,52.448577],[-1.594217,52.448714],[-1.595305,52.450077],[-1.595902,52.451396],[-1.59365,52.451823],[-1.594795,52.453051],[-1.59354,52.453504],[-1.595487,52.45592],[-1.594609,52.455992],[-1.59565,52.456592],[-1.595743,52.45759],[-1.596516,52.458446],[-1.594921,52.46069],[-1.594005,52.461461],[-1.593057,52.461572],[-1.589985,52.461103],[-1.589863,52.461912],[-1.585645,52.460171],[-1.578704,52.458151],[-1.577521,52.458438],[-1.574044,52.457924],[-1.568421,52.456089],[-1.562959,52.455981],[-1.561192,52.455223],[-1.558522,52.456666],[-1.554289,52.456445],[-1.553995,52.456855],[-1.551421,52.457044],[-1.54923,52.459301],[-1.547561,52.45959],[-1.545261,52.461457],[-1.539939,52.464802],[-1.537015,52.462426],[-1.534938,52.459514],[-1.529677,52.457088],[-1.525956,52.456366],[-1.522093,52.456327]]]}}]}