{"type":"FeatureCollection","features":[{"type":"Feature","properties":{"slug":"crawley","gss_code":"E07000226","name":"Crawley"},"geometry":{"type":"Polygon","coordinates":[[[-0.163496,51.16027],[-0.160892,51.159769],[-0.156422,51.159597],[-0.154514,51.16004],[-0.153143,51.159844],[-0.146232,51.160278],[-0.135984,51.159738],[-0.133136,51.159229],[-0.13296,51.158884],[-0.134192,51.157722],[-0.13503,51.155981],[-0.136331,51.146383],[-0.137572,51.14216],[-0.139898,51.136213],[-0.140091,51.134227],[-0.139514,51.132547],[-0.14108,51.130179],[-0.141508,51.127955],[-0.140873,51.12403],[-0.138755,51.120555],[-0.13794,51.12058],[-0.137785,51.119072],[-0.136808,51.116838],[-0.137367,51.111545],[-0.139509,51.108051],[-0.145218,51.103181],[-0.145185,51.102641],[-0.146387,51.102247],[-0.147884,51.100814],[-0.150616,51.099251],[-0.153942,51.096485],[-0.162128,51.092444],[-0.16448,51.092004],[-0.168833,51.090546],[-0.172542,51.089896],[-0.174044,51.089287],[-0.190987,51.087742],[-0.195581,51.086147],[-0.1964,51.084806],[-0.201052,51.084885],[-0.207632,51.086344],[-0.211995,51.08629],[-0.211377,51.089183],[-0.21188,51.091991],[-0.214913,51.091397],[-0.214506,51.092891],[-0.21769,51.091934],[-0.219031,51.097395],[-0.219812,51.097667],[-0.219432,51.099578],[-0.222481,51.098754],[-0.232522,51.097378],[-0.231331,51.09893],[-0.230482,51.102118],[-0.230527,51.102926],[-0.231479,51.103967],[-0.23085,51.104721],[-0.231645,51.106978],[-0.232445,51.107458],[-0.231704,51.107868],[-0.235975,51.108779],[-0.236873,51.109477],[-0.236139,51.109817],[-0.236589,51.110047],[-0.235819,51.111923],[-0.235214,51.111918],[-0.234984,51.112518],[-0.234003,51.113121],[-0.231267,51.112709],[-0.226921,51.113307],[-0.226335,51.115446],[-0.223087,51.115171],[-0.222787,51.114867],[-0.222343,51.115752],[-0.222122,51.119342],[-0.221279,51.119863],[-0.221139,51.120541],[-0.221094,51.121666],[-0.22202,51.124212],[-0.221462,51.125526],[-0.219975,51.126401],[-0.220027,51.126677],[-0.219581,51.126561],[-0.219181,51.126886],[-0.219209,51.127145],[-0.219643,51.127142],[-0.219069,51.127889],[-0.219254,51.128836],[-0.217118,51.128815],[-0.216286,51.129442],[-0.214821,51.129521],[-0.213827,51.129921],[-0.213235,51.130874],[-0.211702,51.131345],[-0.210798,51.132373],[-0.210952,51.133008],[-0.210108,51.133167],[-0.209731,51.133693],[-0.207557,51.134129],[-0.207121,51.135],[-0.20642,51.134963],[-0.206395,51.135524],[-0.20522,51.135313],[-0.203535,51.13615],[-0.203304,51.137154],[-0.202667,51.137334],[-0.201692,51.138356],[-0.2,51.138658],[-0.200274,51.139092],[-0.202997,51.13958],[-0.206389,51.140817],[-0.214347,51.141444],[-0.216661,51.14203],[-0.219292,51.141862],[-0.226309,51.142454],[-0.237594,51.142462],[-0.2402,51.143132],[-0.249029,51.141755],[-0.252463,51.139709],[-0.254625,51.139099],[-0.255496,51.14051],[-0.255185,51.144191],[-0.25274,51.144486],[-0.253247,51.144014],[-0.251526,51.143632],[-0.251158,51.144056],[-0.250045,51.14428],[-0.248512,51.14408],[-0.246615,51.145962],[-0.244201,51.144472],[-0.243351,51.144896],[-0.243253,51.145559],[-0.24229,51.146229],[-0.241925,51.146019],[-0.238698,51.14681],[-0.236067,51.14671],[-0.236273,51.14588],[-0.230148,51.145955],[-0.229041,51.145657],[-0.226578,51.148253],[-0.222793,51.148075],[-0.219941,51.149084],[-0.216982,51.14936],[-0.215884,51.148236],[-0.214235,51.148463],[-0.214307,51.150303],[-0.211575,51.150413],[-0.211188,51.152527],[-0.212142,51.155455],[-0.206518,51.155164],[-0.20411,51.155711],[-0.195922,51.162302],[-0.190509,51.16202],[-0.188885,51.162413],[-0.186866,51.161666],[-0.186272,51.162122],[-0.18677,51.163852],[-0.185298,51.16482],[-0.179157,51.167084],[-0.177617,51.1673],[-0.166954,51.161537],[-0.163496,51.16027]]]}}]}