{"type":"FeatureCollection","features":[{"type":"Feature","properties":{"slug":"cumberland","gss_code":"E06000063","name":"Cumberland"},"geometry":{"type":"MultiPolygon","coordinates":[[[[-3.218005,54.234649],[-3.21868,54.234473],[-3.218375,54.233482],[-3.219923,54.234518],[-3.218672,54.233182],[-3.218503,54.232562],[-3.218917,54.231771],[-3.220136,54.233658],[-3.219895,54.23292],[-3.22051,54.23365],[-3.220395,54.234034],[-3.221005,54.235094],[-3.220014,54.234997],[-3.218709,54.235454],[-3.218005,54.234649]]],[[[-3.217467,54.235454],[-3.218051,54.235685],[-3.216877,54.236096],[-3.217467,54.235454]]],[[[-3.435462,54.358117],[-3.437696,54.358907],[-3.438308,54.360296],[-3.436074,54.359302],[-3.435462,54.358117]]],[[[-3.409682,54.361322],[-3.40983,54.361947],[-3.408992,54.361378],[-3.409682,54.361322]]],[[[-3.437754,54.36568],[-3.439523,54.36625],[-3.440007,54.366723],[-3.437754,54.36568]]],[[[-3.285351,54.878289],[-3.287721,54.879298],[-3.288262,54.880042],[-3.287771,54.879689],[-3.287592,54.87996],[-3.288567,54.880461],[-3.288643,54.881195],[-3.286353,54.87979],[-3.285351,54.878289]]],[[[-3.001913,54.93332],[-3.001782,54.934293],[-3.001288,54.934314],[-3.00118,54.933661],[-3.001913,54.93332]]],[[[-3.002087,54.934625],[-3.0021,54.935684],[-3.001426,54.936803],[-3.00103,54.936929],[-2.999825,54.936024],[-3.002087,54.934625]]],[[[-3.05782,54.990017],[-3.058293,54.991528],[-3.057814,54.991658],[-3.05782,54.990017]]],[[[-2.677692,55.171724],[-2.677358,55.171248],[-2.679547,55.16965],[-2.679919,55.16886],[-2.682923,55.167494],[-2.683254,55.16663],[-2.676097,55.15841],[-2.676078,55.157896],[-2.677768,55.156581],[-2.677324,55.155488],[-2.67489,55.155471],[-2.673265,55.151781],[-2.672532,55.150855],[-2.671267,55.150535],[-2.668578,55.147311],[-2.666389,55.147464],[-2.662591,55.146991],[-2.661625,55.146365],[-2.659905,55.144288],[-2.659325,55.142976],[-2.659774,55.142108],[-2.656939,55.136132],[-2.65545,55.135694],[-2.648617,55.132394],[-2.647125,55.131062],[-2.64537,55.131055],[-2.635711,55.129614],[-2.632639,55.127757],[-2.62569,55.127543],[-2.624351,55.128968],[-2.621273,55.129216],[-2.61564,55.127495],[-2.610765,55.126708],[-2.610239,55.126355],[-2.606154,55.126147],[-2.602732,55.124696],[-2.598903,55.124576],[-2.600926,55.123788],[-2.601594,55.122609],[-2.600985,55.119675],[-2.600399,55.118913],[-2.600471,55.117162],[-2.599613,55.115681],[-2.594834,55.114069],[-2.593436,55.112833],[-2.594264,55.110855],[-2.593279,55.110047],[-2.594081,55.10908],[-2.593777,55.108236],[-2.594325,55.107619],[-2.592903,55.106965],[-2.593158,55.106222],[-2.592434,55.106303],[-2.592295,55.106052],[-2.593559,55.10512],[-2.592481,55.105154],[-2.592088,55.104242],[-2.590436,55.103704],[-2.589341,55.103959],[-2.588607,55.103565],[-2.587559,55.103516],[-2.587512,55.103119],[-2.586917,55.102903],[-2.585493,55.103082],[-2.585419,55.102736],[-2.583337,55.101684],[-2.582635,55.100516],[-2.582674,55.099433],[-2.583326,55.099025],[-2.582819,55.098085],[-2.58399,55.097173],[-2.583499,55.096996],[-2.5819,55.097278],[-2.580664,55.096687],[-2.579302,55.096647],[-2.579409,55.096135],[-2.577435,55.096742],[-2.577771,55.095996],[-2.576678,55.095852],[-2.572459,55.09763],[-2.570201,55.097233],[-2.568426,55.096261],[-2.568975,55.094394],[-2.568306,55.093961],[-2.566782,55.093703],[-2.567155,55.092735],[-2.566706,55.091966],[-2.565391,55.091641],[-2.563986,55.091893],[-2.563396,55.091265],[-2.56118,55.090304],[-2.560751,55.08944],[-2.561033,55.088744],[-2.559645,55.089252],[-2.558295,55.08881],[-2.558914,55.088054],[-2.560396,55.088411],[-2.561214,55.087523],[-2.559686,55.087902],[-2.559071,55.087719],[-2.558902,55.087396],[-2.560484,55.0863],[-2.559135,55.085388],[-2.559842,55.085183],[-2.561614,55.085388],[-2.562793,55.084376],[-2.562136,55.083462],[-2.560817,55.083971],[-2.558792,55.083781],[-2.556947,55.081039],[-2.555716,55.081573],[-2.556972,55.082123],[-2.555189,55.082761],[-2.553816,55.082624],[-2.55427,55.082235],[-2.553132,55.081856],[-2.552654,55.081256],[-2.551729,55.081316],[-2.550838,55.080881],[-2.549054,55.081219],[-2.548597,55.081876],[-2.549786,55.081499],[-2.550456,55.0817],[-2.548662,55.082686],[-2.546813,55.082977],[-2.545766,55.083778],[-2.544028,55.083386],[-2.540168,55.084302],[-2.53686,55.082944],[-2.532257,55.082761],[-2.53047,55.085187],[-2.527173,55.085072],[-2.526929,55.084247],[-2.526389,55.083962],[-2.524951,55.085482],[-2.518095,55.084957],[-2.51677,55.086051],[-2.51697,55.088618],[-2.516468,55.089115],[-2.513207,55.089208],[-2.511567,55.088867],[-2.50896,55.08972],[-2.506935,55.08915],[-2.506013,55.089361],[-2.504885,55.090382],[-2.503707,55.09075],[-2.502251,55.090719],[-2.500629,55.090191],[-2.49905,55.0878],[-2.498292,55.087301],[-2.495736,55.086668],[-2.495193,55.087705],[-2.494874,55.087379],[-2.49533,55.086469],[-2.493343,55.086163],[-2.491888,55.086307],[-2.490699,55.085859],[-2.4897,55.084146],[-2.490897,55.083751],[-2.488173,55.083584],[-2.486341,55.083046],[-2.486084,55.081585],[-2.486639,55.081102],[-2.490123,55.080776],[-2.491105,55.082272],[-2.493516,55.082221],[-2.494733,55.081822],[-2.496312,55.080309],[-2.497053,55.077417],[-2.499479,55.076775],[-2.501234,55.075225],[-2.501049,55.074601],[-2.499236,55.073499],[-2.494035,55.071663],[-2.493353,55.070866],[-2.493263,55.069062],[-2.4922,55.068154],[-2.493798,55.065959],[-2.49759,55.065658],[-2.497882,55.064735],[-2.500748,55.064289],[-2.503474,55.063143],[-2.503985,55.06243],[-2.503509,55.062079],[-2.501321,55.062466],[-2.500028,55.062116],[-2.500552,55.061221],[-2.502265,55.061276],[-2.502667,55.060997],[-2.502659,55.060486],[-2.501891,55.059849],[-2.502021,55.057726],[-2.499751,55.056147],[-2.497826,55.056625],[-2.497305,55.056305],[-2.494853,55.054463],[-2.495484,55.053882],[-2.495446,55.053332],[-2.49407,55.05316],[-2.492185,55.054204],[-2.491965,55.054961],[-2.490752,55.054526],[-2.491194,55.054205],[-2.490846,55.053377],[-2.493147,55.052117],[-2.494342,55.050715],[-2.487566,55.047864],[-2.4872,55.04728],[-2.488122,55.046218],[-2.484894,55.045157],[-2.482956,55.043701],[-2.482343,55.041491],[-2.48305,55.040019],[-2.493439,55.037167],[-2.497072,55.036881],[-2.503044,55.037088],[-2.505666,55.036748],[-2.506547,55.035595],[-2.505762,55.034832],[-2.503825,55.034267],[-2.503691,55.033636],[-2.504478,55.033191],[-2.508923,55.03442],[-2.50863,55.036005],[-2.510168,55.036347],[-2.510992,55.035902],[-2.510764,55.034884],[-2.511879,55.034553],[-2.512562,55.033794],[-2.516241,55.03466],[-2.515792,55.033593],[-2.517608,55.033429],[-2.519105,55.03282],[-2.521659,55.032517],[-2.524498,55.032933],[-2.525911,55.032363],[-2.526912,55.03294],[-2.527709,55.032276],[-2.527077,55.030264],[-2.527622,55.0291],[-2.529186,55.028962],[-2.531975,55.030372],[-2.532988,55.029947],[-2.533256,55.028688],[-2.534061,55.028265],[-2.539572,55.028877],[-2.540898,55.027317],[-2.544483,55.026805],[-2.545774,55.026132],[-2.54637,55.025243],[-2.545901,55.024351],[-2.546688,55.023566],[-2.55043,55.022225],[-2.552619,55.021042],[-2.554749,55.020896],[-2.555829,55.019892],[-2.556981,55.019656],[-2.557995,55.019777],[-2.5576,55.020325],[-2.558753,55.020891],[-2.560933,55.020403],[-2.565042,55.020111],[-2.568175,55.018349],[-2.567898,55.017253],[-2.571399,55.017051],[-2.573187,55.016115],[-2.571781,55.014233],[-2.574811,55.011173],[-2.573975,55.009631],[-2.571868,55.008389],[-2.573468,55.007285],[-2.573653,55.006726],[-2.572643,55.006347],[-2.570803,55.007062],[-2.570242,55.006506],[-2.570806,55.005849],[-2.573499,55.004767],[-2.574181,55.0037],[-2.572943,55.003277],[-2.570198,55.003933],[-2.568432,55.003457],[-2.567714,55.002747],[-2.569095,55.001237],[-2.568615,54.999934],[-2.570471,54.998736],[-2.570481,54.996945],[-2.571969,54.99561],[-2.572862,54.992872],[-2.574434,54.991667],[-2.57303,54.990339],[-2.573501,54.989718],[-2.572852,54.989308],[-2.573311,54.987638],[-2.575785,54.984923],[-2.576979,54.984696],[-2.578559,54.983415],[-2.579441,54.983259],[-2.579237,54.982893],[-2.58033,54.982839],[-2.580436,54.982473],[-2.581464,54.98202],[-2.581936,54.982277],[-2.585772,54.982393],[-2.58663,54.982034],[-2.588571,54.980187],[-2.588468,54.979711],[-2.589966,54.977701],[-2.590609,54.97745],[-2.590231,54.976476],[-2.591592,54.974151],[-2.594243,54.973635],[-2.600345,54.973662],[-2.601429,54.97134],[-2.599805,54.969089],[-2.599976,54.968706],[-2.598884,54.967764],[-2.599085,54.966854],[-2.598215,54.966521],[-2.598111,54.965867],[-2.598799,54.965261],[-2.597839,54.964884],[-2.596738,54.96509],[-2.596867,54.96467],[-2.595569,54.963481],[-2.58884,54.962905],[-2.586529,54.963063],[-2.578421,54.960811],[-2.571434,54.960017],[-2.568427,54.958291],[-2.571285,54.94837],[-2.567649,54.940856],[-2.564937,54.940327],[-2.563442,54.937443],[-2.560191,54.934096],[-2.55441,54.933556],[-2.55199,54.932074],[-2.551211,54.930813],[-2.551543,54.929535],[-2.550837,54.929346],[-2.550368,54.929978],[-2.548296,54.929832],[-2.546834,54.930753],[-2.546083,54.930505],[-2.545273,54.929172],[-2.546249,54.927156],[-2.547614,54.926219],[-2.551656,54.925565],[-2.55359,54.924619],[-2.559406,54.924431],[-2.560255,54.923884],[-2.560073,54.923633],[-2.558978,54.9231],[-2.558598,54.922196],[-2.557192,54.921521],[-2.558097,54.921298],[-2.55984,54.920115],[-2.566221,54.919238],[-2.566604,54.913696],[-2.567565,54.909003],[-2.574862,54.899745],[-2.574804,54.898421],[-2.576414,54.896717],[-2.579693,54.894864],[-2.581907,54.894213],[-2.585073,54.892207],[-2.588166,54.891125],[-2.59117,54.888999],[-2.592532,54.888961],[-2.594386,54.887739],[-2.596063,54.887624],[-2.59719,54.886975],[-2.60455,54.88545],[-2.605454,54.884306],[-2.598961,54.879862],[-2.593164,54.875272],[-2.590247,54.873784],[-2.590372,54.872913],[-2.588596,54.869536],[-2.58363,54.865594],[-2.581199,54.864236],[-2.577431,54.859574],[-2.575841,54.856665],[-2.573352,54.853546],[-2.581783,54.84789],[-2.582671,54.845867],[-2.588523,54.847673],[-2.589908,54.848655],[-2.593909,54.849102],[-2.595827,54.84978],[-2.597356,54.851022],[-2.597713,54.851995],[-2.600182,54.851997],[-2.601582,54.852906],[-2.603745,54.853322],[-2.604611,54.852896],[-2.606024,54.8531],[-2.606807,54.852871],[-2.608378,54.853245],[-2.609751,54.852897],[-2.610546,54.853354],[-2.61124,54.85336],[-2.612467,54.853151],[-2.613095,54.852615],[-2.61405,54.852943],[-2.614879,54.852606],[-2.615685,54.852872],[-2.616617,54.852737],[-2.617269,54.853097],[-2.620363,54.853243],[-2.620783,54.85369],[-2.621524,54.853794],[-2.622728,54.853568],[-2.624024,54.854271],[-2.625151,54.853836],[-2.62712,54.853844],[-2.627512,54.854273],[-2.628556,54.854463],[-2.632322,54.854052],[-2.633209,54.854504],[-2.635134,54.85456],[-2.638859,54.853754],[-2.640297,54.854125],[-2.64626,54.853402],[-2.647251,54.853757],[-2.649068,54.853104],[-2.653234,54.853557],[-2.654653,54.854669],[-2.655339,54.854743],[-2.65777,54.849453],[-2.65931,54.848511],[-2.668971,54.845042],[-2.67256,54.842447],[-2.674133,54.839667],[-2.675683,54.83834],[-2.676321,54.838249],[-2.676651,54.836996],[-2.679162,54.836089],[-2.680137,54.835317],[-2.68324,54.835048],[-2.68522,54.836066],[-2.68535,54.837568],[-2.68632,54.837948],[-2.687022,54.837304],[-2.691398,54.837343],[-2.691256,54.837141],[-2.69336,54.836369],[-2.693683,54.836513],[-2.699951,54.833678],[-2.701224,54.833605],[-2.700123,54.830521],[-2.697098,54.827961],[-2.696034,54.825914],[-2.693474,54.823016],[-2.690034,54.820638],[-2.689793,54.819191],[-2.705663,54.816363],[-2.707259,54.81877],[-2.71454,54.819941],[-2.716724,54.819111],[-2.720305,54.819259],[-2.721215,54.819621],[-2.724049,54.819066],[-2.7264,54.81915],[-2.729207,54.818656],[-2.732223,54.820151],[-2.736049,54.82134],[-2.736665,54.822817],[-2.737752,54.823578],[-2.741017,54.824265],[-2.74362,54.827846],[-2.746137,54.828094],[-2.748371,54.828985],[-2.751014,54.829055],[-2.753159,54.827359],[-2.754872,54.827061],[-2.754952,54.824995],[-2.756428,54.822858],[-2.757962,54.823514],[-2.759891,54.823713],[-2.767009,54.823305],[-2.773199,54.820523],[-2.77889,54.821867],[-2.783052,54.822285],[-2.792699,54.82043],[-2.796902,54.819022],[-2.79875,54.819051],[-2.799378,54.818718],[-2.811353,54.823449],[-2.814765,54.825302],[-2.817769,54.827537],[-2.821975,54.825068],[-2.825577,54.827738],[-2.829411,54.825476],[-2.832096,54.826775],[-2.834275,54.828358],[-2.833964,54.82887],[-2.834477,54.831024],[-2.833943,54.831197],[-2.837768,54.831745],[-2.838472,54.833041],[-2.838273,54.83417],[-2.845246,54.832947],[-2.855735,54.833401],[-2.856455,54.834284],[-2.858372,54.834822],[-2.861015,54.836627],[-2.863081,54.837232],[-2.863985,54.836095],[-2.867125,54.835573],[-2.869031,54.834748],[-2.870467,54.834907],[-2.870426,54.834595],[-2.871289,54.834234],[-2.871456,54.833472],[-2.873059,54.833144],[-2.872769,54.832078],[-2.870797,54.831802],[-2.872221,54.82957],[-2.872009,54.828561],[-2.873752,54.827975],[-2.874308,54.826726],[-2.875709,54.826887],[-2.876309,54.826598],[-2.877714,54.825479],[-2.877876,54.824788],[-2.881464,54.823446],[-2.882884,54.823158],[-2.885401,54.823235],[-2.888496,54.821616],[-2.890672,54.821258],[-2.892908,54.821636],[-2.893928,54.822478],[-2.905106,54.821348],[-2.905416,54.821973],[-2.907387,54.821888],[-2.906749,54.820826],[-2.904441,54.818832],[-2.904751,54.818773],[-2.904103,54.816282],[-2.904414,54.813019],[-2.921082,54.809207],[-2.919715,54.805985],[-2.928549,54.801238],[-2.934836,54.792957],[-2.931172,54.792158],[-2.940877,54.787639],[-2.942014,54.78763],[-2.942467,54.786916],[-2.942238,54.785889],[-2.943648,54.785229],[-2.944784,54.784044],[-2.947255,54.783451],[-2.949463,54.784072],[-2.951838,54.78384],[-2.952754,54.782853],[-2.962075,54.778622],[-2.964657,54.780256],[-2.967573,54.779895],[-2.969347,54.777144],[-2.973905,54.778311],[-2.97664,54.777414],[-2.978488,54.777785],[-2.979378,54.777619],[-2.984432,54.77616],[-2.98569,54.774714],[-2.985445,54.774118],[-2.987726,54.771898],[-2.987966,54.770402],[-2.988606,54.770047],[-2.987043,54.768568],[-2.987702,54.766966],[-2.985726,54.766029],[-2.987354,54.764852],[-2.98812,54.765245],[-2.990373,54.763345],[-2.990109,54.763223],[-2.991404,54.761278],[-2.992962,54.760221],[-2.994596,54.759392],[-2.995381,54.760398],[-2.99634,54.760743],[-2.996843,54.761737],[-2.997772,54.762066],[-2.997732,54.759941],[-3.000882,54.755301],[-3.003243,54.754759],[-3.005483,54.75355],[-3.008387,54.752909],[-3.011119,54.75294],[-3.01566,54.751285],[-3.018561,54.750884],[-3.01989,54.74998],[-3.021936,54.749461],[-3.021668,54.748494],[-3.025693,54.74824],[-3.02614,54.747941],[-3.026021,54.747152],[-3.025331,54.74678],[-3.022159,54.74643],[-3.021702,54.745986],[-3.021852,54.745164],[-3.022874,54.744206],[-3.022833,54.743024],[-3.023546,54.742288],[-3.022003,54.741629],[-3.021512,54.740141],[-3.020834,54.739758],[-3.017475,54.739469],[-3.015693,54.738826],[-3.015711,54.737573],[-3.011739,54.736558],[-3.011983,54.734759],[-3.008182,54.734593],[-3.005055,54.733562],[-3.00351,54.733708],[-3.00212,54.733197],[-3.000884,54.733269],[-2.999717,54.733852],[-2.996615,54.733634],[-2.996215,54.73297],[-2.996718,54.731782],[-2.993264,54.731211],[-2.992566,54.730514],[-2.992668,54.728919],[-2.991781,54.728343],[-2.989613,54.727767],[-2.9901,54.727167],[-2.989166,54.726741],[-2.98864,54.72602],[-2.98881,54.724085],[-2.986692,54.723542],[-2.98653,54.722411],[-2.983646,54.720938],[-2.983924,54.720426],[-2.985403,54.720701],[-2.986312,54.720546],[-2.985974,54.71952],[-2.985275,54.719274],[-2.982999,54.719381],[-2.983337,54.718229],[-2.98443,54.717372],[-2.984763,54.716062],[-2.986583,54.715971],[-2.986779,54.714847],[-2.988825,54.715094],[-2.9898,54.713807],[-2.99123,54.712845],[-2.990741,54.711737],[-2.989119,54.710907],[-2.990411,54.708721],[-2.989701,54.707206],[-2.992485,54.704822],[-2.992874,54.701894],[-2.994528,54.699796],[-2.99355,54.698833],[-2.994052,54.697308],[-2.992275,54.696243],[-2.993563,54.695752],[-2.993789,54.695357],[-2.995333,54.695617],[-2.995769,54.694528],[-2.997199,54.695099],[-3.001072,54.694901],[-3.004778,54.695123],[-3.017656,54.693487],[-3.022858,54.693476],[-3.0337,54.69432],[-3.038876,54.697131],[-3.040728,54.697531],[-3.051972,54.699288],[-3.058158,54.699176],[-3.063799,54.700082],[-3.073628,54.69558],[-3.078949,54.694677],[-3.08192,54.695254],[-3.087191,54.686092],[-3.082691,54.685389],[-3.070429,54.684934],[-3.060123,54.682022],[-3.054604,54.679757],[-3.057807,54.677827],[-3.059528,54.675455],[-3.063515,54.673013],[-3.066176,54.672654],[-3.067722,54.671567],[-3.069303,54.671424],[-3.069644,54.670618],[-3.071188,54.669403],[-3.071756,54.667972],[-3.072786,54.667448],[-3.072896,54.666866],[-3.074539,54.666564],[-3.07528,54.66584],[-3.076949,54.666352],[-3.0777,54.666233],[-3.081488,54.664086],[-3.081994,54.664564],[-3.08326,54.664251],[-3.083897,54.663155],[-3.086653,54.663557],[-3.086365,54.662851],[-3.087459,54.662136],[-3.088108,54.661054],[-3.090062,54.660292],[-3.089918,54.659889],[-3.091042,54.659129],[-3.090866,54.658651],[-3.091602,54.658117],[-3.091168,54.657663],[-3.092045,54.657402],[-3.092269,54.655536],[-3.092786,54.655103],[-3.09245,54.654897],[-3.092993,54.654171],[-3.092492,54.654124],[-3.092241,54.649392],[-3.094294,54.64387],[-3.093279,54.641885],[-3.092038,54.640744],[-3.091974,54.637911],[-3.091458,54.636725],[-3.090657,54.636107],[-3.091074,54.635537],[-3.090697,54.634322],[-3.091387,54.632819],[-3.090774,54.631056],[-3.091333,54.630702],[-3.092086,54.628835],[-3.09139,54.627347],[-3.091992,54.627019],[-3.091307,54.625398],[-3.09006,54.623993],[-3.090093,54.622734],[-3.08961,54.622158],[-3.092218,54.619465],[-3.091921,54.618289],[-3.092404,54.617236],[-3.089629,54.615688],[-3.087566,54.615567],[-3.086442,54.614167],[-3.086965,54.612702],[-3.085781,54.612966],[-3.084071,54.61247],[-3.080263,54.612137],[-3.07925,54.611674],[-3.078486,54.610732],[-3.077759,54.610586],[-3.070427,54.613697],[-3.068066,54.614138],[-3.065675,54.614182],[-3.062856,54.612591],[-3.061948,54.612604],[-3.059171,54.613755],[-3.059201,54.614069],[-3.055567,54.614027],[-3.055109,54.614576],[-3.053815,54.613409],[-3.053206,54.613378],[-3.046718,54.61435],[-3.044445,54.614215],[-3.042258,54.612897],[-3.041018,54.61269],[-3.039931,54.612963],[-3.039186,54.612347],[-3.038174,54.610449],[-3.039026,54.608842],[-3.037653,54.607821],[-3.03504,54.604432],[-3.034031,54.603736],[-3.034332,54.60277],[-3.033545,54.602553],[-3.022727,54.602676],[-3.017798,54.600255],[-3.011533,54.599499],[-3.010907,54.598888],[-3.010665,54.597237],[-3.008995,54.595741],[-3.007435,54.595268],[-3.009179,54.594448],[-3.009105,54.593946],[-3.010364,54.592893],[-3.01622,54.589102],[-3.017718,54.588689],[-3.019868,54.588617],[-3.024595,54.586748],[-3.025981,54.586494],[-3.031099,54.582339],[-3.037051,54.580926],[-3.030352,54.575735],[-3.027026,54.5745],[-3.023922,54.574428],[-3.019535,54.575921],[-3.018289,54.574956],[-3.020635,54.571359],[-3.024178,54.568611],[-3.026642,54.567246],[-3.028822,54.566909],[-3.021028,54.564795],[-3.016726,54.561569],[-3.020386,54.55891],[-3.018424,54.553386],[-3.019643,54.551758],[-3.016665,54.547932],[-3.025064,54.54103],[-3.023286,54.538857],[-3.02486,54.534723],[-3.024802,54.532715],[-3.025784,54.530307],[-3.024751,54.529161],[-3.019333,54.528133],[-3.01861,54.527343],[-3.01612,54.526335],[-3.015297,54.525533],[-3.01531,54.523893],[-3.016601,54.52142],[-3.015761,54.520263],[-3.015916,54.519367],[-3.015234,54.518308],[-3.016955,54.514865],[-3.015919,54.513854],[-3.014946,54.50984],[-3.013165,54.508678],[-3.011603,54.508632],[-3.011336,54.507187],[-3.01235,54.50571],[-3.013548,54.501067],[-3.014834,54.499813],[-3.022869,54.499675],[-3.031441,54.497929],[-3.032959,54.498029],[-3.035875,54.497633],[-3.039571,54.496347],[-3.042291,54.495823],[-3.044478,54.495779],[-3.048304,54.496278],[-3.050802,54.492074],[-3.050802,54.491265],[-3.052234,54.491143],[-3.055752,54.492141],[-3.061985,54.492523],[-3.069978,54.490444],[-3.073381,54.490283],[-3.076214,54.489366],[-3.081706,54.484926],[-3.084383,54.485576],[-3.088265,54.483964],[-3.088808,54.482837],[-3.092227,54.479072],[-3.093817,54.474803],[-3.094877,54.47365],[-3.097753,54.471903],[-3.098936,54.472005],[-3.10068,54.472793],[-3.102892,54.472333],[-3.109479,54.474004],[-3.111334,54.470982],[-3.115704,54.466583],[-3.112573,54.461491],[-3.119426,54.460238],[-3.126166,54.4628],[-3.132213,54.464544],[-3.133596,54.465577],[-3.136444,54.470746],[-3.142472,54.469506],[-3.145558,54.468444],[-3.147146,54.467116],[-3.147539,54.465501],[-3.150033,54.462747],[-3.152883,54.461656],[-3.153825,54.460154],[-3.15644,54.458622],[-3.159167,54.457855],[-3.162297,54.458281],[-3.16296,54.458119],[-3.163688,54.457296],[-3.163764,54.455989],[-3.16551,54.455733],[-3.167139,54.454111],[-3.166176,54.451255],[-3.166543,54.45054],[-3.166279,54.447767],[-3.165209,54.447024],[-3.163053,54.447037],[-3.16186,54.44738],[-3.161116,54.447037],[-3.160601,54.443097],[-3.158592,54.442177],[-3.158614,54.44177],[-3.160157,54.441043],[-3.160137,54.440769],[-3.159532,54.439199],[-3.158078,54.438392],[-3.157914,54.434772],[-3.160345,54.433923],[-3.157018,54.430281],[-3.154141,54.42971],[-3.135978,54.421883],[-3.128735,54.421532],[-3.123996,54.427507],[-3.120535,54.423691],[-3.115291,54.422365],[-3.114934,54.42199],[-3.115076,54.421161],[-3.114279,54.420579],[-3.114144,54.41828],[-3.115466,54.417796],[-3.115531,54.416474],[-3.116261,54.41554],[-3.115262,54.415021],[-3.116257,54.414666],[-3.117855,54.414869],[-3.122819,54.414169],[-3.122756,54.413717],[-3.123843,54.413283],[-3.128388,54.41221],[-3.12891,54.411744],[-3.130812,54.411351],[-3.131459,54.411511],[-3.132939,54.410712],[-3.13693,54.409672],[-3.140404,54.409664],[-3.141086,54.409235],[-3.142202,54.409158],[-3.142813,54.408732],[-3.143662,54.408816],[-3.145453,54.408168],[-3.147069,54.408133],[-3.147978,54.407767],[-3.149652,54.407945],[-3.152781,54.407127],[-3.156264,54.407546],[-3.159325,54.407168],[-3.160587,54.406599],[-3.161161,54.405491],[-3.164411,54.403231],[-3.165265,54.40163],[-3.166657,54.401344],[-3.169084,54.400083],[-3.170758,54.39973],[-3.171258,54.397337],[-3.172078,54.39729],[-3.172086,54.398063],[-3.172735,54.395604],[-3.172451,54.394548],[-3.171574,54.393787],[-3.173301,54.391967],[-3.173098,54.390502],[-3.172574,54.390453],[-3.17252,54.389048],[-3.17326,54.388492],[-3.176715,54.387359],[-3.178346,54.385986],[-3.180073,54.385702],[-3.181529,54.384852],[-3.179084,54.38223],[-3.180064,54.381956],[-3.180618,54.380376],[-3.180965,54.375362],[-3.181998,54.374187],[-3.184925,54.372766],[-3.187074,54.370945],[-3.187494,54.369762],[-3.189136,54.368275],[-3.189187,54.367176],[-3.18859,54.366623],[-3.188914,54.365283],[-3.189731,54.364202],[-3.191576,54.363451],[-3.193307,54.359841],[-3.195973,54.356209],[-3.194596,54.35524],[-3.194599,54.354351],[-3.200149,54.354328],[-3.203326,54.352993],[-3.207085,54.352958],[-3.208945,54.351646],[-3.210057,54.349896],[-3.212109,54.348362],[-3.212377,54.34662],[-3.215962,54.344795],[-3.218565,54.344996],[-3.217518,54.343265],[-3.217598,54.34238],[-3.219519,54.341527],[-3.220085,54.34049],[-3.219818,54.339778],[-3.218054,54.339322],[-3.218503,54.338241],[-3.217572,54.337276],[-3.218407,54.336025],[-3.2193,54.335947],[-3.220481,54.334769],[-3.223488,54.333643],[-3.224567,54.332789],[-3.230111,54.33217],[-3.230193,54.331295],[-3.231194,54.330791],[-3.233604,54.328529],[-3.236373,54.327114],[-3.237945,54.325504],[-3.24187,54.323527],[-3.241872,54.323217],[-3.240655,54.322755],[-3.240351,54.321181],[-3.238462,54.318816],[-3.239507,54.31721],[-3.236996,54.316011],[-3.235385,54.316746],[-3.233539,54.316422],[-3.230922,54.31468],[-3.231139,54.311216],[-3.231744,54.310642],[-3.233366,54.310255],[-3.23391,54.30978],[-3.23233,54.306278],[-3.233047,54.304826],[-3.232717,54.303665],[-3.234483,54.302174],[-3.235384,54.300076],[-3.236948,54.298313],[-3.236934,54.296597],[-3.238166,54.294017],[-3.237228,54.292895],[-3.238058,54.290727],[-3.236433,54.289596],[-3.235226,54.287824],[-3.23508,54.285767],[-3.23329,54.283498],[-3.228395,54.28151],[-3.227934,54.280709],[-3.228207,54.278635],[-3.227989,54.277544],[-3.226939,54.276686],[-3.224507,54.275659],[-3.225848,54.273593],[-3.22631,54.270615],[-3.226882,54.270136],[-3.227567,54.268409],[-3.227703,54.266922],[-3.226677,54.264368],[-3.226955,54.266323],[-3.225019,54.265624],[-3.22567,54.264427],[-3.228104,54.262716],[-3.229616,54.26216],[-3.23076,54.260697],[-3.230603,54.26019],[-3.233305,54.259824],[-3.230168,54.259984],[-3.230891,54.259623],[-3.230365,54.257986],[-3.229514,54.256743],[-3.228114,54.25579],[-3.224598,54.254597],[-3.222719,54.253605],[-3.222534,54.252746],[-3.223397,54.250971],[-3.225731,54.250118],[-3.226064,54.250433],[-3.226849,54.250509],[-3.227713,54.250449],[-3.228057,54.250989],[-3.228331,54.251195],[-3.228828,54.251292],[-3.229114,54.251795],[-3.229095,54.251372],[-3.228313,54.251133],[-3.227804,54.250439],[-3.226395,54.250328],[-3.227541,54.249558],[-3.230628,54.250685],[-3.231549,54.250622],[-3.231853,54.250182],[-3.23091,54.249135],[-3.232823,54.248468],[-3.233626,54.249065],[-3.23456,54.249324],[-3.235396,54.247829],[-3.238393,54.247268],[-3.238953,54.248355],[-3.238464,54.24718],[-3.235314,54.247706],[-3.234785,54.248232],[-3.234074,54.247709],[-3.234677,54.24827],[-3.234563,54.249139],[-3.232772,54.248286],[-3.230943,54.248847],[-3.230802,54.249682],[-3.231379,54.250461],[-3.230645,54.250479],[-3.226841,54.248979],[-3.227077,54.24857],[-3.22649,54.247196],[-3.22599,54.246986],[-3.226012,54.246486],[-3.22683,54.246732],[-3.226004,54.246444],[-3.225888,54.246462],[-3.225918,54.246936],[-3.226459,54.247353],[-3.226476,54.248894],[-3.225506,54.247811],[-3.224989,54.243716],[-3.226436,54.24383],[-3.226466,54.243358],[-3.226342,54.243798],[-3.224961,54.243646],[-3.224616,54.244038],[-3.224582,54.24621],[-3.222975,54.243641],[-3.226061,54.240005],[-3.223529,54.242363],[-3.225288,54.238302],[-3.225025,54.237884],[-3.225448,54.238123],[-3.224764,54.237468],[-3.225105,54.237154],[-3.224814,54.23649],[-3.226279,54.235088],[-3.224758,54.236423],[-3.224977,54.237176],[-3.224698,54.237364],[-3.224014,54.236274],[-3.222788,54.235664],[-3.223957,54.235617],[-3.224527,54.235164],[-3.223832,54.235506],[-3.22447,54.234928],[-3.223268,54.235373],[-3.224119,54.234094],[-3.22314,54.235447],[-3.222525,54.235533],[-3.221894,54.235183],[-3.222312,54.235268],[-3.222656,54.235138],[-3.22331,54.234229],[-3.222427,54.235187],[-3.221294,54.235122],[-3.220954,54.234658],[-3.221418,54.234539],[-3.220778,54.234384],[-3.221911,54.234248],[-3.220705,54.234345],[-3.220569,54.234123],[-3.221843,54.234004],[-3.223241,54.232912],[-3.221787,54.233861],[-3.220875,54.234054],[-3.22073,54.233603],[-3.221626,54.233493],[-3.220678,54.233508],[-3.222148,54.233122],[-3.221145,54.233246],[-3.221857,54.232972],[-3.220595,54.233422],[-3.220455,54.233179],[-3.221708,54.23244],[-3.220329,54.233072],[-3.220024,54.232662],[-3.221621,54.23216],[-3.219869,54.232516],[-3.219544,54.231567],[-3.220747,54.231488],[-3.219656,54.231435],[-3.221551,54.229481],[-3.222689,54.229834],[-3.222175,54.230197],[-3.222359,54.230636],[-3.221852,54.231516],[-3.222092,54.231365],[-3.222269,54.231653],[-3.221912,54.231865],[-3.222316,54.231687],[-3.222425,54.230699],[-3.222629,54.231698],[-3.22229,54.232113],[-3.222677,54.231816],[-3.22315,54.232303],[-3.222702,54.231702],[-3.222793,54.231058],[-3.22345,54.231636],[-3.222342,54.230294],[-3.223808,54.230257],[-3.22337,54.230835],[-3.223446,54.231308],[-3.223449,54.230801],[-3.223686,54.230655],[-3.223538,54.230937],[-3.223926,54.231502],[-3.2236,54.230838],[-3.22416,54.230474],[-3.224073,54.230843],[-3.224304,54.231333],[-3.223855,54.232252],[-3.224381,54.231592],[-3.22416,54.230612],[-3.224484,54.230638],[-3.224018,54.230228],[-3.225381,54.230436],[-3.225043,54.232076],[-3.224406,54.232407],[-3.225502,54.232257],[-3.223825,54.232913],[-3.225556,54.232414],[-3.225495,54.232778],[-3.224234,54.233304],[-3.225407,54.232939],[-3.225447,54.233672],[-3.227494,54.235032],[-3.225771,54.233559],[-3.226733,54.233609],[-3.226906,54.234164],[-3.228748,54.233845],[-3.23009,54.234129],[-3.228768,54.233736],[-3.22711,54.234104],[-3.226853,54.233574],[-3.225815,54.233412],[-3.225636,54.232988],[-3.227478,54.233209],[-3.225727,54.232909],[-3.225948,54.232633],[-3.225519,54.23147],[-3.225829,54.230958],[-3.226204,54.232212],[-3.226767,54.232031],[-3.227872,54.233087],[-3.226939,54.231984],[-3.226322,54.231913],[-3.226677,54.231352],[-3.227726,54.231085],[-3.228075,54.231349],[-3.228284,54.23251],[-3.228328,54.231291],[-3.230082,54.231296],[-3.226888,54.230886],[-3.226631,54.231175],[-3.226281,54.230788],[-3.226706,54.230238],[-3.228726,54.230227],[-3.230183,54.229274],[-3.231301,54.22961],[-3.231902,54.230013],[-3.232274,54.231776],[-3.231651,54.232395],[-3.230761,54.232365],[-3.230595,54.233288],[-3.231934,54.234244],[-3.231672,54.234916],[-3.232506,54.235487],[-3.23164,54.236689],[-3.230568,54.237047],[-3.230774,54.237263],[-3.232209,54.237342],[-3.231624,54.23765],[-3.231881,54.238089],[-3.23039,54.237703],[-3.230528,54.238251],[-3.230913,54.238028],[-3.232148,54.238201],[-3.231742,54.237647],[-3.2324,54.237338],[-3.232013,54.236996],[-3.230799,54.237166],[-3.233009,54.236108],[-3.232287,54.236178],[-3.232759,54.2354],[-3.233532,54.235384],[-3.232126,54.235135],[-3.231892,54.234879],[-3.232336,54.234145],[-3.231102,54.233512],[-3.232148,54.233668],[-3.233432,54.233476],[-3.232246,54.233592],[-3.23101,54.233283],[-3.232855,54.231739],[-3.234509,54.232423],[-3.235978,54.232054],[-3.235752,54.233051],[-3.236544,54.233524],[-3.238229,54.232954],[-3.237512,54.23395],[-3.236156,54.234224],[-3.236486,54.235103],[-3.236266,54.234228],[-3.237565,54.234052],[-3.238743,54.233533],[-3.23929,54.233856],[-3.238332,54.232864],[-3.236301,54.233258],[-3.237484,54.231766],[-3.237166,54.231335],[-3.238993,54.231472],[-3.238351,54.232219],[-3.239876,54.232624],[-3.240236,54.233505],[-3.2401,54.232718],[-3.240655,54.232973],[-3.242158,54.232682],[-3.240899,54.232887],[-3.238623,54.232146],[-3.239234,54.231435],[-3.237004,54.231075],[-3.236793,54.232285],[-3.236061,54.231888],[-3.2336,54.231739],[-3.233698,54.231392],[-3.235094,54.231037],[-3.233732,54.231228],[-3.233018,54.230207],[-3.234895,54.229488],[-3.232979,54.230046],[-3.231466,54.229073],[-3.234,54.228522],[-3.23492,54.228768],[-3.233931,54.228376],[-3.231325,54.228992],[-3.230123,54.228722],[-3.231745,54.228276],[-3.228949,54.228689],[-3.226838,54.228424],[-3.225796,54.227887],[-3.226052,54.227773],[-3.225395,54.227405],[-3.2269,54.227209],[-3.227724,54.228217],[-3.228527,54.228446],[-3.227803,54.228206],[-3.227646,54.227781],[-3.22865,54.22769],[-3.229255,54.228197],[-3.232019,54.227945],[-3.232796,54.227582],[-3.229193,54.228125],[-3.229217,54.227736],[-3.228046,54.227507],[-3.227483,54.227649],[-3.226991,54.227106],[-3.228264,54.226863],[-3.228525,54.227294],[-3.231148,54.227264],[-3.228524,54.227138],[-3.228627,54.226919],[-3.230985,54.226935],[-3.228235,54.226784],[-3.227823,54.226885],[-3.228616,54.226542],[-3.232895,54.226754],[-3.230444,54.226402],[-3.22831,54.226449],[-3.226448,54.226871],[-3.225778,54.22651],[-3.227836,54.225657],[-3.229834,54.22541],[-3.231284,54.225748],[-3.232997,54.225742],[-3.229673,54.225342],[-3.228037,54.225532],[-3.226986,54.225928],[-3.226618,54.225718],[-3.226894,54.225415],[-3.228086,54.225262],[-3.228561,54.224687],[-3.230089,54.225066],[-3.23289,54.225126],[-3.230101,54.225008],[-3.229777,54.224619],[-3.228405,54.22454],[-3.230087,54.223996],[-3.229114,54.224112],[-3.228605,54.223287],[-3.229106,54.22289],[-3.229655,54.223073],[-3.230202,54.222716],[-3.230002,54.222607],[-3.230448,54.222698],[-3.230405,54.222295],[-3.230675,54.222201],[-3.230593,54.223427],[-3.230906,54.223079],[-3.230862,54.222334],[-3.231637,54.222864],[-3.231337,54.223932],[-3.231807,54.222935],[-3.231444,54.222629],[-3.23225,54.223107],[-3.233105,54.224367],[-3.232418,54.223124],[-3.233744,54.223926],[-3.230878,54.222168],[-3.230883,54.221923],[-3.231359,54.222203],[-3.232074,54.221969],[-3.233019,54.222545],[-3.23324,54.222316],[-3.233521,54.223444],[-3.233642,54.222715],[-3.23406,54.223435],[-3.233943,54.222422],[-3.234766,54.223288],[-3.233671,54.221879],[-3.234113,54.221954],[-3.233856,54.221571],[-3.234241,54.221697],[-3.235103,54.220963],[-3.234969,54.220724],[-3.235833,54.221024],[-3.235411,54.222235],[-3.23604,54.221149],[-3.237002,54.220708],[-3.238005,54.221392],[-3.236994,54.221301],[-3.236924,54.221617],[-3.236325,54.221772],[-3.23635,54.222118],[-3.235677,54.222084],[-3.23565,54.222559],[-3.235762,54.222173],[-3.236089,54.222183],[-3.236212,54.222607],[-3.236214,54.222186],[-3.236481,54.222186],[-3.236415,54.221766],[-3.237747,54.221412],[-3.23779,54.222308],[-3.236861,54.222448],[-3.238028,54.222597],[-3.236086,54.222885],[-3.23815,54.222707],[-3.236607,54.223225],[-3.238676,54.222941],[-3.237868,54.223431],[-3.23772,54.223216],[-3.236892,54.22334],[-3.236369,54.223686],[-3.237421,54.223323],[-3.23784,54.223503],[-3.237157,54.224036],[-3.238737,54.222995],[-3.239555,54.222884],[-3.239037,54.223534],[-3.23991,54.223147],[-3.239663,54.222619],[-3.238141,54.221656],[-3.239377,54.222015],[-3.240181,54.222997],[-3.238888,54.224232],[-3.238277,54.224086],[-3.238978,54.223615],[-3.238143,54.224116],[-3.236501,54.224441],[-3.235389,54.224076],[-3.236423,54.224502],[-3.235811,54.224785],[-3.235822,54.225268],[-3.236934,54.224368],[-3.238388,54.224191],[-3.238672,54.224473],[-3.237876,54.225094],[-3.23654,54.224933],[-3.236466,54.225429],[-3.235014,54.226417],[-3.234458,54.227795],[-3.235117,54.226495],[-3.236404,54.225721],[-3.236976,54.224997],[-3.237167,54.225296],[-3.236862,54.225855],[-3.237683,54.226707],[-3.237564,54.226929],[-3.235616,54.227367],[-3.236028,54.228037],[-3.236833,54.228277],[-3.23773,54.227948],[-3.238528,54.22864],[-3.237656,54.228819],[-3.237207,54.229129],[-3.237134,54.229494],[-3.237591,54.229716],[-3.239264,54.229742],[-3.241792,54.231677],[-3.241463,54.2311],[-3.240343,54.230551],[-3.239413,54.2293],[-3.239919,54.229019],[-3.240835,54.22949],[-3.241657,54.229251],[-3.241932,54.229593],[-3.242617,54.230009],[-3.241631,54.230927],[-3.242112,54.231225],[-3.243372,54.231347],[-3.241764,54.230864],[-3.24282,54.230009],[-3.241646,54.229198],[-3.240775,54.229441],[-3.239861,54.228959],[-3.239296,54.229295],[-3.239451,54.229642],[-3.237466,54.229584],[-3.237293,54.229262],[-3.237807,54.2289],[-3.238713,54.228878],[-3.238896,54.228609],[-3.237958,54.227856],[-3.236287,54.227615],[-3.238645,54.226951],[-3.240893,54.228096],[-3.238705,54.226799],[-3.238869,54.226122],[-3.240484,54.226509],[-3.239802,54.227097],[-3.239802,54.227219],[-3.242234,54.22773],[-3.239843,54.227176],[-3.240829,54.226528],[-3.239029,54.22603],[-3.238485,54.22634],[-3.237783,54.226116],[-3.237824,54.225725],[-3.238903,54.225203],[-3.239606,54.225409],[-3.239024,54.225042],[-3.239228,54.224798],[-3.240162,54.225288],[-3.23935,54.224674],[-3.239594,54.224496],[-3.240682,54.225178],[-3.239795,54.22445],[-3.240898,54.224879],[-3.239755,54.224343],[-3.240136,54.224161],[-3.240887,54.224544],[-3.240275,54.224073],[-3.240938,54.224004],[-3.240628,54.224093],[-3.241441,54.224625],[-3.240785,54.224116],[-3.241104,54.223971],[-3.242619,54.224864],[-3.241268,54.223804],[-3.241651,54.223467],[-3.242423,54.224132],[-3.241701,54.223314],[-3.24179,54.222958],[-3.242839,54.223647],[-3.242327,54.223211],[-3.242819,54.223337],[-3.241813,54.222911],[-3.241595,54.222997],[-3.241326,54.222657],[-3.241662,54.222863],[-3.242882,54.22321],[-3.241505,54.222718],[-3.242092,54.22253],[-3.242958,54.223093],[-3.242352,54.222397],[-3.241467,54.222659],[-3.240975,54.222005],[-3.24138,54.222364],[-3.242388,54.222306],[-3.242574,54.222536],[-3.242513,54.222271],[-3.242911,54.222711],[-3.242976,54.222402],[-3.243223,54.222906],[-3.24324,54.222547],[-3.243063,54.222307],[-3.242426,54.222175],[-3.241472,54.222217],[-3.240898,54.221789],[-3.242272,54.221061],[-3.24133,54.221731],[-3.241725,54.221532],[-3.241654,54.221762],[-3.243456,54.222321],[-3.243421,54.223232],[-3.243624,54.222344],[-3.24181,54.221624],[-3.243177,54.221773],[-3.242122,54.221368],[-3.242517,54.221042],[-3.242635,54.221267],[-3.243354,54.221536],[-3.24269,54.221162],[-3.242963,54.220872],[-3.24399,54.221349],[-3.245375,54.221338],[-3.244992,54.222222],[-3.244754,54.222031],[-3.244187,54.222105],[-3.244819,54.222288],[-3.243916,54.222386],[-3.243616,54.222959],[-3.243942,54.222422],[-3.244475,54.222444],[-3.244004,54.22264],[-3.243799,54.223137],[-3.244277,54.222617],[-3.245104,54.223732],[-3.243918,54.224105],[-3.243664,54.225176],[-3.242895,54.225038],[-3.241466,54.225559],[-3.240784,54.22595],[-3.242347,54.225255],[-3.242858,54.225215],[-3.242398,54.225327],[-3.241833,54.225689],[-3.24212,54.22629],[-3.242182,54.225626],[-3.242479,54.225626],[-3.242339,54.226627],[-3.242569,54.226759],[-3.242504,54.225363],[-3.243432,54.225685],[-3.242602,54.22538],[-3.24294,54.225261],[-3.242947,54.225103],[-3.243532,54.225251],[-3.244824,54.225215],[-3.245346,54.225893],[-3.244613,54.226663],[-3.243389,54.226555],[-3.243504,54.226977],[-3.245076,54.227421],[-3.244396,54.227463],[-3.243993,54.227955],[-3.244956,54.228013],[-3.244635,54.228615],[-3.245458,54.229076],[-3.24474,54.228549],[-3.24506,54.227953],[-3.244207,54.227874],[-3.245927,54.227276],[-3.24585,54.227561],[-3.246893,54.228087],[-3.246262,54.228458],[-3.247051,54.228127],[-3.247875,54.228631],[-3.247697,54.228347],[-3.246046,54.22755],[-3.245966,54.227177],[-3.245278,54.227329],[-3.243577,54.226876],[-3.244667,54.226783],[-3.245584,54.225953],[-3.246859,54.226109],[-3.246473,54.226813],[-3.246567,54.226878],[-3.247357,54.227024],[-3.248377,54.227053],[-3.249078,54.228466],[-3.248578,54.227049],[-3.246577,54.22682],[-3.247158,54.226022],[-3.245688,54.225768],[-3.244291,54.224412],[-3.245403,54.224296],[-3.245892,54.224622],[-3.245673,54.224156],[-3.246349,54.22376],[-3.246982,54.225518],[-3.246949,54.224842],[-3.247101,54.225241],[-3.248369,54.224982],[-3.248552,54.22571],[-3.249398,54.226047],[-3.248566,54.225665],[-3.248738,54.225233],[-3.249395,54.225362],[-3.248148,54.224863],[-3.247281,54.22519],[-3.246621,54.223826],[-3.247037,54.223583],[-3.24796,54.223967],[-3.248248,54.224651],[-3.249963,54.22539],[-3.248364,54.224602],[-3.249219,54.224451],[-3.249909,54.224798],[-3.249246,54.224383],[-3.250435,54.224059],[-3.249492,54.224073],[-3.24883,54.224502],[-3.248141,54.223759],[-3.246123,54.223031],[-3.247793,54.221702],[-3.247382,54.220661],[-3.247984,54.221353],[-3.246886,54.219813],[-3.247919,54.220196],[-3.247795,54.220387],[-3.248311,54.220855],[-3.248102,54.220431],[-3.249094,54.220997],[-3.248448,54.220973],[-3.247914,54.221914],[-3.24787,54.222628],[-3.247282,54.223033],[-3.247403,54.223154],[-3.248066,54.223317],[-3.24857,54.223175],[-3.24734,54.22306],[-3.248054,54.22278],[-3.249182,54.223166],[-3.248031,54.222715],[-3.248057,54.221841],[-3.248709,54.221219],[-3.24907,54.221281],[-3.248702,54.221577],[-3.24846,54.222496],[-3.24868,54.222682],[-3.24939,54.222907],[-3.248532,54.222456],[-3.249325,54.222495],[-3.248649,54.222349],[-3.249224,54.222281],[-3.24872,54.221976],[-3.249659,54.222088],[-3.24872,54.221907],[-3.249664,54.221741],[-3.248778,54.22161],[-3.249209,54.221339],[-3.249954,54.221579],[-3.249283,54.22129],[-3.250356,54.220134],[-3.250799,54.220116],[-3.250302,54.220024],[-3.250379,54.21915],[-3.249876,54.218961],[-3.249498,54.218334],[-3.250689,54.218051],[-3.249583,54.218126],[-3.250132,54.217561],[-3.250908,54.217906],[-3.250229,54.217384],[-3.250461,54.217168],[-3.252405,54.217297],[-3.252124,54.218218],[-3.251558,54.21848],[-3.252049,54.218346],[-3.251749,54.218884],[-3.250237,54.218667],[-3.25099,54.218905],[-3.250782,54.219501],[-3.251962,54.220281],[-3.250957,54.220558],[-3.250288,54.221296],[-3.251052,54.221649],[-3.251951,54.22107],[-3.252422,54.221311],[-3.252052,54.220912],[-3.25341,54.221079],[-3.253055,54.221663],[-3.253124,54.222272],[-3.251582,54.221993],[-3.251331,54.222433],[-3.250477,54.222312],[-3.250353,54.222501],[-3.25093,54.22309],[-3.25177,54.222613],[-3.252754,54.223245],[-3.252003,54.2236],[-3.251934,54.224069],[-3.250876,54.224828],[-3.250921,54.224921],[-3.251162,54.224991],[-3.251637,54.224963],[-3.251776,54.225132],[-3.25162,54.224873],[-3.250998,54.224923],[-3.25221,54.223835],[-3.252349,54.225821],[-3.251125,54.227915],[-3.252401,54.225837],[-3.252311,54.223845],[-3.252672,54.223679],[-3.253119,54.224043],[-3.25361,54.224222],[-3.254163,54.22427],[-3.253538,54.225579],[-3.254219,54.224264],[-3.252684,54.223626],[-3.252094,54.223784],[-3.252886,54.223207],[-3.252196,54.222668],[-3.251755,54.222531],[-3.251028,54.22287],[-3.250591,54.222654],[-3.250593,54.222388],[-3.25155,54.22247],[-3.251764,54.222043],[-3.253076,54.222384],[-3.253417,54.222312],[-3.253244,54.221727],[-3.253766,54.221193],[-3.252476,54.220691],[-3.252452,54.22026],[-3.251318,54.219399],[-3.252299,54.219039],[-3.252716,54.219235],[-3.252934,54.219861],[-3.25312,54.219483],[-3.252263,54.21893],[-3.253644,54.217455],[-3.253995,54.21735],[-3.254021,54.218032],[-3.254285,54.217329],[-3.254609,54.218132],[-3.253328,54.21887],[-3.253854,54.219774],[-3.253237,54.219989],[-3.253776,54.219887],[-3.253777,54.220732],[-3.253896,54.219975],[-3.254544,54.220068],[-3.254068,54.219839],[-3.254121,54.219166],[-3.253584,54.219243],[-3.253679,54.218827],[-3.254859,54.218011],[-3.254413,54.217278],[-3.253925,54.217029],[-3.255452,54.217272],[-3.255477,54.217898],[-3.254868,54.218739],[-3.255502,54.217955],[-3.255625,54.217326],[-3.25562,54.217904],[-3.255404,54.218259],[-3.255954,54.218516],[-3.255927,54.219106],[-3.254721,54.222291],[-3.256038,54.219171],[-3.256149,54.2185],[-3.255601,54.21815],[-3.256089,54.217424],[-3.255142,54.216702],[-3.256051,54.216525],[-3.256048,54.217068],[-3.256091,54.216268],[-3.255824,54.216557],[-3.255134,54.216651],[-3.25483,54.216952],[-3.254268,54.216728],[-3.255003,54.216367],[-3.253636,54.216795],[-3.253393,54.215806],[-3.25376,54.216119],[-3.253489,54.2158],[-3.254093,54.216063],[-3.254466,54.215879],[-3.254087,54.21602],[-3.253666,54.215681],[-3.25583,54.215489],[-3.255267,54.216107],[-3.255911,54.215515],[-3.256128,54.216007],[-3.256418,54.215686],[-3.256542,54.216662],[-3.256696,54.215533],[-3.256129,54.215759],[-3.256054,54.215373],[-3.256776,54.21506],[-3.256805,54.215488],[-3.257429,54.215257],[-3.256849,54.215407],[-3.256933,54.214867],[-3.257862,54.215048],[-3.256904,54.214792],[-3.257107,54.214232],[-3.259498,54.214096],[-3.259292,54.214647],[-3.258533,54.214867],[-3.259125,54.214746],[-3.259581,54.214528],[-3.259636,54.214117],[-3.259951,54.214406],[-3.260378,54.214277],[-3.259933,54.214383],[-3.259824,54.21412],[-3.261299,54.213839],[-3.261811,54.214132],[-3.261427,54.213719],[-3.261903,54.212967],[-3.262566,54.21368],[-3.262978,54.21355],[-3.262891,54.213113],[-3.2636,54.212899],[-3.264222,54.213177],[-3.264502,54.213188],[-3.264941,54.213148],[-3.26536,54.212879],[-3.265837,54.213421],[-3.265337,54.212832],[-3.264338,54.213147],[-3.263608,54.212824],[-3.262745,54.213091],[-3.262582,54.213619],[-3.261844,54.212799],[-3.261315,54.21367],[-3.260002,54.213998],[-3.257594,54.213872],[-3.257072,54.213292],[-3.259324,54.213332],[-3.25954,54.213264],[-3.259967,54.212834],[-3.259845,54.212613],[-3.259166,54.212554],[-3.259907,54.212739],[-3.259414,54.213286],[-3.256861,54.21328],[-3.256667,54.212606],[-3.257039,54.212275],[-3.257735,54.212354],[-3.257128,54.212196],[-3.256748,54.21235],[-3.25768,54.211771],[-3.258917,54.212177],[-3.259283,54.211983],[-3.259715,54.212318],[-3.260419,54.212293],[-3.26068,54.212203],[-3.259702,54.212276],[-3.259201,54.211866],[-3.258925,54.212096],[-3.257833,54.211572],[-3.256178,54.212584],[-3.256483,54.211941],[-3.256124,54.211406],[-3.257091,54.21161],[-3.254123,54.210301],[-3.254012,54.210614],[-3.255793,54.211397],[-3.255807,54.212476],[-3.256458,54.212853],[-3.255822,54.212607],[-3.255875,54.212827],[-3.256409,54.212933],[-3.2572,54.213705],[-3.255685,54.214764],[-3.255983,54.213948],[-3.255325,54.214801],[-3.255897,54.214781],[-3.256618,54.21443],[-3.256343,54.214991],[-3.251498,54.215831],[-3.250499,54.215576],[-3.250091,54.214055],[-3.250492,54.214004],[-3.250958,54.215325],[-3.250747,54.214004],[-3.249405,54.213786],[-3.249312,54.212683],[-3.250006,54.211346],[-3.249852,54.209512],[-3.245192,54.208328],[-3.239977,54.204162],[-3.239223,54.203116],[-3.240395,54.203145],[-3.24512,54.200884],[-3.24538,54.199025],[-3.24611,54.197955],[-3.248243,54.195811],[-3.250609,54.194636],[-3.254234,54.191543],[-3.256308,54.192581],[-3.262607,54.190382],[-3.265446,54.190081],[-3.2689,54.190189],[-3.273582,54.191339],[-3.27591,54.192455],[-3.281756,54.197155],[-3.285914,54.196213],[-3.287438,54.196825],[-3.287209,54.198629],[-3.287997,54.19696],[-3.286473,54.195561],[-3.288408,54.193586],[-3.297992,54.189976],[-3.287986,54.19248],[-3.290886,54.190289],[-3.2866,54.190868],[-3.290537,54.188858],[-3.282687,54.191132],[-3.276588,54.190575],[-3.288637,54.188768],[-3.289519,54.187912],[-3.301009,54.187721],[-3.311589,54.188658],[-3.315881,54.188665],[-3.320025,54.189587],[-3.324171,54.191524],[-3.331014,54.197458],[-3.351143,54.218738],[-3.364928,54.231783],[-3.379289,54.244339],[-3.386571,54.249235],[-3.389175,54.251769],[-3.3927,54.253279],[-3.39409,54.25436],[-3.40373,54.264319],[-3.404721,54.267845],[-3.408882,54.271365],[-3.410946,54.273849],[-3.413569,54.276119],[-3.417159,54.279782],[-3.420507,54.28392],[-3.419929,54.284004],[-3.42098,54.284903],[-3.420933,54.285734],[-3.419879,54.28669],[-3.419926,54.287748],[-3.422147,54.291267],[-3.422693,54.293943],[-3.420932,54.295927],[-3.418552,54.296298],[-3.417479,54.297132],[-3.415956,54.301478],[-3.415802,54.305285],[-3.416128,54.309231],[-3.417571,54.314095],[-3.424913,54.328684],[-3.425076,54.332644],[-3.423686,54.336456],[-3.423238,54.339142],[-3.421407,54.341081],[-3.414341,54.345326],[-3.412317,54.349813],[-3.411138,54.350315],[-3.410003,54.350348],[-3.409148,54.349719],[-3.408947,54.348889],[-3.410894,54.345223],[-3.409829,54.342524],[-3.41039,54.340839],[-3.412057,54.339075],[-3.411908,54.338148],[-3.411226,54.337548],[-3.409784,54.33719],[-3.4088,54.336528],[-3.403627,54.335406],[-3.403048,54.335149],[-3.403146,54.334821],[-3.402592,54.334518],[-3.40305,54.334813],[-3.402493,54.335122],[-3.402971,54.335293],[-3.4002,54.335149],[-3.400378,54.334631],[-3.401118,54.334347],[-3.400697,54.334076],[-3.401031,54.333151],[-3.401658,54.333041],[-3.401758,54.332812],[-3.400916,54.332263],[-3.400133,54.332654],[-3.400729,54.331783],[-3.399623,54.331888],[-3.39906,54.331128],[-3.39949,54.331926],[-3.400612,54.331798],[-3.399923,54.332667],[-3.400296,54.332775],[-3.400919,54.332357],[-3.401539,54.332948],[-3.400895,54.333114],[-3.400268,54.334225],[-3.399155,54.334416],[-3.398709,54.3335],[-3.398406,54.333562],[-3.398841,54.334183],[-3.398357,54.334291],[-3.398876,54.334396],[-3.397484,54.335175],[-3.396624,54.335197],[-3.397242,54.335311],[-3.39781,54.335167],[-3.398132,54.335722],[-3.397939,54.33507],[-3.399741,54.334457],[-3.398794,54.335135],[-3.399261,54.334907],[-3.399186,54.335238],[-3.392223,54.339705],[-3.391884,54.338776],[-3.392601,54.338012],[-3.391987,54.33765],[-3.393036,54.337606],[-3.393364,54.33725],[-3.393032,54.337057],[-3.392299,54.337284],[-3.392432,54.336576],[-3.391892,54.336513],[-3.391802,54.336779],[-3.391469,54.336548],[-3.391964,54.336208],[-3.391419,54.33652],[-3.391658,54.33688],[-3.392211,54.33657],[-3.392213,54.337316],[-3.393183,54.337258],[-3.391858,54.337608],[-3.392428,54.338031],[-3.391478,54.338517],[-3.39194,54.338492],[-3.391709,54.338844],[-3.39171,54.339665],[-3.387887,54.341057],[-3.387521,54.340915],[-3.387924,54.340671],[-3.387853,54.340617],[-3.386949,54.340423],[-3.387809,54.340638],[-3.387375,54.340922],[-3.387703,54.341201],[-3.386754,54.342696],[-3.386607,54.344416],[-3.385924,54.344067],[-3.38521,54.343976],[-3.38532,54.344509],[-3.38392,54.34472],[-3.384382,54.345247],[-3.384719,54.344939],[-3.384327,54.344744],[-3.385524,54.344538],[-3.385329,54.344044],[-3.386074,54.344203],[-3.387203,54.345544],[-3.384108,54.347982],[-3.383508,54.349783],[-3.381039,54.350937],[-3.379804,54.350773],[-3.377071,54.34946],[-3.375477,54.349399],[-3.374466,54.34972],[-3.373889,54.350314],[-3.37329,54.35135],[-3.372926,54.351061],[-3.372881,54.351304],[-3.37336,54.351395],[-3.374021,54.350261],[-3.373283,54.353381],[-3.373849,54.35546],[-3.372588,54.355587],[-3.372172,54.353887],[-3.371224,54.353307],[-3.370041,54.35333],[-3.36894,54.353673],[-3.367594,54.355173],[-3.366531,54.355632],[-3.36769,54.356992],[-3.365895,54.357327],[-3.362499,54.357334],[-3.360653,54.357802],[-3.360466,54.358573],[-3.362351,54.358639],[-3.362386,54.358971],[-3.35858,54.359976],[-3.355228,54.3617],[-3.355283,54.362121],[-3.356716,54.363241],[-3.354088,54.363108],[-3.354488,54.364062],[-3.354058,54.364192],[-3.35392,54.364621],[-3.354149,54.365396],[-3.353306,54.365728],[-3.353973,54.365782],[-3.35431,54.365436],[-3.354126,54.364619],[-3.354679,54.364093],[-3.354473,54.363183],[-3.356978,54.363358],[-3.355459,54.362052],[-3.355486,54.361677],[-3.358593,54.360124],[-3.362518,54.359071],[-3.362461,54.358476],[-3.360632,54.358457],[-3.360775,54.357924],[-3.362519,54.357486],[-3.36609,54.35749],[-3.36759,54.357246],[-3.368118,54.356729],[-3.366825,54.355765],[-3.367801,54.355328],[-3.369119,54.353939],[-3.370186,54.353515],[-3.370941,54.353544],[-3.371772,54.354041],[-3.372063,54.355719],[-3.372798,54.356064],[-3.373694,54.355937],[-3.374306,54.355233],[-3.37488,54.349905],[-3.376456,54.349639],[-3.378258,54.350876],[-3.38041,54.351313],[-3.382042,54.351055],[-3.383892,54.350301],[-3.385558,54.347679],[-3.389401,54.344614],[-3.389492,54.342484],[-3.389832,54.341825],[-3.396619,54.340361],[-3.397105,54.340345],[-3.396369,54.340614],[-3.398003,54.340351],[-3.400243,54.339541],[-3.400321,54.340618],[-3.400664,54.340037],[-3.401106,54.340013],[-3.401609,54.340406],[-3.401293,54.3405],[-3.401654,54.340619],[-3.402765,54.34059],[-3.401647,54.340542],[-3.401664,54.340306],[-3.401375,54.340129],[-3.401934,54.339878],[-3.400657,54.339915],[-3.400381,54.339489],[-3.40403,54.339234],[-3.404483,54.33793],[-3.404845,54.339042],[-3.405018,54.33829],[-3.406527,54.340117],[-3.405394,54.340187],[-3.406556,54.340214],[-3.407032,54.341249],[-3.4058,54.342473],[-3.40587,54.343266],[-3.405389,54.343648],[-3.405861,54.34444],[-3.405203,54.348391],[-3.406603,54.351059],[-3.409432,54.352749],[-3.411652,54.352966],[-3.411916,54.353971],[-3.410758,54.356907],[-3.411344,54.357387],[-3.41039,54.357214],[-3.409971,54.357512],[-3.409743,54.359194],[-3.40782,54.360617],[-3.403983,54.361224],[-3.403225,54.361942],[-3.402731,54.361746],[-3.403192,54.362815],[-3.402386,54.363724],[-3.401618,54.363492],[-3.402272,54.363959],[-3.401049,54.36414],[-3.400337,54.364613],[-3.401017,54.365381],[-3.399612,54.365095],[-3.399867,54.366431],[-3.398905,54.366136],[-3.398349,54.366619],[-3.397908,54.366545],[-3.398416,54.366734],[-3.398946,54.366194],[-3.399961,54.366565],[-3.399791,54.365159],[-3.401171,54.365624],[-3.401247,54.365117],[-3.402979,54.364285],[-3.403255,54.363607],[-3.404143,54.363188],[-3.403303,54.363486],[-3.404215,54.362026],[-3.404867,54.362116],[-3.405134,54.36252],[-3.405391,54.362241],[-3.406717,54.36255],[-3.407815,54.362115],[-3.408227,54.362345],[-3.407184,54.362486],[-3.409201,54.362978],[-3.408983,54.362501],[-3.410199,54.362575],[-3.409971,54.362984],[-3.41045,54.363338],[-3.41023,54.363125],[-3.410855,54.363109],[-3.410975,54.362764],[-3.411635,54.363012],[-3.411031,54.362643],[-3.410687,54.361115],[-3.411993,54.362171],[-3.411883,54.362588],[-3.41249,54.362462],[-3.412871,54.362994],[-3.412357,54.363219],[-3.412518,54.363587],[-3.413078,54.363181],[-3.413914,54.363235],[-3.414228,54.364149],[-3.414662,54.363651],[-3.416153,54.363712],[-3.414621,54.363385],[-3.414356,54.362387],[-3.413353,54.362373],[-3.413483,54.361504],[-3.413012,54.361742],[-3.410703,54.36043],[-3.412897,54.36079],[-3.413504,54.359467],[-3.411847,54.357817],[-3.412697,54.358168],[-3.414813,54.356941],[-3.416032,54.357235],[-3.417965,54.358761],[-3.42032,54.359483],[-3.422523,54.359702],[-3.426736,54.35889],[-3.428371,54.356026],[-3.429851,54.355754],[-3.430907,54.355984],[-3.430507,54.356328],[-3.431585,54.356976],[-3.432313,54.357076],[-3.432162,54.357064],[-3.431715,54.357485],[-3.432414,54.357104],[-3.430629,54.356326],[-3.431381,54.356115],[-3.432692,54.356622],[-3.435031,54.358244],[-3.435772,54.359429],[-3.437918,54.3605],[-3.437636,54.361724],[-3.435329,54.363341],[-3.435214,54.363627],[-3.43544,54.363707],[-3.434803,54.363876],[-3.434588,54.364331],[-3.43477,54.36396],[-3.435374,54.363815],[-3.43592,54.363188],[-3.436619,54.365066],[-3.435476,54.365057],[-3.436683,54.365666],[-3.436345,54.365854],[-3.436444,54.366579],[-3.436415,54.365893],[-3.436843,54.365753],[-3.43605,54.365215],[-3.43691,54.365312],[-3.438125,54.366183],[-3.438,54.366534],[-3.438282,54.36612],[-3.439894,54.366834],[-3.442443,54.369561],[-3.440342,54.372201],[-3.439375,54.372652],[-3.436896,54.372655],[-3.436125,54.374062],[-3.435196,54.373869],[-3.43412,54.372851],[-3.432021,54.373086],[-3.432607,54.37391],[-3.434279,54.374123],[-3.432239,54.374679],[-3.43203,54.375898],[-3.430652,54.376884],[-3.432079,54.37605],[-3.432428,54.374794],[-3.434537,54.374355],[-3.434299,54.373891],[-3.432798,54.373814],[-3.432339,54.373202],[-3.434143,54.373008],[-3.435121,54.374061],[-3.436056,54.374321],[-3.437608,54.372716],[-3.439632,54.372893],[-3.442072,54.371384],[-3.443003,54.371616],[-3.442174,54.371157],[-3.44342,54.369011],[-3.442202,54.367009],[-3.439429,54.364215],[-3.441228,54.363447],[-3.442055,54.361528],[-3.44075,54.361029],[-3.440653,54.359081],[-3.439351,54.357786],[-3.439626,54.357473],[-3.439077,54.357631],[-3.435527,54.356062],[-3.433,54.354484],[-3.424316,54.353401],[-3.420736,54.353906],[-3.417452,54.353294],[-3.420352,54.353208],[-3.419635,54.352362],[-3.417604,54.351147],[-3.416772,54.349899],[-3.418112,54.348463],[-3.425165,54.344964],[-3.429342,54.342248],[-3.431494,54.342324],[-3.434721,54.343916],[-3.442289,54.350235],[-3.460876,54.364592],[-3.47177,54.375207],[-3.473326,54.375501],[-3.472429,54.377205],[-3.472628,54.379149],[-3.474535,54.383755],[-3.476385,54.386343],[-3.492532,54.401122],[-3.50543,54.409554],[-3.504897,54.410101],[-3.503457,54.410272],[-3.502866,54.410738],[-3.504761,54.410531],[-3.507643,54.413835],[-3.512557,54.417902],[-3.513151,54.417785],[-3.506942,54.412568],[-3.506237,54.411411],[-3.507235,54.411524],[-3.508314,54.412217],[-3.512467,54.415765],[-3.514071,54.416704],[-3.515795,54.418553],[-3.525744,54.425731],[-3.541964,54.438816],[-3.555315,54.447811],[-3.563556,54.451927],[-3.564226,54.454245],[-3.565987,54.456001],[-3.566998,54.456398],[-3.567851,54.458114],[-3.570292,54.459989],[-3.574964,54.462546],[-3.578431,54.465066],[-3.579666,54.468179],[-3.581143,54.469342],[-3.582302,54.472098],[-3.584754,54.473852],[-3.586205,54.475821],[-3.590295,54.478322],[-3.591048,54.480135],[-3.593293,54.482288],[-3.603659,54.488869],[-3.608132,54.490974],[-3.609571,54.491048],[-3.610004,54.490817],[-3.609834,54.490392],[-3.610778,54.490175],[-3.616785,54.489956],[-3.619606,54.490929],[-3.620859,54.492159],[-3.620899,54.492905],[-3.622841,54.495983],[-3.626227,54.500048],[-3.627107,54.502063],[-3.630372,54.504282],[-3.63353,54.504971],[-3.635946,54.507188],[-3.638936,54.512026],[-3.63979,54.514438],[-3.638509,54.517899],[-3.629791,54.520125],[-3.625538,54.520743],[-3.624453,54.521895],[-3.622708,54.522818],[-3.613279,54.525261],[-3.611688,54.527527],[-3.607251,54.530825],[-3.605941,54.532712],[-3.603112,54.540098],[-3.6033,54.542044],[-3.602556,54.542572],[-3.599009,54.549351],[-3.59866,54.550926],[-3.599247,54.551331],[-3.598988,54.552788],[-3.598371,54.552822],[-3.599029,54.552226],[-3.598988,54.5515],[-3.597774,54.550715],[-3.597103,54.551089],[-3.597572,54.550393],[-3.595623,54.549642],[-3.592912,54.550734],[-3.593309,54.551229],[-3.592654,54.551398],[-3.592546,54.552095],[-3.595816,54.552886],[-3.59111,54.552173],[-3.590145,54.554668],[-3.590302,54.559446],[-3.588946,54.56106],[-3.584414,54.564149],[-3.583395,54.565696],[-3.583816,54.568536],[-3.582938,54.570363],[-3.580918,54.571113],[-3.580348,54.572035],[-3.581318,54.574843],[-3.580519,54.575177],[-3.581426,54.57496],[-3.581916,54.575413],[-3.582691,54.582212],[-3.583398,54.583227],[-3.581753,54.586844],[-3.58214,54.589612],[-3.582938,54.590784],[-3.582261,54.591538],[-3.580756,54.591683],[-3.580397,54.592737],[-3.579032,54.59276],[-3.578381,54.593161],[-3.577972,54.594566],[-3.576774,54.595214],[-3.57586,54.598126],[-3.573833,54.600065],[-3.57255,54.600693],[-3.570733,54.602776],[-3.571846,54.606716],[-3.570547,54.607604],[-3.570254,54.609143],[-3.57128,54.611702],[-3.570784,54.61238],[-3.571366,54.612659],[-3.570704,54.612595],[-3.570292,54.611967],[-3.568171,54.612149],[-3.568048,54.611809],[-3.566398,54.611816],[-3.565879,54.612286],[-3.567341,54.612722],[-3.568253,54.612342],[-3.567672,54.61274],[-3.568389,54.613072],[-3.568968,54.615965],[-3.570694,54.618534],[-3.57084,54.619693],[-3.569779,54.62314],[-3.571874,54.628484],[-3.573542,54.630685],[-3.573084,54.630784],[-3.573174,54.631429],[-3.575519,54.63519],[-3.574595,54.63934],[-3.575874,54.646663],[-3.578783,54.651947],[-3.579924,54.652306],[-3.577776,54.651941],[-3.571969,54.649],[-3.567457,54.648896],[-3.566104,54.648477],[-3.567096,54.647965],[-3.567212,54.647449],[-3.565349,54.64757],[-3.565345,54.647949],[-3.564533,54.647031],[-3.561918,54.646304],[-3.558174,54.646015],[-3.557071,54.64626],[-3.560622,54.64695],[-3.563401,54.647021],[-3.56442,54.648015],[-3.562889,54.647424],[-3.559962,54.647567],[-3.558399,54.647929],[-3.556607,54.649123],[-3.553273,54.649952],[-3.547374,54.6487],[-3.544828,54.647164],[-3.544335,54.647181],[-3.54597,54.648685],[-3.551246,54.650284],[-3.553925,54.650628],[-3.555793,54.650396],[-3.560575,54.648564],[-3.563402,54.648143],[-3.568006,54.649739],[-3.568139,54.650088],[-3.567245,54.650669],[-3.569764,54.651413],[-3.571712,54.650905],[-3.569864,54.651467],[-3.568711,54.651179],[-3.566996,54.653827],[-3.565309,54.654276],[-3.563905,54.655282],[-3.563196,54.657153],[-3.562051,54.657151],[-3.561319,54.658103],[-3.56106,54.660832],[-3.561547,54.661753],[-3.56109,54.662418],[-3.558031,54.664054],[-3.553158,54.667408],[-3.550041,54.67036],[-3.547629,54.67387],[-3.543549,54.676577],[-3.53814,54.678801],[-3.533479,54.681868],[-3.529866,54.683514],[-3.526238,54.685807],[-3.519205,54.692689],[-3.515694,54.699119],[-3.514324,54.700723],[-3.513477,54.704306],[-3.511619,54.706321],[-3.510076,54.710939],[-3.509405,54.717406],[-3.51066,54.717773],[-3.507448,54.716935],[-3.507549,54.715966],[-3.507057,54.715734],[-3.504943,54.715576],[-3.504155,54.716078],[-3.504575,54.71458],[-3.504197,54.714294],[-3.503671,54.714459],[-3.503444,54.715791],[-3.501632,54.714925],[-3.501228,54.71401],[-3.501802,54.712779],[-3.503599,54.712381],[-3.504279,54.711611],[-3.504107,54.71103],[-3.503247,54.710476],[-3.501324,54.709901],[-3.500485,54.7103],[-3.500754,54.711119],[-3.5003,54.711541],[-3.497094,54.711576],[-3.495132,54.71193],[-3.493586,54.712878],[-3.496147,54.711783],[-3.498027,54.711644],[-3.500046,54.711984],[-3.501587,54.711101],[-3.501125,54.710548],[-3.501343,54.710144],[-3.503071,54.710656],[-3.503847,54.711503],[-3.502889,54.712233],[-3.50264,54.711998],[-3.501959,54.712228],[-3.501242,54.713017],[-3.501052,54.715316],[-3.50228,54.716245],[-3.503617,54.716366],[-3.502245,54.716333],[-3.50225,54.716955],[-3.504432,54.716859],[-3.507691,54.717558],[-3.504499,54.716932],[-3.501126,54.71715],[-3.498592,54.719642],[-3.498314,54.720719],[-3.495809,54.724234],[-3.49405,54.725471],[-3.490368,54.727818],[-3.485173,54.729674],[-3.483509,54.730662],[-3.478996,54.732382],[-3.471834,54.73615],[-3.465586,54.738244],[-3.461057,54.740574],[-3.456296,54.744042],[-3.451676,54.74812],[-3.441113,54.754688],[-3.436617,54.758866],[-3.434491,54.762373],[-3.431927,54.772558],[-3.431391,54.781214],[-3.433374,54.787381],[-3.437634,54.795612],[-3.438384,54.799749],[-3.437714,54.801998],[-3.435145,54.806246],[-3.430914,54.811068],[-3.427443,54.818381],[-3.426438,54.819701],[-3.425036,54.820588],[-3.419604,54.828368],[-3.414923,54.834178],[-3.410485,54.841639],[-3.410042,54.843172],[-3.40903,54.844065],[-3.406149,54.854956],[-3.405002,54.856356],[-3.404583,54.860568],[-3.403107,54.862755],[-3.401498,54.863377],[-3.399858,54.867415],[-3.397917,54.868604],[-3.39832,54.868886],[-3.394764,54.867805],[-3.394121,54.868074],[-3.394148,54.868542],[-3.396648,54.869272],[-3.396915,54.868994],[-3.397452,54.86914],[-3.396416,54.869861],[-3.393324,54.870439],[-3.386168,54.875024],[-3.377405,54.88351],[-3.377428,54.8839],[-3.376109,54.88429],[-3.366527,54.89167],[-3.358751,54.893805],[-3.357021,54.894802],[-3.355879,54.894958],[-3.354161,54.895731],[-3.350575,54.89771],[-3.345114,54.899674],[-3.341287,54.900305],[-3.338368,54.900315],[-3.337041,54.900053],[-3.335227,54.899169],[-3.33518,54.898631],[-3.340911,54.897223],[-3.341819,54.896568],[-3.347092,54.894896],[-3.348885,54.893797],[-3.35044,54.893696],[-3.351025,54.893362],[-3.350816,54.892621],[-3.353442,54.892446],[-3.354574,54.892042],[-3.355035,54.891194],[-3.355438,54.891896],[-3.355778,54.891968],[-3.357655,54.891974],[-3.359018,54.891304],[-3.359604,54.890786],[-3.359118,54.890151],[-3.360013,54.890186],[-3.36063,54.88957],[-3.360285,54.889204],[-3.358722,54.888274],[-3.35841,54.888169],[-3.35816,54.888194],[-3.35777,54.888483],[-3.357339,54.888238],[-3.358082,54.887653],[-3.358861,54.887668],[-3.359304,54.887561],[-3.359722,54.886357],[-3.35926,54.885785],[-3.358529,54.885545],[-3.359675,54.886358],[-3.359273,54.887551],[-3.358116,54.887626],[-3.357291,54.888214],[-3.35778,54.88851],[-3.358328,54.88819],[-3.358767,54.888323],[-3.360572,54.889571],[-3.359945,54.890169],[-3.359329,54.890037],[-3.359014,54.89017],[-3.359524,54.890788],[-3.358971,54.891252],[-3.357725,54.891892],[-3.356664,54.891579],[-3.356588,54.891821],[-3.355623,54.891806],[-3.355635,54.891219],[-3.354368,54.890356],[-3.353196,54.889998],[-3.354152,54.889252],[-3.353165,54.888393],[-3.354109,54.889282],[-3.353112,54.88986],[-3.352034,54.889418],[-3.354839,54.891054],[-3.354368,54.891615],[-3.353933,54.8915],[-3.354344,54.89196],[-3.353096,54.892321],[-3.35083,54.89219],[-3.350365,54.892503],[-3.34949,54.892049],[-3.350659,54.893168],[-3.349875,54.893567],[-3.348149,54.892891],[-3.349122,54.893423],[-3.34785,54.893833],[-3.346933,54.892904],[-3.347511,54.892755],[-3.346253,54.892554],[-3.348575,54.891169],[-3.349158,54.89121],[-3.349954,54.890744],[-3.348487,54.890998],[-3.348387,54.890477],[-3.34924,54.889701],[-3.348846,54.8891],[-3.347302,54.888603],[-3.346057,54.889138],[-3.345262,54.888619],[-3.346047,54.888672],[-3.346386,54.888655],[-3.34645,54.888595],[-3.346405,54.888225],[-3.345535,54.887977],[-3.345738,54.887792],[-3.34541,54.887968],[-3.346386,54.888251],[-3.34633,54.888633],[-3.345654,54.888409],[-3.34213,54.88881],[-3.34192,54.888184],[-3.34285,54.888118],[-3.341278,54.8878],[-3.342556,54.886025],[-3.340786,54.885666],[-3.339647,54.886256],[-3.338292,54.88597],[-3.338956,54.885489],[-3.341421,54.885174],[-3.341691,54.884589],[-3.342579,54.884284],[-3.342527,54.885089],[-3.342979,54.885245],[-3.342555,54.885042],[-3.342794,54.883715],[-3.342552,54.883555],[-3.342165,54.883586],[-3.341524,54.883024],[-3.340873,54.882803],[-3.341049,54.882497],[-3.340773,54.8827],[-3.340847,54.882848],[-3.341818,54.883521],[-3.342761,54.883758],[-3.342487,54.884202],[-3.341542,54.884658],[-3.341378,54.885125],[-3.339191,54.885348],[-3.338101,54.885946],[-3.334197,54.885742],[-3.334357,54.885284],[-3.333723,54.885196],[-3.334037,54.885699],[-3.326855,54.885227],[-3.333945,54.885794],[-3.33794,54.886],[-3.339516,54.886366],[-3.340711,54.88581],[-3.341392,54.885821],[-3.342017,54.886264],[-3.34091,54.887781],[-3.341825,54.88899],[-3.344899,54.888813],[-3.345752,54.88929],[-3.345633,54.889527],[-3.347366,54.889052],[-3.348714,54.889436],[-3.348188,54.890139],[-3.347735,54.890055],[-3.347917,54.891401],[-3.34522,54.892426],[-3.345106,54.891686],[-3.34669,54.891091],[-3.346157,54.890852],[-3.346313,54.891102],[-3.345867,54.891175],[-3.342327,54.889424],[-3.338871,54.888478],[-3.342479,54.889535],[-3.342603,54.890072],[-3.342915,54.889774],[-3.343958,54.89038],[-3.342826,54.89067],[-3.343997,54.890422],[-3.344811,54.890804],[-3.344063,54.890928],[-3.345395,54.891065],[-3.344667,54.891933],[-3.34477,54.892383],[-3.346514,54.893171],[-3.347088,54.893789],[-3.346351,54.894569],[-3.346228,54.894335],[-3.345591,54.894598],[-3.344646,54.894442],[-3.343074,54.893395],[-3.342249,54.892013],[-3.341141,54.891081],[-3.342618,54.89285],[-3.338897,54.890654],[-3.337493,54.890198],[-3.339856,54.891378],[-3.337618,54.891493],[-3.339868,54.891467],[-3.340541,54.891947],[-3.340025,54.892268],[-3.340546,54.891977],[-3.340546,54.891842],[-3.341245,54.892121],[-3.341531,54.892414],[-3.340837,54.892692],[-3.341668,54.892483],[-3.343168,54.893677],[-3.342818,54.893843],[-3.34332,54.893789],[-3.343158,54.894063],[-3.34342,54.89387],[-3.344583,54.894605],[-3.344567,54.895029],[-3.343192,54.895252],[-3.342284,54.894275],[-3.341224,54.893691],[-3.341422,54.893326],[-3.340903,54.893443],[-3.341457,54.893921],[-3.341197,54.894078],[-3.342096,54.894263],[-3.343028,54.895242],[-3.341901,54.89557],[-3.341649,54.894897],[-3.341567,54.89549],[-3.340866,54.895806],[-3.340242,54.895683],[-3.339754,54.89487],[-3.340382,54.894271],[-3.339788,54.894753],[-3.339212,54.894336],[-3.338973,54.893674],[-3.339392,54.893445],[-3.338527,54.893418],[-3.338228,54.892724],[-3.337758,54.892776],[-3.336791,54.892132],[-3.336087,54.891223],[-3.334431,54.890596],[-3.336237,54.889878],[-3.337044,54.890104],[-3.336307,54.889846],[-3.335198,54.890068],[-3.33494,54.889527],[-3.335707,54.889058],[-3.335163,54.889176],[-3.33522,54.888889],[-3.334894,54.888518],[-3.336164,54.888284],[-3.334542,54.888409],[-3.334462,54.887654],[-3.334328,54.888276],[-3.335138,54.88886],[-3.334688,54.889536],[-3.33504,54.890156],[-3.334641,54.890343],[-3.333063,54.890275],[-3.333296,54.889657],[-3.332935,54.890351],[-3.331811,54.890096],[-3.331628,54.889733],[-3.332713,54.88901],[-3.33248,54.888779],[-3.331857,54.889571],[-3.331353,54.889251],[-3.331451,54.889805],[-3.33001,54.889667],[-3.330803,54.889093],[-3.329589,54.889583],[-3.329917,54.889376],[-3.329613,54.888961],[-3.330486,54.88833],[-3.329668,54.888327],[-3.329436,54.888909],[-3.329705,54.889463],[-3.328463,54.889184],[-3.328721,54.889079],[-3.328414,54.888849],[-3.329063,54.888114],[-3.328336,54.888854],[-3.328659,54.889044],[-3.32791,54.889166],[-3.330647,54.889863],[-3.330606,54.890062],[-3.328705,54.890112],[-3.324751,54.88907],[-3.326347,54.887991],[-3.325932,54.887995],[-3.325812,54.887279],[-3.326408,54.88701],[-3.326021,54.886911],[-3.325713,54.887291],[-3.325811,54.888219],[-3.324649,54.888942],[-3.323023,54.889047],[-3.323145,54.888555],[-3.322539,54.889214],[-3.317902,54.889234],[-3.31623,54.888925],[-3.317371,54.888349],[-3.31838,54.888548],[-3.318572,54.887846],[-3.319341,54.888076],[-3.31943,54.88774],[-3.319245,54.887987],[-3.318796,54.887797],[-3.318444,54.887862],[-3.31833,54.888479],[-3.317334,54.888296],[-3.315585,54.888969],[-3.314521,54.888744],[-3.314559,54.888474],[-3.314348,54.888766],[-3.311772,54.888253],[-3.312836,54.888017],[-3.312513,54.887837],[-3.312188,54.888128],[-3.311215,54.888117],[-3.308572,54.887159],[-3.308582,54.886879],[-3.308095,54.887012],[-3.305925,54.885871],[-3.307068,54.884894],[-3.305765,54.885839],[-3.301974,54.885234],[-3.302257,54.884482],[-3.301676,54.885113],[-3.29612,54.882418],[-3.297167,54.882498],[-3.297584,54.882403],[-3.298168,54.88269],[-3.298353,54.88228],[-3.299819,54.881588],[-3.300043,54.881748],[-3.301903,54.882316],[-3.301054,54.881977],[-3.301159,54.881721],[-3.300888,54.881915],[-3.300111,54.881694],[-3.300329,54.881255],[-3.299752,54.880471],[-3.298144,54.879793],[-3.299178,54.880262],[-3.300271,54.881293],[-3.298257,54.882261],[-3.298173,54.882604],[-3.297553,54.882312],[-3.296383,54.882207],[-3.296256,54.881353],[-3.296266,54.882192],[-3.29527,54.881752],[-3.295772,54.882161],[-3.293796,54.880786],[-3.295066,54.879193],[-3.296004,54.880222],[-3.296401,54.880192],[-3.296446,54.879501],[-3.295651,54.87875],[-3.296848,54.878459],[-3.295535,54.87873],[-3.296379,54.879554],[-3.296076,54.880172],[-3.295251,54.878698],[-3.294341,54.877963],[-3.294603,54.877254],[-3.293917,54.876558],[-3.294409,54.87609],[-3.293859,54.876538],[-3.294539,54.877252],[-3.294343,54.877711],[-3.292149,54.876133],[-3.290144,54.875178],[-3.293555,54.877363],[-3.293081,54.877441],[-3.294015,54.877533],[-3.294051,54.877982],[-3.295135,54.878742],[-3.293314,54.880373],[-3.29144,54.878953],[-3.290874,54.878809],[-3.290623,54.878074],[-3.28901,54.878008],[-3.288491,54.877537],[-3.288752,54.877964],[-3.289048,54.87806],[-3.290423,54.878199],[-3.290747,54.878847],[-3.291418,54.879061],[-3.291649,54.87962],[-3.290299,54.87908],[-3.286988,54.878799],[-3.286658,54.878649],[-3.287047,54.878476],[-3.286241,54.878551],[-3.28545,54.87822],[-3.282113,54.875998],[-3.282227,54.875047],[-3.282983,54.874519],[-3.28231,54.874811],[-3.282878,54.873375],[-3.284927,54.871206],[-3.286417,54.868834],[-3.286324,54.86762],[-3.286974,54.867585],[-3.287155,54.867234],[-3.288183,54.866925],[-3.28703,54.867123],[-3.286838,54.86757],[-3.286264,54.867484],[-3.285087,54.864293],[-3.282642,54.862249],[-3.285481,54.859172],[-3.289278,54.859027],[-3.290195,54.859219],[-3.290381,54.859929],[-3.291091,54.860318],[-3.292496,54.860338],[-3.296301,54.858277],[-3.297425,54.857475],[-3.297123,54.857549],[-3.295728,54.855376],[-3.292059,54.854274],[-3.28907,54.854188],[-3.288379,54.853546],[-3.287281,54.8534],[-3.285765,54.854019],[-3.284568,54.853784],[-3.283586,54.853127],[-3.284941,54.854093],[-3.28617,54.854068],[-3.287554,54.853513],[-3.288295,54.85365],[-3.289179,54.854384],[-3.291562,54.854307],[-3.2945,54.855073],[-3.295907,54.855706],[-3.296936,54.857431],[-3.295341,54.858739],[-3.291772,54.860172],[-3.291232,54.859973],[-3.29079,54.859099],[-3.2896,54.858777],[-3.28623,54.858704],[-3.284285,54.859122],[-3.28338,54.860341],[-3.280625,54.861487],[-3.280107,54.862194],[-3.281094,54.863747],[-3.284084,54.865204],[-3.284335,54.865782],[-3.283413,54.866165],[-3.284514,54.865977],[-3.284833,54.867415],[-3.284376,54.868522],[-3.282835,54.869492],[-3.281201,54.869998],[-3.280912,54.869846],[-3.280199,54.869793],[-3.279985,54.869172],[-3.280192,54.86995],[-3.279605,54.870052],[-3.278914,54.869587],[-3.278631,54.868481],[-3.278297,54.868849],[-3.277016,54.867965],[-3.278136,54.868838],[-3.278377,54.868866],[-3.278636,54.868529],[-3.278873,54.869641],[-3.279617,54.870089],[-3.2807,54.869875],[-3.281269,54.870077],[-3.283777,54.869215],[-3.28088,54.87173],[-3.279482,54.874361],[-3.279097,54.877247],[-3.277034,54.877918],[-3.276772,54.877539],[-3.276725,54.877851],[-3.27705,54.877959],[-3.278638,54.877553],[-3.279285,54.878811],[-3.278894,54.879026],[-3.27887,54.879299],[-3.27753,54.879087],[-3.277737,54.879491],[-3.278663,54.879325],[-3.279054,54.87987],[-3.279077,54.879008],[-3.279618,54.878886],[-3.281759,54.880413],[-3.281749,54.881635],[-3.279626,54.881501],[-3.281708,54.88169],[-3.282222,54.882786],[-3.281843,54.88272],[-3.281949,54.883227],[-3.281324,54.883288],[-3.281785,54.883566],[-3.282176,54.882869],[-3.283708,54.884274],[-3.283882,54.887622],[-3.28328,54.887407],[-3.283314,54.886588],[-3.281608,54.884517],[-3.280804,54.883942],[-3.280057,54.884022],[-3.280883,54.884008],[-3.282571,54.885689],[-3.282936,54.886475],[-3.281327,54.886008],[-3.283167,54.886678],[-3.282845,54.887385],[-3.283515,54.8878],[-3.283715,54.888561],[-3.283361,54.888948],[-3.284021,54.888722],[-3.287374,54.889437],[-3.28779,54.890195],[-3.286753,54.89203],[-3.283943,54.892903],[-3.28376,54.8922],[-3.283367,54.892839],[-3.282175,54.892635],[-3.283846,54.891529],[-3.282919,54.891955],[-3.283528,54.891079],[-3.282065,54.892278],[-3.281653,54.891132],[-3.281654,54.892395],[-3.280989,54.89255],[-3.27879,54.892159],[-3.279766,54.89154],[-3.277745,54.892193],[-3.274476,54.891935],[-3.272705,54.891457],[-3.273888,54.890222],[-3.275929,54.891129],[-3.278207,54.891281],[-3.277408,54.891203],[-3.277378,54.890682],[-3.277336,54.891172],[-3.275931,54.89106],[-3.275053,54.890605],[-3.275308,54.890238],[-3.274745,54.889949],[-3.275569,54.88955],[-3.275272,54.889178],[-3.275722,54.889133],[-3.275027,54.889092],[-3.275938,54.888419],[-3.275046,54.887843],[-3.275869,54.888397],[-3.274991,54.889031],[-3.27495,54.889147],[-3.275451,54.889533],[-3.274649,54.889872],[-3.275061,54.890482],[-3.27387,54.890096],[-3.273473,54.890165],[-3.272598,54.891073],[-3.270625,54.891718],[-3.27043,54.890461],[-3.271684,54.890145],[-3.271833,54.889972],[-3.271061,54.889501],[-3.271681,54.890025],[-3.270396,54.890273],[-3.270421,54.891092],[-3.269699,54.891124],[-3.270347,54.891223],[-3.270219,54.891663],[-3.269391,54.892382],[-3.266696,54.893774],[-3.262459,54.895115],[-3.263791,54.894223],[-3.264181,54.892844],[-3.265367,54.891753],[-3.266295,54.891653],[-3.266563,54.891226],[-3.266438,54.889567],[-3.265924,54.888929],[-3.265208,54.888982],[-3.264987,54.889351],[-3.263812,54.889085],[-3.265032,54.889384],[-3.265307,54.889003],[-3.265859,54.888983],[-3.2664,54.890157],[-3.266296,54.891474],[-3.263828,54.891693],[-3.264915,54.891918],[-3.263534,54.89303],[-3.263089,54.894233],[-3.259978,54.894566],[-3.259238,54.895468],[-3.25847,54.895084],[-3.25902,54.895466],[-3.258133,54.895482],[-3.258891,54.895661],[-3.25965,54.895321],[-3.259562,54.895821],[-3.257937,54.896547],[-3.257147,54.897345],[-3.256626,54.89697],[-3.255406,54.896636],[-3.255002,54.896134],[-3.255306,54.896603],[-3.255577,54.896751],[-3.256543,54.897011],[-3.256895,54.897424],[-3.254642,54.897618],[-3.255452,54.897639],[-3.253782,54.901481],[-3.251839,54.903011],[-3.251649,54.90399],[-3.250838,54.903601],[-3.250542,54.902336],[-3.252012,54.902158],[-3.252243,54.901203],[-3.253033,54.900897],[-3.252396,54.901111],[-3.251285,54.900649],[-3.251902,54.900396],[-3.251889,54.899932],[-3.252766,54.899905],[-3.252986,54.899705],[-3.252657,54.899289],[-3.252646,54.897601],[-3.252383,54.898708],[-3.2526,54.898946],[-3.250774,54.89948],[-3.252415,54.899035],[-3.252783,54.899795],[-3.251864,54.899799],[-3.251474,54.900365],[-3.250546,54.900235],[-3.249539,54.900721],[-3.25085,54.900292],[-3.251243,54.90091],[-3.252101,54.901165],[-3.251974,54.901933],[-3.250244,54.902307],[-3.249977,54.903242],[-3.25045,54.903479],[-3.250479,54.904417],[-3.251556,54.904784],[-3.252867,54.904357],[-3.252701,54.903395],[-3.253107,54.902906],[-3.253891,54.903048],[-3.255872,54.904269],[-3.255221,54.904825],[-3.255231,54.905552],[-3.253961,54.9065],[-3.255246,54.906429],[-3.255002,54.909723],[-3.25394,54.910595],[-3.252342,54.911234],[-3.248971,54.911682],[-3.247619,54.911433],[-3.246937,54.910866],[-3.246843,54.910029],[-3.244788,54.909132],[-3.244442,54.908034],[-3.243258,54.90864],[-3.243728,54.90757],[-3.242597,54.907748],[-3.24213,54.907124],[-3.242539,54.907736],[-3.242646,54.907778],[-3.243674,54.907611],[-3.243035,54.908327],[-3.24326,54.908716],[-3.244342,54.908093],[-3.244468,54.909117],[-3.246322,54.909906],[-3.24628,54.910312],[-3.239421,54.909186],[-3.233366,54.909271],[-3.229821,54.905813],[-3.225605,54.904358],[-3.225965,54.903917],[-3.225374,54.904282],[-3.223556,54.90386],[-3.222253,54.90195],[-3.220014,54.901823],[-3.216438,54.902824],[-3.213193,54.904513],[-3.211324,54.903435],[-3.209541,54.903621],[-3.205546,54.906181],[-3.20486,54.907103],[-3.202219,54.907346],[-3.20084,54.907863],[-3.200914,54.908447],[-3.202524,54.908886],[-3.202365,54.909457],[-3.201206,54.909512],[-3.199069,54.908267],[-3.198285,54.908202],[-3.197521,54.908871],[-3.195917,54.909274],[-3.195744,54.910263],[-3.19428,54.911572],[-3.192186,54.911336],[-3.192089,54.909534],[-3.191687,54.909286],[-3.189983,54.908981],[-3.188054,54.909683],[-3.186996,54.909464],[-3.186924,54.908882],[-3.187754,54.907921],[-3.188849,54.907645],[-3.190841,54.908478],[-3.192673,54.906881],[-3.192228,54.906555],[-3.190525,54.906525],[-3.18969,54.905555],[-3.190454,54.903364],[-3.192092,54.900953],[-3.191955,54.900398],[-3.190994,54.900216],[-3.190354,54.901003],[-3.188785,54.901749],[-3.187752,54.900781],[-3.186256,54.900479],[-3.185938,54.89943],[-3.185159,54.898756],[-3.185411,54.898456],[-3.186427,54.898339],[-3.189273,54.898832],[-3.190039,54.89867],[-3.189597,54.898078],[-3.185477,54.896476],[-3.185816,54.896057],[-3.187467,54.89578],[-3.18704,54.894415],[-3.186085,54.893468],[-3.189989,54.892756],[-3.188393,54.891817],[-3.187671,54.891055],[-3.187592,54.890519],[-3.187223,54.890417],[-3.184605,54.890977],[-3.182874,54.892049],[-3.18336,54.892071],[-3.184833,54.890943],[-3.18728,54.890485],[-3.187552,54.891004],[-3.188394,54.891916],[-3.189882,54.89271],[-3.18605,54.8934],[-3.185977,54.893569],[-3.187297,54.895752],[-3.185774,54.895965],[-3.185342,54.896507],[-3.189503,54.898152],[-3.189861,54.898676],[-3.186612,54.898262],[-3.185124,54.89845],[-3.185051,54.898783],[-3.185884,54.899549],[-3.18612,54.900529],[-3.187734,54.900888],[-3.1887,54.901823],[-3.189832,54.901489],[-3.190575,54.900978],[-3.191102,54.900304],[-3.191818,54.900442],[-3.191953,54.900933],[-3.189494,54.904735],[-3.189502,54.905577],[-3.190371,54.906594],[-3.192516,54.906853],[-3.190787,54.908333],[-3.188984,54.907578],[-3.187839,54.907782],[-3.186756,54.908981],[-3.18705,54.909601],[-3.188152,54.909786],[-3.189924,54.909088],[-3.191532,54.909362],[-3.192086,54.911372],[-3.19138,54.911713],[-3.192189,54.91146],[-3.193566,54.911941],[-3.193499,54.91174],[-3.19457,54.911631],[-3.195468,54.910889],[-3.196216,54.909311],[-3.197728,54.90906],[-3.198525,54.908312],[-3.200915,54.909708],[-3.202545,54.909646],[-3.202765,54.908774],[-3.201154,54.908131],[-3.202732,54.907604],[-3.205831,54.907291],[-3.206354,54.906425],[-3.207855,54.905692],[-3.209904,54.903891],[-3.211356,54.903927],[-3.211923,54.904183],[-3.212163,54.905073],[-3.213968,54.905297],[-3.21494,54.904899],[-3.215722,54.903855],[-3.219936,54.902617],[-3.220284,54.902933],[-3.220121,54.902496],[-3.220794,54.902305],[-3.222132,54.903906],[-3.222948,54.905982],[-3.224134,54.906653],[-3.227541,54.906004],[-3.228862,54.906853],[-3.228782,54.907153],[-3.225519,54.907554],[-3.228267,54.907289],[-3.229955,54.907523],[-3.233475,54.911387],[-3.244357,54.911693],[-3.245797,54.912431],[-3.246537,54.913609],[-3.248752,54.913779],[-3.253105,54.912552],[-3.257091,54.91185],[-3.260562,54.910488],[-3.266238,54.904468],[-3.269543,54.900089],[-3.272321,54.899569],[-3.274657,54.900325],[-3.276041,54.901187],[-3.274978,54.901638],[-3.27624,54.901225],[-3.276947,54.901341],[-3.286088,54.904732],[-3.28589,54.904812],[-3.286153,54.904944],[-3.285896,54.905242],[-3.285597,54.904984],[-3.285529,54.905253],[-3.284738,54.905292],[-3.286107,54.905296],[-3.286391,54.904895],[-3.285961,54.904831],[-3.286665,54.904759],[-3.292636,54.906617],[-3.297787,54.907387],[-3.300997,54.909607],[-3.300105,54.91015],[-3.301558,54.909745],[-3.301798,54.909232],[-3.303216,54.909197],[-3.309926,54.912587],[-3.309008,54.912764],[-3.310532,54.912958],[-3.313384,54.914654],[-3.314138,54.915472],[-3.314147,54.916492],[-3.315208,54.918316],[-3.313914,54.920784],[-3.308528,54.925401],[-3.304796,54.926178],[-3.302584,54.927933],[-3.298967,54.929243],[-3.291413,54.937342],[-3.285142,54.941556],[-3.281109,54.942429],[-3.27249,54.942095],[-3.265281,54.943044],[-3.265331,54.941666],[-3.264904,54.940552],[-3.265016,54.939987],[-3.266358,54.939574],[-3.267572,54.938181],[-3.2692,54.937166],[-3.268845,54.937078],[-3.267485,54.938173],[-3.266334,54.939505],[-3.265003,54.939786],[-3.264676,54.939571],[-3.264817,54.940617],[-3.265244,54.94164],[-3.265108,54.94312],[-3.256647,54.943408],[-3.253765,54.94399],[-3.249514,54.943961],[-3.243294,54.945155],[-3.241072,54.945933],[-3.236494,54.948433],[-3.235844,54.948679],[-3.235638,54.948484],[-3.235549,54.948813],[-3.232657,54.950318],[-3.231786,54.95042],[-3.231436,54.950151],[-3.231686,54.95052],[-3.231137,54.951234],[-3.232087,54.953085],[-3.230894,54.952103],[-3.229926,54.950226],[-3.230747,54.952084],[-3.228383,54.951614],[-3.228361,54.95128],[-3.22825,54.951646],[-3.227214,54.951746],[-3.226729,54.95125],[-3.226982,54.951769],[-3.222556,54.952055],[-3.217749,54.953264],[-3.211484,54.954315],[-3.201979,54.953396],[-3.197921,54.952076],[-3.198872,54.951368],[-3.197724,54.951997],[-3.187492,54.950274],[-3.185862,54.949592],[-3.186036,54.949013],[-3.184856,54.948486],[-3.184039,54.946617],[-3.181913,54.944513],[-3.178369,54.942231],[-3.178819,54.94198],[-3.178215,54.942238],[-3.178034,54.94195],[-3.173473,54.940895],[-3.169485,54.940708],[-3.156552,54.937587],[-3.155103,54.936253],[-3.155762,54.934771],[-3.154615,54.932836],[-3.155019,54.932542],[-3.154633,54.932746],[-3.153881,54.932098],[-3.153396,54.931876],[-3.15093,54.931582],[-3.153841,54.932149],[-3.155353,54.934413],[-3.154198,54.933297],[-3.151183,54.932021],[-3.145296,54.930947],[-3.144562,54.930168],[-3.144722,54.929511],[-3.144486,54.929771],[-3.142944,54.928723],[-3.140158,54.927896],[-3.134882,54.927508],[-3.124791,54.928223],[-3.123953,54.927824],[-3.12386,54.928086],[-3.122809,54.928014],[-3.118378,54.92718],[-3.118775,54.926307],[-3.119589,54.926411],[-3.118374,54.925994],[-3.118922,54.925373],[-3.11825,54.925967],[-3.118723,54.926201],[-3.118528,54.926715],[-3.117834,54.927145],[-3.11233,54.926729],[-3.107512,54.9272],[-3.105097,54.92779],[-3.104601,54.92755],[-3.104623,54.927896],[-3.102007,54.928378],[-3.102288,54.928586],[-3.097218,54.931399],[-3.095451,54.931293],[-3.096745,54.931472],[-3.096481,54.931796],[-3.085198,54.934051],[-3.084577,54.933701],[-3.084086,54.929845],[-3.084369,54.933758],[-3.083513,54.934083],[-3.084429,54.933849],[-3.084714,54.934386],[-3.072661,54.936933],[-3.067622,54.939366],[-3.065853,54.939862],[-3.067499,54.93952],[-3.065336,54.941357],[-3.062823,54.945014],[-3.061638,54.945327],[-3.057394,54.945089],[-3.057178,54.94459],[-3.057166,54.945069],[-3.056602,54.945291],[-3.058308,54.945246],[-3.056432,54.946016],[-3.054146,54.946279],[-3.048764,54.946393],[-3.047177,54.946087],[-3.047955,54.94569],[-3.048614,54.944845],[-3.049366,54.944518],[-3.05042,54.944729],[-3.051268,54.943573],[-3.052779,54.943705],[-3.053079,54.943107],[-3.052342,54.94317],[-3.052932,54.943271],[-3.05275,54.943675],[-3.051336,54.943493],[-3.0511,54.943636],[-3.050392,54.944685],[-3.049314,54.944497],[-3.048267,54.944987],[-3.047775,54.945665],[-3.046808,54.945931],[-3.040563,54.944704],[-3.035797,54.944231],[-3.036478,54.942859],[-3.037088,54.94281],[-3.037282,54.942685],[-3.03716,54.942232],[-3.036537,54.942097],[-3.038088,54.94147],[-3.038196,54.94065],[-3.038046,54.941443],[-3.03642,54.942133],[-3.037033,54.942214],[-3.03718,54.942707],[-3.036553,54.942756],[-3.036293,54.942939],[-3.035583,54.944253],[-3.029899,54.944423],[-3.026752,54.945014],[-3.026178,54.944622],[-3.024802,54.944623],[-3.026439,54.94493],[-3.026126,54.945261],[-3.019022,54.946826],[-3.016268,54.947129],[-3.009433,54.946472],[-3.007896,54.945747],[-3.006997,54.944612],[-3.005822,54.941528],[-3.00651,54.941141],[-3.005763,54.941472],[-3.005074,54.940866],[-3.005549,54.940697],[-3.005201,54.940115],[-3.00545,54.940666],[-3.004971,54.940772],[-3.004103,54.940173],[-3.002752,54.93804],[-3.003572,54.935971],[-3.003768,54.933684],[-3.006972,54.931165],[-3.005971,54.930588],[-3.002364,54.933068],[-3.001136,54.933474],[-3.001035,54.934164],[-2.999318,54.935152],[-2.99924,54.936324],[-2.998666,54.935863],[-2.998537,54.935838],[-2.996145,54.935926],[-2.998631,54.9359],[-3.000848,54.937567],[-3.001874,54.938746],[-3.002195,54.94023],[-3.005027,54.942901],[-3.00587,54.944963],[-3.005266,54.944848],[-3.008357,54.947089],[-3.013238,54.948067],[-3.015529,54.948128],[-3.022135,54.947292],[-3.028154,54.946099],[-3.038326,54.945726],[-3.040229,54.945895],[-3.040244,54.946172],[-3.044223,54.947641],[-3.044147,54.947772],[-3.043273,54.947615],[-3.041762,54.947776],[-3.043283,54.947688],[-3.044965,54.948025],[-3.044994,54.948755],[-3.045146,54.948134],[-3.046195,54.948527],[-3.046075,54.949099],[-3.047445,54.950203],[-3.049412,54.953264],[-3.051929,54.954782],[-3.051892,54.955321],[-3.052217,54.955637],[-3.051853,54.955994],[-3.049716,54.955378],[-3.051841,54.956044],[-3.052742,54.955469],[-3.054302,54.955535],[-3.053501,54.955366],[-3.052107,54.955464],[-3.052016,54.954708],[-3.050382,54.953848],[-3.050947,54.953761],[-3.051373,54.954108],[-3.05122,54.953853],[-3.049406,54.952989],[-3.048749,54.951394],[-3.046502,54.949025],[-3.051204,54.949917],[-3.05176,54.950818],[-3.052932,54.951277],[-3.053012,54.95167],[-3.052202,54.952169],[-3.052561,54.95267],[-3.05374,54.952906],[-3.054924,54.952354],[-3.055031,54.953125],[-3.054482,54.953273],[-3.054095,54.953571],[-3.054725,54.953715],[-3.054147,54.953551],[-3.055142,54.953104],[-3.055083,54.952343],[-3.054545,54.952306],[-3.05392,54.952785],[-3.052759,54.95267],[-3.052334,54.952223],[-3.053083,54.951774],[-3.053205,54.951474],[-3.052841,54.950927],[-3.05184,54.950643],[-3.0522,54.950265],[-3.059764,54.949372],[-3.058878,54.950009],[-3.059061,54.950355],[-3.059388,54.950512],[-3.059997,54.950226],[-3.060967,54.950465],[-3.061176,54.950346],[-3.061054,54.949824],[-3.061741,54.949864],[-3.061024,54.949792],[-3.061002,54.950399],[-3.059906,54.950162],[-3.059296,54.950376],[-3.05908,54.950016],[-3.06044,54.94947],[-3.063866,54.949027],[-3.064975,54.949582],[-3.065745,54.950773],[-3.066664,54.951209],[-3.066942,54.952194],[-3.066445,54.952268],[-3.066825,54.952284],[-3.067104,54.952141],[-3.066801,54.951197],[-3.066001,54.950892],[-3.065203,54.949576],[-3.064088,54.948836],[-3.065728,54.948167],[-3.067836,54.947894],[-3.068687,54.9483],[-3.069149,54.949026],[-3.069997,54.949249],[-3.070191,54.94901],[-3.06945,54.948757],[-3.068976,54.947842],[-3.06919,54.947576],[-3.073485,54.947668],[-3.075932,54.946692],[-3.076468,54.947448],[-3.076155,54.946665],[-3.077011,54.94656],[-3.078803,54.946979],[-3.081687,54.948624],[-3.08196,54.94944],[-3.080997,54.949603],[-3.079555,54.950632],[-3.078187,54.950938],[-3.077027,54.950686],[-3.075952,54.951436],[-3.076718,54.951393],[-3.077,54.950782],[-3.078022,54.951016],[-3.080034,54.950557],[-3.080933,54.949839],[-3.082479,54.949862],[-3.082752,54.950024],[-3.082028,54.950147],[-3.082499,54.950184],[-3.082792,54.950039],[-3.082701,54.949766],[-3.084381,54.949644],[-3.084985,54.949472],[-3.085655,54.948611],[-3.084563,54.949542],[-3.082474,54.949594],[-3.081906,54.948304],[-3.082888,54.947376],[-3.081749,54.948101],[-3.080285,54.946983],[-3.080559,54.946785],[-3.081429,54.947004],[-3.081842,54.946724],[-3.082471,54.946978],[-3.082036,54.946519],[-3.081362,54.946943],[-3.080466,54.946715],[-3.079953,54.946995],[-3.078784,54.946327],[-3.076041,54.945883],[-3.076514,54.945626],[-3.075865,54.945916],[-3.074995,54.945915],[-3.074991,54.945638],[-3.074832,54.945905],[-3.073481,54.945954],[-3.072338,54.9454],[-3.07232,54.94477],[-3.073222,54.944362],[-3.073018,54.944691],[-3.07305,54.944786],[-3.073545,54.944861],[-3.073082,54.944652],[-3.073885,54.94403],[-3.078279,54.941785],[-3.080486,54.941682],[-3.07896,54.941446],[-3.079968,54.940838],[-3.083628,54.939947],[-3.084642,54.940094],[-3.086247,54.941192],[-3.088153,54.941134],[-3.089969,54.940856],[-3.087278,54.940901],[-3.089568,54.94038],[-3.0905,54.940933],[-3.089985,54.938828],[-3.093188,54.938801],[-3.093965,54.939551],[-3.093214,54.940078],[-3.093593,54.940396],[-3.095004,54.940629],[-3.093903,54.940996],[-3.094762,54.941158],[-3.095284,54.942119],[-3.094748,54.940948],[-3.095251,54.941225],[-3.095098,54.940555],[-3.0933,54.940029],[-3.094047,54.939575],[-3.093468,54.938808],[-3.094407,54.9388],[-3.09442,54.939304],[-3.096834,54.940217],[-3.098037,54.942012],[-3.096988,54.940213],[-3.094672,54.939096],[-3.097284,54.939358],[-3.0976,54.939144],[-3.09651,54.938917],[-3.097801,54.938656],[-3.100148,54.940569],[-3.100312,54.940362],[-3.100705,54.940594],[-3.101497,54.941653],[-3.1008,54.940626],[-3.099466,54.939728],[-3.100227,54.939853],[-3.099234,54.939648],[-3.098561,54.939003],[-3.098698,54.93781],[-3.101922,54.935513],[-3.105418,54.936244],[-3.105391,54.93795],[-3.105703,54.936184],[-3.103225,54.935025],[-3.104536,54.933925],[-3.105274,54.933872],[-3.10474,54.933556],[-3.104989,54.933256],[-3.107364,54.932503],[-3.109504,54.932497],[-3.108361,54.932216],[-3.109463,54.932023],[-3.11329,54.93228],[-3.117893,54.93356],[-3.120228,54.935856],[-3.124338,54.941623],[-3.125198,54.944048],[-3.120869,54.943888],[-3.117751,54.942073],[-3.113893,54.940706],[-3.117747,54.942444],[-3.120412,54.944256],[-3.121948,54.944539],[-3.116982,54.945708],[-3.114194,54.947196],[-3.11547,54.947036],[-3.117559,54.946195],[-3.123139,54.945902],[-3.126731,54.949386],[-3.127072,54.950916],[-3.119578,54.954321],[-3.118567,54.953822],[-3.116487,54.951561],[-3.109591,54.948082],[-3.110376,54.947041],[-3.109663,54.946522],[-3.108278,54.946488],[-3.108891,54.945841],[-3.107947,54.946461],[-3.105859,54.946195],[-3.105458,54.945461],[-3.104803,54.946115],[-3.101108,54.946567],[-3.098323,54.946612],[-3.095705,54.946222],[-3.095533,54.946846],[-3.096247,54.947091],[-3.104553,54.947426],[-3.106108,54.947975],[-3.10663,54.947797],[-3.107872,54.948063],[-3.107943,54.948337],[-3.109469,54.948448],[-3.112319,54.949565],[-3.116258,54.951575],[-3.117011,54.952264],[-3.117767,54.953922],[-3.117272,54.955911],[-3.115344,54.956974],[-3.111491,54.955135],[-3.108708,54.9529],[-3.106682,54.951943],[-3.103952,54.949884],[-3.103815,54.948602],[-3.103448,54.949585],[-3.107311,54.952792],[-3.104593,54.952365],[-3.103603,54.952821],[-3.103855,54.953338],[-3.104199,54.953594],[-3.103758,54.952979],[-3.104576,54.952487],[-3.107318,54.953214],[-3.107951,54.953696],[-3.107255,54.953581],[-3.107886,54.954166],[-3.109783,54.955362],[-3.109534,54.956811],[-3.11048,54.955914],[-3.111586,54.956683],[-3.111608,54.957628],[-3.104349,54.958093],[-3.101997,54.959142],[-3.099795,54.960798],[-3.095199,54.963217],[-3.093131,54.962532],[-3.091083,54.962588],[-3.089822,54.963645],[-3.089198,54.964794],[-3.086665,54.964645],[-3.085418,54.965167],[-3.085107,54.965744],[-3.086269,54.968358],[-3.084575,54.966591],[-3.083975,54.966615],[-3.085467,54.968625],[-3.085768,54.969635],[-3.085431,54.970338],[-3.083939,54.971494],[-3.074912,54.9736],[-3.071316,54.973908],[-3.070054,54.974321],[-3.068913,54.97563],[-3.069991,54.975201],[-3.06816,54.976464],[-3.069802,54.975683],[-3.071041,54.974356],[-3.071974,54.974525],[-3.072474,54.974973],[-3.067478,54.981292],[-3.064789,54.983286],[-3.061579,54.984791],[-3.060425,54.98502],[-3.056462,54.984567],[-3.05278,54.984538],[-3.05001,54.98411],[-3.048231,54.983389],[-3.047188,54.981303],[-3.047852,54.978704],[-3.048699,54.978895],[-3.049557,54.979783],[-3.048824,54.978808],[-3.047879,54.978081],[-3.050386,54.977916],[-3.050266,54.976958],[-3.050349,54.97789],[-3.048002,54.977987],[-3.045679,54.97557],[-3.047417,54.975596],[-3.044985,54.975376],[-3.041948,54.974492],[-3.041727,54.973748],[-3.042871,54.971391],[-3.042571,54.969484],[-3.040441,54.968101],[-3.037509,54.967297],[-3.036992,54.966837],[-3.037419,54.966583],[-3.037161,54.966384],[-3.036934,54.966867],[-3.037396,54.967277],[-3.034936,54.966935],[-3.036593,54.967216],[-3.035595,54.96769],[-3.032606,54.968127],[-3.020157,54.971142],[-3.008954,54.974289],[-3.009734,54.974738],[-3.027918,54.970202],[-3.035916,54.968976],[-3.036617,54.968609],[-3.040349,54.968801],[-3.041604,54.970104],[-3.039241,54.972933],[-3.037064,54.972604],[-3.039192,54.973101],[-3.039066,54.974742],[-3.040636,54.976636],[-3.042372,54.977533],[-3.044733,54.977983],[-3.045443,54.978467],[-3.045056,54.982408],[-3.046793,54.984071],[-3.046962,54.984634],[-3.04647,54.984545],[-3.04764,54.985098],[-3.048676,54.986684],[-3.047925,54.98553],[-3.050126,54.986461],[-3.053554,54.986832],[-3.053119,54.986912],[-3.052437,54.987511],[-3.053311,54.986946],[-3.053883,54.987052],[-3.053873,54.986559],[-3.055257,54.986779],[-3.057278,54.988717],[-3.057721,54.991571],[-3.052001,54.993232],[-3.052735,54.994556],[-3.049346,54.996959],[-3.044201,54.998439],[-3.044061,54.998949],[-3.04581,54.999549],[-3.046442,55.000591],[-3.046844,55.004724],[-3.045062,55.006051],[-3.04532,55.007024],[-3.044938,55.007659],[-3.045216,55.00794],[-3.04613,55.00793],[-3.047383,55.007035],[-3.048666,55.006781],[-3.049744,55.007698],[-3.049457,55.009395],[-3.048019,55.00938],[-3.047442,55.010751],[-3.04546,55.010662],[-3.04518,55.012652],[-3.044235,55.013341],[-3.043107,55.013381],[-3.041937,55.014102],[-3.042603,55.0147],[-3.041327,55.016077],[-3.040058,55.016051],[-3.039317,55.016421],[-3.039375,55.016858],[-3.040764,55.017192],[-3.040571,55.018702],[-3.042373,55.019569],[-3.041538,55.020294],[-3.039699,55.02042],[-3.040209,55.021153],[-3.041036,55.02085],[-3.041271,55.021217],[-3.040127,55.022635],[-3.039109,55.022858],[-3.037767,55.022065],[-3.036676,55.021923],[-3.034396,55.022951],[-3.034265,55.02408],[-3.030238,55.024646],[-3.030053,55.02548],[-3.03188,55.026167],[-3.031662,55.027062],[-3.032386,55.0274],[-3.032237,55.028312],[-3.034134,55.029182],[-3.034315,55.029908],[-3.032354,55.03084],[-3.031766,55.032863],[-3.030145,55.034081],[-3.028254,55.034153],[-3.026288,55.035053],[-3.025876,55.036487],[-3.027494,55.036696],[-3.031048,55.037984],[-3.031972,55.038945],[-3.032176,55.039869],[-3.033676,55.039598],[-3.034022,55.039004],[-3.034762,55.038943],[-3.035774,55.039317],[-3.036664,55.040409],[-3.038147,55.041345],[-3.040148,55.041136],[-3.04033,55.041466],[-3.038499,55.043696],[-3.038984,55.044311],[-3.040125,55.04479],[-3.04185,55.044563],[-3.043656,55.044752],[-3.04381,55.045657],[-3.043106,55.046931],[-3.043388,55.047374],[-3.046936,55.047371],[-3.049005,55.048435],[-3.050715,55.04883],[-3.051794,55.047531],[-3.05342,55.047284],[-3.053447,55.049507],[-3.051195,55.051266],[-3.051332,55.052431],[-3.050929,55.052804],[-3.048011,55.053073],[-3.043623,55.054973],[-3.043171,55.055661],[-3.039202,55.0552],[-3.027552,55.05528],[-3.021197,55.05489],[-3.000076,55.052466],[-2.972288,55.050236],[-2.964554,55.05007],[-2.958594,55.049295],[-2.95656,55.053481],[-2.955423,55.054621],[-2.950693,55.05548],[-2.947994,55.055541],[-2.943848,55.058142],[-2.93907,55.059248],[-2.937306,55.059114],[-2.936407,55.059586],[-2.936363,55.059955],[-2.93738,55.06066],[-2.941258,55.062218],[-2.943007,55.064159],[-2.942586,55.067162],[-2.942015,55.06809],[-2.939123,55.069854],[-2.93488,55.071138],[-2.93289,55.071258],[-2.930403,55.070436],[-2.927354,55.070328],[-2.922082,55.072113],[-2.917273,55.075124],[-2.916641,55.076152],[-2.9173,55.078078],[-2.915001,55.078964],[-2.912432,55.078913],[-2.910566,55.07711],[-2.90623,55.077578],[-2.904092,55.077178],[-2.899862,55.076989],[-2.896879,55.07795],[-2.892627,55.08502],[-2.893741,55.086395],[-2.893308,55.087852],[-2.89073,55.08825],[-2.890075,55.088086],[-2.889722,55.087167],[-2.886031,55.08667],[-2.884815,55.086867],[-2.883791,55.087547],[-2.883811,55.088162],[-2.885718,55.088652],[-2.886226,55.089315],[-2.883026,55.090778],[-2.882315,55.092949],[-2.882907,55.093365],[-2.885873,55.093504],[-2.886497,55.09405],[-2.886292,55.09481],[-2.884142,55.095447],[-2.878976,55.094803],[-2.876873,55.095199],[-2.876109,55.09656],[-2.874427,55.097508],[-2.871326,55.100281],[-2.872822,55.101878],[-2.871684,55.102899],[-2.871569,55.104902],[-2.870735,55.10634],[-2.867578,55.1071],[-2.863735,55.106699],[-2.862081,55.10791],[-2.85854,55.108349],[-2.852094,55.108487],[-2.850116,55.111052],[-2.848111,55.111583],[-2.8452,55.111491],[-2.84454,55.111865],[-2.844681,55.112414],[-2.846124,55.11326],[-2.846464,55.114357],[-2.843667,55.116731],[-2.841114,55.118058],[-2.83902,55.116863],[-2.838155,55.117029],[-2.837883,55.117613],[-2.8383,55.11842],[-2.842186,55.121052],[-2.84125,55.122498],[-2.840239,55.122519],[-2.835531,55.121336],[-2.83262,55.12147],[-2.827608,55.124837],[-2.826738,55.12696],[-2.829547,55.128653],[-2.832528,55.13111],[-2.833056,55.132451],[-2.832468,55.133143],[-2.82728,55.136188],[-2.825947,55.137298],[-2.825503,55.138314],[-2.823289,55.137913],[-2.819317,55.138449],[-2.818103,55.137391],[-2.81694,55.137896],[-2.815811,55.137817],[-2.813664,55.136984],[-2.813411,55.136303],[-2.812776,55.136166],[-2.809588,55.137108],[-2.807395,55.136983],[-2.804333,55.13752],[-2.80191,55.138862],[-2.799908,55.138387],[-2.796968,55.13883],[-2.794993,55.139666],[-2.793437,55.139595],[-2.792774,55.140286],[-2.790786,55.139859],[-2.790675,55.141123],[-2.789835,55.141687],[-2.784848,55.141791],[-2.784129,55.142582],[-2.784206,55.143472],[-2.781916,55.145746],[-2.775028,55.148107],[-2.774626,55.148629],[-2.775161,55.148996],[-2.774928,55.14929],[-2.769929,55.149968],[-2.769407,55.150608],[-2.768391,55.150972],[-2.766208,55.150936],[-2.766578,55.151575],[-2.765581,55.152626],[-2.76134,55.153403],[-2.760328,55.154002],[-2.760279,55.154799],[-2.757293,55.154901],[-2.754074,55.155788],[-2.754205,55.156537],[-2.752298,55.15673],[-2.751404,55.156419],[-2.750488,55.156743],[-2.750775,55.157266],[-2.748755,55.157354],[-2.748661,55.158189],[-2.746252,55.158234],[-2.745666,55.158683],[-2.745248,55.160228],[-2.743876,55.159739],[-2.743,55.161004],[-2.740691,55.161355],[-2.741411,55.162149],[-2.739817,55.162725],[-2.737624,55.162783],[-2.737112,55.163518],[-2.735717,55.163804],[-2.736021,55.164284],[-2.735574,55.164606],[-2.734959,55.164545],[-2.735108,55.165545],[-2.734029,55.165817],[-2.733828,55.16665],[-2.732607,55.167235],[-2.729422,55.168297],[-2.724771,55.168681],[-2.722612,55.169432],[-2.72092,55.169632],[-2.719811,55.170462],[-2.71457,55.171674],[-2.713754,55.172128],[-2.711752,55.171839],[-2.708644,55.172262],[-2.707711,55.172021],[-2.706939,55.172406],[-2.705663,55.17226],[-2.704732,55.172961],[-2.703477,55.173173],[-2.702683,55.174531],[-2.700987,55.17537],[-2.700628,55.17639],[-2.699706,55.176896],[-2.699896,55.177884],[-2.697732,55.179851],[-2.697631,55.180835],[-2.69658,55.181335],[-2.696345,55.18224],[-2.695333,55.18278],[-2.693769,55.184487],[-2.693349,55.185645],[-2.689971,55.188279],[-2.689789,55.188983],[-2.677378,55.177721],[-2.674555,55.175891],[-2.67427,55.173709],[-2.676443,55.173035],[-2.677692,55.171724]],[[-3.351705,54.889283],[-3.35073,54.889485],[-3.350933,54.889075],[-3.349706,54.888428],[-3.350387,54.889033],[-3.350876,54.889064],[-3.350705,54.889515],[-3.352034,54.889418],[-3.351705,54.889283]],[[-3.100441,54.928666],[-3.100652,54.928183],[-3.099792,54.928056],[-3.099357,54.928216],[-3.100198,54.92813],[-3.100251,54.928759],[-3.102007,54.928378],[-3.100441,54.928666]]]]}}]}