{"type":"FeatureCollection","features":[{"type":"Feature","properties":{"slug":"dacorum","gss_code":"E07000096","name":"Dacorum"},"geometry":{"type":"Polygon","coordinates":[[[-0.464104,51.850147],[-0.461183,51.852614],[-0.457875,51.850599],[-0.454063,51.853033],[-0.447525,51.847602],[-0.438986,51.851835],[-0.432725,51.848126],[-0.431654,51.848887],[-0.424913,51.846709],[-0.424848,51.849444],[-0.423485,51.849403],[-0.423448,51.849712],[-0.421631,51.849551],[-0.421501,51.850205],[-0.419331,51.848745],[-0.41393,51.8465],[-0.411985,51.846174],[-0.409176,51.84295],[-0.404859,51.840607],[-0.4086,51.838789],[-0.412686,51.838119],[-0.416313,51.835704],[-0.417588,51.831994],[-0.417936,51.828685],[-0.419938,51.825887],[-0.418975,51.822731],[-0.419056,51.821801],[-0.419727,51.820955],[-0.414112,51.819086],[-0.415494,51.818227],[-0.416958,51.817897],[-0.417482,51.817441],[-0.421815,51.815798],[-0.421585,51.815234],[-0.422886,51.81458],[-0.42429,51.813045],[-0.427501,51.811631],[-0.427706,51.810656],[-0.42717,51.809744],[-0.428829,51.806765],[-0.428535,51.806372],[-0.427945,51.80645],[-0.425204,51.804854],[-0.424829,51.804905],[-0.422896,51.803273],[-0.420952,51.802256],[-0.415923,51.802069],[-0.411968,51.800279],[-0.412439,51.799136],[-0.409362,51.797306],[-0.411428,51.795312],[-0.412161,51.793325],[-0.41366,51.793315],[-0.413368,51.791185],[-0.416409,51.790849],[-0.419722,51.79098],[-0.427305,51.792076],[-0.42995,51.79044],[-0.434897,51.789042],[-0.440584,51.786878],[-0.439391,51.78453],[-0.434625,51.780189],[-0.432959,51.779647],[-0.430324,51.777545],[-0.431458,51.776663],[-0.430707,51.77328],[-0.430822,51.771888],[-0.43008,51.77021],[-0.428443,51.770241],[-0.429739,51.767905],[-0.42589,51.76639],[-0.422832,51.76599],[-0.423357,51.762479],[-0.422819,51.760156],[-0.423461,51.756277],[-0.42439,51.753818],[-0.425702,51.752886],[-0.423746,51.750688],[-0.421024,51.748761],[-0.424044,51.745706],[-0.424567,51.745825],[-0.426557,51.744343],[-0.423771,51.742626],[-0.42208,51.740837],[-0.425325,51.740119],[-0.42503,51.73954],[-0.426485,51.739211],[-0.426094,51.738447],[-0.434912,51.735931],[-0.434547,51.735344],[-0.438309,51.734463],[-0.440448,51.733455],[-0.439582,51.732403],[-0.440669,51.7324],[-0.442373,51.731401],[-0.439929,51.728258],[-0.444988,51.726597],[-0.447628,51.726073],[-0.447743,51.726425],[-0.448231,51.726386],[-0.450085,51.725532],[-0.45003,51.722689],[-0.449318,51.720483],[-0.448442,51.719222],[-0.446662,51.718387],[-0.445948,51.715934],[-0.444169,51.713619],[-0.442935,51.712662],[-0.442568,51.70983],[-0.441569,51.707904],[-0.442293,51.706147],[-0.440261,51.701014],[-0.443366,51.700628],[-0.446447,51.699576],[-0.448643,51.698344],[-0.454444,51.697263],[-0.455077,51.696862],[-0.463781,51.695341],[-0.466813,51.695885],[-0.471885,51.697548],[-0.475146,51.698086],[-0.475871,51.698539],[-0.48118,51.698244],[-0.48394,51.698508],[-0.489489,51.698129],[-0.494787,51.699023],[-0.497246,51.699781],[-0.502949,51.700535],[-0.511893,51.704227],[-0.5125,51.705311],[-0.514104,51.706229],[-0.515495,51.706578],[-0.518591,51.70406],[-0.520668,51.698183],[-0.522362,51.696606],[-0.523015,51.695081],[-0.523158,51.690472],[-0.524545,51.688056],[-0.524343,51.685391],[-0.523727,51.683765],[-0.524273,51.682113],[-0.527602,51.68168],[-0.531123,51.680683],[-0.531934,51.680757],[-0.532118,51.681778],[-0.534795,51.68169],[-0.535051,51.680901],[-0.536445,51.68086],[-0.538889,51.679834],[-0.539626,51.68027],[-0.546284,51.680437],[-0.546711,51.683],[-0.547553,51.682992],[-0.547875,51.682514],[-0.548689,51.682655],[-0.549058,51.6838],[-0.548628,51.687011],[-0.547115,51.689214],[-0.5434,51.692785],[-0.542953,51.693765],[-0.543217,51.695136],[-0.544381,51.697249],[-0.546885,51.698636],[-0.546751,51.701325],[-0.547668,51.703181],[-0.548835,51.703649],[-0.552419,51.704038],[-0.555331,51.705533],[-0.557212,51.707077],[-0.558077,51.708479],[-0.563148,51.711682],[-0.56242,51.715871],[-0.561099,51.718079],[-0.558481,51.7193],[-0.55584,51.721822],[-0.550414,51.723043],[-0.550296,51.724397],[-0.550533,51.724709],[-0.551665,51.72447],[-0.551434,51.725168],[-0.553597,51.728411],[-0.55308,51.728406],[-0.551555,51.730041],[-0.550083,51.730575],[-0.554304,51.732337],[-0.552999,51.733334],[-0.55372,51.734065],[-0.554525,51.734129],[-0.556002,51.733214],[-0.558349,51.734108],[-0.559539,51.733412],[-0.560646,51.734076],[-0.558442,51.735647],[-0.559245,51.737332],[-0.56032,51.737289],[-0.563446,51.735668],[-0.565583,51.736546],[-0.562955,51.738279],[-0.5637,51.739617],[-0.566201,51.738469],[-0.566818,51.739036],[-0.568399,51.737542],[-0.569246,51.737816],[-0.57037,51.736802],[-0.569641,51.736071],[-0.569934,51.735936],[-0.572763,51.735864],[-0.57617,51.737822],[-0.579432,51.741258],[-0.580812,51.743639],[-0.584145,51.746768],[-0.58638,51.752116],[-0.595269,51.751315],[-0.600867,51.751356],[-0.605152,51.749868],[-0.6091,51.749471],[-0.611116,51.748095],[-0.612936,51.747427],[-0.613539,51.748299],[-0.613766,51.750913],[-0.617286,51.75265],[-0.620202,51.752883],[-0.623227,51.75437],[-0.623709,51.753477],[-0.625528,51.754388],[-0.626219,51.753636],[-0.628282,51.754678],[-0.629966,51.753946],[-0.629469,51.753328],[-0.630998,51.753041],[-0.643458,51.754017],[-0.646869,51.756009],[-0.647841,51.757325],[-0.64921,51.757662],[-0.648596,51.758553],[-0.651395,51.75996],[-0.652596,51.759482],[-0.657928,51.762871],[-0.663624,51.764801],[-0.666814,51.765183],[-0.668801,51.76578],[-0.673449,51.768477],[-0.675999,51.771257],[-0.676094,51.773285],[-0.677372,51.775869],[-0.676186,51.778464],[-0.677487,51.780945],[-0.679133,51.782074],[-0.679401,51.784755],[-0.6815,51.788059],[-0.684088,51.788995],[-0.683977,51.789286],[-0.690191,51.792339],[-0.68397,51.79379],[-0.68219,51.794584],[-0.684023,51.796273],[-0.68265,51.79721],[-0.688757,51.803113],[-0.692551,51.805802],[-0.69628,51.810155],[-0.699139,51.81197],[-0.701148,51.814863],[-0.709295,51.82054],[-0.711498,51.819106],[-0.711851,51.818328],[-0.714345,51.817309],[-0.719211,51.81613],[-0.721352,51.816646],[-0.723402,51.817625],[-0.728962,51.821762],[-0.730431,51.825176],[-0.731497,51.826543],[-0.737852,51.830948],[-0.736706,51.831897],[-0.737883,51.834045],[-0.744799,51.837617],[-0.745744,51.842109],[-0.741439,51.842615],[-0.736385,51.842401],[-0.734622,51.844207],[-0.732918,51.847632],[-0.731988,51.848094],[-0.731199,51.849041],[-0.727268,51.850378],[-0.725306,51.849797],[-0.722599,51.850032],[-0.722019,51.8512],[-0.722582,51.854229],[-0.720344,51.856154],[-0.715758,51.857497],[-0.714639,51.857672],[-0.714246,51.857356],[-0.710557,51.857817],[-0.709161,51.855998],[-0.707164,51.854404],[-0.703577,51.856085],[-0.701933,51.857434],[-0.699972,51.85797],[-0.696427,51.858157],[-0.694596,51.856454],[-0.692327,51.857049],[-0.688361,51.850658],[-0.68677,51.849221],[-0.691772,51.845068],[-0.69545,51.841111],[-0.692071,51.840264],[-0.690831,51.840477],[-0.69031,51.841287],[-0.687994,51.839931],[-0.683303,51.83551],[-0.682101,51.83227],[-0.679686,51.829113],[-0.678456,51.826026],[-0.676773,51.823954],[-0.672231,51.819481],[-0.671823,51.819627],[-0.669077,51.818608],[-0.668876,51.817204],[-0.667245,51.815805],[-0.666648,51.815984],[-0.665335,51.815509],[-0.664275,51.815592],[-0.662901,51.81624],[-0.659248,51.815427],[-0.656229,51.815853],[-0.651116,51.815258],[-0.64777,51.813606],[-0.644381,51.815762],[-0.641009,51.816392],[-0.637219,51.817938],[-0.635949,51.81802],[-0.634412,51.818611],[-0.63294,51.819946],[-0.627601,51.817303],[-0.62676,51.817245],[-0.625651,51.815873],[-0.624425,51.816255],[-0.622745,51.81587],[-0.621809,51.816038],[-0.620674,51.814922],[-0.618389,51.814532],[-0.615554,51.814959],[-0.614294,51.813484],[-0.613675,51.813663],[-0.612424,51.812924],[-0.611869,51.812045],[-0.606426,51.812351],[-0.603182,51.81329],[-0.597605,51.814283],[-0.594832,51.814023],[-0.594484,51.81115],[-0.591655,51.808136],[-0.581826,51.806905],[-0.581574,51.807587],[-0.577216,51.81178],[-0.574303,51.81625],[-0.576242,51.816937],[-0.57517,51.818817],[-0.574132,51.818611],[-0.573672,51.819206],[-0.572554,51.819046],[-0.572425,51.819433],[-0.571057,51.81897],[-0.569739,51.819081],[-0.567145,51.819805],[-0.566228,51.820942],[-0.562422,51.823734],[-0.560787,51.826382],[-0.558795,51.824662],[-0.558348,51.824788],[-0.557977,51.82554],[-0.56127,51.828871],[-0.560656,51.830083],[-0.557138,51.830967],[-0.555377,51.828391],[-0.553614,51.826753],[-0.548498,51.824158],[-0.544852,51.82065],[-0.541685,51.818445],[-0.543711,51.816984],[-0.542747,51.815759],[-0.54318,51.815464],[-0.541165,51.81473],[-0.541093,51.814999],[-0.536925,51.814125],[-0.532219,51.808753],[-0.530435,51.809451],[-0.529449,51.808288],[-0.5241,51.805811],[-0.521976,51.805489],[-0.520813,51.80577],[-0.519729,51.805095],[-0.517515,51.808457],[-0.510697,51.811107],[-0.506368,51.813966],[-0.502283,51.815459],[-0.503968,51.816581],[-0.504276,51.817697],[-0.500875,51.819394],[-0.502486,51.820577],[-0.501594,51.821487],[-0.503347,51.822444],[-0.50881,51.824048],[-0.509772,51.825101],[-0.511193,51.825894],[-0.507969,51.826461],[-0.506017,51.8273],[-0.505425,51.831662],[-0.501818,51.836795],[-0.496732,51.837325],[-0.49398,51.835634],[-0.491882,51.835278],[-0.492062,51.838353],[-0.490933,51.842819],[-0.479571,51.842144],[-0.471196,51.845468],[-0.47698,51.850166],[-0.478298,51.853137],[-0.474785,51.853904],[-0.469683,51.855898],[-0.468249,51.85306],[-0.465866,51.850807],[-0.464104,51.850147]]]}}]}