{"type":"FeatureCollection","features":[{"type":"Feature","properties":{"slug":"darlington","gss_code":"E06000005","name":"Darlington"},"geometry":{"type":"Polygon","coordinates":[[[-1.637672,54.616704],[-1.631501,54.616132],[-1.631396,54.618457],[-1.623861,54.618623],[-1.623886,54.618926],[-1.618505,54.619168],[-1.616829,54.618804],[-1.614046,54.618811],[-1.613687,54.617958],[-1.612126,54.618127],[-1.611358,54.617112],[-1.610317,54.617443],[-1.606764,54.61754],[-1.60656,54.614729],[-1.605777,54.6146],[-1.605251,54.612453],[-1.606944,54.612477],[-1.605662,54.60673],[-1.608438,54.605334],[-1.607727,54.60427],[-1.606218,54.60344],[-1.605235,54.604772],[-1.603965,54.605597],[-1.600489,54.606652],[-1.597577,54.608017],[-1.586528,54.610422],[-1.584193,54.610486],[-1.583771,54.607504],[-1.584072,54.607268],[-1.590653,54.605582],[-1.592949,54.604549],[-1.591366,54.599654],[-1.589876,54.597749],[-1.590368,54.594957],[-1.593409,54.595077],[-1.590861,54.590214],[-1.582865,54.589475],[-1.584257,54.588416],[-1.585163,54.588213],[-1.585342,54.58505],[-1.584367,54.582061],[-1.583315,54.580909],[-1.582589,54.580936],[-1.581506,54.58192],[-1.57886,54.582126],[-1.577031,54.581377],[-1.576266,54.580198],[-1.573593,54.580438],[-1.572498,54.58084],[-1.571457,54.580733],[-1.569808,54.581238],[-1.566636,54.580627],[-1.56468,54.580812],[-1.561835,54.58177],[-1.56131,54.58223],[-1.555668,54.581718],[-1.552824,54.582342],[-1.552167,54.582844],[-1.55265,54.583698],[-1.554625,54.583317],[-1.556547,54.584554],[-1.556879,54.585896],[-1.558005,54.585454],[-1.560209,54.586251],[-1.561371,54.586188],[-1.561951,54.585696],[-1.562262,54.585971],[-1.562556,54.587076],[-1.56213,54.587409],[-1.562245,54.588232],[-1.56173,54.588512],[-1.561683,54.589639],[-1.560818,54.590284],[-1.558194,54.590875],[-1.558305,54.591469],[-1.558824,54.591541],[-1.558644,54.592117],[-1.556534,54.591514],[-1.552505,54.591318],[-1.548258,54.59173],[-1.541889,54.593067],[-1.537522,54.594466],[-1.526403,54.596486],[-1.521952,54.596067],[-1.52177,54.596557],[-1.510039,54.59483],[-1.506472,54.596113],[-1.502076,54.59568],[-1.497416,54.595697],[-1.49274,54.597165],[-1.487965,54.599341],[-1.484682,54.599697],[-1.483272,54.599229],[-1.480534,54.599414],[-1.472074,54.598947],[-1.470362,54.600446],[-1.468896,54.600528],[-1.463584,54.599495],[-1.460681,54.597523],[-1.460197,54.596826],[-1.45914,54.597481],[-1.459206,54.598479],[-1.456123,54.599291],[-1.454203,54.594439],[-1.453439,54.594207],[-1.451705,54.590828],[-1.446859,54.591152],[-1.444349,54.59049],[-1.443401,54.590624],[-1.442405,54.59277],[-1.439365,54.5938],[-1.440003,54.594472],[-1.435816,54.595713],[-1.43354,54.595128],[-1.432077,54.595485],[-1.431369,54.59536],[-1.42961,54.59662],[-1.429335,54.597253],[-1.429187,54.597779],[-1.429843,54.598329],[-1.429444,54.599386],[-1.429963,54.59995],[-1.429498,54.600616],[-1.427927,54.601503],[-1.428039,54.601814],[-1.427384,54.601799],[-1.426603,54.602432],[-1.426022,54.602376],[-1.426039,54.602711],[-1.425027,54.602579],[-1.423327,54.603127],[-1.42183,54.602253],[-1.422216,54.601698],[-1.421973,54.600505],[-1.421112,54.60042],[-1.419502,54.599637],[-1.418769,54.599917],[-1.417042,54.599378],[-1.416203,54.597958],[-1.414697,54.597303],[-1.414462,54.596303],[-1.411205,54.594944],[-1.411291,54.594439],[-1.410458,54.594187],[-1.41008,54.594498],[-1.40815,54.594401],[-1.407292,54.593728],[-1.408984,54.589923],[-1.413084,54.588238],[-1.413222,54.586216],[-1.414513,54.583534],[-1.414984,54.580878],[-1.416151,54.578049],[-1.415962,54.576704],[-1.416808,54.57583],[-1.416771,54.573883],[-1.414132,54.571269],[-1.416294,54.570439],[-1.414755,54.569053],[-1.414328,54.568367],[-1.414677,54.567878],[-1.411419,54.564793],[-1.416466,54.563358],[-1.422377,54.563356],[-1.42708,54.562775],[-1.435905,54.560112],[-1.435439,54.559242],[-1.43934,54.557505],[-1.446756,54.555668],[-1.445665,54.553913],[-1.443721,54.547445],[-1.443659,54.545602],[-1.442582,54.543087],[-1.443838,54.542434],[-1.444183,54.540748],[-1.445093,54.540079],[-1.445307,54.538851],[-1.44605,54.537778],[-1.446989,54.537218],[-1.445539,54.535435],[-1.444655,54.535218],[-1.443839,54.534539],[-1.445917,54.533662],[-1.449052,54.534026],[-1.449607,54.532968],[-1.446349,54.530657],[-1.444739,54.526987],[-1.443188,54.527644],[-1.441208,54.527784],[-1.4388,54.527661],[-1.438031,54.527138],[-1.436232,54.527611],[-1.435161,54.527076],[-1.434727,54.527186],[-1.43143,54.523623],[-1.429922,54.523703],[-1.426409,54.522132],[-1.424866,54.522277],[-1.422523,54.520902],[-1.421485,54.519638],[-1.421286,54.517573],[-1.421923,54.516203],[-1.423482,54.514739],[-1.423419,54.513982],[-1.428659,54.513064],[-1.425545,54.505882],[-1.425161,54.50065],[-1.426632,54.498293],[-1.427796,54.497494],[-1.429311,54.495275],[-1.433323,54.494236],[-1.433615,54.494082],[-1.433217,54.493519],[-1.435381,54.492711],[-1.434824,54.492153],[-1.43635,54.490991],[-1.433124,54.489292],[-1.434905,54.487493],[-1.442892,54.490915],[-1.446511,54.494426],[-1.451898,54.497359],[-1.456504,54.50281],[-1.457798,54.503648],[-1.459984,54.50427],[-1.462114,54.504245],[-1.467353,54.502527],[-1.472839,54.501556],[-1.47419,54.500984],[-1.47519,54.499912],[-1.475559,54.498108],[-1.474594,54.496829],[-1.472917,54.496019],[-1.465685,54.496588],[-1.462241,54.496294],[-1.45957,54.494833],[-1.458474,54.492839],[-1.458408,54.491254],[-1.461251,54.487623],[-1.461827,54.485951],[-1.461344,54.484707],[-1.457809,54.482063],[-1.457597,54.481362],[-1.461497,54.478214],[-1.463853,54.473758],[-1.463304,54.47295],[-1.460114,54.471224],[-1.459414,54.468848],[-1.455078,54.46726],[-1.453913,54.466155],[-1.454265,54.465388],[-1.455303,54.464842],[-1.461801,54.463003],[-1.462529,54.462296],[-1.462746,54.461115],[-1.461305,54.459013],[-1.457472,54.457274],[-1.455904,54.456088],[-1.454772,54.454599],[-1.454725,54.453602],[-1.45711,54.452014],[-1.460358,54.451191],[-1.461732,54.45115],[-1.463731,54.451602],[-1.466989,54.453292],[-1.470727,54.454565],[-1.472052,54.4556],[-1.472206,54.457457],[-1.468853,54.459347],[-1.467844,54.460843],[-1.467619,54.462151],[-1.467981,54.463151],[-1.472887,54.466586],[-1.473963,54.467893],[-1.474589,54.472789],[-1.475373,54.473845],[-1.477625,54.475012],[-1.47909,54.475322],[-1.483931,54.473428],[-1.487026,54.472994],[-1.490714,54.473974],[-1.494613,54.474028],[-1.498354,54.474992],[-1.499052,54.475678],[-1.499588,54.477156],[-1.499348,54.478096],[-1.493239,54.481423],[-1.491319,54.483281],[-1.490484,54.484818],[-1.491522,54.486092],[-1.494314,54.486355],[-1.496894,54.485825],[-1.501355,54.48433],[-1.505247,54.48242],[-1.506231,54.481568],[-1.506869,54.478486],[-1.509742,54.475545],[-1.511341,54.475012],[-1.513128,54.475347],[-1.51431,54.476574],[-1.514373,54.477907],[-1.512204,54.48014],[-1.512001,54.481155],[-1.512935,54.482925],[-1.514132,54.483775],[-1.515939,54.484573],[-1.518075,54.485036],[-1.523671,54.484913],[-1.526409,54.485224],[-1.528837,54.484814],[-1.530613,54.48353],[-1.531293,54.480721],[-1.530273,54.477799],[-1.530151,54.475751],[-1.528597,54.474781],[-1.524474,54.474643],[-1.520547,54.473473],[-1.519358,54.472197],[-1.519694,54.471115],[-1.522417,54.470185],[-1.527403,54.469965],[-1.53272,54.469149],[-1.54275,54.471164],[-1.545673,54.471238],[-1.551129,54.4745],[-1.554099,54.479601],[-1.554443,54.483901],[-1.555195,54.484978],[-1.556663,54.485595],[-1.563038,54.486808],[-1.567774,54.488568],[-1.573304,54.49016],[-1.575006,54.492626],[-1.576999,54.494404],[-1.580305,54.496309],[-1.58298,54.497101],[-1.583437,54.498059],[-1.579995,54.500943],[-1.578745,54.503883],[-1.579215,54.505188],[-1.581128,54.505328],[-1.588866,54.503632],[-1.59076,54.503608],[-1.591623,54.504004],[-1.591948,54.505303],[-1.591357,54.505853],[-1.587513,54.506772],[-1.581305,54.509489],[-1.579564,54.51109],[-1.579527,54.511627],[-1.581069,54.512846],[-1.58359,54.513058],[-1.589715,54.512074],[-1.595656,54.512222],[-1.601098,54.510559],[-1.6027,54.510537],[-1.603581,54.511167],[-1.603687,54.512054],[-1.601064,54.514813],[-1.600448,54.516344],[-1.600623,54.517098],[-1.603955,54.519365],[-1.612107,54.519992],[-1.614296,54.519542],[-1.619532,54.515999],[-1.623871,54.514559],[-1.628247,54.513783],[-1.633444,54.514112],[-1.639163,54.516313],[-1.640498,54.517189],[-1.640253,54.517552],[-1.63901,54.517806],[-1.634988,54.517521],[-1.633662,54.517968],[-1.632931,54.518704],[-1.63268,54.520702],[-1.631724,54.522877],[-1.632137,54.523851],[-1.633774,54.525364],[-1.635989,54.525897],[-1.639399,54.525808],[-1.645317,54.524401],[-1.650519,54.524093],[-1.652973,54.524196],[-1.654675,54.52465],[-1.65633,54.525533],[-1.657034,54.526383],[-1.656918,54.528209],[-1.655097,54.530038],[-1.655035,54.53183],[-1.65558,54.532977],[-1.657937,54.534589],[-1.660641,54.5352],[-1.665277,54.53559],[-1.672212,54.535402],[-1.677412,54.534494],[-1.679294,54.533635],[-1.682259,54.533339],[-1.68363,54.53348],[-1.689531,54.535387],[-1.696926,54.536006],[-1.698518,54.540802],[-1.698013,54.540724],[-1.698741,54.543301],[-1.69834,54.544209],[-1.703771,54.544936],[-1.704522,54.54627],[-1.7046,54.548378],[-1.705274,54.549172],[-1.703933,54.550717],[-1.701164,54.549906],[-1.699394,54.552043],[-1.701205,54.552949],[-1.700486,54.554062],[-1.699147,54.554073],[-1.697563,54.555712],[-1.691328,54.555312],[-1.691207,54.556245],[-1.694694,54.556638],[-1.696588,54.557817],[-1.698735,54.558206],[-1.701794,54.558263],[-1.703311,54.558696],[-1.70588,54.560627],[-1.705554,54.561846],[-1.706321,54.562655],[-1.707203,54.562691],[-1.707437,54.563161],[-1.709282,54.563179],[-1.709667,54.565815],[-1.708028,54.567903],[-1.70769,54.568712],[-1.708255,54.569064],[-1.70448,54.572162],[-1.705468,54.573766],[-1.708984,54.574142],[-1.705695,54.578348],[-1.704072,54.578082],[-1.703077,54.579854],[-1.702848,54.581573],[-1.700169,54.582249],[-1.700033,54.584176],[-1.699043,54.584566],[-1.693865,54.585094],[-1.694028,54.586894],[-1.683911,54.585955],[-1.679312,54.585973],[-1.68061,54.597833],[-1.680658,54.606329],[-1.68198,54.608119],[-1.681075,54.608406],[-1.681055,54.608766],[-1.682422,54.617771],[-1.672903,54.617438],[-1.672195,54.617085],[-1.663188,54.615536],[-1.662282,54.615857],[-1.65704,54.615473],[-1.653227,54.616955],[-1.651774,54.616903],[-1.649741,54.617957],[-1.641629,54.619366],[-1.640777,54.617401],[-1.638001,54.617204],[-1.637672,54.616704]]]}}]}