{"type":"FeatureCollection","features":[{"type":"Feature","properties":{"slug":"dartford","gss_code":"E07000107","name":"Dartford"},"geometry":{"type":"Polygon","coordinates":[[[0.218662,51.479342],[0.220194,51.479488],[0.22748,51.475821],[0.229113,51.475549],[0.235558,51.471902],[0.238195,51.469988],[0.238805,51.47],[0.239239,51.469453],[0.239647,51.46955],[0.239611,51.468513],[0.241012,51.467986],[0.242128,51.468129],[0.24815,51.465399],[0.249382,51.464798],[0.250187,51.463631],[0.253942,51.462237],[0.255568,51.462442],[0.255696,51.462129],[0.260767,51.46077],[0.262398,51.459203],[0.266358,51.456829],[0.267193,51.455972],[0.274224,51.453739],[0.275194,51.453639],[0.275264,51.454164],[0.276419,51.453998],[0.276182,51.453587],[0.279214,51.453522],[0.281391,51.453904],[0.281777,51.453512],[0.282138,51.453869],[0.282828,51.453877],[0.282864,51.45358],[0.28445,51.453645],[0.290451,51.454521],[0.291806,51.454901],[0.292814,51.455645],[0.294455,51.455785],[0.294587,51.456167],[0.296996,51.457163],[0.297436,51.45763],[0.300158,51.457987],[0.300113,51.458464],[0.300776,51.459083],[0.300336,51.459426],[0.301955,51.460494],[0.301985,51.46101],[0.302681,51.461295],[0.303657,51.46115],[0.307745,51.464578],[0.308098,51.464732],[0.307978,51.464445],[0.310975,51.463517],[0.311158,51.463796],[0.31041,51.464407],[0.309853,51.464331],[0.309149,51.464748],[0.309703,51.465072],[0.309809,51.466296],[0.310557,51.466774],[0.313109,51.466272],[0.315395,51.464946],[0.314534,51.4621],[0.313467,51.460832],[0.313738,51.460267],[0.312804,51.458964],[0.310685,51.453045],[0.318227,51.451822],[0.319708,51.451237],[0.320302,51.45023],[0.319339,51.449486],[0.31983,51.448897],[0.319308,51.447004],[0.321551,51.446952],[0.321708,51.446224],[0.320575,51.44537],[0.321456,51.44562],[0.322549,51.44507],[0.323565,51.443173],[0.326364,51.442653],[0.326018,51.439893],[0.323637,51.435418],[0.323854,51.431658],[0.324936,51.430387],[0.325234,51.429221],[0.326594,51.428975],[0.328069,51.427739],[0.332605,51.425611],[0.330623,51.420993],[0.331272,51.420759],[0.331084,51.414709],[0.332093,51.41183],[0.334409,51.408863],[0.334114,51.406345],[0.335171,51.402386],[0.335095,51.399323],[0.336557,51.398949],[0.337182,51.39906],[0.33773,51.399773],[0.338885,51.399501],[0.338388,51.398142],[0.338738,51.396356],[0.343763,51.395477],[0.344572,51.393188],[0.342631,51.391235],[0.341033,51.391169],[0.33987,51.390686],[0.335732,51.389966],[0.33462,51.389463],[0.335195,51.38823],[0.336426,51.38759],[0.337068,51.38767],[0.336679,51.386544],[0.332008,51.387323],[0.293269,51.397976],[0.284044,51.399618],[0.277488,51.401584],[0.279785,51.402859],[0.278507,51.404522],[0.277607,51.406924],[0.274894,51.407457],[0.274055,51.407086],[0.272762,51.407571],[0.272196,51.406743],[0.269127,51.407419],[0.258049,51.407818],[0.245745,51.407712],[0.246154,51.407034],[0.246087,51.406504],[0.245512,51.406493],[0.245644,51.405425],[0.244602,51.40397],[0.243322,51.403231],[0.241895,51.401003],[0.240206,51.401143],[0.241034,51.399571],[0.240183,51.398373],[0.240546,51.397616],[0.23888,51.397075],[0.238314,51.396306],[0.235634,51.39666],[0.233483,51.396353],[0.232699,51.395893],[0.227512,51.395166],[0.223655,51.395665],[0.219343,51.395571],[0.215813,51.396174],[0.213868,51.39608],[0.21284,51.396763],[0.212124,51.396588],[0.20891,51.397044],[0.207532,51.396844],[0.20695,51.397219],[0.207191,51.400006],[0.206858,51.402414],[0.212738,51.402749],[0.213529,51.404849],[0.211401,51.404954],[0.211018,51.407453],[0.205845,51.409683],[0.204992,51.412246],[0.205305,51.413206],[0.203245,51.413791],[0.200779,51.415741],[0.199759,51.417976],[0.182609,51.415794],[0.178078,51.415513],[0.16493,51.410994],[0.166358,51.410754],[0.165615,51.40824],[0.163933,51.408414],[0.163488,51.406804],[0.161454,51.407156],[0.159693,51.407845],[0.159887,51.40827],[0.159382,51.408369],[0.152932,51.408708],[0.15377,51.411265],[0.149752,51.411658],[0.14916,51.412435],[0.151154,51.415063],[0.151056,51.417616],[0.154094,51.417762],[0.154637,51.41847],[0.151159,51.42043],[0.152851,51.421703],[0.153135,51.422322],[0.153764,51.427523],[0.155301,51.428975],[0.155875,51.430877],[0.159086,51.430225],[0.159837,51.429203],[0.160695,51.429675],[0.163923,51.428932],[0.163832,51.428609],[0.164217,51.428546],[0.16559,51.430349],[0.16621,51.430282],[0.166694,51.431296],[0.166096,51.43143],[0.166851,51.432072],[0.16669,51.435051],[0.168714,51.43748],[0.170895,51.441197],[0.172845,51.443287],[0.176038,51.441995],[0.178716,51.443518],[0.17958,51.44309],[0.180845,51.443526],[0.18102,51.444179],[0.183568,51.444781],[0.18415,51.444643],[0.18739,51.446876],[0.187642,51.448721],[0.18846,51.448586],[0.18883,51.449103],[0.191012,51.448788],[0.192083,51.450842],[0.193054,51.451702],[0.193855,51.45192],[0.194193,51.451646],[0.19629,51.452477],[0.19741,51.451771],[0.199107,51.45212],[0.199748,51.452723],[0.200238,51.452558],[0.200635,51.453174],[0.201262,51.453348],[0.201337,51.453844],[0.201972,51.454101],[0.202486,51.453865],[0.203385,51.454326],[0.203236,51.454929],[0.203874,51.455803],[0.202608,51.45623],[0.203236,51.457605],[0.203049,51.457952],[0.203579,51.458044],[0.203075,51.458272],[0.203686,51.458376],[0.203311,51.458503],[0.203481,51.458804],[0.204857,51.459883],[0.205841,51.459954],[0.207691,51.461296],[0.210303,51.462095],[0.210848,51.458861],[0.212507,51.457314],[0.211716,51.455061],[0.215497,51.452546],[0.212351,51.455099],[0.212979,51.456987],[0.211563,51.458909],[0.210799,51.464537],[0.21091,51.464059],[0.211381,51.463719],[0.210925,51.464113],[0.211192,51.464727],[0.210684,51.465444],[0.211208,51.465294],[0.211233,51.465861],[0.210745,51.46568],[0.211411,51.466925],[0.212053,51.466504],[0.211596,51.466164],[0.212997,51.46683],[0.21217,51.466507],[0.21161,51.466927],[0.211785,51.46773],[0.212086,51.467514],[0.21152,51.469081],[0.211997,51.469363],[0.210423,51.469787],[0.209281,51.471048],[0.212245,51.472947],[0.212069,51.474658],[0.212592,51.475436],[0.216156,51.476247],[0.21694,51.476825],[0.21744,51.477934],[0.21686,51.478447],[0.217484,51.479052],[0.217023,51.479227],[0.218058,51.479665],[0.218662,51.479342]]]}}]}