{"type":"FeatureCollection","features":[{"type":"Feature","properties":{"slug":"derby","gss_code":"E06000015","name":"Derby"},"geometry":{"type":"Polygon","coordinates":[[[-1.478493,52.964643],[-1.476694,52.964326],[-1.474689,52.965909],[-1.474163,52.965491],[-1.471641,52.964815],[-1.468252,52.965081],[-1.467642,52.964821],[-1.466509,52.962269],[-1.467843,52.960663],[-1.467827,52.959784],[-1.466178,52.95787],[-1.467595,52.955689],[-1.466008,52.954013],[-1.467353,52.953026],[-1.468552,52.950662],[-1.459347,52.949434],[-1.45976,52.948787],[-1.457796,52.948251],[-1.456411,52.948697],[-1.452989,52.948357],[-1.452749,52.947461],[-1.450471,52.948877],[-1.449939,52.948117],[-1.445064,52.949201],[-1.441081,52.949505],[-1.434034,52.951309],[-1.431614,52.950619],[-1.428428,52.950306],[-1.424059,52.950308],[-1.420253,52.950718],[-1.409281,52.950323],[-1.416431,52.945761],[-1.423468,52.937743],[-1.423964,52.935651],[-1.423568,52.935693],[-1.419921,52.931787],[-1.419254,52.931429],[-1.417456,52.931718],[-1.411897,52.930964],[-1.408852,52.93134],[-1.408084,52.931041],[-1.404829,52.93171],[-1.404565,52.932153],[-1.403478,52.932216],[-1.401209,52.930628],[-1.397202,52.929946],[-1.396292,52.929404],[-1.396549,52.928568],[-1.390846,52.92808],[-1.383074,52.925932],[-1.383933,52.923816],[-1.386299,52.923873],[-1.387095,52.922368],[-1.389608,52.92274],[-1.389528,52.920597],[-1.38819,52.918197],[-1.387722,52.915247],[-1.387879,52.911456],[-1.388996,52.909632],[-1.390555,52.908663],[-1.391882,52.907257],[-1.391831,52.906692],[-1.390689,52.906233],[-1.391345,52.905019],[-1.391156,52.904181],[-1.388356,52.901474],[-1.39364,52.901855],[-1.398245,52.901573],[-1.400335,52.901394],[-1.402772,52.900462],[-1.403491,52.896941],[-1.402949,52.89623],[-1.403103,52.895616],[-1.405826,52.895469],[-1.40592,52.894532],[-1.406505,52.894608],[-1.406508,52.893637],[-1.407898,52.891502],[-1.407584,52.891434],[-1.407588,52.889691],[-1.409283,52.889339],[-1.409863,52.888293],[-1.409734,52.886439],[-1.410376,52.88654],[-1.411006,52.884796],[-1.411661,52.884245],[-1.413779,52.884257],[-1.416736,52.884815],[-1.418913,52.884546],[-1.420362,52.882081],[-1.420484,52.879616],[-1.41959,52.87863],[-1.420093,52.878272],[-1.416465,52.875699],[-1.425407,52.873934],[-1.425182,52.872968],[-1.425821,52.872184],[-1.429778,52.87021],[-1.427527,52.868839],[-1.42614,52.869137],[-1.424995,52.868877],[-1.423567,52.865078],[-1.427955,52.864756],[-1.427681,52.863941],[-1.437907,52.862835],[-1.438212,52.861691],[-1.43908,52.862435],[-1.440809,52.862081],[-1.440882,52.862294],[-1.442135,52.861492],[-1.444087,52.86106],[-1.446227,52.861309],[-1.444878,52.862153],[-1.44485,52.863204],[-1.4471,52.864506],[-1.449908,52.866949],[-1.450651,52.866982],[-1.452903,52.868324],[-1.463757,52.872486],[-1.467153,52.872922],[-1.467662,52.870536],[-1.484422,52.871232],[-1.483827,52.870337],[-1.487537,52.8698],[-1.487528,52.869524],[-1.490357,52.869337],[-1.493667,52.869741],[-1.49512,52.870358],[-1.493524,52.873638],[-1.495367,52.87468],[-1.494972,52.874922],[-1.49668,52.875812],[-1.496834,52.876853],[-1.49989,52.877264],[-1.499995,52.879019],[-1.499143,52.881211],[-1.499495,52.882704],[-1.502004,52.881602],[-1.501645,52.882639],[-1.502779,52.882557],[-1.503112,52.884845],[-1.514612,52.884706],[-1.51583,52.886458],[-1.523198,52.887341],[-1.52426,52.888847],[-1.524743,52.890636],[-1.526372,52.890911],[-1.528097,52.890684],[-1.528417,52.890216],[-1.530833,52.889167],[-1.530674,52.888998],[-1.533963,52.888054],[-1.534353,52.888437],[-1.536906,52.888206],[-1.539904,52.889009],[-1.539662,52.889261],[-1.540371,52.889556],[-1.541691,52.88954],[-1.541667,52.892131],[-1.542059,52.892364],[-1.539638,52.893942],[-1.541082,52.894092],[-1.542433,52.895152],[-1.543072,52.896395],[-1.542434,52.896773],[-1.544219,52.898776],[-1.544975,52.90033],[-1.547477,52.899614],[-1.549994,52.90222],[-1.551153,52.901844],[-1.555146,52.906052],[-1.555212,52.906273],[-1.553853,52.906304],[-1.554602,52.908615],[-1.554035,52.909267],[-1.555972,52.912472],[-1.55555,52.912567],[-1.556403,52.913505],[-1.555645,52.913772],[-1.556835,52.914645],[-1.55107,52.916969],[-1.552912,52.922561],[-1.549692,52.922806],[-1.544068,52.924208],[-1.539645,52.924449],[-1.537798,52.924905],[-1.527006,52.932417],[-1.525457,52.932993],[-1.521261,52.932385],[-1.519874,52.933296],[-1.511885,52.935239],[-1.510973,52.938148],[-1.508029,52.937452],[-1.506606,52.939865],[-1.507815,52.940919],[-1.507507,52.941391],[-1.508064,52.942461],[-1.50777,52.943727],[-1.508225,52.944193],[-1.507885,52.944407],[-1.508839,52.944753],[-1.50915,52.94571],[-1.510669,52.946334],[-1.507921,52.946977],[-1.508334,52.947818],[-1.505904,52.948327],[-1.507604,52.951282],[-1.507644,52.954331],[-1.506609,52.954204],[-1.503427,52.955638],[-1.497801,52.956005],[-1.497976,52.956832],[-1.496866,52.958586],[-1.495314,52.960075],[-1.494412,52.960179],[-1.496573,52.963936],[-1.496047,52.964083],[-1.496472,52.964969],[-1.4954,52.965036],[-1.495405,52.965879],[-1.492265,52.966378],[-1.491966,52.96592],[-1.490691,52.966194],[-1.485185,52.966231],[-1.483327,52.966792],[-1.483622,52.967273],[-1.481158,52.968154],[-1.480085,52.968115],[-1.47966,52.967539],[-1.480465,52.967315],[-1.478493,52.964643]]]}}]}