{"type":"FeatureCollection","features":[{"type":"Feature","properties":{"slug":"dorset","gss_code":"E06000059","name":"Dorset"},"geometry":{"type":"MultiPolygon","coordinates":[[[[-2.433826,50.57005],[-2.437611,50.570011],[-2.438582,50.569748],[-2.438026,50.570095],[-2.433098,50.571137],[-2.434123,50.571194],[-2.432109,50.571625],[-2.432883,50.571335],[-2.432035,50.571192],[-2.431239,50.571629],[-2.433826,50.57005]]],[[[-1.99446,50.68045],[-1.994381,50.680684],[-1.990722,50.680752],[-1.990308,50.680124],[-1.991177,50.680341],[-1.990774,50.679928],[-1.990772,50.680158],[-1.99032,50.680074],[-1.990051,50.678427],[-1.991557,50.677769],[-1.993985,50.677741],[-1.995175,50.678872],[-1.995707,50.680735],[-1.995401,50.680944],[-1.99446,50.68045]]],[[[-1.981003,50.682936],[-1.982901,50.681969],[-1.982777,50.681683],[-1.985697,50.682116],[-1.988255,50.681795],[-1.989643,50.682505],[-1.989492,50.683543],[-1.988607,50.684098],[-1.982672,50.684234],[-1.981481,50.684509],[-1.981625,50.684083],[-1.98231,50.683953],[-1.982304,50.683679],[-1.981729,50.683951],[-1.982165,50.68353],[-1.981476,50.684048],[-1.981199,50.684666],[-1.981003,50.682936]],[[-1.982501,50.683917],[-1.982496,50.684162],[-1.982583,50.683649],[-1.983096,50.683678],[-1.982629,50.683531],[-1.98231,50.683953],[-1.982501,50.683917]]],[[[-2.02734,50.689251],[-2.028173,50.688884],[-2.028409,50.689324],[-2.027891,50.689268],[-2.02826,50.68951],[-2.027839,50.689619],[-2.02734,50.689251]]],[[[-2.072162,50.689452],[-2.072165,50.69007],[-2.072949,50.690492],[-2.071444,50.689709],[-2.072162,50.689452]]],[[[-2.026369,50.690282],[-2.026861,50.690258],[-2.027207,50.69063],[-2.027771,50.690245],[-2.02651,50.690211],[-2.026699,50.689814],[-2.027232,50.689612],[-2.02784,50.689723],[-2.027668,50.690027],[-2.028574,50.690025],[-2.028472,50.690521],[-2.027914,50.690563],[-2.027678,50.690783],[-2.026912,50.690837],[-2.026369,50.690282]]],[[[-2.024654,50.691607],[-2.025114,50.691351],[-2.024569,50.69153],[-2.024183,50.69079],[-2.024658,50.690025],[-2.025387,50.689827],[-2.024914,50.690466],[-2.025357,50.690169],[-2.025164,50.69094],[-2.025724,50.689805],[-2.026142,50.690595],[-2.026334,50.69043],[-2.026785,50.690893],[-2.025633,50.691174],[-2.026219,50.691554],[-2.025168,50.691679],[-2.025099,50.691906],[-2.025716,50.69209],[-2.024835,50.692037],[-2.024654,50.691607]]],[[[-2.072506,50.690571],[-2.072603,50.691157],[-2.073338,50.691051],[-2.074284,50.691731],[-2.07363,50.692483],[-2.073013,50.692346],[-2.07321,50.691776],[-2.072393,50.691594],[-2.0721,50.69121],[-2.072506,50.690571]]],[[[-2.018616,50.693775],[-2.019278,50.693694],[-2.018822,50.693275],[-2.019241,50.693418],[-2.018942,50.693213],[-2.019383,50.693143],[-2.020027,50.693468],[-2.019721,50.693191],[-2.019053,50.693004],[-2.018761,50.69324],[-2.018723,50.692934],[-2.018635,50.69313],[-2.01887,50.693574],[-2.018555,50.693672],[-2.018113,50.692647],[-2.018407,50.692508],[-2.017863,50.692442],[-2.017558,50.691635],[-2.017214,50.691583],[-2.017334,50.691886],[-2.016183,50.691414],[-2.016248,50.691172],[-2.015554,50.691338],[-2.015287,50.690887],[-2.015308,50.690358],[-2.015792,50.69024],[-2.015577,50.689953],[-2.01615,50.689841],[-2.01659,50.689206],[-2.017863,50.689538],[-2.01784,50.689231],[-2.018443,50.689214],[-2.017048,50.689023],[-2.017959,50.688602],[-2.017389,50.68811],[-2.017117,50.688091],[-2.017606,50.688713],[-2.016744,50.689029],[-2.01634,50.688865],[-2.016577,50.688718],[-2.016459,50.688397],[-2.016386,50.688687],[-2.015751,50.688833],[-2.015346,50.688385],[-2.015821,50.688104],[-2.015306,50.688009],[-2.015242,50.688291],[-2.014283,50.688042],[-2.014853,50.687808],[-2.014416,50.687737],[-2.01453,50.687391],[-2.015225,50.687444],[-2.014492,50.687364],[-2.014103,50.687776],[-2.014019,50.687217],[-2.015191,50.686957],[-2.015151,50.68641],[-2.015049,50.686908],[-2.014178,50.686955],[-2.014575,50.686126],[-2.015306,50.685921],[-2.014468,50.686042],[-2.014594,50.685587],[-2.015262,50.685369],[-2.014539,50.68536],[-2.016032,50.684855],[-2.01674,50.685503],[-2.01665,50.684763],[-2.017139,50.684582],[-2.017649,50.685131],[-2.018201,50.685125],[-2.017435,50.684783],[-2.017532,50.68456],[-2.018133,50.684745],[-2.018909,50.685508],[-2.018148,50.685444],[-2.018776,50.685713],[-2.020292,50.688007],[-2.0194,50.688993],[-2.019341,50.689913],[-2.018647,50.689827],[-2.019235,50.690125],[-2.019132,50.690976],[-2.019981,50.692117],[-2.021473,50.693514],[-2.021026,50.693396],[-2.019979,50.694035],[-2.019857,50.693822],[-2.019331,50.694066],[-2.018616,50.693775]]],[[[-1.96526,50.694823],[-1.960958,50.695243],[-1.95836,50.695044],[-1.95624,50.691963],[-1.955901,50.690912],[-1.956517,50.689015],[-1.956174,50.688863],[-1.960415,50.686532],[-1.961585,50.686282],[-1.9689,50.686253],[-1.975369,50.68729],[-1.983523,50.687079],[-1.985057,50.688378],[-1.988038,50.69245],[-1.987256,50.692689],[-1.985444,50.694723],[-1.983788,50.694641],[-1.979306,50.696544],[-1.97463,50.697394],[-1.973546,50.697284],[-1.972335,50.696515],[-1.96526,50.694823]]],[[[-2.031253,50.697581],[-2.031544,50.697787],[-2.032008,50.697925],[-2.032313,50.697779],[-2.032265,50.698222],[-2.031289,50.698117],[-2.031253,50.697581]]],[[[-2.028825,50.698101],[-2.030004,50.698266],[-2.030707,50.697815],[-2.029266,50.698058],[-2.029641,50.697911],[-2.029206,50.697918],[-2.029541,50.697193],[-2.030344,50.697308],[-2.030079,50.697712],[-2.030524,50.697429],[-2.030232,50.697144],[-2.030666,50.697345],[-2.030544,50.697664],[-2.030939,50.697298],[-2.030952,50.698128],[-2.031672,50.698282],[-2.030948,50.698737],[-2.031209,50.698294],[-2.030871,50.698443],[-2.030453,50.698168],[-2.030711,50.69875],[-2.028751,50.698308],[-2.028825,50.698101]]],[[[-2.316959,51.079838],[-2.310852,51.080253],[-2.309472,51.079151],[-2.306434,51.079557],[-2.30335,51.079262],[-2.298681,51.078487],[-2.293265,51.076939],[-2.291269,51.077075],[-2.283106,51.075163],[-2.268596,51.068726],[-2.267347,51.06909],[-2.263292,51.069266],[-2.251317,51.070837],[-2.247763,51.07219],[-2.244727,51.072311],[-2.240193,51.069924],[-2.239041,51.068663],[-2.23881,51.067811],[-2.227736,51.060239],[-2.225858,51.057571],[-2.223192,51.056518],[-2.218011,51.055184],[-2.217133,51.053611],[-2.215334,51.051848],[-2.212488,51.050099],[-2.210594,51.047098],[-2.208473,51.046509],[-2.2072,51.04571],[-2.205416,51.042786],[-2.2015,51.043243],[-2.201548,51.042741],[-2.198166,51.041624],[-2.196237,51.040044],[-2.195268,51.039649],[-2.194821,51.038872],[-2.193311,51.037751],[-2.192068,51.036261],[-2.190553,51.032158],[-2.189158,51.030677],[-2.18929,51.029502],[-2.190249,51.028593],[-2.190297,51.027274],[-2.188854,51.025281],[-2.188604,51.018532],[-2.183732,51.017664],[-2.185245,51.015798],[-2.178801,51.014166],[-2.1764,51.01284],[-2.17627,51.011695],[-2.178143,51.008324],[-2.176601,51.006844],[-2.175581,51.004693],[-2.172994,51.002177],[-2.17258,51.0011],[-2.169306,51.00071],[-2.167118,50.998128],[-2.164509,50.996104],[-2.163624,50.996173],[-2.163583,50.994446],[-2.161508,50.994179],[-2.161834,50.993515],[-2.15968,50.992875],[-2.152523,50.989158],[-2.148147,50.986278],[-2.143577,50.984965],[-2.138396,50.982288],[-2.13169,50.97977],[-2.126854,50.978739],[-2.122344,50.978604],[-2.121966,50.978168],[-2.119764,50.978191],[-2.122455,50.973758],[-2.122974,50.971874],[-2.123157,50.969468],[-2.120652,50.969408],[-2.120878,50.965715],[-2.121513,50.965035],[-2.121523,50.964015],[-2.120671,50.961539],[-2.119462,50.95968],[-2.115642,50.957503],[-2.112464,50.95657],[-2.110521,50.955489],[-2.105557,50.950009],[-2.103959,50.948917],[-2.102655,50.94657],[-2.102861,50.945608],[-2.101792,50.944986],[-2.100253,50.94507],[-2.094145,50.949135],[-2.090916,50.949508],[-2.089219,50.950156],[-2.08737,50.949951],[-2.08527,50.949245],[-2.083884,50.950968],[-2.082864,50.951338],[-2.068313,50.951194],[-2.064862,50.953962],[-2.064272,50.957185],[-2.062532,50.959061],[-2.062373,50.959887],[-2.059318,50.95979],[-2.0586,50.960632],[-2.058427,50.96134],[-2.059405,50.962813],[-2.058328,50.963643],[-2.05332,50.966234],[-2.051078,50.966152],[-2.041225,50.968068],[-2.038539,50.970749],[-2.038339,50.971409],[-2.037208,50.97197],[-2.034454,50.972425],[-2.032854,50.971852],[-2.028967,50.971179],[-2.023724,50.972511],[-2.021949,50.972615],[-2.02028,50.972227],[-2.017427,50.972161],[-2.014831,50.973165],[-2.014095,50.973874],[-2.012336,50.974153],[-2.009908,50.975239],[-2.00699,50.975427],[-2.003857,50.974502],[-2.002749,50.974838],[-2.000709,50.974831],[-1.998966,50.97535],[-1.99383,50.975771],[-1.992812,50.976146],[-1.992271,50.976845],[-1.99117,50.977139],[-1.990233,50.978565],[-1.989189,50.978887],[-1.990069,50.980939],[-1.989757,50.981551],[-1.986908,50.982361],[-1.985871,50.983257],[-1.986049,50.983995],[-1.985266,50.984714],[-1.983419,50.984412],[-1.980332,50.984925],[-1.979519,50.985553],[-1.977379,50.985755],[-1.975154,50.986945],[-1.972872,50.987576],[-1.971871,50.989562],[-1.967966,50.990628],[-1.965334,50.99203],[-1.962659,50.991848],[-1.95683,50.9898],[-1.957224,50.983195],[-1.955466,50.978266],[-1.954729,50.978118],[-1.952521,50.978583],[-1.950798,50.97813],[-1.948133,50.976475],[-1.94483,50.975748],[-1.942079,50.973363],[-1.941258,50.971826],[-1.93922,50.969657],[-1.934864,50.969093],[-1.929889,50.967796],[-1.928685,50.966293],[-1.928402,50.964988],[-1.927184,50.963595],[-1.923923,50.962723],[-1.920986,50.961496],[-1.918741,50.956366],[-1.916106,50.953131],[-1.912484,50.952199],[-1.912442,50.951016],[-1.910577,50.949223],[-1.909183,50.945327],[-1.905382,50.943084],[-1.9026,50.940726],[-1.899087,50.938392],[-1.898567,50.935878],[-1.896899,50.934396],[-1.892554,50.931624],[-1.881579,50.926377],[-1.880382,50.924935],[-1.878803,50.924326],[-1.87923,50.924064],[-1.877871,50.923105],[-1.876118,50.920585],[-1.875007,50.919797],[-1.873644,50.917226],[-1.864632,50.918923],[-1.863488,50.919389],[-1.86107,50.92064],[-1.860941,50.921127],[-1.859905,50.921304],[-1.859093,50.922374],[-1.857466,50.923152],[-1.855747,50.924983],[-1.855971,50.925538],[-1.85648,50.925681],[-1.855814,50.926116],[-1.855958,50.926458],[-1.854185,50.927511],[-1.851809,50.928258],[-1.851057,50.928835],[-1.846595,50.929562],[-1.846082,50.930266],[-1.844973,50.930188],[-1.844137,50.930725],[-1.842659,50.93096],[-1.84184,50.93168],[-1.840722,50.931581],[-1.840182,50.931868],[-1.838749,50.930803],[-1.83539,50.930057],[-1.835343,50.929548],[-1.832664,50.929214],[-1.829863,50.927609],[-1.828272,50.927768],[-1.826301,50.92687],[-1.824143,50.927095],[-1.820748,50.926299],[-1.817851,50.92677],[-1.817465,50.92716],[-1.813927,50.92705],[-1.813215,50.927835],[-1.812784,50.92752],[-1.811438,50.927804],[-1.811591,50.927371],[-1.810658,50.927203],[-1.81106,50.927037],[-1.810552,50.926808],[-1.81266,50.925333],[-1.814773,50.923132],[-1.814467,50.922882],[-1.815034,50.920584],[-1.817481,50.917608],[-1.818844,50.916526],[-1.818611,50.914546],[-1.819159,50.9127],[-1.820407,50.912106],[-1.817569,50.907465],[-1.817273,50.905429],[-1.816542,50.903948],[-1.823899,50.898226],[-1.824953,50.895771],[-1.825576,50.896167],[-1.831474,50.897391],[-1.837239,50.897198],[-1.83987,50.89789],[-1.841707,50.89702],[-1.844889,50.893168],[-1.848556,50.889887],[-1.845099,50.888251],[-1.844043,50.886829],[-1.844491,50.885297],[-1.847492,50.883408],[-1.847977,50.882339],[-1.847711,50.880878],[-1.846122,50.87942],[-1.845272,50.877998],[-1.84848,50.873778],[-1.847832,50.869686],[-1.853539,50.866505],[-1.851665,50.864223],[-1.853539,50.86346],[-1.853209,50.862673],[-1.850564,50.860298],[-1.850944,50.858725],[-1.84602,50.858137],[-1.841632,50.858043],[-1.829518,50.855319],[-1.821236,50.856772],[-1.814833,50.858701],[-1.814745,50.862052],[-1.812924,50.862332],[-1.81375,50.863381],[-1.81279,50.864573],[-1.808028,50.86446],[-1.806413,50.861498],[-1.807175,50.860138],[-1.805086,50.85901],[-1.805435,50.857636],[-1.804841,50.856792],[-1.804003,50.856476],[-1.804089,50.855539],[-1.804756,50.854781],[-1.804169,50.854164],[-1.803262,50.853914],[-1.803624,50.853342],[-1.805838,50.853071],[-1.805498,50.851991],[-1.804805,50.851154],[-1.802884,50.850661],[-1.80237,50.849543],[-1.801272,50.849284],[-1.799943,50.848449],[-1.80041,50.847872],[-1.800219,50.84724],[-1.802745,50.845418],[-1.803611,50.845279],[-1.803359,50.844477],[-1.801873,50.84242],[-1.799849,50.842195],[-1.799617,50.841539],[-1.798077,50.841987],[-1.796996,50.841092],[-1.797355,50.840791],[-1.798669,50.840818],[-1.799266,50.841301],[-1.800322,50.841043],[-1.800006,50.839988],[-1.798565,50.838852],[-1.794545,50.837724],[-1.794406,50.836801],[-1.792941,50.83659],[-1.791392,50.836957],[-1.790615,50.836314],[-1.791627,50.835336],[-1.791534,50.834103],[-1.792067,50.833588],[-1.795502,50.833878],[-1.796655,50.833221],[-1.795771,50.831822],[-1.794118,50.831518],[-1.794437,50.83103],[-1.79566,50.830789],[-1.797145,50.830021],[-1.797977,50.830363],[-1.798953,50.831388],[-1.800563,50.831498],[-1.801366,50.830953],[-1.802928,50.830741],[-1.803635,50.830024],[-1.804624,50.82703],[-1.803239,50.825246],[-1.80458,50.82471],[-1.804845,50.823714],[-1.804325,50.822836],[-1.804526,50.822361],[-1.804039,50.82196],[-1.803216,50.82193],[-1.802138,50.822438],[-1.801669,50.822236],[-1.801756,50.820976],[-1.802496,50.820308],[-1.804026,50.819984],[-1.805093,50.818348],[-1.806593,50.817831],[-1.807274,50.8163],[-1.806424,50.815012],[-1.803492,50.814053],[-1.802874,50.813512],[-1.805733,50.811627],[-1.806761,50.810466],[-1.809939,50.80977],[-1.810539,50.808893],[-1.811832,50.80873],[-1.811807,50.808019],[-1.8106,50.807099],[-1.811904,50.807094],[-1.812068,50.806548],[-1.811664,50.806076],[-1.810576,50.805902],[-1.809736,50.804957],[-1.806964,50.803506],[-1.804282,50.803578],[-1.804006,50.802589],[-1.804795,50.800989],[-1.804658,50.800459],[-1.804034,50.799988],[-1.802349,50.800319],[-1.801373,50.799715],[-1.801933,50.798945],[-1.803491,50.798529],[-1.803443,50.797559],[-1.802156,50.796897],[-1.803022,50.796081],[-1.805931,50.796223],[-1.80618,50.796812],[-1.807626,50.797789],[-1.811267,50.795791],[-1.813459,50.796089],[-1.816901,50.797637],[-1.820037,50.798288],[-1.833746,50.800033],[-1.837752,50.801853],[-1.840498,50.804403],[-1.842042,50.805348],[-1.843897,50.807428],[-1.845202,50.809639],[-1.856638,50.804944],[-1.85773,50.805893],[-1.859559,50.806485],[-1.861558,50.80678],[-1.864592,50.806644],[-1.86586,50.803085],[-1.864384,50.796987],[-1.865356,50.787747],[-1.865325,50.773922],[-1.868198,50.771969],[-1.871726,50.768183],[-1.872855,50.766009],[-1.872901,50.764805],[-1.873877,50.764153],[-1.873376,50.76339],[-1.874711,50.763934],[-1.87418,50.765612],[-1.877838,50.769731],[-1.880995,50.770651],[-1.882062,50.771771],[-1.885553,50.772397],[-1.887357,50.773554],[-1.887822,50.774772],[-1.886702,50.77536],[-1.886731,50.775774],[-1.890187,50.778181],[-1.892831,50.779265],[-1.893893,50.780091],[-1.896361,50.780297],[-1.896636,50.779755],[-1.898414,50.779213],[-1.898629,50.778807],[-1.898084,50.778715],[-1.898556,50.778491],[-1.900696,50.778803],[-1.902011,50.777681],[-1.906163,50.777326],[-1.907598,50.776663],[-1.908881,50.775447],[-1.910832,50.77514],[-1.911393,50.775533],[-1.912732,50.775429],[-1.913145,50.773971],[-1.914476,50.77338],[-1.915036,50.773424],[-1.916983,50.774632],[-1.917592,50.774572],[-1.918653,50.773552],[-1.919884,50.773805],[-1.918967,50.775096],[-1.920738,50.775568],[-1.921595,50.776226],[-1.920916,50.777836],[-1.918893,50.779357],[-1.918612,50.780618],[-1.9197,50.7825],[-1.919133,50.783609],[-1.919602,50.784037],[-1.920925,50.783983],[-1.922403,50.783347],[-1.924235,50.783296],[-1.925057,50.782621],[-1.925511,50.781564],[-1.926999,50.780798],[-1.932832,50.780009],[-1.933333,50.78079],[-1.935052,50.782024],[-1.936999,50.782672],[-1.937501,50.783566],[-1.936973,50.785289],[-1.938059,50.785633],[-1.939024,50.786535],[-1.937439,50.787505],[-1.936329,50.788945],[-1.935203,50.794101],[-1.936161,50.797209],[-1.937991,50.798353],[-1.940884,50.798814],[-1.94154,50.798426],[-1.941514,50.79735],[-1.942273,50.796529],[-1.945369,50.794876],[-1.950728,50.790681],[-1.955192,50.790337],[-1.958327,50.789294],[-1.963853,50.790807],[-1.966136,50.790815],[-1.968994,50.79239],[-1.978363,50.792507],[-1.978979,50.792163],[-1.979072,50.791437],[-1.98017,50.790931],[-1.981429,50.791762],[-1.983625,50.790943],[-1.984832,50.791456],[-1.988238,50.790886],[-1.991095,50.791406],[-1.991568,50.79107],[-1.993991,50.792362],[-1.997166,50.792839],[-2.005862,50.790929],[-2.004867,50.790203],[-1.999565,50.789605],[-1.999133,50.788128],[-2.000466,50.785348],[-2.001198,50.784809],[-2.006075,50.782768],[-2.00796,50.78242],[-2.009321,50.782589],[-2.012737,50.748301],[-2.013529,50.737054],[-2.01624,50.736695],[-2.016615,50.736335],[-2.022522,50.736566],[-2.022189,50.73485],[-2.024679,50.729401],[-2.027464,50.729282],[-2.027194,50.729485],[-2.027601,50.729721],[-2.029422,50.729822],[-2.031752,50.729523],[-2.033029,50.728809],[-2.033508,50.728833],[-2.033815,50.729302],[-2.033611,50.728842],[-2.034311,50.728822],[-2.034488,50.729233],[-2.034402,50.728834],[-2.034308,50.728796],[-2.033206,50.728682],[-2.033555,50.728347],[-2.034422,50.728613],[-2.033825,50.728231],[-2.034708,50.728001],[-2.035284,50.728311],[-2.034756,50.727983],[-2.035592,50.727994],[-2.03579,50.728293],[-2.034592,50.729908],[-2.036176,50.731669],[-2.035823,50.733055],[-2.036279,50.731644],[-2.036204,50.73135],[-2.036993,50.730857],[-2.037155,50.731516],[-2.03712,50.730667],[-2.038187,50.731268],[-2.037768,50.731716],[-2.038409,50.731321],[-2.038358,50.731617],[-2.038454,50.731734],[-2.038926,50.731682],[-2.038425,50.731481],[-2.039119,50.730823],[-2.038593,50.731275],[-2.038182,50.731151],[-2.039101,50.7303],[-2.038166,50.731063],[-2.036976,50.73033],[-2.039247,50.729424],[-2.040817,50.729798],[-2.042084,50.731451],[-2.041346,50.731576],[-2.04102,50.731907],[-2.040381,50.731447],[-2.040414,50.73052],[-2.0403,50.731427],[-2.040979,50.732037],[-2.039625,50.73197],[-2.040624,50.732187],[-2.041012,50.732067],[-2.041376,50.731659],[-2.042507,50.731761],[-2.043385,50.730047],[-2.044134,50.730853],[-2.04481,50.731028],[-2.044648,50.730842],[-2.046252,50.730262],[-2.047349,50.728794],[-2.048054,50.728355],[-2.048068,50.728862],[-2.047743,50.729075],[-2.048127,50.728926],[-2.048046,50.72823],[-2.048565,50.728673],[-2.050113,50.728734],[-2.048948,50.728606],[-2.048864,50.728345],[-2.048604,50.728509],[-2.048102,50.727999],[-2.04833,50.727188],[-2.049702,50.726669],[-2.049994,50.726157],[-2.051303,50.727982],[-2.053348,50.728757],[-2.051112,50.727639],[-2.050451,50.726252],[-2.050908,50.726025],[-2.051583,50.726535],[-2.051369,50.72588],[-2.050846,50.725965],[-2.050187,50.725307],[-2.048948,50.725074],[-2.048968,50.724314],[-2.048357,50.723828],[-2.048682,50.723441],[-2.048125,50.723482],[-2.048827,50.724946],[-2.048565,50.725287],[-2.046129,50.725673],[-2.044942,50.72621],[-2.04275,50.726328],[-2.041814,50.725938],[-2.041602,50.725134],[-2.042541,50.725809],[-2.042371,50.725365],[-2.042848,50.72523],[-2.043226,50.725829],[-2.043366,50.725361],[-2.043681,50.725803],[-2.043646,50.725405],[-2.044529,50.725663],[-2.043797,50.725302],[-2.042668,50.725208],[-2.042322,50.725292],[-2.043294,50.724779],[-2.041792,50.725208],[-2.042196,50.724453],[-2.041431,50.723458],[-2.041783,50.722929],[-2.04261,50.723116],[-2.042603,50.723444],[-2.042216,50.723373],[-2.042561,50.723589],[-2.042044,50.72363],[-2.042519,50.723693],[-2.042632,50.724255],[-2.042802,50.723959],[-2.044109,50.724204],[-2.043876,50.724987],[-2.04358,50.724723],[-2.043672,50.725147],[-2.044401,50.724658],[-2.044709,50.725344],[-2.044477,50.724722],[-2.045009,50.724553],[-2.045869,50.725002],[-2.046182,50.724524],[-2.046699,50.72503],[-2.046037,50.724373],[-2.045852,50.724683],[-2.045096,50.724497],[-2.04435,50.72459],[-2.044182,50.724126],[-2.042597,50.723881],[-2.043196,50.723264],[-2.045621,50.72304],[-2.045405,50.722858],[-2.045707,50.723064],[-2.047111,50.723095],[-2.045667,50.722942],[-2.046175,50.722531],[-2.045138,50.722934],[-2.044173,50.722694],[-2.043925,50.722994],[-2.042986,50.72251],[-2.043434,50.722979],[-2.042948,50.723212],[-2.042149,50.722563],[-2.043241,50.719977],[-2.044008,50.719555],[-2.04286,50.720038],[-2.040635,50.720091],[-2.044417,50.718898],[-2.04469,50.718583],[-2.043711,50.71765],[-2.045253,50.718135],[-2.045898,50.716696],[-2.046434,50.716731],[-2.046633,50.717554],[-2.046295,50.7176],[-2.046838,50.717768],[-2.046701,50.717517],[-2.047143,50.717451],[-2.047751,50.717954],[-2.04841,50.717831],[-2.047302,50.717469],[-2.048755,50.717462],[-2.047365,50.717416],[-2.047588,50.717166],[-2.046651,50.717413],[-2.04671,50.717044],[-2.047396,50.717077],[-2.046717,50.716983],[-2.046172,50.716018],[-2.042731,50.714524],[-2.045943,50.715393],[-2.048977,50.716895],[-2.050967,50.717519],[-2.054726,50.717816],[-2.061529,50.716767],[-2.062545,50.716382],[-2.06274,50.715869],[-2.065128,50.714153],[-2.066728,50.714482],[-2.067514,50.715072],[-2.066703,50.714413],[-2.065388,50.713978],[-2.066081,50.713669],[-2.066223,50.712992],[-2.067305,50.712621],[-2.067461,50.711969],[-2.068184,50.711413],[-2.069761,50.711206],[-2.07007,50.710862],[-2.070617,50.711043],[-2.070127,50.710847],[-2.069912,50.710825],[-2.070438,50.710736],[-2.070009,50.710607],[-2.069746,50.711183],[-2.068944,50.71124],[-2.068946,50.710621],[-2.070136,50.709401],[-2.070461,50.70991],[-2.07087,50.709666],[-2.071316,50.708771],[-2.07193,50.708683],[-2.071976,50.707859],[-2.073491,50.707738],[-2.073635,50.7083],[-2.073704,50.707791],[-2.074345,50.707991],[-2.073912,50.707806],[-2.074115,50.707572],[-2.072807,50.70761],[-2.073062,50.707403],[-2.072972,50.707042],[-2.073489,50.706917],[-2.073756,50.706631],[-2.073042,50.706933],[-2.07317,50.70642],[-2.072922,50.707035],[-2.073024,50.707378],[-2.0724,50.707686],[-2.071725,50.707118],[-2.072211,50.707672],[-2.07137,50.70807],[-2.071221,50.707735],[-2.070752,50.707438],[-2.07113,50.706759],[-2.070715,50.707471],[-2.071171,50.70778],[-2.071153,50.708325],[-2.069389,50.708578],[-2.068894,50.708459],[-2.069908,50.706212],[-2.068921,50.70835],[-2.067623,50.707973],[-2.069629,50.705758],[-2.068268,50.706852],[-2.067841,50.707682],[-2.066664,50.707991],[-2.064436,50.707694],[-2.065008,50.707297],[-2.065509,50.707438],[-2.065101,50.707213],[-2.065569,50.706885],[-2.066507,50.70701],[-2.065813,50.706818],[-2.066062,50.706642],[-2.067642,50.706566],[-2.067709,50.706207],[-2.067538,50.706558],[-2.067063,50.706101],[-2.067092,50.706441],[-2.066536,50.706495],[-2.066661,50.706053],[-2.066,50.706554],[-2.065734,50.706084],[-2.065284,50.706093],[-2.065856,50.706609],[-2.065429,50.70683],[-2.064696,50.706577],[-2.065271,50.706867],[-2.064369,50.707447],[-2.06403,50.706954],[-2.064326,50.707475],[-2.063578,50.707233],[-2.063929,50.707434],[-2.063406,50.707632],[-2.060996,50.706591],[-2.059304,50.706337],[-2.057617,50.705655],[-2.058901,50.705161],[-2.059808,50.705215],[-2.060904,50.706366],[-2.062896,50.706797],[-2.06381,50.706589],[-2.06483,50.705622],[-2.068923,50.705087],[-2.068919,50.704836],[-2.06787,50.705217],[-2.067203,50.705081],[-2.068011,50.704414],[-2.069836,50.704508],[-2.071799,50.705072],[-2.072461,50.704834],[-2.073733,50.705961],[-2.073032,50.70504],[-2.074235,50.704733],[-2.074688,50.70545],[-2.075101,50.705139],[-2.074411,50.70467],[-2.072982,50.704874],[-2.072418,50.70454],[-2.072794,50.704321],[-2.072488,50.704035],[-2.072723,50.70299],[-2.074628,50.704211],[-2.074332,50.703662],[-2.073877,50.703592],[-2.073807,50.702837],[-2.073706,50.70355],[-2.072671,50.702803],[-2.072999,50.701661],[-2.0738,50.701708],[-2.074046,50.701406],[-2.0737,50.7017],[-2.072963,50.7015],[-2.072472,50.699557],[-2.072533,50.69927],[-2.07327,50.699374],[-2.073525,50.700353],[-2.074374,50.700421],[-2.0737,50.70022],[-2.073383,50.699338],[-2.074592,50.698985],[-2.073214,50.69934],[-2.073171,50.699044],[-2.07273,50.699201],[-2.073023,50.698665],[-2.072728,50.699158],[-2.072167,50.699143],[-2.071089,50.698124],[-2.072531,50.697675],[-2.073345,50.698141],[-2.074635,50.698091],[-2.075832,50.697471],[-2.075956,50.696561],[-2.076572,50.696243],[-2.077249,50.696478],[-2.076688,50.696176],[-2.077151,50.69511],[-2.077561,50.694983],[-2.077821,50.695614],[-2.079351,50.695767],[-2.079628,50.696323],[-2.080387,50.696182],[-2.081635,50.694965],[-2.081692,50.694049],[-2.083375,50.693271],[-2.08461,50.694537],[-2.086536,50.695037],[-2.087547,50.69608],[-2.089184,50.696231],[-2.090002,50.696909],[-2.09136,50.697368],[-2.092581,50.696776],[-2.093393,50.696054],[-2.094861,50.696965],[-2.096888,50.696525],[-2.099876,50.695246],[-2.101508,50.695497],[-2.099895,50.695122],[-2.094976,50.696811],[-2.09341,50.695914],[-2.092351,50.696727],[-2.091074,50.697153],[-2.089428,50.696167],[-2.087462,50.695861],[-2.08688,50.694906],[-2.08491,50.69443],[-2.084679,50.694157],[-2.085179,50.69431],[-2.085104,50.693841],[-2.084568,50.69398],[-2.08455,50.693243],[-2.083622,50.69296],[-2.082707,50.692991],[-2.079812,50.694315],[-2.079342,50.694285],[-2.078979,50.694022],[-2.07881,50.693324],[-2.079109,50.694016],[-2.079524,50.694214],[-2.079667,50.694208],[-2.080305,50.693904],[-2.080751,50.69331],[-2.079878,50.694079],[-2.079123,50.693947],[-2.079708,50.693675],[-2.079047,50.693713],[-2.078577,50.6909],[-2.078726,50.691231],[-2.079626,50.691487],[-2.079798,50.69123],[-2.081141,50.69126],[-2.080967,50.691438],[-2.080998,50.691608],[-2.081373,50.691836],[-2.081018,50.691517],[-2.081291,50.691251],[-2.079763,50.691187],[-2.078822,50.691233],[-2.078717,50.690828],[-2.080925,50.690639],[-2.079484,50.690674],[-2.079488,50.690337],[-2.079363,50.690668],[-2.078605,50.690699],[-2.078339,50.689278],[-2.078815,50.688433],[-2.080315,50.688352],[-2.079644,50.688787],[-2.080325,50.688451],[-2.08074,50.688701],[-2.081184,50.689392],[-2.080565,50.689872],[-2.081254,50.689363],[-2.080834,50.688783],[-2.082833,50.690682],[-2.083833,50.690916],[-2.085319,50.690607],[-2.086259,50.689447],[-2.090592,50.689016],[-2.091183,50.688401],[-2.090837,50.687536],[-2.087494,50.686368],[-2.087976,50.684838],[-2.089041,50.684801],[-2.090712,50.685487],[-2.092204,50.685697],[-2.095493,50.684903],[-2.096075,50.68445],[-2.095534,50.681584],[-2.097298,50.681008],[-2.098581,50.679979],[-2.09941,50.680261],[-2.102062,50.68259],[-2.103798,50.683301],[-2.110395,50.684111],[-2.112456,50.683437],[-2.111361,50.683606],[-2.112546,50.682658],[-2.112419,50.682015],[-2.113969,50.681953],[-2.113997,50.680948],[-2.114902,50.681],[-2.115481,50.680675],[-2.115943,50.678831],[-2.115247,50.678181],[-2.116103,50.678006],[-2.117328,50.678284],[-2.11756,50.678001],[-2.116659,50.676863],[-2.116591,50.677351],[-2.117316,50.678105],[-2.115528,50.677807],[-2.115123,50.678085],[-2.114956,50.6784],[-2.11569,50.678929],[-2.11532,50.680574],[-2.114665,50.680852],[-2.113871,50.680654],[-2.113686,50.681874],[-2.112033,50.681812],[-2.112144,50.682665],[-2.110669,50.68372],[-2.103659,50.682876],[-2.102183,50.682149],[-2.099096,50.679778],[-2.09933,50.679627],[-2.098033,50.679784],[-2.096813,50.680873],[-2.09524,50.681432],[-2.095142,50.682615],[-2.095791,50.684387],[-2.094992,50.684856],[-2.092558,50.685481],[-2.090606,50.68522],[-2.089261,50.684662],[-2.089929,50.683744],[-2.089334,50.682787],[-2.089205,50.684292],[-2.08765,50.68469],[-2.087099,50.686325],[-2.087974,50.68699],[-2.090672,50.687718],[-2.090727,50.688652],[-2.089197,50.689133],[-2.086017,50.689209],[-2.084149,50.690582],[-2.08328,50.690476],[-2.080737,50.687754],[-2.081578,50.687593],[-2.082039,50.687059],[-2.081349,50.686289],[-2.081409,50.687187],[-2.077882,50.686919],[-2.076508,50.687413],[-2.076152,50.687225],[-2.076281,50.687494],[-2.075572,50.687932],[-2.07449,50.68782],[-2.073876,50.687362],[-2.073759,50.687664],[-2.072982,50.687613],[-2.072683,50.68719],[-2.072553,50.687572],[-2.071302,50.686893],[-2.070502,50.687034],[-2.070308,50.686785],[-2.067887,50.687545],[-2.066766,50.687493],[-2.066754,50.687093],[-2.065807,50.68699],[-2.065342,50.68729],[-2.066285,50.687356],[-2.065944,50.687774],[-2.063204,50.688243],[-2.062676,50.689125],[-2.059314,50.690655],[-2.059065,50.693447],[-2.056707,50.696088],[-2.055387,50.699067],[-2.054455,50.699854],[-2.05217,50.700607],[-2.048645,50.700837],[-2.047755,50.701395],[-2.043137,50.702841],[-2.041955,50.704069],[-2.041466,50.706304],[-2.039571,50.707201],[-2.037178,50.707234],[-2.032465,50.707957],[-2.031248,50.707805],[-2.030588,50.707321],[-2.027551,50.707091],[-2.026087,50.70743],[-2.023569,50.704545],[-2.022243,50.703648],[-2.019275,50.70248],[-2.018108,50.701263],[-2.018487,50.700742],[-2.02211,50.700739],[-2.022687,50.701239],[-2.02375,50.701514],[-2.023241,50.701796],[-2.024803,50.701668],[-2.02435,50.702258],[-2.02521,50.70294],[-2.028071,50.703477],[-2.030436,50.703172],[-2.031346,50.702537],[-2.031753,50.702571],[-2.031917,50.703047],[-2.032529,50.703045],[-2.032402,50.703351],[-2.032803,50.703243],[-2.033028,50.703558],[-2.032862,50.70325],[-2.032577,50.703014],[-2.033063,50.702685],[-2.032059,50.70298],[-2.031756,50.702475],[-2.031214,50.702256],[-2.031348,50.701919],[-2.032314,50.701854],[-2.032291,50.702511],[-2.032506,50.702046],[-2.032927,50.702223],[-2.032639,50.702548],[-2.033169,50.702161],[-2.033398,50.702753],[-2.033706,50.702605],[-2.033499,50.702269],[-2.034766,50.702096],[-2.033919,50.70209],[-2.03353,50.701886],[-2.034083,50.701785],[-2.033715,50.701591],[-2.033304,50.702035],[-2.032025,50.701636],[-2.032052,50.701204],[-2.032228,50.701464],[-2.032734,50.701597],[-2.033106,50.701363],[-2.033156,50.701625],[-2.033404,50.70105],[-2.03431,50.701242],[-2.033735,50.701057],[-2.034029,50.700649],[-2.033482,50.700984],[-2.033839,50.700482],[-2.032999,50.701291],[-2.032325,50.701444],[-2.032162,50.700998],[-2.032372,50.700752],[-2.032788,50.700994],[-2.032385,50.700661],[-2.032771,50.700651],[-2.032745,50.7003],[-2.033081,50.700627],[-2.033499,50.700485],[-2.033542,50.700201],[-2.033125,50.70033],[-2.033284,50.699628],[-2.032604,50.6996],[-2.03312,50.700187],[-2.032669,50.70023],[-2.032618,50.699964],[-2.032448,50.700458],[-2.031418,50.700107],[-2.03234,50.700526],[-2.031905,50.700938],[-2.030458,50.70099],[-2.030631,50.700485],[-2.030334,50.701036],[-2.029426,50.701141],[-2.029886,50.699061],[-2.030874,50.699324],[-2.030438,50.699821],[-2.031017,50.699433],[-2.030999,50.69982],[-2.031772,50.699889],[-2.03082,50.699123],[-2.032041,50.699517],[-2.031334,50.698968],[-2.031749,50.698894],[-2.032667,50.699397],[-2.031884,50.698878],[-2.032714,50.698817],[-2.032825,50.699099],[-2.033392,50.698251],[-2.033102,50.698454],[-2.033052,50.698215],[-2.032823,50.69874],[-2.032672,50.69849],[-2.032431,50.698816],[-2.031713,50.698628],[-2.031127,50.698867],[-2.032399,50.698324],[-2.032426,50.69813],[-2.032839,50.698225],[-2.032404,50.698074],[-2.032767,50.697766],[-2.031619,50.697778],[-2.031531,50.697093],[-2.030537,50.696531],[-2.029775,50.696751],[-2.030166,50.69701],[-2.029491,50.69704],[-2.028915,50.696738],[-2.02955,50.696285],[-2.029134,50.696129],[-2.028998,50.696477],[-2.028447,50.695819],[-2.028735,50.69628],[-2.02841,50.696437],[-2.029036,50.69659],[-2.028812,50.696778],[-2.029208,50.697032],[-2.028705,50.697082],[-2.028366,50.696632],[-2.02777,50.69681],[-2.027883,50.696459],[-2.027607,50.696505],[-2.027525,50.697065],[-2.028297,50.696848],[-2.027922,50.697068],[-2.028556,50.697034],[-2.027964,50.697385],[-2.028413,50.697494],[-2.028497,50.697159],[-2.028894,50.697477],[-2.028577,50.697775],[-2.027512,50.697583],[-2.02811,50.697855],[-2.027157,50.69815],[-2.027824,50.698474],[-2.027807,50.698945],[-2.029145,50.699185],[-2.02794,50.699136],[-2.0273,50.698782],[-2.026047,50.696654],[-2.024818,50.695798],[-2.024723,50.694184],[-2.025772,50.693308],[-2.026056,50.692137],[-2.026551,50.692359],[-2.025862,50.691815],[-2.02634,50.691635],[-2.026172,50.691828],[-2.026917,50.692014],[-2.026516,50.691615],[-2.027246,50.6917],[-2.027648,50.691033],[-2.026456,50.69157],[-2.026666,50.691327],[-2.026235,50.691236],[-2.026705,50.691203],[-2.026333,50.69109],[-2.028222,50.690929],[-2.027936,50.690591],[-2.028596,50.690603],[-2.029,50.689539],[-2.028549,50.68996],[-2.027977,50.689956],[-2.028789,50.688868],[-2.028471,50.689064],[-2.027827,50.688636],[-2.028181,50.68837],[-2.028545,50.68865],[-2.028959,50.688779],[-2.029407,50.688221],[-2.028989,50.688188],[-2.029165,50.688388],[-2.028639,50.688614],[-2.02835,50.688167],[-2.028732,50.687477],[-2.02827,50.688152],[-2.028336,50.688352],[-2.027897,50.68836],[-2.027762,50.688811],[-2.027389,50.688755],[-2.027602,50.688957],[-2.026864,50.689153],[-2.027122,50.689433],[-2.026634,50.689475],[-2.026061,50.68883],[-2.026824,50.688221],[-2.027203,50.688385],[-2.027007,50.687942],[-2.02759,50.687889],[-2.027181,50.687712],[-2.026301,50.688433],[-2.026467,50.68787],[-2.025679,50.688149],[-2.026135,50.688428],[-2.025735,50.68881],[-2.024712,50.688375],[-2.025019,50.688283],[-2.025833,50.68754],[-2.024905,50.688254],[-2.024721,50.687623],[-2.026284,50.686933],[-2.027134,50.687089],[-2.026663,50.687291],[-2.02716,50.687414],[-2.02695,50.687196],[-2.027445,50.68694],[-2.02783,50.687247],[-2.027549,50.686536],[-2.028206,50.686982],[-2.028102,50.687614],[-2.028301,50.687026],[-2.028763,50.687057],[-2.029378,50.6864],[-2.028349,50.686972],[-2.02801,50.686666],[-2.02864,50.686802],[-2.029008,50.6865],[-2.027475,50.686473],[-2.027226,50.686851],[-2.027367,50.686361],[-2.030441,50.685635],[-2.029827,50.68603],[-2.03035,50.686158],[-2.030185,50.686771],[-2.030646,50.685363],[-2.031409,50.685299],[-2.031065,50.685857],[-2.03159,50.685367],[-2.031892,50.685541],[-2.031618,50.685821],[-2.032073,50.685655],[-2.032357,50.685452],[-2.031394,50.685228],[-2.032299,50.685173],[-2.032628,50.684581],[-2.03305,50.684687],[-2.032923,50.685039],[-2.033771,50.685085],[-2.033385,50.684943],[-2.033675,50.68472],[-2.033135,50.684978],[-2.03327,50.68454],[-2.032746,50.684338],[-2.032102,50.68451],[-2.03244,50.684711],[-2.032049,50.685049],[-2.031675,50.684868],[-2.030361,50.685187],[-2.032317,50.683483],[-2.034485,50.682963],[-2.036838,50.680511],[-2.039881,50.679828],[-2.040713,50.680283],[-2.041983,50.680094],[-2.043292,50.680452],[-2.04464,50.68032],[-2.045102,50.680569],[-2.045193,50.681377],[-2.044242,50.681849],[-2.044314,50.682138],[-2.04429,50.681834],[-2.045471,50.681391],[-2.045512,50.679692],[-2.046202,50.679405],[-2.048213,50.679471],[-2.047545,50.679428],[-2.049124,50.678771],[-2.049334,50.679047],[-2.049251,50.67872],[-2.051069,50.678522],[-2.051976,50.678076],[-2.052389,50.678066],[-2.052473,50.678343],[-2.052974,50.677886],[-2.051838,50.678073],[-2.050369,50.678561],[-2.04924,50.678629],[-2.047173,50.679291],[-2.046376,50.678871],[-2.047438,50.678446],[-2.046759,50.678532],[-2.04757,50.677653],[-2.049452,50.677477],[-2.047703,50.677209],[-2.045942,50.678378],[-2.040916,50.678927],[-2.039192,50.678746],[-2.034871,50.679402],[-2.033491,50.679919],[-2.031359,50.68217],[-2.028645,50.683],[-2.026071,50.684384],[-2.025154,50.684466],[-2.026202,50.683396],[-2.027224,50.682985],[-2.02629,50.6833],[-2.027037,50.682215],[-2.027803,50.682006],[-2.027722,50.682503],[-2.028303,50.682726],[-2.027832,50.682211],[-2.029009,50.682445],[-2.028965,50.682178],[-2.030136,50.681958],[-2.028225,50.68221],[-2.027836,50.681745],[-2.03074,50.681723],[-2.029257,50.681324],[-2.029997,50.680761],[-2.03,50.681092],[-2.030398,50.680817],[-2.030968,50.681075],[-2.031355,50.680813],[-2.030516,50.68073],[-2.031573,50.680656],[-2.029778,50.680681],[-2.02974,50.680437],[-2.030646,50.680417],[-2.03116,50.680207],[-2.030634,50.680305],[-2.031011,50.679823],[-2.030515,50.68033],[-2.029543,50.680172],[-2.030057,50.679496],[-2.030952,50.679294],[-2.031118,50.679152],[-2.03091,50.67895],[-2.030987,50.679207],[-2.030261,50.679428],[-2.0297,50.679103],[-2.030143,50.679427],[-2.029571,50.679805],[-2.028758,50.679177],[-2.029196,50.678812],[-2.028387,50.67935],[-2.028807,50.679307],[-2.029579,50.679925],[-2.029371,50.680297],[-2.028878,50.680345],[-2.029442,50.680364],[-2.029536,50.680637],[-2.028351,50.681533],[-2.027901,50.68128],[-2.027051,50.681564],[-2.027059,50.680569],[-2.028707,50.68079],[-2.026933,50.680398],[-2.027276,50.679976],[-2.028124,50.680262],[-2.028328,50.679811],[-2.028085,50.680235],[-2.027677,50.680073],[-2.027915,50.679587],[-2.027706,50.679421],[-2.027668,50.67997],[-2.027154,50.679884],[-2.027117,50.679205],[-2.026987,50.679906],[-2.026611,50.679948],[-2.026523,50.678289],[-2.027068,50.677737],[-2.027901,50.677664],[-2.027393,50.678188],[-2.028116,50.678362],[-2.028221,50.678762],[-2.028452,50.678277],[-2.029,50.678442],[-2.028685,50.678105],[-2.029379,50.678367],[-2.029438,50.677806],[-2.030479,50.677823],[-2.029452,50.67778],[-2.028138,50.678313],[-2.027674,50.67809],[-2.028243,50.677438],[-2.029603,50.677657],[-2.02883,50.677485],[-2.030392,50.677374],[-2.031155,50.676751],[-2.031996,50.676733],[-2.031136,50.676712],[-2.030302,50.677343],[-2.028743,50.67743],[-2.028967,50.677012],[-2.027975,50.677572],[-2.027508,50.677323],[-2.028733,50.676157],[-2.029695,50.675737],[-2.030254,50.675814],[-2.029831,50.6765],[-2.030202,50.676522],[-2.030459,50.675825],[-2.029713,50.675674],[-2.030273,50.67494],[-2.030797,50.674547],[-2.031099,50.674656],[-2.030839,50.674433],[-2.031996,50.673395],[-2.034483,50.671918],[-2.03656,50.67186],[-2.039445,50.672348],[-2.042405,50.671827],[-2.043369,50.671193],[-2.044198,50.671087],[-2.044569,50.671405],[-2.04713,50.670429],[-2.044571,50.671384],[-2.044375,50.671126],[-2.044953,50.671096],[-2.044892,50.670877],[-2.042558,50.670833],[-2.041174,50.671412],[-2.037162,50.671726],[-2.038161,50.670769],[-2.038677,50.670795],[-2.038292,50.670727],[-2.038173,50.670747],[-2.037314,50.671316],[-2.03706,50.671742],[-2.035726,50.67149],[-2.036355,50.670968],[-2.035656,50.671506],[-2.034108,50.671432],[-2.033752,50.672017],[-2.032903,50.67226],[-2.032685,50.671926],[-2.032871,50.672343],[-2.030905,50.673363],[-2.030433,50.672987],[-2.031043,50.672447],[-2.029925,50.673244],[-2.030331,50.673035],[-2.030877,50.673383],[-2.028983,50.674389],[-2.028534,50.674114],[-2.029236,50.673838],[-2.028656,50.674043],[-2.027645,50.673553],[-2.028124,50.673166],[-2.029058,50.673422],[-2.029162,50.672878],[-2.028864,50.673207],[-2.028219,50.67312],[-2.028427,50.672846],[-2.02836,50.672447],[-2.027845,50.672329],[-2.028253,50.671822],[-2.028843,50.67208],[-2.02828,50.671735],[-2.028878,50.671481],[-2.029036,50.671232],[-2.029118,50.671549],[-2.029436,50.671071],[-2.02911,50.671074],[-2.028788,50.671484],[-2.0281,50.671413],[-2.028431,50.671586],[-2.028243,50.671688],[-2.02769,50.672339],[-2.028323,50.672848],[-2.02773,50.673386],[-2.025959,50.673104],[-2.027171,50.672637],[-2.027467,50.672809],[-2.027007,50.672242],[-2.027339,50.671801],[-2.026264,50.672466],[-2.026939,50.672264],[-2.027083,50.672582],[-2.026088,50.672909],[-2.025745,50.672699],[-2.025696,50.673111],[-2.024768,50.672969],[-2.024461,50.672359],[-2.025564,50.670985],[-2.026221,50.6713],[-2.025917,50.671596],[-2.026392,50.67187],[-2.026902,50.671761],[-2.026349,50.671773],[-2.026459,50.671275],[-2.02587,50.670802],[-2.027382,50.671088],[-2.027617,50.671086],[-2.027642,50.671511],[-2.02765,50.671031],[-2.029066,50.670776],[-2.027077,50.670905],[-2.027435,50.670469],[-2.027829,50.670512],[-2.028037,50.670447],[-2.028343,50.670067],[-2.027738,50.670042],[-2.027838,50.670488],[-2.02751,50.670422],[-2.027251,50.670504],[-2.026993,50.670875],[-2.02638,50.670686],[-2.02645,50.6703],[-2.026324,50.670744],[-2.025405,50.670612],[-2.025528,50.670126],[-2.026347,50.66975],[-2.026369,50.669311],[-2.027336,50.669051],[-2.026944,50.668188],[-2.027732,50.667839],[-2.02706,50.668062],[-2.026966,50.6681],[-2.026885,50.668255],[-2.027248,50.669067],[-2.026324,50.669262],[-2.026071,50.668961],[-2.026061,50.66981],[-2.025373,50.669962],[-2.025326,50.669287],[-2.025243,50.669589],[-2.024857,50.66953],[-2.025124,50.669023],[-2.02482,50.669501],[-2.025376,50.67004],[-2.024901,50.670703],[-2.023993,50.670629],[-2.024579,50.67082],[-2.023103,50.672806],[-2.023299,50.673221],[-2.025879,50.674223],[-2.025926,50.674745],[-2.024321,50.676392],[-2.023899,50.676326],[-2.024514,50.675471],[-2.024279,50.67533],[-2.024456,50.675153],[-2.024015,50.675235],[-2.024438,50.675502],[-2.02385,50.675853],[-2.023731,50.676299],[-2.023418,50.675962],[-2.023459,50.676407],[-2.022856,50.676658],[-2.023991,50.676517],[-2.02324,50.677572],[-2.022137,50.677419],[-2.022128,50.677101],[-2.022786,50.677253],[-2.022341,50.67704],[-2.022887,50.676949],[-2.022158,50.676995],[-2.022421,50.67677],[-2.021907,50.676315],[-2.021119,50.676154],[-2.022072,50.676723],[-2.022001,50.676996],[-2.021699,50.676901],[-2.02096,50.676923],[-2.021318,50.676985],[-2.021028,50.677162],[-2.021715,50.676945],[-2.022159,50.677691],[-2.022693,50.677804],[-2.022158,50.677967],[-2.021444,50.677596],[-2.02178,50.678118],[-2.021176,50.678093],[-2.021656,50.678507],[-2.021867,50.677978],[-2.022216,50.678106],[-2.021426,50.679893],[-2.021165,50.679442],[-2.021115,50.679827],[-2.020382,50.679517],[-2.020773,50.679895],[-2.020453,50.67998],[-2.021123,50.679944],[-2.02031,50.680577],[-2.021497,50.680044],[-2.021426,50.681035],[-2.020754,50.680658],[-2.02078,50.681008],[-2.02179,50.681565],[-2.021643,50.682102],[-2.020601,50.681882],[-2.020491,50.681538],[-2.020341,50.681926],[-2.019929,50.681856],[-2.020137,50.681568],[-2.019473,50.682011],[-2.018778,50.681795],[-2.01884,50.681494],[-2.019372,50.68144],[-2.019368,50.681016],[-2.019848,50.681073],[-2.019455,50.68095],[-2.019977,50.68039],[-2.019578,50.680249],[-2.019739,50.679879],[-2.019257,50.680156],[-2.019088,50.680388],[-2.019398,50.680203],[-2.019765,50.680444],[-2.019041,50.680507],[-2.019555,50.680745],[-2.018529,50.681458],[-2.018708,50.680813],[-2.018362,50.680663],[-2.018353,50.680871],[-2.017979,50.680443],[-2.019196,50.679287],[-2.018664,50.679474],[-2.018537,50.679064],[-2.01846,50.679357],[-2.018177,50.679058],[-2.017865,50.679158],[-2.018617,50.679551],[-2.017857,50.680409],[-2.018334,50.681063],[-2.017827,50.681028],[-2.018333,50.681445],[-2.01789,50.681764],[-2.017993,50.681387],[-2.0177,50.681893],[-2.017699,50.681447],[-2.017122,50.682188],[-2.016819,50.681989],[-2.016642,50.682295],[-2.014488,50.682771],[-2.014236,50.682357],[-2.014189,50.682612],[-2.01348,50.682625],[-2.013797,50.682259],[-2.011953,50.682734],[-2.012474,50.682211],[-2.011443,50.682436],[-2.011419,50.68271],[-2.010685,50.682389],[-2.011462,50.68208],[-2.011493,50.681877],[-2.01132,50.682132],[-2.010651,50.682326],[-2.010556,50.682526],[-2.010132,50.682432],[-2.010161,50.682104],[-2.011001,50.681772],[-2.009713,50.682149],[-2.009797,50.681852],[-2.009421,50.681789],[-2.010571,50.681304],[-2.008996,50.681498],[-2.009176,50.680712],[-2.008761,50.681008],[-2.008469,50.68043],[-2.007901,50.680438],[-2.007597,50.679816],[-2.007051,50.679758],[-2.007098,50.679283],[-2.007644,50.679144],[-2.008131,50.679916],[-2.0081,50.679456],[-2.008975,50.679958],[-2.008508,50.679368],[-2.008079,50.67934],[-2.008343,50.679088],[-2.00784,50.67881],[-2.008148,50.678623],[-2.010132,50.679169],[-2.008175,50.678469],[-2.007377,50.678877],[-2.005318,50.677871],[-2.007244,50.677664],[-2.007354,50.677362],[-2.007939,50.677584],[-2.009039,50.676926],[-2.009202,50.677081],[-2.009508,50.676192],[-2.009182,50.676046],[-2.009729,50.675996],[-2.009337,50.675653],[-2.009977,50.675622],[-2.009789,50.675183],[-2.010422,50.674792],[-2.01078,50.674903],[-2.01103,50.674455],[-2.011405,50.674723],[-2.012322,50.67461],[-2.011947,50.674757],[-2.01231,50.674837],[-2.012497,50.674377],[-2.013979,50.674269],[-2.011126,50.674376],[-2.010044,50.674979],[-2.009796,50.674651],[-2.009382,50.674764],[-2.00953,50.674538],[-2.009149,50.674536],[-2.009784,50.674305],[-2.009522,50.674104],[-2.009912,50.673838],[-2.009997,50.673164],[-2.010361,50.672797],[-2.010804,50.672902],[-2.010145,50.672442],[-2.010759,50.672326],[-2.010486,50.670938],[-2.01035,50.671466],[-2.010119,50.671136],[-2.009966,50.671315],[-2.010592,50.671566],[-2.010638,50.671915],[-2.01036,50.671778],[-2.010023,50.671762],[-2.010124,50.672205],[-2.010272,50.671823],[-2.01063,50.672272],[-2.010072,50.672382],[-2.009969,50.671873],[-2.009654,50.671901],[-2.009628,50.671563],[-2.009216,50.671388],[-2.01012,50.672663],[-2.009722,50.673198],[-2.009759,50.673821],[-2.009108,50.673907],[-2.008627,50.673537],[-2.009238,50.673661],[-2.009535,50.673596],[-2.009646,50.673398],[-2.00913,50.673235],[-2.009687,50.672988],[-2.009806,50.672724],[-2.009567,50.673024],[-2.009352,50.672728],[-2.009062,50.673213],[-2.009562,50.673465],[-2.009184,50.673594],[-2.00865,50.673264],[-2.008483,50.67359],[-2.008756,50.673951],[-2.008328,50.673917],[-2.008128,50.674791],[-2.007127,50.675375],[-2.005806,50.675574],[-2.003669,50.675351],[-2.001663,50.676028],[-1.999797,50.675748],[-1.999937,50.675469],[-2.001824,50.675741],[-2.002512,50.675427],[-2.001467,50.675629],[-1.99897,50.674859],[-1.999185,50.675217],[-1.998129,50.675216],[-1.998856,50.674616],[-1.99821,50.674372],[-1.998307,50.674656],[-1.997839,50.674631],[-1.997581,50.674279],[-1.996013,50.673756],[-1.995848,50.673268],[-1.997701,50.673307],[-1.999116,50.672819],[-2.000293,50.673085],[-2.000931,50.672888],[-2.000866,50.672346],[-2.001526,50.672483],[-2.001945,50.671685],[-2.001722,50.671919],[-2.001115,50.671684],[-2.00135,50.67096],[-2.000139,50.671122],[-2.001105,50.670462],[-2.001478,50.670742],[-2.001745,50.670591],[-2.000962,50.670328],[-1.999681,50.670781],[-2.000545,50.670167],[-1.999568,50.670293],[-1.999305,50.670042],[-1.999904,50.669644],[-1.999019,50.669283],[-1.998103,50.670241],[-1.997218,50.670248],[-1.997235,50.669497],[-1.99678,50.669407],[-1.997089,50.668848],[-1.996718,50.668771],[-1.997354,50.668239],[-1.997004,50.668445],[-1.996483,50.668178],[-1.997758,50.667851],[-1.996829,50.667793],[-1.996179,50.667324],[-1.996233,50.667881],[-1.995699,50.667146],[-1.993285,50.667259],[-1.993087,50.667403],[-1.993773,50.667473],[-1.992948,50.667469],[-1.993451,50.667656],[-1.992776,50.668049],[-1.993387,50.668871],[-1.993154,50.670031],[-1.992522,50.670604],[-1.991453,50.670614],[-1.99108,50.671104],[-1.991654,50.672703],[-1.990512,50.672853],[-1.989295,50.672524],[-1.988558,50.672734],[-1.981479,50.676866],[-1.980678,50.676862],[-1.980104,50.677218],[-1.979197,50.676617],[-1.978317,50.676945],[-1.979422,50.675622],[-1.980722,50.675208],[-1.981135,50.674369],[-1.982905,50.673477],[-1.982931,50.672553],[-1.983989,50.671839],[-1.983872,50.671161],[-1.984432,50.671089],[-1.984089,50.670884],[-1.985027,50.669744],[-1.984599,50.669556],[-1.984828,50.669353],[-1.9843,50.669646],[-1.983126,50.669398],[-1.982721,50.668199],[-1.982399,50.668366],[-1.9825,50.668096],[-1.981989,50.667998],[-1.982443,50.667784],[-1.983047,50.668051],[-1.9826,50.667623],[-1.983079,50.667298],[-1.982649,50.667371],[-1.983519,50.667047],[-1.982199,50.667274],[-1.982017,50.66702],[-1.982476,50.666923],[-1.982575,50.667188],[-1.98311,50.66673],[-1.98202,50.666364],[-1.982466,50.666823],[-1.98144,50.666683],[-1.981445,50.666361],[-1.982214,50.666204],[-1.981433,50.666186],[-1.98202,50.666066],[-1.981523,50.666065],[-1.981881,50.665893],[-1.981268,50.6658],[-1.981709,50.665682],[-1.981335,50.665366],[-1.981139,50.666572],[-1.980674,50.666358],[-1.980615,50.666783],[-1.979945,50.667014],[-1.980015,50.66643],[-1.979688,50.667257],[-1.979372,50.666924],[-1.978264,50.666988],[-1.978366,50.666723],[-1.977403,50.666344],[-1.977464,50.666046],[-1.976979,50.666143],[-1.976902,50.665779],[-1.977197,50.665925],[-1.977478,50.665531],[-1.978725,50.665255],[-1.980733,50.665523],[-1.979945,50.665253],[-1.980657,50.665178],[-1.979922,50.665114],[-1.979522,50.66532],[-1.978768,50.665085],[-1.979739,50.665123],[-1.979095,50.664769],[-1.979652,50.6646],[-1.978724,50.664545],[-1.978918,50.664808],[-1.978291,50.66501],[-1.978403,50.664683],[-1.977735,50.664739],[-1.977543,50.665041],[-1.978043,50.664982],[-1.97822,50.665278],[-1.977026,50.665078],[-1.975859,50.665906],[-1.975491,50.665498],[-1.975387,50.666012],[-1.974962,50.665825],[-1.975114,50.665362],[-1.974615,50.666058],[-1.974246,50.665421],[-1.973938,50.665461],[-1.973899,50.665029],[-1.97603,50.664441],[-1.976563,50.663453],[-1.976962,50.663401],[-1.977532,50.662954],[-1.977448,50.662623],[-1.976942,50.663258],[-1.975734,50.663091],[-1.976511,50.662768],[-1.976373,50.662348],[-1.976832,50.66245],[-1.977486,50.661862],[-1.977428,50.661519],[-1.976599,50.661064],[-1.977916,50.659498],[-1.976497,50.660939],[-1.976784,50.661379],[-1.977393,50.661574],[-1.977422,50.661868],[-1.976849,50.662376],[-1.9766,50.662085],[-1.976346,50.662227],[-1.976173,50.662803],[-1.975697,50.662858],[-1.975664,50.66339],[-1.974567,50.663941],[-1.973384,50.663576],[-1.974198,50.663377],[-1.974304,50.663055],[-1.973071,50.663226],[-1.973376,50.66296],[-1.972769,50.663135],[-1.972343,50.662895],[-1.972757,50.664201],[-1.971677,50.663944],[-1.971302,50.663046],[-1.971145,50.663266],[-1.970513,50.66285],[-1.970712,50.662344],[-1.970367,50.662507],[-1.96994,50.662043],[-1.969387,50.662027],[-1.968941,50.661654],[-1.969312,50.661375],[-1.968517,50.661125],[-1.968812,50.660571],[-1.968595,50.660781],[-1.968098,50.660431],[-1.969712,50.663818],[-1.967942,50.665969],[-1.96793,50.666706],[-1.97096,50.66926],[-1.969351,50.669305],[-1.969549,50.669034],[-1.968961,50.668948],[-1.968112,50.669382],[-1.966877,50.670851],[-1.965423,50.671451],[-1.965123,50.671235],[-1.96597,50.670861],[-1.964428,50.670267],[-1.963604,50.670428],[-1.961611,50.672147],[-1.961394,50.674672],[-1.959444,50.673651],[-1.958901,50.672713],[-1.957465,50.672702],[-1.954619,50.67483],[-1.954063,50.676222],[-1.952684,50.677059],[-1.952007,50.678217],[-1.950797,50.67875],[-1.950148,50.680258],[-1.949853,50.680196],[-1.948705,50.678363],[-1.945909,50.67547],[-1.944734,50.67481],[-1.941419,50.673902],[-1.94112,50.672069],[-1.941966,50.67008],[-1.944808,50.667276],[-1.94951,50.661496],[-1.952352,50.656018],[-1.95277,50.651212],[-1.949812,50.646139],[-1.948773,50.645443],[-1.947832,50.645562],[-1.946936,50.645282],[-1.944156,50.642664],[-1.940858,50.640744],[-1.932432,50.641963],[-1.930893,50.641654],[-1.930008,50.642146],[-1.927493,50.641756],[-1.925827,50.642303],[-1.923765,50.642096],[-1.9254,50.640773],[-1.925622,50.640309],[-1.925254,50.640156],[-1.925874,50.640001],[-1.926033,50.639407],[-1.927328,50.638364],[-1.927593,50.637411],[-1.929206,50.636605],[-1.931007,50.634545],[-1.933161,50.63091],[-1.936194,50.630654],[-1.943805,50.629187],[-1.947731,50.627314],[-1.952157,50.624053],[-1.957398,50.615706],[-1.957583,50.61218],[-1.957047,50.612024],[-1.957425,50.611807],[-1.95668,50.60952],[-1.955566,50.608296],[-1.954122,50.608075],[-1.953879,50.608286],[-1.953907,50.608039],[-1.952648,50.607441],[-1.951892,50.607542],[-1.950827,50.608226],[-1.949919,50.607496],[-1.943937,50.607517],[-1.944893,50.606796],[-1.950081,50.6048],[-1.951456,50.602965],[-1.952119,50.601413],[-1.952757,50.600886],[-1.953196,50.599071],[-1.952084,50.596187],[-1.950685,50.59521],[-1.951079,50.594575],[-1.95357,50.594246],[-1.954221,50.593745],[-1.955526,50.593412],[-1.957331,50.592116],[-1.958293,50.592082],[-1.959752,50.591158],[-1.960427,50.591299],[-1.960954,50.590995],[-1.964533,50.59147],[-1.968571,50.591537],[-1.975798,50.590853],[-1.979269,50.591064],[-1.984225,50.59051],[-1.987097,50.591076],[-1.990091,50.590453],[-1.991479,50.591015],[-1.998776,50.591259],[-2.00354,50.591817],[-2.004863,50.591453],[-2.006297,50.591683],[-2.009135,50.59084],[-2.012735,50.590797],[-2.020558,50.589228],[-2.022059,50.589131],[-2.022659,50.589396],[-2.024435,50.58891],[-2.026346,50.589002],[-2.028391,50.587956],[-2.032003,50.584373],[-2.033615,50.584148],[-2.037754,50.581608],[-2.038624,50.581488],[-2.039646,50.580179],[-2.043034,50.579138],[-2.052548,50.577596],[-2.054419,50.576582],[-2.055732,50.576536],[-2.057948,50.577398],[-2.061901,50.581502],[-2.06157,50.582801],[-2.061208,50.583023],[-2.063697,50.586253],[-2.064293,50.587955],[-2.064333,50.590079],[-2.063629,50.591305],[-2.063088,50.591344],[-2.062762,50.591866],[-2.062779,50.592526],[-2.064125,50.593735],[-2.066189,50.593681],[-2.066618,50.593043],[-2.067867,50.592485],[-2.070486,50.592965],[-2.072785,50.592293],[-2.07474,50.593137],[-2.075636,50.595065],[-2.076781,50.595468],[-2.079268,50.595328],[-2.08087,50.594799],[-2.083198,50.59479],[-2.090903,50.59706],[-2.098583,50.598176],[-2.10302,50.597197],[-2.102712,50.600348],[-2.103044,50.597194],[-2.103422,50.597121],[-2.105611,50.596994],[-2.112307,50.599039],[-2.114019,50.599315],[-2.114566,50.59907],[-2.11598,50.599488],[-2.116246,50.599929],[-2.120586,50.602418],[-2.127474,50.604426],[-2.131547,50.607654],[-2.131395,50.608273],[-2.129475,50.609222],[-2.129342,50.609975],[-2.131469,50.611498],[-2.13442,50.612622],[-2.137448,50.612149],[-2.139169,50.610539],[-2.143139,50.610788],[-2.144475,50.609484],[-2.146217,50.608501],[-2.146861,50.60866],[-2.1471,50.610149],[-2.146801,50.610377],[-2.149332,50.611266],[-2.150902,50.611379],[-2.152033,50.611115],[-2.151054,50.611488],[-2.151592,50.612138],[-2.15435,50.613992],[-2.157983,50.615464],[-2.162732,50.614685],[-2.165787,50.614779],[-2.170112,50.613868],[-2.171126,50.61432],[-2.173249,50.614334],[-2.173648,50.614716],[-2.179164,50.614654],[-2.182816,50.615419],[-2.183521,50.616164],[-2.184466,50.615948],[-2.184341,50.615425],[-2.185013,50.615059],[-2.187438,50.614926],[-2.186545,50.615227],[-2.18672,50.615859],[-2.186107,50.616424],[-2.184625,50.61681],[-2.184956,50.618365],[-2.187652,50.62002],[-2.193161,50.621749],[-2.198503,50.62298],[-2.204071,50.621518],[-2.204815,50.621562],[-2.204621,50.621908],[-2.205113,50.622178],[-2.207162,50.622374],[-2.208819,50.621983],[-2.209166,50.621431],[-2.209969,50.621127],[-2.220502,50.620131],[-2.223138,50.618468],[-2.2234,50.617766],[-2.223018,50.616963],[-2.224633,50.61668],[-2.227572,50.617136],[-2.228325,50.616798],[-2.228216,50.616105],[-2.237851,50.616031],[-2.244056,50.61633],[-2.245856,50.616676],[-2.245038,50.616763],[-2.243726,50.618035],[-2.244435,50.618842],[-2.246258,50.619423],[-2.248202,50.619341],[-2.249474,50.618782],[-2.249763,50.6179],[-2.248008,50.616935],[-2.249108,50.616935],[-2.253124,50.618165],[-2.256396,50.617852],[-2.259361,50.618438],[-2.260405,50.618259],[-2.265467,50.620756],[-2.269606,50.621649],[-2.271623,50.621536],[-2.272965,50.62213],[-2.274593,50.6217],[-2.274623,50.621303],[-2.273922,50.621165],[-2.275663,50.62105],[-2.27723,50.621102],[-2.276342,50.621304],[-2.277432,50.622024],[-2.281268,50.622498],[-2.290589,50.622901],[-2.291343,50.622221],[-2.291309,50.622668],[-2.291812,50.622867],[-2.29865,50.624327],[-2.303628,50.625194],[-2.310377,50.625761],[-2.313506,50.625702],[-2.31494,50.625359],[-2.319691,50.625698],[-2.323269,50.624797],[-2.327378,50.626404],[-2.330003,50.626939],[-2.332297,50.629041],[-2.333968,50.629713],[-2.334598,50.63101],[-2.338558,50.631944],[-2.343644,50.632021],[-2.349334,50.630889],[-2.351638,50.631187],[-2.355384,50.630903],[-2.358316,50.631514],[-2.365679,50.630956],[-2.366099,50.631328],[-2.372569,50.632945],[-2.37355,50.63351],[-2.375944,50.633874],[-2.376447,50.634368],[-2.379066,50.635441],[-2.3851,50.635637],[-2.393256,50.636646],[-2.395849,50.63659],[-2.403682,50.635182],[-2.407343,50.634208],[-2.40847,50.632986],[-2.410155,50.633121],[-2.411105,50.634094],[-2.412664,50.634525],[-2.415217,50.635108],[-2.418272,50.635336],[-2.419547,50.63644],[-2.423704,50.635811],[-2.426895,50.63473],[-2.431682,50.632407],[-2.440722,50.626534],[-2.44359,50.624093],[-2.443499,50.623769],[-2.444207,50.623922],[-2.449987,50.617924],[-2.451694,50.615602],[-2.45261,50.613261],[-2.452155,50.610933],[-2.45051,50.60864],[-2.446403,50.610287],[-2.444753,50.609252],[-2.444973,50.609041],[-2.445665,50.608584],[-2.449933,50.608227],[-2.453491,50.607081],[-2.456489,50.607477],[-2.45743,50.608343],[-2.456605,50.611911],[-2.458246,50.6119],[-2.459619,50.607634],[-2.458819,50.607046],[-2.455488,50.607117],[-2.452853,50.606421],[-2.451838,50.606467],[-2.450176,50.60736],[-2.443832,50.608064],[-2.443776,50.608359],[-2.443588,50.608116],[-2.441338,50.60963],[-2.443431,50.608061],[-2.443061,50.607426],[-2.443418,50.606951],[-2.444074,50.606851],[-2.444812,50.606206],[-2.44676,50.605979],[-2.447212,50.605552],[-2.450407,50.604729],[-2.450981,50.603782],[-2.448753,50.601223],[-2.43284,50.596633],[-2.432379,50.596237],[-2.446596,50.600372],[-2.447578,50.59956],[-2.447958,50.599708],[-2.447306,50.600097],[-2.447402,50.600533],[-2.449466,50.601183],[-2.450209,50.601107],[-2.451621,50.600558],[-2.452437,50.599797],[-2.459298,50.597548],[-2.460121,50.596595],[-2.460619,50.595007],[-2.464102,50.593912],[-2.464333,50.59327],[-2.46376,50.59304],[-2.464415,50.593196],[-2.466293,50.591843],[-2.4674,50.58847],[-2.469151,50.586783],[-2.469987,50.584989],[-2.470499,50.585321],[-2.471655,50.585254],[-2.471304,50.584326],[-2.470204,50.583891],[-2.470399,50.583148],[-2.471885,50.583542],[-2.472443,50.584513],[-2.474697,50.585438],[-2.477071,50.585732],[-2.481046,50.588667],[-2.48354,50.588871],[-2.484213,50.590155],[-2.484052,50.591117],[-2.484533,50.591466],[-2.485592,50.591664],[-2.486312,50.591214],[-2.487811,50.591093],[-2.490354,50.591919],[-2.491839,50.592965],[-2.494288,50.593844],[-2.497546,50.595685],[-2.498951,50.597516],[-2.499379,50.598972],[-2.498801,50.600205],[-2.495735,50.601788],[-2.495607,50.602819],[-2.496927,50.603324],[-2.499469,50.603458],[-2.500582,50.603978],[-2.501372,50.60532],[-2.501056,50.606379],[-2.501383,50.606848],[-2.5044,50.605107],[-2.50676,50.606084],[-2.507662,50.606904],[-2.507759,50.607696],[-2.505167,50.608641],[-2.505008,50.609115],[-2.50559,50.609862],[-2.50726,50.610441],[-2.508515,50.611272],[-2.51033,50.611629],[-2.512979,50.61013],[-2.513769,50.6103],[-2.514709,50.6114],[-2.514449,50.614329],[-2.516421,50.615365],[-2.516359,50.616689],[-2.517486,50.617865],[-2.521035,50.618108],[-2.522428,50.617773],[-2.523442,50.617902],[-2.524053,50.617735],[-2.524844,50.616858],[-2.53155,50.617417],[-2.538181,50.619762],[-2.539609,50.620704],[-2.540197,50.622063],[-2.541911,50.6226],[-2.542146,50.622924],[-2.544301,50.623393],[-2.544634,50.625193],[-2.545319,50.625744],[-2.546082,50.625892],[-2.547744,50.624666],[-2.548902,50.62488],[-2.551931,50.627356],[-2.549426,50.628246],[-2.546744,50.627636],[-2.546032,50.62834],[-2.5461,50.629451],[-2.545525,50.630071],[-2.545845,50.630354],[-2.545272,50.630712],[-2.547592,50.629977],[-2.549006,50.629949],[-2.551743,50.630655],[-2.555436,50.630331],[-2.558064,50.630836],[-2.558887,50.633313],[-2.560141,50.635208],[-2.559926,50.635972],[-2.56045,50.637502],[-2.560097,50.638814],[-2.560477,50.637546],[-2.560509,50.63801],[-2.561397,50.638487],[-2.560437,50.639143],[-2.561476,50.638607],[-2.561563,50.638191],[-2.562624,50.637934],[-2.5669,50.638016],[-2.570178,50.637571],[-2.571711,50.63842],[-2.574699,50.638985],[-2.576062,50.640067],[-2.578183,50.641032],[-2.582176,50.641932],[-2.58597,50.644192],[-2.586399,50.645114],[-2.587542,50.64522],[-2.588492,50.646064],[-2.591836,50.64664],[-2.5984,50.649087],[-2.600751,50.650813],[-2.598093,50.651459],[-2.597295,50.652523],[-2.597586,50.653522],[-2.59816,50.653977],[-2.599301,50.654197],[-2.599404,50.654469],[-2.599337,50.654157],[-2.600489,50.653722],[-2.603572,50.653659],[-2.603427,50.6539],[-2.604847,50.654094],[-2.606161,50.653688],[-2.606244,50.654462],[-2.607021,50.655081],[-2.60983,50.654475],[-2.609992,50.654141],[-2.611527,50.654062],[-2.586407,50.642157],[-2.577734,50.637913],[-2.573724,50.635579],[-2.566605,50.632659],[-2.560905,50.629105],[-2.557826,50.627965],[-2.556753,50.626875],[-2.553565,50.625572],[-2.552022,50.624428],[-2.54981,50.62363],[-2.545161,50.62107],[-2.543899,50.620716],[-2.54297,50.619944],[-2.538749,50.617926],[-2.537976,50.617197],[-2.536024,50.616443],[-2.53517,50.615671],[-2.528727,50.612611],[-2.527909,50.611765],[-2.525894,50.611159],[-2.523936,50.609662],[-2.522134,50.608862],[-2.516207,50.605185],[-2.502585,50.597574],[-2.501391,50.597365],[-2.496738,50.594186],[-2.492805,50.592368],[-2.49146,50.591522],[-2.492052,50.591647],[-2.491885,50.591418],[-2.488471,50.589591],[-2.486238,50.587848],[-2.481231,50.585205],[-2.472962,50.579683],[-2.470281,50.57877],[-2.469925,50.578059],[-2.46942,50.577879],[-2.470592,50.579166],[-2.469802,50.579615],[-2.471041,50.581077],[-2.471548,50.582613],[-2.470237,50.582551],[-2.469811,50.582213],[-2.469565,50.582387],[-2.468706,50.580339],[-2.466177,50.577291],[-2.464418,50.574349],[-2.460504,50.57101],[-2.460403,50.571446],[-2.459827,50.571124],[-2.457653,50.571045],[-2.456021,50.571663],[-2.455273,50.571027],[-2.453517,50.570499],[-2.452971,50.57121],[-2.452211,50.571372],[-2.452432,50.571083],[-2.452037,50.571319],[-2.452146,50.57102],[-2.45131,50.570531],[-2.451053,50.569861],[-2.447147,50.568401],[-2.443706,50.5686],[-2.443444,50.569485],[-2.44258,50.569409],[-2.442616,50.568593],[-2.441895,50.568533],[-2.441175,50.568776],[-2.440375,50.572361],[-2.437195,50.573112],[-2.44029,50.572128],[-2.440895,50.570025],[-2.437446,50.568895],[-2.437404,50.568297],[-2.436988,50.568129],[-2.435098,50.568228],[-2.435047,50.568981],[-2.434023,50.569271],[-2.434891,50.568902],[-2.434969,50.568162],[-2.430707,50.567642],[-2.431646,50.568117],[-2.431438,50.568388],[-2.428543,50.567745],[-2.42241,50.56913],[-2.428375,50.567381],[-2.428631,50.566239],[-2.425193,50.563509],[-2.424676,50.563604],[-2.42501,50.563375],[-2.421367,50.559129],[-2.421528,50.558301],[-2.419304,50.555102],[-2.418094,50.554208],[-2.41719,50.552287],[-2.41581,50.551071],[-2.415745,50.550179],[-2.416352,50.549859],[-2.415687,50.549136],[-2.417224,50.548189],[-2.417618,50.547146],[-2.418176,50.542905],[-2.420165,50.541201],[-2.425154,50.538612],[-2.428333,50.537909],[-2.429653,50.535837],[-2.431628,50.534045],[-2.43706,50.530344],[-2.437519,50.52952],[-2.437958,50.526424],[-2.43939,50.524817],[-2.441526,50.523579],[-2.442309,50.522435],[-2.442644,50.520559],[-2.444053,50.519759],[-2.445356,50.519675],[-2.446189,50.51903],[-2.447159,50.519117],[-2.447558,50.518617],[-2.448326,50.518465],[-2.448157,50.518122],[-2.44889,50.518001],[-2.44917,50.517183],[-2.449721,50.517274],[-2.450725,50.516575],[-2.451804,50.516647],[-2.452225,50.51613],[-2.452573,50.516197],[-2.452997,50.515283],[-2.453575,50.515336],[-2.453568,50.515107],[-2.454329,50.515107],[-2.454494,50.514754],[-2.455079,50.514687],[-2.456603,50.513111],[-2.457465,50.5132],[-2.459323,50.514206],[-2.459443,50.51628],[-2.459654,50.516112],[-2.460113,50.516563],[-2.4599,50.519326],[-2.458882,50.521558],[-2.457811,50.523019],[-2.456665,50.523773],[-2.45546,50.525738],[-2.45604,50.531313],[-2.454531,50.535883],[-2.454403,50.537475],[-2.453661,50.538858],[-2.454403,50.540316],[-2.456145,50.541434],[-2.456424,50.542427],[-2.455239,50.544528],[-2.452681,50.546589],[-2.452081,50.547518],[-2.451654,50.549427],[-2.452207,50.551725],[-2.451385,50.552471],[-2.449819,50.555484],[-2.447984,50.557196],[-2.448236,50.55857],[-2.449224,50.560132],[-2.45402,50.564015],[-2.468992,50.574463],[-2.492773,50.589905],[-2.531224,50.61199],[-2.544628,50.619295],[-2.571316,50.633141],[-2.600556,50.647505],[-2.628953,50.660401],[-2.640448,50.665242],[-2.678442,50.68028],[-2.724507,50.696839],[-2.730901,50.698785],[-2.735019,50.700302],[-2.739673,50.702515],[-2.760295,50.708826],[-2.762675,50.709429],[-2.763877,50.709268],[-2.762995,50.710993],[-2.761772,50.710896],[-2.761715,50.711267],[-2.763826,50.711531],[-2.764205,50.710996],[-2.763738,50.710723],[-2.763677,50.710165],[-2.763938,50.710383],[-2.764779,50.710227],[-2.763975,50.708784],[-2.764252,50.708625],[-2.765451,50.710648],[-2.766866,50.710883],[-2.767299,50.710529],[-2.767803,50.711214],[-2.770772,50.711797],[-2.772425,50.712721],[-2.780261,50.715035],[-2.793709,50.718169],[-2.798937,50.717657],[-2.801683,50.717945],[-2.805114,50.718952],[-2.810361,50.717869],[-2.812441,50.718033],[-2.818365,50.720582],[-2.828298,50.722802],[-2.836567,50.723894],[-2.839268,50.722995],[-2.841632,50.72323],[-2.842531,50.723008],[-2.843463,50.723436],[-2.846835,50.723813],[-2.862763,50.727677],[-2.879948,50.730762],[-2.894441,50.732791],[-2.911754,50.733784],[-2.913912,50.732794],[-2.921532,50.731433],[-2.928276,50.728617],[-2.929224,50.726945],[-2.930488,50.725869],[-2.930029,50.72497],[-2.930953,50.724971],[-2.931867,50.724487],[-2.932794,50.724752],[-2.932522,50.724312],[-2.932902,50.724019],[-2.93543,50.723412],[-2.936918,50.722696],[-2.937139,50.722281],[-2.937481,50.722354],[-2.937677,50.72125],[-2.938811,50.720409],[-2.938274,50.719186],[-2.937716,50.719033],[-2.937118,50.71966],[-2.936241,50.719925],[-2.937035,50.719215],[-2.934222,50.71908],[-2.937946,50.718828],[-2.938686,50.719544],[-2.93984,50.719545],[-2.94766,50.718247],[-2.948705,50.719774],[-2.948733,50.721263],[-2.952603,50.724594],[-2.953067,50.728497],[-2.949602,50.732347],[-2.947779,50.73378],[-2.947019,50.73499],[-2.945845,50.73518],[-2.946308,50.735262],[-2.946619,50.735846],[-2.946585,50.737293],[-2.945655,50.737819],[-2.940634,50.742703],[-2.938885,50.743347],[-2.937862,50.744097],[-2.938249,50.745965],[-2.940586,50.748637],[-2.940572,50.749893],[-2.939683,50.75184],[-2.936512,50.752993],[-2.935139,50.754195],[-2.939423,50.757113],[-2.949613,50.760918],[-2.952591,50.761382],[-2.95306,50.762171],[-2.956039,50.763642],[-2.955706,50.764165],[-2.955945,50.764971],[-2.954334,50.76771],[-2.948899,50.772025],[-2.940955,50.777451],[-2.932716,50.781483],[-2.929653,50.782433],[-2.918728,50.783624],[-2.913556,50.78449],[-2.897456,50.78614],[-2.895639,50.787539],[-2.893745,50.789859],[-2.89058,50.790517],[-2.887039,50.792523],[-2.887816,50.792919],[-2.887762,50.793441],[-2.889315,50.793926],[-2.886683,50.794703],[-2.887029,50.796178],[-2.888814,50.798406],[-2.888755,50.799721],[-2.889809,50.800679],[-2.889693,50.801126],[-2.890202,50.801607],[-2.889879,50.802188],[-2.890416,50.802566],[-2.890229,50.803449],[-2.89156,50.803776],[-2.892868,50.804794],[-2.894228,50.804945],[-2.895011,50.804633],[-2.895719,50.804949],[-2.897188,50.804523],[-2.899809,50.80517],[-2.900657,50.804742],[-2.902609,50.804619],[-2.905433,50.805267],[-2.907349,50.804673],[-2.911296,50.804624],[-2.912086,50.805246],[-2.913297,50.805006],[-2.913592,50.805296],[-2.915307,50.805293],[-2.917615,50.805919],[-2.918556,50.805631],[-2.920171,50.806676],[-2.921915,50.806914],[-2.922722,50.807594],[-2.924899,50.808291],[-2.925276,50.807984],[-2.926251,50.808264],[-2.926595,50.807857],[-2.927552,50.8084],[-2.928956,50.808424],[-2.929778,50.809072],[-2.930728,50.809012],[-2.931277,50.808637],[-2.931592,50.809139],[-2.934462,50.809182],[-2.935523,50.809831],[-2.936271,50.809731],[-2.936736,50.810081],[-2.938402,50.809835],[-2.939043,50.810084],[-2.939012,50.810437],[-2.939786,50.810479],[-2.94074,50.811107],[-2.941634,50.811112],[-2.941506,50.811725],[-2.942589,50.811936],[-2.942723,50.812397],[-2.943203,50.812389],[-2.944121,50.813399],[-2.944814,50.813369],[-2.945675,50.814073],[-2.947213,50.81431],[-2.946839,50.814611],[-2.947961,50.815426],[-2.949041,50.815153],[-2.94945,50.815422],[-2.94983,50.815],[-2.950916,50.814985],[-2.951753,50.81545],[-2.952733,50.815065],[-2.954114,50.815528],[-2.954728,50.815367],[-2.956613,50.815857],[-2.958324,50.815809],[-2.958434,50.816336],[-2.959059,50.816036],[-2.959989,50.816397],[-2.960839,50.815505],[-2.961303,50.815555],[-2.961599,50.816137],[-2.961226,50.816565],[-2.959617,50.816801],[-2.959184,50.817252],[-2.959453,50.817884],[-2.958625,50.817759],[-2.958093,50.81801],[-2.957724,50.817764],[-2.957369,50.818048],[-2.957629,50.818302],[-2.95839,50.818166],[-2.958785,50.818527],[-2.958171,50.819987],[-2.956837,50.820491],[-2.955509,50.820183],[-2.954322,50.821166],[-2.95388,50.820854],[-2.953007,50.822298],[-2.951537,50.82287],[-2.949587,50.822477],[-2.949418,50.823749],[-2.948776,50.823642],[-2.948547,50.823264],[-2.947341,50.823739],[-2.94802,50.825274],[-2.947076,50.825308],[-2.947512,50.825916],[-2.946071,50.826282],[-2.946024,50.828832],[-2.945613,50.8289],[-2.945119,50.828512],[-2.945367,50.828842],[-2.944815,50.828707],[-2.944109,50.82916],[-2.944708,50.829625],[-2.943876,50.830159],[-2.944591,50.831151],[-2.944657,50.831993],[-2.944033,50.831927],[-2.944422,50.832316],[-2.943855,50.83261],[-2.944261,50.833228],[-2.942985,50.834794],[-2.942092,50.835003],[-2.94169,50.835883],[-2.939754,50.836385],[-2.938003,50.835086],[-2.934333,50.836485],[-2.934541,50.837649],[-2.93245,50.838209],[-2.932792,50.838769],[-2.931813,50.838923],[-2.930684,50.838656],[-2.930275,50.839074],[-2.929852,50.840404],[-2.930372,50.840441],[-2.930123,50.840922],[-2.928996,50.840423],[-2.927959,50.840809],[-2.927848,50.840446],[-2.928432,50.839981],[-2.927137,50.839677],[-2.926383,50.839893],[-2.925246,50.839436],[-2.924951,50.83995],[-2.923141,50.839944],[-2.92096,50.840564],[-2.920226,50.841317],[-2.919103,50.84152],[-2.919334,50.841774],[-2.917556,50.841813],[-2.917279,50.841551],[-2.917307,50.841782],[-2.914219,50.842012],[-2.914024,50.842377],[-2.913388,50.842376],[-2.912336,50.843967],[-2.910964,50.844428],[-2.911115,50.843914],[-2.910537,50.843964],[-2.910254,50.844753],[-2.908857,50.844542],[-2.908342,50.844051],[-2.906753,50.844227],[-2.906465,50.843685],[-2.903149,50.843738],[-2.90284,50.844052],[-2.901795,50.844103],[-2.901279,50.844601],[-2.90254,50.844769],[-2.901594,50.845906],[-2.900601,50.84595],[-2.900931,50.846566],[-2.899712,50.846727],[-2.89946,50.847267],[-2.898484,50.846748],[-2.897332,50.847511],[-2.896516,50.847052],[-2.895747,50.847148],[-2.895011,50.846657],[-2.894367,50.847268],[-2.893495,50.846743],[-2.893328,50.847433],[-2.892534,50.847662],[-2.892483,50.848327],[-2.890314,50.848972],[-2.889745,50.849873],[-2.888614,50.849836],[-2.886837,50.850357],[-2.886266,50.850103],[-2.886262,50.85054],[-2.885002,50.850291],[-2.884908,50.849673],[-2.883963,50.849583],[-2.883642,50.849169],[-2.883422,50.849487],[-2.882598,50.849217],[-2.883008,50.848295],[-2.882103,50.84854],[-2.882094,50.84814],[-2.880682,50.847498],[-2.880841,50.846732],[-2.879235,50.846375],[-2.878872,50.847145],[-2.877831,50.847526],[-2.878239,50.847938],[-2.878612,50.84777],[-2.878947,50.848262],[-2.878321,50.848932],[-2.877878,50.848586],[-2.877215,50.848664],[-2.877052,50.84932],[-2.874227,50.848806],[-2.873414,50.849389],[-2.872845,50.849415],[-2.872577,50.848874],[-2.871446,50.848987],[-2.871191,50.848214],[-2.869731,50.848074],[-2.869252,50.84837],[-2.869609,50.84882],[-2.86795,50.849092],[-2.867562,50.848822],[-2.866791,50.849256],[-2.866027,50.849],[-2.865706,50.848402],[-2.865042,50.848705],[-2.864423,50.848439],[-2.864125,50.848768],[-2.863577,50.848542],[-2.862969,50.849019],[-2.861975,50.848874],[-2.860389,50.849773],[-2.859929,50.849614],[-2.859157,50.850057],[-2.85833,50.850024],[-2.858007,50.850378],[-2.856063,50.849987],[-2.855355,50.850303],[-2.855028,50.849616],[-2.85422,50.849269],[-2.853643,50.849647],[-2.852581,50.849404],[-2.850696,50.850765],[-2.849134,50.850896],[-2.848903,50.85063],[-2.848583,50.851233],[-2.847647,50.851356],[-2.847282,50.850799],[-2.846628,50.850762],[-2.846368,50.851368],[-2.845205,50.851613],[-2.845362,50.85124],[-2.844932,50.851177],[-2.844982,50.850696],[-2.84454,50.850446],[-2.844774,50.850174],[-2.844001,50.850266],[-2.84341,50.849374],[-2.843798,50.849224],[-2.843189,50.84882],[-2.842865,50.847373],[-2.838967,50.848078],[-2.837274,50.848814],[-2.831492,50.849456],[-2.83166,50.849787],[-2.83103,50.849934],[-2.829775,50.848695],[-2.82862,50.848782],[-2.829458,50.850729],[-2.828682,50.852041],[-2.828253,50.85178],[-2.828334,50.851337],[-2.827834,50.851108],[-2.827513,50.851291],[-2.827156,50.850626],[-2.825777,50.850884],[-2.82442,50.852059],[-2.823142,50.852491],[-2.822166,50.853464],[-2.820385,50.853984],[-2.816103,50.85685],[-2.812375,50.861234],[-2.812937,50.862108],[-2.811508,50.863354],[-2.810152,50.862568],[-2.808068,50.863631],[-2.807314,50.863247],[-2.807664,50.862771],[-2.806499,50.862051],[-2.80559,50.861893],[-2.807052,50.858937],[-2.807842,50.858679],[-2.802904,50.857242],[-2.801687,50.856788],[-2.801088,50.85615],[-2.800332,50.856183],[-2.799053,50.855449],[-2.795074,50.854654],[-2.79372,50.853398],[-2.792528,50.852857],[-2.787538,50.853751],[-2.7862,50.854513],[-2.784081,50.856839],[-2.782286,50.859697],[-2.780062,50.860319],[-2.775413,50.860683],[-2.771699,50.860268],[-2.767506,50.86072],[-2.761822,50.860759],[-2.760918,50.861424],[-2.760851,50.863239],[-2.759936,50.865973],[-2.757512,50.866889],[-2.756862,50.866594],[-2.754988,50.86679],[-2.755162,50.866397],[-2.754335,50.864677],[-2.753365,50.864142],[-2.750937,50.863838],[-2.73824,50.864672],[-2.737066,50.864233],[-2.733146,50.864957],[-2.729912,50.864704],[-2.724989,50.865406],[-2.724032,50.866084],[-2.723092,50.866191],[-2.721385,50.864931],[-2.717997,50.864025],[-2.714524,50.863939],[-2.714602,50.864966],[-2.713816,50.866373],[-2.714411,50.871161],[-2.711725,50.870824],[-2.711151,50.87004],[-2.707099,50.869729],[-2.706605,50.870482],[-2.702854,50.873277],[-2.699537,50.872792],[-2.696841,50.87368],[-2.695645,50.874685],[-2.696497,50.875493],[-2.695713,50.876007],[-2.69119,50.876559],[-2.682378,50.876963],[-2.678885,50.877523],[-2.671913,50.880572],[-2.668655,50.882597],[-2.666156,50.883698],[-2.66444,50.885131],[-2.661204,50.886555],[-2.660666,50.887143],[-2.658075,50.886552],[-2.650363,50.883332],[-2.649591,50.884166],[-2.648909,50.883964],[-2.648091,50.884242],[-2.647427,50.884002],[-2.646761,50.884166],[-2.647341,50.885533],[-2.646365,50.886457],[-2.646135,50.887435],[-2.646956,50.887801],[-2.647066,50.888359],[-2.643005,50.887286],[-2.642421,50.886731],[-2.637655,50.886935],[-2.630755,50.885777],[-2.627918,50.886309],[-2.628006,50.884337],[-2.627301,50.882758],[-2.627184,50.87988],[-2.624083,50.879287],[-2.623312,50.879547],[-2.623248,50.880132],[-2.622116,50.880781],[-2.620899,50.880894],[-2.620521,50.881253],[-2.617542,50.881045],[-2.615532,50.881899],[-2.614832,50.883879],[-2.613885,50.883931],[-2.612841,50.885007],[-2.612222,50.884763],[-2.61121,50.885014],[-2.611663,50.885547],[-2.611197,50.886107],[-2.611529,50.886555],[-2.610899,50.888036],[-2.610397,50.888297],[-2.610084,50.889408],[-2.610446,50.889968],[-2.609469,50.890839],[-2.609541,50.891526],[-2.610291,50.89235],[-2.612544,50.892177],[-2.614891,50.893261],[-2.61456,50.893738],[-2.615419,50.894262],[-2.615032,50.894933],[-2.615709,50.895753],[-2.615467,50.896284],[-2.616364,50.896733],[-2.615555,50.897282],[-2.615628,50.898052],[-2.61623,50.898518],[-2.616213,50.899458],[-2.617496,50.900041],[-2.617671,50.90154],[-2.618759,50.901333],[-2.619214,50.902192],[-2.619662,50.902319],[-2.619052,50.902529],[-2.618921,50.903256],[-2.619372,50.903436],[-2.619313,50.903964],[-2.619926,50.904654],[-2.621836,50.905104],[-2.622897,50.906687],[-2.623828,50.907195],[-2.624028,50.907992],[-2.6224,50.908754],[-2.622098,50.910108],[-2.620434,50.91002],[-2.619996,50.910553],[-2.620024,50.911492],[-2.618872,50.911622],[-2.617336,50.912361],[-2.617336,50.913268],[-2.61661,50.913375],[-2.617044,50.914314],[-2.616435,50.915104],[-2.616994,50.915672],[-2.616133,50.915991],[-2.615626,50.916653],[-2.616074,50.91753],[-2.615305,50.917646],[-2.616045,50.919242],[-2.615191,50.91948],[-2.61534,50.919936],[-2.614531,50.921135],[-2.614904,50.921921],[-2.61463,50.922187],[-2.615188,50.922435],[-2.614805,50.923257],[-2.614157,50.92362],[-2.613409,50.923553],[-2.609781,50.925301],[-2.606594,50.925831],[-2.605199,50.9266],[-2.60404,50.926725],[-2.604473,50.927725],[-2.604032,50.930976],[-2.604629,50.932557],[-2.606268,50.934674],[-2.607861,50.935626],[-2.610521,50.936508],[-2.61036,50.936704],[-2.612785,50.937255],[-2.614597,50.93815],[-2.615859,50.939593],[-2.616035,50.941448],[-2.615733,50.941205],[-2.614052,50.941361],[-2.613972,50.940308],[-2.612086,50.940069],[-2.608847,50.942008],[-2.608591,50.943695],[-2.607285,50.944073],[-2.607504,50.945137],[-2.607174,50.945757],[-2.604857,50.945404],[-2.604473,50.94597],[-2.601753,50.9468],[-2.601633,50.947431],[-2.599263,50.947656],[-2.5982,50.948574],[-2.59816,50.948982],[-2.599204,50.949259],[-2.597989,50.950156],[-2.598659,50.950595],[-2.598482,50.95188],[-2.599355,50.952235],[-2.599299,50.952657],[-2.598556,50.953013],[-2.599555,50.954352],[-2.598149,50.957751],[-2.598732,50.958567],[-2.598123,50.960568],[-2.596634,50.961209],[-2.595416,50.960892],[-2.59491,50.962228],[-2.595998,50.964622],[-2.597356,50.964814],[-2.597257,50.965747],[-2.599082,50.966638],[-2.599883,50.967402],[-2.599651,50.969557],[-2.599224,50.970061],[-2.599583,50.970761],[-2.59853,50.971577],[-2.59896,50.972618],[-2.598057,50.973613],[-2.598977,50.97455],[-2.60198,50.974935],[-2.602749,50.975601],[-2.602695,50.976035],[-2.603418,50.976283],[-2.595845,50.98134],[-2.59155,50.978761],[-2.589292,50.97692],[-2.586023,50.976869],[-2.586727,50.977805],[-2.584257,50.978891],[-2.583181,50.978864],[-2.580823,50.981348],[-2.576875,50.982306],[-2.574939,50.983318],[-2.57435,50.985094],[-2.57463,50.986694],[-2.569105,50.98537],[-2.562371,50.977711],[-2.560101,50.978695],[-2.556207,50.979535],[-2.555129,50.981423],[-2.553333,50.982827],[-2.550218,50.983802],[-2.548092,50.984852],[-2.545423,50.985081],[-2.545428,50.989808],[-2.544725,50.991666],[-2.551924,50.993698],[-2.55149,50.996345],[-2.548536,50.995986],[-2.547291,50.996418],[-2.546922,50.997252],[-2.547435,50.999542],[-2.535167,50.999373],[-2.535855,50.996856],[-2.535561,50.994022],[-2.529363,50.992642],[-2.526467,50.992597],[-2.526863,50.992112],[-2.526531,50.991925],[-2.523516,50.99225],[-2.520102,50.99401],[-2.517313,50.994609],[-2.517398,50.994269],[-2.518462,50.99378],[-2.518141,50.993335],[-2.516192,50.994508],[-2.512812,50.993984],[-2.508534,50.994658],[-2.502281,50.993798],[-2.497176,50.987353],[-2.492141,50.978517],[-2.488333,50.975756],[-2.488218,50.974452],[-2.490484,50.974164],[-2.490345,50.972772],[-2.487779,50.973113],[-2.485087,50.971143],[-2.480194,50.965865],[-2.47592,50.963586],[-2.47546,50.962863],[-2.474578,50.962508],[-2.476416,50.960764],[-2.475452,50.960002],[-2.474742,50.957952],[-2.473026,50.95803],[-2.470242,50.959151],[-2.466817,50.959811],[-2.463808,50.955346],[-2.461446,50.95631],[-2.458644,50.954288],[-2.459029,50.953523],[-2.457906,50.952788],[-2.460421,50.951129],[-2.458663,50.949747],[-2.457994,50.949961],[-2.457408,50.949582],[-2.455365,50.949267],[-2.452486,50.950274],[-2.448605,50.952913],[-2.445734,50.955851],[-2.444755,50.958082],[-2.443478,50.958463],[-2.442376,50.960796],[-2.443666,50.961248],[-2.444336,50.961061],[-2.442271,50.962523],[-2.442876,50.962967],[-2.444757,50.963061],[-2.444849,50.963986],[-2.447178,50.96785],[-2.441453,50.968643],[-2.441361,50.968395],[-2.436662,50.969332],[-2.433894,50.970228],[-2.431767,50.971337],[-2.431138,50.970677],[-2.427991,50.971387],[-2.424949,50.97027],[-2.421343,50.967165],[-2.419597,50.965169],[-2.419442,50.963646],[-2.418346,50.962328],[-2.416213,50.961657],[-2.414928,50.960583],[-2.403139,50.965174],[-2.397037,50.968402],[-2.392738,50.969242],[-2.383542,50.972359],[-2.381073,50.972811],[-2.374782,50.973226],[-2.365565,50.975501],[-2.362557,50.976564],[-2.358262,50.977418],[-2.353207,50.977884],[-2.351183,50.978582],[-2.345916,50.979041],[-2.344557,50.978829],[-2.344135,50.979756],[-2.344931,50.98032],[-2.344483,50.981267],[-2.344767,50.981805],[-2.343876,50.982295],[-2.344631,50.983493],[-2.343905,50.98382],[-2.344021,50.984839],[-2.345851,50.984734],[-2.346983,50.985262],[-2.350385,50.988117],[-2.351483,50.987878],[-2.352292,50.988139],[-2.352467,50.9885],[-2.351941,50.988713],[-2.352691,50.989927],[-2.354842,50.990224],[-2.35495,50.990897],[-2.361236,50.991266],[-2.364874,50.990419],[-2.365998,50.991431],[-2.367542,50.991248],[-2.368683,50.991758],[-2.369796,50.991505],[-2.370607,50.991752],[-2.37102,50.991267],[-2.371619,50.991337],[-2.372296,50.99048],[-2.372928,50.990741],[-2.373568,50.990391],[-2.374056,50.990678],[-2.374632,50.990457],[-2.376322,50.990903],[-2.376818,50.990729],[-2.376912,50.991215],[-2.37776,50.991413],[-2.37703,50.991801],[-2.377228,50.992401],[-2.377841,50.992671],[-2.377457,50.993612],[-2.378236,50.993439],[-2.378513,50.994157],[-2.379385,50.994325],[-2.378877,50.994776],[-2.380946,50.996711],[-2.381004,50.999936],[-2.381499,51.000309],[-2.38091,51.001185],[-2.381756,51.001947],[-2.381348,51.004922],[-2.379687,51.005217],[-2.379019,51.005935],[-2.37964,51.006242],[-2.379548,51.006527],[-2.37854,51.007258],[-2.377676,51.00728],[-2.377847,51.008128],[-2.377139,51.008357],[-2.376473,51.009202],[-2.375655,51.009277],[-2.376263,51.00967],[-2.375913,51.01085],[-2.378158,51.011115],[-2.378047,51.011714],[-2.371162,51.01346],[-2.369147,51.014276],[-2.369097,51.015925],[-2.367249,51.017779],[-2.363478,51.019986],[-2.361564,51.023018],[-2.360459,51.023408],[-2.360674,51.025175],[-2.35182,51.028655],[-2.349346,51.030505],[-2.347527,51.031247],[-2.347292,51.031814],[-2.344254,51.032519],[-2.34341,51.033359],[-2.342755,51.035221],[-2.341536,51.035481],[-2.338921,51.036913],[-2.337728,51.036993],[-2.336546,51.038182],[-2.336078,51.039934],[-2.335419,51.039611],[-2.332308,51.03971],[-2.330014,51.041345],[-2.330076,51.042053],[-2.329638,51.042165],[-2.330342,51.04366],[-2.331505,51.044361],[-2.333362,51.04669],[-2.332538,51.049525],[-2.33317,51.051479],[-2.340109,51.056063],[-2.342195,51.056068],[-2.344486,51.055483],[-2.346509,51.058579],[-2.349256,51.061243],[-2.349939,51.063658],[-2.349457,51.064118],[-2.349403,51.066314],[-2.349987,51.068882],[-2.349127,51.070794],[-2.347086,51.072738],[-2.344457,51.074328],[-2.342432,51.075069],[-2.337941,51.074648],[-2.334046,51.075404],[-2.329468,51.077019],[-2.32844,51.07805],[-2.326512,51.078886],[-2.325863,51.079678],[-2.324369,51.080271],[-2.32054,51.080992],[-2.316959,51.079838]],[[-2.081089,50.690625],[-2.081444,50.690189],[-2.080925,50.690639],[-2.081089,50.690625]],[[-2.023279,50.675812],[-2.023724,50.675452],[-2.023177,50.675513],[-2.023187,50.675799],[-2.02221,50.675671],[-2.023122,50.67584],[-2.022864,50.676156],[-2.023418,50.675962],[-2.023279,50.675812]]]]}}]}