{"type":"FeatureCollection","features":[{"type":"Feature","properties":{"slug":"dover","gss_code":"E07000108","name":"Dover"},"geometry":{"type":"MultiPolygon","coordinates":[[[[1.355588,51.296533],[1.355139,51.296245],[1.351942,51.297554],[1.35061,51.297554],[1.349177,51.297],[1.348243,51.296272],[1.346398,51.292892],[1.346672,51.292425],[1.350501,51.290123],[1.353438,51.289579],[1.354394,51.289115],[1.354393,51.288576],[1.353378,51.28796],[1.350902,51.288941],[1.349856,51.288736],[1.349252,51.288181],[1.34994,51.285529],[1.352143,51.284343],[1.351144,51.282811],[1.35059,51.280667],[1.351256,51.280156],[1.353762,51.280295],[1.35372,51.280047],[1.354107,51.280148],[1.355042,51.279353],[1.355901,51.279102],[1.356722,51.278105],[1.356264,51.277766],[1.353812,51.277963],[1.352162,51.277645],[1.351261,51.276628],[1.351711,51.27525],[1.348102,51.274361],[1.345465,51.275551],[1.342046,51.276081],[1.338913,51.278279],[1.340225,51.279426],[1.340121,51.27998],[1.336531,51.282019],[1.335251,51.282041],[1.333669,51.28082],[1.332446,51.280984],[1.330954,51.282316],[1.331687,51.284121],[1.329649,51.285025],[1.328377,51.286587],[1.330209,51.288431],[1.33134,51.290465],[1.334782,51.293278],[1.335388,51.293379],[1.337679,51.29242],[1.338644,51.292575],[1.340334,51.293546],[1.343414,51.296993],[1.34568,51.301607],[1.348226,51.301381],[1.34869,51.299965],[1.350081,51.298971],[1.354393,51.298756],[1.355588,51.296533]]],[[[1.353345,51.308079],[1.352895,51.308126],[1.35256,51.307152],[1.348379,51.301772],[1.346034,51.301955],[1.346067,51.305115],[1.345417,51.307988],[1.346502,51.308138],[1.346767,51.30906],[1.350966,51.311711],[1.351714,51.313031],[1.357888,51.311489],[1.354331,51.309165],[1.353345,51.308079]]],[[[1.235169,51.330632],[1.241504,51.330632],[1.245738,51.328566],[1.248268,51.328369],[1.250695,51.329288],[1.251979,51.328379],[1.252643,51.326185],[1.254736,51.324823],[1.250274,51.325834],[1.247998,51.325601],[1.243009,51.324895],[1.240062,51.323963],[1.235513,51.323869],[1.228462,51.3214],[1.23548,51.323778],[1.239942,51.323863],[1.242904,51.324787],[1.250287,51.325752],[1.255106,51.324619],[1.256187,51.324004],[1.255685,51.324009],[1.257312,51.323292],[1.263219,51.322057],[1.268397,51.322058],[1.270949,51.321501],[1.273032,51.32044],[1.27507,51.320101],[1.280864,51.319994],[1.283677,51.321272],[1.289731,51.321322],[1.295534,51.320143],[1.300424,51.31824],[1.309372,51.316764],[1.311577,51.31685],[1.313097,51.317705],[1.314422,51.317903],[1.321541,51.316986],[1.325234,51.316818],[1.330259,51.314178],[1.331657,51.31278],[1.335372,51.313633],[1.339736,51.312538],[1.343344,51.31024],[1.345056,51.308118],[1.345762,51.30516],[1.345679,51.302204],[1.343025,51.296832],[1.340112,51.293659],[1.337709,51.29262],[1.335523,51.293539],[1.33447,51.293465],[1.331143,51.290643],[1.329829,51.288434],[1.328129,51.286897],[1.328201,51.286174],[1.329152,51.285129],[1.331443,51.283965],[1.330706,51.282074],[1.332168,51.280874],[1.333451,51.280617],[1.335347,51.281884],[1.336506,51.281819],[1.33999,51.279688],[1.338578,51.27845],[1.338575,51.277727],[1.34217,51.275764],[1.345816,51.275155],[1.348358,51.273852],[1.347749,51.274187],[1.351116,51.274721],[1.351974,51.275128],[1.351605,51.276734],[1.352242,51.277474],[1.353331,51.277741],[1.356137,51.277546],[1.356933,51.277772],[1.35701,51.278423],[1.356347,51.279127],[1.357027,51.279158],[1.356159,51.279256],[1.35639,51.279443],[1.355955,51.279353],[1.353762,51.280581],[1.351702,51.28033],[1.351,51.280737],[1.351677,51.283026],[1.35259,51.284326],[1.350286,51.285689],[1.349824,51.288304],[1.351325,51.288571],[1.353349,51.287413],[1.352984,51.287034],[1.35339,51.287332],[1.35341,51.287404],[1.353203,51.287597],[1.354012,51.287772],[1.354892,51.288528],[1.35455,51.28964],[1.350809,51.290423],[1.347841,51.292203],[1.348488,51.292624],[1.347703,51.292296],[1.346977,51.292902],[1.348381,51.294822],[1.348902,51.296281],[1.350511,51.2971],[1.351576,51.297238],[1.351557,51.296853],[1.352064,51.297145],[1.354734,51.295815],[1.356144,51.296259],[1.356265,51.297118],[1.35524,51.298787],[1.353391,51.299449],[1.351372,51.299144],[1.35026,51.299344],[1.34905,51.30101],[1.350205,51.301005],[1.350481,51.300701],[1.350338,51.30101],[1.351164,51.301061],[1.349253,51.301095],[1.349269,51.301575],[1.353607,51.307069],[1.356125,51.309335],[1.35688,51.309283],[1.35714,51.309517],[1.35641,51.309499],[1.357722,51.310222],[1.357845,51.310113],[1.358373,51.30996],[1.359437,51.310003],[1.357769,51.310294],[1.359023,51.311333],[1.359567,51.311307],[1.35995,51.310569],[1.360226,51.310514],[1.359866,51.310426],[1.360963,51.31043],[1.360112,51.310599],[1.359591,51.311332],[1.359304,51.311429],[1.360747,51.311786],[1.360829,51.311357],[1.36243,51.310859],[1.361008,51.311396],[1.360839,51.311777],[1.360566,51.311862],[1.361953,51.312182],[1.36231,51.311841],[1.36207,51.312136],[1.362772,51.312234],[1.363078,51.311381],[1.363272,51.311915],[1.362881,51.312249],[1.364002,51.312184],[1.363432,51.311616],[1.363954,51.311183],[1.366623,51.310476],[1.366174,51.310331],[1.366792,51.309994],[1.366402,51.309081],[1.366846,51.309916],[1.366828,51.310002],[1.366609,51.310169],[1.366211,51.31032],[1.367409,51.310222],[1.366369,51.310647],[1.364028,51.311196],[1.363668,51.311775],[1.36417,51.312045],[1.365253,51.311652],[1.364823,51.311588],[1.365412,51.311293],[1.365086,51.311498],[1.368566,51.310932],[1.366061,51.311372],[1.36434,51.312165],[1.365226,51.312761],[1.365767,51.312619],[1.365276,51.312825],[1.365491,51.313137],[1.371351,51.313911],[1.372414,51.31331],[1.374216,51.30722],[1.373669,51.31029],[1.374475,51.307858],[1.375788,51.29709],[1.378007,51.288804],[1.378113,51.286967],[1.382013,51.278562],[1.390588,51.263525],[1.399388,51.246357],[1.40402,51.23448],[1.405048,51.228268],[1.405049,51.218501],[1.404207,51.210163],[1.404975,51.203422],[1.404908,51.192284],[1.405452,51.190636],[1.40555,51.186004],[1.4039,51.180802],[1.404163,51.180031],[1.404807,51.180073],[1.405124,51.179702],[1.404622,51.175717],[1.405313,51.174337],[1.404664,51.17402],[1.403579,51.17093],[1.401982,51.168315],[1.402115,51.167011],[1.400756,51.164751],[1.396965,51.15943],[1.394917,51.157296],[1.39531,51.156398],[1.393961,51.155893],[1.39086,51.153707],[1.388913,51.152809],[1.388952,51.152396],[1.384564,51.149796],[1.383982,51.149049],[1.3844,51.148493],[1.38328,51.145809],[1.376768,51.140804],[1.37231,51.138819],[1.364058,51.13594],[1.361716,51.135633],[1.357322,51.134152],[1.35611,51.134412],[1.352861,51.133558],[1.350838,51.133544],[1.347428,51.132942],[1.34543,51.131707],[1.343645,51.131398],[1.342557,51.130477],[1.343333,51.121783],[1.343008,51.121863],[1.342719,51.12689],[1.33934,51.1268],[1.338498,51.127433],[1.339198,51.125414],[1.338047,51.127277],[1.33666,51.127054],[1.337903,51.125058],[1.336787,51.126641],[1.335847,51.126333],[1.336942,51.124564],[1.335748,51.126312],[1.334482,51.126574],[1.333514,51.126252],[1.335454,51.124389],[1.334058,51.125201],[1.335509,51.124114],[1.333329,51.125478],[1.333733,51.125041],[1.333333,51.124676],[1.328974,51.123257],[1.32753,51.125409],[1.32668,51.125641],[1.321012,51.12469],[1.320005,51.124408],[1.320198,51.124162],[1.31995,51.124406],[1.316506,51.123045],[1.313658,51.119894],[1.316726,51.119198],[1.313389,51.119712],[1.315056,51.118443],[1.318087,51.117552],[1.319238,51.117582],[1.321715,51.118313],[1.320061,51.117633],[1.322266,51.115315],[1.32164,51.115076],[1.32287,51.114133],[1.318537,51.116418],[1.316304,51.114547],[1.315816,51.114843],[1.316435,51.115479],[1.312935,51.116997],[1.312451,51.117785],[1.311979,51.11773],[1.312509,51.117902],[1.31261,51.11889],[1.310967,51.119226],[1.310958,51.117849],[1.310604,51.117862],[1.310114,51.11679],[1.311971,51.116461],[1.31226,51.116814],[1.312152,51.116421],[1.31295,51.116449],[1.315043,51.115492],[1.314621,51.115241],[1.315173,51.115045],[1.313395,51.114994],[1.314889,51.114052],[1.315405,51.114651],[1.315035,51.113977],[1.317447,51.112742],[1.319213,51.112046],[1.324027,51.111945],[1.324001,51.111562],[1.327468,51.111369],[1.318208,51.111511],[1.314554,51.112818],[1.312793,51.114406],[1.302303,51.113373],[1.296909,51.11214],[1.29604,51.111597],[1.295721,51.11061],[1.294438,51.109553],[1.282189,51.107961],[1.281224,51.107518],[1.281776,51.106543],[1.281606,51.105778],[1.267661,51.101742],[1.262341,51.10181],[1.261499,51.102626],[1.253028,51.10146],[1.251501,51.101024],[1.249949,51.099805],[1.248817,51.099912],[1.248251,51.100616],[1.247168,51.100918],[1.238585,51.10061],[1.226591,51.099604],[1.221145,51.09809],[1.220468,51.101206],[1.219939,51.101345],[1.214097,51.100284],[1.213278,51.099715],[1.209444,51.0992],[1.209019,51.099004],[1.209198,51.098431],[1.204372,51.097192],[1.204267,51.098978],[1.197183,51.101716],[1.194926,51.103071],[1.19678,51.10452],[1.195101,51.105685],[1.195546,51.107662],[1.194616,51.110674],[1.194005,51.111146],[1.195571,51.114043],[1.195647,51.115888],[1.197368,51.118149],[1.192432,51.119157],[1.188985,51.119244],[1.18776,51.118873],[1.187751,51.11999],[1.185801,51.121404],[1.180867,51.119202],[1.179151,51.120873],[1.179051,51.12281],[1.178009,51.123706],[1.174871,51.122264],[1.173052,51.122522],[1.171498,51.124641],[1.173964,51.126731],[1.174155,51.126993],[1.173452,51.127193],[1.175279,51.129226],[1.175763,51.129162],[1.175535,51.128541],[1.175864,51.128464],[1.176541,51.130209],[1.176079,51.13047],[1.176939,51.131236],[1.176808,51.131912],[1.177958,51.133622],[1.178927,51.134527],[1.182169,51.133364],[1.184506,51.134782],[1.185922,51.134147],[1.188257,51.134694],[1.190117,51.135988],[1.189212,51.136514],[1.189157,51.138766],[1.194024,51.141606],[1.195354,51.142731],[1.197832,51.143679],[1.19902,51.144808],[1.20227,51.145664],[1.203094,51.147205],[1.204523,51.148272],[1.20799,51.150263],[1.211065,51.151477],[1.210226,51.153521],[1.207678,51.156834],[1.20308,51.15509],[1.201201,51.15528],[1.194178,51.154232],[1.190659,51.154016],[1.187855,51.154904],[1.182992,51.15794],[1.181905,51.157359],[1.181265,51.156162],[1.179543,51.156721],[1.17709,51.156916],[1.177633,51.159244],[1.176569,51.162445],[1.175383,51.162443],[1.171705,51.160651],[1.171064,51.161173],[1.170735,51.163136],[1.168962,51.162665],[1.165837,51.160013],[1.165821,51.158503],[1.161949,51.158018],[1.157759,51.159464],[1.156535,51.160141],[1.15634,51.161269],[1.153404,51.162677],[1.143731,51.165776],[1.142776,51.169116],[1.14412,51.173519],[1.147632,51.177174],[1.149894,51.185271],[1.150048,51.185596],[1.151464,51.185246],[1.151993,51.188214],[1.152432,51.188237],[1.15363,51.190911],[1.157802,51.19101],[1.15958,51.187877],[1.163763,51.185162],[1.163444,51.184215],[1.169917,51.183948],[1.174355,51.186418],[1.177606,51.187382],[1.179496,51.188288],[1.180573,51.189363],[1.180641,51.190477],[1.182447,51.190318],[1.18344,51.189892],[1.188266,51.18591],[1.192138,51.183837],[1.194946,51.184299],[1.195505,51.18476],[1.194331,51.185229],[1.198211,51.186634],[1.197693,51.187099],[1.203086,51.191354],[1.206029,51.193097],[1.207388,51.194225],[1.207786,51.195133],[1.218791,51.203458],[1.222194,51.207395],[1.219347,51.209444],[1.208449,51.213164],[1.202459,51.217591],[1.197144,51.219636],[1.193244,51.220141],[1.190381,51.219562],[1.185549,51.21782],[1.187415,51.219748],[1.18905,51.223307],[1.19194,51.227065],[1.193829,51.230546],[1.195275,51.231698],[1.197679,51.236876],[1.19893,51.238467],[1.200939,51.239938],[1.206336,51.246263],[1.208649,51.248238],[1.211545,51.252427],[1.207681,51.255194],[1.205656,51.254548],[1.204376,51.255439],[1.204381,51.256443],[1.200403,51.257475],[1.201045,51.258699],[1.196862,51.259072],[1.196471,51.257664],[1.195263,51.25609],[1.19263,51.257179],[1.193449,51.259068],[1.19498,51.25889],[1.196407,51.26187],[1.194552,51.262267],[1.195193,51.26553],[1.197085,51.267902],[1.195779,51.268295],[1.194801,51.269287],[1.203402,51.275569],[1.204536,51.276194],[1.205206,51.276189],[1.206091,51.276883],[1.206677,51.278331],[1.207942,51.27909],[1.208887,51.280358],[1.210398,51.280926],[1.210511,51.281682],[1.209717,51.281769],[1.210322,51.282281],[1.211319,51.282238],[1.212233,51.282642],[1.211968,51.28289],[1.212319,51.283497],[1.211711,51.28388],[1.211872,51.284459],[1.211346,51.285056],[1.210626,51.284917],[1.210251,51.28447],[1.208302,51.284417],[1.208608,51.285472],[1.206755,51.285921],[1.206177,51.28516],[1.205175,51.285706],[1.202669,51.288775],[1.203467,51.28915],[1.203483,51.289593],[1.202624,51.289947],[1.202785,51.290357],[1.202075,51.290023],[1.199945,51.291554],[1.200717,51.292101],[1.203022,51.29279],[1.20281,51.293181],[1.204238,51.294365],[1.203106,51.295044],[1.204194,51.296867],[1.203941,51.297574],[1.205252,51.297719],[1.206125,51.298772],[1.204444,51.299132],[1.205084,51.30081],[1.205835,51.301312],[1.207496,51.301252],[1.208106,51.302018],[1.207461,51.302526],[1.208296,51.303669],[1.209932,51.304438],[1.209779,51.305105],[1.211006,51.305352],[1.211958,51.305129],[1.212949,51.305882],[1.21254,51.306642],[1.213249,51.307406],[1.213184,51.310069],[1.214008,51.311359],[1.216513,51.31041],[1.217046,51.309766],[1.218536,51.309843],[1.219808,51.308865],[1.221702,51.308881],[1.221852,51.310099],[1.219771,51.310642],[1.219225,51.312162],[1.221641,51.31301],[1.223587,51.312298],[1.224757,51.312475],[1.224737,51.313787],[1.225722,51.314241],[1.226331,51.314187],[1.229384,51.316066],[1.229296,51.316458],[1.228625,51.31647],[1.227816,51.317092],[1.22787,51.317652],[1.22584,51.318028],[1.225488,51.318726],[1.225949,51.319266],[1.225428,51.319879],[1.225954,51.320215],[1.22484,51.321821],[1.222698,51.322031],[1.222683,51.322973],[1.220849,51.322583],[1.220361,51.322915],[1.220983,51.323768],[1.223179,51.324117],[1.224583,51.325197],[1.227306,51.325319],[1.229972,51.325014],[1.229627,51.325961],[1.228116,51.326856],[1.230398,51.328473],[1.231677,51.328657],[1.231995,51.32811],[1.231243,51.326751],[1.233072,51.325962],[1.234174,51.326126],[1.234526,51.326741],[1.234154,51.32773],[1.232402,51.328826],[1.232109,51.330313],[1.230878,51.331471],[1.232594,51.332277],[1.235169,51.330632]]]]}}]}