{"type":"FeatureCollection","features":[{"type":"Feature","properties":{"slug":"dudley","gss_code":"E08000027","name":"Dudley"},"geometry":{"type":"Polygon","coordinates":[[[-2.117956,52.5528],[-2.118476,52.552594],[-2.117826,52.551832],[-2.117231,52.552078],[-2.114656,52.548726],[-2.115507,52.54849],[-2.114523,52.547301],[-2.1122,52.547955],[-2.111468,52.547093],[-2.111985,52.546069],[-2.109638,52.546491],[-2.108244,52.543945],[-2.106104,52.545479],[-2.105084,52.545828],[-2.102319,52.546101],[-2.097314,52.546022],[-2.096197,52.546471],[-2.094182,52.548126],[-2.093697,52.547454],[-2.090051,52.548862],[-2.090345,52.549574],[-2.089153,52.550193],[-2.089357,52.55112],[-2.089017,52.551489],[-2.088538,52.550458],[-2.086457,52.551374],[-2.085034,52.552806],[-2.082567,52.552465],[-2.081987,52.552636],[-2.081426,52.553118],[-2.080834,52.55658],[-2.079877,52.557066],[-2.07849,52.557082],[-2.075275,52.553095],[-2.073942,52.54988],[-2.072859,52.545863],[-2.072995,52.541838],[-2.073338,52.540445],[-2.072358,52.540547],[-2.073567,52.538785],[-2.074654,52.539019],[-2.075226,52.537742],[-2.074122,52.53751],[-2.075916,52.534105],[-2.079077,52.535665],[-2.079269,52.535446],[-2.078545,52.533348],[-2.077121,52.532734],[-2.07856,52.530465],[-2.079675,52.527797],[-2.07959,52.524089],[-2.075782,52.524087],[-2.071438,52.521847],[-2.067834,52.519047],[-2.064337,52.514411],[-2.06045,52.512745],[-2.057258,52.512271],[-2.057459,52.511736],[-2.058028,52.511756],[-2.057885,52.510895],[-2.059067,52.509893],[-2.059975,52.509397],[-2.061386,52.509576],[-2.062442,52.507722],[-2.061388,52.507083],[-2.061625,52.505728],[-2.061008,52.505264],[-2.061473,52.504751],[-2.060904,52.504475],[-2.061318,52.503234],[-2.060923,52.502569],[-2.062959,52.502087],[-2.06354,52.500951],[-2.063122,52.499946],[-2.062745,52.499896],[-2.064169,52.499498],[-2.065004,52.498454],[-2.065864,52.498068],[-2.067693,52.498166],[-2.067099,52.49714],[-2.068847,52.496378],[-2.068543,52.495295],[-2.069758,52.494403],[-2.070279,52.491858],[-2.069626,52.490771],[-2.06686,52.489743],[-2.067153,52.489596],[-2.066585,52.489446],[-2.064323,52.487169],[-2.066981,52.485376],[-2.068074,52.486258],[-2.068607,52.48611],[-2.068516,52.485309],[-2.069399,52.485216],[-2.069356,52.48492],[-2.069143,52.4844],[-2.068024,52.48436],[-2.069012,52.482727],[-2.0716,52.480633],[-2.07146,52.480106],[-2.072902,52.478847],[-2.073282,52.477398],[-2.07552,52.477191],[-2.076887,52.477488],[-2.077273,52.477957],[-2.078154,52.477924],[-2.079133,52.477433],[-2.078955,52.47718],[-2.079933,52.47641],[-2.08103,52.475877],[-2.081804,52.475734],[-2.08198,52.475952],[-2.084039,52.475027],[-2.083578,52.474733],[-2.086483,52.4741],[-2.089665,52.474659],[-2.091328,52.474425],[-2.092503,52.473766],[-2.09425,52.473601],[-2.095463,52.472003],[-2.095339,52.470628],[-2.096506,52.470432],[-2.097035,52.469475],[-2.097074,52.468396],[-2.093635,52.468318],[-2.090901,52.467795],[-2.089176,52.467935],[-2.085778,52.466741],[-2.084634,52.4658],[-2.083422,52.465809],[-2.081767,52.463751],[-2.080188,52.46306],[-2.079224,52.463024],[-2.078133,52.463995],[-2.07655,52.464],[-2.076119,52.464333],[-2.074261,52.463312],[-2.073962,52.461428],[-2.072086,52.460733],[-2.066363,52.461555],[-2.0645,52.461504],[-2.063305,52.462234],[-2.061885,52.462451],[-2.059017,52.461975],[-2.056787,52.462913],[-2.055454,52.462626],[-2.055086,52.463293],[-2.052894,52.464392],[-2.051072,52.463776],[-2.049405,52.466566],[-2.048897,52.46648],[-2.04802,52.467511],[-2.047497,52.467515],[-2.047108,52.470052],[-2.044727,52.470684],[-2.042431,52.47254],[-2.041749,52.47356],[-2.041032,52.473198],[-2.037462,52.473737],[-2.034593,52.474852],[-2.031293,52.476939],[-2.030032,52.476789],[-2.023461,52.479631],[-2.022749,52.480551],[-2.022161,52.479862],[-2.020976,52.477165],[-2.018465,52.474424],[-2.015572,52.471937],[-2.014374,52.470248],[-2.013015,52.464724],[-2.013084,52.460284],[-2.011757,52.457222],[-2.011505,52.455365],[-2.012121,52.452193],[-2.013512,52.449659],[-2.013233,52.448356],[-2.015268,52.447659],[-2.016512,52.446732],[-2.017435,52.443256],[-2.017001,52.440674],[-2.01699,52.432683],[-2.024766,52.434882],[-2.024881,52.434042],[-2.023739,52.433332],[-2.023684,52.432609],[-2.026038,52.432094],[-2.02619,52.43016],[-2.027799,52.429231],[-2.029325,52.429044],[-2.028971,52.428847],[-2.029706,52.427302],[-2.036988,52.427546],[-2.036944,52.428038],[-2.037572,52.428041],[-2.038111,52.428802],[-2.038061,52.429247],[-2.037528,52.429309],[-2.037343,52.429698],[-2.037868,52.430075],[-2.036959,52.430548],[-2.037491,52.430855],[-2.036876,52.43099],[-2.03766,52.431561],[-2.037532,52.432458],[-2.038155,52.432496],[-2.037593,52.433073],[-2.03844,52.433729],[-2.03813,52.434066],[-2.039843,52.437558],[-2.038489,52.438519],[-2.03863,52.438979],[-2.037131,52.439839],[-2.037109,52.440723],[-2.037881,52.441558],[-2.039739,52.441404],[-2.039849,52.440718],[-2.040395,52.44128],[-2.04455,52.440678],[-2.044681,52.440074],[-2.046385,52.439956],[-2.047091,52.440407],[-2.04916,52.43968],[-2.051484,52.440829],[-2.052165,52.440533],[-2.053595,52.440617],[-2.055711,52.441314],[-2.058491,52.440767],[-2.059631,52.439369],[-2.05923,52.438866],[-2.059451,52.43726],[-2.060206,52.436399],[-2.059467,52.436248],[-2.059309,52.435397],[-2.058698,52.435028],[-2.058647,52.433577],[-2.059159,52.432625],[-2.058942,52.430792],[-2.059516,52.428857],[-2.060713,52.427538],[-2.062467,52.427431],[-2.065788,52.428087],[-2.065871,52.428808],[-2.066654,52.429217],[-2.066706,52.429741],[-2.06535,52.43044],[-2.063825,52.4307],[-2.062349,52.432455],[-2.067546,52.432559],[-2.068009,52.432964],[-2.067626,52.434722],[-2.068052,52.435195],[-2.068601,52.434469],[-2.069767,52.434335],[-2.070971,52.433702],[-2.073285,52.433783],[-2.074303,52.432695],[-2.074733,52.432706],[-2.074812,52.433998],[-2.077936,52.433938],[-2.078264,52.433045],[-2.079892,52.432272],[-2.082121,52.431729],[-2.082675,52.432289],[-2.083448,52.431999],[-2.084741,52.432133],[-2.086061,52.432875],[-2.085557,52.4334],[-2.086403,52.433612],[-2.086933,52.43463],[-2.087462,52.434565],[-2.087664,52.435854],[-2.087288,52.436853],[-2.087711,52.438243],[-2.088793,52.440141],[-2.089406,52.440693],[-2.090376,52.440954],[-2.090723,52.441571],[-2.090215,52.442594],[-2.092463,52.44302],[-2.094155,52.443758],[-2.092846,52.445002],[-2.09328,52.445283],[-2.095672,52.444917],[-2.098565,52.445284],[-2.10224,52.443962],[-2.105249,52.444208],[-2.107025,52.442206],[-2.108777,52.441223],[-2.111757,52.437278],[-2.112897,52.437415],[-2.114643,52.43566],[-2.117248,52.43436],[-2.117519,52.433944],[-2.119662,52.434719],[-2.122881,52.433421],[-2.129697,52.43221],[-2.129021,52.430918],[-2.12975,52.430727],[-2.12927,52.429901],[-2.13046,52.429632],[-2.132274,52.42993],[-2.133091,52.427618],[-2.135479,52.428061],[-2.136027,52.426268],[-2.143578,52.426054],[-2.146603,52.426373],[-2.164851,52.430204],[-2.170318,52.439073],[-2.171263,52.44143],[-2.171789,52.441647],[-2.175369,52.453009],[-2.17642,52.454552],[-2.176349,52.455979],[-2.173938,52.461096],[-2.174256,52.46383],[-2.171685,52.465872],[-2.170214,52.468229],[-2.16742,52.471541],[-2.168215,52.47162],[-2.168624,52.472214],[-2.171925,52.472677],[-2.173763,52.474226],[-2.177696,52.47898],[-2.178578,52.482698],[-2.177749,52.485064],[-2.179324,52.488331],[-2.182341,52.493131],[-2.184269,52.49288],[-2.185176,52.494813],[-2.18866,52.494507],[-2.184609,52.500007],[-2.184784,52.500347],[-2.191814,52.503387],[-2.189421,52.504762],[-2.186619,52.504787],[-2.187684,52.506078],[-2.188001,52.50716],[-2.187104,52.507507],[-2.187982,52.508363],[-2.185849,52.508803],[-2.185646,52.50853],[-2.180516,52.510249],[-2.180195,52.51073],[-2.178093,52.511679],[-2.173714,52.512311],[-2.170376,52.513306],[-2.169983,52.513096],[-2.168386,52.513514],[-2.167153,52.513396],[-2.164637,52.514641],[-2.163388,52.514712],[-2.162072,52.51416],[-2.156911,52.5152],[-2.155176,52.515261],[-2.15267,52.515042],[-2.150548,52.514137],[-2.148781,52.514695],[-2.144124,52.517169],[-2.145289,52.517731],[-2.144517,52.519621],[-2.144583,52.521384],[-2.14607,52.522674],[-2.145622,52.522761],[-2.145784,52.523496],[-2.146111,52.523362],[-2.147568,52.524157],[-2.148098,52.523725],[-2.149847,52.524803],[-2.151569,52.525253],[-2.15221,52.525696],[-2.151982,52.526182],[-2.147011,52.528091],[-2.145999,52.528749],[-2.146036,52.529459],[-2.139387,52.532677],[-2.137376,52.533294],[-2.137397,52.533733],[-2.137162,52.534029],[-2.136515,52.53399],[-2.136472,52.534473],[-2.135564,52.534509],[-2.135423,52.534857],[-2.136666,52.534927],[-2.135403,52.536029],[-2.136598,52.536161],[-2.136309,52.537492],[-2.135725,52.537611],[-2.1368,52.538031],[-2.136408,52.54029],[-2.135733,52.540732],[-2.13605,52.541722],[-2.135554,52.543408],[-2.136802,52.543417],[-2.136966,52.545023],[-2.136166,52.545519],[-2.13706,52.547056],[-2.13914,52.548081],[-2.138152,52.54882],[-2.138041,52.549449],[-2.137473,52.54954],[-2.13489,52.551738],[-2.134565,52.551645],[-2.133457,52.553445],[-2.133487,52.554067],[-2.128382,52.553837],[-2.128331,52.5553],[-2.128069,52.555802],[-2.12721,52.556163],[-2.127327,52.557338],[-2.12839,52.557699],[-2.127598,52.558207],[-2.121527,52.556815],[-2.117956,52.5528]]]}}]}