{"type":"FeatureCollection","features":[{"type":"Feature","properties":{"slug":"durham","gss_code":"E06000047","name":"County Durham"},"geometry":{"type":"Polygon","coordinates":[[[-1.734553,54.91828],[-1.733807,54.91751],[-1.733289,54.917595],[-1.732421,54.916972],[-1.732411,54.916587],[-1.730983,54.916434],[-1.730622,54.915645],[-1.730165,54.915656],[-1.730145,54.915063],[-1.729189,54.914537],[-1.727651,54.912673],[-1.728035,54.911538],[-1.72776,54.910545],[-1.726068,54.909906],[-1.724923,54.908845],[-1.723156,54.910116],[-1.722339,54.908961],[-1.72108,54.90863],[-1.72125,54.908289],[-1.719164,54.908043],[-1.717007,54.908449],[-1.716472,54.907732],[-1.713298,54.908848],[-1.710505,54.909141],[-1.698482,54.909046],[-1.698905,54.908938],[-1.698472,54.908054],[-1.696743,54.906732],[-1.697588,54.906243],[-1.695657,54.904727],[-1.693997,54.904119],[-1.693391,54.903222],[-1.69169,54.902598],[-1.690573,54.902666],[-1.690768,54.904614],[-1.689158,54.905761],[-1.68955,54.906517],[-1.689144,54.906968],[-1.687655,54.907917],[-1.683477,54.908539],[-1.681951,54.907797],[-1.676353,54.909422],[-1.674778,54.90956],[-1.676843,54.903437],[-1.676535,54.903336],[-1.677973,54.901775],[-1.678134,54.899845],[-1.67659,54.899103],[-1.675255,54.897942],[-1.669231,54.895651],[-1.665559,54.895211],[-1.663036,54.895939],[-1.66138,54.894275],[-1.659308,54.893168],[-1.659951,54.890665],[-1.656497,54.890765],[-1.655854,54.892143],[-1.653509,54.893006],[-1.650012,54.893626],[-1.64848,54.891736],[-1.647349,54.888602],[-1.646621,54.888396],[-1.646593,54.885591],[-1.647979,54.885485],[-1.647753,54.884162],[-1.646719,54.882728],[-1.646978,54.882152],[-1.646346,54.881395],[-1.64762,54.880951],[-1.650655,54.880744],[-1.650982,54.879667],[-1.650497,54.879314],[-1.64901,54.879559],[-1.64543,54.878811],[-1.643689,54.878804],[-1.639973,54.8798],[-1.639195,54.88069],[-1.636598,54.881019],[-1.634973,54.88254],[-1.631536,54.883996],[-1.631575,54.884585],[-1.631116,54.884833],[-1.629082,54.88476],[-1.627997,54.885253],[-1.628494,54.88543],[-1.627411,54.886447],[-1.623572,54.887368],[-1.62226,54.886715],[-1.621201,54.887476],[-1.618743,54.887059],[-1.618985,54.888715],[-1.618318,54.890134],[-1.61649,54.891077],[-1.611933,54.895248],[-1.610393,54.895277],[-1.608241,54.896369],[-1.607942,54.896886],[-1.606818,54.897064],[-1.607334,54.898329],[-1.605147,54.898226],[-1.604687,54.898743],[-1.603758,54.8982],[-1.600899,54.898708],[-1.60044,54.898977],[-1.600771,54.899733],[-1.597517,54.901585],[-1.594208,54.902],[-1.593769,54.901747],[-1.593649,54.900859],[-1.591821,54.899794],[-1.589707,54.896237],[-1.588536,54.895467],[-1.588194,54.894457],[-1.585185,54.893883],[-1.583955,54.892877],[-1.584065,54.891632],[-1.582733,54.888934],[-1.579909,54.87777],[-1.575877,54.878298],[-1.575912,54.878954],[-1.57148,54.879372],[-1.56807,54.880472],[-1.562011,54.88084],[-1.559411,54.882037],[-1.560366,54.879904],[-1.562428,54.87776],[-1.561991,54.877378],[-1.561914,54.875693],[-1.553116,54.875942],[-1.541568,54.873459],[-1.538959,54.875453],[-1.537481,54.874387],[-1.536154,54.874739],[-1.533374,54.87645],[-1.532853,54.877854],[-1.531782,54.878188],[-1.530789,54.877894],[-1.530013,54.877122],[-1.529022,54.87738],[-1.52737,54.87699],[-1.52564,54.877606],[-1.522912,54.876217],[-1.519949,54.875974],[-1.519135,54.872414],[-1.524434,54.871898],[-1.527174,54.871184],[-1.529314,54.8696],[-1.535393,54.866261],[-1.540797,54.865529],[-1.542785,54.865766],[-1.541861,54.865358],[-1.540513,54.865284],[-1.535147,54.865971],[-1.526629,54.871069],[-1.52427,54.871599],[-1.519023,54.872004],[-1.518417,54.872873],[-1.519195,54.875902],[-1.517091,54.875671],[-1.516674,54.874925],[-1.515066,54.875113],[-1.513541,54.874696],[-1.506531,54.87108],[-1.508239,54.868835],[-1.509785,54.865242],[-1.510262,54.860107],[-1.507802,54.851389],[-1.507055,54.847015],[-1.506223,54.846237],[-1.503318,54.83663],[-1.502892,54.834445],[-1.50428,54.83123],[-1.497812,54.823613],[-1.497509,54.822628],[-1.49374,54.823472],[-1.49029,54.820182],[-1.492393,54.818617],[-1.492004,54.818383],[-1.4923,54.817831],[-1.494306,54.816012],[-1.487504,54.812683],[-1.485338,54.811981],[-1.48433,54.810467],[-1.482229,54.809988],[-1.481856,54.809651],[-1.485024,54.808488],[-1.491099,54.804315],[-1.494331,54.80117],[-1.493531,54.800052],[-1.490726,54.799304],[-1.485092,54.799682],[-1.481905,54.799058],[-1.48005,54.799764],[-1.477878,54.800073],[-1.472349,54.799948],[-1.468028,54.800307],[-1.460174,54.801694],[-1.456033,54.800915],[-1.456421,54.80049],[-1.455061,54.800538],[-1.454601,54.800022],[-1.448267,54.801007],[-1.444022,54.80247],[-1.442877,54.801976],[-1.440259,54.801528],[-1.441312,54.800534],[-1.440708,54.799689],[-1.437531,54.800527],[-1.430229,54.801559],[-1.429326,54.801025],[-1.42433,54.803089],[-1.422543,54.803175],[-1.42268,54.804021],[-1.423898,54.805486],[-1.421863,54.810474],[-1.421639,54.813164],[-1.419088,54.814318],[-1.417689,54.81829],[-1.415616,54.818487],[-1.414184,54.819543],[-1.414394,54.821235],[-1.413295,54.822158],[-1.413059,54.823329],[-1.413122,54.824559],[-1.414274,54.825898],[-1.415687,54.826377],[-1.41558,54.827316],[-1.41693,54.828737],[-1.416139,54.829395],[-1.416599,54.830636],[-1.420744,54.833762],[-1.42158,54.839471],[-1.419195,54.839839],[-1.417561,54.840942],[-1.412013,54.841896],[-1.411954,54.843181],[-1.413555,54.844482],[-1.413547,54.844878],[-1.409187,54.845188],[-1.407509,54.845729],[-1.40475,54.845505],[-1.400004,54.846613],[-1.399499,54.846374],[-1.397294,54.846447],[-1.396463,54.845866],[-1.393412,54.846228],[-1.392535,54.845685],[-1.387157,54.846559],[-1.383919,54.848146],[-1.381663,54.84716],[-1.378569,54.850016],[-1.376781,54.851081],[-1.373809,54.85407],[-1.368961,54.857655],[-1.365338,54.857686],[-1.363927,54.858225],[-1.360908,54.857882],[-1.36042,54.858063],[-1.360181,54.857833],[-1.359523,54.858254],[-1.357344,54.858473],[-1.355787,54.858981],[-1.354078,54.860278],[-1.352357,54.860619],[-1.34944,54.860073],[-1.349142,54.860426],[-1.348486,54.860496],[-1.347924,54.858868],[-1.345459,54.854957],[-1.342123,54.850664],[-1.336035,54.844146],[-1.333869,54.842359],[-1.33187,54.84231],[-1.332055,54.841641],[-1.329931,54.839259],[-1.328597,54.838738],[-1.328396,54.839164],[-1.325745,54.839251],[-1.324642,54.83912],[-1.322681,54.838582],[-1.320951,54.837624],[-1.323373,54.838763],[-1.32541,54.839143],[-1.326918,54.839032],[-1.325725,54.838436],[-1.324052,54.83825],[-1.32496,54.838273],[-1.324723,54.837467],[-1.325147,54.838342],[-1.326835,54.83831],[-1.326585,54.837564],[-1.32733,54.838362],[-1.329392,54.838299],[-1.328886,54.837806],[-1.32678,54.837485],[-1.32622,54.836854],[-1.326174,54.837282],[-1.325515,54.837357],[-1.326032,54.836746],[-1.325527,54.836627],[-1.325781,54.836391],[-1.325279,54.835667],[-1.324439,54.836896],[-1.325255,54.835631],[-1.324568,54.834849],[-1.321521,54.836945],[-1.322561,54.835844],[-1.325243,54.834064],[-1.325815,54.833058],[-1.321354,54.825279],[-1.319427,54.823383],[-1.321358,54.822327],[-1.321806,54.821309],[-1.317499,54.815409],[-1.312631,54.811789],[-1.314269,54.807835],[-1.31265,54.804776],[-1.312438,54.800896],[-1.310247,54.798521],[-1.311657,54.794935],[-1.312336,54.790389],[-1.308441,54.786568],[-1.310119,54.782259],[-1.305483,54.774198],[-1.299339,54.766268],[-1.293054,54.76083],[-1.285279,54.755618],[-1.280505,54.753257],[-1.277407,54.750494],[-1.270532,54.746588],[-1.269683,54.745598],[-1.266447,54.743426],[-1.266753,54.743067],[-1.266394,54.742438],[-1.266975,54.741534],[-1.266388,54.740871],[-1.258431,54.735219],[-1.255511,54.732276],[-1.249116,54.727582],[-1.240999,54.723196],[-1.24402,54.721578],[-1.245797,54.722293],[-1.247614,54.72241],[-1.248766,54.720734],[-1.251865,54.719623],[-1.253736,54.720368],[-1.255414,54.721575],[-1.257445,54.725547],[-1.258837,54.725419],[-1.258561,54.726055],[-1.26058,54.72573],[-1.263223,54.726462],[-1.26471,54.725982],[-1.265897,54.726631],[-1.267405,54.726865],[-1.268225,54.726091],[-1.270252,54.727169],[-1.27251,54.725413],[-1.274906,54.725215],[-1.275631,54.72547],[-1.276527,54.724425],[-1.277939,54.723795],[-1.281216,54.72301],[-1.282359,54.723017],[-1.28271,54.722124],[-1.285534,54.720421],[-1.290301,54.718398],[-1.292194,54.718591],[-1.294444,54.719345],[-1.296173,54.719364],[-1.299319,54.719133],[-1.30178,54.718226],[-1.303238,54.718131],[-1.303215,54.71789],[-1.303674,54.718508],[-1.305481,54.717564],[-1.304679,54.716393],[-1.305537,54.715212],[-1.303786,54.713244],[-1.304218,54.712614],[-1.302748,54.711712],[-1.301494,54.710181],[-1.302006,54.70894],[-1.301295,54.708159],[-1.303772,54.707669],[-1.303168,54.705684],[-1.304202,54.705653],[-1.304117,54.704368],[-1.306467,54.704003],[-1.306353,54.703704],[-1.307869,54.702747],[-1.30931,54.702495],[-1.309363,54.701577],[-1.313879,54.701197],[-1.31278,54.69884],[-1.314124,54.698016],[-1.312793,54.69589],[-1.315463,54.694532],[-1.319418,54.693263],[-1.319793,54.692737],[-1.319364,54.691297],[-1.321125,54.691096],[-1.327536,54.691363],[-1.329702,54.689572],[-1.332128,54.690183],[-1.333032,54.691976],[-1.344537,54.691122],[-1.344603,54.690826],[-1.338614,54.689416],[-1.33449,54.689018],[-1.33221,54.686955],[-1.331581,54.685106],[-1.332004,54.68393],[-1.331348,54.683735],[-1.330944,54.682162],[-1.330899,54.681242],[-1.331847,54.681225],[-1.331932,54.677393],[-1.333242,54.677073],[-1.332344,54.67522],[-1.333065,54.672614],[-1.334396,54.671194],[-1.33581,54.671275],[-1.338158,54.669531],[-1.340062,54.669321],[-1.340696,54.66877],[-1.343544,54.668612],[-1.342307,54.666096],[-1.343378,54.665794],[-1.343398,54.665163],[-1.346173,54.664328],[-1.346766,54.662891],[-1.347871,54.662429],[-1.346327,54.661353],[-1.34704,54.660907],[-1.346234,54.660369],[-1.346155,54.659477],[-1.347575,54.658616],[-1.347098,54.658353],[-1.344924,54.658436],[-1.343201,54.657586],[-1.343523,54.655556],[-1.341502,54.65337],[-1.341895,54.652168],[-1.341223,54.650243],[-1.343326,54.650378],[-1.344043,54.650707],[-1.347879,54.650605],[-1.348743,54.65087],[-1.349897,54.650723],[-1.349798,54.648581],[-1.352727,54.64897],[-1.355838,54.648299],[-1.356296,54.648662],[-1.358036,54.648576],[-1.359305,54.649467],[-1.36267,54.649164],[-1.36488,54.648424],[-1.366526,54.64883],[-1.368967,54.647813],[-1.374514,54.646559],[-1.378905,54.64618],[-1.383764,54.646243],[-1.382695,54.644395],[-1.381309,54.644305],[-1.380847,54.643802],[-1.384518,54.643074],[-1.386913,54.641986],[-1.387632,54.641399],[-1.387654,54.640125],[-1.390448,54.639135],[-1.390542,54.638161],[-1.390112,54.637761],[-1.390587,54.636283],[-1.388983,54.634946],[-1.388417,54.633422],[-1.387175,54.632778],[-1.388574,54.632107],[-1.388271,54.631603],[-1.390105,54.631405],[-1.39301,54.632015],[-1.393381,54.631521],[-1.39551,54.631098],[-1.394235,54.628882],[-1.396748,54.628332],[-1.399129,54.626979],[-1.400436,54.627714],[-1.401599,54.626359],[-1.399158,54.624129],[-1.402875,54.622434],[-1.40478,54.624046],[-1.406647,54.62262],[-1.408188,54.622064],[-1.406622,54.621426],[-1.406489,54.620771],[-1.408022,54.620132],[-1.409785,54.618494],[-1.412536,54.616801],[-1.416446,54.615324],[-1.418232,54.614262],[-1.42236,54.613073],[-1.426171,54.611519],[-1.426758,54.612485],[-1.428494,54.613266],[-1.427935,54.614437],[-1.428343,54.615036],[-1.42997,54.615323],[-1.431361,54.614858],[-1.43255,54.613733],[-1.435051,54.613948],[-1.435712,54.614392],[-1.436832,54.61412],[-1.437118,54.613064],[-1.439359,54.612523],[-1.439757,54.611193],[-1.442013,54.610824],[-1.442193,54.610251],[-1.443445,54.610361],[-1.444555,54.610029],[-1.444629,54.61053],[-1.447294,54.610742],[-1.447593,54.611076],[-1.448586,54.611008],[-1.449805,54.610401],[-1.450897,54.610558],[-1.450946,54.609841],[-1.452219,54.608765],[-1.451952,54.607674],[-1.452494,54.607558],[-1.452641,54.607054],[-1.451333,54.606249],[-1.450786,54.604699],[-1.45003,54.604036],[-1.448889,54.603687],[-1.448675,54.603245],[-1.447264,54.603082],[-1.446521,54.602256],[-1.445495,54.602029],[-1.444131,54.60046],[-1.445167,54.599548],[-1.443186,54.598509],[-1.442192,54.597471],[-1.440589,54.597196],[-1.440294,54.596703],[-1.43976,54.59664],[-1.439585,54.595689],[-1.4386,54.5955],[-1.438355,54.59508],[-1.440003,54.594472],[-1.439365,54.5938],[-1.439636,54.593563],[-1.442405,54.59277],[-1.443401,54.590624],[-1.444349,54.59049],[-1.446859,54.591152],[-1.451705,54.590828],[-1.453439,54.594207],[-1.454203,54.594439],[-1.456123,54.599291],[-1.459206,54.598479],[-1.45914,54.597481],[-1.460197,54.596826],[-1.460681,54.597523],[-1.463584,54.599495],[-1.468896,54.600528],[-1.470362,54.600446],[-1.472074,54.598947],[-1.480534,54.599414],[-1.483272,54.599229],[-1.484682,54.599697],[-1.487965,54.599341],[-1.49274,54.597165],[-1.497416,54.595697],[-1.502076,54.59568],[-1.506472,54.596113],[-1.510039,54.59483],[-1.52177,54.596557],[-1.521952,54.596067],[-1.526403,54.596486],[-1.537522,54.594466],[-1.541889,54.593067],[-1.548258,54.59173],[-1.552505,54.591318],[-1.556534,54.591514],[-1.558644,54.592117],[-1.558824,54.591541],[-1.558305,54.591469],[-1.558194,54.590875],[-1.560818,54.590284],[-1.561683,54.589639],[-1.56173,54.588512],[-1.562245,54.588232],[-1.56213,54.587409],[-1.562556,54.587076],[-1.562262,54.585971],[-1.561951,54.585696],[-1.561371,54.586188],[-1.560209,54.586251],[-1.558005,54.585454],[-1.556879,54.585896],[-1.556547,54.584554],[-1.554625,54.583317],[-1.55265,54.583698],[-1.552167,54.582844],[-1.552824,54.582342],[-1.555668,54.581718],[-1.56131,54.58223],[-1.561835,54.58177],[-1.56468,54.580812],[-1.566636,54.580627],[-1.569808,54.581238],[-1.571457,54.580733],[-1.572498,54.58084],[-1.573593,54.580438],[-1.576266,54.580198],[-1.577031,54.581377],[-1.57886,54.582126],[-1.581506,54.58192],[-1.582589,54.580936],[-1.583315,54.580909],[-1.584367,54.582061],[-1.585342,54.58505],[-1.585163,54.588213],[-1.584257,54.588416],[-1.582865,54.589475],[-1.590861,54.590214],[-1.593409,54.595077],[-1.590368,54.594957],[-1.589876,54.597749],[-1.591366,54.599654],[-1.592949,54.604549],[-1.590653,54.605582],[-1.584072,54.607268],[-1.583771,54.607504],[-1.584193,54.610486],[-1.586528,54.610422],[-1.597577,54.608017],[-1.600489,54.606652],[-1.603965,54.605597],[-1.605235,54.604772],[-1.606218,54.60344],[-1.607727,54.60427],[-1.608438,54.605334],[-1.605662,54.60673],[-1.606944,54.612477],[-1.605251,54.612453],[-1.605777,54.6146],[-1.60656,54.614729],[-1.606764,54.61754],[-1.610317,54.617443],[-1.611358,54.617112],[-1.612126,54.618127],[-1.613687,54.617958],[-1.614046,54.618811],[-1.616829,54.618804],[-1.618505,54.619168],[-1.623886,54.618926],[-1.623861,54.618623],[-1.631396,54.618457],[-1.631501,54.616132],[-1.633239,54.616128],[-1.637672,54.616704],[-1.638001,54.617204],[-1.640777,54.617401],[-1.641629,54.619366],[-1.649741,54.617957],[-1.651774,54.616903],[-1.653227,54.616955],[-1.65704,54.615473],[-1.662282,54.615857],[-1.663188,54.615536],[-1.672195,54.617085],[-1.672903,54.617438],[-1.682422,54.617771],[-1.681055,54.608766],[-1.681075,54.608406],[-1.68198,54.608119],[-1.680658,54.606329],[-1.68061,54.597833],[-1.679312,54.585973],[-1.683911,54.585955],[-1.694028,54.586894],[-1.693865,54.585094],[-1.699043,54.584566],[-1.700033,54.584176],[-1.700169,54.582249],[-1.702848,54.581573],[-1.703077,54.579854],[-1.704072,54.578082],[-1.705695,54.578348],[-1.708984,54.574142],[-1.705468,54.573766],[-1.70448,54.572162],[-1.708255,54.569064],[-1.70769,54.568712],[-1.708028,54.567903],[-1.709667,54.565815],[-1.709282,54.563179],[-1.707437,54.563161],[-1.707203,54.562691],[-1.706321,54.562655],[-1.705554,54.561846],[-1.70588,54.560627],[-1.703311,54.558696],[-1.701794,54.558263],[-1.698735,54.558206],[-1.696588,54.557817],[-1.694694,54.556638],[-1.691207,54.556245],[-1.691328,54.555312],[-1.697563,54.555712],[-1.699147,54.554073],[-1.700486,54.554062],[-1.701205,54.552949],[-1.699394,54.552043],[-1.701164,54.549906],[-1.703933,54.550717],[-1.705274,54.549172],[-1.7046,54.548378],[-1.704522,54.54627],[-1.703771,54.544936],[-1.69834,54.544209],[-1.698741,54.543301],[-1.698013,54.540724],[-1.698518,54.540802],[-1.696926,54.536006],[-1.705214,54.536897],[-1.714666,54.53949],[-1.717879,54.540957],[-1.719419,54.542239],[-1.721311,54.542302],[-1.723885,54.541593],[-1.722852,54.540973],[-1.722831,54.539695],[-1.724478,54.537774],[-1.724799,54.535996],[-1.727305,54.530485],[-1.731366,54.530682],[-1.732559,54.529459],[-1.733091,54.527736],[-1.739,54.528438],[-1.743134,54.529761],[-1.747537,54.529291],[-1.750832,54.529631],[-1.751247,54.530155],[-1.751742,54.530173],[-1.754015,54.52865],[-1.761213,54.528952],[-1.764608,54.529828],[-1.767205,54.532286],[-1.769724,54.532845],[-1.773291,54.532824],[-1.779697,54.531873],[-1.780323,54.528817],[-1.781559,54.526834],[-1.776859,54.525361],[-1.776351,54.51911],[-1.77735,54.519377],[-1.77759,54.515683],[-1.776132,54.506729],[-1.777879,54.506405],[-1.782175,54.507013],[-1.782487,54.505804],[-1.783912,54.505035],[-1.783935,54.503376],[-1.785133,54.502802],[-1.785057,54.501386],[-1.787177,54.501039],[-1.786887,54.498891],[-1.790268,54.492895],[-1.789022,54.491793],[-1.79109,54.489429],[-1.792976,54.484492],[-1.801569,54.487677],[-1.802734,54.487837],[-1.813078,54.491411],[-1.817519,54.493639],[-1.820277,54.49427],[-1.822443,54.495178],[-1.822719,54.496363],[-1.82455,54.497896],[-1.824388,54.500154],[-1.826448,54.500669],[-1.827227,54.501363],[-1.827787,54.502929],[-1.831854,54.502648],[-1.831564,54.503651],[-1.832302,54.505173],[-1.836473,54.508022],[-1.839433,54.508437],[-1.844283,54.505105],[-1.845974,54.504716],[-1.848217,54.503663],[-1.850977,54.503566],[-1.852768,54.503987],[-1.855373,54.503514],[-1.857801,54.50354],[-1.85867,54.499028],[-1.858602,54.496646],[-1.857719,54.493659],[-1.857823,54.493391],[-1.85865,54.493508],[-1.859315,54.492639],[-1.859216,54.489083],[-1.860045,54.487047],[-1.860831,54.486378],[-1.858529,54.482786],[-1.85913,54.481858],[-1.867255,54.482117],[-1.877603,54.47805],[-1.88547,54.472902],[-1.89343,54.466898],[-1.913183,54.461995],[-1.928325,54.456493],[-1.934025,54.45732],[-1.942543,54.453395],[-1.946996,54.454306],[-1.949231,54.454269],[-1.95162,54.45344],[-1.953228,54.453698],[-1.953782,54.453461],[-1.955424,54.45386],[-1.956555,54.453248],[-1.958514,54.452988],[-1.960503,54.452163],[-1.963483,54.451781],[-1.96524,54.452041],[-1.965971,54.451618],[-1.968442,54.451808],[-1.97006,54.451522],[-1.971751,54.453965],[-1.971111,54.454814],[-1.976125,54.459729],[-1.980051,54.460215],[-1.985539,54.459925],[-1.986271,54.460329],[-1.98654,54.46156],[-1.996764,54.466903],[-2.014646,54.471557],[-2.029568,54.472955],[-2.036957,54.474295],[-2.04473,54.475186],[-2.043198,54.483599],[-2.048613,54.482592],[-2.050467,54.481405],[-2.053073,54.480714],[-2.059207,54.481155],[-2.061289,54.480558],[-2.063104,54.479612],[-2.063176,54.478881],[-2.067705,54.477051],[-2.069919,54.475664],[-2.071174,54.474264],[-2.075741,54.473137],[-2.081624,54.469874],[-2.086397,54.468393],[-2.094753,54.467298],[-2.104431,54.464911],[-2.108591,54.464375],[-2.114305,54.464194],[-2.116596,54.462263],[-2.12301,54.461521],[-2.126563,54.462101],[-2.136049,54.46145],[-2.138887,54.461653],[-2.14149,54.460928],[-2.150121,54.459963],[-2.155373,54.457008],[-2.159268,54.455483],[-2.159873,54.456511],[-2.164792,54.456523],[-2.167326,54.457704],[-2.170213,54.458199],[-2.161696,54.464732],[-2.158997,54.47203],[-2.16647,54.489908],[-2.162393,54.503943],[-2.168705,54.519652],[-2.174492,54.521727],[-2.174025,54.524409],[-2.171172,54.529003],[-2.172398,54.532444],[-2.182286,54.535855],[-2.197531,54.532704],[-2.210143,54.543658],[-2.209488,54.551713],[-2.245962,54.565063],[-2.262281,54.574229],[-2.270936,54.582199],[-2.304515,54.596198],[-2.308758,54.611883],[-2.324938,54.63165],[-2.323814,54.632],[-2.319975,54.634441],[-2.317064,54.635415],[-2.314185,54.637014],[-2.312301,54.637169],[-2.311146,54.637627],[-2.309082,54.639715],[-2.308259,54.640064],[-2.308371,54.640773],[-2.306925,54.642275],[-2.305788,54.642762],[-2.30286,54.642782],[-2.302191,54.643713],[-2.300045,54.644581],[-2.29897,54.645624],[-2.296812,54.646819],[-2.294091,54.649389],[-2.292901,54.64985],[-2.287979,54.65048],[-2.289314,54.651649],[-2.28925,54.653117],[-2.289835,54.6534],[-2.289973,54.654978],[-2.292097,54.655867],[-2.291344,54.658362],[-2.292767,54.661164],[-2.292875,54.663885],[-2.298197,54.665518],[-2.302216,54.666251],[-2.303397,54.666824],[-2.303835,54.667505],[-2.302753,54.669063],[-2.303317,54.66963],[-2.306154,54.670155],[-2.308355,54.669508],[-2.313438,54.669344],[-2.316364,54.668765],[-2.318976,54.669431],[-2.3225,54.669017],[-2.325018,54.670168],[-2.327569,54.670873],[-2.327779,54.671636],[-2.326413,54.672694],[-2.327107,54.673667],[-2.329263,54.6747],[-2.330516,54.674567],[-2.335616,54.675328],[-2.339864,54.678133],[-2.341664,54.678852],[-2.343509,54.682218],[-2.346796,54.68394],[-2.349078,54.683963],[-2.350204,54.685411],[-2.351594,54.685736],[-2.351782,54.687466],[-2.350483,54.69003],[-2.351173,54.690719],[-2.354202,54.691735],[-2.354169,54.692876],[-2.352518,54.69376],[-2.352257,54.694487],[-2.353928,54.695874],[-2.354306,54.696746],[-2.355473,54.697198],[-2.355482,54.697923],[-2.353465,54.69794],[-2.352257,54.699941],[-2.351154,54.700716],[-2.349563,54.701179],[-2.34919,54.700919],[-2.348243,54.70113],[-2.346364,54.700862],[-2.344382,54.701772],[-2.34453,54.702059],[-2.343379,54.703302],[-2.34336,54.704361],[-2.342651,54.704642],[-2.342772,54.705193],[-2.34146,54.705998],[-2.342546,54.707059],[-2.344019,54.707686],[-2.3442,54.708485],[-2.345033,54.709176],[-2.344086,54.709878],[-2.34115,54.710619],[-2.342252,54.711567],[-2.341705,54.712457],[-2.341965,54.713937],[-2.341388,54.714812],[-2.342208,54.715529],[-2.342095,54.716148],[-2.34139,54.716668],[-2.33797,54.716782],[-2.337454,54.717254],[-2.337574,54.71956],[-2.336096,54.719599],[-2.335899,54.719968],[-2.334419,54.720492],[-2.330213,54.723128],[-2.325747,54.726629],[-2.32961,54.727553],[-2.330665,54.728992],[-2.330635,54.730345],[-2.331947,54.731283],[-2.332306,54.731996],[-2.331619,54.732452],[-2.331919,54.733457],[-2.330928,54.735161],[-2.329455,54.735682],[-2.328587,54.737011],[-2.32773,54.737019],[-2.326892,54.737906],[-2.327883,54.739064],[-2.32746,54.740162],[-2.326399,54.740983],[-2.327595,54.743284],[-2.326712,54.745418],[-2.326927,54.747297],[-2.322814,54.75207],[-2.322591,54.753303],[-2.320822,54.755004],[-2.321128,54.756659],[-2.322433,54.757805],[-2.322231,54.759422],[-2.323224,54.7598],[-2.322479,54.763971],[-2.320905,54.765675],[-2.320932,54.766289],[-2.320016,54.766421],[-2.317557,54.76811],[-2.317569,54.768743],[-2.314669,54.770358],[-2.313245,54.770388],[-2.313152,54.77082],[-2.309904,54.771906],[-2.309629,54.772515],[-2.310017,54.772661],[-2.308487,54.773543],[-2.308929,54.774491],[-2.311682,54.77542],[-2.311677,54.778071],[-2.313924,54.781113],[-2.313785,54.782105],[-2.312999,54.782586],[-2.31401,54.785173],[-2.313115,54.786332],[-2.312991,54.787337],[-2.313671,54.790218],[-2.31209,54.791015],[-2.308801,54.790879],[-2.307939,54.79213],[-2.305873,54.791782],[-2.305152,54.792212],[-2.302958,54.79254],[-2.302549,54.792335],[-2.300555,54.793329],[-2.29877,54.793001],[-2.29554,54.793582],[-2.292986,54.793166],[-2.290095,54.795935],[-2.286081,54.79623],[-2.285979,54.796873],[-2.282678,54.798252],[-2.280671,54.797979],[-2.277089,54.796249],[-2.272198,54.795751],[-2.268726,54.794567],[-2.266912,54.794744],[-2.263176,54.79251],[-2.260211,54.792582],[-2.260583,54.791533],[-2.256283,54.791193],[-2.251294,54.789776],[-2.25072,54.790132],[-2.250433,54.789873],[-2.250973,54.789433],[-2.248663,54.78796],[-2.235521,54.786797],[-2.234064,54.784165],[-2.226698,54.782951],[-2.219537,54.782997],[-2.218907,54.782377],[-2.215057,54.783853],[-2.214462,54.786667],[-2.212438,54.78813],[-2.209402,54.792243],[-2.206858,54.793958],[-2.203797,54.797799],[-2.201521,54.799927],[-2.198624,54.804555],[-2.19931,54.805717],[-2.198601,54.806736],[-2.186831,54.80625],[-2.182297,54.807171],[-2.177416,54.806821],[-2.173852,54.806027],[-2.171675,54.804036],[-2.16947,54.80361],[-2.16635,54.813889],[-2.164265,54.815828],[-2.160869,54.818533],[-2.157161,54.820477],[-2.151291,54.822815],[-2.14313,54.826959],[-2.143442,54.830089],[-2.141831,54.831869],[-2.14147,54.8332],[-2.13974,54.834481],[-2.139087,54.838407],[-2.139789,54.841871],[-2.134817,54.842852],[-2.13368,54.842128],[-2.131007,54.842704],[-2.129153,54.842499],[-2.128645,54.841849],[-2.124949,54.84166],[-2.122937,54.841134],[-2.122119,54.841361],[-2.120766,54.840813],[-2.119825,54.841326],[-2.118298,54.840883],[-2.116353,54.841222],[-2.113968,54.840334],[-2.111521,54.840036],[-2.108669,54.840698],[-2.104889,54.839914],[-2.103816,54.840209],[-2.103045,54.840016],[-2.101778,54.837982],[-2.100889,54.837393],[-2.099882,54.837117],[-2.099019,54.8374],[-2.097451,54.83678],[-2.093563,54.836865],[-2.092157,54.837516],[-2.090447,54.837701],[-2.088522,54.837099],[-2.087251,54.837905],[-2.082575,54.838169],[-2.081233,54.839258],[-2.079385,54.839524],[-2.078682,54.839196],[-2.077403,54.839538],[-2.07635,54.840262],[-2.074226,54.840737],[-2.070097,54.843036],[-2.06851,54.843485],[-2.067955,54.844126],[-2.068045,54.844777],[-2.066753,54.844866],[-2.066009,54.84417],[-2.065071,54.843932],[-2.06436,54.844319],[-2.061526,54.844618],[-2.059252,54.845814],[-2.057249,54.846019],[-2.054866,54.847024],[-2.052925,54.847433],[-2.049637,54.847517],[-2.047718,54.847885],[-2.045275,54.847797],[-2.043479,54.84825],[-2.041467,54.848041],[-2.039655,54.848241],[-2.038227,54.849725],[-2.035971,54.851161],[-2.036061,54.852735],[-2.033046,54.854177],[-2.030222,54.8548],[-2.028809,54.855482],[-2.027514,54.856369],[-2.027353,54.857903],[-2.026407,54.858684],[-2.025429,54.859002],[-2.023365,54.858591],[-2.02248,54.858707],[-2.022017,54.85976],[-2.019031,54.862405],[-2.01683,54.862562],[-2.014458,54.863449],[-2.014177,54.863957],[-2.012075,54.864474],[-2.011938,54.865162],[-2.012382,54.865569],[-2.011713,54.866737],[-2.008922,54.867218],[-2.008302,54.867813],[-2.006001,54.868556],[-2.004236,54.86811],[-2.001938,54.86834],[-2.001419,54.868563],[-2.00143,54.869442],[-2.000967,54.869668],[-2.000038,54.869295],[-1.99759,54.869819],[-1.996721,54.86955],[-1.995362,54.870039],[-1.993324,54.870147],[-1.99286,54.869904],[-1.991495,54.870154],[-1.988199,54.869373],[-1.986447,54.868255],[-1.982788,54.868618],[-1.980236,54.868183],[-1.977772,54.866707],[-1.973456,54.865282],[-1.970693,54.863489],[-1.972226,54.862013],[-1.9732,54.86244],[-1.974766,54.862064],[-1.974508,54.861677],[-1.97279,54.861092],[-1.972465,54.860243],[-1.970821,54.860566],[-1.969214,54.859747],[-1.967833,54.859473],[-1.964202,54.859439],[-1.962775,54.857781],[-1.959412,54.856158],[-1.953841,54.855154],[-1.952951,54.854846],[-1.952401,54.854207],[-1.949306,54.852979],[-1.947432,54.85351],[-1.944347,54.852267],[-1.940632,54.852937],[-1.939738,54.851863],[-1.937655,54.85183],[-1.93336,54.852526],[-1.933014,54.85271],[-1.935108,54.853873],[-1.932615,54.854161],[-1.932185,54.853471],[-1.931289,54.853454],[-1.930859,54.852738],[-1.930668,54.851792],[-1.932055,54.851532],[-1.93184,54.850845],[-1.929504,54.850107],[-1.92909,54.850334],[-1.926423,54.848877],[-1.924557,54.849126],[-1.922707,54.849883],[-1.921861,54.849266],[-1.921376,54.848442],[-1.921757,54.84567],[-1.92063,54.844083],[-1.920987,54.842452],[-1.925593,54.842156],[-1.927304,54.841732],[-1.927134,54.841166],[-1.923967,54.840163],[-1.919852,54.840942],[-1.918113,54.840751],[-1.918366,54.83938],[-1.920869,54.838],[-1.920051,54.837427],[-1.917,54.836761],[-1.917701,54.834939],[-1.915872,54.83405],[-1.913559,54.834031],[-1.913037,54.834833],[-1.913682,54.835769],[-1.911679,54.836033],[-1.911013,54.83661],[-1.911309,54.837471],[-1.91482,54.837922],[-1.915012,54.83836],[-1.914109,54.83948],[-1.913051,54.839811],[-1.910059,54.839359],[-1.908739,54.839493],[-1.907153,54.840311],[-1.906037,54.841449],[-1.905052,54.841569],[-1.9044,54.842171],[-1.899353,54.84292],[-1.898222,54.8441],[-1.898367,54.845162],[-1.897393,54.845748],[-1.895998,54.845835],[-1.894966,54.845511],[-1.89449,54.845044],[-1.895219,54.844674],[-1.89401,54.843667],[-1.890092,54.843986],[-1.887068,54.843728],[-1.884821,54.845609],[-1.883013,54.846435],[-1.881856,54.846816],[-1.881472,54.846579],[-1.87798,54.847146],[-1.877016,54.84811],[-1.87041,54.850673],[-1.869459,54.85188],[-1.869472,54.852822],[-1.866901,54.85388],[-1.866601,54.855386],[-1.867413,54.856907],[-1.868724,54.857677],[-1.870559,54.859556],[-1.869725,54.860304],[-1.869671,54.861558],[-1.866454,54.86407],[-1.864938,54.864386],[-1.861278,54.866431],[-1.859779,54.869205],[-1.860829,54.871145],[-1.859909,54.87271],[-1.860049,54.878034],[-1.857766,54.879353],[-1.853265,54.880205],[-1.85227,54.883089],[-1.853053,54.883267],[-1.852957,54.883541],[-1.852346,54.884255],[-1.850964,54.884689],[-1.851344,54.886331],[-1.85516,54.889042],[-1.855079,54.890291],[-1.854437,54.891185],[-1.854029,54.891319],[-1.848621,54.889767],[-1.847475,54.889782],[-1.845638,54.891044],[-1.844506,54.892698],[-1.845875,54.896075],[-1.845449,54.896903],[-1.843564,54.897242],[-1.839119,54.897314],[-1.834687,54.899026],[-1.830512,54.901599],[-1.827697,54.905494],[-1.825255,54.905793],[-1.821498,54.905433],[-1.819362,54.905948],[-1.816682,54.905345],[-1.814718,54.90535],[-1.811225,54.906502],[-1.807406,54.90725],[-1.805815,54.906234],[-1.805696,54.905004],[-1.80436,54.904478],[-1.802602,54.904643],[-1.800072,54.906146],[-1.798989,54.905764],[-1.796262,54.903729],[-1.794522,54.903574],[-1.79398,54.903991],[-1.793978,54.905239],[-1.791106,54.90802],[-1.791183,54.908698],[-1.78561,54.909141],[-1.782869,54.909848],[-1.782384,54.910158],[-1.78235,54.911225],[-1.781637,54.911557],[-1.77645,54.91],[-1.772344,54.907699],[-1.768745,54.906726],[-1.767971,54.907079],[-1.768209,54.909004],[-1.767267,54.909629],[-1.766395,54.909563],[-1.766109,54.908887],[-1.765359,54.908555],[-1.76207,54.908304],[-1.760718,54.908566],[-1.759875,54.910791],[-1.757086,54.911576],[-1.755432,54.912657],[-1.750783,54.917344],[-1.748311,54.91767],[-1.747365,54.917401],[-1.746217,54.916508],[-1.742402,54.917375],[-1.739626,54.916839],[-1.737607,54.918689],[-1.734553,54.91828]]]}}]}