{"type":"FeatureCollection","features":[{"type":"Feature","properties":{"slug":"ealing","gss_code":"E09000009","name":"Ealing"},"geometry":{"type":"Polygon","coordinates":[[[-0.317661,51.551569],[-0.312526,51.549028],[-0.311479,51.547566],[-0.308646,51.546467],[-0.307113,51.54533],[-0.308875,51.545207],[-0.307987,51.544414],[-0.308518,51.543199],[-0.304718,51.539859],[-0.305949,51.539367],[-0.306265,51.534177],[-0.307454,51.533087],[-0.302705,51.531987],[-0.299852,51.533082],[-0.296448,51.535259],[-0.295755,51.535291],[-0.295166,51.534877],[-0.293396,51.534928],[-0.28663,51.536784],[-0.282457,51.538649],[-0.277769,51.535072],[-0.278117,51.534551],[-0.278485,51.534583],[-0.278964,51.533228],[-0.280959,51.532588],[-0.281484,51.533231],[-0.283479,51.532808],[-0.284012,51.533532],[-0.289383,51.531683],[-0.285726,51.529172],[-0.280372,51.528347],[-0.274571,51.529559],[-0.270446,51.530047],[-0.270271,51.529767],[-0.26968,51.530002],[-0.268574,51.529823],[-0.266251,51.530687],[-0.264867,51.531572],[-0.264761,51.532158],[-0.263318,51.532668],[-0.260353,51.534493],[-0.257741,51.535367],[-0.256546,51.534966],[-0.255985,51.53395],[-0.250878,51.53388],[-0.250752,51.534147],[-0.247266,51.53349],[-0.246282,51.532738],[-0.246976,51.531778],[-0.245257,51.531218],[-0.247,51.530689],[-0.249871,51.52887],[-0.250556,51.527812],[-0.250331,51.52706],[-0.252538,51.524987],[-0.251768,51.522117],[-0.250319,51.520185],[-0.25069,51.519201],[-0.248971,51.513891],[-0.246435,51.510822],[-0.245135,51.50677],[-0.246467,51.506743],[-0.245674,51.504629],[-0.247972,51.504361],[-0.24809,51.504609],[-0.249918,51.504435],[-0.252484,51.504497],[-0.252526,51.504714],[-0.253752,51.504551],[-0.253671,51.504285],[-0.255064,51.504329],[-0.253364,51.502893],[-0.252772,51.499888],[-0.255606,51.496033],[-0.255422,51.494978],[-0.267677,51.493919],[-0.269061,51.494026],[-0.271303,51.494801],[-0.272402,51.496156],[-0.277402,51.499086],[-0.280772,51.502848],[-0.285712,51.500784],[-0.288669,51.500832],[-0.293898,51.501578],[-0.300669,51.499329],[-0.299947,51.497856],[-0.297537,51.494885],[-0.301133,51.494406],[-0.301377,51.495194],[-0.305852,51.496183],[-0.305431,51.494537],[-0.311911,51.491971],[-0.313885,51.493608],[-0.314389,51.493457],[-0.315085,51.493964],[-0.314468,51.494357],[-0.315712,51.495348],[-0.31528,51.495555],[-0.315794,51.495907],[-0.319181,51.494217],[-0.323414,51.495897],[-0.323899,51.495717],[-0.324676,51.495994],[-0.326127,51.495004],[-0.327341,51.496002],[-0.329945,51.495021],[-0.331231,51.49551],[-0.335265,51.496158],[-0.342279,51.495988],[-0.349709,51.498981],[-0.350619,51.499107],[-0.358053,51.497768],[-0.361878,51.496087],[-0.363118,51.495876],[-0.363734,51.494696],[-0.365363,51.493314],[-0.365794,51.493654],[-0.368355,51.492299],[-0.367913,51.491789],[-0.371851,51.490476],[-0.371919,51.490991],[-0.372497,51.491028],[-0.373809,51.49196],[-0.375824,51.495392],[-0.377903,51.495469],[-0.377877,51.496607],[-0.381841,51.495224],[-0.384547,51.494683],[-0.386575,51.494685],[-0.389375,51.495158],[-0.406918,51.499666],[-0.403819,51.502934],[-0.402859,51.503582],[-0.400234,51.504293],[-0.393513,51.507012],[-0.390422,51.513205],[-0.389116,51.514665],[-0.384948,51.516374],[-0.381789,51.51862],[-0.376145,51.524945],[-0.376372,51.528885],[-0.386643,51.530399],[-0.387115,51.529574],[-0.389276,51.530803],[-0.392649,51.531449],[-0.41105,51.53429],[-0.411845,51.534073],[-0.412221,51.534495],[-0.413487,51.534712],[-0.41382,51.535744],[-0.414764,51.535976],[-0.415306,51.536557],[-0.417431,51.536646],[-0.41749,51.537839],[-0.419409,51.538291],[-0.419548,51.538706],[-0.41816,51.539154],[-0.419414,51.539933],[-0.419403,51.54039],[-0.416756,51.540159],[-0.405009,51.54249],[-0.397831,51.54233],[-0.395286,51.542552],[-0.396344,51.545704],[-0.396541,51.545967],[-0.39789,51.545667],[-0.398706,51.547897],[-0.394879,51.547647],[-0.394947,51.548731],[-0.392796,51.548969],[-0.385036,51.551259],[-0.377656,51.5547],[-0.377843,51.554977],[-0.375882,51.553085],[-0.373343,51.554096],[-0.372864,51.553749],[-0.36252,51.556043],[-0.362675,51.556329],[-0.362125,51.556611],[-0.3623,51.557248],[-0.347549,51.559657],[-0.345611,51.55845],[-0.343606,51.557717],[-0.338303,51.557226],[-0.327006,51.555031],[-0.317661,51.551569]]]}}]}