{"type":"FeatureCollection","features":[{"type":"Feature","properties":{"slug":"east-cambridgeshire","gss_code":"E07000009","name":"East Cambridgeshire"},"geometry":{"type":"MultiPolygon","coordinates":[[[[0.140254,52.421503],[0.123796,52.415298],[0.115072,52.410659],[0.10849,52.405743],[0.100138,52.398756],[0.09322,52.390856],[0.05119,52.358317],[0.05035,52.359137],[0.049291,52.363077],[0.048578,52.363973],[0.049184,52.364487],[0.047897,52.366484],[0.047592,52.367731],[0.046747,52.368366],[0.045977,52.37181],[0.043708,52.375612],[0.041949,52.380689],[0.038832,52.382775],[0.036325,52.383638],[0.034421,52.38575],[0.046468,52.392244],[0.054377,52.395403],[0.05445,52.396564],[0.056199,52.397835],[0.05518,52.399278],[0.055131,52.400151],[0.052967,52.401611],[0.052036,52.405047],[0.050131,52.407027],[0.051103,52.408063],[0.052662,52.408824],[0.047967,52.411266],[0.041629,52.41332],[0.043303,52.416375],[0.043099,52.41739],[0.043647,52.418125],[0.045382,52.419102],[0.046716,52.4187],[0.049562,52.416746],[0.049101,52.416059],[0.050057,52.415118],[0.055121,52.414401],[0.058773,52.415438],[0.062681,52.418005],[0.070173,52.420596],[0.070212,52.421487],[0.072874,52.421099],[0.073311,52.421435],[0.07485,52.42145],[0.077919,52.42078],[0.079925,52.421326],[0.081419,52.422194],[0.082891,52.423615],[0.081108,52.424803],[0.081669,52.426593],[0.082386,52.427229],[0.084899,52.428097],[0.085114,52.428528],[0.087407,52.429736],[0.10616,52.425287],[0.107543,52.425611],[0.110837,52.427722],[0.111787,52.427896],[0.11387,52.427362],[0.113905,52.428167],[0.11511,52.42989],[0.116032,52.429855],[0.117065,52.431582],[0.116976,52.433062],[0.120114,52.434125],[0.120837,52.435488],[0.122069,52.435301],[0.126471,52.437855],[0.129143,52.436646],[0.129839,52.435729],[0.120838,52.431121],[0.118687,52.42346],[0.123842,52.42097],[0.14539,52.437483],[0.145138,52.437626],[0.151043,52.442264],[0.155345,52.440174],[0.155922,52.440577],[0.179317,52.45876],[0.177086,52.460978],[0.175937,52.460519],[0.171597,52.45715],[0.170716,52.457557],[0.200727,52.480869],[0.201632,52.480476],[0.238791,52.509185],[0.245524,52.500555],[0.140254,52.421503]]],[[[0.315561,52.512697],[0.317293,52.513008],[0.318257,52.511897],[0.318394,52.50959],[0.317743,52.508739],[0.318305,52.507658],[0.32333,52.507722],[0.328766,52.509083],[0.330938,52.509136],[0.337935,52.505882],[0.341699,52.502908],[0.345033,52.501685],[0.3478,52.502149],[0.349758,52.501088],[0.352814,52.501484],[0.355221,52.500756],[0.359364,52.50082],[0.359886,52.500023],[0.361893,52.498816],[0.363953,52.499403],[0.364993,52.50087],[0.367062,52.501174],[0.367144,52.495943],[0.371735,52.491004],[0.373089,52.487775],[0.37602,52.486049],[0.377124,52.484276],[0.37916,52.482402],[0.380706,52.479539],[0.384277,52.477692],[0.391916,52.475529],[0.394437,52.472238],[0.396303,52.470902],[0.39797,52.468753],[0.400399,52.467291],[0.40209,52.465348],[0.404126,52.464552],[0.405909,52.463402],[0.416494,52.459461],[0.423931,52.456401],[0.426297,52.455078],[0.428529,52.454653],[0.42838,52.4543],[0.423355,52.453705],[0.423778,52.444923],[0.425237,52.444379],[0.425793,52.443813],[0.424556,52.442716],[0.42609,52.440581],[0.427392,52.437718],[0.428368,52.436598],[0.429298,52.436453],[0.428,52.435072],[0.425338,52.434143],[0.423208,52.433966],[0.425313,52.430327],[0.417654,52.42813],[0.374777,52.409729],[0.382086,52.396273],[0.384606,52.392252],[0.389106,52.387374],[0.40021,52.372866],[0.407328,52.363092],[0.407692,52.361512],[0.409957,52.360191],[0.415597,52.35979],[0.419225,52.357936],[0.418761,52.356708],[0.420532,52.355844],[0.419568,52.353654],[0.419558,52.352561],[0.420053,52.352155],[0.422642,52.352362],[0.425131,52.3521],[0.427522,52.353704],[0.429529,52.352852],[0.43137,52.352747],[0.432972,52.352222],[0.435445,52.352183],[0.4373,52.350601],[0.440855,52.349113],[0.44257,52.348813],[0.442461,52.346916],[0.441459,52.345885],[0.441455,52.344684],[0.440762,52.344319],[0.440974,52.343563],[0.440307,52.342024],[0.438212,52.340473],[0.437978,52.339043],[0.437365,52.338616],[0.437712,52.337728],[0.436859,52.337138],[0.437604,52.335302],[0.437294,52.33517],[0.436164,52.335916],[0.435777,52.335781],[0.436601,52.334906],[0.436051,52.334625],[0.436276,52.333527],[0.435011,52.334036],[0.431759,52.332582],[0.429935,52.331275],[0.424189,52.329229],[0.428962,52.323988],[0.429881,52.318955],[0.431377,52.315825],[0.438831,52.316816],[0.441135,52.316473],[0.441951,52.316827],[0.441626,52.317216],[0.445654,52.317666],[0.446623,52.317626],[0.447989,52.316913],[0.449495,52.316671],[0.450983,52.316625],[0.452475,52.31721],[0.452965,52.316587],[0.453616,52.316831],[0.454083,52.316488],[0.4575,52.316296],[0.458993,52.315482],[0.459002,52.314217],[0.459663,52.312914],[0.460353,52.312526],[0.460423,52.311655],[0.46142,52.310928],[0.462093,52.308815],[0.464554,52.307824],[0.466291,52.307925],[0.467276,52.30771],[0.467908,52.307197],[0.468317,52.307386],[0.469357,52.307078],[0.471047,52.305552],[0.47112,52.304856],[0.470356,52.304836],[0.471305,52.304219],[0.472605,52.304426],[0.472354,52.30414],[0.472941,52.303912],[0.473843,52.304242],[0.473542,52.303869],[0.47393,52.303612],[0.47411,52.303983],[0.476508,52.30316],[0.4762,52.302783],[0.476678,52.302369],[0.477313,52.302453],[0.476969,52.302172],[0.477327,52.30196],[0.479144,52.301847],[0.47966,52.301306],[0.479373,52.301083],[0.480102,52.301025],[0.480007,52.300562],[0.480966,52.300452],[0.480898,52.300035],[0.481533,52.299735],[0.482501,52.299712],[0.483965,52.298245],[0.485476,52.297467],[0.485229,52.297089],[0.485808,52.296777],[0.485311,52.296312],[0.485451,52.295268],[0.488562,52.296116],[0.496252,52.291189],[0.501282,52.289317],[0.504569,52.286473],[0.504706,52.28473],[0.499212,52.284696],[0.498944,52.283763],[0.499155,52.283475],[0.499422,52.283725],[0.499995,52.283418],[0.500281,52.282916],[0.497698,52.281895],[0.498541,52.281699],[0.49781,52.281538],[0.497997,52.281201],[0.497396,52.280703],[0.496733,52.281059],[0.496296,52.280785],[0.496643,52.280543],[0.495834,52.280404],[0.496784,52.280241],[0.496686,52.278674],[0.498171,52.27827],[0.496941,52.277719],[0.496953,52.276956],[0.496418,52.277146],[0.495893,52.276842],[0.495079,52.275685],[0.497012,52.275776],[0.496182,52.275305],[0.497942,52.274368],[0.498147,52.273722],[0.498337,52.274129],[0.498676,52.274019],[0.498853,52.273015],[0.4978,52.2729],[0.497592,52.273249],[0.495946,52.273343],[0.495199,52.27232],[0.494089,52.271984],[0.459546,52.265646],[0.453801,52.263694],[0.425244,52.256251],[0.424882,52.256428],[0.424198,52.255876],[0.419627,52.25976],[0.403837,52.274461],[0.394727,52.278884],[0.395354,52.280455],[0.393482,52.280856],[0.393439,52.281173],[0.385363,52.282998],[0.385944,52.285878],[0.385536,52.289644],[0.386302,52.28997],[0.382723,52.293266],[0.380763,52.293005],[0.380618,52.29355],[0.378727,52.293523],[0.378433,52.291814],[0.377869,52.291252],[0.37626,52.293562],[0.370871,52.294826],[0.368809,52.296503],[0.360701,52.297808],[0.358709,52.297358],[0.360599,52.293535],[0.358578,52.290196],[0.359172,52.289138],[0.353083,52.285069],[0.350532,52.282949],[0.35251,52.282285],[0.355483,52.279876],[0.355241,52.279336],[0.349275,52.273858],[0.346372,52.271958],[0.342457,52.270009],[0.3441,52.269729],[0.339944,52.267748],[0.344722,52.26456],[0.342755,52.263485],[0.350322,52.258694],[0.358104,52.252457],[0.360955,52.249348],[0.356023,52.246776],[0.356664,52.246289],[0.35141,52.244702],[0.346313,52.243626],[0.342684,52.242343],[0.368969,52.227806],[0.369628,52.228233],[0.370132,52.227817],[0.369413,52.227513],[0.371249,52.22659],[0.384609,52.234063],[0.394878,52.230723],[0.398769,52.233322],[0.408781,52.239068],[0.411508,52.240117],[0.415272,52.238119],[0.421335,52.239691],[0.421382,52.23998],[0.420753,52.240188],[0.42114,52.240252],[0.421231,52.240907],[0.420676,52.241962],[0.420931,52.24271],[0.417361,52.246262],[0.414518,52.247861],[0.426965,52.253603],[0.429863,52.251435],[0.43221,52.251534],[0.433998,52.249625],[0.44335,52.242612],[0.446178,52.242953],[0.446001,52.243582],[0.449209,52.243639],[0.450358,52.24335],[0.453345,52.247545],[0.455582,52.24758],[0.4593,52.243981],[0.465165,52.240185],[0.470729,52.240962],[0.471542,52.240254],[0.471819,52.240345],[0.477966,52.234488],[0.476722,52.234435],[0.476102,52.23399],[0.481766,52.232376],[0.48302,52.232216],[0.485735,52.234099],[0.484164,52.234821],[0.486061,52.236446],[0.489369,52.238511],[0.489758,52.238361],[0.489362,52.238094],[0.490017,52.237669],[0.491749,52.238885],[0.492739,52.23798],[0.494891,52.239288],[0.500987,52.235396],[0.50736,52.230003],[0.513229,52.2281],[0.514484,52.226779],[0.51295,52.225216],[0.513139,52.222958],[0.51254,52.21845],[0.512821,52.213689],[0.50865,52.213981],[0.508673,52.212328],[0.507374,52.212352],[0.506699,52.208524],[0.503018,52.20703],[0.504042,52.204227],[0.502891,52.204003],[0.502133,52.203047],[0.501701,52.199032],[0.500692,52.197472],[0.50135,52.197305],[0.502556,52.196027],[0.499772,52.194559],[0.500653,52.193294],[0.499161,52.192144],[0.49683,52.191314],[0.496821,52.189824],[0.495667,52.189529],[0.49579,52.18886],[0.494975,52.188733],[0.494623,52.186598],[0.495056,52.185517],[0.493847,52.184578],[0.494576,52.184154],[0.493965,52.181496],[0.493297,52.181387],[0.493164,52.181066],[0.494171,52.178183],[0.493032,52.17619],[0.493222,52.175584],[0.491084,52.174291],[0.491257,52.171987],[0.488304,52.171381],[0.487465,52.169797],[0.488763,52.169154],[0.489789,52.168046],[0.492667,52.167417],[0.491333,52.165102],[0.489731,52.165663],[0.488332,52.164683],[0.487451,52.164503],[0.48593,52.165165],[0.482436,52.165676],[0.481716,52.166301],[0.479264,52.165965],[0.478615,52.167547],[0.476908,52.167482],[0.474456,52.165858],[0.472457,52.163992],[0.470731,52.163259],[0.469455,52.166301],[0.468283,52.167653],[0.463623,52.170466],[0.46093,52.171379],[0.457029,52.171211],[0.454718,52.172511],[0.452245,52.173202],[0.44659,52.17177],[0.44482,52.170957],[0.444522,52.171086],[0.443304,52.168594],[0.443554,52.166458],[0.444361,52.164746],[0.441095,52.164981],[0.439665,52.165677],[0.438706,52.165712],[0.437075,52.164202],[0.438279,52.163037],[0.438186,52.160721],[0.435916,52.159495],[0.430641,52.159497],[0.42712,52.160386],[0.426163,52.15992],[0.421838,52.160379],[0.417276,52.159307],[0.412549,52.15708],[0.409891,52.156401],[0.409171,52.156691],[0.406836,52.159133],[0.405447,52.159589],[0.402312,52.159418],[0.399185,52.158286],[0.398605,52.158893],[0.397152,52.158282],[0.394915,52.15797],[0.393962,52.159449],[0.391596,52.159126],[0.38891,52.161801],[0.387133,52.161985],[0.383672,52.161649],[0.376341,52.163233],[0.3764,52.163814],[0.377446,52.163797],[0.377413,52.164412],[0.376792,52.164578],[0.376207,52.164146],[0.3761,52.164525],[0.377434,52.1666],[0.372716,52.166771],[0.370957,52.166341],[0.369726,52.167444],[0.364078,52.167963],[0.361635,52.167276],[0.351716,52.168639],[0.346798,52.171265],[0.341959,52.172374],[0.339873,52.173278],[0.338452,52.174402],[0.334277,52.17545],[0.334444,52.175745],[0.33066,52.17738],[0.324961,52.178912],[0.321939,52.17884],[0.321242,52.179772],[0.318112,52.181837],[0.310379,52.185727],[0.310991,52.190474],[0.304172,52.193633],[0.296722,52.196587],[0.28754,52.201186],[0.280627,52.202643],[0.278016,52.203564],[0.278159,52.204074],[0.273432,52.205497],[0.26899,52.208095],[0.260804,52.211985],[0.257321,52.213126],[0.254408,52.214523],[0.249277,52.218634],[0.249692,52.21925],[0.247885,52.221241],[0.244574,52.222763],[0.242693,52.225352],[0.239761,52.226026],[0.235007,52.228826],[0.232857,52.231489],[0.230897,52.230502],[0.231385,52.229696],[0.230449,52.228931],[0.225348,52.231695],[0.229503,52.236663],[0.226331,52.239711],[0.222031,52.241706],[0.222187,52.242891],[0.2208,52.243389],[0.21904,52.247094],[0.217868,52.248098],[0.218205,52.249221],[0.215278,52.24967],[0.21047,52.24946],[0.218764,52.259779],[0.218514,52.260429],[0.219359,52.262607],[0.220618,52.263541],[0.217926,52.265073],[0.216998,52.266077],[0.216069,52.266034],[0.216046,52.266579],[0.214602,52.26714],[0.211581,52.269918],[0.213973,52.271462],[0.215089,52.273881],[0.216373,52.274284],[0.218761,52.274235],[0.220464,52.274604],[0.222651,52.276374],[0.224193,52.278442],[0.228117,52.28116],[0.229705,52.283177],[0.229857,52.285892],[0.230314,52.286454],[0.236767,52.289906],[0.240417,52.290371],[0.241561,52.290923],[0.242007,52.292553],[0.241157,52.294554],[0.241243,52.295474],[0.243082,52.297184],[0.244121,52.299575],[0.246176,52.301251],[0.24719,52.30383],[0.246179,52.303872],[0.244778,52.305756],[0.246193,52.307044],[0.247257,52.309203],[0.247325,52.310545],[0.246901,52.31115],[0.248008,52.311653],[0.250146,52.319082],[0.248912,52.3191],[0.248366,52.31963],[0.248484,52.320052],[0.247652,52.32051],[0.247895,52.321445],[0.248455,52.321721],[0.247907,52.322796],[0.248817,52.322854],[0.244456,52.324537],[0.243778,52.325361],[0.239315,52.32559],[0.239303,52.324703],[0.238466,52.323714],[0.239875,52.321971],[0.238951,52.320325],[0.205886,52.316847],[0.203279,52.316899],[0.198605,52.318412],[0.200063,52.323427],[0.197528,52.324268],[0.195897,52.324181],[0.192714,52.323114],[0.189485,52.323096],[0.181637,52.321222],[0.177741,52.321032],[0.175489,52.319886],[0.170855,52.319351],[0.169809,52.318754],[0.169169,52.317872],[0.167413,52.317601],[0.166108,52.31805],[0.164276,52.320492],[0.162265,52.321584],[0.162103,52.322176],[0.162903,52.323521],[0.1625,52.32423],[0.151863,52.324634],[0.149051,52.325528],[0.147352,52.32414],[0.143177,52.324084],[0.142168,52.322664],[0.142854,52.32125],[0.140316,52.32067],[0.138453,52.321121],[0.134394,52.322895],[0.130578,52.325121],[0.128281,52.325405],[0.125917,52.326672],[0.123052,52.326935],[0.120033,52.328133],[0.115433,52.328373],[0.110287,52.328205],[0.107978,52.329309],[0.104797,52.328762],[0.102621,52.330292],[0.099744,52.331087],[0.096506,52.3313],[0.093555,52.334145],[0.092163,52.334339],[0.091042,52.334914],[0.089494,52.334843],[0.089053,52.335265],[0.087963,52.335247],[0.08688,52.335646],[0.084529,52.334656],[0.082211,52.334863],[0.07659,52.337051],[0.073873,52.338441],[0.065264,52.341367],[0.059297,52.344188],[0.056681,52.346392],[0.049595,52.34949],[0.045834,52.35183],[0.046021,52.352073],[0.044171,52.352774],[0.047081,52.355168],[0.049991,52.356839],[0.093507,52.390779],[0.100195,52.398486],[0.106573,52.403947],[0.115445,52.410677],[0.12307,52.414722],[0.123293,52.414529],[0.123117,52.41472],[0.123911,52.415118],[0.140421,52.421382],[0.245662,52.500381],[0.246007,52.499938],[0.256396,52.507727],[0.257305,52.507083],[0.268629,52.509032],[0.278692,52.508617],[0.289531,52.510721],[0.309361,52.513622],[0.315561,52.512697]]]]}}]}