{"type":"FeatureCollection","features":[{"type":"Feature","properties":{"slug":"eastbourne","gss_code":"E07000061","name":"Eastbourne"},"geometry":{"type":"Polygon","coordinates":[[[0.295448,50.812685],[0.300074,50.812833],[0.300772,50.811685],[0.301253,50.811547],[0.300166,50.809865],[0.302121,50.808292],[0.304118,50.809185],[0.310401,50.807804],[0.31387,50.808741],[0.315832,50.808668],[0.315658,50.808168],[0.317882,50.806727],[0.320198,50.806966],[0.320692,50.806595],[0.324069,50.807861],[0.323834,50.806805],[0.324823,50.806229],[0.325362,50.806367],[0.32595,50.806085],[0.326958,50.805401],[0.32697,50.80502],[0.328689,50.804825],[0.330318,50.805465],[0.331511,50.804317],[0.333002,50.804121],[0.332487,50.802284],[0.333995,50.802162],[0.339307,50.799137],[0.333136,50.792663],[0.331805,50.790792],[0.331704,50.79034],[0.332562,50.789813],[0.332815,50.78908],[0.331554,50.790202],[0.331017,50.790031],[0.330592,50.78918],[0.329633,50.78947],[0.331714,50.792048],[0.329573,50.792743],[0.327596,50.790592],[0.327225,50.789675],[0.327453,50.78893],[0.330592,50.78764],[0.334055,50.788181],[0.331348,50.787485],[0.329474,50.786028],[0.328832,50.785172],[0.329021,50.784879],[0.315818,50.780956],[0.309878,50.778781],[0.307313,50.777028],[0.302883,50.775171],[0.301878,50.774392],[0.30187,50.773776],[0.297078,50.770894],[0.295022,50.768851],[0.29515,50.768578],[0.294534,50.768144],[0.294792,50.768026],[0.291741,50.765911],[0.288584,50.762991],[0.286435,50.76024],[0.277793,50.756317],[0.277968,50.756167],[0.273621,50.753754],[0.273724,50.753539],[0.270489,50.751295],[0.265624,50.746592],[0.262159,50.740412],[0.260461,50.738635],[0.258099,50.737593],[0.252661,50.737336],[0.25012,50.736677],[0.24844,50.736607],[0.243378,50.735182],[0.241599,50.735032],[0.241003,50.734431],[0.239889,50.734425],[0.235091,50.7356],[0.226566,50.736225],[0.223303,50.736957],[0.218094,50.73707],[0.214673,50.737966],[0.209951,50.738489],[0.2112,50.742978],[0.21247,50.742286],[0.213614,50.740623],[0.215489,50.739721],[0.214675,50.744539],[0.21356,50.745614],[0.211471,50.749326],[0.209381,50.751334],[0.212106,50.752783],[0.213138,50.753707],[0.212908,50.753875],[0.217484,50.757136],[0.21362,50.760116],[0.212241,50.760137],[0.215095,50.760972],[0.217206,50.762058],[0.214998,50.763527],[0.217048,50.774495],[0.216419,50.77472],[0.218779,50.776115],[0.222804,50.779747],[0.227628,50.783289],[0.230765,50.788644],[0.232416,50.793449],[0.233898,50.795758],[0.233091,50.796811],[0.229891,50.797706],[0.226922,50.799437],[0.228302,50.800076],[0.227723,50.800872],[0.233106,50.801466],[0.233799,50.801263],[0.234258,50.801664],[0.236245,50.801495],[0.236664,50.802234],[0.237326,50.802106],[0.237668,50.802523],[0.239452,50.802154],[0.240498,50.802846],[0.242191,50.803126],[0.244107,50.805378],[0.246032,50.805449],[0.245881,50.804747],[0.247153,50.804027],[0.246166,50.803099],[0.248512,50.802176],[0.249447,50.801397],[0.250483,50.798838],[0.254218,50.799033],[0.256434,50.800072],[0.257617,50.799259],[0.258805,50.799376],[0.260003,50.799987],[0.258913,50.800858],[0.261569,50.802024],[0.260823,50.803119],[0.261469,50.803495],[0.260939,50.804043],[0.262332,50.804861],[0.261357,50.805304],[0.260892,50.806078],[0.267351,50.810562],[0.26918,50.809673],[0.271543,50.810008],[0.274042,50.807636],[0.275859,50.804864],[0.2769,50.804766],[0.277827,50.807339],[0.279855,50.809309],[0.282745,50.811408],[0.285202,50.812494],[0.28751,50.812987],[0.295448,50.812685]]]}}]}