{"type":"FeatureCollection","features":[{"type":"Feature","properties":{"slug":"east-staffordshire","gss_code":"E07000193","name":"East Staffordshire"},"geometry":{"type":"Polygon","coordinates":[[[-1.780163,53.044758],[-1.778987,53.044918],[-1.778962,53.044327],[-1.779656,53.043587],[-1.778734,53.043014],[-1.774435,53.043459],[-1.772295,53.044239],[-1.768194,53.044038],[-1.767444,53.043484],[-1.766001,53.041113],[-1.760053,53.038917],[-1.758859,53.036877],[-1.759375,53.034687],[-1.761582,53.033331],[-1.759382,53.032813],[-1.757028,53.031297],[-1.756831,53.030838],[-1.757415,53.030163],[-1.757188,53.028796],[-1.758985,53.026979],[-1.762712,53.025157],[-1.763731,53.021428],[-1.762944,53.020568],[-1.758312,53.018242],[-1.757719,53.017144],[-1.758225,53.015678],[-1.75915,53.01459],[-1.762127,53.015132],[-1.763356,53.012834],[-1.763558,53.011389],[-1.76419,53.010465],[-1.766067,53.009236],[-1.76624,53.006996],[-1.765709,53.004962],[-1.764515,53.004141],[-1.764101,53.002754],[-1.764424,53.001771],[-1.762649,53.000596],[-1.762405,52.999858],[-1.763307,52.999503],[-1.767815,52.999529],[-1.768901,52.998017],[-1.770029,52.997321],[-1.771049,52.995857],[-1.773907,52.996327],[-1.777621,52.996385],[-1.779132,52.995827],[-1.780442,52.99483],[-1.784453,52.994778],[-1.785996,52.993604],[-1.785048,52.992621],[-1.7863,52.992401],[-1.786649,52.992928],[-1.787581,52.993088],[-1.790002,52.992472],[-1.790263,52.991781],[-1.787089,52.991305],[-1.787118,52.990806],[-1.788146,52.990008],[-1.787521,52.989426],[-1.79163,52.98829],[-1.792209,52.98961],[-1.793391,52.989642],[-1.793409,52.989017],[-1.79561,52.986951],[-1.796598,52.985147],[-1.797997,52.985377],[-1.79882,52.986349],[-1.802893,52.985335],[-1.804785,52.985529],[-1.804735,52.984615],[-1.802679,52.983921],[-1.801529,52.98308],[-1.802998,52.981467],[-1.805904,52.980415],[-1.81537,52.979457],[-1.820733,52.978555],[-1.823617,52.97873],[-1.824602,52.978459],[-1.826781,52.977086],[-1.827526,52.975861],[-1.828561,52.975156],[-1.828445,52.973887],[-1.829624,52.973173],[-1.830233,52.971468],[-1.82943,52.968226],[-1.827627,52.966382],[-1.828296,52.965203],[-1.828364,52.963973],[-1.827303,52.963058],[-1.825807,52.962445],[-1.825559,52.961801],[-1.826488,52.960467],[-1.82773,52.961094],[-1.828516,52.960945],[-1.829203,52.95797],[-1.830546,52.957127],[-1.831264,52.955924],[-1.834489,52.954871],[-1.834198,52.953948],[-1.832214,52.952118],[-1.830735,52.951573],[-1.828735,52.94848],[-1.828752,52.947759],[-1.829733,52.946852],[-1.829998,52.945482],[-1.832651,52.94598],[-1.835664,52.945237],[-1.836464,52.943494],[-1.836363,52.942579],[-1.835373,52.94246],[-1.832824,52.943664],[-1.832353,52.943206],[-1.833093,52.941284],[-1.835515,52.940717],[-1.838102,52.941591],[-1.839374,52.94142],[-1.840334,52.939639],[-1.841142,52.939395],[-1.841785,52.939919],[-1.842959,52.939592],[-1.845386,52.937183],[-1.846584,52.936768],[-1.846946,52.93595],[-1.849424,52.935535],[-1.850741,52.933383],[-1.850466,52.932712],[-1.848846,52.93229],[-1.849603,52.931063],[-1.852162,52.931879],[-1.853111,52.931697],[-1.854215,52.930669],[-1.854189,52.929596],[-1.852744,52.928945],[-1.852778,52.928065],[-1.853173,52.927487],[-1.855069,52.927609],[-1.855699,52.927153],[-1.854589,52.925307],[-1.854861,52.923958],[-1.856496,52.9236],[-1.856499,52.923162],[-1.855706,52.922587],[-1.855925,52.92157],[-1.855227,52.920309],[-1.854299,52.919889],[-1.851658,52.920316],[-1.850018,52.921076],[-1.847874,52.92031],[-1.847504,52.919925],[-1.848307,52.91913],[-1.848065,52.917421],[-1.848926,52.916621],[-1.848819,52.916031],[-1.847441,52.915861],[-1.847116,52.915343],[-1.847944,52.91407],[-1.847803,52.912876],[-1.845019,52.913419],[-1.843381,52.913429],[-1.842653,52.913041],[-1.842347,52.911154],[-1.842943,52.910561],[-1.846446,52.910708],[-1.848137,52.909985],[-1.847155,52.908734],[-1.845285,52.908785],[-1.845315,52.908218],[-1.842537,52.906425],[-1.841011,52.905042],[-1.839955,52.904913],[-1.838181,52.905322],[-1.836961,52.904397],[-1.835994,52.90412],[-1.836237,52.901978],[-1.835287,52.901609],[-1.834035,52.902257],[-1.833402,52.902084],[-1.832588,52.899257],[-1.829912,52.896431],[-1.830721,52.895979],[-1.833278,52.896077],[-1.834249,52.895514],[-1.834039,52.894585],[-1.83257,52.893258],[-1.833924,52.892929],[-1.835214,52.891387],[-1.834772,52.89095],[-1.832817,52.890647],[-1.833035,52.890137],[-1.834102,52.889573],[-1.833826,52.889213],[-1.832149,52.888652],[-1.832108,52.888217],[-1.832986,52.88738],[-1.832592,52.886861],[-1.829852,52.887326],[-1.827954,52.887042],[-1.827541,52.886596],[-1.82835,52.884591],[-1.826709,52.883986],[-1.825863,52.884084],[-1.823549,52.886068],[-1.822183,52.886072],[-1.821753,52.885418],[-1.823622,52.88288],[-1.822844,52.882511],[-1.818483,52.882608],[-1.815811,52.882079],[-1.813537,52.882474],[-1.811981,52.881859],[-1.812307,52.880683],[-1.811053,52.880653],[-1.804158,52.883007],[-1.802999,52.883912],[-1.802915,52.885764],[-1.80142,52.886126],[-1.794475,52.883851],[-1.7937,52.883181],[-1.792493,52.880707],[-1.791152,52.880283],[-1.788148,52.880017],[-1.786977,52.88081],[-1.786826,52.881551],[-1.78562,52.882932],[-1.783798,52.883987],[-1.782985,52.884004],[-1.780273,52.882408],[-1.777221,52.883815],[-1.775325,52.882257],[-1.775386,52.881736],[-1.776257,52.881277],[-1.776222,52.880558],[-1.774232,52.87926],[-1.773115,52.878961],[-1.770685,52.878977],[-1.768844,52.878027],[-1.764609,52.878574],[-1.758585,52.877221],[-1.756003,52.875171],[-1.754066,52.874551],[-1.751593,52.874252],[-1.750703,52.87371],[-1.750514,52.872693],[-1.752275,52.871078],[-1.751843,52.870173],[-1.752267,52.868808],[-1.750649,52.86893],[-1.747586,52.870579],[-1.746061,52.869993],[-1.745669,52.869181],[-1.746428,52.868255],[-1.747397,52.868201],[-1.749558,52.866774],[-1.746784,52.865958],[-1.74453,52.865934],[-1.73998,52.867711],[-1.739433,52.867208],[-1.739328,52.864884],[-1.738152,52.864731],[-1.735629,52.865111],[-1.734819,52.863825],[-1.731324,52.862847],[-1.729874,52.862708],[-1.726317,52.863071],[-1.725678,52.862376],[-1.725833,52.861603],[-1.726626,52.861489],[-1.727762,52.861859],[-1.728225,52.861564],[-1.727381,52.860389],[-1.725295,52.859666],[-1.722601,52.860546],[-1.722437,52.861494],[-1.721319,52.862441],[-1.722202,52.863048],[-1.721804,52.863245],[-1.720959,52.863052],[-1.719878,52.86189],[-1.717675,52.86194],[-1.718264,52.860731],[-1.716803,52.860494],[-1.716143,52.862182],[-1.714737,52.862415],[-1.714164,52.862888],[-1.715234,52.863551],[-1.717332,52.863462],[-1.717675,52.864532],[-1.716544,52.865438],[-1.714835,52.865969],[-1.71206,52.865921],[-1.710482,52.866523],[-1.708389,52.866119],[-1.705782,52.86675],[-1.703334,52.8664],[-1.70076,52.864477],[-1.699943,52.863298],[-1.701542,52.862226],[-1.702937,52.862854],[-1.703575,52.862827],[-1.703466,52.861251],[-1.700609,52.860584],[-1.698834,52.860809],[-1.699232,52.862227],[-1.698559,52.862683],[-1.697591,52.862941],[-1.694173,52.862869],[-1.691731,52.864198],[-1.689999,52.864524],[-1.688883,52.864389],[-1.687487,52.863726],[-1.68645,52.86245],[-1.684714,52.862371],[-1.682731,52.862808],[-1.679442,52.861537],[-1.674616,52.861156],[-1.672486,52.861395],[-1.670084,52.861232],[-1.669071,52.860847],[-1.668174,52.859886],[-1.664895,52.858445],[-1.659043,52.856862],[-1.654041,52.857001],[-1.64577,52.855855],[-1.642632,52.856327],[-1.641911,52.855753],[-1.639901,52.85543],[-1.636925,52.853284],[-1.635152,52.852992],[-1.630608,52.852769],[-1.629543,52.853824],[-1.62711,52.854495],[-1.626531,52.854385],[-1.62612,52.852659],[-1.627818,52.85233],[-1.628079,52.851716],[-1.626132,52.850016],[-1.625152,52.849658],[-1.622596,52.849466],[-1.62269,52.84793],[-1.620462,52.847313],[-1.617579,52.844764],[-1.615741,52.845184],[-1.613963,52.844981],[-1.608749,52.842708],[-1.607584,52.842695],[-1.606979,52.843148],[-1.606499,52.843097],[-1.604342,52.842105],[-1.602944,52.840829],[-1.603007,52.839827],[-1.601891,52.837246],[-1.60095,52.837087],[-1.59942,52.837866],[-1.598904,52.83776],[-1.597523,52.837335],[-1.594179,52.835182],[-1.593213,52.835466],[-1.592436,52.836393],[-1.591287,52.836261],[-1.591106,52.835444],[-1.591949,52.834613],[-1.591402,52.833431],[-1.591896,52.83227],[-1.589224,52.830928],[-1.587964,52.83161],[-1.58538,52.831597],[-1.585867,52.830672],[-1.588781,52.828884],[-1.597539,52.828407],[-1.600229,52.82762],[-1.603006,52.826193],[-1.605553,52.823155],[-1.607098,52.821995],[-1.607601,52.819557],[-1.610249,52.817114],[-1.610344,52.815603],[-1.607698,52.814834],[-1.60502,52.814676],[-1.600783,52.812751],[-1.598915,52.811471],[-1.596748,52.811008],[-1.594424,52.809485],[-1.593147,52.809011],[-1.591692,52.809288],[-1.590601,52.806959],[-1.589876,52.806361],[-1.590907,52.802492],[-1.587977,52.802144],[-1.588501,52.801708],[-1.589309,52.802115],[-1.589728,52.801712],[-1.589294,52.801389],[-1.590025,52.800782],[-1.589055,52.800424],[-1.588946,52.799822],[-1.5927,52.798284],[-1.592856,52.797386],[-1.593513,52.796932],[-1.593585,52.797984],[-1.595704,52.797115],[-1.596788,52.798037],[-1.59785,52.798344],[-1.603549,52.795455],[-1.600854,52.794194],[-1.601716,52.793211],[-1.601475,52.792842],[-1.602658,52.791985],[-1.604132,52.791268],[-1.60633,52.790732],[-1.611959,52.789807],[-1.614345,52.788274],[-1.612392,52.787519],[-1.613721,52.786155],[-1.609417,52.784454],[-1.61123,52.782809],[-1.610304,52.782257],[-1.61113,52.781404],[-1.611719,52.781627],[-1.612462,52.781218],[-1.61541,52.782052],[-1.615012,52.782496],[-1.617742,52.783875],[-1.619289,52.785168],[-1.622905,52.782128],[-1.623753,52.782449],[-1.626958,52.779772],[-1.638243,52.786729],[-1.641929,52.784586],[-1.644324,52.782499],[-1.648484,52.779849],[-1.64993,52.779482],[-1.65324,52.779716],[-1.656826,52.781063],[-1.658756,52.783493],[-1.662269,52.785149],[-1.664009,52.785486],[-1.665604,52.785163],[-1.669692,52.782335],[-1.670739,52.781071],[-1.669734,52.777816],[-1.670179,52.773396],[-1.67202,52.772418],[-1.678338,52.772104],[-1.68208,52.77022],[-1.683066,52.76818],[-1.684868,52.767077],[-1.685236,52.766413],[-1.684999,52.765319],[-1.683483,52.76482],[-1.683166,52.764266],[-1.683958,52.761701],[-1.686176,52.758863],[-1.687941,52.757492],[-1.691064,52.756971],[-1.69289,52.756234],[-1.696887,52.752989],[-1.696818,52.752108],[-1.693886,52.750897],[-1.69402,52.750398],[-1.695812,52.749173],[-1.696127,52.747947],[-1.695166,52.746652],[-1.692506,52.744801],[-1.692288,52.744164],[-1.693328,52.743807],[-1.696328,52.744253],[-1.697556,52.743785],[-1.697895,52.742565],[-1.697167,52.740303],[-1.699473,52.738865],[-1.699872,52.738167],[-1.697908,52.735913],[-1.697875,52.735391],[-1.701208,52.733149],[-1.707282,52.730592],[-1.710553,52.729884],[-1.712247,52.729999],[-1.714363,52.730731],[-1.717482,52.731293],[-1.716987,52.731383],[-1.71703,52.731965],[-1.717935,52.732702],[-1.717401,52.733405],[-1.719968,52.733431],[-1.720578,52.73421],[-1.719871,52.734737],[-1.722337,52.735436],[-1.721536,52.736362],[-1.721961,52.737812],[-1.723002,52.738077],[-1.724351,52.737061],[-1.724674,52.737768],[-1.723261,52.738542],[-1.723541,52.739231],[-1.725644,52.739047],[-1.725551,52.738016],[-1.726226,52.737801],[-1.727233,52.738027],[-1.727254,52.738501],[-1.72805,52.738976],[-1.728856,52.738453],[-1.731081,52.738354],[-1.73087,52.739073],[-1.731249,52.739251],[-1.731806,52.738959],[-1.733992,52.73893],[-1.733105,52.739879],[-1.733944,52.74025],[-1.734292,52.740104],[-1.733768,52.739759],[-1.734897,52.739164],[-1.737244,52.739096],[-1.740772,52.738291],[-1.744303,52.738355],[-1.743862,52.738922],[-1.744086,52.739368],[-1.74646,52.739264],[-1.749188,52.739743],[-1.750603,52.739148],[-1.753997,52.740347],[-1.753347,52.740794],[-1.756208,52.741631],[-1.757068,52.743618],[-1.758143,52.744141],[-1.757501,52.745225],[-1.757758,52.745578],[-1.759065,52.746151],[-1.760315,52.747243],[-1.763796,52.748419],[-1.767319,52.750852],[-1.76778,52.750662],[-1.767701,52.750054],[-1.769784,52.750147],[-1.769845,52.74987],[-1.768906,52.749434],[-1.768952,52.749163],[-1.769598,52.749168],[-1.768749,52.748092],[-1.769072,52.748039],[-1.770289,52.749175],[-1.771772,52.748854],[-1.772641,52.749108],[-1.771757,52.749737],[-1.772758,52.750742],[-1.774295,52.750993],[-1.775927,52.750789],[-1.778553,52.749013],[-1.778344,52.748293],[-1.777568,52.748908],[-1.777299,52.748625],[-1.778493,52.746206],[-1.780025,52.745863],[-1.784563,52.745852],[-1.786741,52.747204],[-1.786194,52.749332],[-1.790142,52.751596],[-1.788926,52.752498],[-1.789352,52.753194],[-1.790532,52.753786],[-1.793316,52.754315],[-1.793887,52.753959],[-1.794043,52.752779],[-1.795251,52.752343],[-1.798655,52.753782],[-1.801353,52.754278],[-1.801552,52.755078],[-1.802511,52.755307],[-1.803134,52.756181],[-1.807857,52.757398],[-1.811847,52.756438],[-1.81319,52.756572],[-1.814825,52.75562],[-1.816578,52.755713],[-1.817526,52.755191],[-1.818922,52.757083],[-1.819762,52.760838],[-1.822497,52.767305],[-1.823317,52.767035],[-1.82349,52.769145],[-1.826151,52.768848],[-1.828402,52.769059],[-1.826977,52.771434],[-1.827198,52.771714],[-1.82545,52.77266],[-1.823524,52.774327],[-1.821084,52.775467],[-1.820275,52.776426],[-1.820615,52.776982],[-1.818651,52.777791],[-1.815759,52.778056],[-1.812795,52.779026],[-1.809504,52.783143],[-1.81,52.783389],[-1.810156,52.785136],[-1.814181,52.790298],[-1.817578,52.793028],[-1.823301,52.794082],[-1.827553,52.793224],[-1.833696,52.79531],[-1.835107,52.795526],[-1.837259,52.795315],[-1.837924,52.795966],[-1.839375,52.796119],[-1.842357,52.795932],[-1.845142,52.793435],[-1.844376,52.790122],[-1.84495,52.787724],[-1.847004,52.786675],[-1.848582,52.785009],[-1.849422,52.785062],[-1.851675,52.783176],[-1.852408,52.783212],[-1.852727,52.782479],[-1.853735,52.782322],[-1.854208,52.783174],[-1.857215,52.783823],[-1.858064,52.784371],[-1.859792,52.784527],[-1.860274,52.784924],[-1.860064,52.7853],[-1.86058,52.785379],[-1.860484,52.786041],[-1.860992,52.785846],[-1.860826,52.786245],[-1.86139,52.786201],[-1.861747,52.786835],[-1.862428,52.787028],[-1.861815,52.788242],[-1.862578,52.789289],[-1.863608,52.789529],[-1.863714,52.789942],[-1.86448,52.789841],[-1.864866,52.790373],[-1.866585,52.790771],[-1.867088,52.791523],[-1.870466,52.792004],[-1.871709,52.793188],[-1.87238,52.793204],[-1.872439,52.793989],[-1.873811,52.794775],[-1.875882,52.795067],[-1.876707,52.795701],[-1.878268,52.796188],[-1.883004,52.79648],[-1.884269,52.797201],[-1.884667,52.79843],[-1.885548,52.798841],[-1.886734,52.798805],[-1.887264,52.799224],[-1.887687,52.7991],[-1.88983,52.800347],[-1.892058,52.799409],[-1.892608,52.79829],[-1.894034,52.797237],[-1.89725,52.795737],[-1.901943,52.795322],[-1.902818,52.79674],[-1.904632,52.797828],[-1.907656,52.79809],[-1.909261,52.799151],[-1.911368,52.799808],[-1.912835,52.800134],[-1.915342,52.799158],[-1.917796,52.800398],[-1.918538,52.800025],[-1.922626,52.801482],[-1.926098,52.801888],[-1.927034,52.802653],[-1.928955,52.803186],[-1.928864,52.803709],[-1.93054,52.803945],[-1.930487,52.804427],[-1.931204,52.804349],[-1.931282,52.804646],[-1.930653,52.804905],[-1.930781,52.805567],[-1.933028,52.805187],[-1.933311,52.805998],[-1.93621,52.805343],[-1.93584,52.80655],[-1.941777,52.8074],[-1.94887,52.807809],[-1.949814,52.80769],[-1.949906,52.807431],[-1.951327,52.807428],[-1.953757,52.812072],[-1.954862,52.81236],[-1.95494,52.812806],[-1.956328,52.81294],[-1.957225,52.813261],[-1.957004,52.813551],[-1.958323,52.813916],[-1.958249,52.814498],[-1.959692,52.815488],[-1.960355,52.817228],[-1.962019,52.818189],[-1.962585,52.819336],[-1.964414,52.820343],[-1.964447,52.821479],[-1.96558,52.821925],[-1.967884,52.824301],[-1.96729,52.825259],[-1.966634,52.825157],[-1.960839,52.827317],[-1.954435,52.832134],[-1.953005,52.832444],[-1.952122,52.834744],[-1.950752,52.83645],[-1.952225,52.837077],[-1.948692,52.840717],[-1.949129,52.841439],[-1.948471,52.842415],[-1.95044,52.84235],[-1.951092,52.843743],[-1.949642,52.844121],[-1.94918,52.844754],[-1.946875,52.845583],[-1.946234,52.846859],[-1.936703,52.848155],[-1.937411,52.848737],[-1.937358,52.849222],[-1.938474,52.849554],[-1.938127,52.850061],[-1.939142,52.85034],[-1.93853,52.850581],[-1.939186,52.851628],[-1.939886,52.851664],[-1.938741,52.852395],[-1.938995,52.852764],[-1.93788,52.852723],[-1.937998,52.853079],[-1.937414,52.853452],[-1.935589,52.853519],[-1.935238,52.853293],[-1.934562,52.853569],[-1.933997,52.853155],[-1.93465,52.852991],[-1.933982,52.852753],[-1.933297,52.8541],[-1.934675,52.85721],[-1.935476,52.857863],[-1.937002,52.858128],[-1.937591,52.858762],[-1.936331,52.859437],[-1.935972,52.860883],[-1.936603,52.861547],[-1.935867,52.862107],[-1.936732,52.862792],[-1.935717,52.863123],[-1.93553,52.863765],[-1.936074,52.864027],[-1.936886,52.863743],[-1.937027,52.864422],[-1.934795,52.865102],[-1.934631,52.865314],[-1.935306,52.865396],[-1.935209,52.865603],[-1.934187,52.8662],[-1.934724,52.866315],[-1.93466,52.867054],[-1.937112,52.867278],[-1.937337,52.867894],[-1.936884,52.868431],[-1.937286,52.868783],[-1.936653,52.869351],[-1.937077,52.869697],[-1.936012,52.870751],[-1.944969,52.869935],[-1.946536,52.869472],[-1.950054,52.869732],[-1.951435,52.870294],[-1.952512,52.868388],[-1.960685,52.870298],[-1.96429,52.872534],[-1.964998,52.873672],[-1.965932,52.874158],[-1.966393,52.873949],[-1.967262,52.874422],[-1.967531,52.87429],[-1.968451,52.874864],[-1.969952,52.881799],[-1.97017,52.885156],[-1.97212,52.887191],[-1.97348,52.887819],[-1.975978,52.889815],[-1.97966,52.893279],[-1.982011,52.894168],[-1.985951,52.89493],[-1.985942,52.895297],[-1.986864,52.894726],[-1.991279,52.894265],[-1.993941,52.893633],[-1.996646,52.892202],[-1.999704,52.892268],[-2.002729,52.896856],[-2.007406,52.899252],[-2.012422,52.900637],[-2.016969,52.902306],[-2.016521,52.903706],[-2.01275,52.906581],[-2.017461,52.90824],[-2.023903,52.909636],[-2.027202,52.911564],[-2.033016,52.913634],[-2.033162,52.914154],[-2.034057,52.914716],[-2.036934,52.915753],[-2.040638,52.916496],[-2.04062,52.915953],[-2.042711,52.915704],[-2.043541,52.917311],[-2.04156,52.917473],[-2.040653,52.916647],[-2.037981,52.917505],[-2.035092,52.917783],[-2.034878,52.918229],[-2.034336,52.918111],[-2.032978,52.921033],[-2.033854,52.922439],[-2.031847,52.922505],[-2.030335,52.923308],[-2.027902,52.923879],[-2.025725,52.92486],[-2.022857,52.924815],[-2.01952,52.924134],[-2.01728,52.924269],[-2.015603,52.925061],[-2.013296,52.925507],[-2.009149,52.927235],[-2.007554,52.927074],[-2.006226,52.927271],[-2.005049,52.927841],[-2.004206,52.927732],[-2.003656,52.928327],[-2.002545,52.928469],[-2.001523,52.929419],[-2.000788,52.929625],[-2.001953,52.930006],[-2.000983,52.931246],[-1.99365,52.933928],[-1.988335,52.93468],[-1.985316,52.935672],[-1.983957,52.934743],[-1.980157,52.933989],[-1.979694,52.934469],[-1.978909,52.934271],[-1.977406,52.934597],[-1.976295,52.935384],[-1.976653,52.935749],[-1.97627,52.938025],[-1.975322,52.93864],[-1.974021,52.938756],[-1.972104,52.940365],[-1.97101,52.940806],[-1.967924,52.940241],[-1.968697,52.940098],[-1.96851,52.939603],[-1.966779,52.939398],[-1.966607,52.939066],[-1.965224,52.93871],[-1.965294,52.938374],[-1.964423,52.938137],[-1.964482,52.937886],[-1.962325,52.936572],[-1.961398,52.936576],[-1.960911,52.936193],[-1.959882,52.936414],[-1.958989,52.936056],[-1.958891,52.935706],[-1.958023,52.935999],[-1.95773,52.935291],[-1.956632,52.935482],[-1.95692,52.935067],[-1.953772,52.935178],[-1.952648,52.934323],[-1.951375,52.934642],[-1.951665,52.933888],[-1.950578,52.933506],[-1.949811,52.933709],[-1.947639,52.933396],[-1.946613,52.933118],[-1.946697,52.932792],[-1.944527,52.932284],[-1.944407,52.932727],[-1.942615,52.932575],[-1.942031,52.931845],[-1.941107,52.932028],[-1.94051,52.931476],[-1.939481,52.931701],[-1.937002,52.931498],[-1.936744,52.93184],[-1.935177,52.931892],[-1.934365,52.931669],[-1.932209,52.933965],[-1.930475,52.937974],[-1.928195,52.940575],[-1.926893,52.941297],[-1.923527,52.940553],[-1.923523,52.942218],[-1.920441,52.941873],[-1.919132,52.941083],[-1.914182,52.940566],[-1.912583,52.939887],[-1.910186,52.939809],[-1.906214,52.944142],[-1.903208,52.945246],[-1.903908,52.946299],[-1.908812,52.948879],[-1.910934,52.949093],[-1.917776,52.951904],[-1.915921,52.953536],[-1.917485,52.955913],[-1.916978,52.957112],[-1.918425,52.957638],[-1.923299,52.957422],[-1.928031,52.959745],[-1.927235,52.960498],[-1.927389,52.960778],[-1.92582,52.961794],[-1.925467,52.963191],[-1.922181,52.963601],[-1.918778,52.965706],[-1.916869,52.965956],[-1.916254,52.965661],[-1.916272,52.965147],[-1.915035,52.96554],[-1.910967,52.962834],[-1.909668,52.962546],[-1.906173,52.96444],[-1.904899,52.965503],[-1.903329,52.965941],[-1.901165,52.969191],[-1.899796,52.97036],[-1.900481,52.970749],[-1.899,52.971221],[-1.899148,52.971698],[-1.895547,52.971822],[-1.895635,52.971332],[-1.893213,52.971176],[-1.893095,52.970783],[-1.888348,52.96938],[-1.888552,52.969937],[-1.887926,52.970565],[-1.883845,52.970584],[-1.879969,52.969929],[-1.879723,52.971159],[-1.877535,52.970971],[-1.877124,52.972377],[-1.872387,52.971602],[-1.870912,52.974435],[-1.867756,52.974087],[-1.864483,52.974467],[-1.862528,52.974261],[-1.861244,52.974889],[-1.861349,52.976078],[-1.860649,52.976451],[-1.860935,52.977347],[-1.859942,52.977705],[-1.859947,52.97796],[-1.861289,52.978425],[-1.861583,52.979254],[-1.864354,52.980804],[-1.865729,52.981113],[-1.864265,52.981297],[-1.864028,52.98163],[-1.864487,52.982051],[-1.865765,52.981991],[-1.865234,52.98249],[-1.865308,52.983055],[-1.868016,52.984803],[-1.8677,52.985317],[-1.869771,52.986584],[-1.870394,52.988986],[-1.870137,52.990889],[-1.869169,52.99114],[-1.869383,52.991554],[-1.871174,52.992783],[-1.873766,52.993903],[-1.87758,52.994055],[-1.878726,52.993704],[-1.880595,52.994602],[-1.88116,52.996136],[-1.878407,52.999723],[-1.879363,53.001504],[-1.878912,53.003335],[-1.878133,53.003841],[-1.877305,53.003576],[-1.876206,53.004468],[-1.876957,53.005969],[-1.879214,53.007336],[-1.883389,53.010889],[-1.885338,53.013311],[-1.884811,53.01547],[-1.886547,53.016276],[-1.886233,53.017476],[-1.885001,53.018508],[-1.884119,53.020097],[-1.882346,53.019407],[-1.880315,53.020988],[-1.879101,53.020703],[-1.877501,53.019807],[-1.876218,53.021572],[-1.872701,53.020671],[-1.871539,53.019988],[-1.862959,53.028691],[-1.863982,53.030094],[-1.860662,53.031465],[-1.856033,53.034097],[-1.854662,53.032955],[-1.851157,53.031425],[-1.847862,53.031322],[-1.84529,53.030337],[-1.844009,53.030444],[-1.842272,53.031148],[-1.839336,53.031647],[-1.836678,53.031702],[-1.833741,53.032505],[-1.83047,53.03296],[-1.830169,53.032301],[-1.825423,53.030742],[-1.824789,53.02996],[-1.821145,53.02874],[-1.819724,53.028721],[-1.818521,53.029182],[-1.81716,53.029104],[-1.814191,53.029759],[-1.811643,53.028484],[-1.808205,53.025924],[-1.807378,53.023836],[-1.806119,53.022573],[-1.80299,53.022292],[-1.80141,53.021572],[-1.800719,53.020126],[-1.800869,53.018968],[-1.799987,53.017313],[-1.799322,53.017249],[-1.799175,53.016582],[-1.798745,53.016681],[-1.79873,53.016391],[-1.797721,53.016005],[-1.797647,53.014687],[-1.796874,53.013583],[-1.796058,53.013217],[-1.794866,53.014484],[-1.794094,53.014734],[-1.793479,53.015928],[-1.794722,53.020424],[-1.792441,53.020615],[-1.792247,53.02263],[-1.790961,53.023011],[-1.790256,53.022373],[-1.787342,53.023597],[-1.786881,53.023497],[-1.784766,53.024554],[-1.785997,53.025881],[-1.78719,53.025484],[-1.788813,53.02543],[-1.790405,53.025585],[-1.791074,53.026335],[-1.791561,53.027227],[-1.78808,53.02886],[-1.787882,53.029848],[-1.788254,53.030305],[-1.790893,53.029527],[-1.793548,53.032418],[-1.79338,53.033398],[-1.793915,53.033763],[-1.793689,53.036672],[-1.794123,53.038552],[-1.794805,53.03933],[-1.790949,53.038366],[-1.789971,53.041059],[-1.790754,53.041858],[-1.790216,53.042929],[-1.781102,53.045999],[-1.780163,53.044758]]]}}]}