{"type":"FeatureCollection","features":[{"type":"Feature","properties":{"slug":"east-lindsey","gss_code":"E07000137","name":"East Lindsey"},"geometry":{"type":"MultiPolygon","coordinates":[[[[0.03426,53.519772],[0.035338,53.51991],[0.034374,53.519026],[0.033737,53.519038],[0.03427,53.518898],[0.031383,53.517434],[0.030921,53.518054],[0.031303,53.5189],[0.033065,53.519487],[0.032894,53.519978],[0.034103,53.520868],[0.034991,53.520916],[0.035569,53.520182],[0.03426,53.519772]]],[[[0.044786,53.522672],[0.044958,53.522941],[0.045368,53.522852],[0.053846,53.519734],[0.055416,53.519422],[0.055259,53.519651],[0.056071,53.519698],[0.061101,53.518993],[0.068561,53.518678],[0.068759,53.518405],[0.072507,53.51797],[0.073202,53.517228],[0.072743,53.516749],[0.073406,53.516527],[0.070853,53.516473],[0.07066,53.515184],[0.072972,53.514301],[0.075245,53.513919],[0.076557,53.513173],[0.078515,53.513137],[0.0796,53.513481],[0.07952,53.51431],[0.081039,53.515439],[0.079491,53.516636],[0.077548,53.517408],[0.077759,53.51782],[0.081355,53.517205],[0.088418,53.514907],[0.089881,53.513728],[0.090619,53.512002],[0.090575,53.510573],[0.089271,53.510147],[0.08952,53.510679],[0.088901,53.511595],[0.088061,53.511477],[0.087466,53.512651],[0.086037,53.513041],[0.085068,53.512766],[0.084642,53.510583],[0.082861,53.511248],[0.081722,53.510272],[0.08311,53.506937],[0.083373,53.504157],[0.083148,53.503705],[0.082615,53.503639],[0.084242,53.502467],[0.08456,53.502784],[0.085903,53.502022],[0.086854,53.501023],[0.085856,53.501553],[0.085189,53.499966],[0.084742,53.499862],[0.085262,53.49958],[0.085072,53.499334],[0.084494,53.499431],[0.085137,53.499233],[0.08643,53.499478],[0.085398,53.499133],[0.086547,53.499071],[0.086189,53.498289],[0.085314,53.498323],[0.0857,53.497868],[0.086271,53.498057],[0.08626,53.497583],[0.086621,53.498183],[0.086886,53.497857],[0.088368,53.497823],[0.089808,53.497314],[0.089572,53.495048],[0.091917,53.495499],[0.092671,53.495291],[0.092971,53.494672],[0.093309,53.495206],[0.093533,53.49444],[0.094155,53.49473],[0.093734,53.493753],[0.093445,53.494033],[0.09329,53.493765],[0.092223,53.493634],[0.091494,53.492937],[0.090508,53.492614],[0.090734,53.491912],[0.090666,53.492619],[0.091765,53.493003],[0.092364,53.493568],[0.09379,53.493523],[0.094118,53.494039],[0.095441,53.4939],[0.094953,53.49288],[0.095581,53.493803],[0.097213,53.493504],[0.097757,53.49464],[0.099357,53.495015],[0.099798,53.494827],[0.09911,53.494514],[0.099219,53.494012],[0.097884,53.493191],[0.098359,53.493331],[0.098516,53.493047],[0.098621,53.493546],[0.099411,53.49401],[0.099393,53.494557],[0.10017,53.494373],[0.099668,53.493666],[0.100355,53.494327],[0.100191,53.494517],[0.101003,53.494528],[0.101026,53.49397],[0.101288,53.494571],[0.101689,53.49291],[0.100857,53.492576],[0.100335,53.491761],[0.100331,53.492174],[0.099334,53.492551],[0.099088,53.492012],[0.097938,53.491713],[0.09913,53.491896],[0.099467,53.492466],[0.100156,53.492103],[0.09944,53.491427],[0.099329,53.490875],[0.097671,53.490239],[0.097339,53.489738],[0.095969,53.48976],[0.094542,53.488959],[0.095941,53.48967],[0.097489,53.489701],[0.097761,53.490147],[0.099532,53.490809],[0.09965,53.491345],[0.100561,53.491565],[0.100935,53.49236],[0.101837,53.492574],[0.101918,53.491943],[0.102786,53.491333],[0.101351,53.490465],[0.102771,53.491133],[0.103878,53.489954],[0.103178,53.489254],[0.103594,53.489252],[0.103388,53.48898],[0.10396,53.489634],[0.104452,53.489393],[0.103856,53.488487],[0.10454,53.489298],[0.102954,53.491578],[0.102154,53.492071],[0.102893,53.49221],[0.104895,53.488893],[0.105127,53.487971],[0.10074,53.484675],[0.103202,53.48619],[0.101857,53.485135],[0.101896,53.484596],[0.102364,53.484287],[0.103761,53.483888],[0.105351,53.482729],[0.107436,53.482873],[0.105479,53.482744],[0.103766,53.483998],[0.102168,53.484493],[0.101927,53.484914],[0.105308,53.4878],[0.105315,53.48882],[0.10571,53.48791],[0.105234,53.487479],[0.105031,53.486561],[0.105335,53.487093],[0.105885,53.487183],[0.106907,53.486622],[0.106052,53.487239],[0.105376,53.487257],[0.105872,53.487909],[0.105478,53.488854],[0.106779,53.488097],[0.108126,53.487787],[0.107449,53.487345],[0.108013,53.48682],[0.107883,53.4862],[0.108176,53.486742],[0.107602,53.487362],[0.108477,53.487658],[0.109347,53.486429],[0.111067,53.485932],[0.112594,53.48462],[0.113861,53.484138],[0.115121,53.484352],[0.113845,53.484207],[0.11278,53.484641],[0.11126,53.486003],[0.109511,53.486532],[0.108297,53.48804],[0.10651,53.48852],[0.10556,53.489358],[0.105491,53.490303],[0.106953,53.489427],[0.10657,53.489865],[0.107479,53.489958],[0.108156,53.489624],[0.107576,53.489985],[0.106732,53.489882],[0.105295,53.490404],[0.104023,53.49131],[0.103866,53.491957],[0.112302,53.488329],[0.112429,53.487258],[0.112553,53.48816],[0.114392,53.4877],[0.121294,53.483758],[0.116346,53.486633],[0.116546,53.486891],[0.11455,53.48772],[0.112444,53.488314],[0.110033,53.489374],[0.110885,53.489347],[0.109646,53.489547],[0.103974,53.492094],[0.103047,53.493033],[0.103046,53.49339],[0.103979,53.492593],[0.104859,53.492478],[0.104895,53.491963],[0.105596,53.492155],[0.106852,53.49105],[0.107627,53.491157],[0.109835,53.490424],[0.10759,53.491268],[0.106884,53.491171],[0.105621,53.492301],[0.105041,53.492099],[0.105032,53.492545],[0.10414,53.492679],[0.102746,53.493756],[0.102681,53.494374],[0.103884,53.494928],[0.104639,53.494084],[0.106632,53.493179],[0.107662,53.491376],[0.107502,53.492438],[0.106786,53.493217],[0.108487,53.49285],[0.109145,53.49215],[0.10919,53.492858],[0.107323,53.493214],[0.10477,53.494225],[0.104099,53.495373],[0.106851,53.495111],[0.107062,53.495475],[0.111242,53.493597],[0.10924,53.494837],[0.112374,53.494415],[0.11288,53.494621],[0.112426,53.495048],[0.110627,53.494988],[0.110642,53.495272],[0.111986,53.495396],[0.111256,53.495492],[0.111732,53.495796],[0.108458,53.498628],[0.108103,53.50185],[0.107598,53.502548],[0.10612,53.50338],[0.106193,53.504525],[0.105639,53.504586],[0.106211,53.505064],[0.108519,53.505172],[0.110768,53.504672],[0.110473,53.504534],[0.11259,53.503615],[0.112726,53.502796],[0.114069,53.5013],[0.113532,53.503379],[0.114804,53.503083],[0.114696,53.503384],[0.115748,53.503255],[0.121184,53.501592],[0.121285,53.501167],[0.12181,53.501356],[0.126086,53.500152],[0.128186,53.499109],[0.127853,53.49976],[0.129232,53.499279],[0.129499,53.497959],[0.129998,53.497787],[0.129578,53.497759],[0.130141,53.497449],[0.129527,53.497399],[0.129538,53.496761],[0.124384,53.49635],[0.123945,53.496098],[0.124022,53.495416],[0.124937,53.494699],[0.128437,53.4935],[0.132536,53.489909],[0.132314,53.48929],[0.133534,53.488329],[0.133457,53.487548],[0.135014,53.486488],[0.133937,53.485808],[0.13497,53.48588],[0.134268,53.485215],[0.134816,53.485254],[0.134576,53.484919],[0.13682,53.48479],[0.138294,53.485468],[0.139901,53.484488],[0.140834,53.484419],[0.141283,53.484695],[0.141178,53.485282],[0.142004,53.484489],[0.14321,53.485419],[0.142488,53.485811],[0.143453,53.486203],[0.143616,53.487489],[0.142253,53.491643],[0.139598,53.493367],[0.139678,53.493981],[0.139274,53.493706],[0.138648,53.494898],[0.140715,53.494797],[0.140978,53.494415],[0.141428,53.494622],[0.141658,53.493869],[0.142174,53.494239],[0.14442,53.49355],[0.143298,53.494567],[0.147901,53.492218],[0.148829,53.491462],[0.148212,53.491086],[0.149143,53.49129],[0.155781,53.486272],[0.159574,53.483006],[0.159546,53.482646],[0.160152,53.482543],[0.162694,53.480164],[0.167517,53.476763],[0.173633,53.471022],[0.173577,53.470675],[0.172991,53.470777],[0.170973,53.471932],[0.165327,53.473814],[0.166318,53.473385],[0.167031,53.472279],[0.166774,53.471407],[0.167189,53.470547],[0.169365,53.468373],[0.170238,53.465315],[0.171737,53.462241],[0.174728,53.458924],[0.175157,53.456029],[0.176536,53.454744],[0.177703,53.452759],[0.179417,53.451318],[0.179382,53.443441],[0.180603,53.4427],[0.184119,53.442717],[0.186493,53.442161],[0.188883,53.440827],[0.19021,53.439298],[0.190202,53.438034],[0.189322,53.437931],[0.188679,53.438272],[0.189197,53.438355],[0.188569,53.438479],[0.188357,53.438933],[0.189258,53.439249],[0.189039,53.439399],[0.187857,53.439107],[0.188337,53.439023],[0.188217,53.438801],[0.1874,53.439054],[0.188472,53.438342],[0.187588,53.438412],[0.187015,53.438893],[0.187421,53.43831],[0.1866,53.43884],[0.186252,53.438614],[0.186804,53.438332],[0.185355,53.438478],[0.185856,53.438278],[0.184802,53.43796],[0.184993,53.437811],[0.186001,53.438328],[0.18741,53.438263],[0.18795,53.438349],[0.188975,53.43784],[0.186853,53.437988],[0.184814,53.437089],[0.186015,53.437351],[0.180429,53.434128],[0.179105,53.434274],[0.175379,53.437126],[0.17943,53.433973],[0.180533,53.434116],[0.181729,53.434723],[0.185731,53.437135],[0.185389,53.436665],[0.186867,53.437909],[0.188959,53.437648],[0.188371,53.437211],[0.187514,53.437324],[0.188214,53.437052],[0.18793,53.436943],[0.186292,53.436159],[0.187568,53.436568],[0.188494,53.437191],[0.188078,53.436257],[0.189227,53.437692],[0.190129,53.437676],[0.189544,53.436822],[0.190078,53.43741],[0.191214,53.437427],[0.191478,53.436741],[0.190633,53.436862],[0.189717,53.43654],[0.191801,53.436672],[0.192516,53.436184],[0.190965,53.436342],[0.191259,53.436114],[0.190519,53.435867],[0.189411,53.436073],[0.189623,53.435931],[0.188963,53.435999],[0.187893,53.435788],[0.187488,53.435464],[0.18894,53.43597],[0.189328,53.435948],[0.188042,53.435315],[0.18928,53.43583],[0.190455,53.435783],[0.189606,53.435568],[0.190981,53.435851],[0.187702,53.434511],[0.190796,53.435558],[0.191742,53.436213],[0.192889,53.435997],[0.193436,53.435028],[0.1925,53.435418],[0.191719,53.435525],[0.191315,53.435476],[0.190163,53.434978],[0.192023,53.435479],[0.192468,53.435325],[0.191207,53.435078],[0.192709,53.435219],[0.192361,53.434914],[0.19287,53.435101],[0.193465,53.434879],[0.19304,53.434031],[0.190099,53.434179],[0.19251,53.433916],[0.191951,53.43374],[0.193101,53.433962],[0.1933,53.434221],[0.194063,53.434305],[0.193869,53.434073],[0.194421,53.433863],[0.193173,53.433748],[0.193586,53.433545],[0.193185,53.433229],[0.193749,53.433609],[0.193498,53.43301],[0.194064,53.433579],[0.194212,53.432665],[0.192564,53.432795],[0.19196,53.433144],[0.191027,53.433386],[0.188444,53.432764],[0.191342,53.433265],[0.192406,53.432805],[0.191676,53.432916],[0.190374,53.432734],[0.190327,53.432298],[0.190613,53.432741],[0.191776,53.43286],[0.190647,53.43226],[0.191992,53.432708],[0.191008,53.432094],[0.191156,53.431895],[0.192077,53.432692],[0.194594,53.432552],[0.193998,53.431655],[0.192346,53.431552],[0.19376,53.431585],[0.193616,53.431182],[0.194177,53.431669],[0.194383,53.431234],[0.195049,53.431204],[0.194389,53.430089],[0.191793,53.430687],[0.19419,53.430044],[0.193793,53.42931],[0.194108,53.429569],[0.194548,53.429423],[0.194243,53.429793],[0.195256,53.431198],[0.195562,53.429788],[0.1949,53.429625],[0.195608,53.429319],[0.195664,53.430669],[0.195215,53.431343],[0.195661,53.431423],[0.19688,53.430799],[0.197248,53.430966],[0.197433,53.430537],[0.196398,53.4296],[0.196694,53.428814],[0.196138,53.428425],[0.196627,53.42868],[0.196471,53.428007],[0.195393,53.427413],[0.194961,53.427455],[0.194577,53.427395],[0.193813,53.427091],[0.194976,53.427422],[0.195063,53.427002],[0.19631,53.427847],[0.196659,53.42755],[0.196938,53.428673],[0.197881,53.427529],[0.197406,53.42831],[0.198927,53.427582],[0.198502,53.427358],[0.198884,53.426805],[0.198446,53.426237],[0.197159,53.426798],[0.198295,53.426238],[0.198327,53.425887],[0.199026,53.426778],[0.198548,53.42738],[0.198996,53.427547],[0.197369,53.428389],[0.196563,53.429456],[0.197423,53.429669],[0.199712,53.429239],[0.204197,53.424882],[0.204666,53.423628],[0.204653,53.420644],[0.205483,53.419191],[0.207269,53.418218],[0.21105,53.417396],[0.192075,53.418287],[0.189582,53.418055],[0.190979,53.418077],[0.189483,53.417326],[0.191735,53.418097],[0.190431,53.417382],[0.192417,53.418079],[0.195626,53.417884],[0.193562,53.416157],[0.193863,53.416041],[0.195295,53.417415],[0.196479,53.417827],[0.20458,53.417394],[0.204288,53.416881],[0.204989,53.417358],[0.208311,53.417105],[0.207966,53.416859],[0.207217,53.416995],[0.206564,53.416457],[0.205626,53.416466],[0.204362,53.415874],[0.202435,53.416009],[0.201235,53.415681],[0.200507,53.415882],[0.201253,53.415635],[0.202494,53.415936],[0.204363,53.415779],[0.205709,53.416377],[0.206561,53.416319],[0.207417,53.416918],[0.207909,53.416733],[0.209906,53.416978],[0.213085,53.41661],[0.212772,53.416316],[0.211027,53.416263],[0.210652,53.416686],[0.210774,53.416183],[0.209621,53.415729],[0.208548,53.415617],[0.207751,53.416145],[0.207424,53.41542],[0.203864,53.415301],[0.205914,53.415172],[0.205191,53.414799],[0.204325,53.414951],[0.20359,53.414272],[0.204469,53.414923],[0.20522,53.414741],[0.206144,53.415287],[0.207584,53.415363],[0.207745,53.416022],[0.208412,53.415498],[0.20851,53.414432],[0.20677,53.412662],[0.20459,53.412219],[0.206642,53.412544],[0.205914,53.411752],[0.207646,53.413253],[0.207007,53.411845],[0.207609,53.411169],[0.206771,53.411023],[0.206383,53.410186],[0.206908,53.411013],[0.207731,53.411156],[0.207161,53.411881],[0.208837,53.414532],[0.208617,53.415341],[0.212145,53.416088],[0.210356,53.414273],[0.211409,53.411909],[0.21111,53.411679],[0.211647,53.411851],[0.211688,53.411064],[0.210123,53.411054],[0.209585,53.408951],[0.21024,53.411017],[0.211526,53.410793],[0.211455,53.409992],[0.211944,53.41103],[0.213601,53.410127],[0.214376,53.408633],[0.213766,53.410122],[0.212685,53.411132],[0.21189,53.411326],[0.212528,53.412272],[0.212279,53.412551],[0.21196,53.411989],[0.211387,53.412354],[0.210861,53.414301],[0.2113,53.415139],[0.212541,53.415892],[0.214267,53.41596],[0.214556,53.415587],[0.21342,53.415471],[0.211984,53.413945],[0.213954,53.415044],[0.213131,53.414508],[0.213235,53.414234],[0.21368,53.414309],[0.212763,53.413605],[0.213988,53.413736],[0.212197,53.412769],[0.21328,53.412642],[0.213485,53.411724],[0.214411,53.411225],[0.214172,53.411112],[0.21542,53.410797],[0.217772,53.409489],[0.220229,53.408872],[0.222229,53.407783],[0.222614,53.407933],[0.219777,53.410128],[0.218675,53.410284],[0.218754,53.410922],[0.219789,53.411083],[0.223606,53.408705],[0.224025,53.408901],[0.228693,53.405985],[0.227872,53.405915],[0.229031,53.40501],[0.228263,53.404482],[0.223808,53.406609],[0.226275,53.404044],[0.227125,53.402606],[0.227131,53.403051],[0.229974,53.400658],[0.229654,53.40235],[0.230298,53.401717],[0.230376,53.40235],[0.230752,53.402096],[0.230778,53.402654],[0.231185,53.402623],[0.234092,53.397435],[0.233871,53.39712],[0.233459,53.397317],[0.233214,53.397003],[0.232179,53.396966],[0.231004,53.398294],[0.228285,53.398881],[0.227668,53.398602],[0.228004,53.395678],[0.229415,53.395405],[0.232284,53.392835],[0.235483,53.391355],[0.236455,53.386607],[0.243066,53.377601],[0.251771,53.362486],[0.262451,53.346288],[0.263798,53.344384],[0.264934,53.343914],[0.264479,53.343903],[0.267483,53.339292],[0.268986,53.337932],[0.270629,53.334883],[0.271777,53.333609],[0.273759,53.33256],[0.281239,53.319323],[0.281223,53.318692],[0.285199,53.3127],[0.289115,53.30557],[0.29396,53.299934],[0.299893,53.294454],[0.308208,53.286004],[0.315583,53.277369],[0.316905,53.274761],[0.319466,53.271613],[0.326306,53.258213],[0.329719,53.253249],[0.333465,53.246243],[0.336481,53.241659],[0.338836,53.23516],[0.34016,53.233321],[0.339156,53.232596],[0.339625,53.232715],[0.339829,53.232287],[0.339103,53.22945],[0.340241,53.221035],[0.341835,53.217451],[0.347393,53.208359],[0.349199,53.203848],[0.350667,53.20165],[0.351131,53.20152],[0.351419,53.199334],[0.352352,53.197048],[0.354334,53.193458],[0.355628,53.191993],[0.354962,53.191778],[0.355528,53.185968],[0.35445,53.183979],[0.354131,53.178609],[0.3521,53.170156],[0.352503,53.168966],[0.351898,53.168118],[0.352229,53.16758],[0.351875,53.167648],[0.351669,53.167041],[0.351961,53.166215],[0.351623,53.166178],[0.351085,53.162891],[0.351314,53.15817],[0.350864,53.157858],[0.350923,53.160463],[0.350445,53.160342],[0.350681,53.15918],[0.350134,53.158804],[0.350371,53.157875],[0.349302,53.154242],[0.349602,53.152046],[0.34901,53.149193],[0.349539,53.144559],[0.349475,53.137644],[0.348369,53.135397],[0.348026,53.130645],[0.347382,53.12747],[0.346813,53.126651],[0.346946,53.124087],[0.349228,53.115657],[0.349234,53.112168],[0.348109,53.109002],[0.344912,53.105149],[0.341942,53.103853],[0.338948,53.101682],[0.337606,53.101426],[0.33991,53.102694],[0.341188,53.104096],[0.343418,53.105418],[0.345336,53.107542],[0.342558,53.10504],[0.340722,53.10403],[0.340324,53.104355],[0.340923,53.104713],[0.340929,53.105407],[0.341699,53.105602],[0.340897,53.105469],[0.340588,53.104593],[0.339967,53.105195],[0.343361,53.111564],[0.342964,53.112938],[0.341821,53.113077],[0.341462,53.113496],[0.342215,53.114971],[0.341773,53.116836],[0.342592,53.119376],[0.341692,53.116786],[0.34213,53.115031],[0.341332,53.113583],[0.341518,53.113099],[0.343014,53.112338],[0.34152,53.111971],[0.339722,53.112856],[0.341475,53.111946],[0.342909,53.112292],[0.343156,53.111671],[0.342311,53.11049],[0.342395,53.110826],[0.341659,53.111143],[0.340982,53.110039],[0.340802,53.109272],[0.341611,53.110903],[0.342331,53.110818],[0.341114,53.107643],[0.339453,53.105482],[0.339269,53.104556],[0.33995,53.103649],[0.336951,53.101198],[0.338179,53.100672],[0.338499,53.099663],[0.337436,53.094472],[0.335897,53.089573],[0.333968,53.08663],[0.33244,53.086685],[0.331051,53.087701],[0.331159,53.088331],[0.331264,53.087972],[0.331871,53.088257],[0.330589,53.089564],[0.33224,53.090058],[0.330736,53.089684],[0.33016,53.090461],[0.329023,53.090595],[0.32825,53.091112],[0.331459,53.092037],[0.333974,53.093291],[0.334949,53.0944],[0.33391,53.093338],[0.331385,53.092114],[0.327697,53.091076],[0.327321,53.091296],[0.326269,53.090357],[0.323684,53.091192],[0.326232,53.092416],[0.326897,53.093026],[0.326282,53.092507],[0.325889,53.092917],[0.326171,53.092487],[0.325758,53.092277],[0.32528,53.09298],[0.325411,53.093501],[0.325037,53.09308],[0.325673,53.092295],[0.324478,53.091755],[0.324525,53.093825],[0.324011,53.091466],[0.323478,53.091374],[0.322504,53.092015],[0.323057,53.092981],[0.322411,53.092044],[0.323147,53.09154],[0.322084,53.091633],[0.322141,53.09112],[0.320783,53.091634],[0.31939,53.091684],[0.318423,53.092318],[0.319171,53.092561],[0.319967,53.093339],[0.320703,53.093158],[0.320548,53.09245],[0.320776,53.092388],[0.321036,53.092499],[0.322088,53.09365],[0.322026,53.094546],[0.323194,53.096744],[0.322023,53.094702],[0.322026,53.093677],[0.320927,53.092489],[0.320724,53.092441],[0.32084,53.093361],[0.320217,53.093444],[0.320655,53.093811],[0.318694,53.092498],[0.317838,53.092662],[0.317267,53.093118],[0.318029,53.093542],[0.31914,53.093601],[0.317953,53.093668],[0.317268,53.093192],[0.316388,53.094035],[0.320411,53.095371],[0.320567,53.095609],[0.31942,53.100932],[0.318429,53.101947],[0.31661,53.102213],[0.316049,53.101607],[0.314927,53.101516],[0.31411,53.101974],[0.313847,53.103137],[0.313699,53.103295],[0.313166,53.10359],[0.312592,53.103731],[0.311537,53.103737],[0.310786,53.104311],[0.308721,53.105463],[0.30826,53.106916],[0.308547,53.107841],[0.307293,53.109941],[0.304177,53.111232],[0.307199,53.10992],[0.308392,53.107898],[0.308156,53.106661],[0.308729,53.105386],[0.31138,53.10376],[0.313555,53.103302],[0.313993,53.102004],[0.31464,53.101523],[0.315623,53.101436],[0.316944,53.101929],[0.318012,53.101951],[0.319273,53.100935],[0.31965,53.097671],[0.318674,53.097713],[0.319759,53.097524],[0.320344,53.095713],[0.320034,53.095319],[0.316549,53.094459],[0.316147,53.09386],[0.317475,53.092587],[0.315748,53.092388],[0.317566,53.092563],[0.319277,53.091437],[0.318864,53.091071],[0.317608,53.090891],[0.317083,53.091009],[0.316882,53.091591],[0.316866,53.091059],[0.314147,53.091773],[0.314765,53.092688],[0.314642,53.092938],[0.315323,53.093418],[0.314558,53.093019],[0.313979,53.093411],[0.311227,53.094404],[0.311111,53.094616],[0.311735,53.094912],[0.313685,53.094287],[0.312375,53.094802],[0.311741,53.09493],[0.311272,53.094977],[0.311679,53.095352],[0.311252,53.095147],[0.311223,53.094992],[0.31152,53.094877],[0.311092,53.094665],[0.311135,53.094413],[0.313747,53.093468],[0.314614,53.092851],[0.313854,53.091803],[0.311899,53.091591],[0.311897,53.091931],[0.311516,53.091595],[0.309898,53.0918],[0.309334,53.092858],[0.307992,53.093528],[0.30929,53.092872],[0.309746,53.091817],[0.30871,53.091747],[0.307849,53.092097],[0.30865,53.091726],[0.3057,53.091413],[0.304637,53.091673],[0.305525,53.091426],[0.305054,53.091288],[0.301665,53.091557],[0.30047,53.091323],[0.293958,53.08808],[0.297446,53.089748],[0.297436,53.089501],[0.300412,53.09124],[0.301535,53.091508],[0.304764,53.091193],[0.304888,53.090895],[0.304849,53.091174],[0.306613,53.091507],[0.309778,53.091717],[0.311329,53.091513],[0.311133,53.091175],[0.311523,53.091486],[0.31396,53.091655],[0.316603,53.090937],[0.316969,53.090525],[0.315952,53.089741],[0.315672,53.088739],[0.314853,53.088623],[0.314085,53.088915],[0.314535,53.088664],[0.314248,53.088517],[0.312488,53.088873],[0.309159,53.090249],[0.312347,53.088883],[0.309985,53.089255],[0.314202,53.088341],[0.312492,53.087991],[0.311327,53.087306],[0.310619,53.087428],[0.311009,53.087077],[0.308685,53.086562],[0.309233,53.086432],[0.308637,53.086279],[0.308195,53.086933],[0.30726,53.08719],[0.30821,53.08688],[0.308573,53.086248],[0.308816,53.086135],[0.308329,53.08608],[0.307228,53.086781],[0.307868,53.086259],[0.308381,53.086025],[0.308797,53.086024],[0.308664,53.085921],[0.30691,53.086218],[0.308305,53.085924],[0.30684,53.085388],[0.306565,53.085657],[0.305523,53.08638],[0.306598,53.085427],[0.305883,53.085517],[0.305702,53.085808],[0.304125,53.086627],[0.303385,53.087338],[0.303788,53.086707],[0.305852,53.085467],[0.306322,53.085375],[0.305208,53.085111],[0.304316,53.085358],[0.304653,53.085039],[0.302175,53.085903],[0.30407,53.085226],[0.303717,53.084971],[0.304215,53.085137],[0.304865,53.084749],[0.304592,53.084],[0.302792,53.083787],[0.302889,53.083386],[0.299463,53.08214],[0.296932,53.080728],[0.296513,53.081017],[0.296838,53.080441],[0.296239,53.080718],[0.296978,53.08034],[0.295148,53.080658],[0.294999,53.081063],[0.295121,53.080597],[0.296121,53.080399],[0.296017,53.079996],[0.2942,53.080608],[0.293262,53.080583],[0.29313,53.081348],[0.291613,53.082825],[0.293059,53.081338],[0.293227,53.080533],[0.29146,53.080065],[0.294144,53.080537],[0.295221,53.079651],[0.294242,53.078781],[0.292544,53.077997],[0.290313,53.077372],[0.289579,53.07755],[0.289334,53.076956],[0.289571,53.078189],[0.289164,53.076926],[0.288569,53.078069],[0.288996,53.076885],[0.288464,53.076101],[0.288205,53.077205],[0.288436,53.075736],[0.286893,53.076381],[0.286536,53.077457],[0.28489,53.077913],[0.286422,53.077417],[0.286544,53.0767],[0.287006,53.076213],[0.284127,53.076538],[0.283668,53.077434],[0.283776,53.076837],[0.284087,53.076529],[0.28741,53.076],[0.287768,53.075743],[0.287366,53.075497],[0.287476,53.074885],[0.285009,53.076066],[0.282522,53.076694],[0.281698,53.077899],[0.282152,53.077133],[0.281703,53.076837],[0.284981,53.076014],[0.28686,53.074906],[0.285569,53.075302],[0.283873,53.075442],[0.285623,53.075209],[0.286455,53.074802],[0.286143,53.074243],[0.278838,53.070709],[0.278195,53.070732],[0.278021,53.071159],[0.278815,53.071762],[0.278966,53.072175],[0.278725,53.071742],[0.27843,53.072413],[0.278625,53.071728],[0.277891,53.071186],[0.277632,53.070771],[0.277782,53.07157],[0.277355,53.071969],[0.277768,53.07151],[0.277459,53.070434],[0.276562,53.069618],[0.276892,53.070752],[0.276946,53.071468],[0.276833,53.070711],[0.276479,53.070897],[0.27643,53.069542],[0.275613,53.069212],[0.275839,53.068804],[0.275184,53.069291],[0.275618,53.069405],[0.275796,53.0698],[0.275105,53.071225],[0.275734,53.069691],[0.275547,53.069442],[0.275145,53.069435],[0.274074,53.070829],[0.275301,53.068949],[0.274863,53.068773],[0.274633,53.069205],[0.27462,53.068654],[0.273787,53.068663],[0.273403,53.070361],[0.273676,53.06867],[0.274335,53.068616],[0.27359,53.068465],[0.273244,53.068746],[0.273739,53.068284],[0.273168,53.06769],[0.27224,53.067399],[0.271794,53.067669],[0.272247,53.069128],[0.271748,53.068591],[0.271102,53.068956],[0.270711,53.069961],[0.271095,53.070396],[0.270654,53.069979],[0.271019,53.068947],[0.271853,53.068273],[0.271604,53.067646],[0.271732,53.067033],[0.270299,53.067035],[0.270586,53.067579],[0.269375,53.067489],[0.270272,53.067455],[0.27024,53.067026],[0.26794,53.067156],[0.268978,53.068817],[0.268981,53.069696],[0.267055,53.069421],[0.267136,53.069175],[0.268845,53.069455],[0.268902,53.068838],[0.268548,53.06817],[0.267151,53.068359],[0.268481,53.068091],[0.267716,53.067232],[0.266334,53.067396],[0.26773,53.067179],[0.268032,53.066887],[0.267717,53.066835],[0.268216,53.066712],[0.268034,53.06701],[0.269669,53.06693],[0.268921,53.066561],[0.269789,53.066936],[0.27193,53.066707],[0.272058,53.066393],[0.270745,53.066384],[0.270262,53.066103],[0.270828,53.065078],[0.268567,53.064162],[0.267714,53.064114],[0.267053,53.064893],[0.268452,53.065668],[0.267841,53.065482],[0.267615,53.065707],[0.266845,53.066039],[0.266731,53.066034],[0.266417,53.065789],[0.266807,53.06602],[0.267827,53.065352],[0.26698,53.064936],[0.266166,53.065518],[0.265096,53.065527],[0.2648,53.066111],[0.263504,53.066515],[0.263411,53.066816],[0.263426,53.066524],[0.264244,53.066251],[0.263033,53.066469],[0.264663,53.066152],[0.264959,53.065333],[0.26621,53.065431],[0.26655,53.065092],[0.265912,53.064895],[0.266809,53.064986],[0.267261,53.064293],[0.264118,53.064111],[0.262947,53.063877],[0.261755,53.064287],[0.262245,53.063911],[0.260786,53.063633],[0.260454,53.064158],[0.26041,53.063918],[0.259368,53.064264],[0.258801,53.064298],[0.258318,53.064268],[0.257194,53.063775],[0.258616,53.064257],[0.259453,53.064208],[0.260695,53.063544],[0.261343,53.063433],[0.2585,53.062068],[0.257145,53.060948],[0.258505,53.062036],[0.261365,53.063301],[0.261451,53.063687],[0.262397,53.063791],[0.262781,53.063031],[0.261984,53.062473],[0.262827,53.063009],[0.26259,53.063793],[0.264718,53.06409],[0.267042,53.064129],[0.268439,53.063634],[0.268795,53.062855],[0.25824,53.056451],[0.254783,53.05478],[0.252341,53.054003],[0.25181,53.054658],[0.250954,53.053476],[0.249971,53.054461],[0.249858,53.053422],[0.249471,53.053529],[0.248699,53.052675],[0.248825,53.052194],[0.247541,53.052299],[0.247336,53.05258],[0.248164,53.053656],[0.249107,53.053888],[0.248343,53.053722],[0.24832,53.054577],[0.248723,53.055595],[0.248975,53.055471],[0.249408,53.055645],[0.248972,53.055577],[0.248901,53.055842],[0.248677,53.055595],[0.248359,53.054708],[0.248016,53.054583],[0.248274,53.054359],[0.248049,53.054129],[0.247673,53.054184],[0.247933,53.054345],[0.247175,53.054236],[0.245012,53.05541],[0.242868,53.057177],[0.245127,53.055267],[0.246951,53.054245],[0.248147,53.053933],[0.247054,53.052498],[0.246769,53.052847],[0.246307,53.052973],[0.245471,53.053111],[0.246369,53.052937],[0.247509,53.052015],[0.246538,53.05196],[0.246085,53.052356],[0.246314,53.0521],[0.246555,53.051938],[0.247411,53.051909],[0.247583,53.052029],[0.247335,53.052192],[0.248309,53.052139],[0.248588,53.051883],[0.247322,53.051272],[0.246869,53.051276],[0.246549,53.051714],[0.246764,53.051288],[0.243968,53.051384],[0.243837,53.051909],[0.244267,53.051966],[0.244145,53.052178],[0.241105,53.054146],[0.244049,53.052117],[0.243688,53.051919],[0.243512,53.051593],[0.241738,53.051707],[0.240801,53.052783],[0.239563,53.053065],[0.239547,53.053375],[0.238409,53.053721],[0.237851,53.054374],[0.238338,53.053724],[0.239463,53.053398],[0.239515,53.053039],[0.240771,53.052731],[0.241299,53.05212],[0.240209,53.052131],[0.241421,53.051946],[0.241374,53.05146],[0.239561,53.051547],[0.241177,53.051408],[0.240756,53.051003],[0.240954,53.050532],[0.240315,53.050788],[0.240061,53.050755],[0.239441,53.050337],[0.238692,53.050336],[0.238483,53.049885],[0.238727,53.050308],[0.239419,53.050283],[0.240179,53.050725],[0.241015,53.050384],[0.240887,53.051116],[0.241851,53.051551],[0.248152,53.05104],[0.247783,53.050513],[0.244553,53.04862],[0.237559,53.045294],[0.236331,53.044986],[0.234551,53.045225],[0.233506,53.045012],[0.232193,53.044198],[0.23184,53.043393],[0.231373,53.043633],[0.231656,53.043907],[0.230437,53.044153],[0.231014,53.044504],[0.230855,53.044674],[0.230192,53.044828],[0.230103,53.04475],[0.229577,53.045181],[0.230055,53.04472],[0.230901,53.044549],[0.230317,53.04417],[0.231475,53.043825],[0.231303,53.043567],[0.231839,53.043265],[0.231481,53.043122],[0.229878,53.044031],[0.229118,53.045112],[0.229467,53.044371],[0.228648,53.044328],[0.229774,53.04411],[0.228572,53.043034],[0.227692,53.043103],[0.227656,53.044315],[0.226175,53.045618],[0.227194,53.046409],[0.226851,53.046708],[0.227106,53.046355],[0.225839,53.04593],[0.226259,53.045857],[0.226077,53.045652],[0.224557,53.045355],[0.226057,53.045518],[0.227377,53.044469],[0.227455,53.043177],[0.228186,53.042818],[0.227993,53.042276],[0.226358,53.041775],[0.22561,53.040936],[0.225128,53.040898],[0.224393,53.041757],[0.224849,53.042262],[0.224577,53.043525],[0.223582,53.044404],[0.222685,53.044488],[0.223538,53.044378],[0.22448,53.043567],[0.224779,53.042339],[0.224335,53.041696],[0.225198,53.040747],[0.223721,53.04028],[0.223425,53.040932],[0.223917,53.041641],[0.223401,53.041014],[0.223425,53.040143],[0.223132,53.040715],[0.22318,53.040102],[0.222504,53.039851],[0.222672,53.040252],[0.222378,53.039753],[0.221278,53.039324],[0.221485,53.038612],[0.22019,53.039567],[0.221088,53.041545],[0.220316,53.04019],[0.219835,53.040158],[0.220238,53.040077],[0.220117,53.039291],[0.21925,53.039492],[0.218698,53.041185],[0.219184,53.039521],[0.219509,53.039224],[0.220504,53.039175],[0.220983,53.038546],[0.219448,53.038615],[0.216965,53.037299],[0.216495,53.037676],[0.216284,53.039076],[0.216395,53.037818],[0.216614,53.03744],[0.216239,53.037004],[0.215581,53.03719],[0.21437,53.036741],[0.214494,53.036126],[0.2127,53.037923],[0.214147,53.03634],[0.213653,53.035963],[0.212886,53.03638],[0.212483,53.037018],[0.211396,53.03758],[0.211381,53.038031],[0.211345,53.037605],[0.212473,53.036938],[0.211746,53.037266],[0.210474,53.037512],[0.211778,53.037237],[0.213048,53.036163],[0.212022,53.036241],[0.211061,53.035705],[0.210485,53.035913],[0.210988,53.035658],[0.209675,53.035122],[0.209175,53.03455],[0.208513,53.035218],[0.20874,53.036266],[0.208464,53.035246],[0.208988,53.034595],[0.207843,53.034684],[0.208127,53.03481],[0.208273,53.03573],[0.208073,53.034791],[0.207465,53.034661],[0.207715,53.035145],[0.207427,53.034716],[0.207445,53.034644],[0.207794,53.034631],[0.207883,53.034496],[0.207196,53.034303],[0.206374,53.034474],[0.206693,53.034779],[0.206259,53.034453],[0.2054,53.034707],[0.204857,53.035235],[0.205371,53.034689],[0.206398,53.034374],[0.203355,53.03382],[0.201785,53.033244],[0.20151,53.0327],[0.20092,53.03309],[0.201198,53.03274],[0.199582,53.032639],[0.192887,53.037675],[0.170513,53.05012],[0.163892,53.054184],[0.163361,53.054374],[0.162757,53.053577],[0.16027,53.053514],[0.158342,53.053995],[0.156064,53.055922],[0.154809,53.055968],[0.154571,53.056396],[0.152404,53.056826],[0.152195,53.05725],[0.150221,53.05695],[0.147169,53.059978],[0.145023,53.063749],[0.14375,53.06915],[0.144338,53.069637],[0.141708,53.082366],[0.13975,53.084688],[0.139795,53.085227],[0.137098,53.086741],[0.131837,53.085302],[0.129234,53.08496],[0.124479,53.083396],[0.118336,53.080758],[0.096358,53.074443],[0.094544,53.074225],[0.092794,53.072662],[0.087488,53.071645],[0.08305,53.071681],[0.082758,53.070914],[0.048072,53.070704],[0.042022,53.070311],[0.036218,53.069417],[0.044214,53.040797],[0.045497,53.038083],[0.045988,53.035472],[0.046589,53.035445],[0.046095,53.032296],[0.045229,53.030067],[0.044661,53.03019],[0.035748,53.026803],[0.023148,53.01744],[0.020495,53.01695],[0.020482,53.016175],[0.017702,53.016024],[0.009684,53.012212],[0.000504,53.008852],[-0.004821,53.004865],[-0.006455,53.002774],[-0.007061,53.00112],[-0.010753,53.002017],[-0.014989,53.004734],[-0.01917,53.0043],[-0.0218,53.005334],[-0.023912,53.005685],[-0.032611,53.004817],[-0.051503,53.004902],[-0.055429,53.006757],[-0.063193,53.008958],[-0.063922,53.008226],[-0.114741,53.010258],[-0.118422,53.012017],[-0.138044,53.030042],[-0.164236,53.050081],[-0.189714,53.063139],[-0.19612,53.069557],[-0.19759,53.075059],[-0.198819,53.077521],[-0.19546,53.081415],[-0.197019,53.083807],[-0.200094,53.085366],[-0.201681,53.085755],[-0.205169,53.085893],[-0.207295,53.086426],[-0.214515,53.089622],[-0.217067,53.094175],[-0.219319,53.096251],[-0.219156,53.0978],[-0.220424,53.100547],[-0.220751,53.102587],[-0.219037,53.105054],[-0.22254,53.107258],[-0.224638,53.109284],[-0.224853,53.11146],[-0.223285,53.112577],[-0.223104,53.113371],[-0.223598,53.114436],[-0.226108,53.116047],[-0.226476,53.119957],[-0.225286,53.121808],[-0.226007,53.124605],[-0.233388,53.131345],[-0.234534,53.132025],[-0.23718,53.13287],[-0.238446,53.133736],[-0.239862,53.138597],[-0.246727,53.148079],[-0.251987,53.152317],[-0.252789,53.155194],[-0.25363,53.155919],[-0.256231,53.1565],[-0.257937,53.15743],[-0.260307,53.158013],[-0.261428,53.160035],[-0.264576,53.161894],[-0.265162,53.16433],[-0.26737,53.166077],[-0.268856,53.168425],[-0.2701,53.169358],[-0.274385,53.170651],[-0.275452,53.173336],[-0.276021,53.173761],[-0.278551,53.175069],[-0.279771,53.17429],[-0.281181,53.173901],[-0.283174,53.175835],[-0.282799,53.17696],[-0.284959,53.177345],[-0.285329,53.178035],[-0.28965,53.179366],[-0.287998,53.184755],[-0.29193,53.190836],[-0.290932,53.194747],[-0.294719,53.201638],[-0.302263,53.210425],[-0.301088,53.213761],[-0.299471,53.215133],[-0.29273,53.2194],[-0.291954,53.219366],[-0.287563,53.221556],[-0.289124,53.222795],[-0.28375,53.224428],[-0.27982,53.226626],[-0.278895,53.227798],[-0.278713,53.228889],[-0.277205,53.23076],[-0.277288,53.231224],[-0.2765,53.231807],[-0.275961,53.233459],[-0.276223,53.234633],[-0.279346,53.238013],[-0.281488,53.238947],[-0.282472,53.240031],[-0.28178,53.241093],[-0.282713,53.243691],[-0.282544,53.246],[-0.281404,53.248619],[-0.280243,53.249765],[-0.287846,53.253058],[-0.290903,53.254766],[-0.28881,53.255578],[-0.287099,53.25755],[-0.293041,53.259386],[-0.291733,53.260994],[-0.296835,53.262183],[-0.300434,53.262088],[-0.300611,53.263115],[-0.29515,53.26315],[-0.290999,53.262493],[-0.289818,53.263989],[-0.294225,53.26431],[-0.297648,53.263873],[-0.300825,53.263974],[-0.300525,53.264696],[-0.29857,53.264993],[-0.298714,53.265747],[-0.299849,53.265503],[-0.300909,53.265732],[-0.30112,53.266448],[-0.300898,53.267248],[-0.300108,53.267314],[-0.299109,53.268612],[-0.300965,53.269768],[-0.303236,53.268463],[-0.304731,53.268722],[-0.30449,53.269119],[-0.30483,53.269319],[-0.302082,53.27341],[-0.301896,53.27534],[-0.303727,53.275367],[-0.311412,53.277038],[-0.314482,53.277312],[-0.316443,53.279472],[-0.31556,53.279622],[-0.314875,53.280269],[-0.315013,53.281282],[-0.313354,53.283152],[-0.314274,53.2852],[-0.311418,53.287704],[-0.313204,53.288902],[-0.314569,53.2904],[-0.314879,53.29145],[-0.314423,53.294038],[-0.316689,53.296547],[-0.317461,53.298251],[-0.30553,53.302001],[-0.300191,53.302888],[-0.296213,53.30276],[-0.295572,53.302982],[-0.2999,53.310544],[-0.30849,53.319105],[-0.309795,53.319132],[-0.310261,53.320003],[-0.308539,53.320448],[-0.30837,53.320753],[-0.30742,53.320815],[-0.301249,53.323913],[-0.301437,53.324235],[-0.300924,53.324341],[-0.300811,53.324785],[-0.300187,53.324669],[-0.299955,53.32522],[-0.298649,53.325633],[-0.299621,53.326716],[-0.297303,53.329699],[-0.29851,53.331059],[-0.293313,53.334477],[-0.285288,53.328343],[-0.278242,53.324436],[-0.27554,53.321841],[-0.271953,53.322218],[-0.27032,53.323136],[-0.269129,53.324997],[-0.267609,53.326036],[-0.265694,53.326643],[-0.264806,53.326478],[-0.255441,53.329955],[-0.249777,53.333611],[-0.254068,53.337996],[-0.255666,53.340472],[-0.255105,53.340509],[-0.255899,53.344142],[-0.25118,53.344717],[-0.250789,53.345465],[-0.245693,53.346704],[-0.244566,53.347414],[-0.243403,53.347331],[-0.242397,53.348418],[-0.240771,53.349083],[-0.235083,53.350512],[-0.233793,53.351109],[-0.231636,53.351398],[-0.230523,53.352187],[-0.230483,53.354561],[-0.227314,53.355045],[-0.225072,53.355949],[-0.223872,53.357339],[-0.222596,53.358005],[-0.220802,53.361732],[-0.219519,53.362446],[-0.218598,53.36383],[-0.215567,53.366586],[-0.210339,53.370139],[-0.204871,53.371886],[-0.206834,53.374263],[-0.215934,53.380544],[-0.216623,53.382036],[-0.223442,53.38587],[-0.227534,53.39254],[-0.228331,53.396063],[-0.229394,53.398058],[-0.224678,53.39961],[-0.223799,53.398926],[-0.221757,53.399706],[-0.219503,53.399515],[-0.218565,53.399822],[-0.216504,53.401586],[-0.218137,53.402634],[-0.218195,53.403229],[-0.214233,53.404892],[-0.213006,53.404336],[-0.206023,53.408435],[-0.208,53.409273],[-0.209975,53.411312],[-0.210204,53.412024],[-0.209589,53.413702],[-0.211723,53.415711],[-0.211717,53.418509],[-0.212684,53.420089],[-0.217064,53.424108],[-0.216795,53.425418],[-0.21485,53.42825],[-0.21283,53.429361],[-0.212057,53.428724],[-0.205042,53.430468],[-0.204837,53.430199],[-0.20228,53.430534],[-0.199971,53.431314],[-0.198698,53.431053],[-0.199052,53.43183],[-0.197416,53.4324],[-0.198295,53.433576],[-0.195137,53.434847],[-0.191072,53.434746],[-0.189276,53.435116],[-0.189114,53.435614],[-0.185203,53.437203],[-0.18373,53.438602],[-0.180542,53.440678],[-0.177147,53.438759],[-0.175181,53.438218],[-0.172132,53.438136],[-0.167873,53.438548],[-0.167123,53.437721],[-0.164419,53.438235],[-0.163439,53.437067],[-0.161763,53.437307],[-0.160984,53.43658],[-0.158964,53.437161],[-0.14164,53.434896],[-0.135527,53.436171],[-0.12765,53.435768],[-0.122786,53.437346],[-0.120778,53.435665],[-0.120344,53.433565],[-0.112079,53.43795],[-0.11057,53.440021],[-0.091714,53.447005],[-0.089752,53.447105],[-0.086947,53.449643],[-0.082209,53.451151],[-0.082978,53.452768],[-0.085828,53.455542],[-0.094983,53.461362],[-0.102922,53.465656],[-0.107821,53.469863],[-0.089804,53.477682],[-0.091287,53.478353],[-0.091096,53.478779],[-0.092714,53.47965],[-0.094127,53.481266],[-0.093235,53.481519],[-0.093682,53.482211],[-0.0922,53.482852],[-0.095488,53.485989],[-0.092908,53.486026],[-0.089819,53.485301],[-0.087367,53.485899],[-0.082695,53.488184],[-0.081905,53.487773],[-0.079907,53.488822],[-0.078249,53.488978],[-0.079066,53.48942],[-0.075262,53.489336],[-0.073394,53.495305],[-0.072985,53.498532],[-0.068672,53.511399],[-0.068415,53.513317],[-0.067485,53.514115],[-0.067626,53.51596],[-0.067096,53.516838],[-0.065045,53.51874],[-0.060545,53.519749],[-0.058038,53.519976],[-0.057704,53.51959],[-0.056644,53.519928],[-0.056115,53.519575],[-0.054914,53.51984],[-0.050434,53.519852],[-0.049885,53.519508],[-0.048915,53.519476],[-0.046614,53.520099],[-0.043861,53.518394],[-0.042369,53.51629],[-0.041635,53.516228],[-0.0396,53.513117],[-0.037931,53.51393],[-0.035439,53.514215],[-0.033106,53.515389],[-0.033253,53.516162],[-0.032785,53.5165],[-0.028639,53.517338],[-0.027364,53.517011],[-0.024792,53.517095],[-0.023968,53.51671],[-0.022474,53.517553],[-0.019548,53.517975],[-0.01743,53.515067],[-0.014579,53.515405],[-0.013511,53.516625],[-0.007435,53.516798],[0.005366,53.519675],[0.007619,53.520736],[0.009474,53.520958],[0.011945,53.522071],[0.011501,53.522466],[0.012453,53.523372],[0.017619,53.525512],[0.01927,53.523397],[0.020062,53.522992],[0.021495,53.523177],[0.023125,53.524054],[0.023806,53.523632],[0.022782,53.523207],[0.026003,53.523485],[0.026387,53.522838],[0.025944,53.522817],[0.025908,53.523428],[0.02442,53.522045],[0.023662,53.522015],[0.023366,53.52181],[0.02302,53.522021],[0.023417,53.521726],[0.024254,53.521874],[0.025312,53.522489],[0.025254,53.5218],[0.025591,53.52279],[0.026582,53.522713],[0.02676,53.523172],[0.028209,53.522733],[0.028184,53.52233],[0.026634,53.522027],[0.02848,53.522307],[0.027139,53.520693],[0.024906,53.520332],[0.023755,53.520666],[0.023085,53.520321],[0.023786,53.520607],[0.024954,53.520255],[0.02748,53.520524],[0.028817,53.52242],[0.028755,53.522972],[0.028096,53.523117],[0.028424,53.523194],[0.02884,53.523099],[0.029055,53.522574],[0.029337,53.52278],[0.032224,53.522327],[0.029306,53.52144],[0.029322,53.521161],[0.029825,53.521557],[0.030634,53.52166],[0.030915,53.521418],[0.030789,53.521675],[0.032002,53.521992],[0.031118,53.520627],[0.029089,53.520091],[0.030817,53.520532],[0.029549,53.519739],[0.031214,53.520545],[0.031447,53.521],[0.031578,53.520766],[0.032393,53.522096],[0.032823,53.521591],[0.032761,53.522243],[0.033515,53.522144],[0.034512,53.521214],[0.032816,53.520515],[0.033585,53.520573],[0.032903,53.520145],[0.030806,53.51974],[0.03038,53.51922],[0.029827,53.519156],[0.030233,53.519126],[0.030694,53.519279],[0.031478,53.519754],[0.032824,53.51986],[0.032835,53.519501],[0.03121,53.518953],[0.030803,53.51815],[0.028942,53.517983],[0.026262,53.518861],[0.024135,53.5191],[0.023549,53.518563],[0.021787,53.518116],[0.020563,53.518403],[0.021827,53.518091],[0.0236,53.518555],[0.024149,53.519029],[0.026165,53.518789],[0.02883,53.517848],[0.030662,53.518009],[0.030604,53.51749],[0.030947,53.517623],[0.031478,53.517264],[0.032409,53.517715],[0.0325,53.517232],[0.030541,53.516393],[0.027838,53.516126],[0.025829,53.516307],[0.026929,53.515999],[0.029332,53.516147],[0.0298,53.515215],[0.029584,53.516076],[0.031985,53.516751],[0.032829,53.517334],[0.032692,53.517934],[0.033418,53.518272],[0.034118,53.517207],[0.033051,53.516787],[0.033232,53.51614],[0.032629,53.516145],[0.032466,53.515782],[0.032739,53.516102],[0.033291,53.51607],[0.033477,53.516736],[0.034293,53.517207],[0.033756,53.518315],[0.035321,53.519181],[0.034978,53.518694],[0.035465,53.518188],[0.034738,53.517775],[0.034649,53.516133],[0.033781,53.514598],[0.034782,53.516109],[0.034919,53.517734],[0.035596,53.518098],[0.036845,53.516793],[0.036322,53.515834],[0.035458,53.515955],[0.034886,53.515728],[0.034452,53.515135],[0.034804,53.514772],[0.034556,53.51512],[0.034977,53.515701],[0.035557,53.515845],[0.035547,53.515426],[0.036392,53.515742],[0.037047,53.516698],[0.039219,53.51562],[0.037929,53.515076],[0.037358,53.514597],[0.038225,53.513335],[0.038046,53.512981],[0.038087,53.512057],[0.038492,53.51086],[0.037949,53.51052],[0.036921,53.51051],[0.03796,53.510467],[0.038586,53.510762],[0.039836,53.510406],[0.038536,53.511033],[0.038167,53.512974],[0.038666,53.513253],[0.037533,53.514557],[0.039536,53.51557],[0.042017,53.514452],[0.037977,53.516388],[0.0364,53.517603],[0.035737,53.518905],[0.036381,53.52048],[0.036048,53.521607],[0.036544,53.520834],[0.036203,53.518571],[0.03707,53.51723],[0.044119,53.513982],[0.043512,53.513496],[0.040909,53.513709],[0.038818,53.513146],[0.040609,53.510574],[0.040263,53.509556],[0.040698,53.507974],[0.041053,53.510586],[0.039222,53.51301],[0.041097,53.513437],[0.043723,53.513249],[0.044492,53.513713],[0.044425,53.514235],[0.044874,53.514068],[0.04459,53.513125],[0.042677,53.513089],[0.041269,53.5123],[0.042846,53.513038],[0.04478,53.513004],[0.045154,53.514098],[0.048729,53.51352],[0.045981,53.514006],[0.046693,53.514109],[0.052999,53.513809],[0.054096,53.51335],[0.056959,53.513464],[0.061089,53.512373],[0.057357,53.513497],[0.053969,53.513478],[0.053801,53.513759],[0.056299,53.514707],[0.053716,53.513821],[0.051945,53.513919],[0.050592,53.514489],[0.049967,53.514352],[0.049726,53.514647],[0.050522,53.515109],[0.04921,53.514649],[0.047636,53.515265],[0.046988,53.51516],[0.046681,53.51573],[0.043847,53.515547],[0.045034,53.516288],[0.043942,53.515714],[0.042241,53.515794],[0.041687,53.516138],[0.043049,53.516266],[0.04362,53.516636],[0.042933,53.516318],[0.041901,53.51646],[0.042769,53.516746],[0.041569,53.516386],[0.040816,53.51651],[0.042287,53.517241],[0.040622,53.516536],[0.039885,53.517057],[0.039602,53.518657],[0.038783,53.519092],[0.04273,53.51887],[0.038448,53.519279],[0.039927,53.51942],[0.040127,53.520065],[0.039605,53.520261],[0.040893,53.520141],[0.039227,53.52044],[0.039475,53.520717],[0.039095,53.521038],[0.039771,53.521372],[0.039235,53.521251],[0.038455,53.522437],[0.036413,53.523862],[0.028892,53.527549],[0.026625,53.529408],[0.026825,53.529708],[0.035455,53.527086],[0.040336,53.5247],[0.044298,53.523253],[0.044786,53.522672]],[[0.097709,53.491654],[0.098727,53.491394],[0.096353,53.490749],[0.098504,53.491184],[0.098994,53.491476],[0.098956,53.491611],[0.097938,53.491713],[0.097709,53.491654]],[[0.139712,53.494247],[0.139348,53.494367],[0.139678,53.493981],[0.139712,53.494247]],[[0.187467,53.437331],[0.186785,53.436881],[0.187514,53.437324],[0.187467,53.437331]],[[0.313978,53.094193],[0.314851,53.094334],[0.314629,53.09471],[0.314663,53.094313],[0.313685,53.094287],[0.313978,53.094193]],[[0.284585,53.078993],[0.285331,53.079482],[0.285632,53.080089],[0.285569,53.080093],[0.284491,53.078941],[0.284735,53.077964],[0.28489,53.077913],[0.284585,53.078993]],[[0.282789,53.080303],[0.281788,53.080104],[0.285569,53.080093],[0.282789,53.080303]],[[0.28235,53.076231],[0.280928,53.076141],[0.282402,53.076166],[0.283335,53.075532],[0.282406,53.075332],[0.283386,53.075507],[0.283873,53.075442],[0.28235,53.076231]],[[0.247915,53.054985],[0.247193,53.055297],[0.248016,53.054583],[0.247915,53.054985]],[[0.23062,53.045197],[0.230039,53.045474],[0.230275,53.045736],[0.230446,53.046269],[0.23018,53.045684],[0.229863,53.045899],[0.22999,53.045389],[0.230538,53.045131],[0.230192,53.044828],[0.23062,53.045197]]]]}}]}