{"type":"FeatureCollection","features":[{"type":"Feature","properties":{"slug":"eastleigh","gss_code":"E07000086","name":"Eastleigh"},"geometry":{"type":"MultiPolygon","coordinates":[[[[-1.262207,50.898762],[-1.26212,50.898859],[-1.262201,50.898765],[-1.262207,50.898762]]],[[[-1.262801,50.904468],[-1.263539,50.904978],[-1.262912,50.904619],[-1.262801,50.904468]]],[[[-1.268355,50.909524],[-1.268669,50.90964],[-1.268669,50.909661],[-1.268355,50.909524]]],[[[-1.26867,50.909824],[-1.26867,50.909848],[-1.268565,50.909914],[-1.26867,50.909824]]],[[[-1.268349,50.913144],[-1.268347,50.913148],[-1.268346,50.913145],[-1.268349,50.913144]]],[[[-1.267705,50.914429],[-1.267874,50.914657],[-1.267766,50.91488],[-1.267705,50.914429]]],[[[-1.389045,51.003643],[-1.384546,51.004269],[-1.381653,51.003436],[-1.369666,51.001627],[-1.368651,51.001366],[-1.367485,51.000399],[-1.36357,51.000076],[-1.359748,50.998671],[-1.356527,50.998395],[-1.356213,50.997767],[-1.354528,50.998442],[-1.353468,50.998159],[-1.353913,50.997085],[-1.351112,50.996735],[-1.351181,50.995352],[-1.350524,50.994622],[-1.349724,50.994406],[-1.349225,50.993268],[-1.346861,50.991066],[-1.345844,50.992577],[-1.343554,50.991968],[-1.343412,50.991254],[-1.342765,50.990889],[-1.345621,50.985543],[-1.346566,50.9814],[-1.344919,50.982549],[-1.345036,50.984073],[-1.344057,50.984862],[-1.342466,50.984942],[-1.3395,50.983919],[-1.337647,50.984303],[-1.335472,50.983507],[-1.333917,50.983356],[-1.330391,50.983748],[-1.329095,50.982104],[-1.32853,50.980596],[-1.327678,50.98012],[-1.323092,50.983893],[-1.323294,50.985871],[-1.322728,50.987548],[-1.319271,50.987137],[-1.316394,50.985125],[-1.315299,50.985139],[-1.313407,50.984563],[-1.312008,50.984719],[-1.301767,50.982743],[-1.295879,50.982827],[-1.29315,50.983714],[-1.290575,50.98287],[-1.290479,50.982301],[-1.295139,50.976127],[-1.295231,50.974622],[-1.293428,50.974145],[-1.284946,50.973524],[-1.28031,50.974392],[-1.276992,50.974356],[-1.275389,50.973885],[-1.27285,50.977084],[-1.272071,50.979098],[-1.267761,50.978629],[-1.266554,50.980157],[-1.262734,50.980154],[-1.25963,50.979221],[-1.258154,50.978342],[-1.260377,50.974361],[-1.265761,50.968877],[-1.268499,50.967524],[-1.269205,50.967578],[-1.269328,50.966424],[-1.270636,50.963875],[-1.271828,50.962608],[-1.276323,50.961892],[-1.276985,50.960938],[-1.282074,50.958612],[-1.283041,50.957705],[-1.283248,50.956307],[-1.285979,50.954336],[-1.287047,50.952925],[-1.288569,50.952146],[-1.289348,50.951285],[-1.290511,50.951268],[-1.291031,50.950858],[-1.29256,50.948634],[-1.291125,50.946845],[-1.288012,50.945441],[-1.286715,50.94272],[-1.286988,50.939618],[-1.285068,50.937363],[-1.284726,50.936379],[-1.282206,50.93655],[-1.281762,50.936247],[-1.280616,50.936626],[-1.279445,50.936401],[-1.278869,50.936656],[-1.276326,50.93584],[-1.275205,50.936012],[-1.273691,50.935703],[-1.272559,50.933992],[-1.270758,50.933505],[-1.270209,50.931663],[-1.268625,50.930789],[-1.268739,50.930493],[-1.267207,50.929343],[-1.26752,50.928802],[-1.2663,50.927047],[-1.266661,50.926852],[-1.265391,50.92649],[-1.265293,50.926187],[-1.264633,50.926181],[-1.264706,50.925412],[-1.265816,50.924789],[-1.265211,50.923872],[-1.265548,50.923173],[-1.264552,50.922864],[-1.26483,50.920894],[-1.264237,50.920502],[-1.26516,50.919854],[-1.265377,50.918391],[-1.266478,50.918043],[-1.267664,50.91695],[-1.267753,50.916519],[-1.266799,50.916459],[-1.267426,50.915656],[-1.267774,50.915678],[-1.268009,50.914712],[-1.267738,50.914121],[-1.268694,50.914084],[-1.268386,50.913251],[-1.26912,50.912905],[-1.268751,50.912086],[-1.26927,50.911628],[-1.26868,50.911355],[-1.268722,50.910678],[-1.269493,50.911193],[-1.270688,50.911273],[-1.269496,50.911106],[-1.268216,50.910282],[-1.26891,50.909841],[-1.268853,50.909568],[-1.267418,50.909058],[-1.266985,50.908203],[-1.265774,50.90828],[-1.265752,50.907818],[-1.266143,50.907866],[-1.26476,50.906828],[-1.26536,50.90613],[-1.264711,50.90526],[-1.262297,50.903429],[-1.261001,50.902861],[-1.260779,50.902207],[-1.262138,50.901368],[-1.262647,50.899846],[-1.264127,50.898884],[-1.265003,50.898784],[-1.2681,50.899402],[-1.271826,50.898748],[-1.273138,50.899095],[-1.27282,50.898657],[-1.275293,50.898723],[-1.279034,50.897327],[-1.280482,50.897489],[-1.280763,50.899421],[-1.280677,50.897154],[-1.286807,50.8966],[-1.287753,50.897062],[-1.287661,50.896492],[-1.288396,50.896612],[-1.288449,50.896297],[-1.289091,50.896178],[-1.289653,50.895455],[-1.289536,50.893482],[-1.28993,50.892647],[-1.290065,50.892917],[-1.290817,50.8925],[-1.293813,50.89245],[-1.294295,50.893003],[-1.294691,50.892935],[-1.294634,50.893087],[-1.295257,50.893606],[-1.296074,50.894093],[-1.295285,50.893562],[-1.295002,50.892785],[-1.293915,50.892301],[-1.292832,50.892219],[-1.295184,50.890247],[-1.295649,50.889282],[-1.296079,50.889294],[-1.29579,50.889087],[-1.296235,50.888593],[-1.296616,50.88875],[-1.29664,50.888402],[-1.297044,50.888366],[-1.2974,50.888517],[-1.297046,50.888687],[-1.297625,50.888606],[-1.297311,50.888229],[-1.297951,50.888035],[-1.297742,50.888454],[-1.298171,50.888571],[-1.299756,50.887233],[-1.301097,50.886781],[-1.301131,50.88658],[-1.30026,50.886962],[-1.300877,50.886606],[-1.300782,50.885835],[-1.301709,50.885248],[-1.301324,50.884958],[-1.303004,50.884607],[-1.30452,50.883506],[-1.304345,50.882916],[-1.305025,50.882882],[-1.304471,50.882681],[-1.304595,50.882119],[-1.30349,50.881277],[-1.300936,50.88011],[-1.300647,50.879636],[-1.301067,50.879565],[-1.300915,50.879882],[-1.301937,50.87979],[-1.302458,50.879406],[-1.302897,50.879644],[-1.302265,50.87976],[-1.302319,50.880015],[-1.303131,50.879912],[-1.303239,50.879617],[-1.303731,50.879833],[-1.303412,50.879374],[-1.304004,50.878872],[-1.303226,50.879245],[-1.303212,50.878883],[-1.303762,50.87853],[-1.304359,50.878789],[-1.30452,50.87853],[-1.30413,50.878636],[-1.30397,50.878271],[-1.303112,50.878623],[-1.304181,50.878041],[-1.305217,50.878425],[-1.304342,50.87792],[-1.30547,50.877855],[-1.305956,50.878348],[-1.30546,50.877731],[-1.306706,50.878205],[-1.307332,50.877882],[-1.30675,50.877953],[-1.306713,50.877721],[-1.307229,50.877566],[-1.3082,50.878014],[-1.307482,50.877543],[-1.308824,50.877297],[-1.309099,50.876983],[-1.310137,50.87722],[-1.310112,50.876814],[-1.310632,50.876936],[-1.311314,50.876354],[-1.312982,50.87641],[-1.31343,50.876054],[-1.312938,50.876033],[-1.312944,50.875704],[-1.313749,50.875636],[-1.31432,50.876047],[-1.314261,50.875783],[-1.314585,50.875835],[-1.313931,50.875398],[-1.314804,50.875398],[-1.314405,50.87532],[-1.314863,50.874898],[-1.314118,50.875142],[-1.313482,50.874827],[-1.314823,50.874772],[-1.314086,50.874733],[-1.314085,50.874487],[-1.314878,50.874491],[-1.314192,50.874289],[-1.314656,50.873816],[-1.314225,50.873601],[-1.314399,50.873086],[-1.314792,50.873329],[-1.315231,50.873157],[-1.315851,50.873863],[-1.315448,50.875568],[-1.31602,50.875092],[-1.316941,50.87612],[-1.316327,50.874448],[-1.317096,50.874242],[-1.31649,50.873992],[-1.316432,50.873167],[-1.315914,50.873121],[-1.315318,50.872391],[-1.314811,50.872382],[-1.314004,50.872503],[-1.313111,50.873133],[-1.312641,50.871836],[-1.313186,50.871807],[-1.31254,50.871529],[-1.311843,50.87006],[-1.309794,50.869681],[-1.30952,50.868996],[-1.309805,50.868173],[-1.310644,50.867813],[-1.310001,50.867752],[-1.310607,50.867047],[-1.312153,50.867096],[-1.31223,50.866806],[-1.311503,50.866567],[-1.310784,50.866667],[-1.311792,50.865681],[-1.312637,50.865799],[-1.311719,50.865515],[-1.312002,50.864993],[-1.31247,50.864909],[-1.31212,50.865444],[-1.3127,50.864957],[-1.313212,50.865074],[-1.312856,50.864854],[-1.313862,50.864731],[-1.313997,50.864],[-1.314488,50.863921],[-1.313879,50.863975],[-1.313733,50.864739],[-1.311865,50.864739],[-1.31281,50.8646],[-1.312031,50.864241],[-1.312894,50.862887],[-1.312898,50.861274],[-1.313493,50.859587],[-1.312895,50.859527],[-1.312906,50.858455],[-1.312393,50.857807],[-1.312765,50.85597],[-1.312408,50.855818],[-1.312915,50.855189],[-1.312653,50.85502],[-1.313862,50.855161],[-1.314516,50.853747],[-1.315211,50.853304],[-1.315639,50.853567],[-1.31522,50.853797],[-1.316091,50.853554],[-1.316531,50.85378],[-1.31631,50.853453],[-1.316706,50.853089],[-1.315885,50.853439],[-1.315132,50.853177],[-1.313956,50.853614],[-1.31241,50.852868],[-1.312333,50.85211],[-1.311504,50.851911],[-1.310202,50.850786],[-1.309816,50.849839],[-1.310267,50.849009],[-1.313056,50.848845],[-1.314653,50.850095],[-1.322288,50.852043],[-1.329362,50.856025],[-1.331928,50.857126],[-1.335222,50.859284],[-1.34006,50.863185],[-1.351328,50.869924],[-1.351813,50.869853],[-1.358561,50.875873],[-1.364952,50.879915],[-1.360136,50.884195],[-1.358238,50.885168],[-1.354934,50.88569],[-1.35103,50.886829],[-1.349383,50.88859],[-1.346943,50.889424],[-1.343324,50.891362],[-1.342038,50.893701],[-1.341459,50.894217],[-1.336143,50.895323],[-1.335093,50.896292],[-1.335051,50.897363],[-1.321978,50.900953],[-1.324024,50.90441],[-1.327876,50.904453],[-1.32753,50.904646],[-1.32802,50.905182],[-1.327704,50.905548],[-1.32872,50.90667],[-1.324639,50.908438],[-1.329043,50.913307],[-1.328588,50.91345],[-1.329006,50.914362],[-1.328573,50.914575],[-1.329816,50.914941],[-1.329822,50.915614],[-1.332689,50.918458],[-1.333357,50.919883],[-1.33531,50.920999],[-1.335993,50.920981],[-1.336635,50.920487],[-1.338498,50.921484],[-1.337733,50.922475],[-1.339488,50.923713],[-1.344504,50.922849],[-1.350133,50.925794],[-1.351138,50.926666],[-1.353133,50.926155],[-1.354907,50.928774],[-1.357933,50.930731],[-1.356965,50.93285],[-1.35277,50.935358],[-1.354577,50.936857],[-1.356628,50.937686],[-1.358998,50.937957],[-1.356953,50.939469],[-1.354568,50.940544],[-1.35469,50.941022],[-1.366918,50.946868],[-1.369819,50.947082],[-1.370973,50.946052],[-1.379892,50.947518],[-1.378506,50.950745],[-1.37781,50.950852],[-1.375692,50.952349],[-1.374034,50.953976],[-1.375697,50.954306],[-1.376437,50.955583],[-1.380643,50.956043],[-1.380274,50.95679],[-1.384478,50.956269],[-1.385579,50.9585],[-1.385286,50.959218],[-1.383574,50.960025],[-1.382945,50.960765],[-1.38373,50.961138],[-1.384523,50.960711],[-1.385278,50.961667],[-1.389955,50.963017],[-1.390553,50.963799],[-1.393957,50.964744],[-1.392746,50.967703],[-1.396466,50.968503],[-1.392387,50.976276],[-1.396381,50.977547],[-1.39596,50.978975],[-1.394418,50.97965],[-1.391053,50.982857],[-1.392416,50.985852],[-1.391427,50.986809],[-1.393831,50.988605],[-1.39563,50.989029],[-1.397157,50.990439],[-1.396817,50.990989],[-1.397401,50.991708],[-1.396948,50.992557],[-1.397734,50.992932],[-1.398205,50.994445],[-1.399643,50.994674],[-1.398961,50.996724],[-1.396471,50.998648],[-1.395158,50.999079],[-1.391933,50.999219],[-1.392975,51.004361],[-1.389045,51.003643]]]]}}]}