{"type":"FeatureCollection","features":[{"type":"Feature","properties":{"slug":"east-hertfordshire","gss_code":"E07000242","name":"East Hertfordshire"},"geometry":{"type":"Polygon","coordinates":[[[-0.010008,51.993325],[-0.003036,51.993446],[-0.003008,51.992636],[-0.0018,51.99265],[-0.001246,51.98956],[-0.002024,51.989442],[-0.001503,51.986977],[0.000249,51.983802],[0.002016,51.984241],[0.00247,51.983054],[0.003621,51.983145],[0.003475,51.983521],[0.005791,51.983755],[0.00701,51.984883],[0.008807,51.984795],[0.0092,51.983854],[0.009577,51.983829],[0.010089,51.982253],[0.012906,51.982475],[0.012722,51.98397],[0.015965,51.984149],[0.016211,51.983864],[0.023271,51.984371],[0.022648,51.988071],[0.02157,51.988944],[0.024955,51.987878],[0.026218,51.987984],[0.032269,51.987038],[0.033889,51.988717],[0.034448,51.988737],[0.035026,51.989629],[0.038346,51.988946],[0.037838,51.988461],[0.037756,51.986852],[0.038594,51.986863],[0.038541,51.9864],[0.041707,51.98655],[0.042325,51.987264],[0.044573,51.986944],[0.044172,51.986252],[0.04353,51.986029],[0.043307,51.985322],[0.043714,51.984807],[0.048385,51.984261],[0.048581,51.984567],[0.058428,51.981324],[0.064739,51.980443],[0.066907,51.979807],[0.069061,51.984043],[0.069445,51.982986],[0.071923,51.981547],[0.076845,51.980812],[0.083999,51.98137],[0.096461,51.984326],[0.098097,51.98234],[0.098288,51.980544],[0.097418,51.978847],[0.097845,51.97721],[0.099285,51.976518],[0.101523,51.976167],[0.107012,51.971818],[0.105551,51.970113],[0.104503,51.967732],[0.104757,51.967245],[0.104348,51.965999],[0.10561,51.963486],[0.106421,51.962625],[0.110606,51.960172],[0.111245,51.958994],[0.113759,51.957128],[0.114736,51.955836],[0.114925,51.954122],[0.116019,51.953067],[0.116778,51.951589],[0.118432,51.947261],[0.118187,51.940909],[0.118786,51.937581],[0.118633,51.933992],[0.121127,51.930331],[0.121831,51.92856],[0.12035,51.927151],[0.12027,51.926569],[0.12114,51.925265],[0.124451,51.924015],[0.12486,51.923539],[0.124258,51.921669],[0.122604,51.919192],[0.122922,51.91733],[0.122348,51.91585],[0.121765,51.911195],[0.12351,51.903083],[0.12277,51.900553],[0.123869,51.897473],[0.124784,51.892428],[0.123826,51.889304],[0.124761,51.884586],[0.127237,51.884968],[0.12762,51.883946],[0.129228,51.883929],[0.132368,51.884323],[0.13231,51.8846],[0.139584,51.885383],[0.139385,51.88734],[0.141257,51.887349],[0.141503,51.888196],[0.146163,51.887143],[0.146982,51.886699],[0.150431,51.888225],[0.156263,51.889757],[0.162206,51.892089],[0.163231,51.891548],[0.164643,51.891934],[0.165742,51.891197],[0.16899,51.891799],[0.167739,51.894137],[0.175388,51.894616],[0.179349,51.895554],[0.17987,51.895333],[0.180575,51.89389],[0.183665,51.893641],[0.183901,51.893367],[0.182889,51.891999],[0.182375,51.891912],[0.18224,51.890619],[0.179666,51.88978],[0.17818,51.888232],[0.177108,51.887522],[0.176039,51.887277],[0.177193,51.886857],[0.178003,51.885939],[0.1764,51.8855],[0.175488,51.884898],[0.176995,51.884428],[0.174917,51.882785],[0.177095,51.882044],[0.176677,51.881613],[0.177279,51.881021],[0.180392,51.880476],[0.181828,51.879625],[0.182938,51.878405],[0.185014,51.878388],[0.18617,51.876477],[0.188493,51.874828],[0.193727,51.873201],[0.192903,51.872278],[0.190898,51.871899],[0.193625,51.871642],[0.194284,51.869917],[0.194036,51.869624],[0.195614,51.868118],[0.19425,51.865778],[0.187091,51.864976],[0.187538,51.864194],[0.186372,51.863514],[0.18548,51.865156],[0.185014,51.864746],[0.18274,51.865095],[0.181994,51.86464],[0.182814,51.86356],[0.177913,51.863036],[0.174348,51.862065],[0.170468,51.861622],[0.172407,51.858015],[0.171215,51.857606],[0.171682,51.857157],[0.171192,51.857029],[0.171537,51.856619],[0.169463,51.856014],[0.173064,51.854281],[0.171199,51.852382],[0.173535,51.85137],[0.173398,51.84977],[0.17084,51.849711],[0.167142,51.850751],[0.16486,51.849671],[0.164774,51.847637],[0.165166,51.846934],[0.163117,51.844691],[0.161819,51.840753],[0.16158,51.835947],[0.160906,51.834052],[0.161915,51.833065],[0.161698,51.832134],[0.163381,51.831816],[0.165221,51.831903],[0.166123,51.830707],[0.165406,51.829545],[0.163013,51.828806],[0.161574,51.827601],[0.161209,51.825947],[0.161575,51.825255],[0.162236,51.825206],[0.16343,51.822748],[0.163554,51.822938],[0.166252,51.822154],[0.164669,51.81971],[0.164732,51.819241],[0.169305,51.818262],[0.170159,51.819297],[0.173022,51.818881],[0.173306,51.817542],[0.172583,51.816304],[0.170387,51.816562],[0.168005,51.81497],[0.167008,51.81328],[0.16226,51.814595],[0.158309,51.813517],[0.158699,51.812388],[0.158188,51.810069],[0.155324,51.807282],[0.155509,51.806462],[0.154074,51.80352],[0.15345,51.803026],[0.151124,51.802738],[0.150674,51.802386],[0.150454,51.800962],[0.151551,51.7992],[0.150767,51.79705],[0.148174,51.795953],[0.146141,51.796244],[0.144003,51.797205],[0.141452,51.797213],[0.140466,51.796478],[0.139346,51.796333],[0.13893,51.795747],[0.135857,51.795047],[0.132452,51.795853],[0.129168,51.795883],[0.128908,51.795306],[0.127335,51.794911],[0.125609,51.795157],[0.125433,51.7945],[0.123881,51.793681],[0.122044,51.791243],[0.12052,51.790176],[0.118707,51.790068],[0.115375,51.788704],[0.107321,51.78794],[0.103572,51.785091],[0.10216,51.784916],[0.101003,51.783955],[0.099255,51.783231],[0.09774,51.783242],[0.096923,51.783602],[0.095725,51.783406],[0.09256,51.784512],[0.091983,51.784432],[0.091868,51.784111],[0.091345,51.784287],[0.091275,51.783752],[0.090967,51.78407],[0.089014,51.784264],[0.08771,51.78406],[0.087197,51.783561],[0.086598,51.783769],[0.086222,51.783523],[0.085994,51.783817],[0.084618,51.783381],[0.082495,51.783498],[0.081771,51.783203],[0.081027,51.783219],[0.080691,51.783583],[0.079815,51.783368],[0.079691,51.782962],[0.077054,51.782472],[0.069831,51.783318],[0.068254,51.783939],[0.063684,51.783953],[0.060869,51.783527],[0.059729,51.782942],[0.057664,51.779674],[0.054907,51.778285],[0.053342,51.776858],[0.051748,51.776054],[0.046775,51.775319],[0.042323,51.775131],[0.040832,51.775517],[0.040416,51.775291],[0.035776,51.775687],[0.030834,51.775198],[0.026799,51.77418],[0.018137,51.769695],[0.018299,51.7689],[0.017907,51.769095],[0.017448,51.768733],[0.018044,51.767281],[0.01665,51.766988],[0.015999,51.765602],[0.014029,51.76438],[0.012082,51.764922],[0.01205,51.766126],[0.011131,51.766468],[0.010478,51.767301],[0.009196,51.767708],[0.008671,51.768545],[0.00731,51.769073],[0.00523,51.770923],[0.00416,51.772812],[0.002806,51.774025],[0.002005,51.77575],[0.005574,51.780069],[-0.012478,51.779136],[-0.012708,51.780505],[-0.018103,51.780524],[-0.018125,51.779662],[-0.01992,51.779716],[-0.019834,51.778958],[-0.021046,51.778684],[-0.019455,51.778404],[-0.019822,51.777188],[-0.019259,51.77713],[-0.01889,51.776592],[-0.017638,51.776711],[-0.020044,51.776207],[-0.019976,51.775581],[-0.021225,51.775069],[-0.0212,51.773922],[-0.021676,51.773535],[-0.023027,51.773504],[-0.024173,51.774107],[-0.026078,51.774333],[-0.025455,51.772112],[-0.028012,51.772149],[-0.028207,51.7714],[-0.030354,51.77155],[-0.032591,51.773677],[-0.033468,51.773704],[-0.034646,51.772816],[-0.037055,51.772675],[-0.038537,51.772107],[-0.038879,51.772576],[-0.044605,51.770234],[-0.045619,51.770231],[-0.046921,51.769165],[-0.047896,51.768813],[-0.048783,51.764918],[-0.048848,51.761346],[-0.050306,51.750922],[-0.049931,51.750901],[-0.050745,51.747001],[-0.050759,51.744178],[-0.052409,51.742345],[-0.055466,51.742536],[-0.055719,51.740866],[-0.055076,51.740792],[-0.055079,51.736987],[-0.058351,51.734701],[-0.062856,51.734512],[-0.065436,51.734733],[-0.069177,51.734272],[-0.081247,51.734392],[-0.088801,51.735314],[-0.098654,51.735946],[-0.096988,51.737695],[-0.095768,51.740674],[-0.092141,51.743209],[-0.096105,51.744411],[-0.101194,51.745133],[-0.102381,51.742808],[-0.105188,51.741558],[-0.108636,51.741788],[-0.112562,51.74156],[-0.116639,51.742147],[-0.120746,51.741678],[-0.123667,51.741726],[-0.125949,51.74129],[-0.128383,51.74142],[-0.128266,51.739212],[-0.135008,51.73891],[-0.138408,51.737276],[-0.138388,51.739025],[-0.139087,51.739986],[-0.139,51.742314],[-0.139653,51.744315],[-0.138591,51.747636],[-0.138633,51.750636],[-0.138159,51.751513],[-0.142678,51.754719],[-0.14378,51.757497],[-0.143694,51.758147],[-0.142894,51.758354],[-0.142716,51.76297],[-0.143452,51.767198],[-0.142615,51.769087],[-0.143415,51.773479],[-0.142444,51.773817],[-0.14194,51.773379],[-0.141441,51.773736],[-0.143269,51.774247],[-0.152443,51.780369],[-0.159129,51.786108],[-0.162472,51.787411],[-0.164559,51.789315],[-0.164019,51.789358],[-0.164825,51.790868],[-0.164523,51.792241],[-0.166704,51.792554],[-0.165277,51.793446],[-0.163976,51.794856],[-0.160329,51.796526],[-0.157669,51.796295],[-0.157406,51.798285],[-0.156006,51.799024],[-0.147972,51.79902],[-0.150227,51.79913],[-0.149997,51.801829],[-0.152723,51.802165],[-0.153959,51.803111],[-0.156599,51.804024],[-0.156607,51.804432],[-0.161398,51.805077],[-0.160016,51.807005],[-0.165944,51.809098],[-0.16846,51.809192],[-0.174012,51.810076],[-0.183598,51.815066],[-0.182292,51.817458],[-0.18126,51.817129],[-0.17969,51.819916],[-0.172731,51.824215],[-0.1713,51.827022],[-0.169468,51.828593],[-0.168432,51.831162],[-0.168354,51.832096],[-0.170106,51.834122],[-0.16981,51.834264],[-0.174214,51.836844],[-0.169869,51.838108],[-0.170028,51.838665],[-0.17146,51.838617],[-0.173505,51.839354],[-0.175536,51.838718],[-0.178528,51.841185],[-0.177516,51.841369],[-0.176802,51.841899],[-0.173404,51.839984],[-0.172542,51.83976],[-0.171996,51.84016],[-0.17,51.83912],[-0.168883,51.839989],[-0.168907,51.843444],[-0.167431,51.843675],[-0.16676,51.844177],[-0.167165,51.844556],[-0.167307,51.847197],[-0.166715,51.84773],[-0.166438,51.849402],[-0.169623,51.854073],[-0.171606,51.854467],[-0.170909,51.85548],[-0.172785,51.856588],[-0.169628,51.857232],[-0.169019,51.858108],[-0.169528,51.859297],[-0.164495,51.861833],[-0.166666,51.863573],[-0.16725,51.865541],[-0.167229,51.868201],[-0.170573,51.870398],[-0.170395,51.871146],[-0.171197,51.873594],[-0.173585,51.875331],[-0.158698,51.872153],[-0.157167,51.871481],[-0.148421,51.869268],[-0.146817,51.870572],[-0.148102,51.872038],[-0.149582,51.875158],[-0.151458,51.875736],[-0.152164,51.876375],[-0.152996,51.876192],[-0.156102,51.877591],[-0.155436,51.878874],[-0.15499,51.882542],[-0.151296,51.885393],[-0.151836,51.885781],[-0.152591,51.885493],[-0.155121,51.887078],[-0.157291,51.886577],[-0.157097,51.885842],[-0.159127,51.885143],[-0.160103,51.884427],[-0.161151,51.884972],[-0.157386,51.886661],[-0.157933,51.888681],[-0.155167,51.892242],[-0.156152,51.892566],[-0.156348,51.894201],[-0.154599,51.895994],[-0.153019,51.898998],[-0.155072,51.898784],[-0.155792,51.900363],[-0.158419,51.900792],[-0.159402,51.9006],[-0.159258,51.901023],[-0.160117,51.901066],[-0.159423,51.902818],[-0.159468,51.903785],[-0.156522,51.903231],[-0.155493,51.903667],[-0.157338,51.904757],[-0.157955,51.905837],[-0.156385,51.909007],[-0.156538,51.916235],[-0.159119,51.91898],[-0.162181,51.920341],[-0.159926,51.920194],[-0.160048,51.921292],[-0.154806,51.923983],[-0.155245,51.925531],[-0.152267,51.926484],[-0.154799,51.9296],[-0.151656,51.930859],[-0.150693,51.931844],[-0.148499,51.933131],[-0.145267,51.934055],[-0.14277,51.932437],[-0.138339,51.932988],[-0.130026,51.931423],[-0.124782,51.929301],[-0.119285,51.928283],[-0.119031,51.928693],[-0.119454,51.92896],[-0.119151,51.929483],[-0.119479,51.929819],[-0.119128,51.930622],[-0.120513,51.930983],[-0.11755,51.93425],[-0.116675,51.936176],[-0.118427,51.937033],[-0.120527,51.939829],[-0.120806,51.940815],[-0.120165,51.942188],[-0.117005,51.94204],[-0.115703,51.942493],[-0.110154,51.941901],[-0.107543,51.943919],[-0.107262,51.946326],[-0.106247,51.94878],[-0.107012,51.953959],[-0.104453,51.954241],[-0.10433,51.953989],[-0.098245,51.955148],[-0.097463,51.954439],[-0.094194,51.956011],[-0.092874,51.956482],[-0.092525,51.956238],[-0.088364,51.959552],[-0.088732,51.960003],[-0.087613,51.961729],[-0.085914,51.961673],[-0.080236,51.966017],[-0.08012,51.967231],[-0.07977,51.967306],[-0.079213,51.966482],[-0.077182,51.967196],[-0.077873,51.967655],[-0.07815,51.968643],[-0.077716,51.969093],[-0.075319,51.969541],[-0.074657,51.971164],[-0.070723,51.971293],[-0.0696,51.966337],[-0.068443,51.964426],[-0.067078,51.959694],[-0.06554,51.956845],[-0.063641,51.957177],[-0.062635,51.957715],[-0.058825,51.957752],[-0.057025,51.958442],[-0.051146,51.962609],[-0.045915,51.964771],[-0.042176,51.967686],[-0.04019,51.967701],[-0.038582,51.969122],[-0.038535,51.971417],[-0.040037,51.973009],[-0.040876,51.974961],[-0.043506,51.977358],[-0.045302,51.978073],[-0.047084,51.978127],[-0.048201,51.979449],[-0.047953,51.979737],[-0.037888,51.981676],[-0.032485,51.983458],[-0.030601,51.983789],[-0.031514,51.984878],[-0.029912,51.987302],[-0.026472,51.987369],[-0.025652,51.995154],[-0.023095,51.994962],[-0.023099,51.996159],[-0.023734,51.99717],[-0.013497,51.996375],[-0.010008,51.993325]]]}}]}