{"type":"FeatureCollection","features":[{"type":"Feature","properties":{"slug":"east-suffolk","gss_code":"E07000244","name":"East Suffolk"},"geometry":{"type":"MultiPolygon","coordinates":[[[[1.393709,51.997107],[1.394121,51.997215],[1.394391,51.996878],[1.394165,51.996726],[1.394674,51.996394],[1.393595,51.996767],[1.392273,51.996497],[1.393277,51.997731],[1.394036,51.998176],[1.394532,51.997814],[1.393709,51.997107]]],[[[1.365361,52.013771],[1.36605,52.012991],[1.365582,52.013102],[1.366114,52.012895],[1.366045,52.012622],[1.365547,52.012684],[1.366046,52.012194],[1.365571,52.011504],[1.365908,52.01131],[1.365257,52.01109],[1.365032,52.011292],[1.365186,52.011069],[1.364793,52.011203],[1.36407,52.010694],[1.364071,52.011743],[1.364751,52.011867],[1.36422,52.012163],[1.364558,52.012747],[1.364952,52.012571],[1.364552,52.013089],[1.365322,52.012927],[1.365165,52.013784],[1.36515,52.01316],[1.364548,52.013162],[1.365749,52.014838],[1.366086,52.01465],[1.366086,52.013821],[1.365361,52.013771]]],[[[1.36519,52.018471],[1.364782,52.018863],[1.365093,52.01942],[1.364565,52.019589],[1.364661,52.019853],[1.365336,52.019782],[1.36519,52.018471]]],[[[1.340212,52.035496],[1.340649,52.035714],[1.340671,52.035124],[1.340714,52.035662],[1.341143,52.035351],[1.340301,52.034447],[1.339787,52.034389],[1.339408,52.034772],[1.339866,52.034703],[1.340148,52.03516],[1.339871,52.035262],[1.339989,52.035002],[1.33935,52.034822],[1.339142,52.035244],[1.340552,52.035739],[1.340212,52.035496]]],[[[1.337357,52.033699],[1.337118,52.034013],[1.336651,52.033895],[1.336987,52.034201],[1.336944,52.036067],[1.337518,52.036157],[1.336996,52.036565],[1.337383,52.036763],[1.337812,52.037361],[1.337705,52.037581],[1.338021,52.037611],[1.338068,52.037804],[1.338568,52.037597],[1.337848,52.036282],[1.338012,52.035356],[1.337099,52.034863],[1.33747,52.034716],[1.337357,52.033699]]],[[[1.339451,52.038919],[1.338673,52.037815],[1.337573,52.038149],[1.336562,52.038101],[1.336439,52.03827],[1.33573,52.038129],[1.335707,52.038411],[1.33616,52.03832],[1.335718,52.038698],[1.336423,52.038989],[1.335929,52.039178],[1.337362,52.039494],[1.338834,52.040965],[1.339455,52.04071],[1.338947,52.039337],[1.339451,52.038919]]],[[[1.339696,52.040867],[1.338938,52.041109],[1.339121,52.042401],[1.34014,52.041525],[1.339696,52.040867]]],[[[1.342396,52.043696],[1.342888,52.043871],[1.342104,52.043342],[1.342564,52.043312],[1.343005,52.042843],[1.342434,52.042854],[1.343109,52.042435],[1.343713,52.042329],[1.343837,52.042826],[1.344435,52.043078],[1.344071,52.043474],[1.344728,52.043036],[1.345458,52.043045],[1.345533,52.042527],[1.345592,52.043086],[1.345964,52.042372],[1.346436,52.042685],[1.347257,52.042202],[1.346874,52.042069],[1.347712,52.04066],[1.347679,52.039653],[1.345971,52.038719],[1.346297,52.039472],[1.345897,52.03973],[1.345833,52.039003],[1.345332,52.039764],[1.345802,52.04019],[1.345211,52.03996],[1.345331,52.040937],[1.344899,52.040847],[1.34507,52.039927],[1.344553,52.039849],[1.345141,52.039861],[1.345868,52.038835],[1.344338,52.038546],[1.344148,52.039373],[1.345305,52.039164],[1.344856,52.039611],[1.34413,52.039413],[1.34349,52.039925],[1.343501,52.039673],[1.34304,52.040023],[1.342825,52.039796],[1.342233,52.040676],[1.341452,52.040751],[1.342094,52.040841],[1.341668,52.041263],[1.342724,52.041159],[1.342492,52.0417],[1.343342,52.041688],[1.342034,52.04274],[1.34183,52.042347],[1.341238,52.042788],[1.34117,52.04329],[1.341609,52.043275],[1.341028,52.043405],[1.341075,52.043911],[1.340514,52.044386],[1.341383,52.044052],[1.341411,52.044713],[1.341827,52.044323],[1.342506,52.04426],[1.342396,52.043696]]],[[[1.454352,52.043593],[1.453738,52.043186],[1.45286,52.04368],[1.451829,52.043436],[1.45135,52.044085],[1.454352,52.043593]]],[[[1.34673,52.049181],[1.347287,52.049255],[1.34736,52.048759],[1.348188,52.04854],[1.348111,52.048088],[1.347007,52.048829],[1.346309,52.048928],[1.346184,52.049438],[1.345566,52.049537],[1.346609,52.049599],[1.34673,52.049181]]],[[[1.344685,52.050771],[1.344446,52.051113],[1.344184,52.050247],[1.343747,52.050427],[1.344168,52.049757],[1.343071,52.051012],[1.343519,52.05064],[1.344318,52.05087],[1.343966,52.051498],[1.344395,52.051657],[1.345107,52.051286],[1.344685,52.050771]]],[[[1.331996,52.055082],[1.331965,52.056289],[1.33302,52.057472],[1.333573,52.057344],[1.332487,52.056594],[1.3327,52.055877],[1.331996,52.055082]]],[[[1.474695,52.054632],[1.473772,52.054875],[1.473681,52.055268],[1.475551,52.055666],[1.478629,52.058418],[1.479721,52.05891],[1.4817,52.059211],[1.484263,52.060831],[1.485384,52.060532],[1.484499,52.059998],[1.484163,52.059343],[1.478394,52.056719],[1.477309,52.056039],[1.477369,52.055691],[1.47567,52.054796],[1.474695,52.054632]]],[[[1.535405,52.078679],[1.538151,52.079002],[1.537909,52.077468],[1.536833,52.07645],[1.530036,52.074234],[1.523314,52.071615],[1.523635,52.072111],[1.523104,52.071539],[1.516651,52.068733],[1.517392,52.068976],[1.514941,52.067679],[1.512313,52.067658],[1.510159,52.066841],[1.504455,52.065682],[1.499976,52.065532],[1.499722,52.066158],[1.500964,52.065828],[1.504428,52.066404],[1.500954,52.065853],[1.499312,52.066486],[1.500475,52.068164],[1.501392,52.06847],[1.500825,52.068334],[1.500852,52.068545],[1.502939,52.069471],[1.506086,52.068042],[1.505389,52.068385],[1.506577,52.068131],[1.506426,52.067909],[1.507858,52.067308],[1.506651,52.067859],[1.506726,52.068084],[1.507791,52.067821],[1.510794,52.068008],[1.514201,52.069034],[1.514176,52.069596],[1.519171,52.073153],[1.52008,52.073427],[1.521148,52.074423],[1.520189,52.073604],[1.519833,52.073647],[1.522392,52.07662],[1.523291,52.076649],[1.522689,52.076658],[1.522627,52.076987],[1.524544,52.079776],[1.525961,52.080478],[1.527185,52.080517],[1.535405,52.078679]]],[[[1.348593,52.102824],[1.348182,52.10293],[1.349021,52.103559],[1.349159,52.103207],[1.348593,52.102824]]],[[[1.511412,52.154172],[1.510893,52.154415],[1.511715,52.155081],[1.512336,52.155002],[1.512135,52.15451],[1.511595,52.154524],[1.511805,52.154319],[1.511412,52.154172]]],[[[1.57056,52.151711],[1.568515,52.151684],[1.56803,52.152673],[1.568548,52.152642],[1.568726,52.153013],[1.568369,52.153203],[1.569321,52.155304],[1.571538,52.154586],[1.572975,52.152703],[1.57056,52.151711]]],[[[1.510818,52.160006],[1.511053,52.159433],[1.510239,52.15974],[1.510362,52.160219],[1.50989,52.159756],[1.50914,52.159917],[1.510001,52.160452],[1.510171,52.16106],[1.508661,52.162062],[1.509003,52.162188],[1.508784,52.162617],[1.509336,52.162693],[1.50946,52.162401],[1.510928,52.161828],[1.511942,52.161433],[1.51219,52.160791],[1.511624,52.160732],[1.510818,52.160006]]],[[[1.507029,52.162817],[1.508151,52.161021],[1.507697,52.159941],[1.508087,52.159298],[1.507596,52.159643],[1.507491,52.160084],[1.50802,52.160895],[1.507253,52.161667],[1.506935,52.162746],[1.504989,52.16348],[1.503718,52.163417],[1.505143,52.163512],[1.507029,52.162817]]],[[[1.509818,52.158173],[1.508401,52.157282],[1.507837,52.156199],[1.508987,52.153891],[1.507739,52.156162],[1.508279,52.157283],[1.509737,52.158139],[1.508087,52.159298],[1.509818,52.158173]]],[[[1.531007,52.16316],[1.530486,52.163176],[1.530885,52.16353],[1.531007,52.16316]]],[[[1.530109,52.163512],[1.530448,52.162963],[1.529392,52.162723],[1.528709,52.163483],[1.529111,52.163686],[1.529625,52.16334],[1.530109,52.163512]]],[[[1.616355,52.319297],[1.617151,52.31982],[1.6179,52.319753],[1.617335,52.319452],[1.61714,52.318682],[1.616245,52.318684],[1.615307,52.319437],[1.613447,52.319278],[1.611948,52.317917],[1.611018,52.317756],[1.611123,52.31895],[1.611549,52.319129],[1.610701,52.319296],[1.616624,52.31984],[1.616355,52.319297]]],[[[1.627828,52.323468],[1.627805,52.323854],[1.627357,52.323947],[1.630052,52.324732],[1.62894,52.325256],[1.62862,52.325942],[1.628988,52.326656],[1.630161,52.327352],[1.629108,52.32654],[1.628956,52.325816],[1.630619,52.324703],[1.627828,52.323468]]],[[[1.636229,52.331279],[1.637552,52.331564],[1.638715,52.330495],[1.637197,52.330237],[1.636962,52.328048],[1.636038,52.327938],[1.634433,52.329026],[1.633517,52.3291],[1.630322,52.327433],[1.63031,52.328721],[1.633691,52.329586],[1.635259,52.32923],[1.635748,52.328241],[1.636978,52.328597],[1.636455,52.329851],[1.637884,52.331005],[1.63745,52.331431],[1.636272,52.331215],[1.635586,52.331824],[1.634529,52.332014],[1.63348,52.331076],[1.634495,52.332284],[1.635311,52.33206],[1.636229,52.331279]]],[[[1.511979,52.462904],[1.512661,52.463086],[1.512085,52.462912],[1.511979,52.462904]]],[[[1.517292,52.463156],[1.517016,52.463247],[1.516934,52.463424],[1.517292,52.463156]]],[[[1.51645,52.463308],[1.514641,52.46347],[1.516121,52.463963],[1.51645,52.463308]]],[[[1.532752,52.467472],[1.531796,52.467799],[1.532276,52.46766],[1.532752,52.467472]]],[[[1.528037,52.468393],[1.528532,52.468452],[1.528752,52.468439],[1.528037,52.468393]]],[[[1.480032,52.471857],[1.480056,52.471865],[1.480615,52.471857],[1.480032,52.471857]]],[[[1.481632,52.471818],[1.481614,52.471843],[1.482127,52.471836],[1.481632,52.471818]]],[[[1.60127,52.472194],[1.601223,52.472208],[1.601279,52.472195],[1.60127,52.472194]]],[[[1.682159,52.474759],[1.683107,52.476117],[1.683994,52.475642],[1.683679,52.474449],[1.684294,52.475576],[1.686544,52.474421],[1.689149,52.473557],[1.688325,52.473088],[1.686917,52.473544],[1.685647,52.473528],[1.682004,52.47438],[1.681377,52.474828],[1.681821,52.476513],[1.682732,52.476185],[1.682159,52.474759]]],[[[1.673791,52.483394],[1.674124,52.483503],[1.673943,52.483417],[1.673791,52.483394]]],[[[1.689716,52.547095],[1.689621,52.546022],[1.690209,52.545025],[1.691365,52.544827],[1.69309,52.54509],[1.695967,52.544145],[1.698265,52.544293],[1.700155,52.545007],[1.702243,52.544588],[1.704014,52.543554],[1.704133,52.542048],[1.705584,52.539961],[1.707485,52.539675],[1.710113,52.537932],[1.716764,52.535475],[1.724364,52.533593],[1.726004,52.530642],[1.740234,52.532087],[1.748135,52.517645],[1.755718,52.500113],[1.758082,52.496185],[1.761214,52.487334],[1.761981,52.483635],[1.762821,52.48316],[1.762507,52.482903],[1.762826,52.481688],[1.763706,52.481647],[1.762873,52.48149],[1.763233,52.481201],[1.762116,52.480261],[1.761293,52.476453],[1.759749,52.473903],[1.75779,52.472361],[1.7567,52.472003],[1.756342,52.472022],[1.756445,52.472624],[1.755914,52.472775],[1.759038,52.474604],[1.759592,52.474529],[1.760621,52.475965],[1.760481,52.476273],[1.757665,52.476934],[1.756808,52.476141],[1.758379,52.475507],[1.758148,52.475001],[1.755729,52.475755],[1.754452,52.474182],[1.75528,52.473932],[1.755668,52.473345],[1.75502,52.47336],[1.754431,52.472913],[1.754937,52.473389],[1.751048,52.473637],[1.750702,52.473099],[1.752814,52.472885],[1.744964,52.473432],[1.742914,52.473241],[1.730891,52.475323],[1.730975,52.475979],[1.730645,52.475369],[1.727114,52.476285],[1.725104,52.47736],[1.721651,52.477618],[1.71818,52.476044],[1.717788,52.475469],[1.716319,52.475363],[1.715842,52.47489],[1.715203,52.474945],[1.715132,52.474582],[1.714615,52.474531],[1.714393,52.474943],[1.713773,52.475073],[1.71352,52.474714],[1.71217,52.475005],[1.710917,52.47488],[1.711423,52.474461],[1.710928,52.473479],[1.711685,52.473444],[1.712401,52.474225],[1.712752,52.47375],[1.71356,52.473668],[1.713726,52.473175],[1.715368,52.473054],[1.716148,52.473548],[1.716033,52.473034],[1.716859,52.472881],[1.717201,52.47321],[1.716903,52.473747],[1.719632,52.474908],[1.719304,52.47539],[1.721993,52.475708],[1.721184,52.475805],[1.722039,52.475971],[1.721428,52.476076],[1.721297,52.476649],[1.723159,52.476949],[1.724447,52.475906],[1.723265,52.475711],[1.723332,52.475392],[1.725647,52.475582],[1.725932,52.474756],[1.728092,52.474963],[1.728389,52.474429],[1.72973,52.474451],[1.730114,52.474055],[1.731408,52.474261],[1.73827,52.473049],[1.739121,52.472652],[1.739063,52.470919],[1.739715,52.470864],[1.739914,52.472243],[1.742358,52.472132],[1.744858,52.472662],[1.749576,52.472721],[1.75222,52.472547],[1.750514,52.472586],[1.750745,52.471774],[1.752438,52.471666],[1.752782,52.472491],[1.752485,52.472531],[1.752874,52.472521],[1.75313,52.471638],[1.756232,52.471486],[1.753149,52.471502],[1.752055,52.470622],[1.752724,52.471486],[1.752059,52.47156],[1.75068,52.471004],[1.749518,52.470009],[1.746548,52.466325],[1.741826,52.458967],[1.736144,52.451274],[1.734552,52.448001],[1.734114,52.447952],[1.732742,52.444861],[1.730436,52.436898],[1.733285,52.4344],[1.733149,52.427151],[1.732307,52.419346],[1.730038,52.405988],[1.728049,52.400818],[1.717303,52.384686],[1.713261,52.380073],[1.709822,52.375379],[1.707261,52.371539],[1.704905,52.366879],[1.702715,52.364957],[1.701031,52.362808],[1.698461,52.358207],[1.693581,52.352207],[1.689826,52.346011],[1.687443,52.339398],[1.686879,52.335046],[1.685659,52.331009],[1.682183,52.325196],[1.679863,52.322244],[1.677469,52.316573],[1.674868,52.313639],[1.67355,52.314025],[1.673502,52.314402],[1.669952,52.315968],[1.668049,52.316508],[1.662536,52.320286],[1.660288,52.322178],[1.65913,52.324151],[1.659592,52.324895],[1.658875,52.324216],[1.658478,52.324308],[1.658804,52.324984],[1.656222,52.324603],[1.657265,52.324378],[1.651667,52.324949],[1.64974,52.325687],[1.645014,52.329056],[1.640831,52.329659],[1.63906,52.330377],[1.639215,52.330686],[1.638895,52.330595],[1.638437,52.330997],[1.639074,52.330727],[1.638717,52.331211],[1.638134,52.331223],[1.637459,52.331747],[1.636245,52.331409],[1.635692,52.332058],[1.634594,52.33249],[1.633289,52.331309],[1.630858,52.332137],[1.62608,52.334576],[1.625783,52.334137],[1.627255,52.33375],[1.628474,52.332621],[1.630621,52.331444],[1.630983,52.331567],[1.630657,52.331247],[1.626117,52.330219],[1.623826,52.330194],[1.621037,52.329454],[1.622392,52.32961],[1.621112,52.329093],[1.620371,52.329545],[1.615972,52.327605],[1.614214,52.32744],[1.612439,52.326756],[1.612277,52.327183],[1.613132,52.324213],[1.611319,52.322429],[1.611561,52.321949],[1.610181,52.320411],[1.610662,52.319848],[1.615008,52.320222],[1.610578,52.319787],[1.609823,52.320757],[1.609564,52.320624],[1.609213,52.320977],[1.609016,52.320727],[1.609305,52.321474],[1.608208,52.323161],[1.607717,52.3232],[1.608236,52.32339],[1.606366,52.326054],[1.606034,52.328338],[1.604795,52.32905],[1.602074,52.329769],[1.600681,52.329902],[1.598882,52.329408],[1.59646,52.327956],[1.59739,52.328325],[1.596208,52.32687],[1.597383,52.323836],[1.597983,52.323734],[1.595145,52.323218],[1.59348,52.321954],[1.591674,52.3225],[1.591115,52.32134],[1.589692,52.321408],[1.588141,52.320137],[1.586357,52.319796],[1.585966,52.320567],[1.584606,52.320985],[1.582949,52.320842],[1.581326,52.321279],[1.579757,52.323938],[1.577031,52.326402],[1.573482,52.328647],[1.568973,52.330341],[1.562585,52.33176],[1.557652,52.332506],[1.568617,52.330313],[1.57323,52.328661],[1.575813,52.32715],[1.579741,52.323762],[1.580906,52.32152],[1.580529,52.321236],[1.583985,52.32067],[1.587587,52.319053],[1.589603,52.321092],[1.591001,52.32106],[1.59197,52.321896],[1.593844,52.321767],[1.595792,52.322969],[1.598392,52.323524],[1.598054,52.323378],[1.598532,52.323114],[1.598749,52.323671],[1.599135,52.322905],[1.598519,52.322615],[1.600249,52.321998],[1.598944,52.322608],[1.599246,52.322863],[1.600262,52.322424],[1.601969,52.320327],[1.602822,52.320215],[1.602568,52.319647],[1.603146,52.320217],[1.6033,52.319552],[1.603521,52.319903],[1.604324,52.319396],[1.604687,52.318959],[1.604372,52.317986],[1.605427,52.317523],[1.606481,52.31609],[1.608539,52.315501],[1.608375,52.316424],[1.608856,52.316767],[1.608379,52.318319],[1.608991,52.316857],[1.608516,52.316399],[1.608678,52.315918],[1.609114,52.316044],[1.608696,52.316115],[1.609055,52.31642],[1.609645,52.3165],[1.609747,52.316143],[1.613622,52.316604],[1.615351,52.316501],[1.61566,52.316242],[1.616605,52.316726],[1.617239,52.316459],[1.617761,52.317257],[1.619164,52.318111],[1.619791,52.319317],[1.623029,52.320626],[1.628811,52.322244],[1.628663,52.322891],[1.629787,52.322753],[1.630112,52.322131],[1.628789,52.3216],[1.629095,52.320965],[1.629905,52.32116],[1.629252,52.320905],[1.632215,52.321751],[1.629426,52.321082],[1.628878,52.321609],[1.630143,52.322104],[1.630244,52.32228],[1.63099,52.322241],[1.63124,52.32167],[1.631051,52.32226],[1.630229,52.322357],[1.62982,52.322772],[1.628632,52.322974],[1.629487,52.323695],[1.630613,52.323802],[1.631398,52.324327],[1.63129,52.325143],[1.629765,52.3258],[1.630044,52.326405],[1.63384,52.328654],[1.634827,52.327536],[1.636488,52.327341],[1.637457,52.327604],[1.638001,52.3283],[1.637807,52.329702],[1.638253,52.330045],[1.640691,52.32921],[1.645525,52.328243],[1.648349,52.325713],[1.649913,52.324918],[1.648365,52.325542],[1.64705,52.326655],[1.648183,52.325464],[1.650401,52.324508],[1.652038,52.324182],[1.650208,52.324797],[1.652905,52.324143],[1.65834,52.323779],[1.658943,52.323251],[1.659169,52.322191],[1.661817,52.319995],[1.666804,52.316293],[1.668445,52.315704],[1.666741,52.313656],[1.665698,52.313105],[1.667322,52.313123],[1.667636,52.313576],[1.666886,52.313423],[1.667401,52.313605],[1.667602,52.314185],[1.667837,52.313496],[1.668057,52.314028],[1.668539,52.313883],[1.667669,52.312875],[1.66804,52.312888],[1.668881,52.314128],[1.667871,52.314185],[1.667686,52.314449],[1.66881,52.315098],[1.669661,52.314814],[1.67047,52.315069],[1.672415,52.3141],[1.660652,52.307852],[1.649761,52.300336],[1.644192,52.295339],[1.641037,52.291024],[1.634469,52.279445],[1.631107,52.271299],[1.630231,52.267289],[1.628755,52.238692],[1.625976,52.230373],[1.624901,52.225474],[1.624341,52.215369],[1.622602,52.20472],[1.622543,52.192821],[1.623114,52.188538],[1.619625,52.182369],[1.612254,52.172953],[1.610119,52.169526],[1.606689,52.161449],[1.597182,52.135342],[1.595023,52.131012],[1.593582,52.126743],[1.590628,52.111874],[1.587674,52.102875],[1.582398,52.090775],[1.579701,52.087106],[1.574436,52.083696],[1.564891,52.079892],[1.490703,52.057795],[1.482166,52.054367],[1.465644,52.046391],[1.466829,52.047622],[1.468548,52.048891],[1.469101,52.048848],[1.470029,52.049799],[1.479528,52.05399],[1.484302,52.057327],[1.490772,52.060428],[1.499426,52.063083],[1.503588,52.063735],[1.512407,52.06628],[1.515417,52.066441],[1.519059,52.067518],[1.523032,52.069641],[1.527416,52.071477],[1.537437,52.074725],[1.54117,52.077584],[1.541666,52.077275],[1.541144,52.076813],[1.541254,52.076749],[1.542251,52.076613],[1.542092,52.076387],[1.542489,52.076688],[1.541289,52.076767],[1.541723,52.077294],[1.541214,52.077751],[1.543495,52.078996],[1.544139,52.077792],[1.543775,52.079112],[1.545172,52.079467],[1.544972,52.079134],[1.545337,52.078489],[1.548066,52.078141],[1.545416,52.078499],[1.545019,52.079093],[1.545366,52.079327],[1.54513,52.079634],[1.550163,52.081355],[1.556815,52.084845],[1.55945,52.085683],[1.562255,52.085838],[1.564559,52.087397],[1.565092,52.088624],[1.565001,52.089891],[1.565411,52.090204],[1.565732,52.089739],[1.565536,52.090278],[1.56715,52.090975],[1.570551,52.091503],[1.574195,52.091244],[1.573923,52.090736],[1.574299,52.091207],[1.575388,52.091103],[1.575218,52.090549],[1.575518,52.091091],[1.578332,52.090999],[1.580417,52.091294],[1.580393,52.090044],[1.579948,52.090486],[1.576216,52.090246],[1.575807,52.089546],[1.574256,52.089317],[1.57408,52.08865],[1.574739,52.087644],[1.580159,52.088519],[1.581495,52.090201],[1.581113,52.090594],[1.580594,52.089998],[1.580459,52.091401],[1.578388,52.091217],[1.578284,52.091413],[1.57963,52.091537],[1.579725,52.091571],[1.579187,52.092019],[1.578599,52.092089],[1.579637,52.091555],[1.577193,52.091391],[1.578137,52.091422],[1.578179,52.091115],[1.572356,52.091572],[1.575321,52.091968],[1.576226,52.093029],[1.578379,52.093441],[1.576126,52.093039],[1.575185,52.092007],[1.571915,52.091523],[1.570273,52.091733],[1.567756,52.091459],[1.564638,52.090026],[1.56407,52.087492],[1.562143,52.086189],[1.559055,52.085873],[1.556662,52.085111],[1.549295,52.081437],[1.54772,52.080932],[1.546998,52.081522],[1.547604,52.08083],[1.545526,52.080146],[1.544292,52.081377],[1.543698,52.081353],[1.54432,52.081286],[1.545234,52.080118],[1.541582,52.079182],[1.541596,52.083751],[1.539664,52.087223],[1.539589,52.088134],[1.540587,52.089449],[1.541977,52.090024],[1.545469,52.089445],[1.549956,52.08924],[1.554877,52.089877],[1.557315,52.090978],[1.562017,52.09478],[1.564964,52.096555],[1.567805,52.097881],[1.568733,52.098013],[1.568139,52.098747],[1.569946,52.100356],[1.570823,52.103041],[1.570182,52.104513],[1.570594,52.104625],[1.570086,52.1047],[1.568509,52.10766],[1.568745,52.109817],[1.570793,52.111547],[1.575367,52.112393],[1.577459,52.113287],[1.580678,52.115733],[1.581457,52.115698],[1.582303,52.116207],[1.582214,52.116605],[1.583458,52.117671],[1.586936,52.119784],[1.587981,52.121975],[1.588388,52.122002],[1.588783,52.122084],[1.588859,52.122153],[1.5886,52.122791],[1.58876,52.122106],[1.588094,52.122257],[1.588948,52.125907],[1.590017,52.12681],[1.58988,52.127347],[1.593353,52.129887],[1.594441,52.13216],[1.594751,52.135053],[1.595696,52.135363],[1.594857,52.135475],[1.59549,52.136996],[1.597221,52.136881],[1.595627,52.137061],[1.598128,52.139659],[1.598536,52.142212],[1.597479,52.142525],[1.598139,52.142601],[1.598255,52.143061],[1.598972,52.143279],[1.598246,52.14316],[1.597905,52.143878],[1.599193,52.143683],[1.597855,52.143997],[1.597738,52.143681],[1.597288,52.144218],[1.593663,52.144958],[1.593225,52.145559],[1.594949,52.145058],[1.593263,52.145596],[1.593148,52.145569],[1.59297,52.145195],[1.593262,52.145348],[1.593414,52.144953],[1.592304,52.14504],[1.589337,52.143688],[1.589365,52.144241],[1.589052,52.144418],[1.589252,52.143793],[1.58747,52.142886],[1.583632,52.142256],[1.580545,52.142511],[1.579961,52.14271],[1.580117,52.142954],[1.581935,52.142856],[1.581145,52.143002],[1.580097,52.143001],[1.579818,52.142859],[1.579793,52.143126],[1.579437,52.142859],[1.575378,52.14421],[1.573293,52.145463],[1.573412,52.145893],[1.573214,52.146416],[1.572636,52.146852],[1.573304,52.145793],[1.572989,52.145782],[1.571398,52.147752],[1.571672,52.147975],[1.571274,52.148005],[1.571885,52.14872],[1.576945,52.150144],[1.579086,52.15136],[1.580289,52.15299],[1.579902,52.154945],[1.578919,52.155755],[1.577377,52.155455],[1.578364,52.155958],[1.577874,52.156655],[1.575958,52.158],[1.571719,52.159762],[1.568288,52.159975],[1.566767,52.160378],[1.565067,52.159973],[1.563449,52.160401],[1.55872,52.158988],[1.555592,52.158709],[1.553474,52.161067],[1.554647,52.161386],[1.554304,52.160953],[1.554382,52.160891],[1.555032,52.160929],[1.554457,52.16093],[1.554887,52.161259],[1.556786,52.161438],[1.557684,52.16242],[1.555625,52.164551],[1.554279,52.165449],[1.553149,52.165459],[1.552753,52.166331],[1.551866,52.166747],[1.550864,52.165371],[1.551461,52.166067],[1.552185,52.165526],[1.553115,52.16538],[1.548944,52.164772],[1.53721,52.165295],[1.535505,52.165071],[1.534467,52.164379],[1.534295,52.164775],[1.534749,52.16504],[1.53425,52.165076],[1.533637,52.164583],[1.5342,52.164772],[1.53429,52.164378],[1.533388,52.164369],[1.534425,52.164281],[1.531182,52.163095],[1.531225,52.163669],[1.532151,52.163892],[1.531925,52.164065],[1.532647,52.164251],[1.532788,52.164608],[1.532497,52.164241],[1.531975,52.164183],[1.531798,52.163931],[1.531584,52.164378],[1.531548,52.163836],[1.530395,52.163348],[1.529884,52.163727],[1.530651,52.16398],[1.528968,52.165073],[1.530292,52.163912],[1.529767,52.163859],[1.529674,52.16339],[1.529103,52.163726],[1.528807,52.163631],[1.529015,52.163968],[1.528404,52.16396],[1.528557,52.164266],[1.528342,52.164063],[1.528361,52.163928],[1.528723,52.163754],[1.528271,52.163294],[1.528623,52.163452],[1.529285,52.162795],[1.528735,52.16267],[1.527866,52.1612],[1.525966,52.161145],[1.525251,52.161484],[1.524444,52.161546],[1.523606,52.161858],[1.523367,52.16278],[1.523558,52.161788],[1.523122,52.161672],[1.525277,52.161411],[1.525923,52.16106],[1.523846,52.160902],[1.519696,52.158925],[1.518975,52.158465],[1.518432,52.157341],[1.518725,52.158356],[1.518419,52.157753],[1.517769,52.157639],[1.517199,52.157961],[1.516857,52.158926],[1.517211,52.157818],[1.518093,52.157355],[1.516181,52.158316],[1.515657,52.1571],[1.515582,52.157748],[1.515449,52.157131],[1.512544,52.156995],[1.515469,52.157093],[1.513864,52.156406],[1.512985,52.156396],[1.513209,52.156039],[1.512267,52.156394],[1.512835,52.155848],[1.5124,52.155162],[1.512784,52.154637],[1.51273,52.154617],[1.512337,52.155107],[1.512553,52.155535],[1.512227,52.155129],[1.511862,52.155414],[1.511487,52.155106],[1.511392,52.155685],[1.511196,52.15507],[1.51003,52.156142],[1.510826,52.156427],[1.511423,52.156092],[1.511842,52.156442],[1.513065,52.15898],[1.512232,52.15872],[1.511818,52.159827],[1.51158,52.159602],[1.510951,52.159976],[1.511703,52.160237],[1.511791,52.160736],[1.512288,52.160762],[1.511966,52.161775],[1.511738,52.161576],[1.510928,52.161828],[1.511161,52.162719],[1.510766,52.161893],[1.509547,52.162481],[1.510178,52.16307],[1.509634,52.163218],[1.509018,52.1629],[1.509166,52.163609],[1.509596,52.163675],[1.509185,52.164174],[1.506191,52.164452],[1.504263,52.16425],[1.502999,52.163759],[1.502442,52.164808],[1.50184,52.165052],[1.499218,52.164505],[1.497933,52.164942],[1.49471,52.165223],[1.494682,52.164988],[1.499691,52.163877],[1.501512,52.16416],[1.502072,52.163359],[1.503584,52.163339],[1.501966,52.163334],[1.501418,52.164099],[1.500221,52.163782],[1.499248,52.163926],[1.498901,52.162907],[1.499677,52.162607],[1.498974,52.16268],[1.50138,52.162069],[1.501511,52.161764],[1.501596,52.162028],[1.499746,52.162631],[1.502384,52.162185],[1.50029,52.160983],[1.501245,52.161522],[1.500058,52.160639],[1.500058,52.160007],[1.501361,52.160545],[1.5017,52.160348],[1.501576,52.160545],[1.504282,52.158455],[1.504702,52.157566],[1.504163,52.157084],[1.503813,52.157153],[1.504583,52.156308],[1.50424,52.156418],[1.504326,52.155894],[1.505546,52.1556],[1.504334,52.153738],[1.503805,52.153687],[1.505159,52.153654],[1.504447,52.153823],[1.504948,52.154108],[1.505662,52.153578],[1.505555,52.153277],[1.505968,52.153539],[1.506277,52.153085],[1.506585,52.153299],[1.506359,52.153122],[1.508817,52.152162],[1.50926,52.152939],[1.509059,52.153823],[1.509368,52.153028],[1.509047,52.152161],[1.510632,52.15104],[1.512586,52.15068],[1.513083,52.151025],[1.513126,52.150742],[1.514406,52.150411],[1.517684,52.15009],[1.521541,52.150686],[1.522916,52.151348],[1.523852,52.150857],[1.523193,52.150641],[1.52347,52.150404],[1.524318,52.151168],[1.523935,52.150876],[1.523441,52.151446],[1.52441,52.152049],[1.524058,52.152094],[1.524027,52.152588],[1.524259,52.153133],[1.524161,52.152415],[1.524493,52.152475],[1.52478,52.153657],[1.524225,52.154095],[1.524646,52.154245],[1.524046,52.15431],[1.523933,52.155784],[1.525074,52.157216],[1.525758,52.156849],[1.526955,52.157006],[1.526987,52.156645],[1.526151,52.156609],[1.52702,52.156614],[1.527109,52.156961],[1.52799,52.156821],[1.528089,52.15652],[1.528961,52.156415],[1.528128,52.156607],[1.528873,52.157091],[1.529984,52.156516],[1.531372,52.156385],[1.532965,52.156671],[1.534161,52.157395],[1.537076,52.156345],[1.538302,52.156465],[1.539429,52.157029],[1.539823,52.156814],[1.539664,52.157329],[1.540302,52.157281],[1.540068,52.156157],[1.543747,52.155091],[1.542827,52.153558],[1.544853,52.152688],[1.546031,52.153057],[1.547038,52.152322],[1.549049,52.152214],[1.551439,52.150784],[1.553337,52.150206],[1.554442,52.150508],[1.554811,52.152514],[1.555979,52.153347],[1.557815,52.153632],[1.557752,52.15206],[1.558913,52.15181],[1.560155,52.152697],[1.561948,52.153002],[1.561871,52.153912],[1.56298,52.154851],[1.567718,52.156101],[1.56924,52.155346],[1.568557,52.153796],[1.568228,52.153409],[1.56783,52.153573],[1.568152,52.152839],[1.567908,52.152667],[1.568242,52.152074],[1.567705,52.15091],[1.568143,52.151641],[1.569947,52.151372],[1.568902,52.150378],[1.567803,52.150727],[1.568802,52.150301],[1.568303,52.148476],[1.569594,52.146408],[1.569484,52.146151],[1.569123,52.146421],[1.569524,52.145991],[1.569748,52.146218],[1.570278,52.145494],[1.569901,52.145454],[1.570427,52.145312],[1.571258,52.144056],[1.57401,52.142585],[1.573775,52.142277],[1.57447,52.14238],[1.574267,52.142177],[1.574214,52.141693],[1.573997,52.141594],[1.574143,52.141284],[1.575381,52.141374],[1.574558,52.141339],[1.574449,52.141625],[1.574268,52.141352],[1.574336,52.142163],[1.574886,52.142307],[1.580516,52.140754],[1.580194,52.140455],[1.580704,52.140717],[1.583683,52.140301],[1.582944,52.139746],[1.584071,52.139935],[1.583823,52.140272],[1.586265,52.140437],[1.586413,52.140257],[1.585925,52.140198],[1.586391,52.140103],[1.58686,52.140209],[1.586444,52.140475],[1.588098,52.140825],[1.587991,52.140448],[1.588544,52.140962],[1.588994,52.141047],[1.588878,52.140708],[1.589346,52.140898],[1.588986,52.140785],[1.589081,52.141104],[1.591875,52.141892],[1.592148,52.141797],[1.591219,52.141554],[1.59472,52.142162],[1.595544,52.141613],[1.595386,52.141066],[1.592329,52.139171],[1.590418,52.137496],[1.589659,52.136481],[1.589261,52.133713],[1.588623,52.135286],[1.589372,52.132164],[1.589111,52.131171],[1.587804,52.128968],[1.586522,52.128147],[1.584762,52.126266],[1.584182,52.12629],[1.584791,52.126135],[1.58392,52.124526],[1.584098,52.122741],[1.581896,52.119777],[1.576399,52.115884],[1.568391,52.113202],[1.566222,52.111811],[1.566,52.109996],[1.565278,52.108601],[1.564622,52.108433],[1.565142,52.107949],[1.565378,52.106509],[1.567091,52.102729],[1.566925,52.101559],[1.566045,52.100301],[1.557782,52.096077],[1.554781,52.093482],[1.552527,52.092108],[1.549373,52.091529],[1.546448,52.091877],[1.542148,52.091721],[1.540444,52.091343],[1.539327,52.09067],[1.538334,52.090618],[1.536747,52.089357],[1.535979,52.087649],[1.536873,52.084156],[1.537926,52.082147],[1.537901,52.081081],[1.534994,52.080564],[1.526746,52.081843],[1.524885,52.081768],[1.523405,52.081159],[1.521442,52.079743],[1.517407,52.074508],[1.515428,52.07274],[1.514956,52.072695],[1.515017,52.072329],[1.512534,52.070503],[1.510438,52.069564],[1.509293,52.069554],[1.506088,52.071007],[1.504114,52.07124],[1.504616,52.071477],[1.50462,52.071552],[1.501773,52.072488],[1.504507,52.071583],[1.504015,52.071259],[1.50443,52.071098],[1.503543,52.071059],[1.502105,52.071754],[1.499244,52.071971],[1.500452,52.072093],[1.494826,52.072089],[1.494533,52.072466],[1.495186,52.072606],[1.494145,52.07258],[1.49207,52.073219],[1.491269,52.074199],[1.491669,52.073335],[1.494258,52.072481],[1.494559,52.071985],[1.491789,52.07259],[1.49076,52.073414],[1.490332,52.074975],[1.490978,52.074817],[1.491026,52.07523],[1.49087,52.075021],[1.490341,52.07523],[1.491121,52.075456],[1.491695,52.077234],[1.491025,52.075516],[1.490375,52.075447],[1.491165,52.079304],[1.491713,52.079207],[1.492249,52.079288],[1.492218,52.07902],[1.492277,52.079251],[1.492254,52.079329],[1.492127,52.079342],[1.490849,52.079361],[1.491023,52.08032],[1.492429,52.081432],[1.49598,52.083165],[1.499086,52.086253],[1.498997,52.086509],[1.498301,52.08579],[1.498191,52.091314],[1.496974,52.092938],[1.494184,52.094948],[1.495842,52.096476],[1.496144,52.097451],[1.495738,52.098658],[1.494358,52.099577],[1.49376,52.101136],[1.493308,52.101548],[1.493069,52.101678],[1.492998,52.101376],[1.493707,52.100802],[1.49344,52.100484],[1.491989,52.101317],[1.492438,52.10194],[1.49183,52.101893],[1.491842,52.101388],[1.490435,52.102086],[1.492266,52.101033],[1.489993,52.102241],[1.488949,52.102379],[1.48899,52.102833],[1.488122,52.102322],[1.487676,52.102733],[1.48798,52.102174],[1.488633,52.102354],[1.48928,52.102103],[1.487993,52.101682],[1.489035,52.101822],[1.489662,52.101494],[1.489609,52.101011],[1.489121,52.101107],[1.489777,52.100841],[1.489653,52.100618],[1.489989,52.100594],[1.489775,52.101031],[1.490315,52.100842],[1.489775,52.101146],[1.489646,52.10166],[1.490229,52.101515],[1.489584,52.101945],[1.489956,52.102062],[1.49333,52.100282],[1.493688,52.099805],[1.49275,52.099873],[1.492657,52.100149],[1.491963,52.099812],[1.488977,52.099624],[1.487639,52.099073],[1.48713,52.099826],[1.488513,52.100254],[1.487951,52.100293],[1.487021,52.099815],[1.487446,52.098952],[1.486109,52.099177],[1.486178,52.099843],[1.487786,52.101456],[1.487799,52.101794],[1.486823,52.101998],[1.487353,52.10232],[1.487913,52.103675],[1.487219,52.104514],[1.487338,52.103271],[1.485987,52.103434],[1.487132,52.102974],[1.486863,52.102378],[1.484928,52.10289],[1.485369,52.103103],[1.485345,52.103839],[1.485988,52.103879],[1.486472,52.104288],[1.484919,52.103981],[1.485003,52.103636],[1.484604,52.10363],[1.48499,52.103155],[1.483976,52.103468],[1.484564,52.102956],[1.483589,52.103173],[1.483132,52.10379],[1.483534,52.104279],[1.485868,52.104603],[1.486869,52.105654],[1.486437,52.105862],[1.487028,52.106152],[1.486756,52.106889],[1.486906,52.10615],[1.486583,52.106077],[1.485442,52.10717],[1.485119,52.107883],[1.485502,52.107842],[1.485914,52.107968],[1.485571,52.108496],[1.485616,52.107935],[1.484612,52.108332],[1.484852,52.108915],[1.485955,52.108985],[1.486695,52.109403],[1.485608,52.110646],[1.486035,52.111571],[1.485431,52.111921],[1.485945,52.112318],[1.485684,52.112626],[1.486313,52.112813],[1.486564,52.11325],[1.486313,52.113778],[1.485702,52.113932],[1.483538,52.113583],[1.485617,52.11391],[1.486306,52.113755],[1.486506,52.113315],[1.486314,52.112869],[1.485632,52.112645],[1.485856,52.112275],[1.485371,52.111951],[1.485445,52.111714],[1.484896,52.111399],[1.483995,52.111592],[1.484228,52.112137],[1.483736,52.112237],[1.483129,52.112244],[1.484137,52.112148],[1.483937,52.111612],[1.483992,52.111564],[1.484878,52.111375],[1.485885,52.111584],[1.485446,52.11071],[1.486241,52.109683],[1.485837,52.109339],[1.484578,52.109532],[1.483904,52.10924],[1.484688,52.107433],[1.484473,52.107188],[1.483972,52.107484],[1.484714,52.106946],[1.483843,52.10665],[1.482622,52.106832],[1.483863,52.10657],[1.484886,52.106888],[1.485178,52.106167],[1.48365,52.106235],[1.483905,52.10597],[1.485416,52.106123],[1.485632,52.10547],[1.484833,52.104809],[1.482999,52.105046],[1.482589,52.105013],[1.48235,52.10538],[1.482396,52.104808],[1.48301,52.104992],[1.483414,52.104773],[1.482652,52.10436],[1.481475,52.10443],[1.482574,52.10421],[1.482453,52.10278],[1.482834,52.103043],[1.483451,52.10268],[1.482244,52.102421],[1.483577,52.102612],[1.485304,52.102006],[1.484379,52.102054],[1.485783,52.101748],[1.485518,52.101514],[1.484185,52.101679],[1.483477,52.101436],[1.483892,52.101193],[1.484229,52.101633],[1.485144,52.101529],[1.484648,52.101223],[1.485884,52.101522],[1.48464,52.100054],[1.484677,52.099412],[1.483634,52.098998],[1.483281,52.099304],[1.483304,52.099056],[1.483499,52.098881],[1.484659,52.099326],[1.485643,52.098488],[1.487315,52.098072],[1.490657,52.098203],[1.490472,52.097531],[1.490029,52.097462],[1.490529,52.097517],[1.490846,52.098158],[1.491835,52.098204],[1.49116,52.097473],[1.491667,52.096895],[1.491219,52.097459],[1.491981,52.098113],[1.493232,52.097817],[1.493503,52.097077],[1.492771,52.09563],[1.49286,52.094811],[1.495541,52.091817],[1.495229,52.091526],[1.495643,52.091628],[1.495818,52.091365],[1.496136,52.090237],[1.49572,52.090012],[1.496154,52.090096],[1.496551,52.088683],[1.496089,52.088693],[1.496587,52.088426],[1.496155,52.088371],[1.496666,52.088242],[1.496812,52.087482],[1.496425,52.087265],[1.496839,52.08731],[1.496411,52.085336],[1.494907,52.083924],[1.493065,52.082949],[1.49274,52.084082],[1.493224,52.084196],[1.492451,52.084061],[1.492253,52.083862],[1.491514,52.083968],[1.489807,52.083011],[1.489456,52.081963],[1.489929,52.082853],[1.491429,52.083891],[1.491911,52.083737],[1.491248,52.083344],[1.492561,52.083968],[1.492766,52.0837],[1.491592,52.082846],[1.492494,52.08337],[1.492878,52.083112],[1.490702,52.081597],[1.48939,52.079771],[1.489709,52.07827],[1.489021,52.075091],[1.489789,52.072986],[1.48914,52.072739],[1.489809,52.072962],[1.492116,52.071787],[1.490862,52.072124],[1.493373,52.071284],[1.492899,52.071594],[1.494378,52.071136],[1.495725,52.071199],[1.49585,52.070955],[1.495139,52.070991],[1.497364,52.070697],[1.498025,52.0709],[1.495912,52.070912],[1.496056,52.071165],[1.49992,52.071033],[1.501258,52.070722],[1.49985,52.070127],[1.49922,52.070755],[1.498238,52.07051],[1.498515,52.070155],[1.498643,52.070576],[1.499201,52.070718],[1.499529,52.069909],[1.496566,52.067773],[1.496045,52.065395],[1.495354,52.064319],[1.493069,52.063343],[1.488925,52.062406],[1.48587,52.060859],[1.48409,52.060924],[1.481711,52.059443],[1.479412,52.05962],[1.480573,52.060177],[1.479305,52.059813],[1.479446,52.059551],[1.479711,52.059466],[1.481617,52.059347],[1.479815,52.059099],[1.478462,52.058521],[1.475444,52.055841],[1.472864,52.055069],[1.474661,52.054577],[1.474425,52.054241],[1.47163,52.053011],[1.47186,52.053587],[1.471501,52.052956],[1.469634,52.051725],[1.468416,52.051471],[1.464465,52.048783],[1.463339,52.048657],[1.464898,52.049827],[1.461694,52.048138],[1.460796,52.047154],[1.461836,52.048128],[1.462424,52.048189],[1.460898,52.047006],[1.460291,52.045972],[1.459927,52.045991],[1.460487,52.046491],[1.460113,52.0464],[1.459897,52.045963],[1.460196,52.045846],[1.457844,52.044864],[1.457431,52.044163],[1.457711,52.043344],[1.454412,52.043726],[1.452985,52.044239],[1.45112,52.044179],[1.450632,52.043764],[1.450688,52.043202],[1.451147,52.043096],[1.45104,52.04397],[1.451769,52.043353],[1.452996,52.043551],[1.453757,52.042987],[1.454951,52.043553],[1.456948,52.043106],[1.459139,52.043295],[1.459497,52.043691],[1.458342,52.043497],[1.458408,52.043878],[1.459001,52.043811],[1.458358,52.043953],[1.458315,52.044328],[1.459117,52.044369],[1.458481,52.044546],[1.460321,52.045609],[1.460364,52.044505],[1.460801,52.044493],[1.461698,52.046146],[1.460632,52.045346],[1.460442,52.04564],[1.462795,52.047942],[1.463132,52.047883],[1.462979,52.048417],[1.46324,52.048282],[1.463387,52.047732],[1.461847,52.045867],[1.457146,52.037326],[1.455731,52.035522],[1.455944,52.03361],[1.454362,52.032149],[1.449964,52.030638],[1.447902,52.029335],[1.445769,52.027376],[1.439025,52.018932],[1.435799,52.014395],[1.43457,52.008542],[1.43297,52.008131],[1.431235,52.005751],[1.42973,52.005476],[1.423651,52.00052],[1.4148,51.99521],[1.408792,51.992318],[1.3938,51.986531],[1.393483,51.986641],[1.394039,51.987496],[1.393974,51.990455],[1.394576,51.990453],[1.394659,51.990722],[1.394601,51.992772],[1.392621,51.996347],[1.394366,51.996204],[1.393863,51.995919],[1.394482,51.995992],[1.394091,51.995306],[1.394032,51.994921],[1.394295,51.994297],[1.394144,51.995196],[1.394722,51.995194],[1.394903,51.994114],[1.395268,51.995473],[1.394841,51.996538],[1.394343,51.996686],[1.394677,51.996802],[1.39435,51.99752],[1.395722,51.998489],[1.394637,51.997905],[1.394156,51.998251],[1.394541,51.998217],[1.394417,51.998529],[1.393556,51.997947],[1.39325,51.998555],[1.393269,51.997822],[1.392624,51.998469],[1.393251,51.99778],[1.392151,51.996587],[1.390849,51.99792],[1.391201,51.998434],[1.390585,51.998104],[1.389646,51.999107],[1.389932,51.999238],[1.388809,51.99942],[1.390244,51.999768],[1.394621,51.998739],[1.395384,51.998748],[1.395343,51.99939],[1.39252,51.999751],[1.395093,51.999359],[1.395257,51.998772],[1.394591,51.998767],[1.390409,51.999828],[1.390033,52.00003],[1.390295,52.000209],[1.389805,52.001155],[1.387394,52.001175],[1.388453,52.000989],[1.388731,52.000501],[1.388483,52.001042],[1.389767,52.001129],[1.390254,52.000227],[1.389992,52.000093],[1.389965,51.999874],[1.388388,51.999681],[1.387906,52.000276],[1.384379,52.001733],[1.38452,52.001973],[1.3838,52.00195],[1.383963,52.002287],[1.383582,52.002006],[1.382602,52.002437],[1.382781,52.002778],[1.38229,52.003241],[1.380913,52.003696],[1.382688,52.002776],[1.38211,52.002522],[1.380732,52.003031],[1.380812,52.003321],[1.380603,52.003121],[1.378457,52.003877],[1.378472,52.004338],[1.379908,52.004052],[1.378647,52.00433],[1.378703,52.004598],[1.379671,52.00436],[1.379292,52.004619],[1.378746,52.00469],[1.378419,52.004419],[1.377492,52.004719],[1.378345,52.004415],[1.378116,52.003917],[1.376295,52.004564],[1.377002,52.004844],[1.376156,52.005063],[1.376546,52.004907],[1.376164,52.004613],[1.375208,52.004904],[1.375318,52.00522],[1.374688,52.005571],[1.375249,52.005184],[1.375032,52.005012],[1.37237,52.005603],[1.372092,52.005811],[1.37264,52.00611],[1.373516,52.005865],[1.372405,52.006322],[1.372223,52.006801],[1.370601,52.008143],[1.370262,52.008148],[1.370793,52.007863],[1.3706,52.007679],[1.371199,52.00709],[1.371584,52.007249],[1.371792,52.006501],[1.372507,52.006212],[1.371673,52.005852],[1.371983,52.005659],[1.370585,52.006087],[1.370741,52.006408],[1.370138,52.006201],[1.370396,52.006475],[1.370467,52.006648],[1.369988,52.00668],[1.370376,52.006518],[1.37007,52.00625],[1.369216,52.006575],[1.369504,52.007027],[1.369843,52.006941],[1.370398,52.007269],[1.370101,52.007994],[1.370234,52.007225],[1.369434,52.007067],[1.369116,52.006609],[1.368314,52.007043],[1.368602,52.007128],[1.368016,52.007205],[1.368097,52.007515],[1.367582,52.007361],[1.367106,52.007629],[1.36657,52.008109],[1.366794,52.008406],[1.366628,52.00868],[1.366601,52.00822],[1.365926,52.00836],[1.36574,52.008605],[1.366106,52.008734],[1.365366,52.008863],[1.366243,52.009408],[1.365408,52.009037],[1.365204,52.009326],[1.365142,52.008941],[1.364875,52.009231],[1.36498,52.009252],[1.365441,52.00953],[1.36488,52.009587],[1.365072,52.009991],[1.364741,52.009763],[1.36497,52.009281],[1.364762,52.009339],[1.364385,52.009885],[1.364775,52.01029],[1.364319,52.01001],[1.364143,52.010515],[1.36593,52.011188],[1.365753,52.010848],[1.366075,52.009798],[1.365917,52.010938],[1.366214,52.011311],[1.366249,52.013435],[1.365737,52.013609],[1.366237,52.013758],[1.36644,52.014459],[1.365969,52.014827],[1.366311,52.015046],[1.366482,52.014781],[1.36711,52.016962],[1.366848,52.017293],[1.366535,52.015301],[1.366267,52.015243],[1.366281,52.015521],[1.366165,52.015279],[1.366409,52.01515],[1.366019,52.015066],[1.365645,52.015517],[1.365773,52.017871],[1.365374,52.018237],[1.365883,52.018324],[1.365337,52.018395],[1.365683,52.018675],[1.365365,52.018852],[1.365799,52.018936],[1.365369,52.019081],[1.365715,52.019243],[1.366057,52.018972],[1.366131,52.019292],[1.366457,52.018175],[1.366292,52.020271],[1.365965,52.020293],[1.365948,52.019356],[1.365496,52.019342],[1.365539,52.019941],[1.364519,52.019917],[1.364958,52.020124],[1.364498,52.020181],[1.364427,52.021144],[1.363848,52.021164],[1.36397,52.021572],[1.363555,52.021554],[1.362987,52.022534],[1.361877,52.022909],[1.360971,52.022685],[1.361103,52.023534],[1.359533,52.025064],[1.358919,52.026367],[1.357693,52.026584],[1.357894,52.027042],[1.356845,52.027359],[1.356603,52.027047],[1.356372,52.027583],[1.356292,52.027227],[1.356898,52.02673],[1.35656,52.026716],[1.355521,52.027122],[1.356143,52.027271],[1.356226,52.027677],[1.35539,52.027116],[1.355002,52.027366],[1.355064,52.02766],[1.355645,52.027577],[1.355374,52.027935],[1.355422,52.027626],[1.355052,52.02769],[1.354905,52.027404],[1.354667,52.027897],[1.354462,52.027414],[1.35442,52.02771],[1.353994,52.027665],[1.354173,52.028034],[1.353879,52.027689],[1.353625,52.027816],[1.354013,52.028642],[1.353895,52.029078],[1.353254,52.029037],[1.353804,52.02865],[1.353451,52.027898],[1.351594,52.028644],[1.352858,52.028773],[1.352278,52.028951],[1.352869,52.02915],[1.352008,52.029207],[1.35215,52.028795],[1.351455,52.028738],[1.350951,52.028997],[1.351024,52.029279],[1.351469,52.029258],[1.349658,52.029714],[1.349447,52.029107],[1.348226,52.029441],[1.348622,52.029906],[1.347426,52.030555],[1.348549,52.029921],[1.348048,52.029555],[1.345404,52.030706],[1.344692,52.031329],[1.344319,52.032128],[1.344855,52.032601],[1.344267,52.03247],[1.344712,52.033402],[1.34518,52.033473],[1.344796,52.033747],[1.349461,52.036294],[1.35157,52.037996],[1.351944,52.0379],[1.351481,52.037632],[1.352466,52.037991],[1.352696,52.038172],[1.352217,52.038336],[1.352607,52.038337],[1.352811,52.039088],[1.352422,52.039307],[1.352474,52.038828],[1.351935,52.038583],[1.351948,52.039312],[1.352138,52.039628],[1.352372,52.039465],[1.352094,52.040163],[1.35168,52.040254],[1.352037,52.0405],[1.351837,52.041094],[1.351466,52.040927],[1.352277,52.04499],[1.351904,52.04546],[1.346334,52.050381],[1.345587,52.049785],[1.345466,52.050151],[1.345116,52.049721],[1.344516,52.049954],[1.344896,52.050993],[1.345379,52.050921],[1.345595,52.050359],[1.346212,52.050495],[1.343747,52.052714],[1.34264,52.052562],[1.343516,52.052499],[1.34426,52.051981],[1.343321,52.052169],[1.343039,52.051885],[1.343959,52.051792],[1.343496,52.051609],[1.343729,52.050997],[1.34338,52.051445],[1.343037,52.051326],[1.343361,52.051112],[1.342904,52.051154],[1.342759,52.052304],[1.341915,52.052656],[1.341492,52.052433],[1.340982,52.052996],[1.344106,52.056095],[1.3447,52.057631],[1.343863,52.060316],[1.342312,52.061245],[1.343001,52.061465],[1.34349,52.062127],[1.343763,52.064142],[1.341068,52.065095],[1.338938,52.06492],[1.339351,52.065793],[1.337719,52.066576],[1.330886,52.068255],[1.329918,52.068943],[1.329331,52.068825],[1.329822,52.069152],[1.329908,52.070342],[1.329085,52.07151],[1.330038,52.070514],[1.330195,52.069191],[1.330217,52.070428],[1.329571,52.071276],[1.32987,52.071185],[1.330121,52.071561],[1.329069,52.072476],[1.328393,52.072255],[1.328831,52.071777],[1.328249,52.072168],[1.327638,52.072095],[1.327779,52.072723],[1.328389,52.072383],[1.328973,52.072885],[1.325536,52.075712],[1.324606,52.075378],[1.324717,52.074249],[1.324052,52.076018],[1.324202,52.076725],[1.321772,52.078793],[1.321283,52.078608],[1.321221,52.079213],[1.319593,52.079676],[1.318982,52.080503],[1.319561,52.080801],[1.318956,52.080723],[1.319043,52.081529],[1.319508,52.081619],[1.320338,52.084482],[1.319238,52.086957],[1.319709,52.086251],[1.319642,52.087392],[1.320618,52.087202],[1.321223,52.088026],[1.320804,52.087912],[1.320692,52.088176],[1.324101,52.088431],[1.325934,52.089111],[1.327336,52.090425],[1.327136,52.091987],[1.327595,52.092911],[1.328783,52.093267],[1.330629,52.09316],[1.331329,52.093592],[1.331364,52.093963],[1.332012,52.094213],[1.332036,52.094818],[1.331734,52.094667],[1.331671,52.096276],[1.330885,52.096761],[1.331849,52.098073],[1.332337,52.097966],[1.336715,52.099129],[1.33814,52.099953],[1.3374,52.10006],[1.33732,52.100382],[1.336483,52.100258],[1.336476,52.100623],[1.335882,52.10046],[1.33566,52.100741],[1.336426,52.101043],[1.337409,52.100727],[1.338538,52.101097],[1.337498,52.101268],[1.338022,52.101613],[1.339353,52.101698],[1.340111,52.101344],[1.340543,52.101616],[1.340244,52.101723],[1.343296,52.101722],[1.33747,52.101794],[1.333153,52.100642],[1.337295,52.101832],[1.346004,52.102129],[1.347753,52.102896],[1.348229,52.102602],[1.348894,52.102743],[1.349613,52.10334],[1.348436,52.103798],[1.349052,52.104251],[1.349909,52.104001],[1.349102,52.104344],[1.350483,52.105198],[1.351191,52.105115],[1.350626,52.105285],[1.351237,52.10768],[1.35322,52.109091],[1.353205,52.110739],[1.352328,52.111293],[1.354085,52.111595],[1.354565,52.112038],[1.352069,52.111414],[1.352277,52.112477],[1.351788,52.111321],[1.353047,52.110535],[1.353022,52.109317],[1.351171,52.108094],[1.350316,52.105491],[1.34824,52.104359],[1.348124,52.103415],[1.347954,52.103584],[1.346946,52.102805],[1.344188,52.102259],[1.340621,52.102692],[1.339581,52.102334],[1.338269,52.103683],[1.337081,52.103715],[1.336349,52.102566],[1.333108,52.101891],[1.330928,52.101008],[1.329877,52.099847],[1.329863,52.098885],[1.330395,52.098256],[1.329406,52.097782],[1.328142,52.095999],[1.326424,52.095793],[1.32625,52.095494],[1.325656,52.095602],[1.32518,52.094129],[1.324654,52.094055],[1.32513,52.093971],[1.324998,52.093745],[1.324113,52.093799],[1.324873,52.093602],[1.324536,52.093518],[1.324738,52.092617],[1.323654,52.092746],[1.323147,52.092509],[1.323775,52.092062],[1.32307,52.092374],[1.322733,52.092195],[1.324861,52.091427],[1.32512,52.090396],[1.324658,52.090973],[1.322362,52.091956],[1.322068,52.091663],[1.324315,52.090576],[1.323868,52.090261],[1.322576,52.090765],[1.321097,52.090578],[1.324078,52.089815],[1.324718,52.090156],[1.324623,52.089841],[1.323927,52.089508],[1.322477,52.089992],[1.321797,52.089804],[1.320626,52.09049],[1.319611,52.089941],[1.319049,52.090416],[1.318556,52.090368],[1.318614,52.089633],[1.317261,52.08898],[1.316015,52.085916],[1.317367,52.085103],[1.317307,52.084232],[1.314792,52.08313],[1.311894,52.080556],[1.313599,52.07777],[1.313171,52.0776],[1.312993,52.078062],[1.312858,52.077679],[1.31096,52.078545],[1.308937,52.07861],[1.302493,52.078175],[1.300334,52.077697],[1.299688,52.078],[1.297144,52.077757],[1.295309,52.077962],[1.294726,52.077653],[1.29535,52.07686],[1.294556,52.07638],[1.294736,52.075664],[1.297016,52.075736],[1.297009,52.076079],[1.295742,52.076732],[1.297912,52.075724],[1.301166,52.076531],[1.303086,52.076403],[1.304104,52.077081],[1.303649,52.076719],[1.304455,52.076957],[1.305334,52.076889],[1.305552,52.076591],[1.305702,52.076818],[1.307778,52.076793],[1.308696,52.076191],[1.310756,52.077262],[1.313863,52.075985],[1.317438,52.076141],[1.319173,52.072846],[1.319827,52.072892],[1.319484,52.072595],[1.320136,52.072574],[1.321362,52.071716],[1.320943,52.071493],[1.319156,52.072294],[1.32092,52.071353],[1.321834,52.071446],[1.32311,52.070528],[1.324383,52.067688],[1.324239,52.067067],[1.324109,52.067416],[1.319514,52.066048],[1.318528,52.066043],[1.318653,52.065415],[1.32003,52.065165],[1.319773,52.064723],[1.32004,52.065038],[1.320173,52.064761],[1.320872,52.065099],[1.321001,52.064816],[1.322302,52.064796],[1.32449,52.062746],[1.326129,52.062293],[1.326265,52.062622],[1.325102,52.063678],[1.324113,52.065645],[1.324228,52.066756],[1.324217,52.065583],[1.325183,52.063703],[1.326784,52.062394],[1.326297,52.062306],[1.326386,52.061988],[1.327094,52.061899],[1.326775,52.06221],[1.327221,52.062233],[1.327749,52.061811],[1.327484,52.061532],[1.327979,52.061662],[1.327058,52.061355],[1.3281,52.06159],[1.327719,52.062145],[1.328253,52.061659],[1.328087,52.061506],[1.326687,52.060953],[1.3277,52.061162],[1.32795,52.060963],[1.328242,52.061222],[1.328083,52.061002],[1.328699,52.060845],[1.329477,52.060992],[1.332352,52.059391],[1.333169,52.058428],[1.33335,52.058791],[1.333394,52.0581],[1.334004,52.058139],[1.33396,52.057808],[1.333412,52.05791],[1.333856,52.057704],[1.333622,52.057498],[1.333377,52.057741],[1.332989,52.057557],[1.332941,52.058397],[1.33155,52.056499],[1.331939,52.055622],[1.331513,52.055087],[1.331884,52.054878],[1.331571,52.05465],[1.332,52.053917],[1.331944,52.052538],[1.334344,52.049577],[1.333787,52.049061],[1.334277,52.048997],[1.334461,52.049455],[1.334715,52.049246],[1.334299,52.048697],[1.333598,52.04885],[1.333995,52.04861],[1.33371,52.048407],[1.335381,52.047645],[1.335441,52.047852],[1.335832,52.047435],[1.336305,52.047922],[1.336633,52.047696],[1.336079,52.04729],[1.33691,52.047498],[1.336776,52.047092],[1.337305,52.047251],[1.337527,52.047063],[1.337136,52.04689],[1.337768,52.047012],[1.337707,52.046633],[1.338328,52.046383],[1.338592,52.046579],[1.338675,52.046246],[1.339161,52.046261],[1.338833,52.046004],[1.339221,52.045743],[1.339085,52.046088],[1.339553,52.046042],[1.341392,52.044752],[1.341253,52.044411],[1.339539,52.045631],[1.341279,52.044332],[1.340472,52.044659],[1.340388,52.04427],[1.341266,52.042425],[1.3409,52.042794],[1.340042,52.045041],[1.338806,52.045606],[1.338555,52.045388],[1.338352,52.045603],[1.338547,52.045276],[1.338002,52.045132],[1.337917,52.045609],[1.337882,52.045064],[1.337211,52.044947],[1.338439,52.044785],[1.338781,52.044078],[1.33829,52.043097],[1.338051,52.043944],[1.338077,52.042955],[1.337337,52.042914],[1.33798,52.042864],[1.337679,52.042304],[1.337995,52.042195],[1.338995,52.042429],[1.338822,52.042095],[1.338357,52.042097],[1.33888,52.041771],[1.338807,52.041112],[1.337176,52.039505],[1.3366,52.039677],[1.335288,52.038927],[1.33519,52.039226],[1.335017,52.038893],[1.335626,52.038429],[1.335624,52.038098],[1.335935,52.037971],[1.337689,52.038096],[1.337896,52.037867],[1.336656,52.037656],[1.338043,52.037708],[1.337361,52.03751],[1.337752,52.037371],[1.337547,52.037099],[1.33606,52.037163],[1.336602,52.037092],[1.336592,52.036761],[1.337512,52.037041],[1.336818,52.036631],[1.337382,52.036177],[1.336792,52.036074],[1.33682,52.035297],[1.336339,52.035383],[1.33638,52.03585],[1.336212,52.034935],[1.335238,52.034463],[1.336082,52.034767],[1.336239,52.034889],[1.336433,52.035311],[1.336837,52.035198],[1.336804,52.034481],[1.336553,52.034678],[1.336277,52.034423],[1.334143,52.034473],[1.33586,52.034018],[1.335719,52.034286],[1.336272,52.034254],[1.336451,52.033823],[1.337436,52.033645],[1.33737,52.033188],[1.336793,52.032971],[1.337436,52.033086],[1.337708,52.032625],[1.336658,52.032479],[1.337772,52.032509],[1.336934,52.032232],[1.337798,52.032299],[1.337856,52.031596],[1.338039,52.031988],[1.337548,52.033387],[1.337605,52.034679],[1.338234,52.035543],[1.338192,52.036452],[1.339569,52.038544],[1.338647,52.036534],[1.339518,52.036492],[1.339179,52.036632],[1.33955,52.036887],[1.339883,52.036539],[1.339316,52.037324],[1.339902,52.037745],[1.340069,52.037161],[1.340514,52.038093],[1.34285,52.036938],[1.342099,52.036663],[1.341641,52.036897],[1.340663,52.037085],[1.340646,52.036842],[1.341523,52.036889],[1.341999,52.036652],[1.342569,52.036667],[1.341104,52.035601],[1.340841,52.035784],[1.341774,52.036544],[1.341075,52.036049],[1.341003,52.036636],[1.340939,52.035981],[1.34016,52.036488],[1.340084,52.03625],[1.340907,52.035923],[1.340662,52.035744],[1.339726,52.035983],[1.339625,52.036383],[1.338644,52.036385],[1.339323,52.03607],[1.338436,52.036052],[1.340099,52.035847],[1.339085,52.035293],[1.339339,52.034477],[1.340095,52.034054],[1.339679,52.033257],[1.33879,52.033362],[1.338718,52.033825],[1.339619,52.033898],[1.339357,52.034351],[1.338852,52.034288],[1.33914,52.034858],[1.338513,52.03456],[1.339005,52.035299],[1.338535,52.035843],[1.337738,52.034683],[1.337705,52.033668],[1.337897,52.033146],[1.337982,52.033781],[1.338622,52.03357],[1.338388,52.032968],[1.337878,52.03301],[1.338368,52.031793],[1.33877,52.032377],[1.338385,52.03262],[1.338891,52.032787],[1.33915,52.032351],[1.338626,52.03186],[1.339293,52.032252],[1.339023,52.033103],[1.33953,52.0328],[1.339411,52.031779],[1.338215,52.031618],[1.33952,52.03173],[1.339565,52.031362],[1.33917,52.031422],[1.340808,52.029051],[1.339412,52.030512],[1.339833,52.02904],[1.339893,52.029644],[1.340651,52.028884],[1.339751,52.028551],[1.340533,52.02875],[1.340112,52.027908],[1.340588,52.028767],[1.341028,52.028822],[1.341663,52.028272],[1.340981,52.028475],[1.340848,52.028048],[1.341231,52.028399],[1.34206,52.02754],[1.340508,52.027797],[1.34049,52.027538],[1.341959,52.027373],[1.342241,52.027799],[1.343156,52.027204],[1.340766,52.027379],[1.339964,52.027025],[1.339836,52.027437],[1.33954,52.027243],[1.33985,52.026925],[1.339039,52.026665],[1.339296,52.027344],[1.338623,52.027189],[1.338833,52.026352],[1.337021,52.025237],[1.337373,52.024397],[1.339446,52.024277],[1.340061,52.024474],[1.340105,52.025313],[1.341121,52.025715],[1.342351,52.026012],[1.345652,52.025759],[1.345371,52.026169],[1.346113,52.025943],[1.345801,52.02584],[1.346069,52.025638],[1.34912,52.025276],[1.351145,52.024589],[1.354604,52.023115],[1.354271,52.022923],[1.355308,52.022248],[1.354461,52.022823],[1.354842,52.023038],[1.35632,52.022168],[1.358296,52.02019],[1.359367,52.018082],[1.359324,52.014711],[1.358881,52.014629],[1.359148,52.01427],[1.357878,52.012573],[1.357047,52.013257],[1.357586,52.01249],[1.355972,52.01249],[1.355826,52.013371],[1.357755,52.013832],[1.357899,52.01412],[1.357381,52.013939],[1.35831,52.014894],[1.357935,52.014906],[1.357619,52.015864],[1.358676,52.015845],[1.358775,52.015554],[1.358909,52.015935],[1.356301,52.016173],[1.356576,52.015693],[1.355988,52.015079],[1.356631,52.015033],[1.35684,52.015943],[1.357462,52.015468],[1.356958,52.015387],[1.357682,52.015357],[1.357321,52.014337],[1.356131,52.014663],[1.355839,52.014446],[1.357197,52.014222],[1.355309,52.0138],[1.355708,52.014828],[1.355205,52.015185],[1.355739,52.015767],[1.355399,52.015887],[1.354818,52.015266],[1.35529,52.014779],[1.354745,52.014574],[1.354855,52.014094],[1.354285,52.014093],[1.354352,52.013622],[1.355374,52.013607],[1.355037,52.013071],[1.356014,52.012272],[1.358096,52.012331],[1.357757,52.012116],[1.358088,52.011653],[1.358446,52.011922],[1.357986,52.012032],[1.358192,52.012381],[1.35878,52.012652],[1.358891,52.0108],[1.358694,52.010421],[1.358407,52.010518],[1.360624,52.007088],[1.360533,52.00669],[1.360717,52.006949],[1.361082,52.006548],[1.360744,52.006265],[1.361414,52.006258],[1.361086,52.006126],[1.361364,52.005861],[1.361549,52.006109],[1.361517,52.005694],[1.361862,52.005821],[1.361944,52.005326],[1.362325,52.005407],[1.362385,52.00496],[1.363132,52.004484],[1.362555,52.004884],[1.362798,52.005094],[1.36435,52.004211],[1.363747,52.00415],[1.364524,52.004098],[1.368269,52.002287],[1.369009,52.002465],[1.373469,52.00174],[1.378449,51.99957],[1.3819,51.997469],[1.380236,51.997006],[1.380245,51.996771],[1.378014,51.996345],[1.378393,51.995891],[1.379422,51.996311],[1.38268,51.993746],[1.383071,51.993922],[1.381806,51.994826],[1.382271,51.994973],[1.380886,51.995367],[1.381697,51.995561],[1.38154,51.995914],[1.379979,51.996134],[1.379615,51.996487],[1.381165,51.996902],[1.381102,51.996806],[1.381374,51.996496],[1.381144,51.996833],[1.381757,51.997133],[1.382952,51.996589],[1.382895,51.996263],[1.383255,51.99634],[1.384251,51.99533],[1.383947,51.995029],[1.384416,51.995156],[1.384629,51.994831],[1.383509,51.994296],[1.384765,51.994612],[1.384878,51.994324],[1.383766,51.993985],[1.38498,51.994186],[1.385233,51.993581],[1.38488,51.9934],[1.385409,51.993216],[1.385072,51.992972],[1.385458,51.992956],[1.385645,51.9922],[1.386633,51.991453],[1.385857,51.991269],[1.386805,51.991335],[1.386821,51.990675],[1.3878,51.990158],[1.387979,51.989694],[1.385877,51.990348],[1.385198,51.990393],[1.38568,51.990245],[1.385075,51.99008],[1.38488,51.99055],[1.384559,51.990406],[1.383927,51.992605],[1.383027,51.993787],[1.382678,51.993714],[1.384652,51.990085],[1.383746,51.989822],[1.38375,51.989537],[1.386185,51.989938],[1.388401,51.989132],[1.388554,51.989558],[1.38967,51.98978],[1.389799,51.99019],[1.391481,51.98938],[1.389347,51.98429],[1.389137,51.980038],[1.388166,51.97855],[1.386266,51.977307],[1.380164,51.974372],[1.372472,51.966626],[1.369716,51.964342],[1.368071,51.963661],[1.363571,51.963009],[1.359523,51.961485],[1.350632,51.959309],[1.34713,51.958239],[1.344503,51.956925],[1.339773,51.952511],[1.339883,51.952196],[1.338689,51.951352],[1.334603,51.946778],[1.329372,51.942541],[1.329417,51.942258],[1.328136,51.94153],[1.322856,51.935558],[1.319154,51.932369],[1.317895,51.933496],[1.3177,51.934892],[1.318335,51.937148],[1.31971,51.93936],[1.319857,51.941162],[1.319328,51.943155],[1.316903,51.942721],[1.312563,51.950619],[1.31586,51.950924],[1.315448,51.951294],[1.315796,51.951268],[1.315281,51.951375],[1.31568,51.951411],[1.313395,51.952137],[1.313868,51.952176],[1.282601,51.966099],[1.283731,51.966945],[1.283868,51.967555],[1.282352,51.969884],[1.282365,51.970253],[1.283151,51.970487],[1.281716,51.971094],[1.281363,51.9723],[1.28078,51.977567],[1.280905,51.980961],[1.282168,51.980773],[1.28127,51.980552],[1.281248,51.980171],[1.286599,51.980488],[1.287373,51.981256],[1.285185,51.983832],[1.284549,51.983759],[1.284596,51.984764],[1.284279,51.984881],[1.284062,51.984451],[1.284221,51.984933],[1.28379,51.984993],[1.283165,51.984916],[1.281681,51.982998],[1.281142,51.981597],[1.283287,51.990052],[1.28242,51.990911],[1.279496,51.991761],[1.280275,51.993084],[1.279762,51.992471],[1.276918,51.993453],[1.276903,51.992823],[1.276537,51.992783],[1.2728,51.994211],[1.268683,51.994855],[1.272809,51.99426],[1.276063,51.993099],[1.276612,51.993659],[1.271449,51.995836],[1.268763,51.99547],[1.269236,51.996564],[1.268224,51.99691],[1.267133,51.995546],[1.268287,51.995081],[1.266515,51.995313],[1.266303,51.995665],[1.264263,51.99579],[1.263628,51.996316],[1.26309,51.998312],[1.262298,51.998665],[1.261049,51.99851],[1.25803,51.999693],[1.258092,52.00144],[1.257652,52.001696],[1.258456,52.002998],[1.257942,52.002972],[1.256842,52.002154],[1.255302,51.999394],[1.25671,51.997839],[1.257111,51.99774],[1.257012,51.998307],[1.258225,51.997399],[1.25814,51.997152],[1.257513,51.997446],[1.258158,51.997076],[1.257525,51.99683],[1.257493,51.997167],[1.256651,51.996991],[1.256845,51.997361],[1.256029,51.997062],[1.256665,51.996923],[1.257334,51.99695],[1.256913,51.99651],[1.25536,51.997192],[1.25588,51.997191],[1.255335,51.997317],[1.255356,51.997103],[1.255507,51.996998],[1.254375,51.997231],[1.254622,51.997507],[1.254177,51.997216],[1.25408,51.997706],[1.254005,51.997311],[1.253123,51.997408],[1.252591,51.998075],[1.248582,51.998812],[1.246132,51.999672],[1.235753,52.003921],[1.232691,52.005506],[1.23001,52.006361],[1.227161,52.006589],[1.225161,52.006114],[1.219288,52.005898],[1.215409,52.00652],[1.211714,52.010501],[1.210323,52.011512],[1.207217,52.01265],[1.202965,52.013529],[1.200351,52.014867],[1.197679,52.015364],[1.192724,52.015325],[1.191317,52.014895],[1.189766,52.014859],[1.187934,52.015204],[1.184885,52.016864],[1.182506,52.019562],[1.178847,52.021547],[1.180987,52.022605],[1.182849,52.022706],[1.183104,52.024471],[1.18481,52.024327],[1.186611,52.021994],[1.190086,52.023031],[1.190694,52.0225],[1.191518,52.023118],[1.193858,52.023717],[1.195434,52.024533],[1.201678,52.024331],[1.204231,52.023456],[1.209477,52.020769],[1.212157,52.022691],[1.211311,52.023164],[1.215033,52.025621],[1.218342,52.023796],[1.219369,52.022883],[1.22361,52.029434],[1.212064,52.03418],[1.20468,52.035839],[1.201944,52.037405],[1.203296,52.038084],[1.202094,52.038746],[1.203439,52.039742],[1.202929,52.03994],[1.203457,52.040519],[1.204107,52.040299],[1.204448,52.040826],[1.205747,52.040699],[1.209213,52.048477],[1.203828,52.049471],[1.205688,52.052211],[1.206197,52.053741],[1.204895,52.058425],[1.20521,52.062141],[1.205441,52.062756],[1.206058,52.063018],[1.205536,52.063664],[1.206455,52.064019],[1.20355,52.06739],[1.202294,52.067951],[1.20184,52.067499],[1.201024,52.067752],[1.199515,52.069167],[1.200116,52.069503],[1.197366,52.071151],[1.196647,52.072017],[1.196615,52.073166],[1.190995,52.074104],[1.192154,52.075129],[1.186827,52.077286],[1.188365,52.07882],[1.190004,52.079324],[1.189894,52.08045],[1.171362,52.081247],[1.170983,52.080813],[1.165834,52.080631],[1.164652,52.079437],[1.164258,52.0795],[1.164586,52.080418],[1.165587,52.08101],[1.164996,52.081066],[1.165712,52.081688],[1.165295,52.081881],[1.16569,52.082344],[1.162335,52.082772],[1.163591,52.084228],[1.163401,52.085068],[1.164133,52.085884],[1.159614,52.087099],[1.159095,52.087186],[1.158733,52.086797],[1.158177,52.087005],[1.159554,52.087983],[1.157839,52.088752],[1.160511,52.0915],[1.162762,52.092283],[1.160294,52.093078],[1.161509,52.094508],[1.162683,52.094649],[1.164635,52.09716],[1.166421,52.09838],[1.167231,52.099804],[1.165226,52.103578],[1.165089,52.106018],[1.164173,52.108781],[1.165514,52.113314],[1.169092,52.113205],[1.170572,52.113631],[1.17037,52.114305],[1.171891,52.115549],[1.171226,52.117288],[1.172339,52.117446],[1.17227,52.118167],[1.17671,52.119824],[1.177767,52.1207],[1.177797,52.122129],[1.176481,52.125988],[1.176633,52.126954],[1.177953,52.127886],[1.175635,52.129158],[1.173307,52.128293],[1.172453,52.127562],[1.170204,52.127623],[1.170129,52.129263],[1.170487,52.129315],[1.169469,52.13125],[1.171768,52.132258],[1.175353,52.132466],[1.17678,52.135735],[1.176703,52.13693],[1.18702,52.139608],[1.191403,52.139984],[1.192185,52.144154],[1.193681,52.14696],[1.193974,52.147376],[1.195482,52.147286],[1.196632,52.148583],[1.196668,52.155004],[1.202247,52.155809],[1.205204,52.158149],[1.211247,52.160048],[1.211722,52.160548],[1.215425,52.161571],[1.215043,52.164625],[1.213965,52.166539],[1.216066,52.166416],[1.219795,52.166935],[1.220517,52.167256],[1.219813,52.167751],[1.220884,52.169294],[1.224065,52.168991],[1.224104,52.169404],[1.226993,52.169755],[1.22878,52.170434],[1.237135,52.16966],[1.239843,52.170429],[1.241476,52.175873],[1.243257,52.180016],[1.244232,52.181337],[1.247621,52.18348],[1.247502,52.184767],[1.251257,52.18607],[1.254173,52.188131],[1.254016,52.190046],[1.255158,52.189988],[1.255456,52.191153],[1.255185,52.194547],[1.256957,52.19492],[1.25724,52.197073],[1.25673,52.198365],[1.254552,52.198244],[1.253934,52.197922],[1.2526,52.19816],[1.250589,52.199287],[1.250676,52.199763],[1.249251,52.200336],[1.247748,52.20007],[1.247102,52.200526],[1.245684,52.200154],[1.242264,52.20034],[1.241984,52.201108],[1.241684,52.20438],[1.242685,52.205118],[1.243038,52.207255],[1.242736,52.208209],[1.243985,52.210644],[1.241621,52.212144],[1.244336,52.213169],[1.243527,52.214403],[1.248347,52.215828],[1.243544,52.217695],[1.2454,52.219301],[1.245052,52.220358],[1.246081,52.221353],[1.246112,52.222319],[1.248923,52.225814],[1.2463,52.226771],[1.247363,52.228674],[1.247952,52.229065],[1.254194,52.230452],[1.256427,52.230623],[1.257856,52.230349],[1.258064,52.230837],[1.268133,52.234089],[1.269833,52.235035],[1.270506,52.23586],[1.27409,52.23725],[1.277398,52.238282],[1.279797,52.238303],[1.282021,52.239663],[1.286456,52.240461],[1.288552,52.241941],[1.293516,52.247609],[1.293368,52.250359],[1.291845,52.253164],[1.292464,52.254847],[1.293377,52.255474],[1.2973,52.256388],[1.301018,52.259016],[1.301512,52.258817],[1.303555,52.259429],[1.309435,52.259658],[1.311078,52.258977],[1.317106,52.258695],[1.322208,52.260128],[1.324623,52.263346],[1.32617,52.263817],[1.326453,52.264642],[1.328948,52.265423],[1.3337,52.265443],[1.338534,52.266288],[1.339767,52.265926],[1.338429,52.270219],[1.337031,52.270493],[1.338169,52.271898],[1.338251,52.27276],[1.337313,52.274094],[1.337749,52.274396],[1.336862,52.276668],[1.337473,52.277013],[1.338998,52.276708],[1.340648,52.280424],[1.341269,52.284448],[1.339502,52.287413],[1.336486,52.287465],[1.333893,52.287894],[1.332688,52.289929],[1.33261,52.290951],[1.330402,52.290966],[1.330077,52.292948],[1.328994,52.294521],[1.328263,52.294536],[1.328302,52.296652],[1.327638,52.297498],[1.327591,52.298479],[1.33174,52.298413],[1.336136,52.297508],[1.336685,52.297082],[1.338572,52.296812],[1.339913,52.296114],[1.343786,52.295172],[1.347296,52.293405],[1.347674,52.292298],[1.346555,52.290953],[1.34703,52.288829],[1.345009,52.286059],[1.344957,52.28343],[1.344432,52.28209],[1.346145,52.280099],[1.34936,52.279842],[1.349369,52.279306],[1.350034,52.279059],[1.350574,52.278074],[1.35045,52.276656],[1.35275,52.276489],[1.353548,52.275442],[1.355657,52.274077],[1.356336,52.275452],[1.355702,52.276331],[1.356232,52.277205],[1.35548,52.278775],[1.35968,52.27895],[1.363037,52.27783],[1.367226,52.277149],[1.371073,52.276083],[1.371968,52.275416],[1.376003,52.276089],[1.376311,52.275455],[1.381501,52.279816],[1.384178,52.280313],[1.38471,52.280765],[1.386717,52.280735],[1.388695,52.281338],[1.388007,52.281672],[1.390789,52.283065],[1.393859,52.283357],[1.401645,52.285698],[1.398064,52.28773],[1.391269,52.290749],[1.387155,52.291654],[1.38414,52.294106],[1.382267,52.299352],[1.383301,52.300021],[1.380725,52.303546],[1.38229,52.305502],[1.384271,52.309372],[1.384022,52.310667],[1.381987,52.310421],[1.380247,52.311269],[1.380548,52.312082],[1.379307,52.313267],[1.377024,52.313585],[1.375036,52.31312],[1.373021,52.313194],[1.371017,52.313731],[1.367323,52.317866],[1.365059,52.318432],[1.360375,52.320393],[1.357476,52.322157],[1.358009,52.323033],[1.359629,52.3304],[1.360862,52.333286],[1.362161,52.334366],[1.357405,52.337274],[1.359912,52.339823],[1.361978,52.341308],[1.365243,52.342309],[1.367413,52.344723],[1.369505,52.346334],[1.374675,52.347746],[1.377437,52.347717],[1.380109,52.348621],[1.383822,52.352189],[1.38771,52.354243],[1.393789,52.355399],[1.397726,52.355486],[1.400415,52.35752],[1.407017,52.360908],[1.409509,52.363265],[1.403747,52.369459],[1.400421,52.371657],[1.399991,52.372805],[1.398715,52.373991],[1.396505,52.37508],[1.393175,52.378115],[1.391429,52.378603],[1.388518,52.380136],[1.382601,52.384668],[1.37972,52.386262],[1.378394,52.388363],[1.37573,52.389641],[1.375917,52.393354],[1.374857,52.394677],[1.371532,52.394724],[1.370924,52.395605],[1.368416,52.397269],[1.367393,52.398886],[1.364796,52.398184],[1.364244,52.398477],[1.360964,52.403523],[1.359497,52.403342],[1.359013,52.403915],[1.357409,52.404082],[1.352976,52.403538],[1.351495,52.403884],[1.349867,52.403342],[1.347581,52.404424],[1.347112,52.404386],[1.346594,52.404924],[1.347145,52.405748],[1.346097,52.406392],[1.346637,52.407673],[1.346234,52.409005],[1.348564,52.40889],[1.350106,52.409381],[1.352319,52.410673],[1.353914,52.410875],[1.354808,52.410638],[1.355701,52.411132],[1.356617,52.410653],[1.357238,52.411512],[1.361213,52.413188],[1.360205,52.41464],[1.360794,52.415581],[1.360645,52.416372],[1.359735,52.416901],[1.358512,52.41701],[1.358895,52.417437],[1.358486,52.41821],[1.356736,52.41922],[1.356272,52.421081],[1.357403,52.422344],[1.357643,52.424137],[1.363459,52.426967],[1.363669,52.427497],[1.364057,52.427518],[1.36423,52.427104],[1.368036,52.427055],[1.368543,52.427295],[1.367821,52.427609],[1.368414,52.42799],[1.368149,52.428888],[1.370392,52.428476],[1.371425,52.429279],[1.371157,52.430024],[1.372501,52.430452],[1.373705,52.430085],[1.374961,52.430388],[1.37568,52.429873],[1.377486,52.430936],[1.378649,52.431164],[1.379894,52.432077],[1.38235,52.431719],[1.383097,52.432499],[1.385891,52.432034],[1.392099,52.434039],[1.391993,52.434313],[1.393047,52.434641],[1.393205,52.435114],[1.392063,52.435544],[1.392445,52.436079],[1.390865,52.436772],[1.392089,52.437816],[1.393204,52.43796],[1.393171,52.438905],[1.395482,52.439628],[1.396688,52.439326],[1.397464,52.440788],[1.401843,52.4421],[1.402468,52.441553],[1.404875,52.44143],[1.405844,52.442307],[1.407436,52.442131],[1.406344,52.443568],[1.407837,52.444384],[1.410416,52.444729],[1.411835,52.444202],[1.412391,52.444899],[1.414328,52.445501],[1.416278,52.444906],[1.418693,52.44562],[1.419553,52.445203],[1.4208,52.445688],[1.421808,52.445206],[1.422166,52.445461],[1.421638,52.446096],[1.423641,52.446575],[1.424929,52.446403],[1.426257,52.445369],[1.427642,52.445698],[1.430068,52.445141],[1.432607,52.445303],[1.432254,52.44621],[1.433188,52.446614],[1.433367,52.447382],[1.434461,52.447459],[1.43498,52.448131],[1.434629,52.448907],[1.434877,52.449936],[1.434055,52.450282],[1.43433,52.450848],[1.433691,52.4511],[1.433464,52.452762],[1.43278,52.453196],[1.432999,52.454584],[1.433873,52.455371],[1.43331,52.455933],[1.430382,52.457028],[1.427452,52.457528],[1.425898,52.457282],[1.423478,52.457562],[1.42102,52.458119],[1.419624,52.458883],[1.41721,52.459073],[1.414522,52.459887],[1.410979,52.461695],[1.410878,52.462236],[1.411575,52.462921],[1.410793,52.46393],[1.414021,52.465257],[1.416015,52.468134],[1.417374,52.46899],[1.417945,52.470171],[1.420303,52.47107],[1.423034,52.471205],[1.426511,52.470537],[1.42721,52.469946],[1.4266,52.469542],[1.427174,52.469198],[1.427802,52.467886],[1.430867,52.466441],[1.432555,52.466108],[1.432646,52.465763],[1.434959,52.464587],[1.434737,52.463705],[1.434023,52.463507],[1.434777,52.462717],[1.434333,52.462346],[1.434437,52.461799],[1.435421,52.461175],[1.436933,52.459291],[1.438473,52.458381],[1.438535,52.457952],[1.439327,52.457946],[1.440122,52.457117],[1.441236,52.456671],[1.446037,52.456028],[1.450568,52.456651],[1.452337,52.457612],[1.453955,52.457685],[1.456007,52.458293],[1.458656,52.458057],[1.459531,52.459131],[1.462445,52.460735],[1.464421,52.464576],[1.46648,52.465395],[1.469291,52.465861],[1.472116,52.467708],[1.473615,52.469351],[1.475201,52.469713],[1.47745,52.471],[1.479977,52.471839],[1.480316,52.471643],[1.479739,52.471265],[1.48333,52.471718],[1.488095,52.468518],[1.490385,52.468778],[1.494126,52.46767],[1.496099,52.467605],[1.495926,52.467036],[1.494838,52.466396],[1.49511,52.465927],[1.496379,52.465642],[1.4979,52.46632],[1.498112,52.465969],[1.497417,52.465327],[1.499405,52.464239],[1.501268,52.463941],[1.501691,52.463228],[1.506891,52.462362],[1.50792,52.461707],[1.508411,52.461771],[1.509026,52.462552],[1.510495,52.462476],[1.514488,52.463297],[1.516859,52.462875],[1.519067,52.461817],[1.521692,52.461669],[1.52363,52.464095],[1.52381,52.46509],[1.522792,52.465806],[1.524151,52.46729],[1.525778,52.468009],[1.529215,52.468317],[1.533582,52.466959],[1.531654,52.466856],[1.531324,52.466598],[1.531275,52.46474],[1.533476,52.464105],[1.531443,52.46478],[1.531448,52.465169],[1.531629,52.466622],[1.533714,52.466867],[1.535476,52.466259],[1.535651,52.46551],[1.537841,52.464311],[1.53835,52.463139],[1.539665,52.462343],[1.54207,52.461633],[1.542741,52.461826],[1.543528,52.462726],[1.544161,52.462802],[1.545253,52.461624],[1.54747,52.461138],[1.547778,52.459483],[1.54873,52.458893],[1.549696,52.458642],[1.551099,52.459032],[1.555161,52.458818],[1.557262,52.457444],[1.558406,52.457701],[1.559629,52.457332],[1.558764,52.457863],[1.559424,52.458284],[1.559807,52.458195],[1.559523,52.458366],[1.563066,52.461391],[1.563096,52.462578],[1.562336,52.464308],[1.56339,52.4644],[1.562372,52.464394],[1.562135,52.46499],[1.56647,52.464035],[1.564372,52.464956],[1.562116,52.465484],[1.563043,52.466777],[1.566215,52.468587],[1.56651,52.469984],[1.565797,52.471986],[1.568309,52.474474],[1.569681,52.474898],[1.572531,52.474858],[1.574489,52.475245],[1.576133,52.47648],[1.582405,52.476587],[1.583837,52.477009],[1.586008,52.478438],[1.587715,52.478304],[1.587848,52.47797],[1.588245,52.478102],[1.591388,52.477041],[1.593888,52.475632],[1.595891,52.475198],[1.597457,52.47323],[1.598525,52.472694],[1.600418,52.472042],[1.603805,52.471452],[1.605016,52.468105],[1.606731,52.466474],[1.611139,52.465883],[1.614043,52.464822],[1.616833,52.463322],[1.626916,52.462208],[1.634704,52.46278],[1.635514,52.463545],[1.635495,52.465472],[1.636241,52.46657],[1.638838,52.467518],[1.642672,52.468209],[1.643597,52.468882],[1.644611,52.470943],[1.646577,52.471777],[1.648651,52.471608],[1.650624,52.470802],[1.652863,52.468459],[1.652625,52.468335],[1.653807,52.467908],[1.655199,52.467676],[1.658755,52.468183],[1.65982,52.468789],[1.661145,52.470435],[1.662646,52.473946],[1.663771,52.474801],[1.670902,52.476046],[1.671799,52.477898],[1.671014,52.480868],[1.671342,52.481911],[1.672284,52.482698],[1.674503,52.483284],[1.676296,52.484192],[1.677213,52.486898],[1.68148,52.489342],[1.681345,52.487214],[1.682356,52.482767],[1.6812,52.474332],[1.688542,52.472933],[1.689131,52.472454],[1.689038,52.471364],[1.690658,52.470294],[1.689191,52.471446],[1.689278,52.472473],[1.688629,52.473089],[1.689436,52.473572],[1.690736,52.4733],[1.693495,52.473708],[1.695278,52.473592],[1.697623,52.473018],[1.699849,52.471588],[1.701203,52.471532],[1.701564,52.470996],[1.703103,52.470892],[1.703123,52.471215],[1.703588,52.470981],[1.703282,52.471591],[1.703621,52.471052],[1.703979,52.471163],[1.703582,52.471638],[1.703982,52.471663],[1.704048,52.471179],[1.704438,52.471193],[1.704251,52.471747],[1.705555,52.47114],[1.706345,52.471236],[1.705743,52.472009],[1.706564,52.472084],[1.705718,52.472212],[1.705829,52.473308],[1.705424,52.473265],[1.705168,52.473753],[1.707473,52.474609],[1.709722,52.474133],[1.710534,52.474982],[1.709982,52.475411],[1.710055,52.476249],[1.711281,52.477572],[1.709812,52.477606],[1.708899,52.476526],[1.705391,52.475548],[1.703529,52.47541],[1.702713,52.474709],[1.702116,52.474739],[1.701823,52.47458],[1.702255,52.474552],[1.700538,52.474031],[1.698706,52.474276],[1.699033,52.474603],[1.698456,52.47487],[1.698878,52.475024],[1.698419,52.475086],[1.698558,52.475451],[1.697212,52.475393],[1.69698,52.475577],[1.697384,52.47574],[1.696675,52.475758],[1.69665,52.47598],[1.695707,52.475651],[1.695577,52.475864],[1.695517,52.475561],[1.694437,52.475734],[1.694339,52.475222],[1.693005,52.474873],[1.692346,52.475465],[1.69277,52.474817],[1.691718,52.475806],[1.692664,52.474724],[1.691981,52.47496],[1.69172,52.474543],[1.692446,52.474101],[1.691731,52.474478],[1.692144,52.473952],[1.691825,52.474121],[1.692018,52.473922],[1.690845,52.473799],[1.690681,52.474036],[1.690651,52.473781],[1.689162,52.474069],[1.689288,52.474271],[1.689081,52.474091],[1.689164,52.474399],[1.687997,52.474368],[1.682121,52.477001],[1.682883,52.483047],[1.68183,52.488338],[1.68272,52.491431],[1.683303,52.491578],[1.682767,52.491831],[1.682761,52.495091],[1.683599,52.495164],[1.682678,52.495349],[1.680891,52.496644],[1.67619,52.497855],[1.675531,52.498894],[1.674896,52.501768],[1.673903,52.503139],[1.674112,52.50342],[1.67375,52.503294],[1.671845,52.504121],[1.670708,52.50421],[1.668085,52.503734],[1.668049,52.504404],[1.667861,52.503735],[1.666737,52.503186],[1.659101,52.501192],[1.655909,52.501137],[1.654052,52.501763],[1.652311,52.504387],[1.65271,52.504585],[1.652238,52.504456],[1.647071,52.507118],[1.645385,52.508782],[1.645554,52.510036],[1.647396,52.512767],[1.647989,52.512788],[1.647474,52.512921],[1.647636,52.513542],[1.650734,52.513678],[1.649193,52.51385],[1.648565,52.514656],[1.647608,52.514532],[1.64801,52.513793],[1.647598,52.513706],[1.646985,52.515061],[1.645731,52.515922],[1.63971,52.517127],[1.631226,52.520734],[1.628785,52.523015],[1.628914,52.52613],[1.630526,52.526681],[1.631045,52.526192],[1.633166,52.526568],[1.636516,52.527955],[1.63131,52.532391],[1.638243,52.533829],[1.638084,52.536503],[1.636741,52.537436],[1.638875,52.537612],[1.643105,52.539599],[1.64945,52.539568],[1.651345,52.540128],[1.654289,52.541614],[1.659129,52.542226],[1.658804,52.543829],[1.659121,52.544851],[1.662171,52.547749],[1.665816,52.549755],[1.667928,52.550258],[1.67363,52.549679],[1.676112,52.549153],[1.678457,52.54804],[1.680493,52.547871],[1.682977,52.548235],[1.684441,52.549916],[1.686256,52.549303],[1.689716,52.547095]],[[1.653953,52.3238],[1.654232,52.323923],[1.652038,52.324182],[1.653953,52.3238]]],[[[1.754278,52.472797],[1.753528,52.472892],[1.754431,52.472913],[1.754278,52.472797]]],[[[1.511981,52.154335],[1.512019,52.153891],[1.511941,52.154389],[1.51273,52.154617],[1.511981,52.154335]]],[[[1.342039,52.041836],[1.341212,52.040724],[1.341956,52.040419],[1.342256,52.040051],[1.341751,52.039514],[1.341915,52.039022],[1.342583,52.039629],[1.342356,52.038929],[1.341939,52.038845],[1.342329,52.03888],[1.342302,52.038607],[1.342644,52.039297],[1.343388,52.039335],[1.343732,52.038931],[1.343192,52.038811],[1.342724,52.039145],[1.342637,52.038859],[1.343212,52.038744],[1.34282,52.038552],[1.343692,52.038842],[1.344546,52.038126],[1.341986,52.038105],[1.344334,52.037973],[1.342897,52.037616],[1.344084,52.037746],[1.343302,52.037211],[1.341096,52.038192],[1.341683,52.038978],[1.340872,52.039352],[1.342107,52.039956],[1.341096,52.04066],[1.341847,52.041841],[1.341266,52.042425],[1.342039,52.041836]]]]}}]}