{"type":"FeatureCollection","features":[{"type":"Feature","properties":{"slug":"east-hampshire","gss_code":"E07000085","name":"East Hampshire"},"geometry":{"type":"Polygon","coordinates":[[[-0.858789,51.211942],[-0.856802,51.212352],[-0.855527,51.211666],[-0.85112,51.211495],[-0.849063,51.211036],[-0.847055,51.208852],[-0.846091,51.206551],[-0.847027,51.205983],[-0.845494,51.204382],[-0.843812,51.201709],[-0.845751,51.200787],[-0.845531,51.200134],[-0.843759,51.198912],[-0.842633,51.199349],[-0.838107,51.195233],[-0.838092,51.194719],[-0.837163,51.194323],[-0.836384,51.19276],[-0.835151,51.191481],[-0.834734,51.191482],[-0.830052,51.188264],[-0.8283,51.186005],[-0.828086,51.18485],[-0.827239,51.184665],[-0.825427,51.181232],[-0.826808,51.177539],[-0.827592,51.17759],[-0.827729,51.177024],[-0.827119,51.174591],[-0.829157,51.16782],[-0.830373,51.16272],[-0.830024,51.162485],[-0.83125,51.161248],[-0.830458,51.161224],[-0.831302,51.159099],[-0.830922,51.155721],[-0.833807,51.149758],[-0.834182,51.147601],[-0.833179,51.14799],[-0.832327,51.147753],[-0.828351,51.145281],[-0.825914,51.145739],[-0.825914,51.146314],[-0.824803,51.147567],[-0.82333,51.146395],[-0.817368,51.147757],[-0.817788,51.148064],[-0.81741,51.148512],[-0.817926,51.148832],[-0.81691,51.148982],[-0.816797,51.149516],[-0.815613,51.150157],[-0.812529,51.151234],[-0.813576,51.151886],[-0.810987,51.152425],[-0.811054,51.152686],[-0.809616,51.153516],[-0.808178,51.153775],[-0.808027,51.154116],[-0.806921,51.153854],[-0.806848,51.154579],[-0.80595,51.154608],[-0.805374,51.154936],[-0.805489,51.155327],[-0.8047,51.155354],[-0.804775,51.15505],[-0.804287,51.155054],[-0.803382,51.154177],[-0.803417,51.153037],[-0.802296,51.152687],[-0.798375,51.152538],[-0.799102,51.151391],[-0.79693,51.150864],[-0.795261,51.149772],[-0.794396,51.149759],[-0.794534,51.148041],[-0.793497,51.14536],[-0.793785,51.144788],[-0.792535,51.143794],[-0.791103,51.139235],[-0.789562,51.138335],[-0.786946,51.137553],[-0.784809,51.136132],[-0.781053,51.135218],[-0.780556,51.134483],[-0.780897,51.132803],[-0.780563,51.131258],[-0.782717,51.130032],[-0.783007,51.12937],[-0.782381,51.128523],[-0.777734,51.126868],[-0.774116,51.123068],[-0.772631,51.122366],[-0.772421,51.121766],[-0.770671,51.120977],[-0.769515,51.11884],[-0.769171,51.117088],[-0.764169,51.115181],[-0.761866,51.114896],[-0.760388,51.115386],[-0.758438,51.11532],[-0.756246,51.114184],[-0.754125,51.113746],[-0.753143,51.113159],[-0.750262,51.11348],[-0.749223,51.113095],[-0.748485,51.11238],[-0.745495,51.112204],[-0.746829,51.108476],[-0.747593,51.10776],[-0.745647,51.10644],[-0.744588,51.106457],[-0.749273,51.103246],[-0.756286,51.104577],[-0.759865,51.104868],[-0.764912,51.102909],[-0.765755,51.102846],[-0.767801,51.103414],[-0.768887,51.10325],[-0.767053,51.102391],[-0.765248,51.102505],[-0.763184,51.1029],[-0.761334,51.103825],[-0.759815,51.103908],[-0.758623,51.102337],[-0.758505,51.100584],[-0.757996,51.10063],[-0.756241,51.098326],[-0.755852,51.098544],[-0.754313,51.095876],[-0.758553,51.092033],[-0.7589,51.090847],[-0.758566,51.090816],[-0.758263,51.090342],[-0.758574,51.090165],[-0.757505,51.088836],[-0.757395,51.08779],[-0.754729,51.086609],[-0.753588,51.086692],[-0.753475,51.086454],[-0.754671,51.085855],[-0.755074,51.08525],[-0.755781,51.085121],[-0.7623,51.085508],[-0.764079,51.085166],[-0.76501,51.084432],[-0.766507,51.084633],[-0.768483,51.083989],[-0.768641,51.083532],[-0.770517,51.083216],[-0.770977,51.082543],[-0.772203,51.082573],[-0.772603,51.081964],[-0.773311,51.082203],[-0.774211,51.081542],[-0.775986,51.081116],[-0.777233,51.079789],[-0.780802,51.079352],[-0.781916,51.077895],[-0.782617,51.076025],[-0.784438,51.075068],[-0.784319,51.074676],[-0.785514,51.073237],[-0.788148,51.071948],[-0.792943,51.067662],[-0.795424,51.064908],[-0.797781,51.063546],[-0.800222,51.06333],[-0.803083,51.064046],[-0.805707,51.064153],[-0.807794,51.063516],[-0.81159,51.062946],[-0.813207,51.065575],[-0.814471,51.066671],[-0.815514,51.065518],[-0.815587,51.062422],[-0.817363,51.061205],[-0.819817,51.060681],[-0.822994,51.061916],[-0.826391,51.061342],[-0.827389,51.062269],[-0.829841,51.063609],[-0.829458,51.065101],[-0.829757,51.066359],[-0.829053,51.06778],[-0.831458,51.068564],[-0.837332,51.069193],[-0.838432,51.068507],[-0.842848,51.066887],[-0.846037,51.064208],[-0.850113,51.059336],[-0.849537,51.056429],[-0.850214,51.051829],[-0.850786,51.051044],[-0.851216,51.047606],[-0.852811,51.044843],[-0.860679,51.041884],[-0.866767,51.038621],[-0.87854,51.029567],[-0.882657,51.026862],[-0.88382,51.026505],[-0.885886,51.0266],[-0.887878,51.026232],[-0.89196,51.024751],[-0.893085,51.023795],[-0.89528,51.023379],[-0.897061,51.021924],[-0.898507,51.017667],[-0.897963,51.016811],[-0.897088,51.016319],[-0.897806,51.010315],[-0.89685,51.008883],[-0.894286,51.006942],[-0.894362,51.006495],[-0.893412,51.005351],[-0.893347,51.002743],[-0.894683,51.002507],[-0.894679,51.001929],[-0.895835,51.000892],[-0.896652,51.000808],[-0.896885,51.001431],[-0.897968,51.001073],[-0.899689,51.001253],[-0.901041,51.000749],[-0.90098,51.000455],[-0.901804,51.000171],[-0.901918,50.999115],[-0.903775,50.998569],[-0.905624,50.996806],[-0.906006,50.995736],[-0.907925,50.994092],[-0.907575,50.990628],[-0.909629,50.988962],[-0.910504,50.988719],[-0.91065,50.98795],[-0.911739,50.987141],[-0.912391,50.985726],[-0.913661,50.984703],[-0.915154,50.981114],[-0.916542,50.980301],[-0.917692,50.978664],[-0.915228,50.971444],[-0.915525,50.970613],[-0.916421,50.97001],[-0.916978,50.968605],[-0.92074,50.964557],[-0.924855,50.962356],[-0.929273,50.958347],[-0.929544,50.956064],[-0.928082,50.954804],[-0.92652,50.952527],[-0.928944,50.952349],[-0.930192,50.948151],[-0.931847,50.94558],[-0.937793,50.944448],[-0.94211,50.942894],[-0.941139,50.942453],[-0.937307,50.942117],[-0.935319,50.941103],[-0.934409,50.938992],[-0.931185,50.935283],[-0.931013,50.934464],[-0.929,50.932574],[-0.928134,50.931104],[-0.927639,50.927839],[-0.924013,50.924199],[-0.92598,50.923076],[-0.936239,50.919789],[-0.938125,50.919446],[-0.940245,50.918054],[-0.942815,50.913357],[-0.946523,50.909944],[-0.948665,50.904978],[-0.949623,50.904991],[-0.950413,50.901414],[-0.950212,50.898531],[-0.952468,50.896362],[-0.955627,50.891114],[-0.957357,50.890874],[-0.957585,50.890607],[-0.95554,50.889111],[-0.95426,50.888633],[-0.9522,50.886836],[-0.9471,50.884081],[-0.945362,50.880322],[-0.941252,50.877644],[-0.939473,50.875459],[-0.939515,50.874345],[-0.938657,50.873715],[-0.943339,50.872485],[-0.953538,50.868196],[-0.955728,50.868231],[-0.958009,50.867705],[-0.963385,50.867254],[-0.960443,50.872184],[-0.963336,50.872995],[-0.96801,50.873438],[-0.96691,50.875016],[-0.968955,50.875658],[-0.968256,50.877711],[-0.969891,50.878028],[-0.971642,50.877852],[-0.972536,50.878678],[-0.973986,50.87808],[-0.975802,50.878042],[-0.976489,50.87913],[-0.978698,50.878301],[-0.985404,50.885006],[-0.985977,50.884739],[-0.986376,50.88503],[-0.986471,50.885959],[-0.992109,50.891593],[-0.995758,50.893036],[-0.997294,50.89464],[-0.998767,50.895401],[-1.002738,50.895718],[-1.004707,50.896546],[-1.001492,50.899482],[-1.007267,50.901969],[-1.007779,50.902539],[-1.009099,50.902707],[-1.008973,50.902966],[-1.011133,50.90377],[-1.012009,50.902495],[-1.015203,50.90339],[-1.01849,50.903835],[-1.01837,50.904479],[-1.019384,50.90499],[-1.018863,50.906739],[-1.019181,50.907108],[-1.01869,50.90807],[-1.017724,50.908488],[-1.018733,50.909055],[-1.021655,50.909647],[-1.024528,50.909463],[-1.02555,50.909083],[-1.02386,50.90616],[-1.02844,50.905782],[-1.029265,50.904656],[-1.032166,50.90478],[-1.034052,50.905278],[-1.034116,50.904163],[-1.038026,50.903592],[-1.038816,50.903148],[-1.041672,50.902599],[-1.044467,50.902341],[-1.048456,50.902516],[-1.046211,50.90992],[-1.044856,50.912062],[-1.045288,50.913799],[-1.044188,50.915692],[-1.044787,50.916262],[-1.04341,50.916687],[-1.043121,50.916405],[-1.040294,50.917785],[-1.037361,50.920337],[-1.036354,50.92203],[-1.037119,50.924828],[-1.039373,50.927779],[-1.039203,50.928299],[-1.037729,50.929272],[-1.036589,50.931728],[-1.037189,50.932004],[-1.036618,50.932818],[-1.037889,50.933222],[-1.036963,50.935087],[-1.036725,50.937847],[-1.037482,50.940895],[-1.037423,50.943536],[-1.038468,50.943954],[-1.038513,50.945163],[-1.037987,50.945351],[-1.037633,50.947572],[-1.036223,50.949473],[-1.03569,50.951517],[-1.037754,50.951197],[-1.04057,50.951749],[-1.040464,50.952181],[-1.041389,50.952863],[-1.043156,50.952993],[-1.044299,50.954436],[-1.046198,50.954629],[-1.045735,50.959506],[-1.044609,50.963143],[-1.04513,50.965446],[-1.045984,50.966475],[-1.045286,50.968675],[-1.051665,50.969538],[-1.053651,50.971041],[-1.05437,50.972359],[-1.054101,50.975021],[-1.055482,50.977558],[-1.056611,50.977432],[-1.056731,50.977699],[-1.060294,50.978316],[-1.061237,50.977976],[-1.061488,50.978329],[-1.063366,50.977692],[-1.066354,50.984979],[-1.067507,50.985715],[-1.066835,50.988529],[-1.067625,50.989684],[-1.066783,50.990035],[-1.066644,50.990692],[-1.068042,50.99184],[-1.068198,50.992593],[-1.069462,50.99373],[-1.069033,50.994503],[-1.069362,50.995754],[-1.068807,50.998246],[-1.069075,50.999834],[-1.067927,51.003733],[-1.068726,51.006379],[-1.068787,51.008552],[-1.067295,51.008874],[-1.067346,51.011741],[-1.064673,51.011663],[-1.063914,51.016408],[-1.062344,51.020113],[-1.063549,51.024843],[-1.063294,51.026061],[-1.063964,51.026091],[-1.064229,51.028586],[-1.065053,51.029957],[-1.06494,51.030933],[-1.072785,51.031288],[-1.073411,51.032215],[-1.074502,51.032586],[-1.073786,51.033964],[-1.064261,51.042635],[-1.055228,51.045747],[-1.053775,51.047232],[-1.055767,51.04742],[-1.060412,51.046691],[-1.059956,51.04576],[-1.062196,51.044519],[-1.065262,51.045061],[-1.066212,51.046789],[-1.067337,51.047639],[-1.069463,51.047151],[-1.076424,51.048198],[-1.079914,51.047282],[-1.081683,51.046426],[-1.082083,51.046736],[-1.081223,51.048899],[-1.082948,51.048896],[-1.083802,51.050356],[-1.08494,51.050679],[-1.088461,51.053381],[-1.089671,51.053891],[-1.09066,51.054946],[-1.090902,51.055726],[-1.088833,51.056377],[-1.088189,51.058727],[-1.088853,51.060665],[-1.090129,51.061758],[-1.091463,51.061554],[-1.094327,51.062552],[-1.094999,51.063662],[-1.09454,51.06552],[-1.091987,51.067572],[-1.094786,51.068318],[-1.099135,51.070714],[-1.100138,51.071545],[-1.101539,51.073854],[-1.107137,51.078895],[-1.106444,51.081105],[-1.108439,51.085644],[-1.108651,51.087134],[-1.107763,51.087168],[-1.108126,51.088546],[-1.106524,51.088641],[-1.106073,51.09036],[-1.105396,51.090879],[-1.102207,51.091634],[-1.101978,51.091442],[-1.100277,51.092079],[-1.10108,51.09296],[-1.100443,51.094],[-1.098227,51.093644],[-1.095393,51.094863],[-1.092035,51.095315],[-1.085815,51.097248],[-1.085264,51.097869],[-1.082857,51.09907],[-1.083804,51.100869],[-1.083288,51.102929],[-1.080498,51.10455],[-1.079272,51.105642],[-1.075148,51.106923],[-1.073225,51.10717],[-1.072212,51.106922],[-1.073181,51.107873],[-1.07467,51.107918],[-1.080764,51.109443],[-1.087712,51.109483],[-1.093925,51.107768],[-1.093161,51.108849],[-1.091601,51.10983],[-1.090533,51.111998],[-1.091239,51.114586],[-1.091491,51.120262],[-1.093776,51.121744],[-1.095179,51.124049],[-1.094943,51.125994],[-1.092487,51.129692],[-1.093312,51.129886],[-1.093338,51.130337],[-1.092835,51.130622],[-1.094683,51.132944],[-1.093586,51.134902],[-1.093474,51.137046],[-1.095084,51.136862],[-1.095415,51.138073],[-1.095043,51.140346],[-1.099685,51.140672],[-1.102149,51.14029],[-1.109515,51.137055],[-1.112114,51.136578],[-1.113797,51.137118],[-1.11773,51.137288],[-1.123356,51.138702],[-1.1255,51.138819],[-1.126511,51.138021],[-1.129786,51.138595],[-1.130717,51.140305],[-1.131018,51.142544],[-1.13179,51.143581],[-1.130483,51.145546],[-1.126115,51.148161],[-1.122234,51.149976],[-1.117242,51.151433],[-1.117532,51.152397],[-1.116265,51.153679],[-1.11179,51.156335],[-1.109053,51.158583],[-1.107218,51.161356],[-1.104921,51.163149],[-1.100453,51.16312],[-1.09931,51.163971],[-1.096201,51.164702],[-1.094188,51.165735],[-1.087378,51.16769],[-1.08502,51.16714],[-1.082776,51.16569],[-1.080536,51.165004],[-1.075018,51.164293],[-1.07425,51.164452],[-1.077471,51.172736],[-1.077324,51.173285],[-1.074854,51.175105],[-1.076197,51.177735],[-1.07601,51.179199],[-1.074688,51.180719],[-1.073415,51.185326],[-1.071104,51.187756],[-1.061691,51.190518],[-1.061782,51.18873],[-1.057253,51.189167],[-1.052002,51.189066],[-1.050027,51.187934],[-1.044309,51.189697],[-1.035691,51.190707],[-1.029665,51.189966],[-1.023384,51.189861],[-1.019929,51.188791],[-1.01313,51.187742],[-1.010902,51.188411],[-1.008114,51.189958],[-1.004886,51.189715],[-1.004081,51.188954],[-1.002701,51.189296],[-1.001029,51.189201],[-0.997205,51.190039],[-0.994322,51.189945],[-0.989489,51.19087],[-0.985883,51.190436],[-0.985289,51.190023],[-0.982157,51.189302],[-0.979834,51.187919],[-0.977104,51.187706],[-0.975438,51.186858],[-0.974807,51.186154],[-0.97382,51.186008],[-0.969307,51.187305],[-0.967203,51.188301],[-0.964958,51.190134],[-0.964245,51.19188],[-0.962018,51.194977],[-0.960859,51.195585],[-0.957192,51.196379],[-0.953828,51.198362],[-0.951176,51.200447],[-0.949058,51.198964],[-0.933177,51.203305],[-0.929912,51.202997],[-0.922185,51.203561],[-0.921048,51.203694],[-0.919538,51.204622],[-0.917485,51.205122],[-0.914885,51.205176],[-0.912051,51.205779],[-0.909178,51.205499],[-0.905612,51.206747],[-0.906638,51.208238],[-0.90456,51.208805],[-0.904308,51.209909],[-0.902985,51.209306],[-0.89451,51.210065],[-0.880887,51.210299],[-0.872038,51.212506],[-0.869052,51.212737],[-0.863334,51.212548],[-0.860821,51.211967],[-0.858789,51.211942]]]}}]}