{"type":"FeatureCollection","features":[{"type":"Feature","properties":{"slug":"east-devon","gss_code":"E07000040","name":"East Devon"},"geometry":{"type":"MultiPolygon","coordinates":[[[[-3.308287,50.631319],[-3.308303,50.630965],[-3.30869,50.630741],[-3.308753,50.631081],[-3.309645,50.631388],[-3.308914,50.630701],[-3.310839,50.631655],[-3.308287,50.631319]]],[[[-3.308424,50.631349],[-3.309238,50.631814],[-3.310339,50.631797],[-3.310163,50.632242],[-3.309744,50.632143],[-3.310139,50.632332],[-3.309826,50.632646],[-3.310463,50.63238],[-3.309737,50.633076],[-3.310086,50.633062],[-3.310032,50.633343],[-3.310229,50.633042],[-3.310309,50.633488],[-3.309658,50.633692],[-3.308424,50.631349]]],[[[-3.458814,50.687853],[-3.458519,50.688392],[-3.458467,50.688372],[-3.458814,50.687853]]],[[[-3.459534,50.69276],[-3.45998,50.692993],[-3.459774,50.692936],[-3.459534,50.69276]]],[[[-3.051326,50.906323],[-3.050387,50.905983],[-3.050521,50.904575],[-3.049904,50.903921],[-3.050144,50.903007],[-3.051466,50.901713],[-3.051367,50.901333],[-3.051755,50.900887],[-3.052352,50.900804],[-3.052314,50.899994],[-3.053253,50.898672],[-3.053044,50.897684],[-3.054711,50.896587],[-3.054773,50.896094],[-3.053865,50.895458],[-3.055086,50.894588],[-3.055403,50.892543],[-3.054857,50.892015],[-3.055523,50.891735],[-3.05568,50.891133],[-3.055392,50.890187],[-3.053735,50.888573],[-3.053345,50.886795],[-3.052299,50.886025],[-3.052229,50.884888],[-3.052985,50.884368],[-3.053294,50.88342],[-3.051768,50.882657],[-3.051908,50.880222],[-3.05251,50.879004],[-3.053843,50.878393],[-3.053592,50.877681],[-3.054356,50.87681],[-3.053937,50.875971],[-3.05464,50.875761],[-3.054305,50.874725],[-3.054982,50.87451],[-3.05375,50.873636],[-3.054062,50.873043],[-3.051579,50.872765],[-3.046761,50.871379],[-3.046107,50.871868],[-3.045326,50.869576],[-3.043733,50.868104],[-3.042026,50.868855],[-3.039281,50.868701],[-3.038442,50.868315],[-3.036984,50.86678],[-3.036652,50.865182],[-3.034595,50.864],[-3.034727,50.862442],[-3.032632,50.861639],[-3.033309,50.861163],[-3.034592,50.859046],[-3.036366,50.858245],[-3.035733,50.85625],[-3.037089,50.854395],[-3.036084,50.852853],[-3.036806,50.851065],[-3.034785,50.850946],[-3.031819,50.851735],[-3.021105,50.855506],[-3.018491,50.855788],[-3.014103,50.855131],[-3.012931,50.855722],[-3.012595,50.856906],[-3.011443,50.857209],[-3.006238,50.853854],[-3.00364,50.853389],[-3.001644,50.851673],[-3.000487,50.851686],[-2.998551,50.850965],[-2.996264,50.854672],[-2.994444,50.855146],[-2.993471,50.854916],[-2.990568,50.855685],[-2.98759,50.855933],[-2.984364,50.854963],[-2.97984,50.854811],[-2.976959,50.855561],[-2.97359,50.855657],[-2.97385,50.853855],[-2.974631,50.852338],[-2.972053,50.851893],[-2.971155,50.851452],[-2.968051,50.851301],[-2.970103,50.849612],[-2.971003,50.847719],[-2.972572,50.846031],[-2.972424,50.844347],[-2.971184,50.842893],[-2.969404,50.841734],[-2.968538,50.840511],[-2.969829,50.8342],[-2.966327,50.833639],[-2.965579,50.831792],[-2.961687,50.829801],[-2.9626,50.828834],[-2.962929,50.827731],[-2.959048,50.826082],[-2.957552,50.824826],[-2.95767,50.824287],[-2.955934,50.823019],[-2.954322,50.821166],[-2.955509,50.820183],[-2.956837,50.820491],[-2.958171,50.819987],[-2.958785,50.818527],[-2.95839,50.818166],[-2.957629,50.818302],[-2.957369,50.818048],[-2.957724,50.817764],[-2.958093,50.81801],[-2.958625,50.817759],[-2.959453,50.817884],[-2.959184,50.817252],[-2.959617,50.816801],[-2.961226,50.816565],[-2.961599,50.816137],[-2.961303,50.815555],[-2.960839,50.815505],[-2.959989,50.816397],[-2.959059,50.816036],[-2.958434,50.816336],[-2.958324,50.815809],[-2.956613,50.815857],[-2.954728,50.815367],[-2.954114,50.815528],[-2.952733,50.815065],[-2.951753,50.81545],[-2.950916,50.814985],[-2.94983,50.815],[-2.94945,50.815422],[-2.949041,50.815153],[-2.947961,50.815426],[-2.946839,50.814611],[-2.947213,50.81431],[-2.945675,50.814073],[-2.944814,50.813369],[-2.944121,50.813399],[-2.943203,50.812389],[-2.942723,50.812397],[-2.942589,50.811936],[-2.941506,50.811725],[-2.941634,50.811112],[-2.94074,50.811107],[-2.939786,50.810479],[-2.939012,50.810437],[-2.939043,50.810084],[-2.938402,50.809835],[-2.936736,50.810081],[-2.936271,50.809731],[-2.935523,50.809831],[-2.934462,50.809182],[-2.931592,50.809139],[-2.931277,50.808637],[-2.930728,50.809012],[-2.929778,50.809072],[-2.928956,50.808424],[-2.927552,50.8084],[-2.926595,50.807857],[-2.926251,50.808264],[-2.925276,50.807984],[-2.924899,50.808291],[-2.922722,50.807594],[-2.921915,50.806914],[-2.920171,50.806676],[-2.918556,50.805631],[-2.917615,50.805919],[-2.915307,50.805293],[-2.913592,50.805296],[-2.913297,50.805006],[-2.912086,50.805246],[-2.911296,50.804624],[-2.907349,50.804673],[-2.905433,50.805267],[-2.902609,50.804619],[-2.900657,50.804742],[-2.899809,50.80517],[-2.897188,50.804523],[-2.895719,50.804949],[-2.895011,50.804633],[-2.894228,50.804945],[-2.892868,50.804794],[-2.89156,50.803776],[-2.890229,50.803449],[-2.890416,50.802566],[-2.889879,50.802188],[-2.890202,50.801607],[-2.889693,50.801126],[-2.889809,50.800679],[-2.888755,50.799721],[-2.888814,50.798406],[-2.887029,50.796178],[-2.886683,50.794703],[-2.889315,50.793926],[-2.887762,50.793441],[-2.887816,50.792919],[-2.887039,50.792523],[-2.89058,50.790517],[-2.893745,50.789859],[-2.895639,50.787539],[-2.897456,50.78614],[-2.913556,50.78449],[-2.918728,50.783624],[-2.929653,50.782433],[-2.932716,50.781483],[-2.940955,50.777451],[-2.948899,50.772025],[-2.954334,50.76771],[-2.955945,50.764971],[-2.955706,50.764165],[-2.956039,50.763642],[-2.95306,50.762171],[-2.952591,50.761382],[-2.949613,50.760918],[-2.939423,50.757113],[-2.935139,50.754195],[-2.936512,50.752993],[-2.939683,50.75184],[-2.940572,50.749893],[-2.940586,50.748637],[-2.938249,50.745965],[-2.937862,50.744097],[-2.938885,50.743347],[-2.940634,50.742703],[-2.945655,50.737819],[-2.946585,50.737293],[-2.946619,50.735846],[-2.946308,50.735262],[-2.945845,50.73518],[-2.947019,50.73499],[-2.947779,50.73378],[-2.949602,50.732347],[-2.953067,50.728497],[-2.952603,50.724594],[-2.948733,50.721263],[-2.948705,50.719774],[-2.94766,50.718247],[-2.951746,50.715957],[-2.953172,50.714539],[-2.958259,50.713104],[-2.96456,50.713042],[-2.966811,50.712742],[-2.970849,50.709569],[-2.975775,50.708222],[-2.982007,50.705091],[-2.984517,50.704625],[-2.992149,50.705576],[-2.995009,50.705461],[-2.997732,50.704588],[-3.001667,50.702128],[-3.006689,50.700403],[-3.022628,50.698391],[-3.028803,50.698714],[-3.047392,50.701508],[-3.053604,50.701862],[-3.054632,50.702406],[-3.054829,50.702922],[-3.058153,50.70388],[-3.059071,50.705191],[-3.056558,50.711499],[-3.055977,50.713781],[-3.05615,50.714926],[-3.055348,50.716402],[-3.054774,50.716582],[-3.0545,50.718223],[-3.05484,50.718727],[-3.056121,50.718914],[-3.05499,50.719053],[-3.053201,50.721276],[-3.053037,50.721854],[-3.054839,50.71931],[-3.05612,50.71897],[-3.056928,50.719567],[-3.055654,50.720873],[-3.055882,50.721464],[-3.055435,50.721402],[-3.056934,50.721818],[-3.057138,50.7224],[-3.05481,50.722568],[-3.054541,50.722773],[-3.054923,50.723655],[-3.053553,50.723654],[-3.052418,50.724952],[-3.051372,50.724754],[-3.050928,50.725004],[-3.051128,50.725262],[-3.051515,50.724886],[-3.052502,50.725596],[-3.052992,50.725492],[-3.0527,50.725085],[-3.053086,50.724609],[-3.053594,50.7247],[-3.053878,50.723896],[-3.05509,50.72383],[-3.055149,50.723167],[-3.056782,50.722747],[-3.058315,50.722975],[-3.058372,50.723211],[-3.058345,50.722955],[-3.057015,50.722725],[-3.057577,50.722425],[-3.057298,50.721707],[-3.056197,50.721088],[-3.057082,50.720269],[-3.057117,50.720557],[-3.057569,50.720494],[-3.057263,50.720203],[-3.058002,50.719707],[-3.057582,50.720394],[-3.058271,50.719704],[-3.059016,50.72001],[-3.058822,50.720338],[-3.059028,50.720495],[-3.060306,50.720825],[-3.05891,50.720349],[-3.059113,50.719967],[-3.058194,50.719454],[-3.059022,50.719041],[-3.058725,50.716662],[-3.060796,50.705526],[-3.059956,50.70451],[-3.060387,50.704276],[-3.059473,50.703612],[-3.057973,50.703502],[-3.054867,50.702524],[-3.060908,50.703024],[-3.072784,50.70305],[-3.079039,50.702438],[-3.08244,50.701615],[-3.084494,50.700651],[-3.084582,50.698966],[-3.086315,50.698072],[-3.087538,50.696474],[-3.09047,50.695966],[-3.091928,50.695261],[-3.093044,50.692851],[-3.09277,50.690429],[-3.093185,50.690551],[-3.093299,50.69027],[-3.094038,50.690258],[-3.094706,50.689822],[-3.094552,50.687468],[-3.095551,50.68657],[-3.095576,50.685433],[-3.09602,50.685226],[-3.100336,50.68567],[-3.105284,50.685389],[-3.115274,50.686491],[-3.126545,50.686889],[-3.138684,50.686496],[-3.141146,50.685908],[-3.147073,50.685402],[-3.151228,50.685404],[-3.158759,50.686079],[-3.167014,50.684937],[-3.18473,50.684951],[-3.193131,50.684406],[-3.197663,50.683114],[-3.199149,50.682399],[-3.206949,50.682147],[-3.213452,50.681531],[-3.234092,50.678875],[-3.234057,50.67865],[-3.23486,50.678433],[-3.234796,50.678049],[-3.235463,50.678264],[-3.239974,50.677389],[-3.245641,50.675276],[-3.248449,50.675164],[-3.252609,50.674459],[-3.25841,50.673062],[-3.264241,50.671206],[-3.266718,50.669931],[-3.267533,50.667509],[-3.267137,50.666699],[-3.268884,50.664892],[-3.27114,50.664464],[-3.273552,50.662649],[-3.275995,50.662306],[-3.276523,50.661638],[-3.276341,50.661071],[-3.27763,50.660329],[-3.277468,50.659219],[-3.278195,50.659481],[-3.280577,50.657719],[-3.281107,50.656978],[-3.280703,50.656091],[-3.280102,50.655809],[-3.283749,50.654179],[-3.2853,50.652365],[-3.285071,50.648499],[-3.285717,50.647861],[-3.285962,50.6467],[-3.287337,50.64565],[-3.287432,50.644969],[-3.288791,50.643236],[-3.288889,50.640945],[-3.289454,50.641],[-3.292974,50.638836],[-3.294486,50.63585],[-3.296828,50.635015],[-3.30005,50.632639],[-3.300747,50.631956],[-3.300643,50.631512],[-3.302701,50.630793],[-3.303726,50.629807],[-3.304844,50.629926],[-3.306059,50.629582],[-3.306325,50.629803],[-3.305749,50.630124],[-3.306313,50.630511],[-3.306485,50.632705],[-3.307163,50.632625],[-3.307781,50.632942],[-3.307291,50.632553],[-3.3068,50.632479],[-3.307073,50.632031],[-3.306735,50.631556],[-3.307168,50.631273],[-3.308394,50.632694],[-3.308574,50.633453],[-3.307846,50.633281],[-3.307962,50.633609],[-3.30866,50.633728],[-3.308395,50.63468],[-3.309119,50.636366],[-3.309268,50.638714],[-3.30896,50.638852],[-3.308617,50.638796],[-3.308515,50.638832],[-3.308016,50.639247],[-3.308569,50.638821],[-3.309195,50.639036],[-3.310058,50.643986],[-3.309948,50.64532],[-3.308807,50.647594],[-3.310101,50.645437],[-3.310277,50.644468],[-3.30926,50.634508],[-3.309422,50.633859],[-3.309788,50.633876],[-3.30965,50.634324],[-3.310084,50.634629],[-3.309766,50.635149],[-3.310361,50.63486],[-3.310745,50.635878],[-3.310357,50.63288],[-3.311416,50.631606],[-3.309053,50.630586],[-3.310348,50.630517],[-3.310269,50.630664],[-3.310631,50.630996],[-3.310373,50.630659],[-3.310858,50.630596],[-3.311214,50.631359],[-3.311914,50.630861],[-3.311315,50.630411],[-3.308826,50.630431],[-3.307032,50.629939],[-3.306524,50.630135],[-3.3068,50.629574],[-3.314523,50.6294],[-3.324273,50.627913],[-3.334972,50.625229],[-3.349478,50.620289],[-3.35525,50.617893],[-3.35912,50.615557],[-3.359853,50.614037],[-3.359111,50.613791],[-3.357768,50.612389],[-3.357832,50.611651],[-3.358485,50.611589],[-3.358802,50.611223],[-3.35789,50.610652],[-3.3579,50.608654],[-3.358669,50.607011],[-3.359237,50.606997],[-3.35963,50.607487],[-3.361256,50.607718],[-3.361871,50.60662],[-3.362454,50.60777],[-3.362958,50.607813],[-3.363686,50.608848],[-3.363977,50.609772],[-3.364799,50.609799],[-3.369059,50.609509],[-3.376544,50.607895],[-3.381197,50.60755],[-3.385456,50.606751],[-3.385937,50.60734],[-3.387061,50.607577],[-3.387907,50.608175],[-3.388045,50.609051],[-3.393256,50.609867],[-3.398331,50.610051],[-3.399942,50.611078],[-3.401127,50.611318],[-3.407336,50.611632],[-3.409478,50.612354],[-3.413581,50.614972],[-3.4158,50.615822],[-3.422997,50.616634],[-3.424433,50.616441],[-3.423806,50.617335],[-3.42299,50.617186],[-3.42232,50.617846],[-3.424171,50.618492],[-3.424819,50.617942],[-3.423903,50.617522],[-3.424542,50.616881],[-3.424764,50.617402],[-3.425413,50.617375],[-3.426516,50.61805],[-3.424087,50.619599],[-3.421705,50.619598],[-3.420618,50.619242],[-3.420507,50.619705],[-3.42219,50.620437],[-3.42148,50.621419],[-3.419924,50.62158],[-3.418742,50.621013],[-3.41763,50.620955],[-3.416693,50.621286],[-3.415608,50.623984],[-3.41625,50.627408],[-3.415509,50.629195],[-3.417611,50.632094],[-3.421627,50.635073],[-3.423096,50.638848],[-3.424789,50.640608],[-3.430051,50.643848],[-3.432878,50.646068],[-3.432232,50.647829],[-3.431767,50.647928],[-3.433161,50.64787],[-3.432611,50.647955],[-3.433855,50.648459],[-3.434023,50.649051],[-3.433116,50.650149],[-3.434719,50.652377],[-3.435993,50.656051],[-3.439949,50.660463],[-3.442454,50.66481],[-3.443437,50.665712],[-3.443143,50.666113],[-3.443515,50.666849],[-3.44262,50.666324],[-3.442966,50.666705],[-3.442543,50.666551],[-3.442475,50.667129],[-3.442066,50.667228],[-3.442499,50.667171],[-3.442616,50.666594],[-3.443538,50.666895],[-3.444712,50.668904],[-3.446175,50.669658],[-3.446625,50.670728],[-3.449747,50.67281],[-3.450849,50.674451],[-3.451399,50.676961],[-3.4521,50.677499],[-3.450735,50.682169],[-3.45188,50.68354],[-3.449902,50.684445],[-3.450505,50.68469],[-3.450108,50.684383],[-3.451975,50.683744],[-3.454703,50.68393],[-3.455415,50.68344],[-3.455553,50.682379],[-3.456195,50.682241],[-3.457231,50.683837],[-3.458661,50.684679],[-3.459237,50.685674],[-3.45918,50.68713],[-3.458217,50.688675],[-3.458761,50.689679],[-3.460158,50.690168],[-3.46031,50.691364],[-3.458905,50.692637],[-3.460771,50.693406],[-3.461161,50.694227],[-3.461092,50.694899],[-3.460297,50.695665],[-3.458099,50.695427],[-3.457506,50.694545],[-3.458566,50.693164],[-3.457709,50.69258],[-3.457095,50.692551],[-3.456552,50.692794],[-3.455436,50.69673],[-3.455931,50.697148],[-3.458576,50.696763],[-3.458907,50.697465],[-3.457694,50.697688],[-3.457504,50.697826],[-3.457739,50.698402],[-3.457032,50.699453],[-3.457493,50.699687],[-3.458266,50.699679],[-3.458762,50.700059],[-3.461487,50.70084],[-3.462541,50.701532],[-3.462602,50.702078],[-3.462743,50.701554],[-3.461789,50.700863],[-3.458333,50.699636],[-3.457123,50.699479],[-3.457813,50.69838],[-3.457632,50.697793],[-3.458755,50.697718],[-3.45898,50.69743],[-3.458763,50.696795],[-3.45792,50.69662],[-3.455939,50.697034],[-3.455499,50.696676],[-3.456682,50.692819],[-3.45733,50.692609],[-3.458473,50.693222],[-3.457483,50.694315],[-3.457374,50.694782],[-3.457636,50.695202],[-3.458287,50.695561],[-3.459626,50.695811],[-3.462994,50.695332],[-3.46352,50.696129],[-3.466112,50.695494],[-3.46798,50.697782],[-3.468264,50.698729],[-3.470884,50.697767],[-3.471422,50.698814],[-3.468096,50.705769],[-3.463657,50.712576],[-3.462264,50.716997],[-3.462436,50.728816],[-3.462095,50.734109],[-3.460433,50.739198],[-3.462571,50.739302],[-3.465996,50.742072],[-3.464932,50.743347],[-3.46547,50.743793],[-3.465097,50.744949],[-3.466586,50.744318],[-3.467506,50.744296],[-3.469711,50.745381],[-3.474984,50.746278],[-3.475423,50.745908],[-3.478732,50.746827],[-3.481021,50.746987],[-3.484074,50.749895],[-3.48969,50.752941],[-3.492962,50.754037],[-3.498973,50.754307],[-3.502748,50.755271],[-3.502784,50.75577],[-3.504606,50.757332],[-3.505249,50.75718],[-3.506861,50.758658],[-3.50742,50.760607],[-3.51228,50.761099],[-3.512739,50.761455],[-3.513931,50.760788],[-3.514648,50.759545],[-3.515484,50.759189],[-3.522492,50.757563],[-3.524066,50.757658],[-3.525422,50.758369],[-3.52587,50.758304],[-3.526346,50.757657],[-3.526221,50.755304],[-3.527228,50.755161],[-3.528844,50.755472],[-3.529045,50.756558],[-3.530542,50.756974],[-3.534953,50.755949],[-3.536132,50.754189],[-3.537369,50.75313],[-3.542104,50.751794],[-3.544065,50.750917],[-3.547461,50.748975],[-3.548215,50.747303],[-3.549074,50.74821],[-3.550344,50.748795],[-3.551641,50.747644],[-3.552025,50.745131],[-3.552961,50.745463],[-3.555929,50.744836],[-3.559971,50.744692],[-3.567537,50.745532],[-3.573378,50.744114],[-3.579467,50.741836],[-3.583083,50.741559],[-3.58552,50.743866],[-3.584311,50.744976],[-3.580475,50.747143],[-3.578019,50.749767],[-3.573882,50.752652],[-3.576039,50.753957],[-3.576303,50.755072],[-3.573562,50.75565],[-3.569388,50.755717],[-3.57094,50.75822],[-3.570544,50.760237],[-3.561672,50.75836],[-3.559597,50.757655],[-3.556807,50.75795],[-3.557025,50.75832],[-3.556431,50.758891],[-3.559562,50.759833],[-3.558742,50.761827],[-3.558362,50.762332],[-3.55111,50.765235],[-3.551445,50.765296],[-3.550609,50.766377],[-3.550574,50.767441],[-3.551396,50.768674],[-3.551352,50.769645],[-3.552115,50.771186],[-3.547416,50.772983],[-3.550092,50.774564],[-3.552129,50.774778],[-3.553733,50.774487],[-3.555924,50.775076],[-3.557216,50.77498],[-3.557927,50.774765],[-3.558532,50.77361],[-3.559191,50.775028],[-3.563353,50.775005],[-3.563215,50.779042],[-3.564123,50.779399],[-3.567012,50.779487],[-3.568996,50.781006],[-3.569178,50.784153],[-3.570442,50.785515],[-3.570744,50.787042],[-3.572012,50.788534],[-3.561529,50.790993],[-3.55432,50.791622],[-3.543411,50.790979],[-3.543196,50.790231],[-3.541705,50.790902],[-3.536758,50.791604],[-3.536485,50.791266],[-3.533938,50.790868],[-3.528077,50.788884],[-3.524711,50.787003],[-3.523788,50.789195],[-3.523929,50.791958],[-3.524757,50.793676],[-3.526425,50.795415],[-3.526683,50.797535],[-3.526139,50.797508],[-3.525949,50.795412],[-3.525882,50.796727],[-3.525332,50.797306],[-3.524263,50.796714],[-3.523905,50.796931],[-3.521531,50.796451],[-3.519876,50.796738],[-3.518374,50.797424],[-3.517821,50.79898],[-3.517341,50.798923],[-3.516778,50.800006],[-3.514118,50.802162],[-3.512467,50.804693],[-3.51147,50.804539],[-3.511003,50.805019],[-3.512446,50.80785],[-3.512073,50.810979],[-3.509837,50.811464],[-3.509319,50.811254],[-3.509447,50.811645],[-3.507705,50.812221],[-3.507851,50.813821],[-3.504997,50.814391],[-3.505055,50.81508],[-3.505726,50.815551],[-3.507291,50.815276],[-3.509142,50.815802],[-3.510036,50.816618],[-3.510644,50.81631],[-3.509715,50.817399],[-3.510039,50.819381],[-3.509656,50.820448],[-3.508506,50.820668],[-3.50753,50.820312],[-3.50656,50.820555],[-3.505269,50.821749],[-3.506417,50.821867],[-3.50716,50.822356],[-3.506953,50.824045],[-3.508085,50.825139],[-3.507403,50.827282],[-3.506055,50.826751],[-3.505409,50.825634],[-3.499472,50.825115],[-3.499021,50.821406],[-3.49759,50.817768],[-3.498429,50.816795],[-3.496751,50.816955],[-3.497158,50.812285],[-3.498598,50.808818],[-3.500193,50.805952],[-3.502664,50.803933],[-3.502238,50.801042],[-3.502517,50.799045],[-3.499498,50.799194],[-3.498933,50.798955],[-3.498651,50.799296],[-3.493953,50.799423],[-3.490282,50.799961],[-3.480749,50.799367],[-3.480749,50.798439],[-3.479193,50.796832],[-3.477713,50.796373],[-3.47794,50.795643],[-3.479125,50.795111],[-3.479447,50.795291],[-3.480101,50.79447],[-3.482019,50.794475],[-3.483188,50.794125],[-3.483505,50.793841],[-3.483297,50.79199],[-3.481742,50.792672],[-3.480349,50.792469],[-3.479421,50.792995],[-3.478195,50.792676],[-3.477361,50.794024],[-3.476696,50.793946],[-3.476305,50.794968],[-3.472645,50.797144],[-3.471958,50.797113],[-3.470118,50.795864],[-3.470114,50.794867],[-3.469039,50.795116],[-3.469729,50.795525],[-3.469068,50.795945],[-3.46786,50.795547],[-3.468262,50.796846],[-3.467079,50.797378],[-3.468448,50.798165],[-3.468153,50.798474],[-3.466566,50.798741],[-3.465918,50.799379],[-3.466473,50.800354],[-3.466112,50.800882],[-3.464137,50.80098],[-3.463056,50.802278],[-3.46075,50.803343],[-3.45857,50.803352],[-3.458083,50.803161],[-3.458177,50.802681],[-3.457488,50.802528],[-3.456929,50.802873],[-3.456041,50.801672],[-3.454541,50.800536],[-3.453572,50.800175],[-3.451947,50.80013],[-3.451152,50.799659],[-3.449543,50.799953],[-3.446419,50.799774],[-3.445883,50.800183],[-3.443256,50.800347],[-3.442995,50.800831],[-3.444061,50.800554],[-3.444225,50.801172],[-3.441369,50.80259],[-3.440884,50.801991],[-3.440097,50.802331],[-3.440241,50.802948],[-3.439733,50.803196],[-3.439558,50.804276],[-3.439801,50.80486],[-3.439231,50.805243],[-3.4395,50.806015],[-3.438006,50.806548],[-3.437558,50.807057],[-3.43763,50.808043],[-3.436036,50.808079],[-3.434473,50.809449],[-3.433506,50.809305],[-3.431992,50.810774],[-3.429752,50.812042],[-3.427866,50.811585],[-3.426033,50.812402],[-3.425669,50.811886],[-3.424276,50.811557],[-3.423581,50.812003],[-3.422654,50.811519],[-3.419857,50.811471],[-3.417902,50.810472],[-3.416662,50.808471],[-3.413839,50.806879],[-3.412326,50.806677],[-3.41067,50.805413],[-3.412083,50.804973],[-3.410473,50.804605],[-3.405875,50.805048],[-3.401992,50.806531],[-3.399204,50.806639],[-3.394915,50.807794],[-3.391248,50.807926],[-3.388715,50.808789],[-3.387179,50.808765],[-3.383857,50.810219],[-3.380867,50.810736],[-3.380471,50.810193],[-3.379104,50.809772],[-3.378924,50.810288],[-3.376536,50.810135],[-3.373149,50.810985],[-3.368308,50.81087],[-3.366853,50.812216],[-3.363034,50.811652],[-3.362537,50.812144],[-3.361258,50.812391],[-3.361074,50.811957],[-3.359959,50.811877],[-3.35991,50.814841],[-3.361747,50.820994],[-3.366988,50.820534],[-3.368,50.823564],[-3.367473,50.827233],[-3.367624,50.829534],[-3.36675,50.829325],[-3.364015,50.832544],[-3.362357,50.831777],[-3.355898,50.833905],[-3.355409,50.83149],[-3.357011,50.826903],[-3.353845,50.826445],[-3.350896,50.827292],[-3.343568,50.825834],[-3.342257,50.827728],[-3.341235,50.828381],[-3.342809,50.830433],[-3.342848,50.831001],[-3.344839,50.830889],[-3.344872,50.831226],[-3.343602,50.832438],[-3.343471,50.833083],[-3.341749,50.834133],[-3.340712,50.835412],[-3.342259,50.83628],[-3.34259,50.83738],[-3.341647,50.840509],[-3.342926,50.843039],[-3.344782,50.841656],[-3.346478,50.843242],[-3.348479,50.844238],[-3.348792,50.844649],[-3.348168,50.846736],[-3.342981,50.846215],[-3.34339,50.847574],[-3.339374,50.849649],[-3.332505,50.85202],[-3.329687,50.851671],[-3.329426,50.851924],[-3.330089,50.852696],[-3.331067,50.856081],[-3.328272,50.856786],[-3.328303,50.857029],[-3.325336,50.856981],[-3.321559,50.857523],[-3.319241,50.856952],[-3.319398,50.856053],[-3.318547,50.854785],[-3.312037,50.855505],[-3.306119,50.854431],[-3.297607,50.854715],[-3.29321,50.854149],[-3.291679,50.854431],[-3.289385,50.853928],[-3.284107,50.854706],[-3.28128,50.855813],[-3.276972,50.858048],[-3.275867,50.859087],[-3.276446,50.859696],[-3.279395,50.861073],[-3.283211,50.863478],[-3.282685,50.866302],[-3.278026,50.867857],[-3.27485,50.868177],[-3.265377,50.872],[-3.262496,50.873918],[-3.25902,50.876996],[-3.256736,50.878153],[-3.254142,50.878621],[-3.253199,50.879081],[-3.252955,50.879788],[-3.253528,50.880421],[-3.252782,50.881194],[-3.251813,50.883958],[-3.249161,50.886385],[-3.247173,50.887552],[-3.245869,50.887218],[-3.244221,50.887374],[-3.243115,50.888599],[-3.243647,50.889462],[-3.238797,50.890367],[-3.234844,50.892902],[-3.234035,50.894306],[-3.233044,50.89505],[-3.231438,50.895015],[-3.230371,50.894364],[-3.228644,50.894035],[-3.227031,50.894741],[-3.225964,50.894645],[-3.217586,50.89289],[-3.21806,50.889377],[-3.218689,50.88815],[-3.2183,50.887602],[-3.215816,50.887586],[-3.215631,50.886823],[-3.218208,50.886371],[-3.21808,50.884738],[-3.216073,50.882832],[-3.215303,50.882577],[-3.21409,50.880788],[-3.212782,50.879847],[-3.211984,50.879657],[-3.21108,50.878639],[-3.208642,50.877514],[-3.208645,50.877264],[-3.207233,50.877078],[-3.205108,50.877586],[-3.201681,50.877642],[-3.200979,50.878142],[-3.198326,50.877478],[-3.196862,50.877993],[-3.189597,50.878756],[-3.187529,50.8787],[-3.187691,50.877359],[-3.182146,50.876435],[-3.18121,50.877106],[-3.178111,50.878237],[-3.176156,50.877084],[-3.17056,50.878836],[-3.168462,50.880118],[-3.166675,50.880429],[-3.165829,50.881402],[-3.163648,50.882299],[-3.165246,50.884246],[-3.151277,50.886475],[-3.142429,50.889251],[-3.144185,50.891398],[-3.143245,50.891771],[-3.141828,50.891695],[-3.141562,50.892332],[-3.140145,50.892071],[-3.139626,50.891461],[-3.135126,50.895114],[-3.131099,50.897247],[-3.126341,50.90172],[-3.123265,50.899453],[-3.122079,50.898161],[-3.118291,50.899359],[-3.115871,50.900803],[-3.112053,50.902403],[-3.106997,50.902851],[-3.103569,50.90411],[-3.10147,50.904075],[-3.09948,50.904649],[-3.095451,50.904928],[-3.089851,50.906114],[-3.087893,50.906255],[-3.080546,50.905435],[-3.078088,50.905435],[-3.060071,50.908455],[-3.057197,50.908418],[-3.056211,50.908042],[-3.053112,50.908742],[-3.052405,50.908272],[-3.051326,50.906323]]]]}}]}