{"type":"FeatureCollection","features":[{"type":"Feature","properties":{"slug":"east-riding-of-yorkshire","gss_code":"E06000011","name":"East Riding of Yorkshire"},"geometry":{"type":"MultiPolygon","coordinates":[[[[-1.062544,53.706862],[-1.062475,53.706879],[-1.062457,53.706874],[-1.062544,53.706862]]],[[[-0.726432,53.703774],[-0.726003,53.704082],[-0.719649,53.703461],[-0.70494,53.700814],[-0.703146,53.699845],[-0.699976,53.698866],[-0.699208,53.698286],[-0.699581,53.698078],[-0.698497,53.697654],[-0.699897,53.696157],[-0.705591,53.69679],[-0.709978,53.695864],[-0.705623,53.696622],[-0.699725,53.695693],[-0.700332,53.695042],[-0.700737,53.690026],[-0.700162,53.68743],[-0.700608,53.687454],[-0.69996,53.686998],[-0.701447,53.686393],[-0.699784,53.68677],[-0.698532,53.684675],[-0.701037,53.683923],[-0.704311,53.681509],[-0.704736,53.680656],[-0.703315,53.679404],[-0.702381,53.677487],[-0.704818,53.677833],[-0.709012,53.677249],[-0.713842,53.677438],[-0.715175,53.678309],[-0.717693,53.678242],[-0.717996,53.679987],[-0.719436,53.679472],[-0.721768,53.679361],[-0.723631,53.677913],[-0.722703,53.676597],[-0.723191,53.673729],[-0.730543,53.673481],[-0.746608,53.669612],[-0.746214,53.668914],[-0.754933,53.666407],[-0.758978,53.664367],[-0.753243,53.662699],[-0.7745,53.656209],[-0.77447,53.657895],[-0.771147,53.660041],[-0.769896,53.66164],[-0.772136,53.664075],[-0.778305,53.661439],[-0.781218,53.660609],[-0.788743,53.65921],[-0.793502,53.657283],[-0.799789,53.653976],[-0.801542,53.652726],[-0.80325,53.650981],[-0.804226,53.647713],[-0.805806,53.646356],[-0.81418,53.643407],[-0.816579,53.644836],[-0.820094,53.645162],[-0.820884,53.643872],[-0.82716,53.642737],[-0.829153,53.643236],[-0.829621,53.641898],[-0.833527,53.640787],[-0.841217,53.635507],[-0.848264,53.633037],[-0.922174,53.652521],[-0.939876,53.65758],[-0.946845,53.659142],[-0.947625,53.658662],[-0.957796,53.658526],[-0.989984,53.65898],[-0.991012,53.673584],[-0.94608,53.679339],[-0.885451,53.694377],[-0.868544,53.696535],[-0.866746,53.69625],[-0.865597,53.695328],[-0.863512,53.692326],[-0.860436,53.689107],[-0.861342,53.688864],[-0.86031,53.688989],[-0.856428,53.685771],[-0.852967,53.684827],[-0.850336,53.684779],[-0.846384,53.68558],[-0.843817,53.686957],[-0.843071,53.686724],[-0.842322,53.687844],[-0.837485,53.690771],[-0.833875,53.693458],[-0.829176,53.697728],[-0.825094,53.700183],[-0.819512,53.702376],[-0.811885,53.704345],[-0.805942,53.704395],[-0.79901,53.702919],[-0.793653,53.700562],[-0.790661,53.69878],[-0.788963,53.698148],[-0.789049,53.697815],[-0.788638,53.697964],[-0.788719,53.697666],[-0.788336,53.697743],[-0.784367,53.696054],[-0.781271,53.695317],[-0.775043,53.694703],[-0.771662,53.694861],[-0.766861,53.695996],[-0.753894,53.70027],[-0.749266,53.702485],[-0.746257,53.703323],[-0.738019,53.704082],[-0.726505,53.70416],[-0.726432,53.703774]]],[[[-0.864309,53.72352],[-0.861736,53.726261],[-0.85931,53.725297],[-0.859695,53.724177],[-0.860702,53.72376],[-0.864309,53.72352]]],[[[-0.844859,53.719794],[-0.84413,53.716745],[-0.844106,53.711715],[-0.844932,53.710205],[-0.847184,53.70859],[-0.851205,53.707317],[-0.859481,53.705765],[-0.864081,53.7038],[-0.866926,53.701378],[-0.866588,53.701294],[-0.86693,53.697814],[-0.86776,53.697476],[-0.866386,53.696649],[-0.869599,53.697081],[-0.885917,53.694688],[-0.94611,53.679842],[-0.991612,53.673987],[-0.992237,53.672749],[-0.991673,53.671367],[-0.990984,53.661064],[-0.998809,53.658689],[-1.009975,53.658778],[-1.018999,53.657977],[-1.023451,53.656975],[-1.029362,53.65497],[-1.033339,53.65521],[-1.037223,53.654496],[-1.038786,53.654813],[-1.041287,53.656035],[-1.04449,53.65676],[-1.046346,53.656719],[-1.048663,53.656057],[-1.051003,53.657557],[-1.057544,53.65763],[-1.059625,53.65839],[-1.059204,53.659121],[-1.06023,53.659269],[-1.061876,53.659214],[-1.063284,53.657481],[-1.067902,53.657276],[-1.07119,53.657905],[-1.07106,53.660022],[-1.073299,53.660285],[-1.074266,53.660111],[-1.075382,53.660566],[-1.078802,53.660458],[-1.082691,53.662044],[-1.08447,53.662039],[-1.085639,53.662393],[-1.088772,53.664477],[-1.087009,53.666603],[-1.091391,53.668625],[-1.103359,53.669499],[-1.101763,53.674374],[-1.100207,53.674371],[-1.09746,53.675306],[-1.093148,53.678211],[-1.087323,53.683262],[-1.08106,53.684526],[-1.080675,53.685229],[-1.085018,53.686959],[-1.07634,53.696809],[-1.078126,53.697725],[-1.075879,53.701357],[-1.074914,53.703943],[-1.069535,53.702804],[-1.068815,53.704014],[-1.067087,53.70434],[-1.063129,53.706574],[-1.061458,53.706524],[-1.059498,53.704727],[-1.054214,53.701369],[-1.053942,53.69681],[-1.05223,53.696616],[-1.048038,53.698412],[-1.04597,53.698523],[-1.042167,53.696627],[-1.040924,53.695597],[-1.04038,53.694254],[-1.039023,53.69369],[-1.037677,53.693927],[-1.036238,53.695276],[-1.033934,53.696279],[-1.022123,53.697876],[-1.018927,53.697812],[-1.013782,53.696832],[-1.011541,53.69679],[-1.006831,53.695108],[-1.004032,53.696208],[-1.002531,53.698382],[-1.000948,53.698692],[-0.998812,53.698606],[-0.994544,53.697239],[-0.985942,53.697396],[-0.980579,53.696711],[-0.979702,53.696939],[-0.979623,53.697464],[-0.982018,53.699127],[-0.983088,53.702763],[-0.982323,53.704016],[-0.98042,53.704831],[-0.974726,53.705932],[-0.967952,53.706538],[-0.966663,53.70567],[-0.966675,53.704552],[-0.967698,53.703736],[-0.970314,53.703118],[-0.970416,53.702171],[-0.96848,53.700973],[-0.966656,53.700446],[-0.964043,53.700255],[-0.962533,53.700546],[-0.962031,53.701267],[-0.962271,53.703018],[-0.961881,53.703528],[-0.960982,53.703947],[-0.958233,53.704392],[-0.957272,53.704987],[-0.957465,53.70556],[-0.960223,53.706888],[-0.960889,53.70779],[-0.958554,53.710044],[-0.958487,53.713811],[-0.958206,53.714404],[-0.957368,53.714714],[-0.954292,53.714466],[-0.951016,53.713067],[-0.949285,53.712668],[-0.944216,53.712343],[-0.940443,53.713223],[-0.934647,53.716212],[-0.928635,53.717176],[-0.923618,53.718458],[-0.912757,53.718431],[-0.910347,53.717979],[-0.907402,53.716641],[-0.905442,53.71669],[-0.9037,53.71789],[-0.902997,53.719567],[-0.903422,53.72218],[-0.90574,53.726356],[-0.905142,53.727086],[-0.897993,53.726373],[-0.896207,53.726367],[-0.893673,53.726897],[-0.887978,53.726507],[-0.884147,53.725508],[-0.877842,53.722798],[-0.866079,53.721722],[-0.860742,53.722159],[-0.857591,53.724353],[-0.857135,53.726482],[-0.857897,53.729045],[-0.857632,53.73018],[-0.856364,53.730712],[-0.85422,53.730713],[-0.850233,53.728901],[-0.846984,53.725318],[-0.844859,53.719794]]],[[[-0.249402,53.733149],[-0.250101,53.733298],[-0.245178,53.736521],[-0.248741,53.733421],[-0.249402,53.733149]]],[[[-0.243052,53.738771],[-0.243302,53.739028],[-0.243002,53.738824],[-0.243052,53.738771]]],[[[-0.246868,53.74026],[-0.246996,53.740605],[-0.246842,53.740323],[-0.246868,53.74026]]],[[[-0.364764,53.798185],[-0.364942,53.798484],[-0.365263,53.800526],[-0.364764,53.798185]]],[[[-0.365222,53.803273],[-0.365191,53.803366],[-0.365059,53.803429],[-0.365222,53.803273]]],[[[-0.382869,54.171914],[-0.38071,54.170361],[-0.374526,54.162564],[-0.373317,54.156275],[-0.375007,54.156224],[-0.374927,54.154113],[-0.363946,54.153158],[-0.360038,54.15312],[-0.355276,54.149607],[-0.350753,54.149773],[-0.346397,54.146873],[-0.342492,54.148532],[-0.336947,54.149563],[-0.335282,54.149674],[-0.328807,54.149068],[-0.323842,54.150297],[-0.323101,54.149264],[-0.323298,54.147492],[-0.322653,54.145276],[-0.313765,54.146403],[-0.311673,54.142744],[-0.307661,54.137901],[-0.304083,54.13627],[-0.300008,54.136734],[-0.291563,54.138758],[-0.290566,54.139756],[-0.288222,54.139409],[-0.283117,54.139782],[-0.276451,54.139599],[-0.27278,54.139268],[-0.269069,54.138333],[-0.26542,54.140559],[-0.252097,54.1388],[-0.245204,54.137129],[-0.237225,54.137249],[-0.229747,54.13244],[-0.229843,54.134302],[-0.229066,54.135728],[-0.222685,54.137041],[-0.221691,54.137973],[-0.221309,54.138864],[-0.22141,54.142041],[-0.216928,54.148348],[-0.21251,54.157692],[-0.202396,54.156479],[-0.195351,54.155227],[-0.189912,54.154888],[-0.187127,54.154034],[-0.181254,54.153066],[-0.178896,54.152288],[-0.170653,54.150953],[-0.168172,54.149597],[-0.164138,54.148353],[-0.16168,54.146261],[-0.159877,54.145659],[-0.157244,54.145766],[-0.157511,54.145127],[-0.156713,54.144438],[-0.151719,54.143953],[-0.148124,54.142983],[-0.144302,54.141093],[-0.138742,54.139031],[-0.136872,54.137872],[-0.129322,54.135329],[-0.122636,54.134036],[-0.121388,54.133081],[-0.11971,54.133146],[-0.118999,54.133586],[-0.118206,54.133254],[-0.117876,54.132498],[-0.117411,54.132977],[-0.116702,54.132519],[-0.116463,54.132946],[-0.115758,54.132761],[-0.115047,54.133143],[-0.115068,54.131723],[-0.112948,54.131017],[-0.112056,54.132053],[-0.110666,54.132554],[-0.108264,54.132282],[-0.107684,54.132064],[-0.106741,54.130776],[-0.106788,54.130091],[-0.106081,54.12952],[-0.104749,54.129631],[-0.104604,54.131014],[-0.10289,54.131215],[-0.102558,54.13056],[-0.10077,54.130119],[-0.101255,54.129544],[-0.099605,54.1301],[-0.099822,54.129636],[-0.098946,54.129433],[-0.098622,54.128809],[-0.097901,54.128933],[-0.097643,54.128195],[-0.096757,54.12845],[-0.09701,54.127854],[-0.096112,54.128194],[-0.096709,54.127705],[-0.096023,54.127256],[-0.095319,54.127375],[-0.094617,54.12826],[-0.093668,54.128403],[-0.093531,54.127801],[-0.094246,54.127301],[-0.093784,54.12706],[-0.093903,54.126617],[-0.09239,54.125616],[-0.091284,54.125514],[-0.091188,54.125184],[-0.090952,54.125454],[-0.090033,54.124708],[-0.087708,54.124541],[-0.087804,54.123894],[-0.087264,54.123357],[-0.085544,54.123623],[-0.083228,54.122559],[-0.082889,54.121572],[-0.083429,54.120441],[-0.082908,54.120147],[-0.083304,54.119824],[-0.082982,54.119412],[-0.082447,54.119488],[-0.081762,54.119023],[-0.082045,54.118805],[-0.082765,54.119072],[-0.082257,54.118792],[-0.08294,54.118528],[-0.081768,54.117236],[-0.081329,54.117559],[-0.079166,54.117445],[-0.078721,54.117714],[-0.078503,54.117422],[-0.076934,54.11715],[-0.076281,54.11624],[-0.076924,54.116],[-0.076626,54.115389],[-0.077354,54.114834],[-0.077265,54.114572],[-0.076175,54.114473],[-0.077221,54.114254],[-0.07888,54.112271],[-0.080844,54.111599],[-0.08182,54.110777],[-0.085509,54.109823],[-0.091852,54.10741],[-0.100497,54.105574],[-0.104781,54.104089],[-0.112827,54.103332],[-0.114799,54.103516],[-0.11695,54.104554],[-0.121597,54.103632],[-0.130422,54.104087],[-0.137477,54.104007],[-0.140431,54.104318],[-0.146763,54.102584],[-0.164907,54.099566],[-0.169233,54.097658],[-0.173279,54.094953],[-0.184732,54.084605],[-0.187085,54.081691],[-0.186462,54.07973],[-0.187281,54.081138],[-0.187874,54.080615],[-0.187785,54.081151],[-0.191138,54.081341],[-0.191208,54.080828],[-0.189556,54.080579],[-0.192445,54.080896],[-0.192985,54.08014],[-0.189505,54.080012],[-0.19399,54.080134],[-0.197344,54.078472],[-0.19988,54.074795],[-0.205106,54.069429],[-0.208894,54.063907],[-0.213079,54.054291],[-0.215839,54.038488],[-0.216429,54.027823],[-0.215667,54.021793],[-0.214168,54.017191],[-0.214897,54.016671],[-0.214993,54.016055],[-0.212946,54.010528],[-0.213646,54.009346],[-0.210884,54.002006],[-0.206728,53.993773],[-0.205455,53.990063],[-0.183289,53.949422],[-0.175682,53.937164],[-0.172698,53.931344],[-0.162914,53.91941],[-0.16259,53.918138],[-0.160794,53.915338],[-0.159608,53.911708],[-0.156435,53.906561],[-0.156023,53.904868],[-0.157031,53.904568],[-0.15709,53.903562],[-0.153646,53.898374],[-0.144062,53.887563],[-0.132914,53.877054],[-0.133264,53.87676],[-0.132803,53.876149],[-0.133229,53.876016],[-0.133126,53.875366],[-0.130388,53.872129],[-0.117678,53.859948],[-0.108532,53.851818],[-0.097402,53.84305],[-0.092296,53.838154],[-0.080896,53.828317],[-0.077695,53.824947],[-0.06664,53.815565],[-0.063484,53.81217],[-0.052162,53.802682],[-0.044321,53.794993],[-0.030697,53.783417],[-0.016674,53.772648],[3.7e-05,53.758513],[0.013786,53.747462],[0.026363,53.738639],[0.031872,53.734189],[0.041119,53.726248],[0.043074,53.724053],[0.045321,53.720624],[0.044898,53.720542],[0.044941,53.720073],[0.045874,53.719211],[0.063519,53.705669],[0.065926,53.703391],[0.077122,53.694682],[0.09422,53.682097],[0.117601,53.661191],[0.124176,53.65301],[0.128925,53.64559],[0.134474,53.632132],[0.141255,53.622676],[0.14168,53.619834],[0.146607,53.608591],[0.146877,53.604081],[0.146682,53.600447],[0.146167,53.599474],[0.140299,53.592551],[0.137179,53.589887],[0.126286,53.583333],[0.116844,53.576873],[0.110825,53.572037],[0.109403,53.571379],[0.107407,53.571352],[0.106437,53.571902],[0.106097,53.573042],[0.106375,53.574123],[0.107383,53.575028],[0.110344,53.576608],[0.114487,53.577594],[0.116535,53.578679],[0.119065,53.58089],[0.120784,53.581606],[0.123387,53.584145],[0.125342,53.585057],[0.126616,53.586748],[0.130467,53.588855],[0.132612,53.590552],[0.134328,53.59026],[0.135014,53.590459],[0.139601,53.593587],[0.141775,53.595508],[0.144121,53.598152],[0.145842,53.601028],[0.145639,53.607767],[0.140575,53.613313],[0.139664,53.613522],[0.136277,53.615587],[0.134681,53.615983],[0.132665,53.617499],[0.132643,53.617864],[0.129496,53.61967],[0.125002,53.623284],[0.124006,53.623612],[0.121233,53.6236],[0.114356,53.627738],[0.105534,53.632175],[0.098145,53.634723],[0.094996,53.635468],[0.089451,53.637831],[0.079544,53.641007],[0.071152,53.643047],[0.07023,53.642849],[0.068383,53.643527],[0.06651,53.643618],[0.064685,53.644227],[0.056838,53.645057],[0.045792,53.646736],[0.035009,53.649156],[0.030042,53.649264],[0.025972,53.648088],[0.025479,53.648311],[0.024759,53.647896],[0.024339,53.648186],[0.023854,53.647603],[0.023181,53.647374],[0.022961,53.647564],[0.022762,53.647103],[0.02177,53.647058],[0.019511,53.64522],[0.016867,53.646628],[0.016579,53.646439],[0.017585,53.64594],[0.017506,53.645105],[0.016022,53.644438],[0.001345,53.64282],[-0.008374,53.641219],[-0.012977,53.640213],[-0.015255,53.639368],[-0.02617,53.637256],[-0.027986,53.636646],[-0.030435,53.636409],[-0.032106,53.635715],[-0.042736,53.633183],[-0.049656,53.63211],[-0.052468,53.630637],[-0.053896,53.629079],[-0.078714,53.630911],[-0.087489,53.63251],[-0.094703,53.633298],[-0.103431,53.635285],[-0.113493,53.63946],[-0.113421,53.639736],[-0.116329,53.641789],[-0.124618,53.645892],[-0.1299,53.648978],[-0.131756,53.650719],[-0.130308,53.651499],[-0.130314,53.651723],[-0.131197,53.65137],[-0.130258,53.652301],[-0.130856,53.65217],[-0.130903,53.652548],[-0.131314,53.652513],[-0.132029,53.651598],[-0.132612,53.651711],[-0.132399,53.651254],[-0.133346,53.650785],[-0.133716,53.651379],[-0.137837,53.654311],[-0.138871,53.654713],[-0.139345,53.654583],[-0.139291,53.655157],[-0.142043,53.657001],[-0.146604,53.659873],[-0.147137,53.659764],[-0.146832,53.659975],[-0.150926,53.662932],[-0.151329,53.662829],[-0.151036,53.663033],[-0.151387,53.663356],[-0.161758,53.671447],[-0.167846,53.674626],[-0.167856,53.675355],[-0.168487,53.676437],[-0.169325,53.67675],[-0.169382,53.677349],[-0.168664,53.67746],[-0.166992,53.67693],[-0.168637,53.677481],[-0.169238,53.677482],[-0.1691,53.677913],[-0.169191,53.678674],[-0.169415,53.679433],[-0.17025,53.680402],[-0.169285,53.67887],[-0.169149,53.677871],[-0.169582,53.677341],[-0.169593,53.676576],[-0.1717,53.678239],[-0.171781,53.678812],[-0.17222,53.67879],[-0.172645,53.67943],[-0.174371,53.680448],[-0.174148,53.680663],[-0.175019,53.680786],[-0.177015,53.682364],[-0.178792,53.683013],[-0.179786,53.683754],[-0.181352,53.683874],[-0.181094,53.684266],[-0.181544,53.684744],[-0.184822,53.686857],[-0.189276,53.688914],[-0.193674,53.690483],[-0.193504,53.690644],[-0.199241,53.693986],[-0.200666,53.695244],[-0.201488,53.695255],[-0.200913,53.695507],[-0.202418,53.697479],[-0.201519,53.697016],[-0.200076,53.697271],[-0.199616,53.696828],[-0.199565,53.697218],[-0.198937,53.697337],[-0.198007,53.696975],[-0.198749,53.696489],[-0.197559,53.696697],[-0.197382,53.697034],[-0.202228,53.70099],[-0.206408,53.703687],[-0.214717,53.70712],[-0.215045,53.707541],[-0.214019,53.708867],[-0.221964,53.712877],[-0.223292,53.712963],[-0.223806,53.712808],[-0.223327,53.712581],[-0.223397,53.711725],[-0.224492,53.711198],[-0.226625,53.711227],[-0.226825,53.71077],[-0.226397,53.710267],[-0.227347,53.709506],[-0.226011,53.708376],[-0.22237,53.707016],[-0.227146,53.708496],[-0.227386,53.708822],[-0.227136,53.708915],[-0.22742,53.708868],[-0.228523,53.710366],[-0.229729,53.711102],[-0.233248,53.717322],[-0.235743,53.719956],[-0.235354,53.722703],[-0.23479,53.722939],[-0.234772,53.72349],[-0.23693,53.726597],[-0.235856,53.727214],[-0.234614,53.727322],[-0.231906,53.728806],[-0.231874,53.730122],[-0.232969,53.731591],[-0.230224,53.733553],[-0.231277,53.733446],[-0.233515,53.731751],[-0.232473,53.729348],[-0.234049,53.728583],[-0.233149,53.729146],[-0.233439,53.730249],[-0.233415,53.729448],[-0.234516,53.728147],[-0.23511,53.728126],[-0.234948,53.728495],[-0.236246,53.728382],[-0.243074,53.729465],[-0.245076,53.735222],[-0.24435,53.737121],[-0.242802,53.738598],[-0.242972,53.739089],[-0.243986,53.739685],[-0.246639,53.740207],[-0.247417,53.74174],[-0.246992,53.74285],[-0.24552,53.743845],[-0.244911,53.744973],[-0.246313,53.746614],[-0.24471,53.748045],[-0.245674,53.749648],[-0.242767,53.750947],[-0.241455,53.754808],[-0.241605,53.755235],[-0.243063,53.755425],[-0.244418,53.75615],[-0.245516,53.759513],[-0.249905,53.759686],[-0.251632,53.760659],[-0.250986,53.76204],[-0.254258,53.763465],[-0.25338,53.764605],[-0.254434,53.765521],[-0.254726,53.766382],[-0.254365,53.770019],[-0.252142,53.770003],[-0.25212,53.772371],[-0.254503,53.772609],[-0.254278,53.773803],[-0.253251,53.77396],[-0.252792,53.775335],[-0.252325,53.781328],[-0.25812,53.78117],[-0.258103,53.78174],[-0.257506,53.781809],[-0.257736,53.783269],[-0.262915,53.78297],[-0.265659,53.782354],[-0.268325,53.785046],[-0.272732,53.782637],[-0.274049,53.783428],[-0.27825,53.78206],[-0.290674,53.790814],[-0.303884,53.79847],[-0.316134,53.81327],[-0.324297,53.812167],[-0.333878,53.81135],[-0.338148,53.810607],[-0.338561,53.810575],[-0.338631,53.810969],[-0.346083,53.810625],[-0.345744,53.809747],[-0.348764,53.809508],[-0.348593,53.808901],[-0.353664,53.808527],[-0.353522,53.811565],[-0.354157,53.814428],[-0.357976,53.817454],[-0.359253,53.817852],[-0.362123,53.817935],[-0.363898,53.818701],[-0.36639,53.821264],[-0.36793,53.823656],[-0.368964,53.824379],[-0.370022,53.824761],[-0.376947,53.825177],[-0.381361,53.827316],[-0.381777,53.828425],[-0.380283,53.831576],[-0.380933,53.834785],[-0.381356,53.835396],[-0.383194,53.836362],[-0.383522,53.837884],[-0.384611,53.839052],[-0.386203,53.839706],[-0.390671,53.839591],[-0.394199,53.839927],[-0.399588,53.843662],[-0.399252,53.84573],[-0.396134,53.848283],[-0.395414,53.850418],[-0.393021,53.853885],[-0.393001,53.855677],[-0.396883,53.860948],[-0.399862,53.866505],[-0.399133,53.869351],[-0.3992,53.871876],[-0.398249,53.873696],[-0.399139,53.875785],[-0.399165,53.877819],[-0.401752,53.878646],[-0.403495,53.880252],[-0.406076,53.880746],[-0.407737,53.881947],[-0.407879,53.88243],[-0.407059,53.884581],[-0.403261,53.88391],[-0.400855,53.884092],[-0.401052,53.883092],[-0.400399,53.884181],[-0.39742,53.884323],[-0.394997,53.885317],[-0.394109,53.888125],[-0.394633,53.889582],[-0.394293,53.889798],[-0.394674,53.88979],[-0.39603,53.891993],[-0.395454,53.89609],[-0.393666,53.898523],[-0.392288,53.899347],[-0.382547,53.901476],[-0.381429,53.903927],[-0.384214,53.906077],[-0.384251,53.909151],[-0.38376,53.909804],[-0.380187,53.911924],[-0.376066,53.913454],[-0.372944,53.912958],[-0.371078,53.912091],[-0.366937,53.913334],[-0.366492,53.91388],[-0.368113,53.917841],[-0.365909,53.921218],[-0.363827,53.922055],[-0.361512,53.923525],[-0.358176,53.924364],[-0.356289,53.925494],[-0.356043,53.926929],[-0.356814,53.928487],[-0.35843,53.930207],[-0.357299,53.93166],[-0.356494,53.933852],[-0.356916,53.933341],[-0.357082,53.933702],[-0.357415,53.932055],[-0.35881,53.930254],[-0.357021,53.928156],[-0.35655,53.92561],[-0.357795,53.924718],[-0.362563,53.923323],[-0.363965,53.922221],[-0.366351,53.921241],[-0.368681,53.917719],[-0.366871,53.914208],[-0.366977,53.913566],[-0.370694,53.912279],[-0.372843,53.913146],[-0.376108,53.913698],[-0.38029,53.912131],[-0.382389,53.910963],[-0.387627,53.912255],[-0.388681,53.914125],[-0.393432,53.919012],[-0.41182,53.924829],[-0.421511,53.927368],[-0.404966,53.922657],[-0.393463,53.918868],[-0.38967,53.915068],[-0.387717,53.912161],[-0.382641,53.910794],[-0.384847,53.909296],[-0.384524,53.906005],[-0.381716,53.903794],[-0.382601,53.901852],[-0.385085,53.900949],[-0.392451,53.899498],[-0.393934,53.898556],[-0.395862,53.895797],[-0.397549,53.896288],[-0.3994,53.896351],[-0.401123,53.896151],[-0.402637,53.89557],[-0.403724,53.895627],[-0.405729,53.896505],[-0.407199,53.896586],[-0.409206,53.897305],[-0.410029,53.898073],[-0.417643,53.902217],[-0.434854,53.906724],[-0.436539,53.905916],[-0.434811,53.906612],[-0.417638,53.902107],[-0.410152,53.898003],[-0.409229,53.897162],[-0.406913,53.896414],[-0.405712,53.896382],[-0.403729,53.895512],[-0.402461,53.895476],[-0.399654,53.89625],[-0.397311,53.896139],[-0.395864,53.895574],[-0.396314,53.892065],[-0.394378,53.887945],[-0.395417,53.885253],[-0.397467,53.884478],[-0.402716,53.884064],[-0.407298,53.884703],[-0.408099,53.882153],[-0.407005,53.881066],[-0.407672,53.880821],[-0.412557,53.881942],[-0.413945,53.882666],[-0.412232,53.88172],[-0.407668,53.880715],[-0.406881,53.881002],[-0.406034,53.880563],[-0.403638,53.880113],[-0.401874,53.878497],[-0.399435,53.877768],[-0.399474,53.875817],[-0.398531,53.87374],[-0.399475,53.871904],[-0.39942,53.869578],[-0.400098,53.866486],[-0.396033,53.859351],[-0.39351,53.856366],[-0.393198,53.854216],[-0.395774,53.850222],[-0.396298,53.848444],[-0.399709,53.845578],[-0.400065,53.844065],[-0.399726,53.843395],[-0.394706,53.839799],[-0.39027,53.839425],[-0.386615,53.839562],[-0.3852,53.83917],[-0.383887,53.838024],[-0.38336,53.836245],[-0.381555,53.835244],[-0.381187,53.834655],[-0.380558,53.831622],[-0.381966,53.829064],[-0.381729,53.827298],[-0.37689,53.824967],[-0.370493,53.824639],[-0.369172,53.824303],[-0.364025,53.818551],[-0.361996,53.817726],[-0.358467,53.817502],[-0.354537,53.814544],[-0.353819,53.811577],[-0.35378,53.808987],[-0.355095,53.806975],[-0.357771,53.805483],[-0.361985,53.805147],[-0.365671,53.803361],[-0.365937,53.802628],[-0.365343,53.798631],[-0.364644,53.797103],[-0.363378,53.795458],[-0.360465,53.795037],[-0.359348,53.794491],[-0.359119,53.793984],[-0.359615,53.793362],[-0.365008,53.792287],[-0.39222,53.791133],[-0.389934,53.779603],[-0.390542,53.779674],[-0.389733,53.776575],[-0.388087,53.776397],[-0.387407,53.770742],[-0.388297,53.770964],[-0.38811,53.769345],[-0.390113,53.76849],[-0.394209,53.767514],[-0.398266,53.767597],[-0.400941,53.765776],[-0.403503,53.764922],[-0.407936,53.762693],[-0.408572,53.760588],[-0.418204,53.760632],[-0.421187,53.753774],[-0.42119,53.752232],[-0.422342,53.750561],[-0.401939,53.749987],[-0.402055,53.748145],[-0.407648,53.746568],[-0.410936,53.746355],[-0.409993,53.744263],[-0.410677,53.744181],[-0.411501,53.742466],[-0.415664,53.738774],[-0.417146,53.735864],[-0.419733,53.735355],[-0.419807,53.734345],[-0.422128,53.731774],[-0.42258,53.730464],[-0.422096,53.727384],[-0.421749,53.727421],[-0.421094,53.724856],[-0.420175,53.723899],[-0.420176,53.723267],[-0.420729,53.72314],[-0.419207,53.719581],[-0.431844,53.716711],[-0.433444,53.716878],[-0.434078,53.717351],[-0.434105,53.719008],[-0.434504,53.71748],[-0.433799,53.716545],[-0.434254,53.71627],[-0.447639,53.71391],[-0.450898,53.714178],[-0.4586,53.716179],[-0.463218,53.716933],[-0.473387,53.717276],[-0.486747,53.716479],[-0.525893,53.710302],[-0.535293,53.70915],[-0.541738,53.70894],[-0.542407,53.708827],[-0.542553,53.708443],[-0.542627,53.70904],[-0.545436,53.708782],[-0.553163,53.709549],[-0.556176,53.710487],[-0.556554,53.710368],[-0.5592,53.711639],[-0.568301,53.715036],[-0.568842,53.715323],[-0.568629,53.716561],[-0.569525,53.715702],[-0.571282,53.716568],[-0.573624,53.71802],[-0.575087,53.719405],[-0.582792,53.72401],[-0.582854,53.724958],[-0.582242,53.726115],[-0.582626,53.725859],[-0.583251,53.726569],[-0.585098,53.726814],[-0.585354,53.727176],[-0.585399,53.726736],[-0.583598,53.72625],[-0.583302,53.725733],[-0.58373,53.725488],[-0.585996,53.726573],[-0.587525,53.726725],[-0.587536,53.727242],[-0.589504,53.728012],[-0.601668,53.729905],[-0.61665,53.731176],[-0.625547,53.731391],[-0.627483,53.731297],[-0.628459,53.730894],[-0.627879,53.73199],[-0.629994,53.733139],[-0.630218,53.733994],[-0.630326,53.733287],[-0.62947,53.732718],[-0.631134,53.732757],[-0.629359,53.732632],[-0.628126,53.732041],[-0.628775,53.730964],[-0.632094,53.730176],[-0.634671,53.729163],[-0.637249,53.728893],[-0.63472,53.729036],[-0.632974,53.729471],[-0.631901,53.730113],[-0.629121,53.730814],[-0.628243,53.730659],[-0.62744,53.73114],[-0.620533,53.731003],[-0.618396,53.730587],[-0.627294,53.729641],[-0.646743,53.725716],[-0.65158,53.724996],[-0.652135,53.725175],[-0.652108,53.724843],[-0.652944,53.724666],[-0.665573,53.722833],[-0.666665,53.722957],[-0.666484,53.722738],[-0.670575,53.722108],[-0.672996,53.72134],[-0.675526,53.719779],[-0.676324,53.719622],[-0.67602,53.719113],[-0.679523,53.715926],[-0.680548,53.713741],[-0.681618,53.713203],[-0.687279,53.707881],[-0.69187,53.705546],[-0.69598,53.704362],[-0.700124,53.70376],[-0.702258,53.703871],[-0.70852,53.705013],[-0.708577,53.706185],[-0.709155,53.705411],[-0.709776,53.705323],[-0.716008,53.706515],[-0.721808,53.706689],[-0.728433,53.70739],[-0.73217,53.707373],[-0.732629,53.707736],[-0.732994,53.707408],[-0.738021,53.706971],[-0.742599,53.706982],[-0.742601,53.706755],[-0.748679,53.706046],[-0.756989,53.703108],[-0.757203,53.704108],[-0.757823,53.702845],[-0.758974,53.702696],[-0.764164,53.700755],[-0.764282,53.701107],[-0.765008,53.700631],[-0.765357,53.70117],[-0.765612,53.700342],[-0.771197,53.698517],[-0.774925,53.697678],[-0.777347,53.697453],[-0.777945,53.697724],[-0.777956,53.69746],[-0.779052,53.697466],[-0.78076,53.697549],[-0.786951,53.700042],[-0.794211,53.704227],[-0.794093,53.705224],[-0.794888,53.704617],[-0.799714,53.705972],[-0.802184,53.706109],[-0.805207,53.707044],[-0.809672,53.707197],[-0.813162,53.70676],[-0.816192,53.70574],[-0.819718,53.705386],[-0.824968,53.703562],[-0.825563,53.702937],[-0.831874,53.699429],[-0.838074,53.694014],[-0.843566,53.69003],[-0.848571,53.687164],[-0.851693,53.686452],[-0.852568,53.686501],[-0.854215,53.687206],[-0.85616,53.688577],[-0.859091,53.69151],[-0.862721,53.696267],[-0.863747,53.698895],[-0.86377,53.700581],[-0.86311,53.701701],[-0.861314,53.702618],[-0.857444,53.703663],[-0.850255,53.704776],[-0.847998,53.705474],[-0.842745,53.708407],[-0.841778,53.709493],[-0.840859,53.711725],[-0.840152,53.715818],[-0.841736,53.723521],[-0.843559,53.725915],[-0.84485,53.726742],[-0.845587,53.728354],[-0.848207,53.72993],[-0.848845,53.730894],[-0.852816,53.732142],[-0.85317,53.731828],[-0.853736,53.732224],[-0.854556,53.732028],[-0.855977,53.732447],[-0.858251,53.732114],[-0.862614,53.730469],[-0.86848,53.726273],[-0.872279,53.724011],[-0.887158,53.72828],[-0.89162,53.728251],[-0.894002,53.727862],[-0.894514,53.728117],[-0.894644,53.727905],[-0.89866,53.727967],[-0.901253,53.728294],[-0.901709,53.728754],[-0.901618,53.728292],[-0.903196,53.728285],[-0.903828,53.728697],[-0.903578,53.728235],[-0.907977,53.727806],[-0.909615,53.727944],[-0.910971,53.728453],[-0.909018,53.73103],[-0.909016,53.731639],[-0.909877,53.732814],[-0.911199,53.733393],[-0.91578,53.733703],[-0.925809,53.732411],[-0.935871,53.732503],[-0.945338,53.733863],[-0.9527,53.736534],[-0.961066,53.736715],[-0.960916,53.742926],[-0.962551,53.746737],[-0.963628,53.747618],[-0.966059,53.748691],[-0.96903,53.749353],[-0.969016,53.749561],[-0.96948,53.749379],[-0.97311,53.750147],[-0.972671,53.750411],[-0.963989,53.75067],[-0.9567,53.752889],[-0.951579,53.753769],[-0.944565,53.756702],[-0.939746,53.758154],[-0.936332,53.759965],[-0.934266,53.761634],[-0.932093,53.76219],[-0.929924,53.763227],[-0.928306,53.765463],[-0.928354,53.770296],[-0.929438,53.773782],[-0.93032,53.774299],[-0.932535,53.774441],[-0.933279,53.774854],[-0.935434,53.776993],[-0.936686,53.779872],[-0.934279,53.784689],[-0.93411,53.788381],[-0.933495,53.789978],[-0.931176,53.791306],[-0.928047,53.797158],[-0.928546,53.79768],[-0.931071,53.798273],[-0.934232,53.801093],[-0.934499,53.801777],[-0.932886,53.803842],[-0.930429,53.804685],[-0.929552,53.80541],[-0.928098,53.809216],[-0.927281,53.81021],[-0.924845,53.81236],[-0.921773,53.814044],[-0.920086,53.815977],[-0.920525,53.816541],[-0.922347,53.817018],[-0.923333,53.816052],[-0.924222,53.816062],[-0.927267,53.819533],[-0.928929,53.820469],[-0.930262,53.820837],[-0.933209,53.820686],[-0.939084,53.822557],[-0.940558,53.823451],[-0.940271,53.83259],[-0.943499,53.835286],[-0.946542,53.842003],[-0.947025,53.844802],[-0.945627,53.84665],[-0.944994,53.848243],[-0.946353,53.850024],[-0.946315,53.851175],[-0.945275,53.852567],[-0.941997,53.854813],[-0.944933,53.857526],[-0.94806,53.861069],[-0.948123,53.861918],[-0.94737,53.863497],[-0.946004,53.864837],[-0.943898,53.86567],[-0.940751,53.866313],[-0.938921,53.867846],[-0.938633,53.8689],[-0.940824,53.87313],[-0.940588,53.874201],[-0.938004,53.875798],[-0.930434,53.876406],[-0.925106,53.877932],[-0.922644,53.879482],[-0.924659,53.882714],[-0.924403,53.883727],[-0.922934,53.885373],[-0.923596,53.887727],[-0.920332,53.888453],[-0.919581,53.889333],[-0.920842,53.89069],[-0.925834,53.890406],[-0.930284,53.890635],[-0.934134,53.890258],[-0.944694,53.892048],[-0.948275,53.893072],[-0.949515,53.893846],[-0.948721,53.895008],[-0.947207,53.895702],[-0.946028,53.895822],[-0.941342,53.897869],[-0.940291,53.898639],[-0.939986,53.899389],[-0.940631,53.901012],[-0.939943,53.902555],[-0.941044,53.9041],[-0.938799,53.905981],[-0.938281,53.90787],[-0.936986,53.908294],[-0.933481,53.908202],[-0.932054,53.908712],[-0.932212,53.91218],[-0.934824,53.913644],[-0.934291,53.914171],[-0.931511,53.913788],[-0.930801,53.914058],[-0.930709,53.914557],[-0.931903,53.916217],[-0.93158,53.917462],[-0.930733,53.917808],[-0.928661,53.91784],[-0.927665,53.918461],[-0.928364,53.920183],[-0.927435,53.920961],[-0.926454,53.921032],[-0.923346,53.920315],[-0.921634,53.921193],[-0.921619,53.9221],[-0.923042,53.925087],[-0.925267,53.927009],[-0.927722,53.9282],[-0.928702,53.929093],[-0.928717,53.930093],[-0.927679,53.930832],[-0.926311,53.933107],[-0.923752,53.93425],[-0.923351,53.934933],[-0.923733,53.935379],[-0.925579,53.935903],[-0.926184,53.936961],[-0.925838,53.939248],[-0.925075,53.940771],[-0.92786,53.941906],[-0.928459,53.943444],[-0.926529,53.944679],[-0.927097,53.946559],[-0.925502,53.947811],[-0.92496,53.948757],[-0.925707,53.95038],[-0.927609,53.951697],[-0.927657,53.952667],[-0.922157,53.956651],[-0.921212,53.960422],[-0.922283,53.962041],[-0.923866,53.963371],[-0.925154,53.963957],[-0.9283,53.964317],[-0.931322,53.965866],[-0.933421,53.967357],[-0.934111,53.968672],[-0.933788,53.970508],[-0.931296,53.972417],[-0.930749,53.974487],[-0.928777,53.976102],[-0.928224,53.978542],[-0.927046,53.980514],[-0.927826,53.984024],[-0.924977,53.986257],[-0.923638,53.988393],[-0.920314,53.990094],[-0.925295,53.991518],[-0.920615,53.991952],[-0.915247,53.993147],[-0.913694,53.992086],[-0.912877,53.992132],[-0.911856,53.99313],[-0.911897,53.995448],[-0.907491,53.997548],[-0.90386,53.998667],[-0.901345,53.998813],[-0.899959,53.999726],[-0.899209,53.999569],[-0.898812,53.998777],[-0.897417,53.998532],[-0.894885,53.999094],[-0.893535,53.999768],[-0.892473,54.001615],[-0.890879,54.003098],[-0.88992,54.007071],[-0.888555,54.009515],[-0.886702,54.010527],[-0.880511,54.011996],[-0.877669,54.013557],[-0.877243,54.014926],[-0.878761,54.016883],[-0.878427,54.0172],[-0.877946,54.01703],[-0.876329,54.017625],[-0.875083,54.017611],[-0.870396,54.016705],[-0.868799,54.017108],[-0.868093,54.016863],[-0.866642,54.01722],[-0.86349,54.017335],[-0.859721,54.016395],[-0.855723,54.017629],[-0.848618,54.018556],[-0.845344,54.020004],[-0.84303,54.021611],[-0.842403,54.021104],[-0.837002,54.021905],[-0.836553,54.02176],[-0.836541,54.021267],[-0.826993,54.021272],[-0.823515,54.02083],[-0.820366,54.020873],[-0.81567,54.021773],[-0.808476,54.022369],[-0.803322,54.023355],[-0.803254,54.023971],[-0.798988,54.024091],[-0.800301,54.019984],[-0.799248,54.019052],[-0.795547,54.01996],[-0.793971,54.019954],[-0.792969,54.020597],[-0.779959,54.02304],[-0.778837,54.023552],[-0.775092,54.023827],[-0.774883,54.024076],[-0.772273,54.023671],[-0.771651,54.023911],[-0.769706,54.023485],[-0.766343,54.023692],[-0.761565,54.025005],[-0.752608,54.026098],[-0.749437,54.026959],[-0.744651,54.027567],[-0.734257,54.030259],[-0.732272,54.026557],[-0.730592,54.02173],[-0.730489,54.012701],[-0.727838,54.012715],[-0.726197,54.012271],[-0.719698,54.012322],[-0.719262,54.010704],[-0.71806,54.010106],[-0.715061,54.010488],[-0.71329,54.011066],[-0.710746,54.011171],[-0.709645,54.010467],[-0.70937,54.00898],[-0.708664,54.008073],[-0.704902,54.006072],[-0.6986,54.007119],[-0.688242,54.008015],[-0.687955,54.008293],[-0.683681,54.008764],[-0.681798,54.010355],[-0.681592,54.011241],[-0.683072,54.012468],[-0.679418,54.015987],[-0.678416,54.018239],[-0.679112,54.019008],[-0.681802,54.01982],[-0.683824,54.020996],[-0.684146,54.022647],[-0.687509,54.023205],[-0.688484,54.024011],[-0.688226,54.025156],[-0.687219,54.026079],[-0.687753,54.028844],[-0.687301,54.030444],[-0.684335,54.032887],[-0.682674,54.033759],[-0.682604,54.034131],[-0.680694,54.033671],[-0.680244,54.034523],[-0.680475,54.035904],[-0.679869,54.036674],[-0.678502,54.03725],[-0.674247,54.038178],[-0.670573,54.037987],[-0.670617,54.037562],[-0.669731,54.037427],[-0.664261,54.037654],[-0.659484,54.03717],[-0.658929,54.038387],[-0.656318,54.04064],[-0.657974,54.042167],[-0.658018,54.043645],[-0.655738,54.044232],[-0.656299,54.045452],[-0.653654,54.045956],[-0.644654,54.055113],[-0.652431,54.059845],[-0.656231,54.061313],[-0.656494,54.061074],[-0.660317,54.0631],[-0.653676,54.064997],[-0.648113,54.066012],[-0.642923,54.066558],[-0.632197,54.068755],[-0.627463,54.068833],[-0.627749,54.070194],[-0.621516,54.069669],[-0.618457,54.06983],[-0.615523,54.070494],[-0.6097,54.07327],[-0.607985,54.074837],[-0.605857,54.077799],[-0.602738,54.079074],[-0.598748,54.082207],[-0.594105,54.084215],[-0.592291,54.086263],[-0.591005,54.087062],[-0.583959,54.088479],[-0.566466,54.090306],[-0.563137,54.094],[-0.556675,54.092714],[-0.550629,54.092684],[-0.545521,54.09106],[-0.541816,54.091528],[-0.535833,54.08767],[-0.534031,54.08718],[-0.527928,54.089339],[-0.526311,54.08738],[-0.525106,54.086552],[-0.524612,54.085475],[-0.519925,54.086987],[-0.513275,54.090291],[-0.502884,54.094095],[-0.496889,54.097232],[-0.494011,54.099185],[-0.489851,54.100885],[-0.465942,54.107633],[-0.468325,54.111251],[-0.45868,54.114033],[-0.459439,54.11533],[-0.454351,54.116763],[-0.454703,54.119969],[-0.453604,54.120111],[-0.453704,54.120707],[-0.45854,54.125974],[-0.452122,54.127987],[-0.443725,54.131688],[-0.438529,54.133111],[-0.430652,54.136641],[-0.427094,54.137443],[-0.432659,54.157521],[-0.431373,54.157651],[-0.431561,54.158063],[-0.430931,54.158151],[-0.433114,54.160623],[-0.433169,54.164073],[-0.422927,54.166315],[-0.424557,54.169575],[-0.422645,54.1701],[-0.422538,54.171265],[-0.418109,54.17122],[-0.418428,54.174025],[-0.411918,54.174747],[-0.408553,54.175365],[-0.408271,54.175835],[-0.404077,54.175849],[-0.403258,54.174723],[-0.396416,54.175272],[-0.390784,54.176531],[-0.388,54.174551],[-0.382869,54.171914]]]]}}]}