{"type":"FeatureCollection","features":[{"type":"Feature","properties":{"slug":"elmbridge","gss_code":"E07000207","name":"Elmbridge"},"geometry":{"type":"Polygon","coordinates":[[[-0.349199,51.406621],[-0.346874,51.405847],[-0.343719,51.403897],[-0.340531,51.403087],[-0.338993,51.401875],[-0.336711,51.399222],[-0.332288,51.395995],[-0.328672,51.392309],[-0.327587,51.391745],[-0.32586,51.39144],[-0.319833,51.392593],[-0.317698,51.393667],[-0.314112,51.390217],[-0.316737,51.388772],[-0.315993,51.387571],[-0.313231,51.388723],[-0.310809,51.386213],[-0.31174,51.385764],[-0.310642,51.384816],[-0.309501,51.382432],[-0.309254,51.380448],[-0.308495,51.380501],[-0.307365,51.378384],[-0.307869,51.378364],[-0.308672,51.375448],[-0.314318,51.374638],[-0.316671,51.373166],[-0.317482,51.371969],[-0.317897,51.369798],[-0.318482,51.365762],[-0.318261,51.363505],[-0.319768,51.359928],[-0.323729,51.354411],[-0.327954,51.352211],[-0.33051,51.348419],[-0.328154,51.34404],[-0.327457,51.344006],[-0.327883,51.343742],[-0.328956,51.340231],[-0.329695,51.332765],[-0.329093,51.330262],[-0.332263,51.327502],[-0.335773,51.325314],[-0.33817,51.324358],[-0.345336,51.322413],[-0.352486,51.319178],[-0.357205,51.315298],[-0.358376,51.312999],[-0.359867,51.312455],[-0.360349,51.311784],[-0.363957,51.311876],[-0.363667,51.312891],[-0.365162,51.312855],[-0.365663,51.313961],[-0.367375,51.314828],[-0.36806,51.314415],[-0.368666,51.31294],[-0.371126,51.311368],[-0.371822,51.309986],[-0.373422,51.309245],[-0.373699,51.30962],[-0.377513,51.310407],[-0.378538,51.311567],[-0.378878,51.312946],[-0.380473,51.31357],[-0.384327,51.312895],[-0.386689,51.310709],[-0.386526,51.309859],[-0.387527,51.309648],[-0.390089,51.310444],[-0.391258,51.310159],[-0.3922,51.310752],[-0.391351,51.311097],[-0.391438,51.311538],[-0.392477,51.31219],[-0.396936,51.312772],[-0.397587,51.312014],[-0.397334,51.311133],[-0.395997,51.310195],[-0.395034,51.310136],[-0.392667,51.309072],[-0.392001,51.308284],[-0.393028,51.306613],[-0.392765,51.305083],[-0.393176,51.304383],[-0.392604,51.303513],[-0.392694,51.301567],[-0.393037,51.300984],[-0.393958,51.300901],[-0.394,51.298643],[-0.394674,51.297971],[-0.397594,51.298074],[-0.39988,51.297457],[-0.402291,51.296545],[-0.40393,51.294877],[-0.405326,51.294906],[-0.405398,51.297007],[-0.408577,51.30233],[-0.409393,51.303091],[-0.415407,51.303887],[-0.416056,51.304492],[-0.422121,51.304206],[-0.426385,51.304482],[-0.42856,51.303901],[-0.432369,51.304369],[-0.436726,51.303968],[-0.440312,51.304836],[-0.442957,51.307943],[-0.443828,51.313073],[-0.445932,51.317492],[-0.445699,51.324141],[-0.445643,51.324392],[-0.443647,51.324104],[-0.442187,51.324422],[-0.440088,51.325066],[-0.439063,51.326111],[-0.437341,51.325964],[-0.436607,51.326327],[-0.437163,51.327447],[-0.44557,51.326771],[-0.451275,51.328646],[-0.449921,51.33037],[-0.451274,51.330611],[-0.451452,51.330938],[-0.45615,51.331036],[-0.462344,51.32996],[-0.461935,51.331333],[-0.462838,51.332791],[-0.462489,51.333957],[-0.460981,51.33509],[-0.462071,51.336798],[-0.46117,51.337089],[-0.461886,51.337531],[-0.461932,51.338025],[-0.462662,51.338066],[-0.463571,51.338608],[-0.463164,51.339412],[-0.463725,51.339669],[-0.463654,51.340616],[-0.465498,51.341314],[-0.466072,51.342851],[-0.472821,51.342164],[-0.476769,51.343263],[-0.479207,51.345238],[-0.479655,51.347751],[-0.480683,51.347727],[-0.481186,51.349384],[-0.47841,51.350786],[-0.474818,51.352076],[-0.472491,51.353776],[-0.466971,51.356575],[-0.468434,51.357542],[-0.470108,51.357119],[-0.470677,51.357284],[-0.470679,51.357634],[-0.469927,51.357851],[-0.470081,51.358086],[-0.472192,51.357826],[-0.473486,51.358193],[-0.474207,51.358029],[-0.474557,51.359053],[-0.475551,51.359146],[-0.476087,51.359547],[-0.475133,51.36029],[-0.475817,51.360615],[-0.476136,51.361816],[-0.474854,51.363065],[-0.474173,51.362918],[-0.475468,51.364113],[-0.473301,51.364062],[-0.472819,51.363561],[-0.472372,51.363869],[-0.473045,51.364808],[-0.473984,51.364961],[-0.47373,51.365253],[-0.472082,51.365033],[-0.471495,51.364381],[-0.469292,51.365808],[-0.467557,51.365686],[-0.46765,51.366019],[-0.470021,51.367293],[-0.468248,51.370145],[-0.466845,51.370737],[-0.466156,51.370476],[-0.465571,51.370932],[-0.466385,51.372819],[-0.467488,51.373639],[-0.467623,51.37462],[-0.465009,51.376239],[-0.461641,51.376913],[-0.46014,51.379113],[-0.459016,51.379255],[-0.458049,51.379809],[-0.457991,51.380567],[-0.459433,51.380974],[-0.459586,51.3815],[-0.457879,51.381849],[-0.455167,51.383226],[-0.451978,51.382823],[-0.450523,51.38366],[-0.450255,51.38492],[-0.451955,51.386911],[-0.451891,51.387633],[-0.450219,51.388022],[-0.447583,51.386847],[-0.445004,51.386901],[-0.443783,51.387557],[-0.443422,51.389253],[-0.442777,51.389798],[-0.44159,51.389704],[-0.439977,51.388722],[-0.438137,51.386901],[-0.437513,51.385187],[-0.435616,51.384268],[-0.435758,51.383918],[-0.432089,51.384042],[-0.428855,51.385371],[-0.427889,51.386267],[-0.430199,51.38701],[-0.430052,51.387172],[-0.427667,51.386415],[-0.426546,51.388749],[-0.42666,51.389938],[-0.426135,51.390415],[-0.422698,51.391701],[-0.421599,51.392412],[-0.421078,51.392286],[-0.420668,51.392705],[-0.421319,51.393094],[-0.420708,51.394102],[-0.420143,51.3945],[-0.41952,51.394449],[-0.419508,51.395087],[-0.418686,51.395542],[-0.418965,51.396373],[-0.419643,51.396709],[-0.417198,51.397659],[-0.41714,51.398834],[-0.415837,51.399149],[-0.414632,51.400694],[-0.412933,51.40147],[-0.410635,51.404105],[-0.408158,51.40517],[-0.402768,51.405917],[-0.400432,51.406602],[-0.39933,51.407072],[-0.39992,51.407812],[-0.397193,51.408596],[-0.397047,51.407983],[-0.390465,51.409643],[-0.385697,51.409151],[-0.379428,51.407834],[-0.37386,51.408493],[-0.36474,51.411592],[-0.361238,51.412041],[-0.359139,51.411903],[-0.355357,51.410752],[-0.355109,51.409807],[-0.349199,51.406621]]]}}]}