{"type":"FeatureCollection","features":[{"type":"Feature","properties":{"slug":"enfield","gss_code":"E09000010","name":"Enfield"},"geometry":{"type":"Polygon","coordinates":[[[-0.06715,51.684056],[-0.062089,51.682977],[-0.057013,51.682973],[-0.051704,51.683537],[-0.049309,51.684244],[-0.047059,51.683439],[-0.043658,51.683352],[-0.043672,51.683097],[-0.028377,51.682332],[-0.019772,51.681152],[-0.011066,51.68087],[-0.010328,51.676665],[-0.011351,51.671918],[-0.011371,51.670702],[-0.010558,51.669137],[-0.011219,51.667606],[-0.011494,51.663891],[-0.009085,51.661009],[-0.008941,51.660218],[-0.01178,51.653035],[-0.011837,51.648848],[-0.013309,51.639695],[-0.016809,51.633529],[-0.024025,51.624644],[-0.025938,51.621743],[-0.032099,51.616865],[-0.035322,51.612984],[-0.035494,51.611964],[-0.034056,51.610215],[-0.033947,51.609504],[-0.035224,51.608268],[-0.041391,51.605647],[-0.049739,51.607242],[-0.05451,51.608887],[-0.065227,51.608587],[-0.0671,51.608949],[-0.067477,51.60864],[-0.085601,51.608473],[-0.092466,51.609091],[-0.092453,51.60885],[-0.093531,51.608991],[-0.095159,51.608658],[-0.095765,51.609299],[-0.097662,51.608919],[-0.097466,51.608517],[-0.101758,51.608492],[-0.102514,51.608044],[-0.103909,51.60844],[-0.109875,51.608256],[-0.11081,51.608615],[-0.117261,51.608437],[-0.117474,51.608206],[-0.11873,51.608654],[-0.119178,51.608367],[-0.123487,51.608676],[-0.124952,51.609948],[-0.125367,51.610021],[-0.12632,51.609307],[-0.127655,51.609411],[-0.135202,51.611218],[-0.138706,51.610186],[-0.144495,51.615509],[-0.142033,51.61628],[-0.14128,51.617536],[-0.140511,51.617812],[-0.135414,51.621773],[-0.135504,51.6224],[-0.135039,51.622352],[-0.133368,51.626383],[-0.130434,51.629316],[-0.13114,51.629686],[-0.130164,51.631021],[-0.129777,51.630963],[-0.129094,51.632265],[-0.133269,51.633268],[-0.133973,51.63404],[-0.13442,51.633969],[-0.134519,51.634694],[-0.140219,51.637491],[-0.142287,51.63931],[-0.145018,51.642632],[-0.147829,51.642067],[-0.149177,51.645315],[-0.151634,51.645324],[-0.151554,51.645632],[-0.152122,51.645801],[-0.151074,51.647244],[-0.152305,51.647637],[-0.152228,51.647967],[-0.149868,51.64881],[-0.150945,51.650087],[-0.152255,51.649825],[-0.152559,51.651458],[-0.153528,51.652706],[-0.154004,51.65259],[-0.154194,51.652966],[-0.153394,51.653305],[-0.153598,51.65454],[-0.154617,51.654979],[-0.154732,51.655545],[-0.160438,51.656764],[-0.163545,51.658207],[-0.165094,51.65826],[-0.185866,51.662836],[-0.181961,51.668683],[-0.176712,51.6721],[-0.177006,51.67268],[-0.175441,51.672593],[-0.175658,51.673163],[-0.17533,51.67345],[-0.172473,51.673091],[-0.163607,51.682403],[-0.163493,51.688115],[-0.15862,51.687398],[-0.15288,51.685799],[-0.149431,51.685509],[-0.145507,51.686136],[-0.139113,51.687999],[-0.134649,51.688785],[-0.122069,51.688521],[-0.118205,51.689066],[-0.109764,51.691633],[-0.105779,51.691876],[-0.098401,51.690911],[-0.094829,51.690098],[-0.083889,51.689913],[-0.078959,51.688843],[-0.06715,51.684056]]]}}]}