{"type":"FeatureCollection","features":[{"type":"Feature","properties":{"slug":"epping-forest","gss_code":"E07000072","name":"Epping Forest"},"geometry":{"type":"Polygon","coordinates":[[[0.176244,51.82001],[0.179709,51.8203],[0.184577,51.82016],[0.188389,51.819646],[0.190023,51.815045],[0.192167,51.813694],[0.192102,51.812404],[0.190773,51.80966],[0.192394,51.808077],[0.192814,51.806293],[0.192593,51.804738],[0.195449,51.80113],[0.195248,51.800065],[0.194155,51.798571],[0.195054,51.79809],[0.195028,51.797666],[0.196634,51.795797],[0.19796,51.795925],[0.198712,51.796567],[0.199685,51.796533],[0.201172,51.795377],[0.201841,51.795427],[0.203317,51.794138],[0.205945,51.793201],[0.207332,51.792099],[0.21038,51.792691],[0.213762,51.794043],[0.212413,51.796984],[0.218645,51.798154],[0.221992,51.798508],[0.222104,51.796854],[0.224069,51.796844],[0.224195,51.796575],[0.226773,51.795881],[0.225747,51.794494],[0.231482,51.795151],[0.232629,51.793721],[0.23311,51.791392],[0.233767,51.791038],[0.235819,51.791078],[0.234894,51.789645],[0.235747,51.788635],[0.237327,51.787835],[0.237911,51.787888],[0.238352,51.788618],[0.240913,51.788387],[0.237431,51.786721],[0.23684,51.786133],[0.236539,51.782198],[0.237678,51.779775],[0.242615,51.780669],[0.250169,51.780887],[0.253824,51.781725],[0.257499,51.78187],[0.258413,51.783595],[0.259132,51.784145],[0.262509,51.784404],[0.263799,51.785274],[0.266159,51.785606],[0.26759,51.786214],[0.267993,51.787164],[0.274135,51.787651],[0.277699,51.789105],[0.280088,51.788931],[0.281386,51.789497],[0.284466,51.789105],[0.285185,51.789467],[0.287759,51.788926],[0.290356,51.789145],[0.292607,51.789856],[0.295617,51.790265],[0.297461,51.789966],[0.296729,51.788786],[0.297696,51.788573],[0.29736,51.788164],[0.297899,51.787702],[0.298344,51.785437],[0.299199,51.78517],[0.298234,51.784437],[0.298554,51.784182],[0.29829,51.783342],[0.29685,51.782603],[0.297273,51.782062],[0.296456,51.780561],[0.297275,51.780492],[0.297911,51.779821],[0.299999,51.779097],[0.302336,51.778717],[0.302228,51.777833],[0.30283,51.777407],[0.302053,51.775442],[0.299145,51.774334],[0.298597,51.773724],[0.298901,51.77225],[0.299366,51.77186],[0.303306,51.771575],[0.307302,51.769907],[0.307909,51.770178],[0.312288,51.770328],[0.312966,51.768842],[0.318469,51.769935],[0.319599,51.772604],[0.320082,51.772563],[0.322349,51.772025],[0.321639,51.769933],[0.323813,51.770053],[0.324979,51.770507],[0.325319,51.769689],[0.327299,51.769169],[0.336109,51.768312],[0.338854,51.767906],[0.340548,51.767319],[0.3467,51.767596],[0.344968,51.766212],[0.344986,51.763438],[0.344159,51.760007],[0.342549,51.758133],[0.341114,51.752012],[0.341397,51.750852],[0.342063,51.751001],[0.344151,51.749365],[0.344021,51.747471],[0.346078,51.741868],[0.345558,51.740923],[0.345847,51.737914],[0.345035,51.735234],[0.347508,51.731584],[0.347025,51.729417],[0.346187,51.729132],[0.344723,51.727791],[0.343431,51.725898],[0.342857,51.724182],[0.341019,51.72302],[0.339086,51.721007],[0.335219,51.719169],[0.333539,51.718731],[0.333999,51.717013],[0.330037,51.716431],[0.324587,51.714317],[0.323062,51.714168],[0.323372,51.713269],[0.322003,51.712157],[0.321704,51.711348],[0.32377,51.710334],[0.323827,51.709795],[0.321257,51.708286],[0.313531,51.702211],[0.307456,51.694291],[0.307421,51.691884],[0.306894,51.6902],[0.305717,51.689036],[0.305598,51.688049],[0.303892,51.685283],[0.303867,51.684997],[0.305059,51.684811],[0.303915,51.683424],[0.30299,51.683525],[0.303426,51.682727],[0.303189,51.681788],[0.302125,51.680965],[0.29876,51.682655],[0.297226,51.684417],[0.293896,51.686432],[0.291821,51.686295],[0.292632,51.687293],[0.28867,51.690497],[0.283913,51.69272],[0.284654,51.69335],[0.283478,51.694111],[0.279671,51.693643],[0.275889,51.695445],[0.275322,51.696227],[0.274102,51.696864],[0.272932,51.696448],[0.269909,51.696662],[0.269442,51.696371],[0.268036,51.69644],[0.268008,51.696098],[0.266868,51.695819],[0.266356,51.696211],[0.265727,51.698144],[0.265708,51.698523],[0.266282,51.698749],[0.26574,51.699707],[0.263594,51.699252],[0.259894,51.697585],[0.258397,51.697334],[0.257012,51.696695],[0.257778,51.695806],[0.257756,51.695186],[0.257082,51.694032],[0.25495,51.692308],[0.255027,51.690242],[0.254222,51.689814],[0.252888,51.689885],[0.252003,51.689011],[0.248986,51.689213],[0.248793,51.688821],[0.246977,51.68873],[0.244398,51.68773],[0.242738,51.685499],[0.243198,51.685001],[0.240336,51.683554],[0.240226,51.682751],[0.238451,51.682868],[0.236729,51.683622],[0.235435,51.684663],[0.233495,51.684404],[0.232185,51.683358],[0.233726,51.679349],[0.234269,51.679334],[0.235998,51.67805],[0.237087,51.677898],[0.237638,51.677323],[0.239067,51.676901],[0.240087,51.67566],[0.239002,51.674109],[0.236168,51.673543],[0.23515,51.674045],[0.234131,51.673523],[0.231684,51.673596],[0.229437,51.674699],[0.227493,51.674294],[0.226079,51.675009],[0.224444,51.674993],[0.223633,51.675418],[0.220005,51.675387],[0.218158,51.674618],[0.216055,51.67509],[0.215027,51.674853],[0.214666,51.674017],[0.214935,51.673635],[0.21386,51.67323],[0.213107,51.670645],[0.213523,51.668999],[0.212691,51.667912],[0.212816,51.66714],[0.213602,51.66659],[0.213301,51.665534],[0.210594,51.664816],[0.208816,51.664816],[0.208103,51.665235],[0.206787,51.664486],[0.206935,51.663682],[0.208448,51.662395],[0.208157,51.660971],[0.200927,51.659695],[0.19922,51.660459],[0.197416,51.660545],[0.196116,51.660995],[0.193075,51.660972],[0.190858,51.65982],[0.191312,51.65892],[0.190908,51.65836],[0.192446,51.657225],[0.192313,51.655658],[0.193601,51.654907],[0.19299,51.653099],[0.191225,51.6527],[0.189287,51.65312],[0.18657,51.652738],[0.184517,51.65409],[0.184001,51.654038],[0.182985,51.653161],[0.182239,51.653079],[0.180703,51.653728],[0.180646,51.655049],[0.179601,51.655589],[0.179009,51.656389],[0.175703,51.655792],[0.177305,51.652126],[0.18473,51.648664],[0.188444,51.645831],[0.188959,51.644464],[0.190554,51.642796],[0.193238,51.641352],[0.194623,51.640979],[0.195921,51.638884],[0.19606,51.63665],[0.196949,51.634335],[0.199352,51.63127],[0.200312,51.624936],[0.194775,51.625715],[0.189815,51.625104],[0.189401,51.62449],[0.188372,51.625413],[0.185997,51.625522],[0.186269,51.62456],[0.185932,51.624373],[0.182785,51.625726],[0.181238,51.625827],[0.180612,51.625736],[0.180397,51.624473],[0.175304,51.623588],[0.168901,51.62142],[0.165841,51.622379],[0.155545,51.62334],[0.135811,51.623547],[0.129189,51.621404],[0.128839,51.620668],[0.126098,51.619643],[0.124199,51.617506],[0.119307,51.615369],[0.118607,51.615367],[0.11671,51.616922],[0.109632,51.613962],[0.103838,51.612551],[0.103415,51.613454],[0.10019,51.61273],[0.098068,51.615422],[0.092285,51.613574],[0.093571,51.61252],[0.094653,51.610791],[0.094204,51.610669],[0.093913,51.609839],[0.092638,51.609421],[0.091941,51.60823],[0.091735,51.60741],[0.092545,51.606193],[0.089189,51.605415],[0.088837,51.60486],[0.087142,51.604415],[0.084444,51.60634],[0.079369,51.607038],[0.076698,51.606309],[0.072812,51.604682],[0.065967,51.606321],[0.06396,51.607242],[0.062623,51.60704],[0.048866,51.613577],[0.048243,51.613118],[0.047956,51.613303],[0.048566,51.61385],[0.048496,51.615032],[0.050155,51.616417],[0.051905,51.616898],[0.053268,51.616343],[0.054165,51.616681],[0.054451,51.61761],[0.053673,51.618279],[0.053098,51.618423],[0.047861,51.617411],[0.044138,51.617051],[0.042187,51.616512],[0.040788,51.615729],[0.040014,51.616097],[0.040215,51.616411],[0.037545,51.6179],[0.037478,51.618326],[0.032698,51.622342],[0.031503,51.623093],[0.030524,51.623292],[0.030727,51.623636],[0.028937,51.624677],[0.029076,51.625117],[0.026834,51.625907],[0.024588,51.627518],[0.021819,51.628833],[0.02389,51.630797],[0.02433,51.632389],[0.025739,51.634565],[0.024712,51.636052],[0.025159,51.637289],[0.023083,51.637718],[0.02272,51.641115],[0.02008,51.640447],[0.017421,51.640258],[0.009899,51.64145],[0.001067,51.641762],[-0.000495,51.643711],[-0.003984,51.642717],[-0.004559,51.643538],[-0.006657,51.643333],[-0.008191,51.643609],[-0.008446,51.644498],[-0.007344,51.646162],[-0.009214,51.646528],[-0.01226,51.646229],[-0.011837,51.648848],[-0.01178,51.653035],[-0.008941,51.660218],[-0.009085,51.661009],[-0.011494,51.663891],[-0.011219,51.667606],[-0.010558,51.669137],[-0.011371,51.670702],[-0.011351,51.671918],[-0.010328,51.676665],[-0.011066,51.68087],[-0.011919,51.680878],[-0.011802,51.683935],[-0.010947,51.685552],[-0.011958,51.687075],[-0.016156,51.689891],[-0.01973,51.703274],[-0.017579,51.707403],[-0.0155,51.715328],[-0.01412,51.723121],[-0.013536,51.728387],[-0.013924,51.731444],[-0.012968,51.733394],[-0.013747,51.7354],[-0.012635,51.737611],[-0.013593,51.740971],[-0.013511,51.742217],[-0.01298,51.742751],[-0.012049,51.743001],[-0.007425,51.741733],[-0.006234,51.74171],[-0.004925,51.742081],[0.001257,51.745136],[0.001769,51.745921],[0.003263,51.753568],[0.002265,51.754147],[0.004171,51.755372],[0.010078,51.755602],[0.012992,51.757465],[0.013475,51.758116],[0.013389,51.758946],[0.012082,51.760982],[0.013135,51.762858],[0.014512,51.76321],[0.013745,51.764315],[0.015999,51.765602],[0.01665,51.766988],[0.018044,51.767281],[0.017448,51.768733],[0.017907,51.769095],[0.018299,51.7689],[0.018137,51.769695],[0.026799,51.77418],[0.030834,51.775198],[0.035776,51.775687],[0.040416,51.775291],[0.040832,51.775517],[0.042323,51.775131],[0.046775,51.775319],[0.051748,51.776054],[0.053342,51.776858],[0.054907,51.778285],[0.057664,51.779674],[0.058073,51.779529],[0.058781,51.779894],[0.060158,51.77836],[0.060685,51.778464],[0.061225,51.778057],[0.054069,51.775535],[0.055353,51.772141],[0.055355,51.770629],[0.054732,51.770262],[0.055296,51.767744],[0.054846,51.76637],[0.05767,51.76589],[0.058189,51.763021],[0.057663,51.762906],[0.05846,51.761146],[0.060253,51.76186],[0.06165,51.760017],[0.06295,51.760182],[0.063256,51.762064],[0.064588,51.762185],[0.064589,51.761602],[0.067467,51.761405],[0.06563,51.758215],[0.065509,51.75398],[0.063464,51.752218],[0.064232,51.751813],[0.063952,51.751453],[0.067977,51.751161],[0.067046,51.749272],[0.068038,51.749139],[0.067637,51.748431],[0.068289,51.748243],[0.06806,51.747848],[0.069132,51.747099],[0.069742,51.74756],[0.070057,51.74742],[0.076963,51.743676],[0.076289,51.742829],[0.077971,51.741825],[0.078904,51.742273],[0.080752,51.74139],[0.081122,51.738285],[0.084287,51.73469],[0.092804,51.736222],[0.096743,51.738147],[0.100341,51.738969],[0.097436,51.743263],[0.099776,51.743956],[0.099657,51.74417],[0.102443,51.746295],[0.102807,51.745976],[0.107468,51.747356],[0.108013,51.745505],[0.114735,51.746996],[0.114468,51.747778],[0.119046,51.748291],[0.120468,51.747918],[0.123503,51.748908],[0.126825,51.749125],[0.12661,51.752141],[0.131376,51.752932],[0.133764,51.752928],[0.133648,51.753857],[0.147397,51.757568],[0.150635,51.762865],[0.154635,51.767053],[0.160634,51.772595],[0.164658,51.77741],[0.168019,51.782784],[0.162241,51.783652],[0.155037,51.785805],[0.153661,51.788747],[0.151596,51.789016],[0.151558,51.790655],[0.152431,51.791614],[0.154399,51.792523],[0.153569,51.7938],[0.151986,51.7942],[0.150549,51.793944],[0.149093,51.793208],[0.14742,51.793457],[0.145928,51.794598],[0.145868,51.79538],[0.146524,51.795783],[0.146141,51.796244],[0.148174,51.795953],[0.150767,51.79705],[0.151551,51.7992],[0.150454,51.800962],[0.150674,51.802386],[0.151124,51.802738],[0.15345,51.803026],[0.154074,51.80352],[0.155509,51.806462],[0.155324,51.807282],[0.158188,51.810069],[0.158699,51.812388],[0.158309,51.813517],[0.16226,51.814595],[0.167008,51.81328],[0.168005,51.81497],[0.170387,51.816562],[0.172583,51.816304],[0.173306,51.817542],[0.173022,51.818881],[0.170159,51.819297],[0.169305,51.818262],[0.164732,51.819241],[0.164669,51.81971],[0.166252,51.822154],[0.17497,51.820531],[0.176244,51.82001]]]}}]}