{"type":"FeatureCollection","features":[{"type":"Feature","properties":{"slug":"epsom-and-ewell","gss_code":"E07000208","name":"Epsom and Ewell"},"geometry":{"type":"Polygon","coordinates":[[[-0.244679,51.369061],[-0.245382,51.366889],[-0.24115,51.366262],[-0.240891,51.367037],[-0.237825,51.367007],[-0.23678,51.366797],[-0.233949,51.365385],[-0.233191,51.36601],[-0.226945,51.362626],[-0.224058,51.359274],[-0.222736,51.357086],[-0.221975,51.353531],[-0.222092,51.351325],[-0.221262,51.351171],[-0.220421,51.35142],[-0.220186,51.35008],[-0.217777,51.345631],[-0.217264,51.343387],[-0.221786,51.341345],[-0.2227,51.340829],[-0.222277,51.340461],[-0.223261,51.339881],[-0.224091,51.340041],[-0.226827,51.337888],[-0.229823,51.336523],[-0.220842,51.329802],[-0.23417,51.327174],[-0.236583,51.325914],[-0.242932,51.321286],[-0.240959,51.317135],[-0.241252,51.316146],[-0.24364,51.31438],[-0.244368,51.312996],[-0.244055,51.311356],[-0.241405,51.311584],[-0.240662,51.31058],[-0.241002,51.309783],[-0.24292,51.310323],[-0.242672,51.310008],[-0.244087,51.309405],[-0.24322,51.306909],[-0.246379,51.302232],[-0.247245,51.298721],[-0.247069,51.297995],[-0.249894,51.29866],[-0.251601,51.299625],[-0.253283,51.299204],[-0.253525,51.299419],[-0.260454,51.299248],[-0.264399,51.299545],[-0.267456,51.297581],[-0.269849,51.294101],[-0.272234,51.29233],[-0.275314,51.298323],[-0.278207,51.30214],[-0.278782,51.306324],[-0.280546,51.310258],[-0.281948,51.311714],[-0.284184,51.31286],[-0.285247,51.316601],[-0.287664,51.321092],[-0.28846,51.321623],[-0.289099,51.322999],[-0.290886,51.324815],[-0.292273,51.324916],[-0.292288,51.325278],[-0.293567,51.325186],[-0.297429,51.32586],[-0.305008,51.332976],[-0.306189,51.335076],[-0.305135,51.336351],[-0.305385,51.339559],[-0.304066,51.343172],[-0.301377,51.345303],[-0.299231,51.348369],[-0.292883,51.352351],[-0.292698,51.353657],[-0.29133,51.355087],[-0.2912,51.356577],[-0.289008,51.358745],[-0.287019,51.359398],[-0.28521,51.361192],[-0.288396,51.36216],[-0.2872,51.362539],[-0.284071,51.36515],[-0.282162,51.366],[-0.279819,51.367825],[-0.27656,51.368808],[-0.275832,51.370014],[-0.274023,51.370655],[-0.273462,51.371609],[-0.272446,51.372247],[-0.264624,51.375616],[-0.262267,51.37741],[-0.260991,51.379596],[-0.258212,51.378919],[-0.253882,51.378749],[-0.251856,51.378962],[-0.248473,51.380059],[-0.245041,51.37996],[-0.244679,51.369061]]]}}]}