{"type":"FeatureCollection","features":[{"type":"Feature","properties":{"slug":"erewash","gss_code":"E07000036","name":"Erewash"},"geometry":{"type":"Polygon","coordinates":[[[-1.307266,53.003036],[-1.306323,53.003288],[-1.305741,53.002663],[-1.306339,53.002487],[-1.30455,53.001725],[-1.304923,53.001393],[-1.303677,53.001035],[-1.303679,53.000603],[-1.304399,53.000305],[-1.304074,53.000061],[-1.302839,53.000296],[-1.303546,52.999746],[-1.30269,52.999684],[-1.302449,52.999187],[-1.301913,52.99906],[-1.302496,52.998791],[-1.302355,52.998444],[-1.303003,52.99838],[-1.302945,52.99806],[-1.303608,52.998012],[-1.302468,52.997202],[-1.303136,52.99683],[-1.301739,52.995924],[-1.30234,52.995009],[-1.301579,52.994835],[-1.301438,52.99436],[-1.300928,52.994636],[-1.300669,52.994185],[-1.301423,52.993709],[-1.301081,52.993301],[-1.30037,52.993196],[-1.300503,52.992654],[-1.301555,52.992313],[-1.30072,52.991831],[-1.301235,52.99105],[-1.300489,52.990145],[-1.299236,52.989507],[-1.297763,52.989688],[-1.298056,52.988527],[-1.29727,52.988413],[-1.296708,52.987772],[-1.295477,52.987853],[-1.295271,52.986868],[-1.294678,52.986917],[-1.294579,52.98579],[-1.295355,52.98543],[-1.295652,52.985669],[-1.296181,52.984946],[-1.296746,52.985158],[-1.29747,52.984674],[-1.290676,52.970676],[-1.289623,52.969731],[-1.28881,52.969877],[-1.288664,52.969336],[-1.288376,52.96976],[-1.287749,52.969662],[-1.288403,52.969039],[-1.287625,52.968828],[-1.287729,52.967652],[-1.288254,52.96759],[-1.289417,52.966321],[-1.288528,52.965918],[-1.289286,52.96541],[-1.288665,52.964948],[-1.289162,52.96448],[-1.288606,52.961069],[-1.289464,52.960823],[-1.290563,52.959774],[-1.291692,52.95616],[-1.292501,52.955574],[-1.29166,52.955414],[-1.291848,52.954998],[-1.290653,52.954151],[-1.290219,52.954565],[-1.288996,52.95402],[-1.288224,52.954519],[-1.286429,52.953856],[-1.285749,52.952846],[-1.284149,52.952528],[-1.282414,52.951235],[-1.282404,52.950197],[-1.281031,52.949158],[-1.282142,52.947954],[-1.282088,52.947529],[-1.28126,52.947209],[-1.281368,52.946437],[-1.28191,52.94639],[-1.282901,52.945158],[-1.281712,52.945054],[-1.282201,52.944391],[-1.280266,52.941622],[-1.281225,52.941133],[-1.28112,52.94077],[-1.280475,52.939487],[-1.279046,52.938928],[-1.279413,52.938059],[-1.278839,52.937645],[-1.279159,52.936828],[-1.277842,52.93576],[-1.278377,52.934368],[-1.278211,52.932834],[-1.280614,52.93047],[-1.281576,52.92889],[-1.283644,52.927794],[-1.285777,52.926065],[-1.285196,52.924563],[-1.282519,52.921459],[-1.282822,52.919289],[-1.283524,52.918634],[-1.283535,52.916796],[-1.28196,52.91079],[-1.280468,52.908916],[-1.275857,52.905927],[-1.274048,52.905129],[-1.267496,52.905293],[-1.265275,52.905051],[-1.259565,52.903465],[-1.25642,52.901789],[-1.253988,52.901945],[-1.253311,52.902458],[-1.251204,52.902005],[-1.250692,52.902615],[-1.247655,52.903187],[-1.246583,52.903082],[-1.24505,52.90217],[-1.24732,52.900175],[-1.247501,52.899833],[-1.246957,52.899325],[-1.247511,52.898792],[-1.246719,52.89841],[-1.246274,52.897565],[-1.244388,52.897002],[-1.244633,52.896551],[-1.242592,52.896244],[-1.241826,52.895344],[-1.24082,52.895265],[-1.239802,52.894454],[-1.239706,52.892289],[-1.241249,52.892113],[-1.241282,52.892439],[-1.243859,52.89152],[-1.245857,52.890316],[-1.246399,52.889138],[-1.246245,52.888234],[-1.245238,52.887012],[-1.240688,52.884934],[-1.238985,52.883524],[-1.238448,52.881807],[-1.240055,52.880109],[-1.242616,52.879139],[-1.244826,52.878763],[-1.250251,52.879542],[-1.253611,52.879286],[-1.255828,52.878127],[-1.259909,52.875072],[-1.266104,52.873312],[-1.267889,52.873369],[-1.271475,52.874991],[-1.274653,52.87553],[-1.278427,52.875593],[-1.280606,52.875286],[-1.286001,52.872631],[-1.289487,52.872458],[-1.295936,52.874775],[-1.298893,52.875377],[-1.30233,52.875564],[-1.305995,52.87708],[-1.307458,52.875671],[-1.307801,52.874093],[-1.309332,52.873355],[-1.31616,52.873469],[-1.322824,52.872361],[-1.323878,52.872987],[-1.323742,52.873725],[-1.32135,52.873349],[-1.320595,52.873562],[-1.320262,52.874697],[-1.319539,52.875203],[-1.320167,52.875931],[-1.321972,52.876403],[-1.325731,52.875377],[-1.326914,52.874318],[-1.328721,52.874708],[-1.330274,52.875679],[-1.330394,52.877014],[-1.329697,52.87783],[-1.33009,52.878168],[-1.332891,52.876739],[-1.335452,52.876339],[-1.336144,52.878375],[-1.33667,52.878679],[-1.340344,52.879366],[-1.342551,52.879344],[-1.343628,52.880743],[-1.344952,52.880657],[-1.347028,52.879684],[-1.34844,52.879848],[-1.349973,52.880688],[-1.34982,52.881126],[-1.347509,52.882017],[-1.346797,52.882798],[-1.347058,52.883999],[-1.348299,52.885145],[-1.348124,52.885804],[-1.347406,52.885896],[-1.344356,52.885035],[-1.341917,52.885255],[-1.340957,52.886221],[-1.341772,52.887484],[-1.338902,52.888813],[-1.338887,52.889322],[-1.341126,52.890129],[-1.342798,52.889578],[-1.344718,52.890021],[-1.34476,52.890708],[-1.346072,52.890793],[-1.346516,52.890273],[-1.345167,52.889525],[-1.345178,52.888857],[-1.34734,52.887687],[-1.347792,52.887774],[-1.348333,52.888747],[-1.349441,52.88901],[-1.351426,52.889118],[-1.354415,52.888764],[-1.354924,52.889293],[-1.35709,52.889855],[-1.356922,52.890407],[-1.356057,52.890372],[-1.355335,52.891074],[-1.35545,52.891558],[-1.356382,52.89164],[-1.355408,52.89298],[-1.35607,52.89416],[-1.357629,52.895109],[-1.358682,52.89523],[-1.360288,52.89258],[-1.361396,52.892184],[-1.362117,52.892275],[-1.362876,52.892886],[-1.361546,52.894595],[-1.361813,52.896014],[-1.362444,52.896426],[-1.364661,52.896588],[-1.366121,52.897097],[-1.367878,52.895454],[-1.372066,52.894577],[-1.373109,52.895122],[-1.374498,52.898465],[-1.378358,52.901099],[-1.382997,52.901263],[-1.384881,52.901851],[-1.386729,52.901316],[-1.388356,52.901474],[-1.391156,52.904181],[-1.391345,52.905019],[-1.390689,52.906233],[-1.391831,52.906692],[-1.391882,52.907257],[-1.390555,52.908663],[-1.388996,52.909632],[-1.387879,52.911456],[-1.387722,52.915247],[-1.38819,52.918197],[-1.389528,52.920597],[-1.389608,52.92274],[-1.387095,52.922368],[-1.386299,52.923873],[-1.383933,52.923816],[-1.383074,52.925932],[-1.390846,52.92808],[-1.396549,52.928568],[-1.396292,52.929404],[-1.397202,52.929946],[-1.401209,52.930628],[-1.403478,52.932216],[-1.404565,52.932153],[-1.404829,52.93171],[-1.408084,52.931041],[-1.408852,52.93134],[-1.411897,52.930964],[-1.417456,52.931718],[-1.419254,52.931429],[-1.419921,52.931787],[-1.423568,52.935693],[-1.423964,52.935651],[-1.423468,52.937743],[-1.416431,52.945761],[-1.409281,52.950323],[-1.420253,52.950718],[-1.424059,52.950308],[-1.428428,52.950306],[-1.431614,52.950619],[-1.434034,52.951309],[-1.441081,52.949505],[-1.445064,52.949201],[-1.449939,52.948117],[-1.450471,52.948877],[-1.452749,52.947461],[-1.452989,52.948357],[-1.456411,52.948697],[-1.457796,52.948251],[-1.45976,52.948787],[-1.459347,52.949434],[-1.468552,52.950662],[-1.467353,52.953026],[-1.466008,52.954013],[-1.467595,52.955689],[-1.466178,52.95787],[-1.467827,52.959784],[-1.467843,52.960663],[-1.466509,52.962269],[-1.467642,52.964821],[-1.468252,52.965081],[-1.471641,52.964815],[-1.474163,52.965491],[-1.474689,52.965909],[-1.475103,52.966898],[-1.474946,52.968371],[-1.471843,52.969508],[-1.470748,52.970715],[-1.47071,52.971662],[-1.473401,52.975725],[-1.476686,52.977223],[-1.478707,52.978974],[-1.479754,52.980828],[-1.479852,52.981915],[-1.478912,52.981916],[-1.47879,52.982514],[-1.476828,52.981713],[-1.476356,52.982198],[-1.473803,52.981658],[-1.469562,52.982385],[-1.463441,52.982797],[-1.46013,52.983797],[-1.458016,52.982388],[-1.456318,52.982254],[-1.455849,52.982556],[-1.45391,52.981015],[-1.451348,52.982217],[-1.44948,52.98065],[-1.444829,52.978805],[-1.432207,52.979184],[-1.429942,52.980108],[-1.42507,52.981011],[-1.424348,52.981397],[-1.420543,52.981051],[-1.420475,52.980482],[-1.41871,52.980101],[-1.415663,52.980512],[-1.410063,52.979635],[-1.409611,52.979364],[-1.409151,52.977002],[-1.40325,52.979457],[-1.397856,52.980456],[-1.394545,52.980594],[-1.393669,52.981706],[-1.389624,52.981696],[-1.38922,52.981326],[-1.38776,52.981813],[-1.386397,52.981654],[-1.385414,52.982297],[-1.384165,52.981595],[-1.385898,52.980194],[-1.38598,52.979134],[-1.378314,52.976571],[-1.375218,52.97423],[-1.371084,52.973076],[-1.37013,52.973607],[-1.369494,52.975757],[-1.367284,52.977341],[-1.362058,52.976789],[-1.355583,52.978087],[-1.352037,52.97793],[-1.350328,52.978246],[-1.347461,52.977989],[-1.343961,52.978734],[-1.341541,52.978895],[-1.339917,52.978191],[-1.337329,52.978505],[-1.336394,52.977988],[-1.334888,52.977976],[-1.333769,52.978371],[-1.33278,52.978162],[-1.330414,52.980896],[-1.328358,52.981622],[-1.328337,52.98394],[-1.329505,52.98545],[-1.331473,52.98699],[-1.330354,52.987318],[-1.328044,52.98736],[-1.327081,52.987707],[-1.327233,52.988056],[-1.326656,52.988085],[-1.326197,52.988624],[-1.323833,52.988308],[-1.324548,52.989557],[-1.323108,52.989832],[-1.322052,52.989344],[-1.322655,52.99195],[-1.324181,52.993692],[-1.322335,52.993938],[-1.322476,52.994439],[-1.321302,52.994769],[-1.317952,52.997005],[-1.317293,52.998808],[-1.31396,53.001344],[-1.309799,53.002072],[-1.307426,53.003625],[-1.307026,53.003471],[-1.307266,53.003036]]]}}]}