{"type":"FeatureCollection","features":[{"type":"Feature","properties":{"slug":"exeter","gss_code":"E07000041","name":"Exeter"},"geometry":{"type":"MultiPolygon","coordinates":[[[[-3.456118,50.682212],[-3.456195,50.682241],[-3.455838,50.682294],[-3.456118,50.682212]]],[[[-3.456439,50.682336],[-3.456616,50.682404],[-3.456826,50.682894],[-3.456439,50.682336]]],[[[-3.458444,50.684526],[-3.458635,50.684634],[-3.458661,50.684679],[-3.458444,50.684526]]],[[[-3.459813,50.689985],[-3.460142,50.69008],[-3.460158,50.690168],[-3.459813,50.689985]]],[[[-3.460272,50.690795],[-3.460368,50.69132],[-3.46031,50.691364],[-3.460272,50.690795]]],[[[-3.460466,50.693246],[-3.460755,50.69336],[-3.460771,50.693406],[-3.460466,50.693246]]],[[[-3.461092,50.694899],[-3.461076,50.695052],[-3.460886,50.695201],[-3.461092,50.694899]]],[[[-3.491753,50.693737],[-3.494236,50.693618],[-3.496623,50.694066],[-3.499648,50.697094],[-3.49516,50.694879],[-3.493818,50.694704],[-3.491753,50.693737]]],[[[-3.505249,50.75718],[-3.504606,50.757332],[-3.502784,50.75577],[-3.502748,50.755271],[-3.498973,50.754307],[-3.492962,50.754037],[-3.48969,50.752941],[-3.484074,50.749895],[-3.481021,50.746987],[-3.478732,50.746827],[-3.475423,50.745908],[-3.474984,50.746278],[-3.469711,50.745381],[-3.467506,50.744296],[-3.466586,50.744318],[-3.465097,50.744949],[-3.46547,50.743793],[-3.464932,50.743347],[-3.465996,50.742072],[-3.462571,50.739302],[-3.460433,50.739198],[-3.462095,50.734109],[-3.462436,50.728816],[-3.462264,50.716997],[-3.463657,50.712576],[-3.468096,50.705769],[-3.471422,50.698814],[-3.470884,50.697767],[-3.468264,50.698729],[-3.46798,50.697782],[-3.466112,50.695494],[-3.46352,50.696129],[-3.462994,50.695332],[-3.460886,50.69562],[-3.46123,50.695016],[-3.461293,50.693686],[-3.460808,50.693219],[-3.45912,50.692456],[-3.460525,50.691499],[-3.460338,50.6901],[-3.458856,50.68941],[-3.458408,50.688639],[-3.458818,50.688511],[-3.458519,50.688392],[-3.459461,50.686889],[-3.45956,50.684861],[-3.457529,50.683781],[-3.456659,50.682043],[-3.454982,50.682257],[-3.455096,50.68328],[-3.454393,50.683764],[-3.452418,50.683405],[-3.451516,50.682649],[-3.45177,50.680526],[-3.452951,50.678482],[-3.455773,50.675614],[-3.455358,50.675179],[-3.455855,50.675481],[-3.456369,50.674942],[-3.458993,50.675398],[-3.461323,50.677069],[-3.461978,50.677281],[-3.462454,50.67706],[-3.462911,50.6775],[-3.462467,50.677613],[-3.462527,50.677959],[-3.463344,50.677957],[-3.463489,50.678217],[-3.463655,50.678671],[-3.463041,50.679029],[-3.463795,50.679465],[-3.463956,50.680317],[-3.46473,50.680222],[-3.465495,50.681157],[-3.464914,50.68156],[-3.465863,50.68163],[-3.466254,50.682522],[-3.466588,50.682737],[-3.466964,50.682544],[-3.467786,50.683546],[-3.468806,50.683601],[-3.47196,50.684957],[-3.47315,50.687354],[-3.475182,50.688103],[-3.479467,50.690537],[-3.482572,50.691291],[-3.484337,50.690444],[-3.485982,50.690436],[-3.487051,50.691025],[-3.487743,50.69219],[-3.488859,50.692992],[-3.494024,50.694979],[-3.495137,50.695015],[-3.497331,50.696395],[-3.500463,50.697602],[-3.501117,50.698316],[-3.501288,50.699645],[-3.504413,50.70269],[-3.504709,50.702489],[-3.503172,50.701373],[-3.504184,50.701264],[-3.504893,50.70075],[-3.505416,50.700975],[-3.505989,50.700797],[-3.506111,50.700988],[-3.507177,50.70124],[-3.506764,50.701914],[-3.507316,50.701234],[-3.50607,50.700768],[-3.50541,50.700939],[-3.504904,50.700687],[-3.504129,50.701233],[-3.503232,50.701281],[-3.502216,50.700071],[-3.502756,50.700252],[-3.502628,50.699841],[-3.507371,50.699651],[-3.509226,50.700209],[-3.510463,50.701355],[-3.511096,50.701114],[-3.508301,50.699505],[-3.501966,50.699406],[-3.501667,50.698206],[-3.499219,50.69531],[-3.4994,50.695244],[-3.499662,50.694992],[-3.500358,50.695197],[-3.49968,50.69497],[-3.499158,50.695253],[-3.497658,50.693978],[-3.495637,50.693308],[-3.490634,50.693166],[-3.488973,50.69224],[-3.487868,50.690795],[-3.486524,50.689962],[-3.48245,50.689967],[-3.481059,50.689572],[-3.4818,50.689468],[-3.483218,50.688612],[-3.480501,50.687209],[-3.476951,50.684081],[-3.475421,50.683481],[-3.471076,50.682932],[-3.471556,50.682682],[-3.470962,50.682776],[-3.469828,50.682253],[-3.470467,50.681851],[-3.476928,50.683333],[-3.479618,50.685324],[-3.480455,50.685294],[-3.480807,50.686044],[-3.482341,50.68659],[-3.482544,50.687792],[-3.483887,50.688229],[-3.487823,50.688882],[-3.490237,50.688266],[-3.492728,50.688611],[-3.492755,50.688886],[-3.4948,50.68985],[-3.493887,50.690436],[-3.4936,50.691142],[-3.49363,50.692011],[-3.49435,50.692741],[-3.496028,50.692964],[-3.499578,50.694194],[-3.50177,50.694325],[-3.503261,50.692421],[-3.503654,50.692623],[-3.505409,50.691416],[-3.506782,50.691116],[-3.510871,50.692229],[-3.517749,50.692486],[-3.518779,50.693033],[-3.520899,50.692526],[-3.522818,50.692577],[-3.52509,50.69366],[-3.526832,50.69532],[-3.529388,50.692817],[-3.533709,50.692728],[-3.538142,50.693407],[-3.539092,50.692918],[-3.542999,50.699409],[-3.545481,50.70191],[-3.547667,50.703235],[-3.5507,50.704439],[-3.562744,50.706903],[-3.56299,50.709039],[-3.565109,50.710594],[-3.564875,50.710865],[-3.566201,50.711217],[-3.566893,50.714179],[-3.568702,50.714614],[-3.568678,50.715112],[-3.568229,50.715253],[-3.56702,50.715347],[-3.566227,50.715073],[-3.565749,50.715408],[-3.565571,50.716709],[-3.564627,50.717852],[-3.564783,50.719986],[-3.565127,50.720098],[-3.565429,50.722242],[-3.566082,50.723104],[-3.565733,50.72379],[-3.566684,50.72446],[-3.567851,50.726165],[-3.568412,50.726232],[-3.570132,50.72783],[-3.566885,50.72744],[-3.567698,50.72834],[-3.566216,50.72912],[-3.563202,50.728717],[-3.561867,50.729632],[-3.56079,50.729737],[-3.560578,50.730058],[-3.561726,50.731992],[-3.562723,50.732278],[-3.563047,50.733355],[-3.563884,50.733695],[-3.564468,50.735564],[-3.567372,50.737355],[-3.566011,50.739622],[-3.564706,50.739981],[-3.566646,50.740646],[-3.569025,50.74094],[-3.569664,50.745004],[-3.567537,50.745532],[-3.559971,50.744692],[-3.555929,50.744836],[-3.552961,50.745463],[-3.552025,50.745131],[-3.551641,50.747644],[-3.550344,50.748795],[-3.549074,50.74821],[-3.548215,50.747303],[-3.547461,50.748975],[-3.544065,50.750917],[-3.542104,50.751794],[-3.537369,50.75313],[-3.536132,50.754189],[-3.534953,50.755949],[-3.530542,50.756974],[-3.529045,50.756558],[-3.528844,50.755472],[-3.527228,50.755161],[-3.526221,50.755304],[-3.526346,50.757657],[-3.52587,50.758304],[-3.525422,50.758369],[-3.524066,50.757658],[-3.522492,50.757563],[-3.515484,50.759189],[-3.514648,50.759545],[-3.513931,50.760788],[-3.512739,50.761455],[-3.51228,50.761099],[-3.50742,50.760607],[-3.506861,50.758658],[-3.505249,50.75718]]]]}}]}