{"type":"FeatureCollection","features":[{"type":"Feature","properties":{"slug":"fareham","gss_code":"E07000087","name":"Fareham"},"geometry":{"type":"MultiPolygon","coordinates":[[[[-1.179373,50.837433],[-1.179193,50.837594],[-1.17905,50.837602],[-1.179373,50.837433]]],[[[-1.177858,50.838268],[-1.177757,50.838406],[-1.177433,50.838596],[-1.177858,50.838268]]],[[[-1.268871,50.898012],[-1.268454,50.898276],[-1.268134,50.897965],[-1.267805,50.89821],[-1.268084,50.89837],[-1.267663,50.898183],[-1.268528,50.897358],[-1.267067,50.898144],[-1.265507,50.897771],[-1.265798,50.897455],[-1.264065,50.895505],[-1.26109,50.895079],[-1.260904,50.893036],[-1.260052,50.893177],[-1.258683,50.89282],[-1.259078,50.891751],[-1.257739,50.891269],[-1.259401,50.889721],[-1.255652,50.888855],[-1.254679,50.887018],[-1.255372,50.884184],[-1.253952,50.883165],[-1.253965,50.882515],[-1.256587,50.880716],[-1.254825,50.878946],[-1.256105,50.876418],[-1.254966,50.875938],[-1.255286,50.874928],[-1.255243,50.873103],[-1.234538,50.862507],[-1.229509,50.860586],[-1.227862,50.862608],[-1.227865,50.863168],[-1.226066,50.864183],[-1.225291,50.864153],[-1.224774,50.865338],[-1.225198,50.865867],[-1.224484,50.867018],[-1.220419,50.868707],[-1.217772,50.872503],[-1.218624,50.873114],[-1.216039,50.875058],[-1.209766,50.873942],[-1.208209,50.875011],[-1.207272,50.876635],[-1.198019,50.875943],[-1.19851,50.881784],[-1.197341,50.884036],[-1.195864,50.885039],[-1.188161,50.883983],[-1.188345,50.888017],[-1.185984,50.887843],[-1.185717,50.888353],[-1.180714,50.88891],[-1.18063,50.887984],[-1.177112,50.887613],[-1.174942,50.888012],[-1.173643,50.888867],[-1.169465,50.888421],[-1.167218,50.889433],[-1.164692,50.887434],[-1.162599,50.886566],[-1.159824,50.884161],[-1.155627,50.883107],[-1.153851,50.882338],[-1.153802,50.881328],[-1.152503,50.879181],[-1.151703,50.878832],[-1.150035,50.879404],[-1.149462,50.878157],[-1.15067,50.875083],[-1.151727,50.870279],[-1.150762,50.869415],[-1.149195,50.869121],[-1.149103,50.868781],[-1.147942,50.868463],[-1.147613,50.867414],[-1.144522,50.866577],[-1.143245,50.858429],[-1.140147,50.857928],[-1.139975,50.858407],[-1.138404,50.858092],[-1.138057,50.858778],[-1.135566,50.858942],[-1.132769,50.858131],[-1.132416,50.858492],[-1.126712,50.857752],[-1.125947,50.858184],[-1.122418,50.857825],[-1.121959,50.858487],[-1.115783,50.858274],[-1.115863,50.854725],[-1.116813,50.854472],[-1.116636,50.851486],[-1.117616,50.851449],[-1.117644,50.844444],[-1.118132,50.844206],[-1.11596,50.841993],[-1.116142,50.841218],[-1.115514,50.84129],[-1.114683,50.840181],[-1.114203,50.840324],[-1.112288,50.837857],[-1.112661,50.83683],[-1.112941,50.836177],[-1.118047,50.835932],[-1.118947,50.835587],[-1.12221,50.835677],[-1.129575,50.837993],[-1.132044,50.838259],[-1.135047,50.839292],[-1.135541,50.839068],[-1.138045,50.839225],[-1.138883,50.838721],[-1.141326,50.838599],[-1.143716,50.838988],[-1.146026,50.840223],[-1.145961,50.840475],[-1.146303,50.840336],[-1.146027,50.840502],[-1.146364,50.840895],[-1.148231,50.841911],[-1.1526,50.841165],[-1.154504,50.842832],[-1.15441,50.843115],[-1.153176,50.843309],[-1.152908,50.843609],[-1.153837,50.844807],[-1.15464,50.845058],[-1.156529,50.844552],[-1.160035,50.845207],[-1.16411,50.843174],[-1.163172,50.841722],[-1.163698,50.841342],[-1.164753,50.841444],[-1.164676,50.841202],[-1.167968,50.840268],[-1.170584,50.84042],[-1.170498,50.840143],[-1.17103,50.839953],[-1.172609,50.840608],[-1.17331,50.841411],[-1.173936,50.844575],[-1.176671,50.847341],[-1.1768,50.847952],[-1.175848,50.848574],[-1.17368,50.847849],[-1.171361,50.84764],[-1.169247,50.848348],[-1.166413,50.850147],[-1.166489,50.852412],[-1.167133,50.852599],[-1.167047,50.852923],[-1.168879,50.854948],[-1.17051,50.856111],[-1.171888,50.856605],[-1.170477,50.856006],[-1.168954,50.854786],[-1.167281,50.852834],[-1.168365,50.852369],[-1.168573,50.851492],[-1.169308,50.850956],[-1.16968,50.8499],[-1.16936,50.849565],[-1.176143,50.849913],[-1.177242,50.849269],[-1.177601,50.849845],[-1.179403,50.848386],[-1.178442,50.847582],[-1.178402,50.846406],[-1.176231,50.844922],[-1.175904,50.84374],[-1.176254,50.843542],[-1.175499,50.842027],[-1.176408,50.839845],[-1.178232,50.838293],[-1.17809,50.838137],[-1.178333,50.838159],[-1.180376,50.83691],[-1.181659,50.836678],[-1.181371,50.835503],[-1.181972,50.833773],[-1.181734,50.832307],[-1.184262,50.830069],[-1.18366,50.82771],[-1.185894,50.825232],[-1.18568,50.82434],[-1.188029,50.823969],[-1.189113,50.822672],[-1.189233,50.821874],[-1.186318,50.821522],[-1.186302,50.81959],[-1.183954,50.81835],[-1.183613,50.817699],[-1.182312,50.817274],[-1.180926,50.815902],[-1.179393,50.81544],[-1.178843,50.814314],[-1.179596,50.813181],[-1.184753,50.812338],[-1.186811,50.812362],[-1.186999,50.811397],[-1.193929,50.811037],[-1.203843,50.811247],[-1.209895,50.811699],[-1.209883,50.811287],[-1.214158,50.810781],[-1.213732,50.809848],[-1.214185,50.809285],[-1.215563,50.810081],[-1.219829,50.811444],[-1.220801,50.811321],[-1.222123,50.812357],[-1.223975,50.813191],[-1.226734,50.813908],[-1.228232,50.81393],[-1.230588,50.815262],[-1.232435,50.815711],[-1.238197,50.818036],[-1.240046,50.818141],[-1.240849,50.817685],[-1.242895,50.81831],[-1.243942,50.817636],[-1.242751,50.817857],[-1.242047,50.817468],[-1.245016,50.817078],[-1.247186,50.817554],[-1.258452,50.824154],[-1.264682,50.826838],[-1.286132,50.832941],[-1.287577,50.833085],[-1.28929,50.833968],[-1.299925,50.83682],[-1.303277,50.838154],[-1.306685,50.840438],[-1.30814,50.843018],[-1.307972,50.845756],[-1.307614,50.846191],[-1.306888,50.846288],[-1.307937,50.843997],[-1.307764,50.843188],[-1.30677,50.843579],[-1.306788,50.844993],[-1.306217,50.845408],[-1.304676,50.845457],[-1.30392,50.846834],[-1.304146,50.847817],[-1.303168,50.848464],[-1.303968,50.849875],[-1.307342,50.853054],[-1.307563,50.853889],[-1.306977,50.854188],[-1.30752,50.855863],[-1.307006,50.856592],[-1.305916,50.857042],[-1.307319,50.859416],[-1.308543,50.860403],[-1.308045,50.862711],[-1.307399,50.863331],[-1.306213,50.865512],[-1.306486,50.86588],[-1.306157,50.867517],[-1.306203,50.865829],[-1.30582,50.866257],[-1.30568,50.868927],[-1.30515,50.870018],[-1.304768,50.870021],[-1.305157,50.870553],[-1.30454,50.870767],[-1.304981,50.870947],[-1.304367,50.870892],[-1.305335,50.871046],[-1.304886,50.871264],[-1.304919,50.871832],[-1.304651,50.87143],[-1.303494,50.871445],[-1.304556,50.871675],[-1.304692,50.87245],[-1.305376,50.872875],[-1.306147,50.867617],[-1.30528,50.87432],[-1.304523,50.874746],[-1.304577,50.875041],[-1.303727,50.875063],[-1.301837,50.876092],[-1.301922,50.876308],[-1.301375,50.876291],[-1.301338,50.876619],[-1.300555,50.876872],[-1.300129,50.876577],[-1.300207,50.877069],[-1.297282,50.878236],[-1.296319,50.879249],[-1.29755,50.881047],[-1.298141,50.881137],[-1.302063,50.883669],[-1.300771,50.884583],[-1.300294,50.884455],[-1.29925,50.885149],[-1.298774,50.885112],[-1.299223,50.885493],[-1.299035,50.885692],[-1.299075,50.885486],[-1.298492,50.885762],[-1.298067,50.885575],[-1.298708,50.88663],[-1.296156,50.886953],[-1.294545,50.887791],[-1.294082,50.887668],[-1.29431,50.887954],[-1.29413,50.888231],[-1.293758,50.888109],[-1.294011,50.888306],[-1.293622,50.888757],[-1.292312,50.888243],[-1.292824,50.888982],[-1.292385,50.889358],[-1.292332,50.890626],[-1.291908,50.890687],[-1.291906,50.890267],[-1.29151,50.89017],[-1.291776,50.890334],[-1.291353,50.890796],[-1.287684,50.891701],[-1.287345,50.892575],[-1.28791,50.894679],[-1.287559,50.895128],[-1.2876,50.894076],[-1.287214,50.894907],[-1.286968,50.894618],[-1.287311,50.894217],[-1.286584,50.893963],[-1.287197,50.894341],[-1.28605,50.895262],[-1.28678,50.895074],[-1.286928,50.895334],[-1.279523,50.896206],[-1.278031,50.894544],[-1.2791,50.896181],[-1.276564,50.896884],[-1.274686,50.897778],[-1.272762,50.897595],[-1.27278,50.897328],[-1.273359,50.89738],[-1.272206,50.897042],[-1.272067,50.897677],[-1.272053,50.897305],[-1.271108,50.897833],[-1.271134,50.897505],[-1.271907,50.89726],[-1.271692,50.897129],[-1.270482,50.897561],[-1.270418,50.898127],[-1.270359,50.897597],[-1.269328,50.897993],[-1.26982,50.89833],[-1.269276,50.898549],[-1.268871,50.898012]]]]}}]}