{"type":"FeatureCollection","features":[{"type":"Feature","properties":{"slug":"fenland","gss_code":"E07000010","name":"Fenland"},"geometry":{"type":"MultiPolygon","coordinates":[[[[-0.119684,52.577508],[-0.102159,52.58028],[-0.117319,52.577802],[-0.119684,52.577508]]],[[[-0.082369,52.583228],[-0.081788,52.583487],[-0.081687,52.583503],[-0.082369,52.583228]]],[[[-0.021942,52.592712],[-0.020335,52.593088],[-0.01704,52.593592],[-0.021942,52.592712]]],[[[0.157145,52.679693],[0.159636,52.680465],[0.159761,52.679642],[0.161813,52.679419],[0.161919,52.67965],[0.162401,52.67948],[0.164625,52.680001],[0.165555,52.680527],[0.166517,52.680542],[0.168758,52.679037],[0.169871,52.678657],[0.171931,52.678911],[0.174371,52.678781],[0.174633,52.678402],[0.178378,52.678402],[0.179816,52.677633],[0.180415,52.678085],[0.184717,52.677895],[0.184503,52.676339],[0.183367,52.674029],[0.182934,52.674034],[0.182632,52.673386],[0.180883,52.673268],[0.181079,52.672099],[0.18443,52.672141],[0.184411,52.667],[0.183632,52.663863],[0.18399,52.663229],[0.183581,52.662919],[0.184138,52.660091],[0.183063,52.659089],[0.183842,52.655662],[0.176279,52.655691],[0.17834,52.652636],[0.169595,52.652756],[0.169925,52.650435],[0.173967,52.647201],[0.176188,52.64439],[0.179184,52.642474],[0.180497,52.641986],[0.183118,52.641657],[0.185674,52.640514],[0.188093,52.63848],[0.189718,52.635724],[0.192028,52.634266],[0.196575,52.632191],[0.203182,52.630226],[0.215209,52.624471],[0.219065,52.621981],[0.216923,52.621598],[0.210865,52.617928],[0.212539,52.616797],[0.216937,52.614983],[0.217387,52.614525],[0.209312,52.613535],[0.205614,52.611803],[0.20499,52.610966],[0.204878,52.609182],[0.204173,52.608056],[0.203433,52.607641],[0.202641,52.605606],[0.201387,52.604607],[0.201513,52.603158],[0.198334,52.602772],[0.197068,52.602217],[0.195106,52.602266],[0.194629,52.601625],[0.1916,52.601517],[0.192574,52.599341],[0.191619,52.598982],[0.19541,52.595133],[0.193965,52.595389],[0.193873,52.592104],[0.19916,52.591773],[0.197285,52.589102],[0.198135,52.588847],[0.198117,52.586086],[0.199582,52.582707],[0.202714,52.580084],[0.215788,52.579458],[0.214608,52.577997],[0.214619,52.575498],[0.215399,52.574635],[0.217973,52.573427],[0.218467,52.572133],[0.218287,52.570932],[0.216161,52.569484],[0.213613,52.568535],[0.206862,52.567603],[0.2057,52.565662],[0.206065,52.564241],[0.207072,52.563434],[0.209459,52.562825],[0.212833,52.560988],[0.216559,52.561049],[0.217231,52.560482],[0.216932,52.558706],[0.214093,52.556195],[0.211612,52.555422],[0.205992,52.555878],[0.204732,52.554667],[0.204204,52.549498],[0.205248,52.547838],[0.20892,52.546952],[0.214613,52.549118],[0.214357,52.54698],[0.212394,52.545691],[0.210216,52.5449],[0.208718,52.544611],[0.20627,52.54472],[0.203828,52.545404],[0.213131,52.538158],[0.209477,52.536149],[0.209875,52.535368],[0.205848,52.533858],[0.207497,52.531881],[0.207977,52.530028],[0.210305,52.530498],[0.214922,52.532061],[0.220302,52.528948],[0.225605,52.53257],[0.228823,52.53084],[0.230591,52.52791],[0.226282,52.525621],[0.225685,52.525942],[0.222387,52.52391],[0.224825,52.522424],[0.223173,52.521384],[0.219707,52.523147],[0.216646,52.520863],[0.215063,52.522454],[0.206123,52.519635],[0.213642,52.518473],[0.236319,52.507291],[0.201632,52.480476],[0.200727,52.480869],[0.170716,52.457557],[0.171597,52.45715],[0.175937,52.460519],[0.177086,52.460978],[0.179317,52.45876],[0.155922,52.440577],[0.155345,52.440174],[0.151043,52.442264],[0.145138,52.437626],[0.14539,52.437483],[0.123842,52.42097],[0.118687,52.42346],[0.120838,52.431121],[0.129839,52.435729],[0.129143,52.436646],[0.126471,52.437855],[0.122069,52.435301],[0.120837,52.435488],[0.120114,52.434125],[0.116976,52.433062],[0.117065,52.431582],[0.116032,52.429855],[0.11511,52.42989],[0.113905,52.428167],[0.11387,52.427362],[0.111787,52.427896],[0.110837,52.427722],[0.107543,52.425611],[0.10616,52.425287],[0.087407,52.429736],[0.085114,52.428528],[0.084899,52.428097],[0.082386,52.427229],[0.081669,52.426593],[0.081108,52.424803],[0.082891,52.423615],[0.081419,52.422194],[0.079925,52.421326],[0.077919,52.42078],[0.07485,52.42145],[0.073311,52.421435],[0.072874,52.421099],[0.070212,52.421487],[0.070173,52.420596],[0.062681,52.418005],[0.058773,52.415438],[0.055121,52.414401],[0.050057,52.415118],[0.049101,52.416059],[0.049562,52.416746],[0.046716,52.4187],[0.045382,52.419102],[0.043647,52.418125],[0.043099,52.41739],[0.043303,52.416375],[0.041629,52.41332],[0.047967,52.411266],[0.052662,52.408824],[0.051103,52.408063],[0.050131,52.407027],[0.052036,52.405047],[0.052967,52.401611],[0.055131,52.400151],[0.05518,52.399278],[0.056199,52.397835],[0.05445,52.396564],[0.054377,52.395403],[0.046468,52.392244],[0.034421,52.38575],[0.030368,52.387793],[0.028202,52.389912],[0.026736,52.390667],[0.029028,52.394131],[0.028674,52.396287],[0.028997,52.398252],[0.028763,52.399116],[0.027348,52.400799],[0.026728,52.404017],[0.026881,52.40568],[0.023648,52.406783],[0.022847,52.409234],[0.023416,52.410831],[0.019291,52.413603],[0.019046,52.414284],[0.026676,52.421108],[0.029805,52.422956],[0.030507,52.424639],[0.032378,52.426328],[0.034058,52.427263],[0.034135,52.428169],[0.033715,52.429102],[0.032503,52.43017],[0.023871,52.432794],[0.022232,52.43389],[0.021667,52.434986],[0.02351,52.436491],[0.024105,52.437895],[0.02407,52.440521],[0.023173,52.442468],[0.022648,52.442354],[0.021637,52.443533],[0.018189,52.444743],[0.012093,52.448365],[0.011302,52.44939],[0.011248,52.451773],[0.00881,52.454655],[0.007498,52.454837],[0.00191,52.454125],[-0.001209,52.454275],[-0.00257,52.454642],[-0.00698,52.456771],[-0.008431,52.45869],[-0.008567,52.460477],[-0.009323,52.462181],[-0.018534,52.467629],[-0.031685,52.473048],[-0.038855,52.473286],[-0.039021,52.475926],[-0.041689,52.477016],[-0.037599,52.478515],[-0.040644,52.482585],[-0.040298,52.482734],[-0.039103,52.498314],[-0.039355,52.500238],[-0.038507,52.501845],[-0.040188,52.502403],[-0.045186,52.502695],[-0.051319,52.502449],[-0.05272,52.502024],[-0.052862,52.504466],[-0.051663,52.508118],[-0.050606,52.509128],[-0.048094,52.510276],[-0.047978,52.510783],[-0.054567,52.513402],[-0.057555,52.512125],[-0.069683,52.516831],[-0.070872,52.505866],[-0.090389,52.49627],[-0.09764,52.501721],[-0.104546,52.498272],[-0.1021,52.496438],[-0.105433,52.494681],[-0.10456,52.493966],[-0.114356,52.48907],[-0.138913,52.50808],[-0.147729,52.514223],[-0.15127,52.516201],[-0.160273,52.523251],[-0.167055,52.527662],[-0.170661,52.531284],[-0.17365,52.532118],[-0.176304,52.53237],[-0.17902,52.533708],[-0.18225,52.533984],[-0.185978,52.535617],[-0.186649,52.536325],[-0.188289,52.537081],[-0.190066,52.539679],[-0.186631,52.54271],[-0.185628,52.544937],[-0.190618,52.547667],[-0.191031,52.550339],[-0.197873,52.550806],[-0.195056,52.554452],[-0.187635,52.560448],[-0.189188,52.562936],[-0.189879,52.565443],[-0.181696,52.566503],[-0.18698,52.568507],[-0.176967,52.569808],[-0.166014,52.569573],[-0.121183,52.577255],[-0.124392,52.57668],[-0.123951,52.576428],[-0.087501,52.582521],[-0.083496,52.582562],[-0.081367,52.58336],[-0.023931,52.592074],[-0.012628,52.594113],[0.039979,52.602215],[0.061895,52.606553],[0.061973,52.605629],[0.064929,52.610895],[0.096092,52.627963],[0.105451,52.632164],[0.122823,52.637985],[0.130419,52.642064],[0.151414,52.660817],[0.151799,52.661471],[0.151421,52.662658],[0.151807,52.663191],[0.155578,52.664572],[0.158211,52.664958],[0.159491,52.666648],[0.159501,52.667453],[0.157792,52.670772],[0.153103,52.675573],[0.152885,52.67622],[0.153156,52.67782],[0.153991,52.678203],[0.153622,52.678646],[0.154069,52.679702],[0.154062,52.682166],[0.154894,52.682143],[0.15486,52.680793],[0.157173,52.680683],[0.157145,52.679693]]],[[[0.169926,52.73614],[0.166983,52.72431],[0.158502,52.712267],[0.155764,52.707713],[0.155638,52.702239],[0.154634,52.696264],[0.153812,52.685115],[0.15305,52.679728],[0.152045,52.676248],[0.152685,52.67516],[0.154942,52.673255],[0.157367,52.670569],[0.159172,52.666815],[0.158256,52.665326],[0.15283,52.663966],[0.15098,52.662946],[0.151251,52.661175],[0.130501,52.642524],[0.123469,52.638561],[0.104677,52.632217],[0.093142,52.626891],[0.065459,52.611613],[0.063961,52.610412],[0.062416,52.607394],[0.061441,52.606704],[0.039483,52.602392],[-0.012836,52.594346],[-0.01625,52.598387],[-0.025047,52.632369],[-0.031271,52.661533],[0.0215,52.664887],[0.048566,52.681402],[0.048998,52.681997],[0.048974,52.684011],[0.049624,52.68615],[0.049149,52.68693],[0.049199,52.689368],[0.047635,52.690624],[0.044981,52.691936],[0.044563,52.692586],[0.045231,52.69371],[0.044883,52.69579],[0.045259,52.69719],[0.045907,52.697794],[0.044399,52.700683],[0.045235,52.701432],[0.045046,52.703238],[0.045461,52.705007],[0.044842,52.710863],[0.045108,52.711998],[0.044149,52.714382],[0.046263,52.715378],[0.048018,52.718785],[0.055137,52.72183],[0.059239,52.724724],[0.062307,52.725387],[0.06306,52.72603],[0.063186,52.72713],[0.063904,52.727436],[0.07604,52.724522],[0.082641,52.72456],[0.087549,52.72357],[0.089012,52.72363],[0.091649,52.725216],[0.094587,52.728448],[0.098789,52.73034],[0.100775,52.730419],[0.10254,52.729865],[0.10494,52.730504],[0.111105,52.729779],[0.113685,52.72999],[0.114144,52.731397],[0.115324,52.732301],[0.116796,52.732727],[0.119713,52.732877],[0.129047,52.738436],[0.130959,52.738388],[0.132975,52.739304],[0.137737,52.738916],[0.140653,52.739753],[0.143688,52.74],[0.144127,52.73903],[0.147613,52.739446],[0.148292,52.738638],[0.15083,52.738745],[0.152501,52.73814],[0.170181,52.739894],[0.170154,52.738957],[0.171227,52.738222],[0.169926,52.73614]]]]}}]}