{"type":"FeatureCollection","features":[{"type":"Feature","properties":{"slug":"forest-of-dean","gss_code":"E07000080","name":"Forest of Dean"},"geometry":{"type":"Polygon","coordinates":[[[-2.470753,52.02329],[-2.468487,52.02378],[-2.465096,52.023564],[-2.464039,52.023248],[-2.463427,52.022254],[-2.462511,52.021838],[-2.462962,52.02125],[-2.462543,52.020374],[-2.463675,52.018821],[-2.463265,52.018585],[-2.463484,52.018128],[-2.462541,52.01734],[-2.462973,52.017084],[-2.462525,52.016283],[-2.463148,52.016052],[-2.46387,52.014818],[-2.463373,52.014042],[-2.460176,52.015675],[-2.456288,52.014835],[-2.44774,52.015799],[-2.445946,52.015248],[-2.444162,52.015744],[-2.443409,52.015164],[-2.441096,52.014567],[-2.437835,52.014327],[-2.43704,52.014931],[-2.436121,52.014591],[-2.435162,52.013067],[-2.434544,52.013143],[-2.434396,52.012574],[-2.433724,52.012268],[-2.435585,52.01047],[-2.434649,52.010179],[-2.434594,52.009725],[-2.434104,52.009553],[-2.434226,52.008577],[-2.433635,52.007871],[-2.434069,52.007294],[-2.433823,52.006846],[-2.434993,52.006261],[-2.434916,52.005673],[-2.435658,52.005591],[-2.435537,52.003633],[-2.434878,52.003265],[-2.43538,52.0029],[-2.43529,52.002338],[-2.435948,52.002438],[-2.435784,52.001582],[-2.436592,52.001289],[-2.435912,52.000466],[-2.435719,51.999386],[-2.435005,51.998961],[-2.435642,51.997941],[-2.437153,51.997532],[-2.437294,51.997167],[-2.432405,51.996015],[-2.427139,51.995801],[-2.422821,51.994341],[-2.421013,51.994241],[-2.418071,51.994594],[-2.416229,51.994162],[-2.413196,51.99409],[-2.402974,51.996135],[-2.399018,51.996146],[-2.399424,51.999325],[-2.396778,52.001074],[-2.395102,52.003732],[-2.394899,52.004689],[-2.395565,52.005745],[-2.394882,52.006755],[-2.394702,52.009868],[-2.394075,52.011791],[-2.392892,52.012959],[-2.386983,52.012167],[-2.379953,52.013848],[-2.375333,52.01599],[-2.373267,52.0165],[-2.368673,52.017294],[-2.365198,52.017482],[-2.363423,52.018096],[-2.361473,52.018183],[-2.357023,52.01922],[-2.356249,52.019686],[-2.35441,52.019681],[-2.353971,52.020066],[-2.352621,52.020361],[-2.351379,52.021359],[-2.350979,52.020099],[-2.349376,52.017848],[-2.350467,52.016484],[-2.351856,52.015691],[-2.352543,52.013535],[-2.351062,52.013159],[-2.349271,52.011458],[-2.347574,52.01129],[-2.345687,52.010327],[-2.344001,52.00877],[-2.343054,52.009204],[-2.341903,52.008767],[-2.340493,52.00674],[-2.336337,52.007785],[-2.333809,52.007669],[-2.333045,52.007263],[-2.329423,52.006829],[-2.326109,52.005629],[-2.32471,52.003567],[-2.325793,52.000704],[-2.325657,51.999591],[-2.323513,51.999457],[-2.322826,51.997477],[-2.323494,51.997406],[-2.323256,51.996287],[-2.320657,51.992128],[-2.321165,51.990481],[-2.322035,51.989763],[-2.321807,51.989451],[-2.322328,51.988817],[-2.322329,51.986463],[-2.322922,51.984466],[-2.322449,51.982501],[-2.322597,51.980904],[-2.323304,51.98048],[-2.324118,51.978791],[-2.324685,51.978941],[-2.325325,51.976649],[-2.326882,51.976391],[-2.326539,51.975791],[-2.323696,51.975621],[-2.31262,51.976505],[-2.308777,51.974438],[-2.308624,51.974095],[-2.309264,51.973772],[-2.307927,51.972818],[-2.309048,51.972162],[-2.309465,51.970647],[-2.305788,51.970833],[-2.303703,51.968656],[-2.300433,51.966775],[-2.297242,51.967599],[-2.293303,51.969665],[-2.288291,51.970668],[-2.280562,51.970574],[-2.27697,51.969485],[-2.273646,51.969445],[-2.270556,51.968939],[-2.269653,51.967735],[-2.269797,51.966565],[-2.270937,51.963133],[-2.270716,51.961536],[-2.271602,51.960501],[-2.269167,51.959263],[-2.268355,51.958479],[-2.267545,51.953189],[-2.274316,51.952794],[-2.27731,51.953068],[-2.279884,51.952824],[-2.283304,51.951814],[-2.284009,51.950928],[-2.283758,51.948382],[-2.281394,51.945842],[-2.282308,51.944208],[-2.285778,51.945375],[-2.287855,51.945553],[-2.288889,51.944161],[-2.289088,51.942963],[-2.289551,51.942982],[-2.291157,51.94198],[-2.292236,51.940905],[-2.292321,51.938839],[-2.291566,51.937932],[-2.295326,51.933227],[-2.288054,51.925572],[-2.283861,51.923705],[-2.28361,51.923297],[-2.284525,51.923106],[-2.287295,51.920973],[-2.285787,51.916868],[-2.286204,51.913022],[-2.284817,51.911275],[-2.28789,51.909447],[-2.291647,51.906367],[-2.295653,51.905364],[-2.293657,51.903654],[-2.295257,51.90275],[-2.296524,51.902968],[-2.295322,51.904415],[-2.296275,51.904531],[-2.297212,51.902904],[-2.297118,51.899574],[-2.295562,51.8974],[-2.296013,51.896536],[-2.29321,51.896166],[-2.289956,51.894341],[-2.295267,51.893932],[-2.295183,51.893316],[-2.297211,51.893111],[-2.297022,51.892643],[-2.299992,51.891112],[-2.308152,51.888428],[-2.309168,51.888362],[-2.309576,51.887815],[-2.311306,51.888659],[-2.313533,51.888057],[-2.31413,51.888484],[-2.315498,51.887963],[-2.315909,51.887121],[-2.316755,51.887573],[-2.317362,51.887182],[-2.319817,51.888501],[-2.320938,51.886315],[-2.323592,51.885195],[-2.325648,51.88281],[-2.326922,51.882181],[-2.328309,51.87944],[-2.329514,51.879213],[-2.331099,51.879514],[-2.330911,51.878362],[-2.333031,51.877309],[-2.333202,51.876606],[-2.334576,51.87622],[-2.334572,51.875478],[-2.331397,51.873635],[-2.329743,51.87186],[-2.328522,51.871683],[-2.326799,51.870857],[-2.324818,51.868668],[-2.320976,51.868778],[-2.317412,51.868428],[-2.317112,51.866834],[-2.317675,51.863451],[-2.318206,51.862578],[-2.31659,51.861626],[-2.315978,51.86086],[-2.316508,51.860292],[-2.319326,51.859351],[-2.322051,51.857831],[-2.323164,51.856174],[-2.327139,51.856516],[-2.331283,51.855871],[-2.33269,51.855943],[-2.334656,51.854964],[-2.338578,51.853943],[-2.34456,51.854719],[-2.346867,51.854508],[-2.350636,51.850095],[-2.35273,51.84941],[-2.35246,51.847188],[-2.351971,51.8465],[-2.352172,51.846689],[-2.35385,51.845396],[-2.35551,51.842511],[-2.356659,51.83936],[-2.357164,51.835907],[-2.35684,51.834438],[-2.356049,51.833331],[-2.351449,51.831092],[-2.350594,51.830424],[-2.350472,51.8297],[-2.353459,51.828764],[-2.358267,51.82819],[-2.360603,51.827355],[-2.362624,51.825322],[-2.363298,51.822503],[-2.362297,51.817695],[-2.362065,51.812584],[-2.362375,51.81112],[-2.360311,51.806805],[-2.359042,51.805795],[-2.353653,51.803352],[-2.349465,51.803227],[-2.347962,51.802685],[-2.348,51.801154],[-2.348825,51.799601],[-2.350749,51.797942],[-2.35289,51.796826],[-2.361473,51.794639],[-2.365149,51.794138],[-2.36782,51.794146],[-2.370082,51.794583],[-2.375347,51.796677],[-2.380471,51.799154],[-2.385994,51.801129],[-2.401574,51.804213],[-2.406367,51.808412],[-2.411053,51.814064],[-2.414456,51.81703],[-2.41641,51.817961],[-2.416666,51.818616],[-2.416963,51.818141],[-2.421024,51.819141],[-2.42402,51.819322],[-2.429651,51.818166],[-2.433358,51.816677],[-2.440388,51.812559],[-2.44398,51.809354],[-2.447675,51.801923],[-2.449196,51.801422],[-2.451832,51.798921],[-2.453007,51.796616],[-2.452002,51.791801],[-2.450719,51.790944],[-2.450963,51.78985],[-2.450181,51.786831],[-2.449409,51.785693],[-2.448268,51.784799],[-2.447402,51.784602],[-2.44704,51.783943],[-2.446572,51.784061],[-2.444054,51.782988],[-2.442999,51.782877],[-2.441356,51.781887],[-2.441434,51.781467],[-2.441143,51.781766],[-2.43609,51.781035],[-2.429948,51.782136],[-2.419675,51.781227],[-2.412571,51.780026],[-2.408432,51.778684],[-2.405536,51.777035],[-2.404476,51.774713],[-2.404863,51.772574],[-2.406593,51.770513],[-2.411656,51.768147],[-2.426001,51.764191],[-2.430166,51.761576],[-2.436858,51.759351],[-2.438485,51.759558],[-2.439373,51.758954],[-2.440433,51.759487],[-2.439276,51.760365],[-2.440063,51.760654],[-2.439848,51.761995],[-2.440302,51.760599],[-2.439564,51.76032],[-2.440675,51.759588],[-2.440591,51.759264],[-2.439674,51.758703],[-2.438551,51.7593],[-2.437492,51.75915],[-2.440995,51.757439],[-2.448467,51.752973],[-2.449246,51.753162],[-2.449005,51.752673],[-2.454023,51.750226],[-2.459774,51.747757],[-2.465075,51.746617],[-2.471059,51.744406],[-2.473574,51.742966],[-2.476956,51.739716],[-2.477664,51.740109],[-2.47737,51.739195],[-2.478936,51.734982],[-2.490092,51.731215],[-2.494117,51.728696],[-2.496015,51.726884],[-2.498151,51.723925],[-2.498307,51.722705],[-2.500952,51.718379],[-2.501414,51.716048],[-2.505184,51.711638],[-2.505694,51.710592],[-2.505395,51.710377],[-2.508513,51.709834],[-2.511016,51.708642],[-2.514963,51.708678],[-2.517427,51.708201],[-2.520253,51.707204],[-2.525607,51.703945],[-2.527091,51.702503],[-2.530372,51.702072],[-2.534316,51.700764],[-2.537127,51.700731],[-2.542913,51.699439],[-2.545171,51.69868],[-2.547156,51.697429],[-2.547125,51.698471],[-2.547739,51.697035],[-2.552486,51.692913],[-2.554143,51.692902],[-2.556202,51.694005],[-2.554045,51.695416],[-2.551653,51.696013],[-2.554173,51.695494],[-2.55692,51.694282],[-2.560999,51.694389],[-2.56267,51.693988],[-2.563606,51.693157],[-2.563692,51.691993],[-2.563336,51.691717],[-2.563653,51.691154],[-2.568195,51.69136],[-2.569063,51.69175],[-2.568499,51.692452],[-2.566786,51.692948],[-2.565864,51.693742],[-2.565366,51.694423],[-2.5657,51.694348],[-2.566437,51.695169],[-2.566066,51.694314],[-2.566297,51.693672],[-2.569667,51.692187],[-2.569485,51.691184],[-2.572329,51.689637],[-2.574243,51.688079],[-2.574869,51.687477],[-2.575182,51.686121],[-2.576837,51.684655],[-2.582239,51.682857],[-2.583496,51.683477],[-2.582818,51.682914],[-2.589637,51.680817],[-2.591705,51.680901],[-2.59122,51.680449],[-2.59764,51.678315],[-2.600573,51.676942],[-2.6015,51.676089],[-2.604675,51.674973],[-2.608696,51.672771],[-2.609269,51.672526],[-2.60999,51.672672],[-2.609959,51.672422],[-2.6089,51.672261],[-2.611514,51.670386],[-2.61246,51.670402],[-2.612183,51.669858],[-2.615566,51.667078],[-2.61713,51.667783],[-2.616461,51.666915],[-2.61839,51.665277],[-2.622841,51.663309],[-2.625403,51.661417],[-2.625891,51.66158],[-2.626467,51.658842],[-2.625448,51.656682],[-2.623791,51.654681],[-2.623771,51.653635],[-2.62489,51.652918],[-2.626631,51.652817],[-2.626813,51.653119],[-2.627266,51.652658],[-2.62774,51.651998],[-2.627058,51.652549],[-2.62598,51.652485],[-2.631317,51.647735],[-2.631367,51.646661],[-2.632244,51.645276],[-2.636402,51.642134],[-2.639006,51.63935],[-2.640935,51.63568],[-2.643003,51.63437],[-2.645348,51.633386],[-2.64816,51.631011],[-2.648867,51.631286],[-2.648285,51.630825],[-2.649234,51.629647],[-2.650707,51.626038],[-2.650921,51.621593],[-2.649598,51.618689],[-2.64726,51.616748],[-2.647035,51.615842],[-2.647724,51.614646],[-2.647696,51.613345],[-2.648176,51.613093],[-2.648971,51.611134],[-2.650876,51.609783],[-2.652656,51.609348],[-2.657585,51.610534],[-2.657909,51.613483],[-2.658486,51.613904],[-2.659133,51.615731],[-2.659114,51.617081],[-2.657745,51.618984],[-2.655984,51.619748],[-2.655268,51.620822],[-2.655328,51.623115],[-2.657324,51.625265],[-2.66296,51.628756],[-2.665444,51.631354],[-2.665352,51.631992],[-2.665845,51.631814],[-2.666928,51.633059],[-2.667271,51.633646],[-2.666904,51.633524],[-2.666876,51.634072],[-2.667466,51.633995],[-2.667703,51.634328],[-2.66755,51.635664],[-2.66686,51.635923],[-2.667362,51.63604],[-2.666462,51.637061],[-2.665171,51.64023],[-2.665435,51.642347],[-2.666356,51.643966],[-2.668809,51.646386],[-2.669631,51.646737],[-2.673311,51.646818],[-2.675369,51.645626],[-2.677294,51.645204],[-2.678629,51.645859],[-2.679355,51.647047],[-2.679284,51.648219],[-2.678476,51.649172],[-2.67098,51.655078],[-2.667402,51.658415],[-2.665055,51.662401],[-2.665192,51.664703],[-2.666812,51.665695],[-2.669105,51.665597],[-2.670997,51.66459],[-2.674586,51.66149],[-2.678366,51.66036],[-2.682252,51.66076],[-2.684612,51.66175],[-2.685566,51.662681],[-2.685348,51.663768],[-2.684443,51.664175],[-2.684808,51.664795],[-2.68415,51.666101],[-2.684031,51.667626],[-2.682325,51.668698],[-2.680812,51.669165],[-2.67815,51.669346],[-2.674592,51.669225],[-2.671813,51.668657],[-2.667257,51.668931],[-2.659176,51.670993],[-2.657397,51.672119],[-2.656373,51.673454],[-2.656849,51.675626],[-2.658352,51.676679],[-2.662205,51.677967],[-2.667814,51.678886],[-2.670751,51.680393],[-2.672298,51.681896],[-2.671817,51.684114],[-2.668539,51.688305],[-2.668579,51.690496],[-2.668064,51.69152],[-2.66866,51.692565],[-2.668482,51.693447],[-2.669608,51.694859],[-2.672602,51.697374],[-2.682717,51.700254],[-2.683512,51.701225],[-2.683223,51.702747],[-2.681969,51.703123],[-2.679768,51.7029],[-2.676833,51.700476],[-2.675586,51.700028],[-2.673335,51.700048],[-2.670257,51.700728],[-2.66898,51.701522],[-2.668635,51.702304],[-2.668025,51.7058],[-2.668391,51.706899],[-2.672427,51.710556],[-2.677404,51.712924],[-2.67895,51.714061],[-2.681285,51.721208],[-2.68112,51.722292],[-2.679954,51.723867],[-2.680076,51.72466],[-2.686045,51.72841],[-2.687149,51.730556],[-2.685764,51.731824],[-2.675126,51.73451],[-2.672006,51.736113],[-2.670943,51.737014],[-2.671259,51.739924],[-2.670778,51.741024],[-2.669326,51.742381],[-2.669535,51.74273],[-2.668564,51.744962],[-2.665055,51.749066],[-2.662779,51.753603],[-2.662932,51.754735],[-2.666049,51.75697],[-2.671547,51.75887],[-2.673265,51.759876],[-2.674735,51.761338],[-2.676417,51.764236],[-2.679458,51.76721],[-2.680452,51.768929],[-2.679925,51.771386],[-2.676846,51.773898],[-2.675054,51.776777],[-2.676134,51.780308],[-2.673487,51.783809],[-2.673362,51.784734],[-2.675844,51.788069],[-2.674092,51.788312],[-2.673328,51.788788],[-2.672891,51.789809],[-2.672715,51.793077],[-2.672225,51.79353],[-2.670539,51.79373],[-2.669811,51.794273],[-2.671473,51.795026],[-2.676748,51.798603],[-2.677566,51.799929],[-2.677733,51.80143],[-2.678586,51.802467],[-2.678303,51.803319],[-2.675751,51.805712],[-2.675536,51.806664],[-2.674296,51.807135],[-2.673486,51.807097],[-2.672611,51.808906],[-2.669771,51.808912],[-2.665001,51.81018],[-2.662025,51.81011],[-2.659539,51.810682],[-2.658863,51.811453],[-2.658852,51.813693],[-2.661107,51.818117],[-2.659733,51.818634],[-2.658888,51.819801],[-2.660871,51.822754],[-2.650164,51.824115],[-2.649873,51.825033],[-2.650401,51.826125],[-2.648383,51.826808],[-2.64724,51.827848],[-2.643415,51.834645],[-2.641048,51.836602],[-2.640475,51.83623],[-2.638384,51.837556],[-2.635622,51.840426],[-2.635643,51.841136],[-2.63671,51.843095],[-2.635726,51.842866],[-2.632929,51.84031],[-2.630224,51.83889],[-2.629688,51.838761],[-2.628816,51.839144],[-2.625467,51.838964],[-2.624467,51.839491],[-2.621594,51.843325],[-2.615398,51.84547],[-2.609434,51.846797],[-2.606401,51.852026],[-2.604443,51.854662],[-2.601217,51.856216],[-2.599539,51.856531],[-2.596186,51.85622],[-2.593065,51.855209],[-2.591618,51.854192],[-2.588946,51.851351],[-2.586198,51.849785],[-2.58211,51.849728],[-2.580524,51.850437],[-2.578822,51.851849],[-2.578806,51.85321],[-2.579518,51.854381],[-2.583103,51.858234],[-2.585204,51.859915],[-2.584316,51.860558],[-2.583325,51.860612],[-2.58055,51.861632],[-2.577668,51.861359],[-2.576731,51.862256],[-2.575842,51.862542],[-2.573365,51.862417],[-2.569521,51.862959],[-2.568128,51.86256],[-2.563932,51.863415],[-2.563467,51.863844],[-2.561619,51.864271],[-2.558535,51.863824],[-2.556388,51.862903],[-2.554423,51.863173],[-2.550244,51.862825],[-2.548225,51.862049],[-2.546624,51.860766],[-2.543967,51.8602],[-2.534052,51.860396],[-2.531624,51.860772],[-2.531122,51.863021],[-2.526771,51.862983],[-2.522566,51.864821],[-2.522233,51.864696],[-2.52185,51.866177],[-2.520113,51.86807],[-2.519346,51.870874],[-2.517943,51.873395],[-2.513274,51.880105],[-2.508624,51.885169],[-2.508258,51.884875],[-2.507861,51.88526],[-2.506686,51.885374],[-2.505431,51.886116],[-2.503545,51.886642],[-2.501868,51.886312],[-2.500639,51.884363],[-2.501179,51.881987],[-2.500254,51.881738],[-2.498188,51.881987],[-2.494656,51.88424],[-2.493861,51.880003],[-2.487795,51.880418],[-2.486728,51.884716],[-2.485044,51.884931],[-2.482394,51.885886],[-2.480013,51.885825],[-2.477878,51.884962],[-2.473408,51.885554],[-2.473739,51.887347],[-2.471439,51.889209],[-2.46865,51.890777],[-2.467819,51.892013],[-2.465213,51.892991],[-2.456162,51.893416],[-2.44983,51.894404],[-2.448921,51.89481],[-2.446027,51.893999],[-2.443597,51.895787],[-2.43957,51.897064],[-2.439275,51.897382],[-2.440073,51.897608],[-2.439999,51.898432],[-2.439231,51.899521],[-2.440781,51.898533],[-2.443312,51.898492],[-2.443313,51.898824],[-2.444263,51.898927],[-2.444151,51.899787],[-2.44532,51.900558],[-2.443909,51.900778],[-2.442302,51.901875],[-2.440439,51.902028],[-2.440081,51.90242],[-2.442243,51.904114],[-2.442424,51.905071],[-2.443984,51.905825],[-2.442866,51.90616],[-2.442821,51.906714],[-2.441672,51.907165],[-2.442965,51.908484],[-2.44247,51.908968],[-2.444386,51.909853],[-2.443124,51.91198],[-2.443433,51.912734],[-2.44645,51.915088],[-2.44769,51.915664],[-2.448258,51.918721],[-2.449325,51.919121],[-2.451578,51.918751],[-2.452225,51.919238],[-2.455023,51.919348],[-2.459926,51.923433],[-2.461294,51.925054],[-2.466043,51.927975],[-2.466205,51.931425],[-2.467879,51.93738],[-2.466959,51.937573],[-2.465831,51.937272],[-2.465433,51.938005],[-2.464236,51.938385],[-2.464099,51.938711],[-2.463584,51.938569],[-2.463384,51.939272],[-2.464422,51.939691],[-2.464037,51.939982],[-2.464651,51.940145],[-2.464292,51.940237],[-2.464685,51.941267],[-2.465104,51.941345],[-2.464816,51.941802],[-2.465529,51.942223],[-2.464971,51.942239],[-2.465034,51.942759],[-2.464188,51.943051],[-2.46377,51.943628],[-2.464871,51.944614],[-2.465293,51.945575],[-2.465509,51.946761],[-2.464516,51.948587],[-2.466114,51.950359],[-2.465574,51.951705],[-2.467819,51.95195],[-2.470526,51.953117],[-2.472224,51.955455],[-2.472524,51.955336],[-2.473729,51.956538],[-2.474598,51.955745],[-2.475185,51.955702],[-2.475759,51.956331],[-2.479238,51.955728],[-2.481096,51.956106],[-2.482439,51.95567],[-2.483884,51.956774],[-2.486107,51.95742],[-2.48752,51.956874],[-2.490188,51.954979],[-2.493117,51.957351],[-2.49752,51.958788],[-2.496614,51.959631],[-2.496625,51.960325],[-2.500906,51.960609],[-2.499873,51.961539],[-2.499946,51.962562],[-2.49903,51.963718],[-2.497567,51.963794],[-2.497261,51.96418],[-2.495762,51.964422],[-2.493382,51.963893],[-2.492245,51.964129],[-2.492945,51.964693],[-2.492436,51.966732],[-2.493013,51.968608],[-2.493917,51.970239],[-2.495131,51.97112],[-2.496501,51.976114],[-2.496359,51.977513],[-2.495571,51.97991],[-2.494903,51.980205],[-2.494913,51.981075],[-2.493128,51.981772],[-2.491302,51.981913],[-2.49115,51.983404],[-2.490322,51.983509],[-2.489685,51.986247],[-2.488638,51.987408],[-2.486769,51.988025],[-2.482603,51.988224],[-2.481643,51.989501],[-2.480248,51.990524],[-2.480027,51.991351],[-2.478922,51.992007],[-2.477117,51.992775],[-2.474871,51.992814],[-2.474032,51.99315],[-2.474063,51.993485],[-2.473429,51.993493],[-2.472208,51.994383],[-2.47098,51.994777],[-2.475416,51.997506],[-2.475144,51.998204],[-2.476938,51.99926],[-2.477646,52.000151],[-2.478844,52.000406],[-2.479653,52.000193],[-2.485497,52.000332],[-2.487287,52.00341],[-2.489769,52.005153],[-2.489387,52.005897],[-2.490874,52.005956],[-2.49157,52.006509],[-2.492111,52.008295],[-2.491252,52.010491],[-2.490284,52.010644],[-2.489562,52.011292],[-2.487634,52.011481],[-2.487131,52.012298],[-2.484622,52.01254],[-2.483392,52.014166],[-2.482861,52.013909],[-2.480366,52.016061],[-2.477416,52.019867],[-2.478932,52.02253],[-2.473864,52.023819],[-2.471187,52.023808],[-2.470753,52.02329]]]}}]}