{"type":"FeatureCollection","features":[{"type":"Feature","properties":{"slug":"fylde","gss_code":"E07000119","name":"Fylde"},"geometry":{"type":"MultiPolygon","coordinates":[[[[-2.790691,53.75845],[-2.790845,53.758696],[-2.790704,53.758523],[-2.790691,53.75845]]],[[[-2.981819,53.858324],[-2.981872,53.858374],[-2.981761,53.858433],[-2.981819,53.858324]]],[[[-2.979652,53.858989],[-2.980262,53.859043],[-2.979398,53.859127],[-2.979652,53.858989]]],[[[-2.889759,53.86289],[-2.890611,53.863039],[-2.889225,53.862991],[-2.889759,53.86289]]],[[[-2.896314,53.86049],[-2.894916,53.860828],[-2.892248,53.86288],[-2.889212,53.862603],[-2.886727,53.863311],[-2.886749,53.863074],[-2.884828,53.863059],[-2.87997,53.860565],[-2.879069,53.860397],[-2.878253,53.860696],[-2.877204,53.859887],[-2.877015,53.859001],[-2.875561,53.857933],[-2.875827,53.85705],[-2.88427,53.855693],[-2.888017,53.854245],[-2.890122,53.852187],[-2.8874,53.850813],[-2.888092,53.849161],[-2.890693,53.847668],[-2.890146,53.846039],[-2.883745,53.84391],[-2.878837,53.843332],[-2.871616,53.843152],[-2.867776,53.845549],[-2.866998,53.845702],[-2.866536,53.845189],[-2.864094,53.844214],[-2.861106,53.843761],[-2.857587,53.842607],[-2.858514,53.83861],[-2.861091,53.836599],[-2.868623,53.833777],[-2.8703,53.832407],[-2.870124,53.831371],[-2.868689,53.830638],[-2.864926,53.829631],[-2.862226,53.829389],[-2.857492,53.83083],[-2.854454,53.83123],[-2.849397,53.831596],[-2.84087,53.831278],[-2.838674,53.829365],[-2.836103,53.825261],[-2.822095,53.818039],[-2.819652,53.815402],[-2.815266,53.808193],[-2.811499,53.807928],[-2.783162,53.789996],[-2.782206,53.78996],[-2.780491,53.787714],[-2.785067,53.784264],[-2.791146,53.780757],[-2.798194,53.771539],[-2.798664,53.77042],[-2.797933,53.767368],[-2.798632,53.767048],[-2.79912,53.765729],[-2.796698,53.764347],[-2.796149,53.76338],[-2.795305,53.763125],[-2.794985,53.762654],[-2.795685,53.762128],[-2.794452,53.761553],[-2.794384,53.760851],[-2.79242,53.760612],[-2.790815,53.758375],[-2.790529,53.756812],[-2.789836,53.756294],[-2.790732,53.7545],[-2.794157,53.752615],[-2.793997,53.751793],[-2.802034,53.750105],[-2.802218,53.750322],[-2.802332,53.750034],[-2.804203,53.749614],[-2.804416,53.749843],[-2.809368,53.748503],[-2.809419,53.748834],[-2.809759,53.748907],[-2.809433,53.748773],[-2.809738,53.748431],[-2.813728,53.747534],[-2.814944,53.747902],[-2.814417,53.747435],[-2.816929,53.746802],[-2.817373,53.747282],[-2.818387,53.747131],[-2.817397,53.746754],[-2.818551,53.746741],[-2.820347,53.746089],[-2.822569,53.747276],[-2.822798,53.747727],[-2.822621,53.747211],[-2.820954,53.746247],[-2.821086,53.745948],[-2.822189,53.745691],[-2.822702,53.745913],[-2.822759,53.745488],[-2.824745,53.745061],[-2.835408,53.743266],[-2.836729,53.742695],[-2.855546,53.738386],[-2.856478,53.739585],[-2.856449,53.740194],[-2.857085,53.740415],[-2.858492,53.742478],[-2.859056,53.74546],[-2.859396,53.74543],[-2.859762,53.746531],[-2.859197,53.747579],[-2.859729,53.748401],[-2.858953,53.748885],[-2.859552,53.749553],[-2.858716,53.750638],[-2.85974,53.749523],[-2.859212,53.748836],[-2.859843,53.748786],[-2.859956,53.74821],[-2.859481,53.747576],[-2.859967,53.746393],[-2.858854,53.742605],[-2.856646,53.738387],[-2.859047,53.737782],[-2.870841,53.736869],[-2.874926,53.736148],[-2.875875,53.736762],[-2.875805,53.736007],[-2.877105,53.735586],[-2.890143,53.734075],[-2.892295,53.734248],[-2.891145,53.733939],[-2.895149,53.733493],[-2.89711,53.734565],[-2.898945,53.73482],[-2.896318,53.734061],[-2.895796,53.733541],[-2.899834,53.733033],[-2.900085,53.733379],[-2.900054,53.733048],[-2.900844,53.73315],[-2.900858,53.733743],[-2.901563,53.73379],[-2.901647,53.735012],[-2.901839,53.733985],[-2.901563,53.733727],[-2.900925,53.7336],[-2.90115,53.733327],[-2.900898,53.732955],[-2.904122,53.73276],[-2.904118,53.734245],[-2.904264,53.732687],[-2.904703,53.732665],[-2.905071,53.734083],[-2.904866,53.732646],[-2.905646,53.732606],[-2.905837,53.733531],[-2.905722,53.732604],[-2.907065,53.732444],[-2.907454,53.7333],[-2.907399,53.732411],[-2.908157,53.732396],[-2.908408,53.73292],[-2.908355,53.732388],[-2.909548,53.732516],[-2.909707,53.733615],[-2.908579,53.73434],[-2.909762,53.733624],[-2.909656,53.732266],[-2.910705,53.732304],[-2.91072,53.733077],[-2.910146,53.734293],[-2.90893,53.734494],[-2.91016,53.734377],[-2.910791,53.73319],[-2.911006,53.732282],[-2.91115,53.73395],[-2.911469,53.734114],[-2.910592,53.735012],[-2.911539,53.734077],[-2.9112,53.733888],[-2.911307,53.732232],[-2.911924,53.732362],[-2.912187,53.732052],[-2.912607,53.732326],[-2.912478,53.732541],[-2.91249,53.733184],[-2.912564,53.732475],[-2.913005,53.732675],[-2.912615,53.735183],[-2.913123,53.733331],[-2.912949,53.732061],[-2.91371,53.732465],[-2.913407,53.731991],[-2.913693,53.732015],[-2.914168,53.733293],[-2.913791,53.732015],[-2.914094,53.731906],[-2.91443,53.733513],[-2.914197,53.731918],[-2.914535,53.731836],[-2.914807,53.732653],[-2.914884,53.732012],[-2.915202,53.73246],[-2.915023,53.734408],[-2.915351,53.734721],[-2.914974,53.734886],[-2.915387,53.734773],[-2.915335,53.734571],[-2.91509,53.734376],[-2.91558,53.733054],[-2.915202,53.732248],[-2.915777,53.73203],[-2.91647,53.733278],[-2.916144,53.734189],[-2.916549,53.734352],[-2.916569,53.735127],[-2.916539,53.733266],[-2.916184,53.732101],[-2.915529,53.731884],[-2.916818,53.731909],[-2.917044,53.732471],[-2.916957,53.731913],[-2.917637,53.7321],[-2.91788,53.73253],[-2.917374,53.733583],[-2.917855,53.732853],[-2.918202,53.733032],[-2.917848,53.734045],[-2.918311,53.734441],[-2.917907,53.734024],[-2.918343,53.733323],[-2.917974,53.7324],[-2.917578,53.731954],[-2.916797,53.731709],[-2.917625,53.731618],[-2.918919,53.731574],[-2.919551,53.733394],[-2.919053,53.731626],[-2.920716,53.731837],[-2.920342,53.734842],[-2.921015,53.731557],[-2.921845,53.731479],[-2.922447,53.732801],[-2.921996,53.731515],[-2.922902,53.731493],[-2.922918,53.733385],[-2.923118,53.731455],[-2.929132,53.731452],[-2.930743,53.731666],[-2.930782,53.732193],[-2.929686,53.732573],[-2.927945,53.732629],[-2.924511,53.733769],[-2.927969,53.732679],[-2.929715,53.732626],[-2.930812,53.732298],[-2.931038,53.731549],[-2.933965,53.731843],[-2.933251,53.732474],[-2.931008,53.732746],[-2.929882,53.732952],[-2.930377,53.732953],[-2.929147,53.73345],[-2.930952,53.732791],[-2.931112,53.733008],[-2.932495,53.732836],[-2.933652,53.732416],[-2.934315,53.731823],[-2.9368,53.732123],[-2.934737,53.733291],[-2.933238,53.733179],[-2.934566,53.733313],[-2.933881,53.733675],[-2.931066,53.733584],[-2.931461,53.733787],[-2.929132,53.733828],[-2.926672,53.734297],[-2.926317,53.73404],[-2.925779,53.733808],[-2.926143,53.734219],[-2.925253,53.734227],[-2.925923,53.734353],[-2.926156,53.73428],[-2.926341,53.734098],[-2.926291,53.734576],[-2.923562,53.734779],[-2.922442,53.734924],[-2.92163,53.735288],[-2.923525,53.734826],[-2.923205,53.735573],[-2.92371,53.734853],[-2.926075,53.73472],[-2.925808,53.735429],[-2.926257,53.7351],[-2.926184,53.735848],[-2.926607,53.735836],[-2.926246,53.73473],[-2.927133,53.73424],[-2.927223,53.734681],[-2.927542,53.734227],[-2.929305,53.734043],[-2.92751,53.734651],[-2.927153,53.735648],[-2.927384,53.735935],[-2.927545,53.734713],[-2.929525,53.734089],[-2.930127,53.734334],[-2.928257,53.735123],[-2.929384,53.734841],[-2.929286,53.735043],[-2.930273,53.734252],[-2.930528,53.734618],[-2.930012,53.734898],[-2.930683,53.734578],[-2.930486,53.734193],[-2.932245,53.734005],[-2.931832,53.73435],[-2.931837,53.735009],[-2.932076,53.734174],[-2.933126,53.734],[-2.932485,53.7344],[-2.933021,53.734132],[-2.933243,53.734398],[-2.932701,53.735293],[-2.933281,53.734426],[-2.9331,53.734105],[-2.933585,53.733978],[-2.933791,53.734674],[-2.932058,53.735877],[-2.933766,53.734773],[-2.932634,53.736102],[-2.933897,53.734912],[-2.933798,53.734023],[-2.934561,53.734226],[-2.934444,53.734756],[-2.93311,53.735816],[-2.934298,53.734875],[-2.934911,53.734761],[-2.934291,53.735061],[-2.934056,53.73542],[-2.934282,53.73515],[-2.93456,53.735755],[-2.934358,53.736383],[-2.930879,53.737759],[-2.932999,53.737114],[-2.932683,53.737776],[-2.933259,53.736847],[-2.934399,53.736908],[-2.933615,53.736752],[-2.934548,53.736314],[-2.934673,53.735763],[-2.934443,53.735122],[-2.935098,53.734727],[-2.934587,53.734654],[-2.934834,53.734235],[-2.934285,53.733879],[-2.93527,53.733476],[-2.935266,53.733845],[-2.936184,53.732908],[-2.936687,53.7333],[-2.935907,53.733709],[-2.936707,53.733464],[-2.936729,53.733247],[-2.936529,53.732894],[-2.938105,53.733147],[-2.936726,53.733662],[-2.936642,53.734013],[-2.936838,53.733679],[-2.937256,53.733838],[-2.93658,53.734103],[-2.936334,53.734297],[-2.936442,53.734759],[-2.936622,53.734136],[-2.937314,53.733852],[-2.937403,53.73442],[-2.936097,53.735125],[-2.937192,53.73455],[-2.936924,53.735049],[-2.937586,53.734326],[-2.937271,53.735251],[-2.937732,53.734424],[-2.937395,53.733683],[-2.93812,53.733346],[-2.937938,53.733795],[-2.938259,53.733169],[-2.936541,53.732765],[-2.938121,53.732085],[-2.940162,53.732174],[-2.939987,53.732849],[-2.940318,53.733417],[-2.939713,53.733532],[-2.939287,53.732976],[-2.938736,53.733073],[-2.939049,53.733724],[-2.93871,53.733813],[-2.938314,53.73414],[-2.938766,53.733814],[-2.938898,53.734015],[-2.937906,53.734628],[-2.938912,53.734039],[-2.938924,53.733831],[-2.939131,53.733812],[-2.938441,53.73462],[-2.939022,53.73417],[-2.939156,53.733895],[-2.939233,53.733064],[-2.939667,53.733899],[-2.94033,53.733548],[-2.940636,53.733819],[-2.938907,53.73444],[-2.936388,53.736426],[-2.939009,53.734453],[-2.941033,53.733803],[-2.94063,53.733516],[-2.941065,53.733438],[-2.94054,53.733486],[-2.940149,53.732839],[-2.94069,53.732133],[-2.942123,53.732152],[-2.942071,53.734269],[-2.94233,53.732104],[-2.942816,53.733309],[-2.943364,53.733551],[-2.942844,53.734289],[-2.943412,53.733557],[-2.942968,53.73326],[-2.942813,53.732151],[-2.943982,53.732358],[-2.943777,53.732532],[-2.9443,53.732834],[-2.944113,53.733725],[-2.944363,53.733035],[-2.944974,53.733371],[-2.944943,53.733692],[-2.943844,53.734168],[-2.944721,53.733805],[-2.944853,53.734179],[-2.945065,53.733557],[-2.944982,53.733311],[-2.944468,53.733081],[-2.944227,53.732248],[-2.945595,53.732453],[-2.945765,53.733232],[-2.946113,53.733453],[-2.945807,53.733728],[-2.946149,53.733565],[-2.946257,53.73378],[-2.945434,53.734295],[-2.946299,53.733811],[-2.945614,53.732394],[-2.946743,53.732546],[-2.946612,53.733504],[-2.946863,53.732492],[-2.94755,53.732593],[-2.947721,53.733224],[-2.94763,53.732549],[-2.948937,53.732751],[-2.947935,53.733566],[-2.948783,53.733123],[-2.948957,53.732787],[-2.94893,53.732652],[-2.94982,53.733062],[-2.949837,53.732699],[-2.953066,53.732973],[-2.951526,53.733843],[-2.950528,53.734138],[-2.950391,53.733916],[-2.950008,53.734263],[-2.949552,53.734077],[-2.949594,53.734338],[-2.948536,53.734606],[-2.948121,53.734674],[-2.947486,53.734233],[-2.947792,53.734748],[-2.946392,53.734391],[-2.947666,53.734746],[-2.946532,53.73502],[-2.945746,53.734665],[-2.945849,53.734404],[-2.945221,53.734468],[-2.946357,53.735098],[-2.945714,53.735263],[-2.945457,53.734948],[-2.944264,53.73477],[-2.945446,53.734988],[-2.945604,53.735301],[-2.943328,53.73577],[-2.943256,53.735292],[-2.942932,53.735574],[-2.941883,53.735433],[-2.941506,53.734924],[-2.940712,53.734572],[-2.941115,53.734485],[-2.939952,53.734668],[-2.941251,53.734879],[-2.940476,53.734836],[-2.939518,53.73504],[-2.937772,53.735905],[-2.93987,53.734979],[-2.940831,53.734869],[-2.939928,53.735162],[-2.939384,53.73549],[-2.941326,53.734961],[-2.941649,53.735328],[-2.941356,53.73524],[-2.940996,53.735184],[-2.940302,53.735342],[-2.941343,53.735259],[-2.941771,53.735631],[-2.941393,53.73549],[-2.940912,53.735547],[-2.940794,53.735796],[-2.940096,53.735806],[-2.939126,53.736091],[-2.938864,53.735893],[-2.939038,53.736161],[-2.937388,53.736474],[-2.93866,53.736378],[-2.940282,53.735876],[-2.939561,53.736183],[-2.940918,53.736024],[-2.941364,53.735565],[-2.941588,53.735797],[-2.942425,53.735563],[-2.942839,53.735974],[-2.942045,53.736065],[-2.940926,53.736796],[-2.940409,53.736614],[-2.939888,53.736657],[-2.939439,53.736992],[-2.940088,53.736666],[-2.940718,53.736871],[-2.939153,53.737685],[-2.937047,53.737704],[-2.93585,53.737253],[-2.936838,53.737735],[-2.935658,53.737893],[-2.93738,53.737704],[-2.937706,53.73786],[-2.936806,53.737893],[-2.935655,53.738496],[-2.936865,53.73791],[-2.93775,53.737918],[-2.93799,53.737756],[-2.938064,53.738013],[-2.938511,53.737709],[-2.939006,53.737939],[-2.938837,53.739219],[-2.937444,53.739575],[-2.935157,53.740801],[-2.934481,53.739676],[-2.93493,53.740725],[-2.932283,53.740398],[-2.931483,53.739976],[-2.931713,53.740307],[-2.933249,53.74082],[-2.932794,53.74111],[-2.931903,53.741005],[-2.931056,53.740607],[-2.931013,53.740257],[-2.930679,53.740426],[-2.929284,53.739729],[-2.929734,53.739324],[-2.929081,53.739526],[-2.929269,53.739107],[-2.928839,53.739169],[-2.928808,53.73858],[-2.928196,53.738262],[-2.926396,53.737946],[-2.925241,53.737304],[-2.922004,53.737063],[-2.921262,53.737574],[-2.919718,53.737541],[-2.919175,53.737882],[-2.91859,53.737697],[-2.918708,53.737319],[-2.918544,53.737605],[-2.917871,53.737393],[-2.918016,53.736682],[-2.917613,53.73734],[-2.916609,53.737226],[-2.916118,53.736693],[-2.915191,53.736715],[-2.916507,53.737282],[-2.915404,53.737654],[-2.914492,53.737358],[-2.913185,53.737338],[-2.912443,53.736668],[-2.908824,53.736082],[-2.906841,53.736166],[-2.905989,53.736583],[-2.905454,53.737148],[-2.9059,53.73697],[-2.906147,53.737434],[-2.906,53.736709],[-2.906773,53.73625],[-2.908852,53.736132],[-2.910672,53.736555],[-2.91123,53.736748],[-2.909981,53.737089],[-2.910936,53.73718],[-2.910059,53.73776],[-2.910567,53.737701],[-2.910146,53.73834],[-2.910675,53.738153],[-2.910796,53.738865],[-2.910646,53.737717],[-2.911443,53.736758],[-2.912378,53.736765],[-2.912924,53.737189],[-2.91174,53.737166],[-2.911401,53.737484],[-2.911928,53.73719],[-2.912872,53.737359],[-2.913004,53.737741],[-2.913092,53.73746],[-2.914167,53.737504],[-2.914181,53.737824],[-2.914346,53.737498],[-2.915475,53.737772],[-2.916371,53.737722],[-2.91669,53.738434],[-2.915977,53.738894],[-2.913359,53.739342],[-2.91584,53.738964],[-2.916813,53.739179],[-2.915518,53.739877],[-2.916181,53.739572],[-2.916617,53.739781],[-2.917315,53.739768],[-2.916854,53.740452],[-2.91725,53.740686],[-2.916635,53.740784],[-2.917125,53.74107],[-2.916362,53.741983],[-2.916796,53.742333],[-2.916552,53.742822],[-2.916881,53.742384],[-2.916466,53.741969],[-2.917197,53.741105],[-2.916706,53.740782],[-2.917307,53.740726],[-2.91738,53.740661],[-2.916964,53.740418],[-2.917431,53.739886],[-2.917389,53.739656],[-2.916612,53.739679],[-2.917055,53.739182],[-2.916253,53.738905],[-2.916886,53.738462],[-2.916611,53.737599],[-2.919124,53.738069],[-2.921219,53.737767],[-2.921517,53.738361],[-2.921515,53.737712],[-2.922888,53.737296],[-2.925032,53.737861],[-2.924986,53.738361],[-2.925147,53.737907],[-2.92466,53.737611],[-2.928018,53.738625],[-2.928349,53.739096],[-2.925945,53.738288],[-2.9254,53.738428],[-2.925032,53.739096],[-2.923233,53.738682],[-2.924902,53.739126],[-2.924735,53.739458],[-2.921464,53.739387],[-2.92435,53.739651],[-2.923769,53.739993],[-2.921051,53.73992],[-2.919603,53.740294],[-2.92047,53.74035],[-2.920123,53.741027],[-2.920739,53.740031],[-2.923642,53.740066],[-2.922538,53.740408],[-2.923237,53.740331],[-2.923067,53.741102],[-2.922194,53.741438],[-2.922959,53.741191],[-2.923848,53.741371],[-2.923124,53.74113],[-2.923297,53.740375],[-2.924877,53.739499],[-2.925898,53.73839],[-2.927821,53.738937],[-2.92853,53.739462],[-2.928726,53.740011],[-2.930376,53.740774],[-2.929627,53.740958],[-2.927953,53.74025],[-2.925228,53.739992],[-2.928547,53.740583],[-2.927766,53.740724],[-2.929724,53.741009],[-2.930532,53.740895],[-2.929331,53.74147],[-2.93077,53.740999],[-2.93141,53.741591],[-2.93129,53.741208],[-2.93305,53.741496],[-2.935001,53.741245],[-2.934998,53.742108],[-2.934437,53.742292],[-2.935115,53.742315],[-2.936779,53.744619],[-2.935388,53.742052],[-2.935383,53.741627],[-2.935954,53.74156],[-2.935472,53.741279],[-2.938927,53.741771],[-2.939867,53.741638],[-2.941685,53.742108],[-2.944845,53.741469],[-2.941672,53.741945],[-2.94006,53.741496],[-2.935961,53.741191],[-2.936576,53.74054],[-2.939002,53.73982],[-2.940287,53.737682],[-2.943732,53.736237],[-2.945163,53.735943],[-2.94517,53.736411],[-2.94539,53.735912],[-2.94616,53.735738],[-2.946148,53.736079],[-2.946473,53.735749],[-2.946613,53.736165],[-2.947296,53.736158],[-2.946459,53.73569],[-2.947362,53.735474],[-2.947822,53.73594],[-2.94804,53.735669],[-2.948874,53.735809],[-2.948354,53.735659],[-2.94804,53.735653],[-2.947853,53.735734],[-2.947694,53.735414],[-2.949665,53.734881],[-2.950573,53.734744],[-2.950899,53.735499],[-2.950617,53.734649],[-2.951628,53.734412],[-2.952294,53.734286],[-2.952666,53.73521],[-2.952384,53.734257],[-2.954218,53.734134],[-2.954129,53.734595],[-2.95437,53.734083],[-2.955656,53.733653],[-2.955869,53.734629],[-2.955806,53.733692],[-2.957122,53.733461],[-2.959679,53.733542],[-2.960088,53.734171],[-2.960803,53.733851],[-2.963424,53.734344],[-2.974775,53.733965],[-2.980083,53.734437],[-2.99258,53.737358],[-2.997489,53.737451],[-3.000811,53.736727],[-3.0069,53.737078],[-3.010766,53.73823],[-3.01445,53.738852],[-3.027862,53.744094],[-3.029113,53.744008],[-3.034796,53.748061],[-3.03546,53.747706],[-3.034948,53.747372],[-3.03548,53.746712],[-3.038041,53.746956],[-3.039,53.747494],[-3.039964,53.748919],[-3.044777,53.75196],[-3.04731,53.754202],[-3.048457,53.758299],[-3.049286,53.759178],[-3.049761,53.759206],[-3.049431,53.757289],[-3.051702,53.760962],[-3.052868,53.761648],[-3.055016,53.762018],[-3.054741,53.763976],[-3.055155,53.763813],[-3.055365,53.764259],[-3.055228,53.766966],[-3.056042,53.768274],[-3.055955,53.77067],[-3.05671,53.773274],[-3.056403,53.776042],[-3.056623,53.776524],[-3.057414,53.776478],[-3.032765,53.780749],[-3.028801,53.773117],[-3.015797,53.775149],[-3.015467,53.774581],[-3.011579,53.774411],[-2.996478,53.774504],[-3.00069,53.780618],[-3.000146,53.78084],[-3.001025,53.781694],[-3.001434,53.781629],[-3.006122,53.787992],[-3.003988,53.787816],[-3.003887,53.791342],[-3.00308,53.791122],[-3.00133,53.792078],[-3.002204,53.792753],[-2.9995,53.793515],[-2.999346,53.794265],[-2.99056,53.793665],[-2.983357,53.793803],[-2.984826,53.795124],[-2.986912,53.79866],[-2.989537,53.800463],[-2.986675,53.802185],[-2.992011,53.80814],[-2.99398,53.81218],[-2.993543,53.812912],[-2.994814,53.815],[-2.993303,53.815903],[-2.99451,53.817672],[-2.995647,53.818764],[-2.998223,53.818998],[-2.998542,53.820403],[-2.99998,53.820062],[-3.00223,53.821921],[-3.002764,53.823183],[-3.006137,53.824378],[-3.010097,53.824857],[-3.011667,53.82559],[-3.010653,53.826194],[-3.009112,53.825355],[-3.007179,53.826988],[-3.004954,53.827288],[-3.002331,53.828723],[-2.993001,53.829495],[-2.993118,53.831029],[-2.987194,53.830205],[-2.986632,53.829257],[-2.986029,53.829017],[-2.986042,53.828439],[-2.970322,53.829202],[-2.966647,53.82689],[-2.963461,53.827599],[-2.961778,53.828347],[-2.965073,53.829891],[-2.967319,53.832541],[-2.968601,53.834827],[-2.96927,53.838723],[-2.970781,53.840459],[-2.967908,53.842191],[-2.965586,53.844645],[-2.965604,53.847342],[-2.967847,53.848854],[-2.971972,53.849937],[-2.972191,53.850971],[-2.974043,53.852205],[-2.977867,53.85285],[-2.978018,53.853361],[-2.979501,53.854483],[-2.979656,53.85525],[-2.978562,53.856837],[-2.978694,53.85736],[-2.97771,53.857622],[-2.977725,53.85794],[-2.978047,53.858107],[-2.980946,53.857498],[-2.981761,53.858269],[-2.980804,53.858936],[-2.978622,53.85896],[-2.979234,53.859743],[-2.97858,53.86034],[-2.978461,53.861525],[-2.977828,53.861929],[-2.976567,53.861812],[-2.977147,53.861526],[-2.976255,53.861619],[-2.97699,53.861214],[-2.977019,53.86058],[-2.976564,53.861035],[-2.975194,53.860633],[-2.976584,53.86114],[-2.975844,53.861416],[-2.971795,53.860138],[-2.969521,53.860149],[-2.962894,53.861488],[-2.960778,53.861138],[-2.960447,53.86083],[-2.960633,53.861113],[-2.960063,53.861022],[-2.957775,53.859798],[-2.955546,53.856251],[-2.951277,53.852701],[-2.946992,53.850694],[-2.943925,53.850074],[-2.94067,53.850823],[-2.938349,53.851833],[-2.937975,53.85164],[-2.938146,53.851931],[-2.936652,53.852829],[-2.935434,53.854413],[-2.934121,53.853761],[-2.935297,53.854471],[-2.933433,53.856173],[-2.926217,53.855707],[-2.921847,53.85616],[-2.912728,53.859643],[-2.911705,53.860599],[-2.911738,53.862769],[-2.910956,53.863681],[-2.903571,53.864496],[-2.901317,53.864025],[-2.89858,53.861558],[-2.896314,53.86049]],[[-2.929645,53.735097],[-2.930177,53.735075],[-2.930034,53.735326],[-2.930529,53.735076],[-2.92972,53.736031],[-2.929816,53.736429],[-2.930016,53.736031],[-2.930284,53.736511],[-2.930817,53.736358],[-2.930098,53.736042],[-2.930621,53.735015],[-2.930012,53.734898],[-2.929645,53.735097]]]]}}]}