{"type":"FeatureCollection","features":[{"type":"Feature","properties":{"slug":"gateshead","gss_code":"E08000037","name":"Gateshead"},"geometry":{"type":"Polygon","coordinates":[[[-1.763996,54.980201],[-1.753401,54.981975],[-1.750488,54.981833],[-1.746743,54.981054],[-1.728493,54.974986],[-1.727378,54.973781],[-1.728031,54.971281],[-1.726875,54.96966],[-1.723234,54.967928],[-1.718858,54.966791],[-1.709763,54.966198],[-1.707711,54.967035],[-1.705751,54.969788],[-1.701471,54.970291],[-1.69742,54.969484],[-1.690305,54.9662],[-1.683355,54.964141],[-1.679887,54.963588],[-1.682802,54.961496],[-1.684222,54.959988],[-1.686751,54.959104],[-1.686459,54.958512],[-1.685202,54.958284],[-1.684995,54.956772],[-1.685901,54.95636],[-1.68945,54.956441],[-1.691829,54.955706],[-1.694193,54.953895],[-1.6965,54.952748],[-1.698866,54.950309],[-1.699346,54.948734],[-1.69852,54.948811],[-1.698535,54.95035],[-1.697526,54.951023],[-1.696477,54.952483],[-1.694167,54.953633],[-1.691899,54.955309],[-1.689238,54.956145],[-1.68581,54.956087],[-1.684035,54.957016],[-1.683576,54.958107],[-1.686292,54.958915],[-1.684212,54.959571],[-1.681656,54.961812],[-1.679089,54.963307],[-1.676317,54.96396],[-1.661448,54.962225],[-1.660667,54.96174],[-1.659564,54.961944],[-1.649005,54.958867],[-1.64834,54.95937],[-1.642742,54.958494],[-1.641617,54.958222],[-1.642345,54.95816],[-1.641738,54.957967],[-1.637393,54.957833],[-1.63829,54.956838],[-1.638289,54.956075],[-1.636915,54.95542],[-1.635026,54.955374],[-1.635235,54.953633],[-1.634718,54.95313],[-1.633205,54.95288],[-1.633571,54.952363],[-1.635646,54.952798],[-1.635917,54.951929],[-1.634551,54.951285],[-1.633721,54.951529],[-1.633533,54.95042],[-1.627933,54.947847],[-1.629442,54.948876],[-1.633392,54.950458],[-1.633645,54.951625],[-1.634601,54.951394],[-1.635683,54.951925],[-1.635597,54.95264],[-1.633333,54.952274],[-1.632997,54.953042],[-1.634618,54.953326],[-1.635055,54.953934],[-1.634547,54.955317],[-1.637635,54.955894],[-1.638031,54.95635],[-1.637725,54.95704],[-1.636682,54.957686],[-1.634935,54.956938],[-1.631978,54.956956],[-1.629671,54.95786],[-1.619558,54.960632],[-1.615203,54.962267],[-1.614324,54.963202],[-1.610008,54.965627],[-1.604557,54.967937],[-1.598143,54.96944],[-1.594089,54.969928],[-1.591035,54.969852],[-1.588055,54.969189],[-1.58275,54.965433],[-1.580417,54.964158],[-1.576447,54.963316],[-1.574808,54.963383],[-1.574699,54.963794],[-1.57207,54.964078],[-1.568255,54.963874],[-1.562851,54.96222],[-1.556018,54.958505],[-1.5528,54.958305],[-1.552433,54.958037],[-1.549535,54.958977],[-1.54784,54.959905],[-1.544717,54.96039],[-1.538227,54.960656],[-1.536541,54.961291],[-1.535322,54.962288],[-1.533931,54.964559],[-1.534348,54.964629],[-1.534214,54.964987],[-1.531505,54.964475],[-1.529347,54.963355],[-1.530699,54.957978],[-1.527782,54.957124],[-1.526354,54.958084],[-1.522413,54.957386],[-1.519644,54.957555],[-1.518983,54.959265],[-1.516225,54.958138],[-1.51533,54.95735],[-1.515217,54.956058],[-1.518567,54.952175],[-1.518063,54.947048],[-1.516344,54.94538],[-1.510365,54.932104],[-1.511218,54.931666],[-1.512089,54.932114],[-1.514519,54.931715],[-1.515661,54.931082],[-1.517244,54.930781],[-1.519024,54.931126],[-1.524687,54.933155],[-1.528577,54.933134],[-1.53072,54.932577],[-1.532574,54.931362],[-1.535687,54.932104],[-1.543053,54.931383],[-1.547133,54.930625],[-1.552171,54.928461],[-1.553265,54.92769],[-1.556705,54.929978],[-1.568891,54.924625],[-1.567154,54.923194],[-1.565542,54.920066],[-1.563133,54.917093],[-1.560037,54.914592],[-1.56034,54.9144],[-1.559826,54.914154],[-1.55708,54.909211],[-1.55707,54.907895],[-1.558673,54.906519],[-1.560092,54.906332],[-1.562785,54.905089],[-1.561612,54.904566],[-1.559781,54.902938],[-1.558195,54.90266],[-1.55852,54.891481],[-1.558308,54.891092],[-1.557062,54.890983],[-1.557219,54.888191],[-1.558528,54.888191],[-1.558655,54.886426],[-1.558155,54.885649],[-1.556263,54.885262],[-1.556129,54.884796],[-1.558592,54.884378],[-1.559411,54.882037],[-1.562011,54.88084],[-1.56807,54.880472],[-1.57148,54.879372],[-1.575912,54.878954],[-1.575877,54.878298],[-1.579909,54.87777],[-1.582733,54.888934],[-1.584065,54.891632],[-1.583955,54.892877],[-1.585185,54.893883],[-1.588194,54.894457],[-1.588536,54.895467],[-1.589707,54.896237],[-1.591821,54.899794],[-1.593649,54.900859],[-1.593769,54.901747],[-1.594208,54.902],[-1.597517,54.901585],[-1.600771,54.899733],[-1.60044,54.898977],[-1.600899,54.898708],[-1.603758,54.8982],[-1.604687,54.898743],[-1.605147,54.898226],[-1.607334,54.898329],[-1.606818,54.897064],[-1.607942,54.896886],[-1.608241,54.896369],[-1.610393,54.895277],[-1.611933,54.895248],[-1.61649,54.891077],[-1.618318,54.890134],[-1.618985,54.888715],[-1.618743,54.887059],[-1.621201,54.887476],[-1.62226,54.886715],[-1.623572,54.887368],[-1.627411,54.886447],[-1.628494,54.88543],[-1.627997,54.885253],[-1.629082,54.88476],[-1.631116,54.884833],[-1.631575,54.884585],[-1.631536,54.883996],[-1.634973,54.88254],[-1.636598,54.881019],[-1.639195,54.88069],[-1.639973,54.8798],[-1.643689,54.878804],[-1.64543,54.878811],[-1.64901,54.879559],[-1.650497,54.879314],[-1.650982,54.879667],[-1.650655,54.880744],[-1.64762,54.880951],[-1.646346,54.881395],[-1.646978,54.882152],[-1.646719,54.882728],[-1.647753,54.884162],[-1.647979,54.885485],[-1.646593,54.885591],[-1.646621,54.888396],[-1.647349,54.888602],[-1.64848,54.891736],[-1.650012,54.893626],[-1.653509,54.893006],[-1.655854,54.892143],[-1.656497,54.890765],[-1.659951,54.890665],[-1.659308,54.893168],[-1.66138,54.894275],[-1.663036,54.895939],[-1.665559,54.895211],[-1.669231,54.895651],[-1.675255,54.897942],[-1.67659,54.899103],[-1.678134,54.899845],[-1.677973,54.901775],[-1.676535,54.903336],[-1.676843,54.903437],[-1.674778,54.90956],[-1.676353,54.909422],[-1.681951,54.907797],[-1.683477,54.908539],[-1.687655,54.907917],[-1.689144,54.906968],[-1.68955,54.906517],[-1.689158,54.905761],[-1.690768,54.904614],[-1.690573,54.902666],[-1.69169,54.902598],[-1.693391,54.903222],[-1.693997,54.904119],[-1.695657,54.904727],[-1.697588,54.906243],[-1.696743,54.906732],[-1.698472,54.908054],[-1.698905,54.908938],[-1.698482,54.909046],[-1.710505,54.909141],[-1.713298,54.908848],[-1.716472,54.907732],[-1.717007,54.908449],[-1.719164,54.908043],[-1.72125,54.908289],[-1.72108,54.90863],[-1.722339,54.908961],[-1.723156,54.910116],[-1.724923,54.908845],[-1.726068,54.909906],[-1.72776,54.910545],[-1.728035,54.911538],[-1.727651,54.912673],[-1.729189,54.914537],[-1.730145,54.915063],[-1.730165,54.915656],[-1.730622,54.915645],[-1.730983,54.916434],[-1.732411,54.916587],[-1.732421,54.916972],[-1.733289,54.917595],[-1.733807,54.91751],[-1.734553,54.91828],[-1.737607,54.918689],[-1.739626,54.916839],[-1.742402,54.917375],[-1.746217,54.916508],[-1.747365,54.917401],[-1.748311,54.91767],[-1.750783,54.917344],[-1.755432,54.912657],[-1.757086,54.911576],[-1.759875,54.910791],[-1.760718,54.908566],[-1.76207,54.908304],[-1.765359,54.908555],[-1.766109,54.908887],[-1.766395,54.909563],[-1.767267,54.909629],[-1.768209,54.909004],[-1.767971,54.907079],[-1.768745,54.906726],[-1.772344,54.907699],[-1.77645,54.91],[-1.781637,54.911557],[-1.78235,54.911225],[-1.782384,54.910158],[-1.782869,54.909848],[-1.78561,54.909141],[-1.791183,54.908698],[-1.791106,54.90802],[-1.793978,54.905239],[-1.79398,54.903991],[-1.794522,54.903574],[-1.796262,54.903729],[-1.798989,54.905764],[-1.800072,54.906146],[-1.802602,54.904643],[-1.80436,54.904478],[-1.805696,54.905004],[-1.805815,54.906234],[-1.807406,54.90725],[-1.811225,54.906502],[-1.814718,54.90535],[-1.816682,54.905345],[-1.819362,54.905948],[-1.820637,54.905771],[-1.822071,54.906096],[-1.823604,54.908016],[-1.824357,54.908063],[-1.824925,54.908816],[-1.826796,54.909607],[-1.826637,54.910093],[-1.831189,54.910622],[-1.833969,54.911569],[-1.834379,54.912009],[-1.836365,54.912077],[-1.83758,54.912383],[-1.837546,54.91266],[-1.842379,54.913331],[-1.844988,54.914214],[-1.8489,54.914478],[-1.850445,54.915202],[-1.850667,54.915816],[-1.852721,54.917414],[-1.851952,54.91745],[-1.851423,54.918407],[-1.852087,54.918519],[-1.851893,54.918751],[-1.848532,54.920936],[-1.84674,54.922715],[-1.844366,54.925902],[-1.843997,54.927045],[-1.842602,54.927815],[-1.841604,54.927991],[-1.841149,54.929725],[-1.833497,54.9305],[-1.827096,54.930202],[-1.826957,54.9307],[-1.827288,54.931213],[-1.825626,54.933668],[-1.826523,54.93419],[-1.827165,54.936569],[-1.825691,54.937589],[-1.824477,54.939392],[-1.825151,54.940956],[-1.827076,54.941669],[-1.829392,54.943599],[-1.831017,54.944309],[-1.8312,54.944857],[-1.829782,54.945827],[-1.830031,54.946327],[-1.829607,54.946696],[-1.829746,54.947066],[-1.830441,54.947232],[-1.830245,54.947491],[-1.831168,54.947795],[-1.832201,54.949134],[-1.832045,54.949742],[-1.833774,54.951243],[-1.833315,54.951523],[-1.833669,54.951716],[-1.83333,54.952011],[-1.833655,54.953297],[-1.832895,54.953312],[-1.831257,54.954751],[-1.828757,54.955395],[-1.827156,54.955256],[-1.825294,54.955691],[-1.824362,54.955131],[-1.822923,54.955747],[-1.822533,54.956496],[-1.823463,54.957305],[-1.82299,54.957729],[-1.824079,54.959209],[-1.822857,54.959491],[-1.823644,54.959874],[-1.82277,54.960357],[-1.82355,54.960994],[-1.824094,54.961011],[-1.823924,54.961515],[-1.824485,54.961433],[-1.824427,54.962441],[-1.823269,54.962819],[-1.822457,54.963832],[-1.822518,54.96482],[-1.821267,54.964874],[-1.822009,54.965638],[-1.821638,54.966229],[-1.81899,54.966155],[-1.819024,54.966392],[-1.818557,54.966299],[-1.817684,54.966842],[-1.817349,54.96757],[-1.816749,54.967193],[-1.815448,54.967302],[-1.81504,54.967927],[-1.815968,54.968851],[-1.813946,54.969329],[-1.814254,54.96976],[-1.813398,54.970296],[-1.813801,54.970967],[-1.812347,54.971079],[-1.812559,54.972011],[-1.811663,54.97274],[-1.81212,54.973041],[-1.812937,54.972877],[-1.813213,54.973224],[-1.813043,54.973544],[-1.812461,54.973506],[-1.812387,54.974116],[-1.811948,54.974117],[-1.813044,54.9747],[-1.812807,54.976286],[-1.803712,54.978118],[-1.802669,54.978762],[-1.79933,54.979819],[-1.7963,54.981686],[-1.792755,54.9833],[-1.788515,54.984267],[-1.784892,54.984256],[-1.784771,54.98385],[-1.776206,54.981159],[-1.772541,54.980523],[-1.763996,54.980201]]]}}]}