{"type":"FeatureCollection","features":[{"type":"Feature","properties":{"slug":"gedling","gss_code":"E07000173","name":"Gedling"},"geometry":{"type":"Polygon","coordinates":[[[-1.157668,53.09901],[-1.1495,53.099955],[-1.139287,53.099645],[-1.139266,53.09607],[-1.139597,53.09609],[-1.140148,53.092352],[-1.135649,53.090551],[-1.13126,53.088209],[-1.128953,53.087436],[-1.127537,53.087041],[-1.120643,53.086749],[-1.130182,53.073607],[-1.127332,53.074],[-1.125453,53.074926],[-1.12242,53.075218],[-1.120005,53.076011],[-1.113959,53.077011],[-1.111445,53.076205],[-1.106534,53.075626],[-1.100828,53.076037],[-1.094316,53.07415],[-1.089502,53.078019],[-1.088272,53.077305],[-1.08643,53.07528],[-1.086673,53.073233],[-1.09138,53.069821],[-1.093431,53.067353],[-1.085651,53.060512],[-1.08445,53.058771],[-1.084537,53.057558],[-1.082679,53.055677],[-1.082817,53.054576],[-1.081751,53.054105],[-1.081614,53.053358],[-1.080431,53.052899],[-1.080483,53.052312],[-1.079136,53.052015],[-1.078442,53.051022],[-1.076534,53.050077],[-1.076022,53.048841],[-1.073691,53.047456],[-1.0713,53.047093],[-1.071116,53.046798],[-1.070238,53.0467],[-1.070268,53.046342],[-1.069331,53.045877],[-1.066649,53.045504],[-1.064331,53.044494],[-1.063856,53.043112],[-1.062881,53.042426],[-1.063433,53.041781],[-1.063103,53.041607],[-1.063516,53.041552],[-1.062969,53.041345],[-1.062502,53.041555],[-1.061938,53.040993],[-1.062833,53.040097],[-1.060696,53.040416],[-1.061011,53.040546],[-1.060704,53.041103],[-1.059918,53.040036],[-1.060237,53.039648],[-1.059508,53.039496],[-1.059471,53.039058],[-1.058912,53.039494],[-1.057715,53.037935],[-1.05672,53.03541],[-1.041876,53.031414],[-1.038893,53.028708],[-1.037107,53.028079],[-1.036912,53.027325],[-1.0361,53.026695],[-1.035665,53.026939],[-1.034695,53.026472],[-1.034284,53.025636],[-1.030612,53.024751],[-1.02973,53.024256],[-1.02991,53.023748],[-1.029391,53.023201],[-1.030286,53.02107],[-1.032209,53.020462],[-1.042553,53.019378],[-1.047767,53.017417],[-1.053895,53.01436],[-1.052592,53.013027],[-1.052908,53.011175],[-1.052449,53.010514],[-1.051157,53.010451],[-1.048893,53.009535],[-1.048751,53.008608],[-1.047947,53.007762],[-1.046354,53.00716],[-1.043166,53.007272],[-1.041165,53.006852],[-1.038183,53.00726],[-1.037151,53.006803],[-1.03658,53.006872],[-1.034212,53.005003],[-1.036638,53.003567],[-1.037963,53.001078],[-1.039207,53.000217],[-1.037257,52.999056],[-1.039358,52.998428],[-1.038118,52.99563],[-1.036943,52.995468],[-1.036944,52.99595],[-1.034189,52.996154],[-1.031166,52.992674],[-1.028967,52.993676],[-1.027495,52.992674],[-1.024725,52.993101],[-1.023305,52.991859],[-1.021518,52.992722],[-1.016807,52.988763],[-1.014589,52.989835],[-1.012889,52.988466],[-1.011018,52.989525],[-1.008765,52.989204],[-1.007254,52.987896],[-1.007233,52.987552],[-1.007836,52.987365],[-1.007086,52.985457],[-1.013254,52.981113],[-1.016553,52.980244],[-1.018389,52.98035],[-1.020021,52.980966],[-1.021131,52.981931],[-1.022642,52.984277],[-1.023927,52.985138],[-1.026159,52.985859],[-1.031092,52.986025],[-1.034009,52.985725],[-1.035963,52.984828],[-1.037563,52.983584],[-1.038158,52.981566],[-1.036452,52.971813],[-1.033598,52.969047],[-1.032623,52.966998],[-1.033487,52.964533],[-1.032911,52.962237],[-1.033078,52.959189],[-1.033794,52.958355],[-1.037228,52.95645],[-1.041557,52.951262],[-1.042918,52.951307],[-1.046965,52.952521],[-1.048281,52.952625],[-1.051158,52.952169],[-1.054425,52.951013],[-1.062352,52.950315],[-1.064621,52.951128],[-1.065666,52.952757],[-1.0679,52.954628],[-1.071805,52.955807],[-1.07383,52.955856],[-1.075102,52.95546],[-1.078258,52.95306],[-1.079897,52.951163],[-1.083153,52.948608],[-1.084791,52.948181],[-1.086115,52.94857],[-1.088107,52.951583],[-1.089729,52.952544],[-1.091873,52.953164],[-1.092851,52.954405],[-1.092037,52.954535],[-1.092162,52.954836],[-1.096876,52.955521],[-1.09458,52.956724],[-1.096938,52.958038],[-1.101495,52.958938],[-1.102074,52.962494],[-1.103886,52.962124],[-1.104058,52.964083],[-1.110282,52.9643],[-1.112238,52.965309],[-1.114642,52.964624],[-1.120107,52.967825],[-1.119751,52.969369],[-1.120514,52.974525],[-1.121321,52.974908],[-1.125838,52.980611],[-1.125274,52.981483],[-1.125669,52.981607],[-1.122786,52.983467],[-1.123725,52.983466],[-1.126395,52.984792],[-1.132817,52.986515],[-1.136201,52.986523],[-1.13982,52.985947],[-1.142489,52.986288],[-1.14017,52.989538],[-1.140038,52.992592],[-1.138255,52.994844],[-1.140489,52.994802],[-1.141143,52.996537],[-1.145979,52.998365],[-1.148203,52.997242],[-1.149077,52.997677],[-1.152384,52.99664],[-1.153656,52.997185],[-1.149872,52.999301],[-1.1497,53.000243],[-1.147799,53.001243],[-1.147316,53.002796],[-1.143528,53.00651],[-1.146396,53.008248],[-1.147509,53.007286],[-1.150738,53.008371],[-1.151536,53.007657],[-1.154253,53.008253],[-1.154113,53.009073],[-1.154564,53.009567],[-1.158445,53.009671],[-1.157929,53.010621],[-1.162103,53.010673],[-1.162229,53.011651],[-1.165288,53.010422],[-1.166613,53.0102],[-1.167681,53.014325],[-1.170871,53.013978],[-1.184482,53.014446],[-1.183156,53.016761],[-1.182746,53.018569],[-1.183643,53.020879],[-1.182992,53.021973],[-1.18007,53.02383],[-1.179339,53.024754],[-1.179455,53.026943],[-1.178029,53.029985],[-1.177756,53.03304],[-1.1769,53.035233],[-1.177401,53.038133],[-1.178427,53.040022],[-1.181253,53.043374],[-1.181435,53.047448],[-1.182241,53.048508],[-1.184,53.048707],[-1.185258,53.048337],[-1.185794,53.048684],[-1.189426,53.047365],[-1.189994,53.047889],[-1.189584,53.048044],[-1.189988,53.04863],[-1.191712,53.047751],[-1.196373,53.048969],[-1.197068,53.048596],[-1.199901,53.051594],[-1.202021,53.050858],[-1.202348,53.051812],[-1.203827,53.050566],[-1.205971,53.050478],[-1.206717,53.051388],[-1.20834,53.050816],[-1.208718,53.051142],[-1.210773,53.05027],[-1.21529,53.04924],[-1.217402,53.049012],[-1.228119,53.054571],[-1.228885,53.058209],[-1.231289,53.062065],[-1.22998,53.065241],[-1.229722,53.068104],[-1.228004,53.070657],[-1.227358,53.075072],[-1.226363,53.077109],[-1.22631,53.081024],[-1.221165,53.083996],[-1.218795,53.084678],[-1.215037,53.084704],[-1.213479,53.085066],[-1.210716,53.084866],[-1.205904,53.086445],[-1.202506,53.086911],[-1.201787,53.088021],[-1.1997,53.089157],[-1.199719,53.090804],[-1.194913,53.092452],[-1.192927,53.092623],[-1.196044,53.094504],[-1.185643,53.099105],[-1.183026,53.099418],[-1.18001,53.100565],[-1.175234,53.101659],[-1.167672,53.102554],[-1.159957,53.10396],[-1.157668,53.09901]]]}}]}