{"type":"FeatureCollection","features":[{"type":"Feature","properties":{"slug":"gloucester","gss_code":"E07000081","name":"Gloucester"},"geometry":{"type":"Polygon","coordinates":[[[-2.202448,51.88101],[-2.201247,51.879538],[-2.199121,51.880624],[-2.198023,51.87869],[-2.199686,51.877911],[-2.196172,51.868071],[-2.196385,51.865544],[-2.192051,51.864357],[-2.187108,51.862176],[-2.177258,51.855877],[-2.181116,51.853134],[-2.187683,51.845029],[-2.191245,51.842144],[-2.199241,51.837749],[-2.20044,51.837508],[-2.200358,51.836992],[-2.202157,51.836106],[-2.20933,51.829168],[-2.212634,51.826964],[-2.223212,51.821252],[-2.225804,51.821463],[-2.22476,51.822721],[-2.226285,51.823044],[-2.225206,51.824584],[-2.223406,51.825386],[-2.224767,51.825904],[-2.223602,51.826192],[-2.225078,51.826569],[-2.227488,51.828311],[-2.230934,51.826469],[-2.238106,51.825289],[-2.241837,51.826172],[-2.244138,51.826165],[-2.245068,51.825897],[-2.246236,51.826055],[-2.248002,51.82527],[-2.249345,51.825223],[-2.2521,51.822631],[-2.252872,51.822778],[-2.255229,51.8209],[-2.256631,51.821464],[-2.262855,51.80758],[-2.268363,51.809807],[-2.268878,51.809931],[-2.269155,51.809423],[-2.270546,51.809691],[-2.270259,51.810159],[-2.27222,51.811054],[-2.272031,51.811667],[-2.277354,51.813012],[-2.276852,51.813252],[-2.282807,51.814545],[-2.281528,51.815974],[-2.286016,51.818653],[-2.289539,51.819988],[-2.28956,51.821088],[-2.290069,51.821742],[-2.297856,51.824574],[-2.299085,51.824634],[-2.301099,51.826765],[-2.301291,51.829252],[-2.301106,51.829807],[-2.300034,51.830207],[-2.301353,51.831778],[-2.300018,51.832259],[-2.295084,51.831929],[-2.291501,51.833188],[-2.29001,51.834863],[-2.289577,51.838795],[-2.288462,51.839655],[-2.28545,51.840992],[-2.280911,51.842805],[-2.280239,51.842826],[-2.280554,51.842934],[-2.27932,51.843635],[-2.278587,51.844925],[-2.279556,51.847859],[-2.287496,51.858175],[-2.287792,51.858945],[-2.287483,51.859615],[-2.285393,51.860462],[-2.277968,51.86136],[-2.275016,51.862151],[-2.272581,51.864092],[-2.271097,51.866758],[-2.268015,51.868268],[-2.265906,51.868158],[-2.264664,51.867725],[-2.262786,51.864881],[-2.261138,51.863403],[-2.2605,51.861805],[-2.259801,51.862484],[-2.262289,51.864814],[-2.26383,51.867318],[-2.264749,51.868084],[-2.267428,51.868631],[-2.269383,51.868275],[-2.269842,51.871088],[-2.267773,51.873507],[-2.267541,51.875198],[-2.265759,51.875296],[-2.265493,51.875681],[-2.260406,51.875561],[-2.255485,51.876326],[-2.252785,51.877193],[-2.250081,51.878682],[-2.246997,51.880787],[-2.247043,51.881057],[-2.246793,51.880904],[-2.243127,51.882213],[-2.237957,51.88311],[-2.237748,51.88258],[-2.23582,51.882125],[-2.230389,51.881946],[-2.226803,51.882427],[-2.219386,51.884629],[-2.214542,51.885224],[-2.209024,51.884566],[-2.204769,51.882863],[-2.202448,51.88101]]]}}]}