{"type":"FeatureCollection","features":[{"type":"Feature","properties":{"slug":"gosport","gss_code":"E07000088","name":"Gosport"},"geometry":{"type":"Polygon","coordinates":[[[-1.171003,50.837411],[-1.169492,50.837484],[-1.170009,50.836947],[-1.169492,50.837395],[-1.169556,50.837124],[-1.168957,50.837424],[-1.168828,50.837143],[-1.168793,50.837486],[-1.167789,50.83778],[-1.167822,50.837316],[-1.167418,50.837224],[-1.167903,50.837292],[-1.167862,50.837638],[-1.168529,50.837157],[-1.168724,50.836582],[-1.168335,50.837161],[-1.167754,50.837015],[-1.168213,50.836784],[-1.167541,50.836631],[-1.167825,50.836847],[-1.16751,50.837029],[-1.16743,50.836771],[-1.167111,50.837189],[-1.167231,50.836492],[-1.166442,50.836749],[-1.166328,50.837234],[-1.166297,50.836787],[-1.165511,50.836788],[-1.165781,50.83591],[-1.165552,50.83532],[-1.166513,50.834711],[-1.165469,50.835137],[-1.16502,50.835752],[-1.165533,50.83586],[-1.165152,50.836442],[-1.162598,50.837208],[-1.161099,50.837264],[-1.158521,50.838679],[-1.156929,50.838304],[-1.157296,50.838002],[-1.156439,50.837357],[-1.152511,50.835815],[-1.151239,50.83482],[-1.150188,50.83357],[-1.150361,50.833317],[-1.150005,50.833386],[-1.150479,50.833169],[-1.150051,50.833093],[-1.150379,50.833011],[-1.150354,50.831388],[-1.151066,50.831052],[-1.150304,50.830528],[-1.151441,50.830741],[-1.151192,50.830117],[-1.152437,50.829825],[-1.150906,50.828581],[-1.150283,50.826729],[-1.156882,50.824683],[-1.156593,50.824635],[-1.157174,50.823393],[-1.154111,50.825347],[-1.151076,50.826107],[-1.150327,50.825823],[-1.149479,50.825932],[-1.150237,50.825988],[-1.150272,50.826216],[-1.149149,50.82663],[-1.148089,50.826486],[-1.148969,50.826297],[-1.148983,50.825984],[-1.147602,50.826355],[-1.147649,50.825955],[-1.145767,50.825962],[-1.14258,50.820657],[-1.142003,50.817677],[-1.142035,50.817262],[-1.142489,50.817139],[-1.142071,50.817175],[-1.141938,50.816832],[-1.141657,50.816991],[-1.14041,50.815763],[-1.139111,50.815624],[-1.135048,50.813518],[-1.134216,50.813489],[-1.133,50.812276],[-1.128197,50.808902],[-1.126372,50.808008],[-1.125656,50.808048],[-1.126075,50.80781],[-1.125385,50.807765],[-1.125531,50.807227],[-1.123804,50.806161],[-1.12563,50.805422],[-1.129465,50.805117],[-1.131519,50.804401],[-1.133498,50.804585],[-1.133725,50.80547],[-1.134549,50.805623],[-1.13589,50.805091],[-1.136065,50.804527],[-1.13506,50.804331],[-1.134692,50.803815],[-1.137106,50.802291],[-1.136694,50.801933],[-1.135372,50.802266],[-1.134451,50.802126],[-1.13336,50.80291],[-1.130743,50.802916],[-1.127233,50.803476],[-1.125849,50.804085],[-1.125413,50.804076],[-1.125365,50.803715],[-1.124913,50.803738],[-1.124819,50.804149],[-1.123791,50.804093],[-1.124072,50.800832],[-1.122548,50.800929],[-1.122865,50.800787],[-1.122282,50.800014],[-1.124058,50.799259],[-1.124142,50.798891],[-1.123036,50.798671],[-1.12085,50.7971],[-1.120038,50.796932],[-1.118823,50.797243],[-1.117539,50.796385],[-1.11718,50.796505],[-1.116569,50.795703],[-1.117173,50.79319],[-1.118654,50.791283],[-1.121009,50.790092],[-1.122908,50.791677],[-1.122893,50.792147],[-1.122202,50.792454],[-1.123823,50.791945],[-1.125343,50.7921],[-1.128178,50.791785],[-1.128536,50.791227],[-1.127494,50.790687],[-1.126728,50.789318],[-1.129655,50.789474],[-1.130805,50.788855],[-1.132753,50.789983],[-1.134712,50.790414],[-1.136216,50.790363],[-1.136236,50.789714],[-1.133691,50.789292],[-1.132641,50.788412],[-1.131749,50.788421],[-1.131768,50.78795],[-1.132829,50.787205],[-1.131934,50.787295],[-1.132562,50.787102],[-1.133618,50.785977],[-1.135923,50.786057],[-1.137558,50.785446],[-1.140149,50.785077],[-1.140541,50.78461],[-1.140666,50.783446],[-1.140043,50.784183],[-1.138429,50.784244],[-1.135516,50.785062],[-1.134455,50.784893],[-1.132703,50.785199],[-1.128777,50.788015],[-1.128058,50.788061],[-1.126937,50.787577],[-1.127082,50.787978],[-1.126456,50.787648],[-1.126683,50.788029],[-1.125182,50.788734],[-1.124422,50.78962],[-1.120655,50.788105],[-1.119259,50.788747],[-1.119323,50.788397],[-1.118382,50.788025],[-1.1163,50.788002],[-1.114718,50.78884],[-1.114854,50.790009],[-1.114026,50.790172],[-1.113932,50.791136],[-1.11317,50.791323],[-1.111949,50.789526],[-1.126464,50.781358],[-1.13439,50.775344],[-1.138711,50.773549],[-1.141211,50.773283],[-1.143023,50.77371],[-1.154731,50.781522],[-1.161269,50.784451],[-1.166093,50.785554],[-1.171328,50.785515],[-1.184776,50.787877],[-1.19112,50.790471],[-1.197263,50.794517],[-1.200981,50.798391],[-1.203937,50.80063],[-1.209273,50.805768],[-1.214185,50.809285],[-1.213732,50.809848],[-1.214158,50.810781],[-1.209883,50.811287],[-1.209895,50.811699],[-1.203843,50.811247],[-1.193929,50.811037],[-1.186999,50.811397],[-1.186811,50.812362],[-1.184753,50.812338],[-1.179596,50.813181],[-1.178843,50.814314],[-1.179393,50.81544],[-1.180926,50.815902],[-1.182312,50.817274],[-1.183613,50.817699],[-1.183954,50.81835],[-1.186302,50.81959],[-1.186318,50.821522],[-1.189233,50.821874],[-1.189113,50.822672],[-1.188029,50.823969],[-1.18568,50.82434],[-1.185894,50.825232],[-1.18366,50.82771],[-1.184262,50.830069],[-1.181734,50.832307],[-1.181972,50.833773],[-1.181371,50.835503],[-1.181659,50.836678],[-1.178761,50.837618],[-1.176189,50.839324],[-1.175093,50.838671],[-1.171547,50.837815],[-1.171003,50.837411]]]}}]}