{"type":"FeatureCollection","features":[{"type":"Feature","properties":{"slug":"gravesham","gss_code":"E07000109","name":"Gravesham"},"geometry":{"type":"Polygon","coordinates":[[[0.329665,51.450364],[0.326755,51.45103],[0.325274,51.450241],[0.327069,51.45041],[0.327695,51.450197],[0.327583,51.449899],[0.328736,51.449788],[0.329707,51.450341],[0.337723,51.448063],[0.337589,51.447632],[0.338572,51.447453],[0.338717,51.447769],[0.348519,51.446341],[0.348687,51.44593],[0.363747,51.445545],[0.363733,51.445252],[0.36476,51.445173],[0.365038,51.445572],[0.369696,51.445226],[0.371885,51.444646],[0.372263,51.444983],[0.380323,51.444191],[0.381992,51.443505],[0.382811,51.443876],[0.38788,51.443634],[0.389912,51.44318],[0.39337,51.443285],[0.393347,51.44359],[0.400418,51.443053],[0.414356,51.443839],[0.42847,51.446668],[0.434117,51.447512],[0.440255,51.447425],[0.439361,51.447962],[0.44046,51.448364],[0.440241,51.44856],[0.440727,51.448969],[0.442486,51.449846],[0.443284,51.449568],[0.443449,51.450309],[0.444376,51.450601],[0.444285,51.450257],[0.444887,51.450309],[0.444761,51.450964],[0.446152,51.451673],[0.447892,51.450961],[0.446418,51.451879],[0.447083,51.45256],[0.447981,51.452462],[0.448336,51.451779],[0.448994,51.451533],[0.449858,51.451707],[0.449921,51.451356],[0.451046,51.452094],[0.453963,51.452665],[0.455133,51.453795],[0.457169,51.453869],[0.458733,51.454374],[0.459455,51.455019],[0.459501,51.454695],[0.459719,51.454898],[0.459257,51.455542],[0.459335,51.456624],[0.460735,51.455985],[0.462116,51.45455],[0.465607,51.45433],[0.465918,51.454779],[0.467645,51.454292],[0.468752,51.451203],[0.469628,51.451241],[0.469801,51.45058],[0.475765,51.446767],[0.476848,51.446653],[0.477321,51.446247],[0.478912,51.446377],[0.479888,51.446041],[0.480194,51.445553],[0.481125,51.44569],[0.482789,51.44492],[0.484364,51.44475],[0.486091,51.443498],[0.48796,51.443285],[0.487917,51.440377],[0.490973,51.438677],[0.489759,51.437579],[0.486357,51.436026],[0.488856,51.434942],[0.488364,51.430527],[0.488481,51.430222],[0.489386,51.430031],[0.489211,51.42703],[0.489619,51.425933],[0.490156,51.425848],[0.49052,51.425084],[0.491196,51.424775],[0.48856,51.419443],[0.489235,51.415326],[0.488283,51.414207],[0.483679,51.412749],[0.480904,51.414797],[0.47514,51.412947],[0.475506,51.408646],[0.476003,51.40879],[0.477616,51.407186],[0.474636,51.406229],[0.468211,51.403171],[0.469453,51.399704],[0.467957,51.399521],[0.467687,51.398301],[0.456717,51.39859],[0.451853,51.398321],[0.453915,51.397034],[0.456709,51.394286],[0.453322,51.391379],[0.452002,51.39145],[0.447951,51.390362],[0.447363,51.39001],[0.447144,51.388958],[0.434642,51.388881],[0.431109,51.388033],[0.431145,51.38638],[0.430187,51.383666],[0.424966,51.376581],[0.423414,51.376146],[0.420937,51.3761],[0.419571,51.375617],[0.419066,51.374507],[0.417799,51.373336],[0.418432,51.372643],[0.412539,51.363992],[0.407194,51.359824],[0.404734,51.356504],[0.403457,51.356455],[0.401283,51.352955],[0.398578,51.352501],[0.397101,51.352685],[0.396555,51.350049],[0.391564,51.347469],[0.391023,51.346795],[0.392379,51.346183],[0.394215,51.345878],[0.395055,51.345121],[0.392877,51.343931],[0.391933,51.343783],[0.390188,51.341861],[0.388878,51.338769],[0.38452,51.338687],[0.382092,51.338869],[0.380726,51.339333],[0.377139,51.335852],[0.381932,51.336154],[0.383141,51.336002],[0.383498,51.335641],[0.381188,51.330243],[0.378897,51.329489],[0.365589,51.328311],[0.365405,51.329371],[0.363506,51.329541],[0.363305,51.329993],[0.361154,51.329665],[0.361149,51.328595],[0.360762,51.32836],[0.358732,51.328269],[0.357866,51.329122],[0.356303,51.328501],[0.354982,51.328459],[0.354818,51.326816],[0.351525,51.326827],[0.341081,51.325006],[0.341604,51.329216],[0.343664,51.332593],[0.344726,51.337533],[0.344719,51.338658],[0.34079,51.339744],[0.341535,51.341284],[0.341503,51.343518],[0.340641,51.343644],[0.34229,51.348354],[0.34162,51.354539],[0.338892,51.356458],[0.337054,51.360008],[0.335569,51.360635],[0.335259,51.365068],[0.336692,51.369762],[0.335148,51.369657],[0.332677,51.368293],[0.331447,51.371279],[0.332144,51.372896],[0.33181,51.374693],[0.332406,51.375781],[0.33272,51.378515],[0.333839,51.38088],[0.333691,51.383142],[0.334532,51.384293],[0.33602,51.38538],[0.337068,51.38767],[0.336426,51.38759],[0.335195,51.38823],[0.33462,51.389463],[0.335732,51.389966],[0.33987,51.390686],[0.341033,51.391169],[0.342631,51.391235],[0.344572,51.393188],[0.343763,51.395477],[0.338738,51.396356],[0.338388,51.398142],[0.338885,51.399501],[0.33773,51.399773],[0.337182,51.39906],[0.336557,51.398949],[0.335095,51.399323],[0.335171,51.402386],[0.334114,51.406345],[0.334409,51.408863],[0.332093,51.41183],[0.331084,51.414709],[0.331272,51.420759],[0.330623,51.420993],[0.332605,51.425611],[0.328069,51.427739],[0.326594,51.428975],[0.325234,51.429221],[0.324936,51.430387],[0.323854,51.431658],[0.323637,51.435418],[0.326018,51.439893],[0.326364,51.442653],[0.323565,51.443173],[0.322549,51.44507],[0.321456,51.44562],[0.320575,51.44537],[0.321708,51.446224],[0.321551,51.446952],[0.319308,51.447004],[0.31983,51.448897],[0.319339,51.449486],[0.320302,51.45023],[0.319708,51.451237],[0.318227,51.451822],[0.310685,51.453045],[0.312804,51.458964],[0.313738,51.460267],[0.313467,51.460832],[0.314534,51.4621],[0.315465,51.464889],[0.317046,51.463595],[0.31956,51.46024],[0.320557,51.457611],[0.326418,51.452384],[0.329665,51.450364]]]}}]}