{"type":"FeatureCollection","features":[{"type":"Feature","properties":{"slug":"greenwich","gss_code":"E09000011","name":"Greenwich"},"geometry":{"type":"MultiPolygon","coordinates":[[[[-0.020595,51.476709],[-0.020556,51.476723],[-0.020594,51.476696],[-0.020595,51.476709]]],[[[-0.01709,51.480412],[-0.017801,51.480873],[-0.020401,51.480219],[-0.020308,51.479914],[-0.02304,51.479665],[-0.023281,51.480781],[-0.026365,51.481507],[-0.025762,51.482151],[-0.025167,51.485023],[-0.024713,51.485483],[-0.022701,51.484557],[-0.018826,51.48348],[-0.018134,51.481964],[-0.016391,51.481465],[-0.01709,51.480412]]],[[[0.121297,51.491103],[0.122045,51.482995],[0.124191,51.476849],[0.1209,51.478454],[0.118471,51.478903],[0.114011,51.47517],[0.111986,51.473072],[0.10819,51.476117],[0.106176,51.475016],[0.105655,51.475457],[0.105203,51.475238],[0.104904,51.475528],[0.103352,51.474586],[0.102508,51.474917],[0.102005,51.474464],[0.100257,51.475228],[0.098244,51.475452],[0.096575,51.473254],[0.0932,51.472954],[0.091314,51.472071],[0.089126,51.470454],[0.087053,51.46997],[0.084809,51.46873],[0.083238,51.466477],[0.082313,51.466641],[0.082134,51.464761],[0.082629,51.463584],[0.082256,51.461131],[0.082942,51.45983],[0.078672,51.45929],[0.081504,51.457753],[0.085732,51.456451],[0.086855,51.450435],[0.087872,51.448704],[0.088113,51.447255],[0.087415,51.445747],[0.08637,51.445307],[0.087427,51.443284],[0.086306,51.443242],[0.084734,51.442603],[0.083018,51.44342],[0.082994,51.442734],[0.084461,51.441977],[0.081813,51.439968],[0.080883,51.440404],[0.078824,51.438139],[0.07784,51.436442],[0.076569,51.436872],[0.074973,51.435867],[0.076531,51.434856],[0.075902,51.434458],[0.0764,51.434006],[0.075692,51.433625],[0.076106,51.433284],[0.074668,51.432147],[0.07536,51.431987],[0.074861,51.430814],[0.074374,51.431462],[0.073355,51.431761],[0.073079,51.431355],[0.073476,51.431249],[0.071701,51.429443],[0.066619,51.426503],[0.066581,51.426009],[0.064157,51.425334],[0.064462,51.425034],[0.063138,51.424135],[0.061705,51.4237],[0.061007,51.425082],[0.058599,51.424595],[0.058207,51.424872],[0.054432,51.427933],[0.051058,51.431525],[0.047998,51.4336],[0.045137,51.436238],[0.045191,51.436601],[0.043336,51.437749],[0.042171,51.43949],[0.039755,51.440981],[0.035526,51.442469],[0.033503,51.443582],[0.030549,51.444328],[0.029379,51.441705],[0.02558,51.441716],[0.021506,51.442728],[0.020622,51.444206],[0.021521,51.444439],[0.021243,51.446698],[0.022954,51.447203],[0.02198,51.448943],[0.0151,51.450007],[0.014933,51.450611],[0.015131,51.450208],[0.019885,51.45073],[0.01956,51.45171],[0.01835,51.451575],[0.017549,51.455032],[0.014036,51.455728],[0.011511,51.456685],[0.009903,51.459631],[0.009095,51.465873],[0.013266,51.466839],[0.012701,51.467397],[0.013088,51.468147],[0.01261,51.469809],[0.014364,51.469747],[0.016544,51.469129],[0.016703,51.469504],[0.01553,51.471316],[0.015001,51.473081],[0.017963,51.47383],[-0.000898,51.471803],[-0.008229,51.47276],[-0.012563,51.472343],[-0.014045,51.472671],[-0.014528,51.471903],[-0.015147,51.471749],[-0.013106,51.468939],[-0.015062,51.468044],[-0.016562,51.46926],[-0.016891,51.469072],[-0.019114,51.470009],[-0.019245,51.470507],[-0.018659,51.470686],[-0.019301,51.472036],[-0.020312,51.472305],[-0.019973,51.473002],[-0.021275,51.473776],[-0.022582,51.474112],[-0.022792,51.474466],[-0.022861,51.475312],[-0.021167,51.475263],[-0.020559,51.475659],[-0.020475,51.476583],[-0.019001,51.477049],[-0.019076,51.47821],[-0.018371,51.479366],[-0.016832,51.480097],[-0.015714,51.481638],[-0.014988,51.481747],[-0.017909,51.482548],[-0.017899,51.483195],[-0.016329,51.483227],[-0.016345,51.482965],[-0.015685,51.482928],[-0.011134,51.483021],[-0.011037,51.483323],[-0.009934,51.483604],[-0.007256,51.483775],[-0.003268,51.484864],[0.001376,51.487815],[0.002403,51.489528],[0.002687,51.491866],[0.00237,51.492988],[0.001954,51.492914],[0.001586,51.494035],[0.000991,51.494412],[0.001027,51.495155],[0.000749,51.49507],[0.00072,51.495442],[-0.000214,51.495229],[-0.000978,51.496278],[-0.002186,51.499842],[-0.002229,51.501271],[-0.001889,51.501266],[-0.00152,51.50203],[-0.002053,51.502116],[-0.001742,51.502842],[-0.000738,51.503799],[0.000821,51.504532],[0.003258,51.504939],[0.005147,51.504396],[0.013882,51.496995],[0.017961,51.495049],[0.021497,51.494472],[0.021572,51.493952],[0.022005,51.493889],[0.022157,51.494283],[0.024293,51.49382],[0.029044,51.493847],[0.040298,51.495428],[0.057569,51.494442],[0.057782,51.494038],[0.058018,51.494423],[0.058891,51.49443],[0.059155,51.494129],[0.059311,51.494458],[0.063929,51.49468],[0.064165,51.49445],[0.064104,51.494676],[0.070332,51.495128],[0.075745,51.496045],[0.076245,51.495846],[0.082315,51.498941],[0.086664,51.503547],[0.086862,51.50339],[0.087645,51.503919],[0.088032,51.505501],[0.091985,51.508984],[0.094567,51.508954],[0.099459,51.509639],[0.106886,51.509413],[0.113488,51.510147],[0.120216,51.511447],[0.120527,51.511099],[0.121297,51.491103]]]]}}]}