{"type":"FeatureCollection","features":[{"type":"Feature","properties":{"slug":"halton","gss_code":"E06000006","name":"Halton"},"geometry":{"type":"MultiPolygon","coordinates":[[[[-2.626934,53.354192],[-2.628713,53.354391],[-2.629107,53.354152],[-2.629517,53.352718],[-2.628568,53.35255],[-2.630991,53.348336],[-2.631468,53.346034],[-2.628447,53.345652],[-2.627713,53.346579],[-2.624153,53.346081],[-2.623139,53.347111],[-2.622244,53.347413],[-2.615273,53.346761],[-2.614626,53.346957],[-2.614137,53.347661],[-2.613638,53.347099],[-2.612404,53.346679],[-2.609573,53.346274],[-2.607149,53.344429],[-2.606607,53.342996],[-2.60709,53.342341],[-2.610377,53.341571],[-2.611557,53.340907],[-2.615699,53.334715],[-2.619807,53.331914],[-2.619125,53.331071],[-2.617499,53.329588],[-2.614936,53.328857],[-2.610392,53.330406],[-2.609667,53.330103],[-2.607579,53.327245],[-2.604061,53.32638],[-2.60256,53.325161],[-2.601084,53.32461],[-2.598639,53.325056],[-2.596541,53.324671],[-2.596303,53.323254],[-2.595223,53.322454],[-2.595254,53.320146],[-2.596743,53.319375],[-2.598764,53.31907],[-2.599368,53.318675],[-2.602363,53.318499],[-2.603573,53.317972],[-2.604717,53.315516],[-2.606413,53.314827],[-2.60653,53.314026],[-2.607998,53.313863],[-2.609142,53.312681],[-2.608822,53.312479],[-2.609087,53.312071],[-2.61014,53.312707],[-2.608269,53.314799],[-2.609393,53.314984],[-2.609771,53.316193],[-2.610231,53.316325],[-2.609979,53.316861],[-2.610504,53.317376],[-2.610347,53.317697],[-2.609812,53.31768],[-2.610323,53.318158],[-2.61356,53.318832],[-2.616887,53.320606],[-2.619962,53.320265],[-2.621081,53.319198],[-2.617869,53.318204],[-2.617471,53.3176],[-2.619834,53.316871],[-2.617801,53.316135],[-2.622734,53.312014],[-2.624714,53.31178],[-2.624123,53.309398],[-2.627518,53.308645],[-2.629457,53.307778],[-2.629967,53.307846],[-2.62989,53.308081],[-2.632509,53.307521],[-2.635724,53.307949],[-2.638865,53.310097],[-2.639047,53.309603],[-2.639847,53.309388],[-2.645061,53.310135],[-2.644437,53.308629],[-2.641557,53.305035],[-2.645881,53.307333],[-2.648797,53.308223],[-2.678165,53.31416],[-2.685352,53.315332],[-2.68727,53.314063],[-2.687548,53.313431],[-2.692209,53.31111],[-2.693578,53.310262],[-2.693401,53.310082],[-2.700799,53.305793],[-2.707756,53.309574],[-2.715704,53.311871],[-2.723558,53.313125],[-2.724187,53.312433],[-2.728485,53.312365],[-2.730992,53.311853],[-2.73291,53.310512],[-2.733919,53.307857],[-2.734641,53.307069],[-2.736806,53.306613],[-2.739269,53.306839],[-2.747268,53.31231],[-2.75243,53.314708],[-2.752438,53.315514],[-2.753641,53.317094],[-2.757474,53.319949],[-2.759906,53.322304],[-2.761674,53.324863],[-2.761966,53.324761],[-2.763378,53.32755],[-2.763236,53.330235],[-2.76223,53.332579],[-2.760444,53.334546],[-2.751437,53.341039],[-2.759531,53.335989],[-2.76,53.336703],[-2.758756,53.338428],[-2.755899,53.342026],[-2.753773,53.343447],[-2.743352,53.345342],[-2.721978,53.344508],[-2.718663,53.344931],[-2.716273,53.346204],[-2.714014,53.347922],[-2.712925,53.348011],[-2.708659,53.349981],[-2.704657,53.35328],[-2.702381,53.354645],[-2.70148,53.355673],[-2.699516,53.356683],[-2.697854,53.356851],[-2.697733,53.356474],[-2.697592,53.356837],[-2.693043,53.356692],[-2.685181,53.355879],[-2.68034,53.354679],[-2.675208,53.354454],[-2.674641,53.353664],[-2.64218,53.361741],[-2.630622,53.36405],[-2.62688,53.358741],[-2.627682,53.355306],[-2.627516,53.354855],[-2.626835,53.35464],[-2.626934,53.354192]]],[[[-2.728936,53.399671],[-2.720314,53.399987],[-2.715227,53.399035],[-2.716589,53.399045],[-2.71612,53.39688],[-2.712803,53.390626],[-2.710222,53.389941],[-2.710344,53.38929],[-2.705081,53.387932],[-2.705042,53.386746],[-2.701076,53.386846],[-2.690633,53.385388],[-2.693961,53.384317],[-2.696067,53.383201],[-2.697355,53.381552],[-2.697725,53.379313],[-2.697202,53.368545],[-2.693489,53.364608],[-2.693379,53.361816],[-2.700118,53.362327],[-2.704972,53.361116],[-2.705651,53.361473],[-2.705268,53.361001],[-2.708887,53.359665],[-2.715293,53.356464],[-2.718871,53.355283],[-2.721449,53.355439],[-2.721504,53.355803],[-2.726448,53.355097],[-2.728465,53.354521],[-2.729049,53.353085],[-2.731091,53.352582],[-2.73124,53.352168],[-2.731657,53.352349],[-2.731596,53.352046],[-2.732012,53.352292],[-2.73123,53.349972],[-2.731563,53.349065],[-2.732748,53.348076],[-2.734309,53.347775],[-2.736694,53.347837],[-2.739825,53.349216],[-2.741364,53.349536],[-2.741187,53.349714],[-2.747484,53.350645],[-2.758638,53.349548],[-2.758647,53.350153],[-2.75956,53.351186],[-2.75845,53.351155],[-2.759383,53.351416],[-2.762954,53.353731],[-2.764112,53.355155],[-2.764548,53.355189],[-2.763538,53.353874],[-2.759983,53.351683],[-2.759134,53.349607],[-2.764455,53.348124],[-2.76898,53.345558],[-2.770479,53.343998],[-2.772659,53.340607],[-2.776192,53.337266],[-2.777245,53.335564],[-2.778279,53.332613],[-2.780414,53.334968],[-2.784288,53.336431],[-2.780237,53.334529],[-2.77951,53.333513],[-2.779614,53.332958],[-2.778398,53.332424],[-2.777911,53.331623],[-2.777467,53.330317],[-2.777708,53.329234],[-2.779097,53.327408],[-2.783127,53.324714],[-2.785583,53.32346],[-2.789807,53.322357],[-2.794661,53.322243],[-2.797647,53.324487],[-2.803513,53.327636],[-2.80535,53.327903],[-2.819055,53.332978],[-2.821526,53.333317],[-2.823272,53.333141],[-2.824416,53.332891],[-2.82663,53.331674],[-2.831365,53.334995],[-2.832339,53.337286],[-2.831189,53.337275],[-2.831161,53.337761],[-2.827599,53.337851],[-2.823326,53.337335],[-2.822338,53.340687],[-2.820194,53.340396],[-2.820391,53.339867],[-2.818732,53.339803],[-2.818642,53.340742],[-2.819909,53.341171],[-2.818057,53.342992],[-2.81984,53.343661],[-2.818682,53.346362],[-2.818807,53.348001],[-2.816954,53.348811],[-2.81622,53.350341],[-2.811948,53.352889],[-2.809064,53.355081],[-2.800901,53.355898],[-2.787302,53.35629],[-2.784823,53.360723],[-2.783876,53.361757],[-2.784564,53.361931],[-2.780914,53.366212],[-2.781306,53.36634],[-2.781177,53.366832],[-2.781894,53.367033],[-2.781912,53.367491],[-2.780247,53.369932],[-2.78229,53.370412],[-2.781282,53.371693],[-2.779738,53.375571],[-2.778889,53.375658],[-2.778542,53.377398],[-2.777052,53.379679],[-2.776671,53.381059],[-2.775622,53.380727],[-2.773165,53.381057],[-2.772078,53.382965],[-2.770779,53.383135],[-2.76931,53.383889],[-2.767593,53.383778],[-2.764525,53.382699],[-2.760581,53.382346],[-2.758658,53.380997],[-2.757654,53.380738],[-2.757775,53.382879],[-2.758782,53.383748],[-2.760271,53.384336],[-2.752597,53.385924],[-2.751426,53.387057],[-2.74923,53.388312],[-2.748142,53.388501],[-2.747106,53.392393],[-2.75005,53.392383],[-2.750648,53.393788],[-2.745287,53.394571],[-2.744123,53.394839],[-2.744324,53.395262],[-2.743396,53.395285],[-2.745321,53.397195],[-2.746264,53.398963],[-2.745175,53.402096],[-2.743863,53.402553],[-2.740372,53.40142],[-2.728936,53.399671]]]]}}]}