{"type":"FeatureCollection","features":[{"type":"Feature","properties":{"slug":"hammersmith-and-fulham","gss_code":"E09000013","name":"Hammersmith and Fulham"},"geometry":{"type":"Polygon","coordinates":[[[-0.230717,51.53087],[-0.228441,51.530319],[-0.22873,51.529906],[-0.22743,51.527996],[-0.227229,51.524777],[-0.226568,51.524626],[-0.226697,51.521939],[-0.228277,51.521095],[-0.222464,51.515407],[-0.220236,51.511733],[-0.219316,51.509554],[-0.217848,51.509753],[-0.218043,51.510224],[-0.21719,51.510399],[-0.216452,51.509113],[-0.215814,51.509153],[-0.215198,51.507651],[-0.216119,51.507521],[-0.215939,51.5064],[-0.217975,51.506143],[-0.216977,51.504466],[-0.21344,51.500177],[-0.210505,51.498347],[-0.207951,51.496032],[-0.207335,51.496153],[-0.203086,51.493371],[-0.201833,51.491845],[-0.202365,51.491662],[-0.197966,51.487907],[-0.196405,51.487187],[-0.195906,51.487371],[-0.19363,51.485891],[-0.188262,51.480967],[-0.186521,51.479869],[-0.183806,51.477434],[-0.18417,51.477179],[-0.182468,51.477114],[-0.180414,51.477707],[-0.179363,51.477623],[-0.180989,51.4726],[-0.183063,51.469217],[-0.184472,51.467683],[-0.186285,51.466528],[-0.190436,51.465262],[-0.194159,51.464841],[-0.202757,51.465339],[-0.210532,51.467137],[-0.210506,51.467736],[-0.210986,51.467311],[-0.211307,51.467407],[-0.216784,51.469606],[-0.221502,51.473482],[-0.222554,51.474745],[-0.223548,51.477393],[-0.224024,51.481699],[-0.223617,51.481894],[-0.225006,51.484306],[-0.228669,51.488827],[-0.232785,51.490187],[-0.234368,51.490411],[-0.240494,51.4901],[-0.24306,51.489433],[-0.244517,51.488702],[-0.244942,51.489002],[-0.245566,51.490053],[-0.24442,51.497939],[-0.244983,51.497897],[-0.24526,51.49834],[-0.249203,51.49695],[-0.25129,51.499858],[-0.253041,51.501422],[-0.253364,51.502893],[-0.255064,51.504329],[-0.253671,51.504285],[-0.253752,51.504551],[-0.252526,51.504714],[-0.252484,51.504497],[-0.249918,51.504435],[-0.24809,51.504609],[-0.247972,51.504361],[-0.245674,51.504629],[-0.246467,51.506743],[-0.245135,51.50677],[-0.246435,51.510822],[-0.248971,51.513891],[-0.25069,51.519201],[-0.250319,51.520185],[-0.251768,51.522117],[-0.252538,51.524987],[-0.250331,51.52706],[-0.250556,51.527812],[-0.249871,51.52887],[-0.247,51.530689],[-0.245391,51.531042],[-0.245257,51.531218],[-0.246976,51.531778],[-0.246282,51.532738],[-0.243236,51.531765],[-0.237529,51.532005],[-0.234409,51.532638],[-0.230717,51.53087]]]}}]}