{"type":"FeatureCollection","features":[{"type":"Feature","properties":{"slug":"harborough","gss_code":"E07000131","name":"Harborough"},"geometry":{"type":"Polygon","coordinates":[[[-0.854697,52.683305],[-0.856482,52.679644],[-0.859052,52.676148],[-0.858267,52.674895],[-0.859198,52.674373],[-0.858782,52.673751],[-0.856941,52.673711],[-0.855491,52.673312],[-0.853409,52.673516],[-0.84621,52.67501],[-0.840933,52.675529],[-0.833981,52.672705],[-0.831901,52.670625],[-0.830629,52.6678],[-0.829233,52.662789],[-0.830173,52.660744],[-0.829549,52.658753],[-0.827652,52.658796],[-0.82537,52.65806],[-0.821747,52.65776],[-0.817036,52.656623],[-0.809528,52.657612],[-0.809487,52.657183],[-0.811583,52.65502],[-0.813522,52.652029],[-0.817188,52.649962],[-0.821461,52.650405],[-0.822604,52.651271],[-0.823113,52.653389],[-0.823571,52.653352],[-0.823228,52.649179],[-0.822272,52.647254],[-0.82018,52.647925],[-0.815983,52.645927],[-0.80876,52.646121],[-0.808424,52.64591],[-0.809708,52.644296],[-0.808748,52.64204],[-0.809901,52.640303],[-0.807984,52.639223],[-0.80413,52.640439],[-0.801752,52.63884],[-0.802017,52.637775],[-0.804437,52.634883],[-0.804464,52.632272],[-0.805142,52.631729],[-0.808793,52.630354],[-0.809923,52.629441],[-0.809852,52.627321],[-0.810999,52.625996],[-0.806864,52.623054],[-0.805636,52.621795],[-0.805825,52.620688],[-0.806017,52.620456],[-0.807924,52.620405],[-0.808931,52.619813],[-0.809842,52.617014],[-0.809527,52.615673],[-0.810822,52.614912],[-0.811321,52.614098],[-0.81478,52.611963],[-0.817453,52.611797],[-0.818827,52.610657],[-0.819984,52.607312],[-0.820003,52.605963],[-0.818826,52.604594],[-0.818545,52.602887],[-0.818983,52.600111],[-0.82095,52.596455],[-0.819677,52.596763],[-0.819853,52.596349],[-0.819226,52.596214],[-0.819222,52.595723],[-0.817441,52.595553],[-0.816695,52.59357],[-0.815962,52.594129],[-0.814349,52.594084],[-0.812968,52.594508],[-0.812055,52.594121],[-0.812111,52.594965],[-0.811385,52.594692],[-0.81183,52.595342],[-0.810098,52.59484],[-0.809543,52.595272],[-0.809339,52.596212],[-0.808612,52.595844],[-0.807812,52.595994],[-0.807584,52.596375],[-0.805285,52.596042],[-0.804552,52.596332],[-0.804139,52.595766],[-0.803455,52.596362],[-0.802365,52.596428],[-0.801294,52.597327],[-0.800685,52.597013],[-0.79847,52.597125],[-0.797066,52.596569],[-0.796224,52.59691],[-0.795328,52.596504],[-0.793653,52.596818],[-0.793048,52.597561],[-0.792435,52.597614],[-0.791558,52.596554],[-0.791235,52.596818],[-0.789845,52.596792],[-0.790005,52.596029],[-0.788247,52.596427],[-0.787593,52.596106],[-0.787053,52.596248],[-0.783958,52.593964],[-0.78431,52.593569],[-0.784646,52.593645],[-0.78475,52.593091],[-0.783622,52.593325],[-0.783731,52.59245],[-0.782365,52.592206],[-0.782329,52.591163],[-0.78079,52.59071],[-0.780565,52.590106],[-0.779105,52.590214],[-0.778888,52.589284],[-0.778085,52.589453],[-0.778435,52.589829],[-0.777188,52.589486],[-0.776985,52.589191],[-0.77747,52.589065],[-0.777107,52.588559],[-0.776571,52.588086],[-0.775971,52.588156],[-0.776269,52.587686],[-0.777034,52.587466],[-0.776781,52.58713],[-0.775569,52.58749],[-0.775177,52.587013],[-0.776113,52.586519],[-0.77563,52.586147],[-0.774705,52.586093],[-0.774418,52.585469],[-0.773858,52.585491],[-0.77433,52.585095],[-0.773912,52.584366],[-0.771227,52.584391],[-0.770593,52.58372],[-0.771357,52.583374],[-0.769679,52.583205],[-0.769581,52.58283],[-0.768931,52.582902],[-0.768044,52.582183],[-0.767355,52.582294],[-0.76763,52.582593],[-0.767071,52.582843],[-0.76581,52.58233],[-0.765288,52.582505],[-0.765949,52.581746],[-0.764791,52.581195],[-0.765197,52.580672],[-0.764336,52.579901],[-0.764752,52.579563],[-0.764543,52.579092],[-0.763854,52.579181],[-0.763404,52.578771],[-0.763693,52.577396],[-0.76295,52.576799],[-0.763153,52.576024],[-0.762502,52.574462],[-0.763007,52.572129],[-0.762476,52.571605],[-0.763829,52.570397],[-0.763445,52.569869],[-0.761993,52.569741],[-0.762538,52.569263],[-0.762272,52.568825],[-0.76179,52.569106],[-0.761088,52.568921],[-0.761427,52.568103],[-0.760028,52.566895],[-0.759894,52.564906],[-0.755721,52.565117],[-0.755747,52.564564],[-0.754601,52.564361],[-0.754282,52.563637],[-0.753537,52.5638],[-0.752294,52.562999],[-0.751508,52.562158],[-0.751737,52.56177],[-0.750088,52.560389],[-0.749684,52.559566],[-0.749966,52.559246],[-0.747278,52.557946],[-0.747141,52.557055],[-0.746457,52.556905],[-0.745087,52.555383],[-0.744918,52.554324],[-0.743452,52.553331],[-0.742396,52.551782],[-0.741083,52.551815],[-0.741162,52.551373],[-0.740723,52.551354],[-0.740764,52.550774],[-0.74112,52.550729],[-0.740899,52.550244],[-0.739554,52.549847],[-0.740153,52.549301],[-0.739433,52.549425],[-0.739573,52.54887],[-0.738864,52.548883],[-0.739389,52.548388],[-0.738937,52.547499],[-0.740424,52.546396],[-0.740037,52.545877],[-0.740272,52.545607],[-0.740718,52.545898],[-0.740823,52.544559],[-0.741535,52.544979],[-0.741921,52.544105],[-0.742093,52.544493],[-0.742667,52.544435],[-0.742992,52.543893],[-0.742368,52.543381],[-0.743724,52.543093],[-0.743396,52.541153],[-0.741631,52.540751],[-0.742505,52.540122],[-0.742206,52.539486],[-0.739692,52.539412],[-0.738013,52.538667],[-0.737175,52.537231],[-0.735947,52.537146],[-0.735821,52.536785],[-0.733358,52.536472],[-0.732608,52.536049],[-0.732046,52.536653],[-0.731294,52.536777],[-0.73082,52.536241],[-0.730505,52.536453],[-0.728541,52.535821],[-0.729807,52.534491],[-0.729018,52.533827],[-0.729848,52.533491],[-0.729952,52.53298],[-0.729027,52.532912],[-0.727635,52.531754],[-0.725567,52.531171],[-0.724735,52.530584],[-0.722707,52.526794],[-0.721798,52.526646],[-0.721108,52.52588],[-0.719811,52.526181],[-0.719165,52.525743],[-0.717832,52.525501],[-0.716928,52.525888],[-0.714049,52.524737],[-0.713658,52.524964],[-0.713367,52.524534],[-0.715299,52.523194],[-0.71576,52.522344],[-0.716487,52.522595],[-0.716606,52.523008],[-0.723586,52.52237],[-0.723604,52.522641],[-0.725156,52.522821],[-0.725157,52.523169],[-0.726833,52.523164],[-0.726873,52.522754],[-0.730047,52.521916],[-0.729618,52.520911],[-0.73017,52.520873],[-0.730311,52.521261],[-0.733908,52.520474],[-0.739391,52.518634],[-0.739256,52.517454],[-0.742217,52.517028],[-0.744365,52.516211],[-0.746651,52.516876],[-0.747848,52.516547],[-0.747984,52.516244],[-0.747135,52.515759],[-0.747293,52.514844],[-0.748633,52.514336],[-0.749515,52.514499],[-0.749524,52.513803],[-0.75028,52.513864],[-0.750719,52.513264],[-0.751616,52.513147],[-0.751245,52.512176],[-0.754626,52.51187],[-0.755708,52.511102],[-0.757216,52.510949],[-0.758349,52.511249],[-0.759311,52.512008],[-0.761027,52.514186],[-0.766188,52.513356],[-0.766558,52.514413],[-0.767816,52.514244],[-0.770044,52.515389],[-0.772329,52.51607],[-0.774867,52.518276],[-0.775373,52.518053],[-0.7751,52.517533],[-0.775718,52.517306],[-0.776176,52.517816],[-0.776734,52.517579],[-0.777378,52.518004],[-0.779112,52.518107],[-0.779869,52.517794],[-0.780293,52.517022],[-0.781987,52.517235],[-0.78261,52.516474],[-0.784052,52.516065],[-0.783962,52.515587],[-0.786991,52.515515],[-0.786851,52.514672],[-0.787466,52.514544],[-0.787818,52.515086],[-0.788346,52.514745],[-0.787782,52.513712],[-0.788861,52.513689],[-0.793335,52.515427],[-0.795471,52.51528],[-0.796199,52.515716],[-0.795779,52.51593],[-0.796187,52.516409],[-0.797771,52.517033],[-0.798397,52.516872],[-0.800254,52.517681],[-0.800301,52.518034],[-0.80123,52.518066],[-0.800782,52.517235],[-0.801872,52.517256],[-0.801573,52.5166],[-0.803872,52.517196],[-0.803888,52.517573],[-0.803252,52.517729],[-0.803384,52.518145],[-0.804358,52.517583],[-0.806345,52.518495],[-0.808573,52.518456],[-0.808942,52.519252],[-0.810867,52.519367],[-0.81124,52.519095],[-0.811107,52.517853],[-0.812174,52.517394],[-0.81259,52.515952],[-0.814924,52.515541],[-0.816459,52.516433],[-0.817775,52.516112],[-0.818259,52.515549],[-0.820122,52.515541],[-0.820634,52.515746],[-0.820768,52.516671],[-0.821734,52.5168],[-0.821643,52.517495],[-0.822638,52.5175],[-0.822408,52.51799],[-0.824807,52.517795],[-0.825778,52.517127],[-0.827148,52.517212],[-0.826965,52.518387],[-0.828542,52.51784],[-0.829115,52.518265],[-0.828742,52.518624],[-0.829921,52.519078],[-0.830447,52.518306],[-0.830968,52.518809],[-0.830627,52.519459],[-0.831037,52.519065],[-0.831163,52.519487],[-0.831817,52.519592],[-0.831568,52.518853],[-0.832481,52.519359],[-0.833237,52.519311],[-0.833432,52.518382],[-0.834764,52.517886],[-0.83574,52.518937],[-0.83658,52.519273],[-0.837667,52.518763],[-0.838075,52.519088],[-0.838594,52.518364],[-0.839693,52.518582],[-0.840356,52.519103],[-0.839684,52.520194],[-0.840518,52.520129],[-0.840947,52.520556],[-0.842115,52.519531],[-0.842875,52.520227],[-0.84312,52.519589],[-0.845466,52.519366],[-0.846274,52.520385],[-0.84486,52.521188],[-0.845281,52.521707],[-0.846635,52.521279],[-0.847717,52.521374],[-0.847855,52.520402],[-0.848414,52.520272],[-0.848486,52.520834],[-0.849196,52.520964],[-0.849009,52.521766],[-0.850226,52.521666],[-0.850879,52.522603],[-0.851613,52.523126],[-0.851985,52.522981],[-0.851518,52.523642],[-0.853224,52.524129],[-0.85344,52.523721],[-0.855232,52.524225],[-0.855532,52.523863],[-0.856356,52.52444],[-0.856753,52.524341],[-0.856535,52.523909],[-0.857857,52.523913],[-0.858471,52.524511],[-0.858277,52.52562],[-0.859932,52.525986],[-0.858718,52.526219],[-0.859024,52.527094],[-0.859435,52.527212],[-0.860336,52.52669],[-0.860743,52.527044],[-0.861251,52.526779],[-0.861916,52.527242],[-0.86149,52.527926],[-0.862379,52.527891],[-0.863223,52.528327],[-0.863623,52.527199],[-0.865861,52.526759],[-0.866502,52.526248],[-0.867024,52.526307],[-0.867431,52.526912],[-0.868758,52.526981],[-0.868826,52.525887],[-0.870993,52.524752],[-0.871336,52.524148],[-0.870784,52.522359],[-0.87146,52.520809],[-0.872474,52.520808],[-0.871747,52.519383],[-0.87257,52.518393],[-0.873889,52.518489],[-0.873802,52.518025],[-0.874411,52.517547],[-0.875555,52.517963],[-0.876121,52.517364],[-0.878421,52.51729],[-0.878501,52.516947],[-0.8779,52.516566],[-0.878081,52.51616],[-0.880326,52.516208],[-0.881333,52.515869],[-0.880524,52.51558],[-0.881366,52.514818],[-0.882334,52.5151],[-0.883409,52.513808],[-0.882673,52.513607],[-0.882715,52.513116],[-0.88183,52.513028],[-0.882442,52.512581],[-0.88193,52.511989],[-0.881149,52.51232],[-0.8808,52.511804],[-0.880034,52.511746],[-0.880585,52.51126],[-0.879995,52.51019],[-0.881016,52.50926],[-0.88051,52.508641],[-0.881484,52.507712],[-0.880648,52.507008],[-0.881032,52.506167],[-0.879873,52.506137],[-0.880388,52.505553],[-0.879922,52.504877],[-0.880121,52.504424],[-0.881153,52.504438],[-0.88167,52.50381],[-0.88281,52.503335],[-0.882291,52.502003],[-0.881184,52.502121],[-0.881619,52.501652],[-0.880461,52.501222],[-0.881391,52.501179],[-0.881816,52.500343],[-0.880965,52.500463],[-0.879286,52.499771],[-0.879459,52.498214],[-0.880652,52.497133],[-0.881793,52.496882],[-0.88231,52.494682],[-0.882126,52.493166],[-0.883721,52.492263],[-0.888948,52.491808],[-0.892042,52.492213],[-0.894809,52.492296],[-0.895602,52.492044],[-0.89671,52.490642],[-0.895899,52.490437],[-0.894729,52.488677],[-0.895234,52.488149],[-0.896205,52.488026],[-0.896485,52.487299],[-0.897153,52.487718],[-0.897875,52.487414],[-0.898048,52.486918],[-0.89727,52.486507],[-0.897881,52.486229],[-0.897793,52.485612],[-0.893403,52.485393],[-0.892742,52.484828],[-0.891627,52.484924],[-0.890445,52.48438],[-0.890501,52.484127],[-0.887848,52.483765],[-0.888044,52.483316],[-0.888861,52.483005],[-0.884535,52.481307],[-0.885248,52.480272],[-0.885092,52.4787],[-0.88404,52.477328],[-0.882218,52.476185],[-0.882469,52.471162],[-0.884832,52.471518],[-0.886193,52.469345],[-0.889557,52.470441],[-0.892704,52.467223],[-0.895498,52.465503],[-0.897527,52.462496],[-0.898919,52.461144],[-0.901281,52.459756],[-0.901543,52.460843],[-0.904578,52.462879],[-0.906584,52.463079],[-0.907724,52.461495],[-0.909891,52.461491],[-0.911257,52.463506],[-0.914229,52.46228],[-0.916746,52.462646],[-0.922309,52.464202],[-0.923792,52.464234],[-0.930231,52.465943],[-0.936139,52.466947],[-0.935853,52.467237],[-0.942192,52.467773],[-0.942645,52.470856],[-0.944213,52.470652],[-0.94386,52.472764],[-0.944416,52.47285],[-0.945076,52.472503],[-0.945522,52.472808],[-0.945333,52.473154],[-0.946446,52.473215],[-0.946632,52.473925],[-0.946109,52.474257],[-0.946516,52.474417],[-0.946463,52.475319],[-0.947089,52.4757],[-0.948571,52.475969],[-0.948485,52.476379],[-0.948895,52.476326],[-0.949376,52.476982],[-0.950332,52.476901],[-0.950812,52.477226],[-0.951848,52.477045],[-0.951876,52.477406],[-0.958886,52.475782],[-0.96431,52.476437],[-0.964664,52.47684],[-0.967849,52.47721],[-0.96935,52.476171],[-0.9693,52.475524],[-0.970495,52.475632],[-0.970425,52.475047],[-0.971424,52.474862],[-0.971667,52.474363],[-0.972797,52.473777],[-0.972708,52.473219],[-0.971639,52.473044],[-0.972084,52.472433],[-0.975012,52.471829],[-0.975212,52.470951],[-0.975616,52.471254],[-0.976428,52.470628],[-0.976851,52.471048],[-0.97922,52.470026],[-0.98003,52.470406],[-0.982195,52.470514],[-0.982754,52.471579],[-0.984219,52.471593],[-0.984287,52.471839],[-0.985244,52.471302],[-0.989412,52.470461],[-0.989741,52.470249],[-0.989454,52.470057],[-0.990456,52.469888],[-0.990873,52.469393],[-0.992329,52.469835],[-0.992797,52.46952],[-0.994005,52.470033],[-0.994021,52.46969],[-0.995047,52.469424],[-0.995199,52.469841],[-0.995663,52.469813],[-0.997901,52.471013],[-1.000693,52.47094],[-1.001015,52.469684],[-1.001427,52.469594],[-1.002827,52.466912],[-1.003435,52.466714],[-1.003456,52.466287],[-1.0044,52.466325],[-1.004316,52.465962],[-1.005637,52.465026],[-1.01091,52.46406],[-1.010833,52.463726],[-1.013795,52.462848],[-1.014706,52.462955],[-1.016772,52.461778],[-1.020359,52.461005],[-1.022698,52.460117],[-1.024642,52.458725],[-1.025055,52.459015],[-1.026903,52.458985],[-1.027741,52.458505],[-1.028722,52.456113],[-1.031281,52.45439],[-1.034725,52.453341],[-1.03586,52.452358],[-1.037909,52.451557],[-1.044531,52.445783],[-1.04416,52.444538],[-1.043458,52.443819],[-1.042238,52.443385],[-1.039684,52.443351],[-1.038207,52.443734],[-1.037231,52.444485],[-1.034919,52.443035],[-1.034025,52.441203],[-1.03383,52.439674],[-1.034502,52.435555],[-1.036034,52.434367],[-1.037643,52.433751],[-1.039249,52.430739],[-1.042275,52.430674],[-1.044928,52.429345],[-1.048332,52.426847],[-1.049977,52.425331],[-1.04986,52.422262],[-1.050678,52.421969],[-1.051914,52.422036],[-1.053099,52.421566],[-1.053283,52.421887],[-1.054883,52.421944],[-1.056144,52.42314],[-1.058282,52.423565],[-1.059055,52.423139],[-1.059903,52.423479],[-1.059762,52.423891],[-1.061359,52.424854],[-1.061054,52.426367],[-1.062066,52.427598],[-1.062648,52.427479],[-1.063054,52.428168],[-1.064007,52.428012],[-1.064454,52.428464],[-1.066077,52.428193],[-1.066384,52.428844],[-1.068119,52.428858],[-1.06839,52.429493],[-1.068945,52.429579],[-1.068431,52.429824],[-1.068932,52.430002],[-1.068473,52.430161],[-1.069234,52.430268],[-1.069253,52.430684],[-1.068501,52.431043],[-1.069084,52.432092],[-1.06995,52.432318],[-1.069856,52.432624],[-1.069285,52.432449],[-1.069798,52.432861],[-1.069143,52.433037],[-1.069325,52.433546],[-1.070899,52.433953],[-1.07092,52.433678],[-1.071372,52.433662],[-1.071731,52.43401],[-1.072877,52.433986],[-1.072974,52.434249],[-1.073838,52.434301],[-1.074052,52.434059],[-1.074367,52.434498],[-1.076644,52.434924],[-1.076194,52.435329],[-1.077665,52.435695],[-1.077739,52.436078],[-1.078403,52.435776],[-1.079392,52.436334],[-1.080287,52.436007],[-1.080806,52.436291],[-1.082786,52.436026],[-1.084382,52.436298],[-1.084633,52.435185],[-1.085819,52.434682],[-1.086151,52.434345],[-1.085781,52.434246],[-1.086447,52.43409],[-1.086358,52.433847],[-1.087057,52.433884],[-1.08824,52.433311],[-1.08874,52.433441],[-1.088753,52.432922],[-1.090031,52.433425],[-1.090884,52.433123],[-1.091259,52.43241],[-1.091876,52.432612],[-1.092416,52.43208],[-1.092096,52.431827],[-1.092973,52.431538],[-1.094595,52.430237],[-1.094047,52.42834],[-1.093416,52.428286],[-1.093359,52.427683],[-1.094447,52.426989],[-1.095247,52.42708],[-1.095558,52.426516],[-1.096394,52.426521],[-1.097537,52.425961],[-1.098205,52.425055],[-1.101179,52.425093],[-1.102616,52.424483],[-1.102548,52.424083],[-1.10342,52.424202],[-1.103463,52.424656],[-1.103666,52.423967],[-1.104449,52.424189],[-1.104532,52.423725],[-1.105297,52.423811],[-1.10542,52.423279],[-1.106292,52.423376],[-1.107079,52.422328],[-1.108743,52.421975],[-1.109624,52.42243],[-1.109804,52.421717],[-1.110058,52.421947],[-1.110759,52.421776],[-1.110856,52.421422],[-1.111942,52.421383],[-1.111844,52.421114],[-1.113623,52.421558],[-1.115742,52.421064],[-1.115929,52.421247],[-1.11543,52.421384],[-1.116634,52.421319],[-1.116182,52.421193],[-1.118017,52.420889],[-1.117902,52.420488],[-1.118324,52.420564],[-1.118154,52.420263],[-1.118888,52.419524],[-1.119417,52.41957],[-1.119716,52.418934],[-1.120478,52.418798],[-1.119628,52.418185],[-1.12071,52.4172],[-1.121708,52.417523],[-1.122338,52.417294],[-1.122561,52.417644],[-1.122211,52.417834],[-1.122661,52.418074],[-1.123542,52.417979],[-1.123115,52.41774],[-1.123347,52.417571],[-1.124602,52.417907],[-1.125705,52.417701],[-1.12927,52.416103],[-1.128875,52.415833],[-1.129065,52.415214],[-1.132381,52.413625],[-1.132634,52.413255],[-1.132238,52.412893],[-1.133375,52.412981],[-1.134392,52.412301],[-1.134911,52.411294],[-1.134813,52.409684],[-1.13664,52.407615],[-1.13629,52.406419],[-1.13815,52.405415],[-1.138609,52.404568],[-1.137926,52.403918],[-1.138171,52.403198],[-1.138823,52.403066],[-1.138536,52.402044],[-1.140301,52.401571],[-1.142269,52.399705],[-1.143499,52.399328],[-1.143776,52.399591],[-1.144501,52.398948],[-1.14526,52.399251],[-1.146313,52.398581],[-1.146637,52.398857],[-1.147842,52.398352],[-1.148298,52.398479],[-1.14947,52.397008],[-1.149996,52.397524],[-1.149723,52.397971],[-1.150861,52.397644],[-1.151506,52.397791],[-1.151189,52.398334],[-1.151499,52.398797],[-1.152133,52.398819],[-1.151967,52.399307],[-1.153835,52.399376],[-1.154077,52.399654],[-1.155066,52.399348],[-1.156582,52.400051],[-1.1587,52.399912],[-1.158871,52.399285],[-1.160231,52.39925],[-1.160374,52.399624],[-1.162309,52.399096],[-1.162752,52.399355],[-1.163856,52.398992],[-1.164221,52.399204],[-1.164336,52.398679],[-1.165172,52.398961],[-1.165839,52.398326],[-1.166877,52.398331],[-1.166999,52.398029],[-1.165969,52.397985],[-1.165754,52.397557],[-1.166276,52.396851],[-1.167894,52.396419],[-1.168215,52.396813],[-1.168458,52.396222],[-1.169397,52.39614],[-1.169349,52.395642],[-1.171291,52.396019],[-1.172296,52.395654],[-1.17235,52.395347],[-1.173597,52.395125],[-1.173979,52.394608],[-1.174177,52.395036],[-1.175207,52.394489],[-1.175729,52.394444],[-1.175937,52.394742],[-1.176416,52.394557],[-1.177273,52.39409],[-1.177464,52.393201],[-1.178086,52.392892],[-1.18061,52.393213],[-1.183975,52.392172],[-1.184477,52.392565],[-1.187676,52.393374],[-1.188267,52.393977],[-1.18804,52.395047],[-1.189462,52.396447],[-1.19022,52.39653],[-1.190356,52.395238],[-1.194065,52.396172],[-1.196366,52.395686],[-1.197383,52.39603],[-1.197918,52.395683],[-1.200762,52.396648],[-1.201367,52.396476],[-1.224386,52.423006],[-1.240743,52.440135],[-1.241574,52.439756],[-1.242918,52.43968],[-1.257831,52.453893],[-1.293593,52.484261],[-1.305948,52.493395],[-1.305481,52.493656],[-1.304366,52.493213],[-1.302101,52.495833],[-1.296995,52.499593],[-1.292846,52.503439],[-1.285611,52.509178],[-1.251272,52.538737],[-1.251348,52.539099],[-1.249916,52.539875],[-1.247971,52.542038],[-1.246357,52.543065],[-1.231841,52.555379],[-1.226661,52.55342],[-1.224127,52.551683],[-1.224356,52.551464],[-1.221202,52.550154],[-1.217857,52.54823],[-1.217827,52.547666],[-1.213,52.544255],[-1.213862,52.543649],[-1.21187,52.54286],[-1.211211,52.542239],[-1.210806,52.540996],[-1.209063,52.539256],[-1.206631,52.535131],[-1.205444,52.53516],[-1.204528,52.531619],[-1.203277,52.530335],[-1.202133,52.52744],[-1.198549,52.528198],[-1.197075,52.527627],[-1.196195,52.528105],[-1.194079,52.527672],[-1.190199,52.527856],[-1.184275,52.527499],[-1.181735,52.529685],[-1.175059,52.527587],[-1.173013,52.532876],[-1.172113,52.533204],[-1.172,52.534401],[-1.142844,52.535001],[-1.143061,52.536519],[-1.143885,52.537546],[-1.140305,52.537924],[-1.139273,52.53987],[-1.13945,52.543172],[-1.123469,52.544593],[-1.121257,52.545187],[-1.117502,52.54321],[-1.113885,52.541885],[-1.109365,52.542072],[-1.106059,52.541842],[-1.104508,52.539813],[-1.102268,52.538359],[-1.097443,52.54241],[-1.09422,52.541921],[-1.093474,52.541414],[-1.090406,52.541545],[-1.090417,52.541217],[-1.087553,52.540467],[-1.087256,52.540674],[-1.075954,52.538797],[-1.075703,52.539737],[-1.072579,52.542502],[-1.069859,52.54288],[-1.069831,52.544148],[-1.066234,52.549181],[-1.064729,52.552353],[-1.061476,52.555424],[-1.060722,52.55528],[-1.060445,52.555511],[-1.059392,52.55893],[-1.063905,52.559048],[-1.064241,52.562068],[-1.071885,52.561774],[-1.072802,52.561076],[-1.073631,52.559041],[-1.073234,52.557986],[-1.074108,52.556886],[-1.073354,52.556482],[-1.073802,52.556098],[-1.074547,52.556733],[-1.076567,52.556836],[-1.077227,52.555811],[-1.080271,52.55559],[-1.082894,52.556579],[-1.079602,52.563114],[-1.077976,52.563696],[-1.078963,52.566021],[-1.077699,52.566425],[-1.076952,52.566311],[-1.077265,52.567854],[-1.076314,52.568057],[-1.076763,52.569047],[-1.076046,52.569363],[-1.076876,52.570273],[-1.073859,52.571549],[-1.076271,52.572775],[-1.074802,52.573995],[-1.075422,52.574663],[-1.073323,52.575991],[-1.071067,52.576803],[-1.070662,52.577188],[-1.07094,52.577306],[-1.069272,52.578405],[-1.069062,52.578252],[-1.067363,52.579802],[-1.066484,52.579419],[-1.06511,52.579902],[-1.058372,52.585376],[-1.049855,52.591344],[-1.041358,52.59801],[-1.044744,52.600078],[-1.052443,52.601568],[-1.057654,52.60325],[-1.059896,52.603249],[-1.059763,52.603951],[-1.062479,52.604247],[-1.061614,52.606019],[-1.058968,52.609047],[-1.062281,52.61012],[-1.06696,52.612187],[-1.069523,52.612663],[-1.069145,52.613261],[-1.070956,52.613905],[-1.070037,52.614752],[-1.068001,52.615369],[-1.066659,52.617034],[-1.07049,52.618067],[-1.066354,52.61957],[-1.065646,52.619401],[-1.064309,52.619704],[-1.063487,52.619372],[-1.060136,52.621543],[-1.058095,52.623638],[-1.057416,52.623539],[-1.055755,52.624976],[-1.055245,52.624838],[-1.053268,52.627533],[-1.055384,52.628353],[-1.056037,52.629011],[-1.055695,52.630312],[-1.056183,52.632193],[-1.056041,52.632611],[-1.053132,52.633153],[-1.053122,52.634487],[-1.046962,52.63462],[-1.046776,52.635236],[-1.048137,52.635361],[-1.04804,52.637308],[-1.046546,52.637663],[-1.046204,52.638084],[-1.047654,52.638152],[-1.047434,52.642355],[-1.049489,52.642617],[-1.049186,52.643404],[-1.051315,52.643232],[-1.050968,52.64394],[-1.051794,52.644044],[-1.051019,52.648105],[-1.048018,52.648189],[-1.048195,52.652044],[-1.048837,52.653585],[-1.048613,52.654996],[-1.045501,52.654387],[-1.041889,52.654128],[-1.041732,52.653866],[-1.037933,52.653979],[-1.038241,52.65682],[-1.039596,52.658734],[-1.039601,52.658949],[-1.038443,52.65904],[-1.032587,52.658646],[-1.032747,52.658235],[-1.030365,52.657546],[-1.029352,52.6585],[-1.028035,52.65745],[-1.027006,52.657831],[-1.026384,52.657024],[-1.025776,52.657213],[-1.024975,52.656695],[-1.024158,52.656576],[-1.022793,52.657],[-1.021468,52.656441],[-1.021325,52.65667],[-1.016446,52.655427],[-1.01473,52.655801],[-1.013839,52.655028],[-1.012008,52.657011],[-1.008797,52.657646],[-1.005169,52.660198],[-1.004091,52.660522],[-1.003825,52.66104],[-0.999647,52.662827],[-0.998103,52.664417],[-0.99869,52.665181],[-0.997019,52.66618],[-0.997894,52.667965],[-0.996599,52.6681],[-0.995028,52.670368],[-0.991526,52.673366],[-0.990356,52.673163],[-0.988226,52.672066],[-0.983026,52.678293],[-0.981355,52.681418],[-0.979032,52.681966],[-0.976775,52.68038],[-0.97489,52.679894],[-0.973235,52.678916],[-0.972893,52.679066],[-0.972522,52.678767],[-0.972945,52.678574],[-0.97223,52.677939],[-0.971387,52.678155],[-0.970668,52.67733],[-0.970018,52.677679],[-0.969318,52.677121],[-0.968018,52.676967],[-0.968345,52.676221],[-0.967934,52.675907],[-0.966506,52.67594],[-0.965801,52.674448],[-0.965041,52.674525],[-0.964583,52.674192],[-0.964297,52.674649],[-0.963565,52.674029],[-0.962311,52.673845],[-0.962251,52.673371],[-0.959653,52.673263],[-0.957396,52.674006],[-0.956415,52.675219],[-0.952943,52.677621],[-0.950208,52.678554],[-0.949109,52.678583],[-0.948924,52.680381],[-0.943399,52.678067],[-0.941304,52.676811],[-0.934749,52.674558],[-0.91605,52.671141],[-0.915828,52.671555],[-0.914972,52.671404],[-0.91426,52.671749],[-0.914031,52.671968],[-0.914502,52.672086],[-0.914049,52.672367],[-0.914395,52.672506],[-0.913821,52.672511],[-0.913236,52.673519],[-0.912588,52.673642],[-0.913183,52.673969],[-0.912442,52.674321],[-0.912672,52.675406],[-0.912112,52.675763],[-0.912787,52.676556],[-0.911926,52.677172],[-0.911844,52.676655],[-0.910878,52.676905],[-0.911009,52.677216],[-0.910407,52.676869],[-0.909766,52.677117],[-0.908708,52.676737],[-0.908537,52.676363],[-0.907924,52.676576],[-0.904509,52.675514],[-0.903591,52.675732],[-0.90377,52.676024],[-0.902969,52.676336],[-0.902565,52.676064],[-0.903241,52.675877],[-0.902592,52.675866],[-0.902435,52.675397],[-0.901533,52.675548],[-0.901557,52.674739],[-0.900139,52.674961],[-0.899537,52.674234],[-0.898214,52.674465],[-0.898122,52.674071],[-0.897811,52.674234],[-0.897423,52.673978],[-0.896782,52.674672],[-0.896182,52.674512],[-0.896327,52.674093],[-0.895839,52.67395],[-0.893894,52.674424],[-0.893663,52.673773],[-0.892907,52.67371],[-0.892127,52.673969],[-0.892206,52.674386],[-0.890601,52.674508],[-0.890268,52.674154],[-0.888539,52.674406],[-0.887703,52.674548],[-0.887708,52.675051],[-0.88283,52.675829],[-0.880648,52.677626],[-0.874408,52.679951],[-0.873084,52.681785],[-0.873112,52.683573],[-0.872694,52.68435],[-0.871103,52.684155],[-0.870635,52.684529],[-0.866803,52.684921],[-0.859857,52.684349],[-0.855486,52.684939],[-0.854697,52.683305]]]}}]}