{"type":"FeatureCollection","features":[{"type":"Feature","properties":{"slug":"hart","gss_code":"E07000089","name":"Hart"},"geometry":{"type":"Polygon","coordinates":[[[-0.930695,51.364445],[-0.928512,51.365255],[-0.926967,51.365171],[-0.925057,51.365911],[-0.923767,51.366011],[-0.918303,51.364907],[-0.917748,51.364557],[-0.91761,51.363617],[-0.918402,51.363056],[-0.917896,51.362253],[-0.915076,51.360786],[-0.910081,51.360955],[-0.908855,51.360132],[-0.907228,51.359819],[-0.906832,51.35938],[-0.903597,51.358128],[-0.901431,51.359004],[-0.899838,51.359022],[-0.897493,51.357933],[-0.897667,51.357563],[-0.897198,51.357285],[-0.895449,51.357223],[-0.894985,51.356816],[-0.892803,51.35636],[-0.889775,51.356943],[-0.888284,51.356372],[-0.885672,51.354662],[-0.885108,51.354704],[-0.884523,51.355538],[-0.882992,51.35555],[-0.882041,51.355072],[-0.882426,51.354612],[-0.881758,51.353814],[-0.87942,51.353961],[-0.879319,51.353233],[-0.878131,51.35265],[-0.873289,51.352279],[-0.87184,51.352666],[-0.86808,51.354749],[-0.865814,51.35384],[-0.864853,51.354257],[-0.85912,51.35418],[-0.857519,51.353829],[-0.854451,51.353879],[-0.853666,51.354233],[-0.851398,51.35405],[-0.850436,51.353646],[-0.850242,51.35311],[-0.848724,51.353041],[-0.847772,51.352477],[-0.845849,51.352708],[-0.844578,51.35224],[-0.841845,51.352082],[-0.84113,51.352733],[-0.837374,51.352886],[-0.836557,51.352296],[-0.836026,51.352619],[-0.832055,51.35297],[-0.830927,51.353335],[-0.830426,51.352894],[-0.828124,51.352864],[-0.827832,51.352351],[-0.826389,51.352287],[-0.824797,51.350075],[-0.819049,51.34883],[-0.81908,51.348423],[-0.818494,51.348178],[-0.818768,51.34785],[-0.816119,51.34715],[-0.815777,51.346361],[-0.813957,51.3454],[-0.815383,51.344171],[-0.815098,51.342342],[-0.81408,51.341565],[-0.809468,51.341039],[-0.807036,51.341085],[-0.804681,51.341656],[-0.804152,51.341353],[-0.798902,51.341506],[-0.798315,51.341782],[-0.794929,51.34096],[-0.794072,51.341012],[-0.793186,51.339973],[-0.789978,51.339802],[-0.789205,51.339577],[-0.789063,51.339191],[-0.787079,51.339185],[-0.786284,51.338588],[-0.784651,51.338232],[-0.78332,51.337427],[-0.783334,51.336362],[-0.782665,51.335957],[-0.782782,51.33569],[-0.78014,51.334785],[-0.778002,51.333374],[-0.776588,51.333171],[-0.774655,51.330621],[-0.7736,51.330171],[-0.773542,51.329457],[-0.772714,51.329353],[-0.77302,51.329017],[-0.772221,51.328458],[-0.772356,51.327896],[-0.770651,51.327531],[-0.769207,51.327866],[-0.7686,51.3276],[-0.768202,51.326676],[-0.766343,51.325951],[-0.764991,51.324668],[-0.764978,51.324097],[-0.765903,51.32348],[-0.766062,51.322901],[-0.765064,51.322661],[-0.764399,51.321552],[-0.764074,51.321768],[-0.763471,51.321404],[-0.763666,51.320826],[-0.763052,51.32041],[-0.762903,51.318731],[-0.76387,51.318224],[-0.764209,51.317593],[-0.7649,51.318494],[-0.766487,51.319244],[-0.766276,51.319839],[-0.767806,51.320084],[-0.768407,51.318236],[-0.77119,51.317619],[-0.773296,51.31678],[-0.777328,51.316515],[-0.778651,51.317486],[-0.791545,51.309533],[-0.793038,51.308076],[-0.789116,51.306728],[-0.791398,51.303534],[-0.793175,51.303619],[-0.796569,51.304667],[-0.797323,51.303811],[-0.796655,51.299448],[-0.797287,51.299411],[-0.796874,51.297664],[-0.799506,51.297611],[-0.799933,51.296943],[-0.798451,51.296215],[-0.799469,51.2954],[-0.801599,51.294568],[-0.801634,51.29335],[-0.802989,51.293255],[-0.802928,51.292974],[-0.802359,51.292046],[-0.800777,51.291619],[-0.800997,51.290636],[-0.800099,51.288902],[-0.797505,51.287925],[-0.79598,51.286826],[-0.797994,51.284995],[-0.797909,51.284544],[-0.796835,51.284029],[-0.792102,51.283307],[-0.790292,51.282196],[-0.807199,51.275696],[-0.807524,51.275292],[-0.806404,51.275088],[-0.805179,51.274388],[-0.803417,51.272226],[-0.804749,51.270354],[-0.8044,51.261457],[-0.806129,51.258111],[-0.806475,51.253434],[-0.80475,51.245065],[-0.806211,51.244773],[-0.807569,51.242967],[-0.813433,51.241531],[-0.813658,51.240348],[-0.816255,51.239364],[-0.820778,51.239271],[-0.820864,51.234478],[-0.82369,51.234301],[-0.82353,51.23395],[-0.826633,51.234367],[-0.827989,51.233085],[-0.82847,51.230681],[-0.828575,51.227243],[-0.828886,51.227176],[-0.828733,51.226026],[-0.8291,51.225405],[-0.832322,51.224051],[-0.833633,51.222957],[-0.833751,51.222005],[-0.834667,51.222026],[-0.836296,51.219469],[-0.839556,51.216898],[-0.840233,51.215127],[-0.842659,51.213876],[-0.842713,51.213579],[-0.843615,51.213574],[-0.84683,51.212367],[-0.84893,51.210733],[-0.849063,51.211036],[-0.85112,51.211495],[-0.855527,51.211666],[-0.856802,51.212352],[-0.858789,51.211942],[-0.860821,51.211967],[-0.863334,51.212548],[-0.869052,51.212737],[-0.872038,51.212506],[-0.880887,51.210299],[-0.89451,51.210065],[-0.902985,51.209306],[-0.904308,51.209909],[-0.90456,51.208805],[-0.906638,51.208238],[-0.905612,51.206747],[-0.909178,51.205499],[-0.912051,51.205779],[-0.914885,51.205176],[-0.917485,51.205122],[-0.919538,51.204622],[-0.921048,51.203694],[-0.922185,51.203561],[-0.929912,51.202997],[-0.933177,51.203305],[-0.949058,51.198964],[-0.951176,51.200447],[-0.953828,51.198362],[-0.957192,51.196379],[-0.960859,51.195585],[-0.962018,51.194977],[-0.964245,51.19188],[-0.964958,51.190134],[-0.967203,51.188301],[-0.969307,51.187305],[-0.97382,51.186008],[-0.974807,51.186154],[-0.975438,51.186858],[-0.977104,51.187706],[-0.979834,51.187919],[-0.982157,51.189302],[-0.985289,51.190023],[-0.985883,51.190436],[-0.984732,51.192918],[-0.985312,51.196673],[-0.986414,51.200076],[-0.986275,51.2032],[-0.983043,51.205862],[-0.983479,51.208299],[-0.984266,51.209524],[-0.98416,51.212428],[-0.982722,51.215629],[-0.981692,51.216294],[-0.980363,51.218508],[-0.978101,51.220484],[-0.98165,51.221933],[-0.983282,51.223079],[-0.981362,51.224313],[-0.978933,51.2236],[-0.978683,51.224746],[-0.97732,51.225026],[-0.975475,51.225915],[-0.976097,51.227628],[-0.976049,51.229058],[-0.976961,51.230063],[-0.979891,51.229213],[-0.982194,51.231024],[-0.98314,51.233345],[-0.98311,51.235308],[-0.978313,51.235607],[-0.976238,51.237048],[-0.977205,51.237825],[-0.974796,51.238519],[-0.976765,51.241194],[-0.978818,51.242084],[-0.98766,51.243843],[-0.990764,51.243807],[-0.993708,51.244417],[-0.992665,51.245575],[-0.992936,51.245723],[-0.99258,51.246324],[-0.991014,51.247383],[-0.992143,51.248157],[-0.989066,51.250148],[-0.990161,51.250833],[-0.990387,51.251639],[-0.989751,51.252432],[-0.985393,51.254914],[-0.985799,51.25535],[-0.984169,51.256542],[-0.983167,51.257864],[-0.98263,51.260331],[-0.982109,51.260994],[-0.9808,51.261625],[-0.979856,51.265212],[-0.979751,51.270123],[-0.980115,51.271212],[-0.979519,51.273342],[-0.978043,51.275129],[-0.981481,51.277575],[-0.981466,51.278435],[-0.983088,51.280375],[-0.982127,51.282211],[-0.984167,51.282348],[-0.982396,51.283764],[-0.981726,51.286631],[-0.987986,51.286945],[-0.991085,51.287548],[-0.99214,51.288123],[-0.995692,51.288682],[-0.996383,51.288461],[-1.000221,51.289221],[-1.000801,51.290279],[-1.001244,51.29013],[-1.000905,51.290969],[-1.001259,51.291619],[-1.000717,51.291824],[-1.001229,51.292557],[-1.001057,51.293221],[-1.002278,51.293989],[-1.001074,51.298098],[-1.001217,51.300232],[-0.998417,51.299972],[-0.995397,51.298696],[-0.995655,51.299222],[-0.993342,51.303536],[-0.990609,51.303536],[-0.990237,51.304172],[-0.988961,51.304389],[-0.986435,51.306772],[-0.984275,51.306833],[-0.983887,51.310021],[-0.985258,51.312399],[-0.985431,51.314371],[-0.986826,51.317023],[-0.986589,51.320418],[-0.98708,51.322888],[-0.986836,51.323876],[-0.985338,51.324581],[-0.984984,51.325595],[-0.982573,51.32618],[-0.98311,51.328255],[-0.98382,51.329033],[-0.983744,51.32992],[-0.983481,51.330395],[-0.981865,51.331124],[-0.982162,51.333921],[-0.981001,51.337229],[-0.981929,51.337606],[-0.991674,51.338704],[-0.990154,51.339406],[-0.989506,51.340467],[-0.990365,51.341426],[-0.990737,51.342652],[-0.992315,51.342191],[-0.994604,51.342311],[-0.993845,51.344455],[-0.994627,51.346863],[-0.988785,51.351432],[-0.988298,51.355503],[-0.986711,51.358236],[-0.98674,51.359856],[-0.982708,51.359822],[-0.977423,51.360639],[-0.975503,51.360168],[-0.972364,51.359938],[-0.952241,51.362735],[-0.94138,51.363898],[-0.939153,51.363172],[-0.93705,51.363884],[-0.936675,51.36598],[-0.935989,51.366317],[-0.936339,51.365783],[-0.935736,51.36546],[-0.930695,51.364445]]]}}]}