{"type":"FeatureCollection","features":[{"type":"Feature","properties":{"slug":"hartlepool","gss_code":"E06000001","name":"Hartlepool"},"geometry":{"type":"MultiPolygon","coordinates":[[[[-1.229905,54.625104],[-1.230014,54.625112],[-1.230014,54.625115],[-1.229905,54.625104]]],[[[-1.22584,54.62523],[-1.22586,54.625238],[-1.225851,54.625237],[-1.22584,54.62523]]],[[[-1.245517,54.625957],[-1.245754,54.626017],[-1.24571,54.626019],[-1.245517,54.625957]]],[[[-1.224941,54.625919],[-1.224926,54.625992],[-1.224718,54.626089],[-1.224941,54.625919]]],[[[-1.224609,54.626141],[-1.224536,54.626162],[-1.224437,54.626178],[-1.224609,54.626141]]],[[[-1.268225,54.726091],[-1.267405,54.726865],[-1.265897,54.726631],[-1.26471,54.725982],[-1.263223,54.726462],[-1.26058,54.72573],[-1.258561,54.726055],[-1.258837,54.725419],[-1.257445,54.725547],[-1.255414,54.721575],[-1.253736,54.720368],[-1.251865,54.719623],[-1.248766,54.720734],[-1.247614,54.72241],[-1.245797,54.722293],[-1.24402,54.721578],[-1.240999,54.723196],[-1.233504,54.71889],[-1.225706,54.715159],[-1.22524,54.715395],[-1.225639,54.715126],[-1.224899,54.714764],[-1.218785,54.712256],[-1.218082,54.712806],[-1.218735,54.712228],[-1.217844,54.711552],[-1.214115,54.710697],[-1.210034,54.708882],[-1.202442,54.706153],[-1.194508,54.704149],[-1.187654,54.701832],[-1.18342,54.701099],[-1.177919,54.69922],[-1.175349,54.69654],[-1.177143,54.694908],[-1.174869,54.692679],[-1.177064,54.694677],[-1.178405,54.693998],[-1.181614,54.693229],[-1.18288,54.693661],[-1.184885,54.693264],[-1.183126,54.693869],[-1.183527,54.694505],[-1.185162,54.695062],[-1.186963,54.695136],[-1.190208,54.696783],[-1.18996,54.697021],[-1.186634,54.696309],[-1.185872,54.697506],[-1.188831,54.698276],[-1.192552,54.700422],[-1.193166,54.700238],[-1.192964,54.700595],[-1.196256,54.698584],[-1.190695,54.695235],[-1.190909,54.694633],[-1.189991,54.694474],[-1.188033,54.693433],[-1.18833,54.693314],[-1.189604,54.694047],[-1.190304,54.693995],[-1.195654,54.692599],[-1.196189,54.691631],[-1.1946,54.690472],[-1.194572,54.689213],[-1.194847,54.690513],[-1.196157,54.691437],[-1.196317,54.691681],[-1.196256,54.692039],[-1.197853,54.691855],[-1.198195,54.69121],[-1.197834,54.690504],[-1.198366,54.690128],[-1.197759,54.689813],[-1.197874,54.689022],[-1.196607,54.688644],[-1.19553,54.689046],[-1.198643,54.687217],[-1.198602,54.686199],[-1.197436,54.686053],[-1.196079,54.686404],[-1.194712,54.687442],[-1.19468,54.688226],[-1.194096,54.688183],[-1.194372,54.687459],[-1.195621,54.686359],[-1.198819,54.685463],[-1.199134,54.680733],[-1.198295,54.679545],[-1.19832,54.678611],[-1.196884,54.676459],[-1.194804,54.674032],[-1.190905,54.670752],[-1.187964,54.665852],[-1.187476,54.664234],[-1.184562,54.660455],[-1.175883,54.65342],[-1.169357,54.650322],[-1.164626,54.647299],[-1.157699,54.648372],[-1.165066,54.645375],[-1.166511,54.645151],[-1.165663,54.646],[-1.163402,54.646247],[-1.164674,54.646716],[-1.166416,54.646148],[-1.168546,54.644075],[-1.167114,54.639838],[-1.162853,54.63472],[-1.166099,54.635824],[-1.167798,54.635715],[-1.169834,54.633602],[-1.173153,54.633493],[-1.169316,54.633318],[-1.168383,54.634337],[-1.166876,54.634685],[-1.16552,54.633539],[-1.162078,54.634499],[-1.167942,54.632556],[-1.168916,54.633088],[-1.174067,54.633349],[-1.176317,54.632998],[-1.176117,54.632328],[-1.17691,54.632399],[-1.176643,54.632745],[-1.17722,54.633091],[-1.181905,54.633299],[-1.18825,54.632605],[-1.191399,54.635527],[-1.194707,54.634574],[-1.192258,54.632484],[-1.189924,54.631202],[-1.192324,54.630288],[-1.200652,54.622944],[-1.203864,54.622876],[-1.20986,54.621901],[-1.21285,54.622097],[-1.212814,54.62276],[-1.213685,54.622712],[-1.213561,54.622986],[-1.214021,54.623353],[-1.213227,54.623415],[-1.213499,54.623617],[-1.214585,54.623663],[-1.213839,54.623049],[-1.214065,54.622854],[-1.215893,54.623621],[-1.218193,54.62374],[-1.216557,54.623508],[-1.219561,54.62346],[-1.219908,54.623935],[-1.219418,54.624617],[-1.219833,54.625094],[-1.220692,54.625312],[-1.223235,54.625003],[-1.222392,54.624919],[-1.223701,54.624006],[-1.22474,54.625409],[-1.22312,54.625408],[-1.222262,54.625809],[-1.222319,54.626152],[-1.223138,54.626571],[-1.223786,54.626546],[-1.224845,54.626161],[-1.225262,54.625675],[-1.226156,54.625558],[-1.225833,54.626412],[-1.226953,54.627064],[-1.22909,54.626347],[-1.229376,54.625158],[-1.229741,54.625195],[-1.229673,54.625998],[-1.230224,54.62643],[-1.23087,54.626436],[-1.231959,54.625826],[-1.232375,54.626897],[-1.233255,54.627634],[-1.23312,54.628518],[-1.234123,54.62905],[-1.234303,54.629629],[-1.234268,54.629952],[-1.233528,54.629939],[-1.233648,54.630512],[-1.233274,54.63094],[-1.233802,54.630562],[-1.233736,54.630065],[-1.234209,54.630055],[-1.234473,54.629908],[-1.234273,54.629],[-1.239041,54.627902],[-1.237436,54.626462],[-1.238835,54.626482],[-1.240391,54.625509],[-1.240762,54.624763],[-1.241728,54.625275],[-1.245769,54.626087],[-1.249982,54.625275],[-1.251191,54.625839],[-1.253294,54.62637],[-1.254089,54.626926],[-1.253776,54.627464],[-1.254173,54.626863],[-1.252776,54.626042],[-1.2513,54.625814],[-1.250674,54.625308],[-1.252506,54.623931],[-1.254143,54.624104],[-1.255321,54.623382],[-1.257194,54.62355],[-1.257673,54.624191],[-1.257403,54.624078],[-1.256258,54.625626],[-1.258761,54.626449],[-1.25985,54.6246],[-1.262136,54.624919],[-1.263954,54.624283],[-1.266887,54.624144],[-1.267479,54.624558],[-1.267659,54.626063],[-1.268557,54.625655],[-1.268971,54.626393],[-1.271947,54.625345],[-1.273882,54.625996],[-1.276112,54.627255],[-1.279875,54.628246],[-1.286047,54.627665],[-1.286315,54.628194],[-1.291135,54.626992],[-1.292481,54.628747],[-1.296199,54.628028],[-1.299014,54.627982],[-1.298594,54.631157],[-1.298811,54.633465],[-1.298219,54.635511],[-1.302746,54.635754],[-1.304414,54.636673],[-1.30698,54.63695],[-1.308394,54.638266],[-1.308406,54.638726],[-1.311788,54.640876],[-1.311943,54.641194],[-1.311242,54.641228],[-1.31143,54.641858],[-1.315259,54.643447],[-1.315593,54.643846],[-1.315142,54.644096],[-1.316364,54.645235],[-1.317148,54.644799],[-1.317757,54.645251],[-1.318709,54.645209],[-1.321984,54.644542],[-1.326306,54.645103],[-1.326508,54.644466],[-1.328097,54.644446],[-1.328864,54.644002],[-1.329449,54.643097],[-1.329071,54.638576],[-1.329509,54.636528],[-1.331904,54.633792],[-1.335061,54.631324],[-1.337398,54.634752],[-1.339718,54.636247],[-1.342536,54.636672],[-1.349896,54.638809],[-1.354768,54.63807],[-1.356827,54.638376],[-1.362385,54.640615],[-1.367832,54.643471],[-1.3745,54.643739],[-1.379552,54.643274],[-1.381309,54.644305],[-1.382695,54.644395],[-1.383764,54.646243],[-1.378905,54.64618],[-1.374514,54.646559],[-1.368967,54.647813],[-1.366526,54.64883],[-1.36488,54.648424],[-1.36267,54.649164],[-1.359305,54.649467],[-1.358036,54.648576],[-1.356296,54.648662],[-1.355838,54.648299],[-1.352727,54.64897],[-1.349798,54.648581],[-1.349897,54.650723],[-1.348743,54.65087],[-1.347879,54.650605],[-1.344043,54.650707],[-1.343326,54.650378],[-1.341223,54.650243],[-1.341895,54.652168],[-1.341502,54.65337],[-1.343523,54.655556],[-1.343201,54.657586],[-1.344924,54.658436],[-1.347098,54.658353],[-1.347575,54.658616],[-1.346155,54.659477],[-1.346234,54.660369],[-1.34704,54.660907],[-1.346327,54.661353],[-1.347871,54.662429],[-1.346766,54.662891],[-1.346173,54.664328],[-1.343398,54.665163],[-1.343378,54.665794],[-1.342307,54.666096],[-1.343544,54.668612],[-1.340696,54.66877],[-1.340062,54.669321],[-1.338158,54.669531],[-1.33581,54.671275],[-1.334396,54.671194],[-1.333065,54.672614],[-1.332344,54.67522],[-1.333242,54.677073],[-1.331932,54.677393],[-1.331847,54.681225],[-1.330899,54.681242],[-1.330944,54.682162],[-1.331348,54.683735],[-1.332004,54.68393],[-1.331581,54.685106],[-1.33221,54.686955],[-1.33449,54.689018],[-1.338614,54.689416],[-1.344603,54.690826],[-1.344537,54.691122],[-1.333032,54.691976],[-1.332128,54.690183],[-1.329702,54.689572],[-1.327536,54.691363],[-1.321125,54.691096],[-1.319364,54.691297],[-1.319793,54.692737],[-1.319418,54.693263],[-1.315463,54.694532],[-1.312793,54.69589],[-1.314124,54.698016],[-1.31278,54.69884],[-1.313879,54.701197],[-1.309363,54.701577],[-1.30931,54.702495],[-1.307869,54.702747],[-1.306353,54.703704],[-1.306467,54.704003],[-1.304117,54.704368],[-1.304202,54.705653],[-1.303168,54.705684],[-1.303772,54.707669],[-1.301295,54.708159],[-1.302006,54.70894],[-1.301494,54.710181],[-1.302748,54.711712],[-1.304218,54.712614],[-1.303786,54.713244],[-1.305537,54.715212],[-1.304679,54.716393],[-1.305481,54.717564],[-1.303674,54.718508],[-1.303215,54.71789],[-1.303238,54.718131],[-1.30178,54.718226],[-1.299319,54.719133],[-1.296173,54.719364],[-1.294444,54.719345],[-1.292194,54.718591],[-1.290301,54.718398],[-1.285534,54.720421],[-1.28271,54.722124],[-1.282359,54.723017],[-1.281216,54.72301],[-1.277939,54.723795],[-1.276527,54.724425],[-1.275631,54.72547],[-1.274906,54.725215],[-1.27251,54.725413],[-1.270252,54.727169],[-1.268225,54.726091]],[[-1.233122,54.631114],[-1.233372,54.631244],[-1.236059,54.631865],[-1.235941,54.633662],[-1.236147,54.631859],[-1.233365,54.631182],[-1.233274,54.63094],[-1.233122,54.631114]]]]}}]}