{"type":"FeatureCollection","features":[{"type":"Feature","properties":{"slug":"havant","gss_code":"E07000090","name":"Havant"},"geometry":{"type":"MultiPolygon","coordinates":[[[[-1.008121,50.82494],[-1.007324,50.824881],[-1.007337,50.824638],[-1.008696,50.824835],[-1.008807,50.825593],[-1.009414,50.82518],[-1.009907,50.82546],[-1.009777,50.825093],[-1.008857,50.825042],[-1.009406,50.824957],[-1.009415,50.824694],[-1.009892,50.824899],[-1.009334,50.824389],[-1.010094,50.823703],[-1.008911,50.824497],[-1.009101,50.823808],[-1.008456,50.82385],[-1.009682,50.823536],[-1.007952,50.82344],[-1.008297,50.823063],[-1.008756,50.82324],[-1.008413,50.822885],[-1.00805,50.823142],[-1.00761,50.823006],[-1.007662,50.822473],[-1.007313,50.822995],[-1.007964,50.823163],[-1.007867,50.823508],[-1.007337,50.823334],[-1.005998,50.823896],[-1.007005,50.823098],[-1.007413,50.82197],[-1.009154,50.822693],[-1.010623,50.823876],[-1.01016,50.826703],[-1.008839,50.826068],[-1.008121,50.82494]]],[[[-1.013981,50.828513],[-1.01432,50.828401],[-1.014429,50.828808],[-1.014461,50.828528],[-1.014362,50.8284],[-1.014156,50.828342],[-1.01467,50.828376],[-1.013927,50.828265],[-1.013879,50.828714],[-1.013402,50.828158],[-1.013807,50.827856],[-1.013417,50.827982],[-1.012636,50.827549],[-1.014421,50.827215],[-1.012969,50.827068],[-1.012647,50.826396],[-1.014093,50.825565],[-1.014457,50.825852],[-1.01459,50.825502],[-1.01502,50.825931],[-1.014549,50.826369],[-1.014917,50.826833],[-1.016892,50.828139],[-1.015924,50.828582],[-1.015721,50.828372],[-1.015669,50.82875],[-1.014196,50.829364],[-1.013981,50.828513]]],[[[-1.024192,50.833002],[-1.024235,50.833004],[-1.024187,50.833019],[-1.024192,50.833002]]],[[[-1.023881,50.833108],[-1.023553,50.833297],[-1.023641,50.833152],[-1.023881,50.833108]]],[[[-0.965297,50.834281],[-0.965335,50.833957],[-0.967121,50.834444],[-0.968079,50.831989],[-0.970081,50.832267],[-0.969885,50.831651],[-0.968376,50.831627],[-0.970463,50.830872],[-0.968645,50.831159],[-0.968443,50.830669],[-0.966816,50.830512],[-0.966467,50.830919],[-0.964199,50.831525],[-0.963872,50.833311],[-0.964549,50.833806],[-0.963193,50.833245],[-0.962349,50.832228],[-0.962462,50.831685],[-0.962615,50.832446],[-0.962899,50.832712],[-0.963705,50.833043],[-0.963929,50.832387],[-0.963757,50.832781],[-0.96309,50.832764],[-0.962606,50.832024],[-0.962955,50.83201],[-0.962698,50.831687],[-0.963663,50.831562],[-0.963936,50.832022],[-0.963774,50.831514],[-0.963376,50.831488],[-0.964655,50.831182],[-0.963989,50.830756],[-0.962193,50.830968],[-0.962277,50.831552],[-0.961133,50.83062],[-0.959746,50.830398],[-0.959012,50.831453],[-0.957226,50.831301],[-0.957189,50.830709],[-0.953859,50.829213],[-0.952158,50.827851],[-0.952047,50.825918],[-0.950989,50.823947],[-0.951719,50.821812],[-0.953641,50.820781],[-0.954481,50.819763],[-0.954513,50.818731],[-0.95543,50.817586],[-0.954714,50.816646],[-0.954513,50.816989],[-0.954758,50.816433],[-0.957127,50.816337],[-0.957578,50.815836],[-0.956638,50.814918],[-0.957236,50.814513],[-0.956946,50.813496],[-0.95562,50.814177],[-0.954575,50.814013],[-0.954809,50.813547],[-0.956697,50.81241],[-0.956752,50.81167],[-0.956346,50.811478],[-0.956928,50.811393],[-0.955837,50.811251],[-0.956303,50.811107],[-0.956074,50.81082],[-0.956774,50.810729],[-0.95623,50.810705],[-0.956315,50.810373],[-0.956647,50.810451],[-0.956173,50.810212],[-0.956597,50.810056],[-0.95621,50.810102],[-0.956092,50.80978],[-0.956861,50.809768],[-0.955975,50.809676],[-0.95759,50.809692],[-0.956131,50.809606],[-0.956612,50.809257],[-0.955993,50.809468],[-0.956494,50.809173],[-0.955744,50.809215],[-0.956594,50.808855],[-0.956936,50.809263],[-0.957289,50.809322],[-0.956949,50.809236],[-0.957152,50.809005],[-0.956572,50.808824],[-0.956089,50.808839],[-0.95684,50.808654],[-0.955983,50.808718],[-0.957262,50.808241],[-0.956724,50.808306],[-0.956574,50.808005],[-0.957479,50.808259],[-0.95798,50.808258],[-0.957411,50.808179],[-0.957353,50.807978],[-0.957483,50.808085],[-0.958417,50.807852],[-0.957574,50.808016],[-0.957216,50.807573],[-0.957656,50.807787],[-0.957939,50.807649],[-0.957382,50.807529],[-0.957967,50.807459],[-0.958048,50.807877],[-0.958505,50.807766],[-0.958972,50.809633],[-0.960151,50.811024],[-0.961298,50.811369],[-0.965168,50.810991],[-0.96643,50.811219],[-0.96879,50.810353],[-0.969813,50.810693],[-0.969991,50.810467],[-0.971025,50.81058],[-0.969131,50.810201],[-0.969201,50.809919],[-0.967519,50.810016],[-0.966706,50.809496],[-0.965233,50.809763],[-0.96158,50.809214],[-0.962132,50.808837],[-0.963634,50.809104],[-0.963337,50.808453],[-0.963099,50.808687],[-0.962437,50.808173],[-0.962511,50.807798],[-0.965688,50.806365],[-0.969358,50.806395],[-0.9697,50.806801],[-0.970992,50.807222],[-0.972161,50.808808],[-0.973332,50.809034],[-0.97342,50.808527],[-0.971871,50.807061],[-0.972601,50.807518],[-0.97314,50.80707],[-0.972665,50.806599],[-0.972002,50.806874],[-0.972351,50.806616],[-0.969308,50.804515],[-0.969011,50.802745],[-0.967566,50.803005],[-0.96562,50.802669],[-0.964697,50.803397],[-0.961354,50.803473],[-0.95995,50.804548],[-0.958694,50.804733],[-0.957222,50.804295],[-0.956166,50.802981],[-0.955396,50.802845],[-0.952747,50.801119],[-0.953054,50.800521],[-0.954547,50.799705],[-0.956238,50.799744],[-0.956959,50.799312],[-0.956425,50.797044],[-0.956534,50.795251],[-0.955367,50.794554],[-0.955343,50.793789],[-0.958109,50.793343],[-0.959553,50.790898],[-0.961777,50.790193],[-0.963319,50.789297],[-0.966036,50.789295],[-0.967943,50.790209],[-0.96702,50.789075],[-0.966925,50.787697],[-0.967368,50.787187],[-0.966488,50.787604],[-0.966476,50.788147],[-0.96541,50.788481],[-0.962334,50.788187],[-0.960456,50.7894],[-0.958933,50.789276],[-0.957549,50.789843],[-0.952446,50.787652],[-0.95071,50.786589],[-0.950975,50.786369],[-0.951682,50.786712],[-0.952492,50.786029],[-0.951785,50.785901],[-0.952771,50.785871],[-0.951601,50.785736],[-0.951268,50.784203],[-0.955205,50.783758],[-0.956095,50.782844],[-0.958456,50.782069],[-0.961664,50.782327],[-0.959825,50.781828],[-0.958866,50.781155],[-0.95722,50.781764],[-0.955327,50.781861],[-0.953592,50.783211],[-0.953285,50.782868],[-0.953103,50.783111],[-0.952089,50.783008],[-0.951982,50.783258],[-0.950191,50.782942],[-0.948405,50.783614],[-0.948195,50.784261],[-0.943922,50.78452],[-0.942066,50.784999],[-0.943107,50.786688],[-0.941474,50.786009],[-0.941156,50.785137],[-0.939232,50.784324],[-0.937802,50.782891],[-0.938226,50.782385],[-0.937421,50.782441],[-0.936845,50.782807],[-0.937042,50.784782],[-0.938032,50.784891],[-0.939278,50.786141],[-0.94104,50.786516],[-0.941532,50.787415],[-0.940993,50.786944],[-0.937997,50.787433],[-0.93637,50.786727],[-0.93599,50.786217],[-0.936133,50.781635],[-0.935603,50.77911],[-0.936195,50.778451],[-0.938966,50.776919],[-0.942836,50.776532],[-0.946246,50.776771],[-0.958433,50.778789],[-0.970351,50.781474],[-0.978657,50.782705],[-1.001125,50.784559],[-1.007056,50.785492],[-1.011631,50.785385],[-1.016715,50.784427],[-1.019717,50.784627],[-1.022513,50.786522],[-1.023846,50.788068],[-1.024693,50.792772],[-1.025627,50.794298],[-1.025035,50.793831],[-1.025396,50.79542],[-1.025082,50.796025],[-1.023576,50.795894],[-1.022809,50.795505],[-1.020282,50.795823],[-1.019912,50.795549],[-1.021125,50.795618],[-1.022077,50.794051],[-1.021525,50.793345],[-1.017379,50.792331],[-1.017633,50.793686],[-1.016962,50.792483],[-1.016633,50.793066],[-1.017517,50.794093],[-1.017828,50.793923],[-1.017988,50.794328],[-1.01874,50.794365],[-1.017431,50.794975],[-1.015142,50.794332],[-1.009866,50.793689],[-1.008783,50.793231],[-1.010838,50.793611],[-1.010886,50.793404],[-1.009777,50.793359],[-1.009851,50.79299],[-1.009341,50.793238],[-1.008874,50.792883],[-1.00861,50.793226],[-1.00874,50.793501],[-1.008173,50.793304],[-1.007049,50.793651],[-1.006554,50.793483],[-1.005989,50.793692],[-1.006043,50.79332],[-1.004637,50.793799],[-1.005424,50.793824],[-1.005815,50.793526],[-1.005897,50.793729],[-1.008505,50.793621],[-1.000996,50.794615],[-0.996625,50.796893],[-0.994524,50.798367],[-0.992922,50.800472],[-0.990869,50.801764],[-0.989472,50.803575],[-0.988903,50.811036],[-0.986286,50.812881],[-0.985914,50.813614],[-0.985702,50.819714],[-0.984166,50.820271],[-0.985441,50.819488],[-0.985431,50.818727],[-0.984259,50.818987],[-0.983269,50.820733],[-0.983736,50.822074],[-0.985782,50.823658],[-0.98762,50.82387],[-0.986797,50.823],[-0.989557,50.824342],[-0.986103,50.824016],[-0.98519,50.825216],[-0.986014,50.825922],[-0.986972,50.826072],[-0.986525,50.827105],[-0.988554,50.828117],[-0.990163,50.826855],[-0.98891,50.828024],[-0.987008,50.828955],[-0.986128,50.829041],[-0.988209,50.828225],[-0.986502,50.827176],[-0.983457,50.828405],[-0.9817,50.832125],[-0.981224,50.83199],[-0.98163,50.83189],[-0.982202,50.83061],[-0.980986,50.829964],[-0.980514,50.830333],[-0.979701,50.830342],[-0.977879,50.831601],[-0.977691,50.832042],[-0.978164,50.832948],[-0.977795,50.833087],[-0.977059,50.831857],[-0.97529,50.832136],[-0.974345,50.832776],[-0.973819,50.832694],[-0.974178,50.832397],[-0.973444,50.832533],[-0.973555,50.832726],[-0.973226,50.832466],[-0.97354,50.832304],[-0.973052,50.832213],[-0.971396,50.832705],[-0.971287,50.833887],[-0.970286,50.834661],[-0.967341,50.834843],[-0.965297,50.834281]]],[[[-1.00508,50.834066],[-1.005821,50.834168],[-1.005372,50.834041],[-1.005647,50.833716],[-1.004897,50.834007],[-1.004574,50.833513],[-1.004977,50.833353],[-1.004408,50.833151],[-1.003134,50.831275],[-1.001836,50.830495],[-1.001605,50.829987],[-1.002181,50.829504],[-1.003162,50.829819],[-1.003732,50.831139],[-1.004924,50.831599],[-1.006215,50.831489],[-1.005409,50.831682],[-1.00535,50.831817],[-1.005435,50.831874],[-1.005751,50.831866],[-1.005566,50.832202],[-1.004806,50.832003],[-1.004908,50.832413],[-1.005486,50.832315],[-1.005816,50.831938],[-1.006088,50.832335],[-1.006029,50.832],[-1.005715,50.831822],[-1.005382,50.831774],[-1.006395,50.831635],[-1.006921,50.83217],[-1.006706,50.832973],[-1.006027,50.833262],[-1.006793,50.833022],[-1.007001,50.833276],[-1.007682,50.833089],[-1.008898,50.833329],[-1.008942,50.833913],[-1.008325,50.834405],[-1.007809,50.834327],[-1.008139,50.834588],[-1.006864,50.835244],[-1.006219,50.835024],[-1.006778,50.834728],[-1.005241,50.834583],[-1.00508,50.834066]]],[[[-0.945036,50.834516],[-0.945096,50.834934],[-0.945633,50.83504],[-0.945787,50.83458],[-0.944729,50.834469],[-0.944434,50.834833],[-0.944261,50.834567],[-0.944917,50.834297],[-0.94678,50.834567],[-0.946673,50.83522],[-0.946026,50.834912],[-0.945756,50.835219],[-0.944439,50.83507],[-0.945036,50.834516]]],[[[-1.022178,50.835107],[-1.022164,50.836601],[-1.022116,50.835803],[-1.022178,50.835107]]],[[[-1.018918,50.837422],[-1.019755,50.837148],[-1.01913,50.837272],[-1.018985,50.837008],[-1.018839,50.837466],[-1.018474,50.837306],[-1.018668,50.837564],[-1.018231,50.83761],[-1.018823,50.837811],[-1.018933,50.837503],[-1.019017,50.838172],[-1.018136,50.838272],[-1.01847,50.837991],[-1.018027,50.838142],[-1.017357,50.837575],[-1.014999,50.837545],[-1.013831,50.837307],[-1.014251,50.837242],[-1.013598,50.837068],[-1.013564,50.8367],[-1.013158,50.836786],[-1.013506,50.837182],[-1.01253,50.836827],[-1.012907,50.83672],[-1.01152,50.836678],[-1.010797,50.835662],[-1.011225,50.836549],[-1.009003,50.83608],[-1.008427,50.836354],[-1.008349,50.835741],[-1.00803,50.83587],[-1.007777,50.835417],[-1.008575,50.834873],[-1.008756,50.835143],[-1.010422,50.834845],[-1.014381,50.835651],[-1.015549,50.836869],[-1.01706,50.836867],[-1.020235,50.835419],[-1.021247,50.835327],[-1.021778,50.836171],[-1.021268,50.836232],[-1.021577,50.836667],[-1.021746,50.836325],[-1.021648,50.837111],[-1.021618,50.836864],[-1.021042,50.837048],[-1.021144,50.837299],[-1.020332,50.837718],[-1.020044,50.837038],[-1.020371,50.837221],[-1.020479,50.836999],[-1.019674,50.836849],[-1.020007,50.837364],[-1.019573,50.83742],[-1.020024,50.837518],[-1.019549,50.837501],[-1.020171,50.837785],[-1.019411,50.837606],[-1.019423,50.838013],[-1.020306,50.838139],[-1.019159,50.838214],[-1.018918,50.837422]]],[[[-1.019179,50.839611],[-1.019066,50.839348],[-1.019825,50.839216],[-1.019364,50.839372],[-1.019838,50.839379],[-1.019714,50.839568],[-1.019263,50.83956],[-1.02003,50.839679],[-1.019953,50.839078],[-1.020376,50.838798],[-1.020284,50.839654],[-1.020766,50.839903],[-1.019744,50.840076],[-1.019179,50.839611]]],[[[-1.020159,50.840618],[-1.019851,50.840803],[-1.019359,50.840428],[-1.020351,50.840207],[-1.020518,50.840832],[-1.020725,50.839996],[-1.021167,50.840882],[-1.02013,50.840973],[-1.020159,50.840618]]],[[[-1.021033,50.841286],[-1.021336,50.841425],[-1.020873,50.841163],[-1.021541,50.840909],[-1.021744,50.841345],[-1.021171,50.841677],[-1.021033,50.841286]]],[[[-1.01837,50.904479],[-1.01849,50.903835],[-1.015203,50.90339],[-1.012009,50.902495],[-1.011133,50.90377],[-1.008973,50.902966],[-1.009099,50.902707],[-1.007779,50.902539],[-1.007267,50.901969],[-1.001492,50.899482],[-1.004707,50.896546],[-1.002738,50.895718],[-0.998767,50.895401],[-0.997294,50.89464],[-0.995758,50.893036],[-0.992109,50.891593],[-0.986471,50.885959],[-0.986376,50.88503],[-0.985977,50.884739],[-0.985404,50.885006],[-0.978698,50.878301],[-0.976489,50.87913],[-0.975802,50.878042],[-0.973986,50.87808],[-0.972536,50.878678],[-0.971642,50.877852],[-0.969891,50.878028],[-0.968256,50.877711],[-0.968955,50.875658],[-0.96691,50.875016],[-0.96801,50.873438],[-0.963336,50.872995],[-0.960443,50.872184],[-0.963385,50.867254],[-0.958009,50.867705],[-0.955728,50.868231],[-0.953538,50.868196],[-0.943339,50.872485],[-0.938657,50.873715],[-0.938727,50.872567],[-0.936938,50.870068],[-0.93507,50.868936],[-0.933535,50.868891],[-0.931931,50.868424],[-0.929367,50.866768],[-0.929223,50.86611],[-0.928693,50.866316],[-0.928657,50.865784],[-0.927041,50.865028],[-0.92645,50.864092],[-0.928124,50.862675],[-0.928248,50.86153],[-0.929792,50.858528],[-0.931229,50.857233],[-0.932032,50.855668],[-0.933446,50.854793],[-0.932762,50.85391],[-0.932849,50.852033],[-0.933707,50.851867],[-0.934422,50.849625],[-0.933764,50.847818],[-0.933132,50.846997],[-0.932402,50.846739],[-0.932295,50.845712],[-0.932478,50.846049],[-0.93361,50.846313],[-0.932218,50.844927],[-0.932246,50.843395],[-0.932255,50.843611],[-0.932908,50.843311],[-0.932965,50.843852],[-0.9351,50.844408],[-0.937477,50.844433],[-0.937929,50.844231],[-0.937276,50.843969],[-0.93756,50.842399],[-0.939624,50.842256],[-0.940109,50.841794],[-0.940788,50.842264],[-0.948175,50.84263],[-0.95158,50.843219],[-0.951571,50.842477],[-0.955804,50.841126],[-0.95569,50.839853],[-0.958979,50.839244],[-0.963339,50.840726],[-0.965784,50.840325],[-0.968369,50.841483],[-0.971045,50.842157],[-0.974512,50.842186],[-0.977119,50.841313],[-0.978223,50.839623],[-0.979243,50.839484],[-0.979869,50.838882],[-0.980352,50.837112],[-0.978994,50.835933],[-0.979019,50.835488],[-0.979396,50.835308],[-0.980671,50.8357],[-0.982042,50.837707],[-0.981194,50.836191],[-0.980934,50.835037],[-0.981242,50.834937],[-0.98229,50.837557],[-0.983674,50.838304],[-0.985534,50.838109],[-0.986186,50.838338],[-0.987396,50.83958],[-0.986735,50.839704],[-0.987743,50.840034],[-0.987319,50.839245],[-0.98612,50.837954],[-0.985219,50.837825],[-0.987163,50.83741],[-0.989568,50.837671],[-0.995664,50.839799],[-0.997312,50.840569],[-0.998277,50.841832],[-0.998764,50.841599],[-0.998293,50.841864],[-0.998515,50.842197],[-1.00077,50.843553],[-1.000865,50.844101],[-0.997309,50.846339],[-0.998003,50.846185],[-0.999865,50.844733],[-1.000865,50.844926],[-1.000992,50.845627],[-1.00274,50.847879],[-1.002101,50.849658],[-1.000928,50.851307],[-1.00219,50.850125],[-1.002474,50.849342],[-1.002657,50.849823],[-1.002929,50.849594],[-1.002621,50.849135],[-1.003018,50.847693],[-1.001409,50.845308],[-1.001717,50.844231],[-1.002623,50.843132],[-1.003903,50.842799],[-1.013106,50.844383],[-1.020614,50.842994],[-1.021625,50.842527],[-1.021245,50.842219],[-1.020292,50.842687],[-1.019371,50.842026],[-1.02056,50.841573],[-1.020782,50.841853],[-1.020088,50.842093],[-1.020752,50.842187],[-1.020685,50.841943],[-1.02135,50.841815],[-1.021858,50.8413],[-1.022003,50.841756],[-1.021504,50.841928],[-1.021966,50.841846],[-1.022136,50.841664],[-1.020591,50.839534],[-1.020652,50.839006],[-1.021473,50.837781],[-1.020644,50.839197],[-1.02239,50.841767],[-1.021693,50.842059],[-1.021763,50.842616],[-1.022612,50.842792],[-1.023463,50.846034],[-1.024842,50.84597],[-1.02514,50.847729],[-1.023816,50.847931],[-1.024566,50.849841],[-1.022541,50.850424],[-1.022629,50.852073],[-1.023105,50.852773],[-1.037544,50.852944],[-1.046971,50.853926],[-1.046796,50.855056],[-1.049767,50.85527],[-1.049879,50.855842],[-1.050527,50.856215],[-1.05099,50.855809],[-1.052128,50.856185],[-1.052248,50.856514],[-1.054082,50.85653],[-1.052552,50.860176],[-1.050399,50.859633],[-1.048814,50.863066],[-1.048685,50.864579],[-1.048892,50.865457],[-1.054024,50.86501],[-1.053524,50.866384],[-1.054773,50.866395],[-1.054617,50.867449],[-1.047381,50.86575],[-1.047437,50.866972],[-1.046439,50.866913],[-1.04555,50.869268],[-1.046388,50.869644],[-1.045696,50.870579],[-1.047794,50.87109],[-1.0476,50.872385],[-1.046493,50.874099],[-1.044177,50.873245],[-1.043075,50.875],[-1.042642,50.87494],[-1.042414,50.875252],[-1.041419,50.877925],[-1.039389,50.877687],[-1.037896,50.880201],[-1.035022,50.88063],[-1.036598,50.88227],[-1.041924,50.882591],[-1.044496,50.883343],[-1.044762,50.883793],[-1.044275,50.884332],[-1.045273,50.884636],[-1.046821,50.887559],[-1.045119,50.889036],[-1.049131,50.891466],[-1.042474,50.895911],[-1.037983,50.901492],[-1.033895,50.90221],[-1.034052,50.905278],[-1.032166,50.90478],[-1.029265,50.904656],[-1.02844,50.905782],[-1.02386,50.90616],[-1.02555,50.909083],[-1.024528,50.909463],[-1.021655,50.909647],[-1.018733,50.909055],[-1.017724,50.908488],[-1.01869,50.90807],[-1.019181,50.907108],[-1.018863,50.906739],[-1.019384,50.90499],[-1.01837,50.904479]]]]}}]}