{"type":"FeatureCollection","features":[{"type":"Feature","properties":{"slug":"havering","gss_code":"E09000016","name":"Havering"},"geometry":{"type":"Polygon","coordinates":[[[0.237351,51.624073],[0.252794,51.617429],[0.257692,51.614183],[0.259049,51.612284],[0.264562,51.608321],[0.264325,51.607832],[0.263115,51.60732],[0.261677,51.607461],[0.258079,51.606507],[0.257999,51.604912],[0.257156,51.604925],[0.256625,51.603606],[0.255165,51.60267],[0.254696,51.602732],[0.253916,51.60192],[0.254009,51.601598],[0.257914,51.601275],[0.258251,51.60092],[0.264646,51.599741],[0.269866,51.599554],[0.270315,51.59755],[0.269334,51.595298],[0.269879,51.592467],[0.272096,51.587658],[0.273811,51.586814],[0.281966,51.578896],[0.285025,51.574184],[0.286669,51.573567],[0.287124,51.57271],[0.286687,51.571553],[0.29029,51.564299],[0.313035,51.565818],[0.315295,51.557835],[0.316501,51.557686],[0.318435,51.55678],[0.318897,51.555191],[0.322053,51.554199],[0.322306,51.552782],[0.325157,51.553058],[0.327816,51.550995],[0.327979,51.548561],[0.329468,51.546564],[0.3289,51.545837],[0.331445,51.545943],[0.333903,51.542494],[0.333333,51.541262],[0.333842,51.541165],[0.334024,51.540504],[0.331429,51.540045],[0.33159,51.540797],[0.322441,51.540518],[0.310527,51.539652],[0.31051,51.539347],[0.31004,51.539292],[0.300723,51.538756],[0.300859,51.538135],[0.297205,51.537662],[0.297755,51.535319],[0.290525,51.534485],[0.288075,51.534554],[0.281762,51.533942],[0.27634,51.532928],[0.276224,51.533179],[0.27496,51.532944],[0.270706,51.533094],[0.265347,51.53215],[0.265387,51.524956],[0.265671,51.52461],[0.266752,51.524513],[0.266638,51.522956],[0.265009,51.522901],[0.264035,51.521084],[0.263683,51.51787],[0.260303,51.518371],[0.258928,51.517764],[0.253834,51.517886],[0.252333,51.52479],[0.251536,51.525971],[0.250852,51.528819],[0.248965,51.528674],[0.248882,51.527409],[0.248291,51.527551],[0.246325,51.526532],[0.24709,51.525092],[0.245837,51.523516],[0.242856,51.524392],[0.241038,51.522606],[0.240725,51.521207],[0.2443,51.520472],[0.244666,51.52015],[0.244228,51.51976],[0.244906,51.518759],[0.243937,51.518337],[0.240195,51.519351],[0.237176,51.519334],[0.241142,51.513743],[0.239974,51.513053],[0.240307,51.510755],[0.240602,51.510507],[0.241502,51.510621],[0.241919,51.50796],[0.239999,51.507707],[0.239847,51.507279],[0.233442,51.50667],[0.228956,51.506804],[0.226597,51.506563],[0.226396,51.505929],[0.226021,51.50588],[0.226614,51.504489],[0.229965,51.499366],[0.227908,51.49886],[0.224361,51.497326],[0.223607,51.497907],[0.221654,51.497811],[0.217026,51.496583],[0.215487,51.49662],[0.214157,51.49604],[0.213544,51.495013],[0.213075,51.495022],[0.211933,51.491044],[0.209641,51.489769],[0.208875,51.489864],[0.209314,51.490424],[0.208367,51.489669],[0.201047,51.489148],[0.196314,51.488158],[0.191597,51.488085],[0.189174,51.487712],[0.187658,51.487885],[0.187482,51.488575],[0.184787,51.490707],[0.183866,51.492242],[0.183316,51.495371],[0.182563,51.495936],[0.182491,51.496524],[0.183751,51.497154],[0.182868,51.497911],[0.182923,51.49865],[0.182264,51.499095],[0.182515,51.4994],[0.18018,51.50136],[0.180272,51.502173],[0.17853,51.505274],[0.174104,51.507993],[0.172209,51.50833],[0.166202,51.510674],[0.165002,51.51165],[0.163863,51.511645],[0.163606,51.51192],[0.162531,51.511628],[0.159939,51.511763],[0.159529,51.511923],[0.159583,51.512415],[0.158757,51.512265],[0.159613,51.515771],[0.162282,51.521371],[0.16233,51.522336],[0.164449,51.527014],[0.165963,51.528793],[0.17079,51.532634],[0.172496,51.535777],[0.175073,51.538513],[0.176571,51.539245],[0.178076,51.539541],[0.179232,51.540291],[0.180378,51.544097],[0.182604,51.545834],[0.186014,51.547536],[0.187493,51.550198],[0.189598,51.551457],[0.190169,51.552721],[0.187881,51.554094],[0.186936,51.555783],[0.185865,51.556343],[0.184759,51.556409],[0.18504,51.556792],[0.184413,51.557653],[0.184792,51.559876],[0.182666,51.561243],[0.183995,51.563852],[0.185179,51.564751],[0.18518,51.565513],[0.183481,51.564633],[0.178744,51.564941],[0.176118,51.564722],[0.173401,51.565093],[0.168541,51.563599],[0.166368,51.563272],[0.161894,51.561617],[0.15131,51.568084],[0.150415,51.567842],[0.148736,51.568638],[0.146704,51.568797],[0.146675,51.569431],[0.149736,51.56971],[0.148988,51.573149],[0.147945,51.573124],[0.148039,51.575792],[0.147012,51.575708],[0.147452,51.580813],[0.148564,51.580775],[0.150974,51.583829],[0.151277,51.589884],[0.150619,51.591374],[0.151138,51.595451],[0.14988,51.597012],[0.148066,51.596356],[0.148153,51.596777],[0.147649,51.596794],[0.14951,51.602904],[0.148618,51.60444],[0.148702,51.608698],[0.147541,51.612223],[0.145513,51.614535],[0.144374,51.616805],[0.138184,51.623545],[0.155545,51.62334],[0.165841,51.622379],[0.168901,51.62142],[0.175304,51.623588],[0.180397,51.624473],[0.180612,51.625736],[0.181238,51.625827],[0.182785,51.625726],[0.185932,51.624373],[0.186269,51.62456],[0.185997,51.625522],[0.188372,51.625413],[0.189401,51.62449],[0.189815,51.625104],[0.194775,51.625715],[0.200312,51.624936],[0.203614,51.625173],[0.208497,51.626688],[0.212251,51.626979],[0.212109,51.627187],[0.217547,51.629093],[0.222077,51.630126],[0.224088,51.631738],[0.237351,51.624073]]]}}]}