{"type":"FeatureCollection","features":[{"type":"Feature","properties":{"slug":"hertsmere","gss_code":"E07000098","name":"Hertsmere"},"geometry":{"type":"Polygon","coordinates":[[[-0.241063,51.715778],[-0.240539,51.713125],[-0.241048,51.710421],[-0.239292,51.707929],[-0.238972,51.706142],[-0.237331,51.705919],[-0.235197,51.710095],[-0.234271,51.710761],[-0.232233,51.71138],[-0.229744,51.711677],[-0.227036,51.712697],[-0.22337,51.71284],[-0.221048,51.713569],[-0.218393,51.713713],[-0.214752,51.711276],[-0.213109,51.710708],[-0.210792,51.710267],[-0.207751,51.710405],[-0.20696,51.710271],[-0.206486,51.709638],[-0.204737,51.709913],[-0.199431,51.709858],[-0.195804,51.7092],[-0.194614,51.708298],[-0.190458,51.707082],[-0.189857,51.707809],[-0.187633,51.706988],[-0.183327,51.706522],[-0.181421,51.706006],[-0.177736,51.703964],[-0.173721,51.702643],[-0.173346,51.703006],[-0.172453,51.702578],[-0.172115,51.702742],[-0.169722,51.701489],[-0.163118,51.699858],[-0.163607,51.682403],[-0.172473,51.673091],[-0.17533,51.67345],[-0.175658,51.673163],[-0.175441,51.672593],[-0.177006,51.67268],[-0.176712,51.6721],[-0.181961,51.668683],[-0.185804,51.66851],[-0.18779,51.667879],[-0.191067,51.663897],[-0.192531,51.664749],[-0.196665,51.665482],[-0.194852,51.668306],[-0.196159,51.66853],[-0.196614,51.668146],[-0.199005,51.668207],[-0.199872,51.67017],[-0.203353,51.670126],[-0.202608,51.669315],[-0.20223,51.667805],[-0.205634,51.668601],[-0.207959,51.666594],[-0.209839,51.667563],[-0.211134,51.666955],[-0.207864,51.662861],[-0.212135,51.661354],[-0.213393,51.662378],[-0.218895,51.660062],[-0.219247,51.6608],[-0.219801,51.660661],[-0.226044,51.657626],[-0.226463,51.657162],[-0.228058,51.658592],[-0.228489,51.659966],[-0.228919,51.659976],[-0.234228,51.658253],[-0.234707,51.659001],[-0.236678,51.658775],[-0.238276,51.65825],[-0.237971,51.657789],[-0.239199,51.657399],[-0.240994,51.656836],[-0.241365,51.657205],[-0.243625,51.656689],[-0.247866,51.655248],[-0.249348,51.656058],[-0.250583,51.656057],[-0.25125,51.655539],[-0.250791,51.65481],[-0.249856,51.654615],[-0.251557,51.647953],[-0.254489,51.64368],[-0.255488,51.643245],[-0.256181,51.643506],[-0.257368,51.641822],[-0.260713,51.642673],[-0.261605,51.643992],[-0.263272,51.644833],[-0.264359,51.643627],[-0.265211,51.644021],[-0.266767,51.644111],[-0.268346,51.643834],[-0.268247,51.642386],[-0.272866,51.642099],[-0.274176,51.639308],[-0.273714,51.638674],[-0.276475,51.638868],[-0.278613,51.638323],[-0.281391,51.638346],[-0.283874,51.637795],[-0.2855,51.636949],[-0.287787,51.636513],[-0.291868,51.636478],[-0.294383,51.63565],[-0.296127,51.635447],[-0.303785,51.636485],[-0.30445,51.636349],[-0.305377,51.637108],[-0.312318,51.638961],[-0.316672,51.640536],[-0.317549,51.640216],[-0.319793,51.638221],[-0.326546,51.636719],[-0.329983,51.635336],[-0.332583,51.633742],[-0.332971,51.633836],[-0.333089,51.633384],[-0.338284,51.629473],[-0.33989,51.630724],[-0.345106,51.628331],[-0.349222,51.626909],[-0.359679,51.625262],[-0.361793,51.62373],[-0.362621,51.623505],[-0.364594,51.624917],[-0.369879,51.631213],[-0.373229,51.634513],[-0.379961,51.639617],[-0.376666,51.640333],[-0.37532,51.64157],[-0.375796,51.641959],[-0.371634,51.643434],[-0.376004,51.644718],[-0.380641,51.648116],[-0.380894,51.647909],[-0.383317,51.648502],[-0.383298,51.652439],[-0.386831,51.65724],[-0.385277,51.660405],[-0.38647,51.661881],[-0.386808,51.663227],[-0.386548,51.663743],[-0.385548,51.664139],[-0.385659,51.664986],[-0.383622,51.665807],[-0.382994,51.668157],[-0.384201,51.668832],[-0.384093,51.669228],[-0.382526,51.670418],[-0.379179,51.670033],[-0.374709,51.673549],[-0.372037,51.676201],[-0.368766,51.678327],[-0.36942,51.678817],[-0.370405,51.67892],[-0.371035,51.680691],[-0.37101,51.68152],[-0.370535,51.681704],[-0.370623,51.682187],[-0.369424,51.683559],[-0.36949,51.684292],[-0.372341,51.684704],[-0.378287,51.688093],[-0.378723,51.689894],[-0.375358,51.692512],[-0.374208,51.689543],[-0.371999,51.687591],[-0.369624,51.687987],[-0.366765,51.689132],[-0.364185,51.689344],[-0.362759,51.689136],[-0.359087,51.690661],[-0.358213,51.691474],[-0.35574,51.691557],[-0.355325,51.690598],[-0.354933,51.691481],[-0.355595,51.691929],[-0.356029,51.692968],[-0.355886,51.694433],[-0.356587,51.694814],[-0.355868,51.695303],[-0.356568,51.696043],[-0.355408,51.698044],[-0.354759,51.698014],[-0.353871,51.699046],[-0.353424,51.699078],[-0.353624,51.698485],[-0.352541,51.697804],[-0.351979,51.698383],[-0.351026,51.69864],[-0.350542,51.699395],[-0.349737,51.699476],[-0.349131,51.698871],[-0.347791,51.698435],[-0.346063,51.69877],[-0.344255,51.697881],[-0.343274,51.6982],[-0.343397,51.697842],[-0.342253,51.697596],[-0.336849,51.697719],[-0.335042,51.698149],[-0.334082,51.698804],[-0.33336,51.701514],[-0.332101,51.702136],[-0.329561,51.702148],[-0.326711,51.703484],[-0.325954,51.70231],[-0.324642,51.697291],[-0.322332,51.69348],[-0.318309,51.69507],[-0.318078,51.695558],[-0.316175,51.696681],[-0.313296,51.696195],[-0.311323,51.697296],[-0.30923,51.697898],[-0.306327,51.697708],[-0.300019,51.696525],[-0.301029,51.698584],[-0.299267,51.69938],[-0.301976,51.708067],[-0.295222,51.709155],[-0.293969,51.709792],[-0.295759,51.711185],[-0.286491,51.713138],[-0.283846,51.714262],[-0.283498,51.714815],[-0.279621,51.717492],[-0.278831,51.719241],[-0.276954,51.721285],[-0.280863,51.720854],[-0.28231,51.721485],[-0.285917,51.720785],[-0.286393,51.72118],[-0.284119,51.722884],[-0.283671,51.724287],[-0.289466,51.72799],[-0.289021,51.728888],[-0.285298,51.731656],[-0.284364,51.732949],[-0.282702,51.733781],[-0.276523,51.735215],[-0.272979,51.735429],[-0.270195,51.737111],[-0.26611,51.738145],[-0.264281,51.737884],[-0.262117,51.736719],[-0.260056,51.733924],[-0.252252,51.726755],[-0.250784,51.724625],[-0.241063,51.715778]]]}}]}