{"type":"FeatureCollection","features":[{"type":"Feature","properties":{"slug":"high-peak","gss_code":"E07000037","name":"High Peak"},"geometry":{"type":"Polygon","coordinates":[[[-1.856647,53.53002],[-1.852379,53.527157],[-1.850625,53.526219],[-1.847036,53.525426],[-1.845684,53.524727],[-1.843991,53.522561],[-1.844244,53.521783],[-1.841821,53.519909],[-1.839535,53.519823],[-1.835265,53.520595],[-1.828929,53.523183],[-1.827151,53.523508],[-1.822747,53.521913],[-1.822229,53.521091],[-1.822589,53.520018],[-1.820793,53.518507],[-1.819524,53.513428],[-1.8136,53.512098],[-1.809932,53.511893],[-1.80687,53.512091],[-1.800779,53.511379],[-1.810399,53.50634],[-1.80776,53.5061],[-1.80395,53.505073],[-1.799034,53.504666],[-1.797103,53.503704],[-1.796719,53.503031],[-1.796288,53.503153],[-1.796081,53.501317],[-1.79566,53.500967],[-1.795866,53.499493],[-1.795082,53.498191],[-1.795347,53.496714],[-1.795001,53.495919],[-1.795856,53.495266],[-1.795847,53.494286],[-1.797637,53.493864],[-1.798174,53.493349],[-1.800263,53.493355],[-1.799873,53.493011],[-1.800296,53.4928],[-1.80025,53.488107],[-1.801856,53.486546],[-1.801471,53.480992],[-1.798328,53.478675],[-1.796847,53.478928],[-1.795319,53.4784],[-1.794319,53.477259],[-1.79342,53.477106],[-1.792765,53.47651],[-1.79233,53.476683],[-1.791107,53.475782],[-1.790901,53.476007],[-1.790706,53.475691],[-1.786446,53.47535],[-1.785703,53.475719],[-1.780808,53.47497],[-1.779063,53.474221],[-1.777969,53.472479],[-1.77804,53.470454],[-1.77704,53.469875],[-1.7762,53.468326],[-1.772724,53.467018],[-1.770495,53.466933],[-1.769951,53.465727],[-1.768437,53.464767],[-1.76469,53.463952],[-1.759398,53.463561],[-1.758188,53.463891],[-1.755711,53.463923],[-1.754199,53.464302],[-1.753658,53.464852],[-1.752154,53.464924],[-1.747827,53.464063],[-1.745264,53.461992],[-1.746487,53.460714],[-1.746217,53.460003],[-1.747023,53.459265],[-1.747082,53.457938],[-1.748167,53.45733],[-1.746658,53.455502],[-1.747127,53.454277],[-1.746213,53.452071],[-1.74657,53.451273],[-1.744276,53.448447],[-1.74466,53.44731],[-1.743909,53.446392],[-1.743674,53.445014],[-1.745465,53.442689],[-1.746819,53.441772],[-1.747114,53.441001],[-1.749313,53.439873],[-1.749728,53.439119],[-1.748561,53.435602],[-1.744897,53.432419],[-1.744273,53.431297],[-1.744122,53.429573],[-1.744722,53.428758],[-1.746258,53.427783],[-1.746719,53.426165],[-1.745009,53.42529],[-1.739762,53.420988],[-1.735075,53.419692],[-1.732399,53.417184],[-1.729951,53.415986],[-1.725153,53.417638],[-1.723348,53.418916],[-1.718319,53.419427],[-1.714019,53.41907],[-1.710881,53.417512],[-1.708532,53.417339],[-1.703945,53.414909],[-1.703234,53.413722],[-1.703851,53.412633],[-1.703001,53.410663],[-1.704126,53.408285],[-1.703973,53.405814],[-1.704965,53.405056],[-1.694521,53.401161],[-1.681829,53.401781],[-1.67298,53.396943],[-1.668089,53.393071],[-1.665113,53.393535],[-1.659008,53.393495],[-1.654717,53.393027],[-1.653818,53.391911],[-1.66186,53.391442],[-1.661807,53.389646],[-1.663757,53.380861],[-1.673312,53.369393],[-1.670158,53.365079],[-1.670873,53.357984],[-1.671929,53.354538],[-1.673168,53.352978],[-1.672996,53.352297],[-1.671627,53.351071],[-1.67107,53.349602],[-1.672281,53.348646],[-1.675103,53.344542],[-1.676998,53.342776],[-1.677055,53.342259],[-1.683186,53.337579],[-1.685618,53.336275],[-1.685543,53.335556],[-1.691338,53.336716],[-1.69526,53.335685],[-1.696867,53.334805],[-1.699023,53.332524],[-1.69955,53.331435],[-1.69912,53.330264],[-1.700449,53.323625],[-1.706244,53.325117],[-1.711692,53.32454],[-1.712559,53.322429],[-1.720466,53.31923],[-1.725483,53.318954],[-1.727663,53.319131],[-1.727287,53.328898],[-1.725005,53.331516],[-1.729512,53.333336],[-1.73531,53.334741],[-1.734072,53.335081],[-1.732921,53.335905],[-1.732104,53.335775],[-1.732338,53.336396],[-1.731397,53.336144],[-1.730671,53.337018],[-1.731634,53.337303],[-1.730498,53.337822],[-1.730194,53.338676],[-1.737283,53.336817],[-1.741239,53.336826],[-1.743609,53.336118],[-1.745694,53.336095],[-1.74945,53.334976],[-1.751636,53.33548],[-1.753551,53.337018],[-1.754381,53.337039],[-1.755809,53.336031],[-1.757183,53.337155],[-1.758334,53.337291],[-1.75926,53.338182],[-1.759898,53.338313],[-1.761554,53.338024],[-1.765725,53.336443],[-1.766138,53.335392],[-1.768978,53.333066],[-1.781533,53.327027],[-1.783974,53.325474],[-1.787832,53.32406],[-1.797622,53.319254],[-1.801851,53.318343],[-1.806077,53.316966],[-1.811147,53.310938],[-1.812996,53.309807],[-1.813804,53.307973],[-1.816483,53.305849],[-1.822626,53.302812],[-1.822685,53.300883],[-1.824083,53.299561],[-1.824109,53.298993],[-1.82466,53.298868],[-1.822427,53.293966],[-1.823888,53.292234],[-1.823353,53.291289],[-1.821417,53.289757],[-1.816858,53.287023],[-1.816812,53.286232],[-1.817878,53.284882],[-1.817485,53.284797],[-1.817565,53.282644],[-1.816872,53.282012],[-1.812551,53.280328],[-1.811665,53.279197],[-1.811571,53.277767],[-1.809771,53.275362],[-1.804594,53.274152],[-1.803517,53.273219],[-1.801982,53.272909],[-1.800263,53.271299],[-1.799751,53.270318],[-1.800199,53.269405],[-1.799317,53.266286],[-1.799554,53.265709],[-1.798914,53.26458],[-1.796878,53.262719],[-1.798548,53.26144],[-1.798199,53.260164],[-1.795379,53.258708],[-1.793593,53.258574],[-1.791728,53.257972],[-1.790292,53.256362],[-1.794127,53.255153],[-1.795091,53.255108],[-1.798423,53.256055],[-1.802463,53.255759],[-1.805499,53.25626],[-1.807654,53.257954],[-1.815996,53.258067],[-1.817095,53.257538],[-1.817427,53.256498],[-1.816481,53.255464],[-1.813804,53.255188],[-1.813465,53.254614],[-1.816496,53.253786],[-1.820616,53.251945],[-1.822516,53.251694],[-1.82334,53.252043],[-1.825935,53.252024],[-1.829984,53.251179],[-1.833249,53.251431],[-1.83453,53.250122],[-1.837307,53.249307],[-1.84063,53.249669],[-1.841898,53.250487],[-1.844318,53.250412],[-1.84466,53.249901],[-1.84602,53.249608],[-1.847122,53.248418],[-1.846723,53.247923],[-1.844642,53.246905],[-1.844722,53.245748],[-1.848137,53.244765],[-1.851606,53.244449],[-1.853879,53.243279],[-1.854735,53.240801],[-1.85665,53.23892],[-1.85643,53.237547],[-1.858265,53.236278],[-1.857479,53.234318],[-1.858239,53.233231],[-1.861888,53.231087],[-1.866968,53.229953],[-1.869421,53.228675],[-1.874266,53.226847],[-1.871209,53.224714],[-1.869596,53.224235],[-1.865602,53.223897],[-1.860752,53.222319],[-1.853238,53.216576],[-1.850808,53.217474],[-1.844098,53.215099],[-1.836316,53.212806],[-1.831253,53.210649],[-1.831914,53.205642],[-1.827999,53.205478],[-1.827947,53.204643],[-1.827518,53.204552],[-1.827679,53.204004],[-1.831461,53.20426],[-1.831502,53.202968],[-1.832279,53.202987],[-1.832282,53.201497],[-1.831664,53.201483],[-1.83156,53.197602],[-1.842326,53.194716],[-1.841477,53.197179],[-1.847773,53.199075],[-1.853379,53.202735],[-1.855656,53.202992],[-1.862859,53.205293],[-1.872783,53.21561],[-1.873311,53.214498],[-1.872897,53.21295],[-1.87357,53.212855],[-1.874335,53.210984],[-1.873241,53.207335],[-1.876367,53.20764],[-1.876191,53.207188],[-1.876851,53.206834],[-1.877434,53.207319],[-1.878464,53.20695],[-1.877811,53.206301],[-1.87804,53.205216],[-1.876659,53.203792],[-1.876758,53.203395],[-1.881859,53.203688],[-1.882663,53.203386],[-1.88433,53.204924],[-1.883546,53.205746],[-1.882217,53.206323],[-1.881651,53.207482],[-1.883349,53.21186],[-1.885882,53.215828],[-1.885849,53.216835],[-1.886579,53.217493],[-1.888032,53.218262],[-1.892473,53.219172],[-1.895383,53.218575],[-1.893797,53.217843],[-1.897228,53.215934],[-1.894858,53.211983],[-1.897603,53.210434],[-1.900004,53.211797],[-1.900813,53.21359],[-1.908,53.219706],[-1.907996,53.220211],[-1.910545,53.221018],[-1.910083,53.221484],[-1.910787,53.221689],[-1.910806,53.221038],[-1.912239,53.220668],[-1.915873,53.218889],[-1.918298,53.218297],[-1.918497,53.217998],[-1.912478,53.217131],[-1.910437,53.216348],[-1.909072,53.215247],[-1.91177,53.213217],[-1.91114,53.21209],[-1.908658,53.211679],[-1.905991,53.211687],[-1.900158,53.208321],[-1.901,53.206644],[-1.900587,53.205786],[-1.900965,53.20545],[-1.900764,53.204627],[-1.902548,53.204096],[-1.901538,53.203154],[-1.900184,53.203384],[-1.899098,53.202315],[-1.898251,53.201061],[-1.898683,53.200042],[-1.900885,53.199863],[-1.901729,53.199019],[-1.903715,53.199044],[-1.903876,53.198649],[-1.9056,53.198841],[-1.906629,53.198368],[-1.907329,53.198851],[-1.908138,53.198597],[-1.908314,53.198927],[-1.909184,53.198811],[-1.909991,53.199568],[-1.911343,53.199949],[-1.912379,53.200752],[-1.912204,53.201546],[-1.913411,53.20147],[-1.914085,53.202305],[-1.915126,53.202257],[-1.915309,53.202948],[-1.916696,53.202844],[-1.917268,53.203454],[-1.918246,53.203456],[-1.919201,53.202975],[-1.919599,53.203187],[-1.921716,53.202924],[-1.922969,53.20325],[-1.925063,53.20551],[-1.928478,53.206667],[-1.929758,53.207367],[-1.930479,53.20856],[-1.933444,53.209436],[-1.934374,53.210368],[-1.936732,53.2115],[-1.939171,53.212078],[-1.948913,53.211713],[-1.950833,53.211962],[-1.956707,53.213748],[-1.961031,53.219434],[-1.962365,53.226242],[-1.970773,53.220938],[-1.976267,53.21873],[-1.978108,53.21688],[-1.98069,53.216401],[-1.981288,53.21573],[-1.982792,53.214987],[-1.983527,53.214982],[-1.983845,53.214546],[-1.986,53.214333],[-1.98738,53.213604],[-1.988026,53.214605],[-1.989634,53.215806],[-1.989449,53.218015],[-1.989933,53.21936],[-1.989266,53.219309],[-1.989146,53.219565],[-1.990162,53.22103],[-1.990249,53.223022],[-1.988186,53.2241],[-1.987726,53.224892],[-1.98669,53.225128],[-1.986653,53.225467],[-1.9858,53.22544],[-1.985845,53.225749],[-1.983392,53.2258],[-1.981948,53.226358],[-1.979294,53.226716],[-1.978934,53.227173],[-1.978476,53.22701],[-1.977705,53.22754],[-1.9759,53.227589],[-1.974949,53.228515],[-1.974827,53.23082],[-1.975479,53.231436],[-1.978437,53.232619],[-1.978976,53.233185],[-1.981903,53.238561],[-1.983738,53.238628],[-1.988038,53.240265],[-1.991117,53.241015],[-1.99971,53.24502],[-1.999216,53.246355],[-2.001861,53.248544],[-2.00103,53.253851],[-2.000355,53.255402],[-2.009425,53.260615],[-2.007732,53.264524],[-2.005407,53.267589],[-2.005197,53.26904],[-2.00616,53.271404],[-2.006636,53.271574],[-2.007398,53.275913],[-2.008132,53.276712],[-2.009278,53.280067],[-2.008274,53.283477],[-2.008134,53.287488],[-2.008171,53.289433],[-2.009641,53.289436],[-2.008654,53.294656],[-2.0087,53.300182],[-2.009329,53.302314],[-2.008666,53.304506],[-2.004333,53.311157],[-2.004202,53.314611],[-2.003178,53.316947],[-2.001551,53.318922],[-2.003731,53.321663],[-2.004331,53.321408],[-2.006052,53.321668],[-2.008169,53.322347],[-2.008975,53.322994],[-2.010266,53.322897],[-2.01078,53.324099],[-2.009936,53.324501],[-2.010866,53.324732],[-2.011553,53.325954],[-2.011114,53.326657],[-2.011797,53.327597],[-2.01081,53.329786],[-2.009283,53.331389],[-2.01365,53.33242],[-2.013394,53.335665],[-2.014319,53.340059],[-2.010138,53.341902],[-2.00466,53.34601],[-2.007838,53.347766],[-2.007705,53.349287],[-2.008425,53.351103],[-2.006703,53.351655],[-2.006567,53.351973],[-2.007267,53.35347],[-2.00671,53.353546],[-2.006785,53.354572],[-2.008909,53.355278],[-2.010441,53.355245],[-2.010903,53.356685],[-2.010691,53.358254],[-2.009049,53.362008],[-2.010474,53.362581],[-2.011754,53.361623],[-2.014151,53.362598],[-2.015606,53.362845],[-2.016273,53.363352],[-2.017426,53.365652],[-2.020287,53.366084],[-2.021806,53.366778],[-2.023509,53.366407],[-2.023649,53.36545],[-2.02496,53.364102],[-2.027046,53.363712],[-2.028694,53.364668],[-2.030167,53.366226],[-2.031787,53.365736],[-2.032123,53.366418],[-2.034107,53.367795],[-2.031058,53.370262],[-2.030373,53.370114],[-2.028624,53.370734],[-2.030835,53.372916],[-2.033783,53.375092],[-2.033775,53.375542],[-2.030691,53.375188],[-2.028037,53.373954],[-2.026209,53.373618],[-2.024067,53.374173],[-2.023256,53.374611],[-2.023417,53.374954],[-2.021472,53.375059],[-2.021996,53.375958],[-2.020629,53.376161],[-2.020944,53.377598],[-2.017084,53.377833],[-2.018593,53.380206],[-2.019714,53.380595],[-2.01698,53.381498],[-2.015113,53.380567],[-2.013062,53.384105],[-2.004643,53.386327],[-2.005176,53.392395],[-2.004481,53.393761],[-2.00177,53.396491],[-1.997387,53.403537],[-1.996184,53.404668],[-1.995148,53.407762],[-1.99399,53.409185],[-1.9933,53.411909],[-1.993965,53.413183],[-1.992329,53.415193],[-2.005092,53.415028],[-2.010649,53.416727],[-2.013697,53.41589],[-2.013661,53.416461],[-2.015225,53.416627],[-2.014769,53.417851],[-2.017019,53.418142],[-2.016676,53.419304],[-2.02371,53.420552],[-2.023439,53.421752],[-2.020996,53.42126],[-2.021284,53.422576],[-2.019724,53.425119],[-2.020475,53.426692],[-2.021653,53.427378],[-2.022519,53.427582],[-2.024434,53.427275],[-2.023957,53.427503],[-2.024146,53.427954],[-2.026255,53.429865],[-2.025765,53.430093],[-2.027322,53.431886],[-2.027323,53.432401],[-2.022755,53.433098],[-2.02245,53.434322],[-2.019519,53.435787],[-2.017849,53.438392],[-2.01731,53.438614],[-2.016565,53.438098],[-2.014721,53.439571],[-2.013655,53.439883],[-2.012298,53.439917],[-2.010043,53.437259],[-2.008316,53.436094],[-2.007172,53.435701],[-2.004216,53.435922],[-2.004004,53.436234],[-2.005433,53.437143],[-2.004692,53.438011],[-2.006416,53.440445],[-2.008306,53.441452],[-2.006608,53.442411],[-2.003764,53.442901],[-2.002532,53.444118],[-1.999377,53.44585],[-1.996391,53.445772],[-1.994765,53.446914],[-1.995034,53.450597],[-1.993148,53.452295],[-1.989448,53.454021],[-1.986901,53.454316],[-1.985562,53.455759],[-1.987659,53.456878],[-1.98743,53.458903],[-1.988091,53.459649],[-1.988161,53.460598],[-1.980913,53.46287],[-1.980595,53.463209],[-1.981532,53.464505],[-1.984008,53.466127],[-1.98421,53.466824],[-1.986731,53.467505],[-1.987613,53.469589],[-1.988531,53.470025],[-1.988163,53.472084],[-1.987373,53.472774],[-1.988682,53.474683],[-1.989323,53.475114],[-1.989098,53.47682],[-1.987399,53.481576],[-1.985705,53.481742],[-1.984644,53.482699],[-1.984668,53.483232],[-1.981465,53.485262],[-1.976647,53.486319],[-1.974278,53.488384],[-1.97377,53.490101],[-1.972262,53.491618],[-1.972198,53.492832],[-1.971222,53.493653],[-1.970777,53.495224],[-1.972493,53.499047],[-1.971975,53.500203],[-1.97272,53.502486],[-1.971319,53.504559],[-1.967438,53.506639],[-1.966937,53.507351],[-1.963386,53.509827],[-1.961259,53.507281],[-1.959474,53.505907],[-1.957419,53.505344],[-1.955673,53.504456],[-1.951333,53.504199],[-1.946889,53.504546],[-1.942428,53.50661],[-1.938248,53.506403],[-1.935501,53.505787],[-1.928778,53.508089],[-1.926076,53.508663],[-1.9244,53.509573],[-1.921973,53.509955],[-1.917499,53.513078],[-1.916766,53.514496],[-1.921862,53.517177],[-1.922694,53.518376],[-1.926781,53.520949],[-1.923477,53.522958],[-1.922605,53.526335],[-1.922445,53.530815],[-1.91739,53.532197],[-1.915776,53.532947],[-1.914253,53.536708],[-1.911891,53.538033],[-1.90889,53.538734],[-1.902114,53.538645],[-1.898356,53.537796],[-1.894109,53.533612],[-1.887046,53.535869],[-1.882687,53.539151],[-1.875854,53.54041],[-1.873493,53.54043],[-1.870647,53.539278],[-1.863429,53.534965],[-1.859536,53.53365],[-1.856647,53.53002]]]}}]}