{"type":"FeatureCollection","features":[{"type":"Feature","properties":{"slug":"hillingdon","gss_code":"E09000017","name":"Hillingdon"},"geometry":{"type":"Polygon","coordinates":[[[-0.493481,51.630561],[-0.491526,51.630765],[-0.488178,51.626963],[-0.478666,51.622502],[-0.476695,51.62189],[-0.469151,51.616842],[-0.464451,51.614774],[-0.457131,51.612294],[-0.455348,51.612701],[-0.448879,51.615325],[-0.445548,51.619625],[-0.443256,51.619503],[-0.440575,51.620073],[-0.438282,51.619922],[-0.43273,51.618349],[-0.428396,51.617752],[-0.426481,51.617007],[-0.420903,51.616933],[-0.416617,51.616425],[-0.411001,51.613792],[-0.404004,51.613184],[-0.403216,51.609099],[-0.40176,51.60662],[-0.402478,51.60519],[-0.402338,51.60194],[-0.401172,51.599561],[-0.399927,51.598179],[-0.400335,51.597416],[-0.397696,51.596881],[-0.396502,51.595053],[-0.396366,51.593616],[-0.395533,51.591884],[-0.395491,51.590194],[-0.394459,51.59042],[-0.391985,51.588274],[-0.391044,51.583048],[-0.390978,51.581698],[-0.391564,51.581559],[-0.388545,51.577686],[-0.387536,51.575253],[-0.388075,51.574992],[-0.385652,51.572134],[-0.386476,51.571553],[-0.383296,51.56728],[-0.382359,51.564831],[-0.3824,51.563601],[-0.381892,51.563077],[-0.382332,51.56288],[-0.380422,51.560857],[-0.380089,51.559586],[-0.380241,51.559048],[-0.377656,51.5547],[-0.385036,51.551259],[-0.392796,51.548969],[-0.394947,51.548731],[-0.394879,51.547647],[-0.398706,51.547897],[-0.39789,51.545667],[-0.396541,51.545967],[-0.396344,51.545704],[-0.395286,51.542552],[-0.397831,51.54233],[-0.405009,51.54249],[-0.416756,51.540159],[-0.419403,51.54039],[-0.419414,51.539933],[-0.41816,51.539154],[-0.419548,51.538706],[-0.419409,51.538291],[-0.41749,51.537839],[-0.417431,51.536646],[-0.415306,51.536557],[-0.414764,51.535976],[-0.41382,51.535744],[-0.413487,51.534712],[-0.412221,51.534495],[-0.411845,51.534073],[-0.41105,51.53429],[-0.392649,51.531449],[-0.389276,51.530803],[-0.387115,51.529574],[-0.386643,51.530399],[-0.376372,51.528885],[-0.376145,51.524945],[-0.381789,51.51862],[-0.384948,51.516374],[-0.389116,51.514665],[-0.390422,51.513205],[-0.393513,51.507012],[-0.400234,51.504293],[-0.402859,51.503582],[-0.403819,51.502934],[-0.406918,51.499666],[-0.409221,51.50033],[-0.409638,51.499936],[-0.410824,51.497739],[-0.410538,51.496207],[-0.41143,51.494858],[-0.41263,51.488528],[-0.413315,51.487224],[-0.413928,51.48722],[-0.414537,51.486443],[-0.41459,51.48617],[-0.413972,51.486077],[-0.414733,51.485569],[-0.416207,51.48296],[-0.41692,51.482463],[-0.416402,51.482109],[-0.416747,51.480571],[-0.414891,51.476909],[-0.415775,51.473939],[-0.414738,51.473422],[-0.412866,51.47134],[-0.411363,51.470498],[-0.411132,51.469888],[-0.420209,51.467142],[-0.420282,51.466781],[-0.421925,51.466624],[-0.433597,51.461718],[-0.436579,51.457851],[-0.434786,51.457095],[-0.434997,51.456884],[-0.441424,51.456778],[-0.44395,51.453291],[-0.449123,51.453806],[-0.453783,51.454853],[-0.45395,51.455452],[-0.455422,51.455624],[-0.455364,51.455282],[-0.455736,51.455232],[-0.461113,51.457174],[-0.473618,51.458577],[-0.476054,51.460082],[-0.476481,51.460595],[-0.475912,51.460792],[-0.477154,51.461375],[-0.4862,51.461367],[-0.489617,51.461796],[-0.492154,51.462988],[-0.493866,51.462763],[-0.496941,51.46585],[-0.501016,51.467314],[-0.50638,51.467752],[-0.507295,51.466944],[-0.510241,51.4675],[-0.509807,51.469207],[-0.508499,51.469418],[-0.505942,51.472479],[-0.503495,51.48052],[-0.501955,51.482858],[-0.4987,51.48608],[-0.498997,51.486725],[-0.499676,51.486834],[-0.499024,51.487858],[-0.499169,51.488581],[-0.498308,51.488455],[-0.497978,51.488882],[-0.49863,51.489261],[-0.497382,51.489883],[-0.496651,51.489827],[-0.496762,51.490487],[-0.495986,51.490543],[-0.494942,51.491317],[-0.495349,51.492047],[-0.49483,51.492658],[-0.491445,51.493064],[-0.489627,51.495526],[-0.488703,51.495974],[-0.489025,51.497368],[-0.489507,51.497561],[-0.488853,51.49856],[-0.489598,51.498645],[-0.489765,51.49899],[-0.48876,51.500198],[-0.487496,51.500359],[-0.487236,51.500969],[-0.486263,51.500863],[-0.486298,51.501772],[-0.485227,51.502579],[-0.484693,51.503601],[-0.485292,51.504018],[-0.484896,51.504373],[-0.485096,51.505166],[-0.48395,51.505687],[-0.483266,51.506641],[-0.483268,51.507214],[-0.484024,51.507688],[-0.483591,51.508081],[-0.485854,51.509843],[-0.485536,51.510028],[-0.489787,51.511527],[-0.489921,51.513414],[-0.489561,51.514078],[-0.491199,51.515257],[-0.49233,51.517077],[-0.491631,51.518897],[-0.490367,51.52017],[-0.491173,51.52128],[-0.490522,51.522483],[-0.490257,51.524585],[-0.490819,51.526444],[-0.489456,51.52762],[-0.488974,51.529089],[-0.489887,51.530437],[-0.490129,51.532071],[-0.491189,51.533273],[-0.490482,51.534157],[-0.491207,51.534325],[-0.491596,51.534917],[-0.493329,51.535837],[-0.49549,51.538429],[-0.493585,51.541005],[-0.491807,51.541573],[-0.492098,51.542448],[-0.490782,51.545042],[-0.491564,51.545329],[-0.491393,51.546078],[-0.489311,51.546383],[-0.489514,51.547181],[-0.488149,51.54743],[-0.486597,51.550034],[-0.484228,51.551455],[-0.482665,51.551522],[-0.478882,51.554836],[-0.477784,51.554838],[-0.47733,51.555272],[-0.476596,51.558031],[-0.476987,51.559625],[-0.477519,51.560282],[-0.481041,51.560706],[-0.480752,51.561781],[-0.482794,51.562822],[-0.482245,51.563915],[-0.483222,51.56514],[-0.482579,51.565726],[-0.484763,51.566871],[-0.484013,51.571196],[-0.485061,51.572299],[-0.485534,51.573841],[-0.484542,51.574296],[-0.484026,51.575127],[-0.48806,51.576458],[-0.488121,51.576942],[-0.488935,51.577271],[-0.489466,51.578155],[-0.488553,51.579619],[-0.489603,51.581772],[-0.494825,51.584777],[-0.494942,51.586547],[-0.495741,51.588116],[-0.497209,51.589339],[-0.497912,51.590961],[-0.498822,51.591218],[-0.498621,51.591902],[-0.499542,51.592143],[-0.498782,51.593076],[-0.498568,51.594444],[-0.499402,51.595315],[-0.499635,51.596703],[-0.500545,51.598522],[-0.500827,51.60025],[-0.50017,51.601228],[-0.499231,51.601372],[-0.498118,51.60091],[-0.497385,51.600959],[-0.496677,51.601421],[-0.496258,51.602444],[-0.49711,51.603164],[-0.4972,51.60481],[-0.498562,51.608313],[-0.499215,51.608881],[-0.498378,51.609402],[-0.498935,51.61016],[-0.498939,51.611065],[-0.497775,51.614432],[-0.497034,51.614876],[-0.495322,51.618938],[-0.496869,51.620524],[-0.499111,51.621033],[-0.500149,51.622072],[-0.500047,51.623654],[-0.49837,51.624744],[-0.497635,51.626618],[-0.500147,51.62864],[-0.499262,51.63048],[-0.497128,51.631679],[-0.496148,51.631736],[-0.495525,51.631169],[-0.49421,51.631052],[-0.493481,51.630561]]]}}]}