{"type":"FeatureCollection","features":[{"type":"Feature","properties":{"slug":"hinckley-and-bosworth","gss_code":"E07000132","name":"Hinckley and Bosworth"},"geometry":{"type":"Polygon","coordinates":[[[-1.285239,52.710081],[-1.286202,52.705675],[-1.285369,52.702584],[-1.282626,52.700234],[-1.279939,52.698856],[-1.278457,52.698248],[-1.275726,52.698686],[-1.275285,52.698289],[-1.280192,52.695258],[-1.28159,52.692822],[-1.281419,52.692184],[-1.279355,52.691165],[-1.271652,52.688567],[-1.269072,52.687297],[-1.265484,52.686291],[-1.265913,52.685681],[-1.265201,52.685511],[-1.265015,52.684758],[-1.259011,52.682072],[-1.257428,52.683357],[-1.256682,52.684604],[-1.254681,52.684441],[-1.252349,52.684885],[-1.252039,52.684345],[-1.249623,52.68476],[-1.244735,52.68462],[-1.24238,52.683243],[-1.239308,52.679833],[-1.236034,52.67818],[-1.235721,52.677894],[-1.236182,52.677584],[-1.2348,52.677047],[-1.234612,52.675943],[-1.230235,52.675438],[-1.227884,52.672436],[-1.229383,52.671432],[-1.226592,52.669927],[-1.221073,52.669692],[-1.216604,52.670933],[-1.216969,52.671612],[-1.215872,52.672447],[-1.214905,52.672197],[-1.213763,52.674681],[-1.21214,52.674446],[-1.212631,52.672506],[-1.207926,52.671284],[-1.207259,52.670383],[-1.20162,52.668845],[-1.201354,52.667057],[-1.202793,52.666558],[-1.202701,52.66446],[-1.200804,52.664817],[-1.199682,52.664402],[-1.202594,52.663949],[-1.202944,52.662121],[-1.208289,52.65981],[-1.209623,52.658538],[-1.210539,52.655215],[-1.214243,52.653872],[-1.214106,52.653339],[-1.215948,52.652015],[-1.218328,52.651161],[-1.220684,52.651095],[-1.225242,52.650237],[-1.225649,52.65052],[-1.228626,52.649066],[-1.227046,52.648573],[-1.224265,52.646252],[-1.223145,52.646262],[-1.225081,52.64408],[-1.229254,52.642444],[-1.232373,52.641626],[-1.232198,52.640747],[-1.232836,52.640913],[-1.233434,52.640453],[-1.233735,52.640742],[-1.234052,52.640205],[-1.234239,52.640725],[-1.234661,52.640411],[-1.234951,52.641066],[-1.235834,52.640984],[-1.235643,52.641305],[-1.23645,52.64174],[-1.236829,52.641636],[-1.236672,52.641359],[-1.237161,52.641363],[-1.237313,52.6418],[-1.238689,52.641295],[-1.239354,52.64146],[-1.239578,52.641082],[-1.239745,52.641515],[-1.240946,52.641287],[-1.241672,52.641842],[-1.241885,52.641053],[-1.242126,52.64147],[-1.243057,52.641493],[-1.243857,52.641102],[-1.243961,52.640678],[-1.246595,52.639911],[-1.247367,52.639794],[-1.24783,52.64023],[-1.248592,52.64022],[-1.251233,52.63896],[-1.254628,52.638604],[-1.255035,52.63824],[-1.256618,52.638321],[-1.256873,52.63789],[-1.257493,52.638186],[-1.259305,52.637194],[-1.260563,52.637444],[-1.260591,52.637],[-1.261802,52.637066],[-1.261372,52.636265],[-1.259203,52.636877],[-1.257269,52.635829],[-1.255967,52.635537],[-1.256112,52.634352],[-1.255041,52.634472],[-1.253726,52.635099],[-1.253851,52.635944],[-1.253437,52.636263],[-1.251542,52.636514],[-1.250673,52.636128],[-1.24846,52.636536],[-1.247153,52.636108],[-1.244265,52.635952],[-1.240788,52.633596],[-1.2464,52.632408],[-1.248354,52.632507],[-1.249395,52.631562],[-1.251391,52.631669],[-1.252455,52.630777],[-1.252474,52.630239],[-1.254326,52.630234],[-1.260468,52.62888],[-1.261722,52.628337],[-1.262811,52.626971],[-1.260509,52.625389],[-1.26,52.623828],[-1.257787,52.62079],[-1.257385,52.616199],[-1.265039,52.614967],[-1.26462,52.614418],[-1.274479,52.61617],[-1.274385,52.61502],[-1.271775,52.614562],[-1.273358,52.611295],[-1.273996,52.611546],[-1.274131,52.612852],[-1.277285,52.611502],[-1.27426,52.609792],[-1.280326,52.608993],[-1.275891,52.609029],[-1.279836,52.607269],[-1.278027,52.604659],[-1.274698,52.602749],[-1.274584,52.600984],[-1.276972,52.599385],[-1.281544,52.597466],[-1.284895,52.595265],[-1.291247,52.592599],[-1.292415,52.591528],[-1.292053,52.591301],[-1.294116,52.589312],[-1.295902,52.588402],[-1.298342,52.585991],[-1.296307,52.585507],[-1.295567,52.584708],[-1.296043,52.58414],[-1.295314,52.583837],[-1.295626,52.582479],[-1.29709,52.58001],[-1.289358,52.578313],[-1.286425,52.578095],[-1.283988,52.576958],[-1.280711,52.576078],[-1.273528,52.57487],[-1.270618,52.574635],[-1.270171,52.574887],[-1.270085,52.573823],[-1.269466,52.573792],[-1.269284,52.573291],[-1.269761,52.572997],[-1.269109,52.573022],[-1.268829,52.572076],[-1.267515,52.571801],[-1.268213,52.571346],[-1.268112,52.570952],[-1.269361,52.570793],[-1.269208,52.570253],[-1.26968,52.570337],[-1.269723,52.56987],[-1.269385,52.569637],[-1.269867,52.569719],[-1.270254,52.568884],[-1.271426,52.568454],[-1.272452,52.568476],[-1.272555,52.567958],[-1.271808,52.567822],[-1.272116,52.56703],[-1.272792,52.566586],[-1.272916,52.565972],[-1.273602,52.565939],[-1.275186,52.56447],[-1.275586,52.564829],[-1.276075,52.564487],[-1.277028,52.564789],[-1.27683,52.565049],[-1.278081,52.565205],[-1.278157,52.564902],[-1.279696,52.56469],[-1.279415,52.564471],[-1.280208,52.56435],[-1.280717,52.563708],[-1.281625,52.563676],[-1.282274,52.563234],[-1.284512,52.563391],[-1.284945,52.56298],[-1.288913,52.56365],[-1.28933,52.564617],[-1.295466,52.563405],[-1.298094,52.563718],[-1.298556,52.563358],[-1.298388,52.562655],[-1.302023,52.561389],[-1.303172,52.561463],[-1.303646,52.561905],[-1.305643,52.561827],[-1.306746,52.562909],[-1.308325,52.562572],[-1.309053,52.562921],[-1.309343,52.562555],[-1.310138,52.5627],[-1.31183,52.562086],[-1.312437,52.562332],[-1.312153,52.562842],[-1.312934,52.563195],[-1.312923,52.563542],[-1.319754,52.565895],[-1.31931,52.567092],[-1.323709,52.567794],[-1.325825,52.56493],[-1.329271,52.565989],[-1.334887,52.560193],[-1.332518,52.559368],[-1.332462,52.558428],[-1.337286,52.556322],[-1.338991,52.554587],[-1.339113,52.552902],[-1.338054,52.551725],[-1.336566,52.548612],[-1.336251,52.547102],[-1.334552,52.543791],[-1.334951,52.542916],[-1.334378,52.541039],[-1.332603,52.538698],[-1.334847,52.533025],[-1.330701,52.531132],[-1.331658,52.529843],[-1.329592,52.529336],[-1.331221,52.52734],[-1.330327,52.527141],[-1.330403,52.524613],[-1.329246,52.524459],[-1.329265,52.524047],[-1.327634,52.523222],[-1.327126,52.522539],[-1.327238,52.521594],[-1.325703,52.521423],[-1.325105,52.5212],[-1.325216,52.52096],[-1.323789,52.52053],[-1.322426,52.519002],[-1.323556,52.516995],[-1.322124,52.516194],[-1.321897,52.515715],[-1.321154,52.516038],[-1.320792,52.51558],[-1.31797,52.515118],[-1.318806,52.514595],[-1.319384,52.512368],[-1.319117,52.511137],[-1.321492,52.507698],[-1.321245,52.507302],[-1.321859,52.506821],[-1.321942,52.505552],[-1.325121,52.501054],[-1.338442,52.505777],[-1.34179,52.507368],[-1.364955,52.515942],[-1.365275,52.515725],[-1.368153,52.516453],[-1.368236,52.517226],[-1.373542,52.518078],[-1.37325,52.519127],[-1.380418,52.521493],[-1.415206,52.534388],[-1.415829,52.534194],[-1.416058,52.534483],[-1.417344,52.534455],[-1.417376,52.536089],[-1.418337,52.536498],[-1.418958,52.537768],[-1.426976,52.540646],[-1.427181,52.540311],[-1.459221,52.551978],[-1.459994,52.55159],[-1.464048,52.553093],[-1.522687,52.570427],[-1.523103,52.570614],[-1.521648,52.571248],[-1.52147,52.571827],[-1.522919,52.573522],[-1.525988,52.574081],[-1.526701,52.575314],[-1.526678,52.576631],[-1.525309,52.576698],[-1.52592,52.57766],[-1.525919,52.579014],[-1.526322,52.579257],[-1.525366,52.579636],[-1.525721,52.580141],[-1.525196,52.580376],[-1.525607,52.581264],[-1.527317,52.582382],[-1.527155,52.582738],[-1.527901,52.582711],[-1.528919,52.583315],[-1.531264,52.583384],[-1.532149,52.584433],[-1.531387,52.584746],[-1.531673,52.585745],[-1.534733,52.58718],[-1.535309,52.587943],[-1.536099,52.588038],[-1.537532,52.589054],[-1.537469,52.589566],[-1.542627,52.589432],[-1.544158,52.589674],[-1.546151,52.59058],[-1.546587,52.591384],[-1.549214,52.592913],[-1.55002,52.592641],[-1.550246,52.593085],[-1.550871,52.593047],[-1.552541,52.593718],[-1.556199,52.59407],[-1.557064,52.594992],[-1.55708,52.595773],[-1.558058,52.596165],[-1.560698,52.596119],[-1.557097,52.601323],[-1.557038,52.609246],[-1.55643,52.610672],[-1.554244,52.613517],[-1.554452,52.614762],[-1.5564,52.615191],[-1.560607,52.617075],[-1.561195,52.619807],[-1.56442,52.619941],[-1.566868,52.62062],[-1.567535,52.622584],[-1.566011,52.625968],[-1.566483,52.629253],[-1.565881,52.630325],[-1.56461,52.631242],[-1.56651,52.63235],[-1.571019,52.634038],[-1.57136,52.635131],[-1.571,52.63612],[-1.565695,52.63627],[-1.559014,52.637259],[-1.556047,52.638276],[-1.553307,52.640779],[-1.550631,52.641128],[-1.546993,52.64227],[-1.544823,52.644134],[-1.544287,52.64568],[-1.542804,52.64762],[-1.542794,52.648239],[-1.544292,52.649467],[-1.544958,52.650563],[-1.544661,52.651559],[-1.542422,52.653626],[-1.547289,52.655973],[-1.546098,52.659062],[-1.552182,52.666898],[-1.551771,52.667455],[-1.543831,52.666698],[-1.538604,52.667557],[-1.53889,52.665772],[-1.536895,52.665943],[-1.536825,52.665736],[-1.527543,52.667911],[-1.517847,52.670883],[-1.508205,52.674841],[-1.506339,52.675317],[-1.504782,52.676326],[-1.504323,52.67625],[-1.503051,52.67754],[-1.502412,52.677578],[-1.502511,52.677018],[-1.500571,52.67659],[-1.500534,52.676229],[-1.499052,52.675228],[-1.497942,52.674995],[-1.498018,52.674338],[-1.49645,52.673628],[-1.496962,52.673299],[-1.495929,52.672521],[-1.496391,52.672351],[-1.495754,52.671783],[-1.496221,52.671546],[-1.495475,52.669707],[-1.49521,52.669318],[-1.494312,52.669362],[-1.493991,52.669057],[-1.487669,52.671221],[-1.485647,52.673151],[-1.481848,52.674984],[-1.478858,52.677007],[-1.477019,52.677715],[-1.473353,52.670867],[-1.469417,52.671262],[-1.467448,52.669123],[-1.467168,52.668065],[-1.458999,52.667989],[-1.458895,52.667033],[-1.45688,52.667121],[-1.456501,52.666806],[-1.456944,52.664843],[-1.445742,52.663958],[-1.444469,52.665742],[-1.441732,52.666442],[-1.441553,52.667018],[-1.441066,52.66742],[-1.44041,52.667394],[-1.4374,52.670071],[-1.437296,52.670882],[-1.437811,52.671007],[-1.438169,52.671777],[-1.437837,52.672767],[-1.43888,52.673317],[-1.439575,52.673011],[-1.439009,52.674933],[-1.436303,52.676799],[-1.434828,52.67701],[-1.43453,52.67759],[-1.433513,52.677695],[-1.431342,52.678793],[-1.430494,52.67952],[-1.430394,52.680636],[-1.429766,52.681385],[-1.430375,52.681698],[-1.428999,52.682646],[-1.424203,52.684003],[-1.421456,52.683347],[-1.419847,52.680321],[-1.41819,52.678231],[-1.413868,52.676282],[-1.41205,52.674813],[-1.409342,52.673673],[-1.406964,52.673125],[-1.402196,52.6731],[-1.401916,52.67208],[-1.399053,52.672455],[-1.396708,52.673623],[-1.394458,52.673441],[-1.391443,52.674006],[-1.383701,52.67433],[-1.383646,52.675712],[-1.381991,52.675316],[-1.373928,52.677193],[-1.371308,52.678393],[-1.368415,52.678562],[-1.366463,52.679049],[-1.365299,52.680198],[-1.364512,52.679772],[-1.363319,52.680078],[-1.36251,52.678441],[-1.360587,52.676476],[-1.35964,52.678071],[-1.360486,52.67896],[-1.360711,52.680538],[-1.358338,52.682819],[-1.353956,52.684974],[-1.348442,52.685039],[-1.349955,52.689391],[-1.342609,52.690259],[-1.351096,52.694157],[-1.344786,52.694824],[-1.341917,52.695431],[-1.331251,52.698668],[-1.330465,52.698458],[-1.329766,52.698985],[-1.324636,52.699741],[-1.323069,52.700332],[-1.322293,52.700243],[-1.3182,52.701955],[-1.311005,52.705744],[-1.3088,52.706428],[-1.299234,52.707427],[-1.291736,52.709442],[-1.289577,52.711838],[-1.289153,52.712902],[-1.288732,52.7121],[-1.285283,52.715289],[-1.282713,52.714642],[-1.28486,52.714098],[-1.28589,52.712089],[-1.285239,52.710081]]]}}]}