{"type":"FeatureCollection","features":[{"type":"Feature","properties":{"slug":"horsham","gss_code":"E07000227","name":"Horsham"},"geometry":{"type":"MultiPolygon","coordinates":[[[[-0.54788,50.899301],[-0.547445,50.899438],[-0.547233,50.899427],[-0.54788,50.899301]]],[[[-0.550074,50.914065],[-0.549717,50.91408],[-0.55063,50.913721],[-0.550074,50.914065]]],[[[-0.53728,50.916382],[-0.53719,50.916489],[-0.537116,50.916434],[-0.53728,50.916382]]],[[[-0.532499,50.953307],[-0.532509,50.953307],[-0.53217,50.953772],[-0.532499,50.953307]]],[[[-0.503233,50.950069],[-0.502457,50.94907],[-0.503383,50.947915],[-0.502838,50.946162],[-0.506479,50.943378],[-0.508402,50.943193],[-0.509675,50.943863],[-0.510322,50.943793],[-0.512318,50.943196],[-0.513771,50.942061],[-0.513813,50.941447],[-0.513011,50.94082],[-0.513092,50.939666],[-0.511679,50.937509],[-0.511764,50.936404],[-0.512651,50.935713],[-0.518763,50.935845],[-0.522712,50.935454],[-0.524722,50.936376],[-0.525446,50.938408],[-0.527434,50.938114],[-0.529024,50.938452],[-0.534112,50.936682],[-0.533737,50.934034],[-0.534693,50.933154],[-0.539575,50.931546],[-0.540765,50.931291],[-0.541281,50.931605],[-0.54308,50.930494],[-0.54736,50.929601],[-0.54766,50.926642],[-0.548487,50.925366],[-0.547829,50.923764],[-0.545155,50.921322],[-0.545274,50.920412],[-0.546915,50.920896],[-0.550321,50.922607],[-0.55064,50.923058],[-0.552309,50.92297],[-0.552504,50.923563],[-0.556066,50.923477],[-0.556633,50.924863],[-0.555985,50.925829],[-0.557621,50.929067],[-0.56144,50.929899],[-0.564923,50.931186],[-0.568367,50.934249],[-0.568949,50.935383],[-0.568838,50.939474],[-0.568497,50.939973],[-0.568731,50.942289],[-0.56591,50.945588],[-0.56379,50.949267],[-0.560142,50.950694],[-0.559526,50.951469],[-0.557545,50.951495],[-0.557385,50.951906],[-0.555612,50.952151],[-0.554101,50.952268],[-0.553509,50.951981],[-0.552322,50.952623],[-0.551518,50.952506],[-0.550395,50.95365],[-0.549606,50.953951],[-0.546829,50.954476],[-0.545611,50.953771],[-0.544936,50.952896],[-0.545199,50.952012],[-0.544408,50.951578],[-0.545333,50.950334],[-0.545196,50.949657],[-0.544075,50.948026],[-0.542213,50.948575],[-0.540189,50.948104],[-0.5377,50.948214],[-0.537499,50.948885],[-0.535107,50.949344],[-0.534926,50.949775],[-0.533749,50.950245],[-0.53262,50.953154],[-0.530171,50.952845],[-0.529056,50.952095],[-0.528579,50.952464],[-0.529072,50.951826],[-0.528708,50.951756],[-0.528223,50.95248],[-0.524005,50.953439],[-0.520535,50.955921],[-0.51945,50.956239],[-0.516092,50.955437],[-0.512516,50.95407],[-0.505527,50.953784],[-0.503389,50.953062],[-0.502253,50.951721],[-0.503233,50.950069]]],[[[-0.503165,50.953138],[-0.505737,50.953918],[-0.512818,50.954251],[-0.516734,50.955737],[-0.509301,50.956441],[-0.504651,50.955916],[-0.503797,50.954925],[-0.504355,50.954274],[-0.502877,50.953645],[-0.503165,50.953138]]],[[[-0.528688,50.979146],[-0.525093,50.980458],[-0.52543,50.980284],[-0.528688,50.979146]]],[[[-0.237594,51.142462],[-0.226309,51.142454],[-0.219292,51.141862],[-0.216661,51.14203],[-0.214347,51.141444],[-0.206389,51.140817],[-0.202997,51.13958],[-0.200274,51.139092],[-0.2,51.138658],[-0.201692,51.138356],[-0.202667,51.137334],[-0.203304,51.137154],[-0.203535,51.13615],[-0.20522,51.135313],[-0.206395,51.135524],[-0.20642,51.134963],[-0.207121,51.135],[-0.207557,51.134129],[-0.209731,51.133693],[-0.210108,51.133167],[-0.210952,51.133008],[-0.210798,51.132373],[-0.211702,51.131345],[-0.213235,51.130874],[-0.213827,51.129921],[-0.214821,51.129521],[-0.216286,51.129442],[-0.217118,51.128815],[-0.219254,51.128836],[-0.219069,51.127889],[-0.219643,51.127142],[-0.219209,51.127145],[-0.219181,51.126886],[-0.219581,51.126561],[-0.220027,51.126677],[-0.219975,51.126401],[-0.221462,51.125526],[-0.22202,51.124212],[-0.221094,51.121666],[-0.221139,51.120541],[-0.221279,51.119863],[-0.222122,51.119342],[-0.222343,51.115752],[-0.222787,51.114867],[-0.223087,51.115171],[-0.226335,51.115446],[-0.226921,51.113307],[-0.231267,51.112709],[-0.234003,51.113121],[-0.234984,51.112518],[-0.235214,51.111918],[-0.235819,51.111923],[-0.236589,51.110047],[-0.236139,51.109817],[-0.236873,51.109477],[-0.235975,51.108779],[-0.231704,51.107868],[-0.232445,51.107458],[-0.231645,51.106978],[-0.23085,51.104721],[-0.231479,51.103967],[-0.230527,51.102926],[-0.230482,51.102118],[-0.231331,51.09893],[-0.232522,51.097378],[-0.222481,51.098754],[-0.219432,51.099578],[-0.219812,51.097667],[-0.219031,51.097395],[-0.21769,51.091934],[-0.214506,51.092891],[-0.214913,51.091397],[-0.21188,51.091991],[-0.211377,51.089183],[-0.212075,51.086613],[-0.212751,51.085899],[-0.212755,51.084801],[-0.211449,51.082626],[-0.2109,51.079505],[-0.21152,51.075387],[-0.212583,51.07538],[-0.212299,51.072259],[-0.213005,51.071931],[-0.211296,51.068355],[-0.211891,51.06435],[-0.212254,51.064125],[-0.215652,51.064145],[-0.217848,51.063657],[-0.218725,51.061836],[-0.220003,51.061392],[-0.220206,51.060986],[-0.222122,51.060747],[-0.222754,51.060165],[-0.223318,51.057239],[-0.219405,51.051782],[-0.221216,51.047985],[-0.222327,51.047579],[-0.22356,51.04563],[-0.225996,51.044078],[-0.226758,51.041568],[-0.221744,51.041082],[-0.221589,51.0404],[-0.219159,51.037922],[-0.222438,51.037634],[-0.22297,51.038048],[-0.224058,51.037935],[-0.225306,51.037241],[-0.226523,51.034617],[-0.228224,51.035323],[-0.228127,51.037717],[-0.229237,51.037908],[-0.236097,51.036247],[-0.235833,51.035795],[-0.23931,51.034534],[-0.239384,51.034252],[-0.240757,51.035066],[-0.241428,51.035025],[-0.243948,51.034576],[-0.247086,51.033429],[-0.24806,51.031042],[-0.247947,51.027965],[-0.249081,51.024947],[-0.242699,51.023802],[-0.242194,51.023261],[-0.237781,51.02215],[-0.237554,51.021545],[-0.236639,51.021018],[-0.236907,51.020211],[-0.238451,51.01953],[-0.239951,51.017408],[-0.240991,51.016969],[-0.243048,51.01691],[-0.244585,51.015706],[-0.245498,51.014132],[-0.245137,51.012261],[-0.238041,51.012062],[-0.232015,51.010847],[-0.232723,51.009965],[-0.232741,51.008327],[-0.234688,51.00628],[-0.235745,51.005728],[-0.235004,51.004256],[-0.234827,50.99957],[-0.234996,50.998676],[-0.236691,50.996308],[-0.236259,50.992778],[-0.237131,50.992499],[-0.239168,50.992684],[-0.239325,50.991973],[-0.241071,50.991503],[-0.241996,50.990726],[-0.24182,50.986755],[-0.236139,50.987174],[-0.230963,50.989178],[-0.229749,50.987592],[-0.229756,50.986421],[-0.23279,50.983602],[-0.233934,50.981684],[-0.235919,50.979589],[-0.240284,50.973693],[-0.241414,50.970048],[-0.241507,50.96785],[-0.240836,50.963718],[-0.241143,50.961651],[-0.240451,50.958983],[-0.240972,50.957443],[-0.240897,50.952853],[-0.240232,50.951269],[-0.238747,50.950049],[-0.22986,50.94861],[-0.22476,50.948448],[-0.225054,50.945444],[-0.224427,50.942912],[-0.227552,50.942381],[-0.228179,50.940839],[-0.22789,50.939548],[-0.22832,50.938445],[-0.231539,50.936458],[-0.231963,50.935791],[-0.231644,50.935365],[-0.2311,50.935559],[-0.230069,50.935344],[-0.229713,50.934412],[-0.230037,50.934175],[-0.229449,50.933445],[-0.23025,50.932051],[-0.229957,50.931483],[-0.230255,50.92996],[-0.23148,50.928917],[-0.230587,50.928576],[-0.230063,50.927937],[-0.230092,50.926866],[-0.2294,50.926188],[-0.229838,50.92525],[-0.229506,50.92436],[-0.229853,50.924156],[-0.228561,50.9213],[-0.2293,50.918671],[-0.227706,50.91823],[-0.226692,50.916901],[-0.225974,50.916672],[-0.225814,50.915944],[-0.226912,50.914158],[-0.226515,50.913651],[-0.226771,50.912693],[-0.223741,50.911781],[-0.224414,50.9114],[-0.226279,50.91166],[-0.233484,50.911293],[-0.234013,50.909868],[-0.236174,50.908194],[-0.239583,50.907689],[-0.241014,50.907654],[-0.241491,50.908013],[-0.241857,50.907714],[-0.244154,50.907363],[-0.241641,50.902157],[-0.243416,50.902096],[-0.243769,50.901461],[-0.243189,50.899369],[-0.243887,50.895925],[-0.243339,50.891722],[-0.243837,50.888692],[-0.243791,50.884889],[-0.245061,50.880612],[-0.245551,50.876284],[-0.246863,50.876289],[-0.248404,50.874962],[-0.24866,50.873071],[-0.244342,50.869022],[-0.242406,50.868317],[-0.239238,50.867886],[-0.239798,50.866048],[-0.240576,50.865202],[-0.244971,50.863809],[-0.248473,50.864137],[-0.249608,50.867991],[-0.248978,50.870648],[-0.249721,50.871024],[-0.255303,50.871551],[-0.258935,50.871207],[-0.256436,50.865873],[-0.256579,50.862335],[-0.26222,50.862347],[-0.269491,50.863716],[-0.280045,50.863249],[-0.28795,50.864152],[-0.290388,50.863845],[-0.290936,50.862741],[-0.292506,50.862895],[-0.296358,50.864243],[-0.29946,50.864197],[-0.299879,50.864671],[-0.299011,50.864935],[-0.298431,50.865531],[-0.298167,50.868122],[-0.299102,50.868885],[-0.300651,50.869343],[-0.301179,50.871059],[-0.303457,50.872197],[-0.302674,50.874109],[-0.302681,50.875524],[-0.304153,50.877415],[-0.303696,50.878466],[-0.30324,50.878503],[-0.30351,50.878696],[-0.303074,50.879861],[-0.304766,50.8812],[-0.306476,50.881967],[-0.306633,50.883088],[-0.308293,50.885034],[-0.307495,50.887625],[-0.309084,50.888177],[-0.309528,50.888737],[-0.308615,50.890573],[-0.307064,50.891836],[-0.306849,50.893544],[-0.303512,50.895598],[-0.304001,50.896489],[-0.303465,50.89932],[-0.302177,50.899457],[-0.299346,50.898851],[-0.297353,50.899081],[-0.294046,50.898808],[-0.292775,50.899225],[-0.291876,50.901028],[-0.292491,50.90263],[-0.29177,50.90357],[-0.291667,50.904426],[-0.292575,50.907008],[-0.292335,50.908095],[-0.295368,50.91062],[-0.297728,50.910926],[-0.299004,50.912093],[-0.300055,50.914276],[-0.300032,50.918103],[-0.304975,50.9218],[-0.306051,50.921953],[-0.306905,50.922536],[-0.307566,50.924359],[-0.309794,50.926401],[-0.310208,50.927848],[-0.309372,50.929145],[-0.309496,50.930983],[-0.306566,50.933286],[-0.306111,50.933978],[-0.302833,50.934994],[-0.302126,50.936528],[-0.300729,50.937347],[-0.300828,50.938626],[-0.299039,50.939666],[-0.298567,50.940703],[-0.29871,50.941568],[-0.297809,50.942934],[-0.295171,50.943315],[-0.293714,50.944074],[-0.292797,50.94399],[-0.293616,50.944114],[-0.293153,50.944727],[-0.293458,50.94653],[-0.293142,50.947135],[-0.29032,50.948731],[-0.285268,50.949249],[-0.279251,50.950408],[-0.275075,50.952256],[-0.274734,50.952758],[-0.274034,50.952694],[-0.274701,50.952782],[-0.274803,50.954311],[-0.273823,50.954791],[-0.274582,50.954439],[-0.274618,50.95526],[-0.275017,50.955275],[-0.275057,50.952397],[-0.278812,50.950988],[-0.279396,50.950461],[-0.290276,50.948836],[-0.29186,50.948272],[-0.293533,50.946801],[-0.293367,50.944734],[-0.294176,50.94389],[-0.295579,50.943346],[-0.297982,50.943014],[-0.298985,50.94157],[-0.298825,50.94062],[-0.299237,50.939744],[-0.301058,50.938593],[-0.30105,50.937327],[-0.306414,50.940816],[-0.307676,50.944549],[-0.306889,50.945226],[-0.307746,50.944863],[-0.309195,50.94684],[-0.313282,50.947924],[-0.316391,50.947216],[-0.317056,50.946864],[-0.319287,50.946865],[-0.320988,50.947697],[-0.321054,50.948123],[-0.319813,50.948686],[-0.3195,50.94916],[-0.321235,50.948046],[-0.321164,50.947646],[-0.319455,50.946769],[-0.317909,50.946505],[-0.313188,50.947828],[-0.309366,50.946796],[-0.30804,50.945115],[-0.308603,50.944886],[-0.307892,50.94475],[-0.306616,50.940786],[-0.301542,50.937343],[-0.302275,50.936624],[-0.303111,50.934983],[-0.306247,50.934054],[-0.30677,50.933303],[-0.309355,50.931507],[-0.309836,50.930594],[-0.309549,50.929189],[-0.310417,50.927581],[-0.309928,50.926309],[-0.307679,50.924264],[-0.307004,50.92244],[-0.306113,50.921832],[-0.305117,50.921691],[-0.300261,50.918071],[-0.30023,50.914134],[-0.29916,50.911974],[-0.297771,50.910744],[-0.295323,50.910416],[-0.29252,50.907938],[-0.29275,50.906984],[-0.291914,50.903921],[-0.292714,50.902668],[-0.292107,50.901195],[-0.293067,50.899232],[-0.293781,50.898968],[-0.297479,50.899282],[-0.299281,50.899021],[-0.302096,50.899641],[-0.30378,50.899387],[-0.304266,50.896624],[-0.303762,50.895652],[-0.307184,50.893602],[-0.307325,50.891908],[-0.308757,50.890795],[-0.309741,50.888809],[-0.309375,50.888036],[-0.307855,50.88745],[-0.308589,50.885196],[-0.306841,50.883009],[-0.306574,50.881713],[-0.304802,50.880942],[-0.303377,50.879826],[-0.3045,50.877443],[-0.302926,50.875378],[-0.303763,50.872132],[-0.301603,50.871029],[-0.300995,50.869187],[-0.299435,50.868759],[-0.29872,50.868244],[-0.29869,50.86626],[-0.302859,50.866134],[-0.307598,50.866505],[-0.309516,50.865247],[-0.311428,50.864772],[-0.313495,50.864915],[-0.313592,50.86453],[-0.320477,50.865407],[-0.325636,50.863839],[-0.339726,50.86254],[-0.343787,50.862933],[-0.344551,50.863962],[-0.349155,50.864445],[-0.348679,50.865289],[-0.349116,50.86596],[-0.351944,50.867369],[-0.352984,50.86828],[-0.355838,50.86955],[-0.359872,50.872543],[-0.364598,50.874526],[-0.363528,50.876234],[-0.36396,50.876831],[-0.366208,50.876931],[-0.366096,50.879276],[-0.366707,50.88222],[-0.366516,50.884474],[-0.363896,50.88848],[-0.380064,50.885593],[-0.381703,50.886596],[-0.38187,50.887021],[-0.385495,50.888734],[-0.386634,50.887275],[-0.388512,50.889479],[-0.388718,50.892346],[-0.392697,50.893305],[-0.392944,50.892742],[-0.394043,50.892099],[-0.395955,50.891908],[-0.401459,50.886885],[-0.405964,50.884174],[-0.40791,50.88187],[-0.408701,50.879868],[-0.412176,50.88062],[-0.412279,50.879588],[-0.413161,50.879588],[-0.412318,50.885141],[-0.411684,50.886518],[-0.412571,50.886533],[-0.413144,50.885652],[-0.416868,50.886093],[-0.420249,50.886064],[-0.422146,50.886676],[-0.424867,50.886331],[-0.426532,50.887854],[-0.42644,50.889229],[-0.427055,50.889478],[-0.427322,50.89091],[-0.427025,50.893069],[-0.431078,50.89276],[-0.431053,50.889516],[-0.433875,50.885709],[-0.437037,50.882524],[-0.43763,50.881026],[-0.440083,50.877572],[-0.446789,50.880468],[-0.447934,50.879724],[-0.449526,50.882179],[-0.452484,50.890874],[-0.452411,50.892752],[-0.451502,50.895467],[-0.455358,50.896881],[-0.457372,50.895706],[-0.45865,50.894023],[-0.461603,50.891663],[-0.462168,50.890657],[-0.46235,50.888875],[-0.464939,50.883988],[-0.471508,50.885012],[-0.472813,50.884801],[-0.476588,50.885056],[-0.47528,50.894344],[-0.48202,50.894382],[-0.479678,50.896338],[-0.480322,50.898454],[-0.482842,50.8991],[-0.483424,50.898813],[-0.483243,50.898347],[-0.483685,50.897978],[-0.48663,50.89739],[-0.486187,50.89692],[-0.488099,50.896202],[-0.488124,50.895746],[-0.489334,50.894702],[-0.491217,50.893994],[-0.491515,50.893273],[-0.493039,50.892401],[-0.493251,50.891409],[-0.49242,50.891321],[-0.490765,50.885275],[-0.493117,50.885263],[-0.494441,50.890853],[-0.498517,50.898221],[-0.499918,50.899883],[-0.502973,50.896957],[-0.514927,50.888943],[-0.51928,50.889814],[-0.520736,50.887652],[-0.523768,50.885959],[-0.523966,50.883913],[-0.524792,50.882984],[-0.527173,50.882968],[-0.529275,50.881418],[-0.530759,50.881747],[-0.532825,50.881151],[-0.534028,50.88244],[-0.535619,50.885806],[-0.536449,50.886216],[-0.538179,50.886223],[-0.541408,50.885218],[-0.545314,50.88492],[-0.547301,50.884391],[-0.547401,50.883574],[-0.543938,50.881407],[-0.545791,50.880643],[-0.548864,50.880243],[-0.555256,50.88202],[-0.558639,50.88457],[-0.560794,50.88774],[-0.560017,50.888958],[-0.558827,50.889878],[-0.550517,50.892118],[-0.548591,50.892915],[-0.54728,50.892153],[-0.547218,50.889953],[-0.546284,50.889583],[-0.545472,50.889432],[-0.54417,50.890018],[-0.542965,50.891216],[-0.543129,50.893601],[-0.543989,50.894812],[-0.54331,50.895279],[-0.543492,50.89817],[-0.545628,50.899485],[-0.547149,50.899686],[-0.550393,50.899053],[-0.554041,50.902919],[-0.55503,50.903391],[-0.555727,50.905055],[-0.552482,50.908916],[-0.551983,50.911692],[-0.551156,50.91329],[-0.548955,50.914027],[-0.545811,50.914106],[-0.54354,50.913348],[-0.536343,50.913363],[-0.537501,50.91586],[-0.536099,50.916875],[-0.536546,50.916579],[-0.538091,50.917679],[-0.542006,50.918855],[-0.541987,50.919112],[-0.542243,50.918931],[-0.544711,50.92021],[-0.544872,50.921499],[-0.54746,50.923917],[-0.547824,50.925247],[-0.546359,50.927391],[-0.547106,50.927031],[-0.547232,50.9273],[-0.546906,50.928324],[-0.547173,50.929305],[-0.543039,50.930112],[-0.534502,50.93302],[-0.533357,50.934114],[-0.53343,50.936243],[-0.529141,50.938182],[-0.527789,50.937801],[-0.52602,50.938093],[-0.524906,50.936095],[-0.522934,50.935271],[-0.518334,50.935576],[-0.51374,50.935328],[-0.513231,50.935013],[-0.513437,50.935312],[-0.512301,50.935555],[-0.511121,50.936423],[-0.511413,50.938147],[-0.512628,50.939714],[-0.512652,50.940845],[-0.513527,50.941917],[-0.512116,50.943058],[-0.510129,50.943492],[-0.508534,50.942967],[-0.506227,50.94316],[-0.502728,50.945684],[-0.502392,50.946701],[-0.503,50.947806],[-0.502073,50.949133],[-0.502717,50.950163],[-0.50183,50.951776],[-0.500535,50.951366],[-0.500031,50.951379],[-0.499169,50.952391],[-0.496757,50.953039],[-0.495258,50.952627],[-0.494178,50.951877],[-0.492508,50.95201],[-0.491984,50.951741],[-0.490807,50.952641],[-0.488973,50.952906],[-0.487865,50.952734],[-0.487472,50.952371],[-0.487003,50.952523],[-0.485551,50.951992],[-0.486912,50.952577],[-0.487471,50.952399],[-0.487747,50.952693],[-0.48805,50.952847],[-0.488983,50.952939],[-0.490769,50.952702],[-0.491985,50.951773],[-0.492497,50.952041],[-0.494231,50.951916],[-0.495184,50.952631],[-0.495967,50.952942],[-0.496499,50.953056],[-0.496983,50.953057],[-0.499239,50.952396],[-0.500069,50.951434],[-0.500499,50.95141],[-0.501876,50.951832],[-0.502791,50.95268],[-0.502543,50.953692],[-0.504109,50.954327],[-0.503478,50.95497],[-0.504793,50.956225],[-0.509046,50.956592],[-0.51634,50.956074],[-0.51661,50.956404],[-0.516648,50.956036],[-0.517128,50.955954],[-0.519064,50.956375],[-0.519992,50.956306],[-0.524213,50.953548],[-0.529015,50.952563],[-0.530055,50.953162],[-0.531786,50.953379],[-0.532144,50.954114],[-0.534005,50.954254],[-0.535144,50.955291],[-0.534708,50.956481],[-0.534947,50.957196],[-0.532456,50.958312],[-0.531305,50.959599],[-0.529496,50.960023],[-0.527409,50.961439],[-0.52755,50.963161],[-0.526726,50.963742],[-0.526751,50.964152],[-0.528457,50.965521],[-0.53011,50.966335],[-0.530541,50.9671],[-0.528314,50.971893],[-0.528145,50.973327],[-0.52667,50.973891],[-0.526619,50.975095],[-0.526855,50.974478],[-0.528808,50.975033],[-0.529685,50.977696],[-0.5292,50.978906],[-0.525569,50.980117],[-0.524824,50.980505],[-0.52311,50.981964],[-0.523267,50.982252],[-0.524558,50.98229],[-0.525158,50.984264],[-0.524918,50.986874],[-0.523676,50.987588],[-0.523642,50.988774],[-0.522136,50.988653],[-0.521191,50.990312],[-0.519246,50.990129],[-0.518875,50.990657],[-0.517964,50.990806],[-0.517337,50.989805],[-0.516639,50.989594],[-0.51505,50.990175],[-0.51039,50.99018],[-0.509771,50.989832],[-0.507361,50.990394],[-0.50671,50.992903],[-0.507429,50.993216],[-0.507128,50.99374],[-0.50809,50.994013],[-0.507723,50.995062],[-0.508806,50.996094],[-0.511102,50.996308],[-0.511944,50.995865],[-0.512991,50.996293],[-0.515214,50.996135],[-0.515959,50.996698],[-0.515885,50.997487],[-0.516488,50.997458],[-0.516706,50.997122],[-0.517182,50.997235],[-0.517645,50.998554],[-0.517409,50.999205],[-0.516669,50.999642],[-0.51631,51.000747],[-0.514745,51.00141],[-0.513902,51.002416],[-0.513136,51.002212],[-0.512537,51.002414],[-0.510914,51.003913],[-0.511493,51.00515],[-0.51078,51.005829],[-0.51104,51.00673],[-0.510537,51.007944],[-0.509252,51.008141],[-0.507472,51.007633],[-0.506616,51.006753],[-0.505131,51.00605],[-0.504368,51.00628],[-0.50399,51.007577],[-0.502703,51.008048],[-0.503582,51.008423],[-0.503243,51.009041],[-0.501702,51.009247],[-0.501097,51.00971],[-0.499101,51.009098],[-0.498763,51.009393],[-0.498901,51.010357],[-0.497055,51.011116],[-0.496402,51.011112],[-0.496016,51.010349],[-0.494605,51.010709],[-0.494545,51.011281],[-0.493644,51.010827],[-0.492442,51.011169],[-0.49193,51.010858],[-0.492518,51.010645],[-0.492483,51.009814],[-0.491144,51.010306],[-0.489472,51.009563],[-0.486221,51.010106],[-0.485429,51.010643],[-0.48429,51.010872],[-0.483494,51.011622],[-0.484305,51.012173],[-0.484445,51.013464],[-0.485638,51.014123],[-0.486972,51.015852],[-0.486569,51.016747],[-0.485348,51.016477],[-0.484161,51.018196],[-0.482832,51.01796],[-0.48125,51.018501],[-0.48068,51.019421],[-0.47931,51.019677],[-0.47865,51.019392],[-0.477907,51.019506],[-0.477059,51.019856],[-0.476843,51.020606],[-0.475893,51.020884],[-0.476035,51.021454],[-0.477054,51.021268],[-0.477606,51.023058],[-0.476451,51.023514],[-0.476671,51.024721],[-0.4759,51.02481],[-0.475848,51.025426],[-0.475145,51.025465],[-0.476568,51.02666],[-0.476259,51.027044],[-0.475464,51.027018],[-0.474953,51.028074],[-0.47517,51.028364],[-0.47613,51.028458],[-0.474868,51.029829],[-0.475779,51.030087],[-0.476279,51.030768],[-0.476131,51.03247],[-0.475498,51.033019],[-0.474046,51.033028],[-0.473194,51.03385],[-0.473981,51.033999],[-0.474434,51.035659],[-0.475901,51.036295],[-0.475378,51.038091],[-0.476061,51.038768],[-0.477251,51.038873],[-0.477713,51.038305],[-0.478986,51.038024],[-0.481164,51.038128],[-0.48277,51.038643],[-0.48382,51.040143],[-0.483927,51.040992],[-0.483527,51.041673],[-0.481395,51.042677],[-0.481466,51.043899],[-0.480497,51.043774],[-0.479126,51.044756],[-0.478735,51.04696],[-0.479619,51.047295],[-0.480071,51.048179],[-0.479215,51.04816],[-0.477604,51.049997],[-0.478148,51.050126],[-0.478125,51.050607],[-0.476499,51.051867],[-0.477655,51.052054],[-0.477766,51.052648],[-0.476929,51.05309],[-0.477207,51.054325],[-0.476366,51.055001],[-0.475653,51.056408],[-0.476364,51.057356],[-0.477473,51.057275],[-0.477828,51.057827],[-0.478151,51.057304],[-0.479635,51.057068],[-0.481983,51.055896],[-0.482649,51.056378],[-0.483804,51.056483],[-0.48415,51.056996],[-0.483559,51.05734],[-0.484287,51.058663],[-0.484089,51.058896],[-0.483182,51.058832],[-0.483501,51.059791],[-0.483139,51.060404],[-0.484319,51.060649],[-0.484316,51.060993],[-0.483438,51.06135],[-0.484545,51.062379],[-0.484072,51.062957],[-0.482992,51.063004],[-0.48352,51.063658],[-0.482212,51.064386],[-0.48133,51.064469],[-0.480511,51.063626],[-0.479352,51.063517],[-0.479239,51.064999],[-0.478639,51.065408],[-0.478903,51.065742],[-0.478352,51.066468],[-0.478956,51.066635],[-0.478755,51.067312],[-0.479712,51.067296],[-0.480129,51.067837],[-0.481126,51.067745],[-0.481598,51.06736],[-0.482318,51.067562],[-0.48222,51.068143],[-0.48456,51.068021],[-0.484269,51.068616],[-0.485094,51.068826],[-0.485112,51.069292],[-0.486477,51.070091],[-0.487198,51.080034],[-0.489041,51.084965],[-0.488724,51.086593],[-0.490087,51.089667],[-0.491289,51.091141],[-0.492109,51.094443],[-0.490823,51.094409],[-0.490411,51.095963],[-0.489222,51.096072],[-0.48845,51.097311],[-0.483009,51.096162],[-0.47885,51.097263],[-0.475967,51.096826],[-0.474463,51.096918],[-0.470275,51.098483],[-0.460745,51.099037],[-0.456847,51.100553],[-0.454245,51.100319],[-0.452029,51.099477],[-0.451181,51.099645],[-0.450472,51.100268],[-0.446102,51.100615],[-0.44485,51.099593],[-0.443794,51.101083],[-0.441058,51.101736],[-0.441196,51.103252],[-0.440182,51.102782],[-0.440065,51.102045],[-0.439471,51.101992],[-0.439537,51.101066],[-0.439966,51.100828],[-0.438827,51.100297],[-0.442343,51.099092],[-0.442504,51.098128],[-0.441433,51.098017],[-0.441214,51.09774],[-0.438436,51.097908],[-0.437244,51.098207],[-0.435548,51.099689],[-0.433049,51.100693],[-0.428123,51.101399],[-0.426532,51.102488],[-0.421581,51.103561],[-0.421107,51.104249],[-0.419198,51.105191],[-0.411179,51.106777],[-0.409482,51.107527],[-0.406847,51.107324],[-0.404381,51.107632],[-0.404015,51.108069],[-0.40385,51.107697],[-0.401931,51.107794],[-0.400218,51.10842],[-0.400923,51.109694],[-0.399162,51.110103],[-0.399651,51.111609],[-0.398094,51.112342],[-0.396504,51.112176],[-0.395501,51.11388],[-0.391525,51.116511],[-0.390345,51.11473],[-0.384575,51.114775],[-0.383101,51.116994],[-0.379352,51.117108],[-0.375955,51.116709],[-0.370141,51.11741],[-0.36734,51.117436],[-0.36518,51.117978],[-0.365465,51.118517],[-0.364545,51.119493],[-0.36363,51.118789],[-0.361845,51.118906],[-0.36146,51.119302],[-0.361399,51.118996],[-0.360018,51.119009],[-0.360452,51.119191],[-0.360258,51.119611],[-0.35924,51.119775],[-0.359664,51.120577],[-0.358033,51.12103],[-0.35533,51.120049],[-0.353928,51.118699],[-0.352787,51.118279],[-0.350501,51.118221],[-0.348118,51.118791],[-0.344356,51.118925],[-0.342015,51.119906],[-0.33625,51.120974],[-0.331619,51.122465],[-0.330569,51.123054],[-0.329502,51.124325],[-0.326368,51.125786],[-0.32061,51.125115],[-0.318215,51.124349],[-0.312551,51.124019],[-0.309627,51.124541],[-0.309628,51.124874],[-0.309185,51.124715],[-0.308867,51.125048],[-0.305593,51.124448],[-0.300347,51.124736],[-0.291598,51.12691],[-0.289316,51.128139],[-0.287636,51.129893],[-0.286391,51.130492],[-0.284642,51.130637],[-0.279397,51.129974],[-0.275291,51.130309],[-0.26719,51.132909],[-0.265929,51.133914],[-0.264671,51.135662],[-0.260503,51.138086],[-0.252463,51.139709],[-0.249029,51.141755],[-0.2402,51.143132],[-0.237594,51.142462]]]]}}]}