{"type":"FeatureCollection","features":[{"type":"Feature","properties":{"slug":"hounslow","gss_code":"E09000018","name":"Hounslow"},"geometry":{"type":"MultiPolygon","coordinates":[[[[-0.326394,51.460886],[-0.326432,51.460919],[-0.326393,51.460891],[-0.326394,51.460886]]],[[[-0.32434,51.464567],[-0.323989,51.464982],[-0.323686,51.465117],[-0.32434,51.464567]]],[[[-0.322575,51.465341],[-0.321737,51.465364],[-0.321736,51.465363],[-0.322575,51.465341]]],[[[-0.320907,51.465982],[-0.3213,51.466875],[-0.321219,51.469561],[-0.320469,51.47047],[-0.319776,51.47068],[-0.320907,51.465982]]],[[[-0.298569,51.484112],[-0.299039,51.484667],[-0.298651,51.484515],[-0.298112,51.484849],[-0.298437,51.485037],[-0.297669,51.485222],[-0.298569,51.484112]]],[[[-0.280799,51.484722],[-0.281799,51.485355],[-0.280426,51.484797],[-0.280799,51.484722]]],[[[-0.247566,51.486541],[-0.246236,51.48759],[-0.244478,51.488274],[-0.247566,51.486541]]],[[[-0.277402,51.499086],[-0.272402,51.496156],[-0.271303,51.494801],[-0.269061,51.494026],[-0.267677,51.493919],[-0.255422,51.494978],[-0.255606,51.496033],[-0.252772,51.499888],[-0.253041,51.501422],[-0.25129,51.499858],[-0.249203,51.49695],[-0.24526,51.49834],[-0.244983,51.497897],[-0.24442,51.497939],[-0.245566,51.490053],[-0.244517,51.488702],[-0.247638,51.487341],[-0.249713,51.485694],[-0.24943,51.485564],[-0.251401,51.482178],[-0.251528,51.477334],[-0.252697,51.475058],[-0.254652,51.472908],[-0.258066,51.471659],[-0.262135,51.471357],[-0.265679,51.471924],[-0.269125,51.473551],[-0.273062,51.476968],[-0.276717,51.483338],[-0.281566,51.486287],[-0.28725,51.487931],[-0.287447,51.487613],[-0.292462,51.487464],[-0.299016,51.485306],[-0.300402,51.483977],[-0.299966,51.484136],[-0.299717,51.483258],[-0.300506,51.483794],[-0.30142,51.483377],[-0.300363,51.483508],[-0.300182,51.483169],[-0.303394,51.482594],[-0.304206,51.483222],[-0.305088,51.482671],[-0.306273,51.482793],[-0.304864,51.482296],[-0.304022,51.482958],[-0.304385,51.482174],[-0.300091,51.482701],[-0.300929,51.481702],[-0.303538,51.479897],[-0.304119,51.479607],[-0.304668,51.479924],[-0.304278,51.479603],[-0.304648,51.479601],[-0.304463,51.479133],[-0.305214,51.478271],[-0.30575,51.478344],[-0.305358,51.478139],[-0.306175,51.476962],[-0.307066,51.477045],[-0.306264,51.476866],[-0.306931,51.47621],[-0.308074,51.475645],[-0.308041,51.475863],[-0.308749,51.47588],[-0.308234,51.475576],[-0.309314,51.475021],[-0.309587,51.475242],[-0.309351,51.474973],[-0.309766,51.475166],[-0.309507,51.474905],[-0.310104,51.474924],[-0.309993,51.474667],[-0.310617,51.474925],[-0.31025,51.474529],[-0.310663,51.474694],[-0.310626,51.474381],[-0.311152,51.474718],[-0.310716,51.474327],[-0.311318,51.474557],[-0.311309,51.474142],[-0.311652,51.474447],[-0.311337,51.474086],[-0.311846,51.474339],[-0.31146,51.474007],[-0.312032,51.474217],[-0.311643,51.473925],[-0.312017,51.473751],[-0.312467,51.473997],[-0.312171,51.473708],[-0.312712,51.473884],[-0.31247,51.473672],[-0.31296,51.473748],[-0.312904,51.473513],[-0.313446,51.473902],[-0.313101,51.473455],[-0.313881,51.473466],[-0.313856,51.473197],[-0.314206,51.473459],[-0.313918,51.473191],[-0.3143,51.473264],[-0.314291,51.473054],[-0.314717,51.4734],[-0.314419,51.472971],[-0.316,51.472463],[-0.316249,51.47266],[-0.316197,51.472402],[-0.320199,51.471304],[-0.321446,51.470489],[-0.322532,51.470686],[-0.321497,51.470403],[-0.322234,51.469037],[-0.321774,51.465432],[-0.323514,51.46533],[-0.324038,51.465042],[-0.326778,51.461643],[-0.326893,51.461158],[-0.326437,51.460864],[-0.326739,51.460053],[-0.32641,51.460667],[-0.326513,51.459302],[-0.325588,51.458081],[-0.326934,51.457011],[-0.328455,51.457999],[-0.330374,51.457934],[-0.3314,51.457357],[-0.333028,51.455378],[-0.336273,51.455679],[-0.336982,51.454648],[-0.337513,51.454767],[-0.337737,51.455475],[-0.338549,51.456099],[-0.338953,51.455881],[-0.340645,51.457269],[-0.340111,51.459241],[-0.341707,51.459017],[-0.342735,51.458072],[-0.345289,51.457859],[-0.346024,51.45726],[-0.348569,51.456765],[-0.352811,51.456864],[-0.353487,51.45818],[-0.355813,51.458381],[-0.359855,51.458202],[-0.362636,51.457683],[-0.365032,51.457806],[-0.367837,51.457425],[-0.368435,51.456863],[-0.37244,51.457235],[-0.372688,51.456998],[-0.373024,51.457473],[-0.375258,51.456271],[-0.383751,51.449506],[-0.38449,51.449895],[-0.387787,51.449371],[-0.386257,51.448124],[-0.386223,51.446712],[-0.382905,51.445095],[-0.379748,51.444322],[-0.379546,51.443104],[-0.378205,51.442484],[-0.377126,51.44246],[-0.375927,51.443087],[-0.373881,51.443034],[-0.373078,51.443669],[-0.366823,51.441623],[-0.377761,51.436819],[-0.377872,51.43628],[-0.376093,51.435506],[-0.38315,51.432238],[-0.387726,51.428888],[-0.387935,51.428624],[-0.387103,51.428176],[-0.388387,51.427997],[-0.384082,51.422692],[-0.385431,51.420629],[-0.391019,51.423146],[-0.392754,51.423444],[-0.392912,51.423277],[-0.391317,51.422315],[-0.394512,51.423238],[-0.398112,51.423556],[-0.40176,51.423312],[-0.405362,51.42248],[-0.408441,51.423835],[-0.409007,51.425451],[-0.410868,51.427342],[-0.413086,51.427855],[-0.412453,51.428782],[-0.414352,51.429296],[-0.413806,51.430075],[-0.4179,51.431028],[-0.417294,51.431918],[-0.418356,51.431867],[-0.419079,51.432359],[-0.421154,51.432172],[-0.42358,51.431161],[-0.423499,51.430878],[-0.427486,51.43082],[-0.427831,51.429252],[-0.429425,51.429395],[-0.429534,51.428798],[-0.43264,51.429018],[-0.439983,51.430626],[-0.439752,51.43462],[-0.447717,51.435003],[-0.446289,51.439996],[-0.45366,51.438494],[-0.456475,51.438225],[-0.455391,51.442119],[-0.457444,51.442999],[-0.457462,51.449091],[-0.461482,51.448992],[-0.46132,51.452391],[-0.459838,51.45224],[-0.459294,51.452715],[-0.458724,51.456342],[-0.455736,51.455232],[-0.455364,51.455282],[-0.455422,51.455624],[-0.45395,51.455452],[-0.453783,51.454853],[-0.449123,51.453806],[-0.44395,51.453291],[-0.441424,51.456778],[-0.434997,51.456884],[-0.434786,51.457095],[-0.436579,51.457851],[-0.433597,51.461718],[-0.421925,51.466624],[-0.420282,51.466781],[-0.420209,51.467142],[-0.411132,51.469888],[-0.411363,51.470498],[-0.412866,51.47134],[-0.414738,51.473422],[-0.415775,51.473939],[-0.414891,51.476909],[-0.416747,51.480571],[-0.416402,51.482109],[-0.41692,51.482463],[-0.416207,51.48296],[-0.414733,51.485569],[-0.413972,51.486077],[-0.41459,51.48617],[-0.414537,51.486443],[-0.413928,51.48722],[-0.413315,51.487224],[-0.41263,51.488528],[-0.41143,51.494858],[-0.410538,51.496207],[-0.410824,51.497739],[-0.409221,51.50033],[-0.389375,51.495158],[-0.386575,51.494685],[-0.384547,51.494683],[-0.381841,51.495224],[-0.377877,51.496607],[-0.377903,51.495469],[-0.375824,51.495392],[-0.373809,51.49196],[-0.372497,51.491028],[-0.371919,51.490991],[-0.371851,51.490476],[-0.367913,51.491789],[-0.368355,51.492299],[-0.365794,51.493654],[-0.365363,51.493314],[-0.363734,51.494696],[-0.363118,51.495876],[-0.361878,51.496087],[-0.358053,51.497768],[-0.350619,51.499107],[-0.349709,51.498981],[-0.342279,51.495988],[-0.335265,51.496158],[-0.331231,51.49551],[-0.329945,51.495021],[-0.327341,51.496002],[-0.326127,51.495004],[-0.324676,51.495994],[-0.323899,51.495717],[-0.323414,51.495897],[-0.319181,51.494217],[-0.315794,51.495907],[-0.31528,51.495555],[-0.315712,51.495348],[-0.314468,51.494357],[-0.315085,51.493964],[-0.314389,51.493457],[-0.313885,51.493608],[-0.311911,51.491971],[-0.305431,51.494537],[-0.305852,51.496183],[-0.301377,51.495194],[-0.301133,51.494406],[-0.297537,51.494885],[-0.299947,51.497856],[-0.300669,51.499329],[-0.293898,51.501578],[-0.288669,51.500832],[-0.285712,51.500784],[-0.280772,51.502848],[-0.277402,51.499086]]]]}}]}