{"type":"FeatureCollection","features":[{"type":"Feature","properties":{"slug":"hyndburn","gss_code":"E07000120","name":"Hyndburn"},"geometry":{"type":"Polygon","coordinates":[[[-2.393913,53.815171],[-2.393404,53.814326],[-2.395193,53.812228],[-2.398706,53.810522],[-2.399386,53.809848],[-2.398988,53.807853],[-2.397827,53.806082],[-2.398904,53.803539],[-2.397074,53.803008],[-2.393074,53.803238],[-2.389725,53.802397],[-2.379455,53.802726],[-2.378722,53.802376],[-2.379159,53.801078],[-2.378607,53.800515],[-2.377123,53.80084],[-2.374735,53.800662],[-2.371097,53.80153],[-2.369932,53.801391],[-2.369067,53.799314],[-2.369274,53.797619],[-2.37149,53.795715],[-2.371148,53.794982],[-2.369838,53.794139],[-2.365153,53.793059],[-2.363552,53.793493],[-2.362271,53.794579],[-2.360849,53.794669],[-2.359618,53.794335],[-2.359139,53.793244],[-2.357795,53.792889],[-2.356427,53.792991],[-2.357463,53.79481],[-2.358883,53.795299],[-2.358683,53.796367],[-2.359298,53.797062],[-2.358165,53.797417],[-2.357611,53.798194],[-2.356789,53.798456],[-2.348287,53.79441],[-2.344558,53.793282],[-2.343686,53.793374],[-2.343156,53.794435],[-2.342306,53.794827],[-2.340852,53.794172],[-2.341272,53.793718],[-2.340802,53.793231],[-2.341095,53.79252],[-2.336233,53.791697],[-2.337839,53.789554],[-2.338757,53.7891],[-2.33738,53.786363],[-2.335584,53.785072],[-2.336098,53.783421],[-2.335797,53.782495],[-2.330055,53.780985],[-2.329187,53.780085],[-2.329314,53.779628],[-2.331195,53.778781],[-2.331682,53.777678],[-2.330374,53.773536],[-2.331168,53.770936],[-2.330706,53.770282],[-2.331317,53.770025],[-2.331427,53.769551],[-2.330372,53.769033],[-2.330118,53.768029],[-2.328757,53.767013],[-2.32907,53.766625],[-2.328646,53.766367],[-2.328425,53.764379],[-2.327858,53.763538],[-2.328363,53.762839],[-2.328043,53.76181],[-2.32863,53.761475],[-2.328609,53.761032],[-2.328006,53.760838],[-2.327223,53.759736],[-2.326493,53.759579],[-2.325825,53.758615],[-2.322139,53.757396],[-2.319915,53.755567],[-2.316402,53.751957],[-2.313724,53.751575],[-2.314109,53.747039],[-2.326148,53.747336],[-2.325611,53.743215],[-2.324473,53.74267],[-2.323807,53.737719],[-2.326257,53.737795],[-2.32786,53.735332],[-2.325988,53.735173],[-2.325853,53.734354],[-2.327364,53.734217],[-2.329562,53.732194],[-2.331146,53.732479],[-2.331801,53.731338],[-2.335793,53.730393],[-2.334555,53.729282],[-2.336762,53.728319],[-2.338192,53.729775],[-2.339506,53.727626],[-2.342818,53.725982],[-2.342252,53.724336],[-2.342838,53.723251],[-2.344235,53.722485],[-2.349877,53.722468],[-2.350131,53.721843],[-2.353297,53.722273],[-2.355282,53.722205],[-2.3608,53.716498],[-2.369731,53.714068],[-2.382899,53.711214],[-2.395755,53.709631],[-2.408347,53.705278],[-2.410998,53.705176],[-2.412998,53.704733],[-2.413984,53.70497],[-2.41997,53.708318],[-2.420192,53.708701],[-2.419498,53.709309],[-2.419619,53.70986],[-2.418517,53.71076],[-2.418289,53.711431],[-2.425844,53.714756],[-2.432627,53.718957],[-2.433688,53.719214],[-2.432783,53.719557],[-2.432281,53.720534],[-2.433529,53.727669],[-2.439762,53.733374],[-2.439962,53.739014],[-2.440829,53.740171],[-2.441242,53.742246],[-2.441801,53.742401],[-2.44124,53.743244],[-2.441987,53.745229],[-2.441505,53.745898],[-2.440769,53.746044],[-2.440901,53.746722],[-2.43937,53.747832],[-2.440068,53.749418],[-2.441021,53.75026],[-2.440683,53.750415],[-2.442038,53.75147],[-2.441928,53.751996],[-2.444835,53.753128],[-2.444641,53.753594],[-2.445336,53.753709],[-2.44508,53.754008],[-2.446189,53.755104],[-2.448169,53.756056],[-2.450239,53.756019],[-2.450634,53.756308],[-2.450975,53.756011],[-2.451633,53.756468],[-2.451105,53.757344],[-2.452004,53.759536],[-2.4519,53.761633],[-2.450912,53.762892],[-2.448914,53.7644],[-2.44806,53.765906],[-2.446317,53.76659],[-2.452334,53.769647],[-2.453603,53.771096],[-2.453125,53.77166],[-2.453533,53.772993],[-2.455497,53.774032],[-2.459473,53.777273],[-2.460792,53.778047],[-2.462801,53.778572],[-2.465808,53.780813],[-2.462009,53.780926],[-2.459359,53.781544],[-2.454424,53.783736],[-2.44966,53.786837],[-2.447478,53.78748],[-2.447597,53.788971],[-2.444354,53.791052],[-2.440064,53.795223],[-2.433615,53.798493],[-2.423358,53.802811],[-2.407153,53.813317],[-2.401305,53.813923],[-2.399969,53.815823],[-2.398709,53.815787],[-2.396737,53.816619],[-2.393913,53.815171]]]}}]}