{"type":"FeatureCollection","features":[{"type":"Feature","properties":{"slug":"ipswich","gss_code":"E07000202","name":"Ipswich"},"geometry":{"type":"Polygon","coordinates":[[[1.144897,52.093988],[1.14947,52.093728],[1.149336,52.092883],[1.151956,52.09242],[1.151627,52.091978],[1.153591,52.090981],[1.153726,52.091221],[1.154287,52.091017],[1.159554,52.087983],[1.158177,52.087005],[1.158733,52.086797],[1.159095,52.087186],[1.159614,52.087099],[1.164133,52.085884],[1.163401,52.085068],[1.163591,52.084228],[1.162335,52.082772],[1.16569,52.082344],[1.165295,52.081881],[1.165712,52.081688],[1.164996,52.081066],[1.165587,52.08101],[1.164586,52.080418],[1.164258,52.0795],[1.164652,52.079437],[1.165834,52.080631],[1.170983,52.080813],[1.171362,52.081247],[1.189894,52.08045],[1.190004,52.079324],[1.188365,52.07882],[1.186827,52.077286],[1.192154,52.075129],[1.190995,52.074104],[1.196615,52.073166],[1.196647,52.072017],[1.197366,52.071151],[1.200116,52.069503],[1.199515,52.069167],[1.201024,52.067752],[1.20184,52.067499],[1.202294,52.067951],[1.20355,52.06739],[1.206455,52.064019],[1.205536,52.063664],[1.206058,52.063018],[1.205441,52.062756],[1.20521,52.062141],[1.204895,52.058425],[1.206197,52.053741],[1.205688,52.052211],[1.203828,52.049471],[1.209213,52.048477],[1.205747,52.040699],[1.204448,52.040826],[1.204107,52.040299],[1.203457,52.040519],[1.202929,52.03994],[1.203439,52.039742],[1.202094,52.038746],[1.203296,52.038084],[1.201944,52.037405],[1.20468,52.035839],[1.212064,52.03418],[1.22361,52.029434],[1.219369,52.022883],[1.218342,52.023796],[1.215033,52.025621],[1.211311,52.023164],[1.212157,52.022691],[1.209477,52.020769],[1.204231,52.023456],[1.201678,52.024331],[1.195434,52.024533],[1.193858,52.023717],[1.191518,52.023118],[1.190694,52.0225],[1.190086,52.023031],[1.186611,52.021994],[1.18481,52.024327],[1.183104,52.024471],[1.182849,52.022706],[1.180987,52.022605],[1.178847,52.021547],[1.173744,52.024316],[1.169719,52.030373],[1.166226,52.029863],[1.165445,52.030609],[1.16422,52.031102],[1.160591,52.031684],[1.159721,52.032187],[1.158003,52.034578],[1.158007,52.03681],[1.158496,52.038283],[1.160965,52.041854],[1.163725,52.045043],[1.162749,52.045425],[1.163123,52.046066],[1.162403,52.046243],[1.162125,52.045948],[1.160933,52.046419],[1.160513,52.048954],[1.158043,52.050856],[1.155099,52.05198],[1.153948,52.052142],[1.153691,52.051736],[1.145209,52.051446],[1.143396,52.051975],[1.141769,52.051852],[1.141037,52.05354],[1.140102,52.05423],[1.138442,52.054726],[1.138327,52.055058],[1.13823,52.05472],[1.138664,52.054362],[1.138344,52.054255],[1.136708,52.054659],[1.135299,52.055918],[1.134546,52.059198],[1.13428,52.057785],[1.134943,52.056606],[1.134825,52.055895],[1.136346,52.054416],[1.137767,52.053944],[1.139853,52.054009],[1.141496,52.051686],[1.143389,52.051684],[1.14503,52.051166],[1.150142,52.05112],[1.155669,52.051629],[1.157649,52.050664],[1.158908,52.04959],[1.160244,52.046852],[1.160125,52.044317],[1.156536,52.040364],[1.157068,52.040417],[1.156747,52.040126],[1.15728,52.039183],[1.156883,52.038605],[1.156136,52.038408],[1.155565,52.036617],[1.154741,52.035633],[1.15289,52.034838],[1.15102,52.035031],[1.150889,52.034611],[1.14911,52.034036],[1.146203,52.033943],[1.144315,52.033226],[1.141119,52.032823],[1.139376,52.032081],[1.136537,52.032129],[1.136296,52.030931],[1.134469,52.030083],[1.134031,52.030451],[1.132012,52.030328],[1.131575,52.03059],[1.130186,52.030447],[1.129577,52.029955],[1.12894,52.030141],[1.129339,52.03074],[1.128508,52.030893],[1.128386,52.031394],[1.127609,52.031575],[1.126965,52.032227],[1.126924,52.032868],[1.125981,52.032722],[1.126204,52.033607],[1.125659,52.034191],[1.124996,52.033909],[1.122598,52.035506],[1.119755,52.03617],[1.117608,52.035322],[1.116266,52.035431],[1.112944,52.034578],[1.112762,52.037613],[1.111907,52.040436],[1.111135,52.041902],[1.10868,52.043619],[1.107277,52.046519],[1.114314,52.048597],[1.113717,52.049347],[1.1126,52.049606],[1.111361,52.051656],[1.110529,52.051658],[1.11025,52.053502],[1.113509,52.05423],[1.11682,52.055922],[1.122004,52.057425],[1.120729,52.060092],[1.122021,52.061522],[1.108763,52.070776],[1.109216,52.071043],[1.109222,52.073558],[1.110907,52.073342],[1.110921,52.074294],[1.111534,52.074727],[1.110518,52.075353],[1.112071,52.076443],[1.110394,52.078562],[1.10934,52.078386],[1.110342,52.079396],[1.108668,52.080443],[1.109263,52.08196],[1.110342,52.081997],[1.1103,52.082705],[1.11123,52.083152],[1.111828,52.084837],[1.111195,52.084863],[1.11134,52.085559],[1.108885,52.085606],[1.109119,52.088097],[1.109594,52.088402],[1.110494,52.088362],[1.111028,52.089265],[1.112681,52.08878],[1.113786,52.09005],[1.120875,52.087404],[1.123363,52.087621],[1.129621,52.087321],[1.129868,52.087604],[1.132446,52.088034],[1.133512,52.087874],[1.138533,52.088393],[1.138474,52.089128],[1.139804,52.089271],[1.13942,52.0915],[1.140032,52.091792],[1.139552,52.093689],[1.140216,52.093708],[1.1403,52.094067],[1.141101,52.094282],[1.142224,52.0942],[1.142292,52.09447],[1.144586,52.094345],[1.144897,52.093988]]]}}]}