{"type":"FeatureCollection","features":[{"type":"Feature","properties":{"slug":"isles-of-scilly","gss_code":"E06000053","name":"Isles of Scilly"},"geometry":{"type":"MultiPolygon","coordinates":[[[[-6.400496,49.864793],[-6.400293,49.865205],[-6.399522,49.865267],[-6.399082,49.865258],[-6.398976,49.864904],[-6.400496,49.864793]]],[[[-6.398348,49.866035],[-6.398777,49.866313],[-6.398445,49.866405],[-6.398348,49.866035]]],[[[-6.385551,49.86652],[-6.386058,49.866778],[-6.386218,49.86655],[-6.386265,49.867033],[-6.385551,49.86652]]],[[[-6.397931,49.86639],[-6.397992,49.866399],[-6.397867,49.866627],[-6.397464,49.86646],[-6.397931,49.86639]]],[[[-6.387006,49.86752],[-6.387192,49.866947],[-6.388771,49.867461],[-6.388766,49.86707],[-6.389174,49.867017],[-6.389306,49.867976],[-6.387943,49.868099],[-6.387006,49.86752]]],[[[-6.398435,49.867012],[-6.399186,49.866993],[-6.39834,49.867938],[-6.397819,49.86741],[-6.398435,49.867012]]],[[[-6.399293,49.867742],[-6.400174,49.868783],[-6.399573,49.868859],[-6.399034,49.867987],[-6.399293,49.867742]]],[[[-6.399871,49.869588],[-6.400545,49.869782],[-6.400744,49.869302],[-6.401395,49.86939],[-6.401015,49.869698],[-6.401239,49.869955],[-6.402243,49.869798],[-6.402601,49.869993],[-6.402235,49.870246],[-6.402766,49.870255],[-6.400208,49.870864],[-6.399769,49.870159],[-6.399871,49.869588]]],[[[-6.402319,49.871751],[-6.402958,49.872054],[-6.402243,49.872402],[-6.401817,49.87214],[-6.402319,49.871751]]],[[[-6.36957,49.874175],[-6.370398,49.874651],[-6.36966,49.875722],[-6.369035,49.875493],[-6.369318,49.874842],[-6.369931,49.874644],[-6.369388,49.874526],[-6.36957,49.874175]]],[[[-6.418667,49.877591],[-6.41832,49.877834],[-6.41812,49.877706],[-6.418667,49.877591]]],[[[-6.417332,49.878015],[-6.417756,49.878118],[-6.417438,49.878272],[-6.417332,49.878015]]],[[[-6.411434,49.878599],[-6.411586,49.878838],[-6.41117,49.878877],[-6.411434,49.878599]]],[[[-6.417437,49.878372],[-6.417887,49.878529],[-6.417232,49.878686],[-6.417437,49.878372]]],[[[-6.41166,49.879136],[-6.412684,49.879283],[-6.412377,49.879791],[-6.411609,49.879834],[-6.41166,49.879136]]],[[[-6.36969,49.889994],[-6.370199,49.890059],[-6.370092,49.890258],[-6.36969,49.889994]]],[[[-6.354947,49.895051],[-6.354618,49.89612],[-6.35401,49.89633],[-6.353316,49.895162],[-6.354947,49.895051]]],[[[-6.356147,49.897161],[-6.355801,49.89764],[-6.355243,49.897267],[-6.356147,49.897161]]],[[[-6.35641,49.897465],[-6.356872,49.897792],[-6.356144,49.897821],[-6.356046,49.897572],[-6.35641,49.897465]]],[[[-6.348489,49.897676],[-6.347405,49.897901],[-6.347665,49.897341],[-6.347075,49.897039],[-6.345809,49.897355],[-6.346559,49.895776],[-6.345685,49.895179],[-6.34426,49.894965],[-6.34354,49.895352],[-6.342917,49.896061],[-6.343184,49.897282],[-6.342858,49.897468],[-6.342877,49.897187],[-6.34237,49.897278],[-6.342623,49.896915],[-6.341988,49.897169],[-6.341488,49.896293],[-6.341031,49.896507],[-6.340283,49.896057],[-6.340769,49.895882],[-6.34065,49.895328],[-6.33747,49.894101],[-6.335966,49.894359],[-6.33637,49.894679],[-6.33601,49.895353],[-6.336281,49.895939],[-6.337395,49.896616],[-6.338112,49.896672],[-6.338227,49.89759],[-6.336189,49.897431],[-6.335057,49.898153],[-6.335448,49.898394],[-6.334858,49.898659],[-6.335154,49.898315],[-6.333905,49.897918],[-6.333221,49.89806],[-6.333114,49.897594],[-6.331961,49.897132],[-6.331171,49.896255],[-6.328251,49.895004],[-6.327952,49.894622],[-6.328349,49.89441],[-6.329555,49.894628],[-6.330037,49.894141],[-6.329375,49.893029],[-6.328658,49.892822],[-6.327841,49.893062],[-6.326972,49.892582],[-6.327631,49.891983],[-6.327512,49.891274],[-6.328672,49.890377],[-6.329239,49.889143],[-6.32898,49.888845],[-6.329354,49.888691],[-6.329831,49.889246],[-6.330886,49.889032],[-6.331509,49.889486],[-6.331578,49.890284],[-6.332393,49.890619],[-6.332551,49.89114],[-6.333444,49.891531],[-6.334194,49.892415],[-6.334251,49.893673],[-6.335957,49.894052],[-6.338415,49.893367],[-6.33786,49.891739],[-6.3389,49.891853],[-6.339378,49.891134],[-6.337687,49.890583],[-6.336959,49.890007],[-6.336726,49.888875],[-6.335852,49.88844],[-6.336242,49.887571],[-6.335757,49.8868],[-6.336031,49.886277],[-6.337451,49.886365],[-6.339909,49.885704],[-6.339798,49.884743],[-6.338123,49.884554],[-6.339733,49.883354],[-6.341261,49.882914],[-6.341311,49.882563],[-6.341558,49.883099],[-6.342799,49.883258],[-6.343539,49.883997],[-6.343367,49.884923],[-6.34226,49.884887],[-6.341942,49.885498],[-6.343051,49.885789],[-6.342716,49.886146],[-6.342997,49.886426],[-6.343829,49.886306],[-6.343548,49.886563],[-6.344049,49.886999],[-6.344331,49.886876],[-6.344521,49.887545],[-6.345372,49.887794],[-6.345962,49.887501],[-6.345219,49.888851],[-6.345935,49.890018],[-6.346653,49.89011],[-6.347252,49.889792],[-6.347943,49.888889],[-6.348794,49.888744],[-6.348601,49.888308],[-6.349393,49.887887],[-6.349295,49.888242],[-6.350739,49.88842],[-6.351701,49.888281],[-6.352354,49.887781],[-6.352825,49.888357],[-6.352893,49.889497],[-6.353787,49.890806],[-6.351019,49.892438],[-6.350688,49.893507],[-6.34991,49.893412],[-6.349526,49.893705],[-6.349889,49.894986],[-6.351648,49.895655],[-6.351062,49.895816],[-6.350435,49.895442],[-6.349597,49.895933],[-6.349369,49.89643],[-6.350292,49.897335],[-6.349131,49.898198],[-6.348489,49.897676]]],[[[-6.372263,49.898472],[-6.371961,49.896857],[-6.369563,49.89683],[-6.36919,49.896215],[-6.36828,49.8963],[-6.368529,49.895425],[-6.367987,49.895191],[-6.367615,49.89408],[-6.366225,49.893897],[-6.366365,49.893362],[-6.365709,49.893106],[-6.366789,49.891979],[-6.368256,49.89153],[-6.368503,49.892002],[-6.369417,49.892017],[-6.369257,49.892702],[-6.369965,49.892875],[-6.369113,49.894765],[-6.370063,49.895684],[-6.370861,49.89569],[-6.371483,49.894934],[-6.37244,49.89518],[-6.374259,49.894754],[-6.37505,49.895114],[-6.376284,49.89503],[-6.376825,49.895533],[-6.377683,49.895489],[-6.377538,49.895962],[-6.378549,49.895927],[-6.378154,49.89608],[-6.378275,49.896396],[-6.376072,49.89618],[-6.375145,49.8965],[-6.374719,49.897529],[-6.375462,49.89831],[-6.374581,49.898841],[-6.375173,49.898996],[-6.374991,49.899166],[-6.374312,49.898985],[-6.373893,49.899215],[-6.373481,49.898789],[-6.373385,49.899421],[-6.372933,49.899187],[-6.373052,49.898822],[-6.372263,49.898472]]],[[[-6.374343,49.899221],[-6.374761,49.899295],[-6.374273,49.899502],[-6.374343,49.899221]]],[[[-6.375009,49.899392],[-6.375635,49.89998],[-6.37481,49.899691],[-6.375009,49.899392]]],[[[-6.280047,49.912905],[-6.280766,49.913067],[-6.280782,49.91345],[-6.280399,49.913516],[-6.280047,49.912905]]],[[[-6.362309,49.931098],[-6.362889,49.93154],[-6.361757,49.932722],[-6.360902,49.932206],[-6.361791,49.931162],[-6.362309,49.931098]]],[[[-6.2979,49.936836],[-6.296293,49.936996],[-6.295515,49.936198],[-6.293451,49.93548],[-6.291776,49.935542],[-6.290509,49.934936],[-6.290028,49.934187],[-6.288924,49.934013],[-6.288872,49.933458],[-6.287786,49.933394],[-6.288265,49.930893],[-6.286852,49.930918],[-6.285233,49.930205],[-6.283448,49.930836],[-6.281844,49.930827],[-6.281581,49.930378],[-6.282013,49.929018],[-6.280362,49.928934],[-6.279403,49.929421],[-6.278123,49.929573],[-6.277574,49.929083],[-6.276744,49.928958],[-6.276841,49.928524],[-6.27637,49.928713],[-6.277391,49.928163],[-6.27796,49.928305],[-6.277992,49.928059],[-6.280568,49.928776],[-6.281222,49.928516],[-6.281463,49.927834],[-6.281036,49.926525],[-6.279332,49.926478],[-6.278243,49.925905],[-6.277589,49.924876],[-6.278584,49.924124],[-6.278668,49.923089],[-6.275765,49.922896],[-6.276306,49.922717],[-6.276034,49.922384],[-6.276336,49.921777],[-6.275632,49.921571],[-6.27631,49.921194],[-6.276768,49.920252],[-6.278541,49.919537],[-6.277561,49.918088],[-6.278496,49.91732],[-6.278288,49.916502],[-6.279734,49.915787],[-6.279133,49.915039],[-6.280324,49.915498],[-6.282974,49.915827],[-6.283851,49.916356],[-6.283988,49.916738],[-6.283718,49.916628],[-6.283566,49.916998],[-6.284107,49.917299],[-6.285286,49.917275],[-6.286541,49.91663],[-6.286522,49.915923],[-6.285752,49.915276],[-6.283936,49.914826],[-6.284311,49.913421],[-6.283452,49.912865],[-6.284151,49.912671],[-6.283316,49.911679],[-6.284395,49.912236],[-6.284361,49.91148],[-6.284744,49.911215],[-6.287347,49.911197],[-6.287343,49.910307],[-6.287865,49.910023],[-6.291202,49.910693],[-6.292794,49.910392],[-6.294455,49.911245],[-6.296882,49.911635],[-6.297437,49.911107],[-6.296704,49.910567],[-6.297059,49.909856],[-6.297708,49.910108],[-6.297686,49.910424],[-6.298175,49.910278],[-6.297872,49.910533],[-6.299784,49.910995],[-6.300773,49.91212],[-6.3018,49.912089],[-6.302929,49.911581],[-6.303428,49.911005],[-6.303355,49.910083],[-6.302299,49.90945],[-6.301257,49.909719],[-6.300701,49.909008],[-6.302105,49.908901],[-6.302504,49.908165],[-6.300141,49.906027],[-6.30098,49.905132],[-6.302154,49.904957],[-6.30211,49.904533],[-6.30144,49.904248],[-6.302156,49.904248],[-6.302322,49.903713],[-6.3021,49.90349],[-6.303216,49.903663],[-6.303324,49.903091],[-6.303899,49.90298],[-6.304629,49.903564],[-6.304398,49.90413],[-6.306027,49.904368],[-6.306007,49.903851],[-6.306456,49.903816],[-6.306648,49.905152],[-6.30607,49.906098],[-6.307145,49.907063],[-6.308107,49.907349],[-6.308152,49.908454],[-6.309221,49.90878],[-6.31054,49.909711],[-6.311035,49.911928],[-6.312812,49.913226],[-6.315283,49.913616],[-6.317457,49.913259],[-6.318038,49.912563],[-6.318284,49.909957],[-6.317693,49.908657],[-6.321392,49.908481],[-6.322565,49.907713],[-6.323163,49.908098],[-6.323511,49.909174],[-6.325514,49.910166],[-6.327222,49.911589],[-6.327605,49.91254],[-6.32625,49.913328],[-6.326086,49.91383],[-6.326535,49.913938],[-6.325842,49.913794],[-6.324779,49.914683],[-6.324148,49.915962],[-6.322604,49.916426],[-6.321855,49.917219],[-6.318428,49.91605],[-6.317572,49.916405],[-6.317422,49.917191],[-6.318283,49.917516],[-6.318256,49.917914],[-6.317125,49.918117],[-6.316417,49.918605],[-6.317353,49.916956],[-6.317331,49.916419],[-6.316756,49.916363],[-6.31777,49.91626],[-6.316532,49.915179],[-6.314539,49.915193],[-6.312373,49.915709],[-6.311686,49.916093],[-6.312051,49.916673],[-6.311712,49.916977],[-6.310947,49.916953],[-6.30963,49.916323],[-6.308915,49.916677],[-6.307898,49.917963],[-6.308938,49.918806],[-6.308179,49.919145],[-6.308281,49.920033],[-6.309055,49.920086],[-6.309286,49.920738],[-6.310752,49.920534],[-6.312778,49.920941],[-6.310114,49.921119],[-6.309038,49.920856],[-6.308356,49.921693],[-6.308359,49.92266],[-6.309064,49.923533],[-6.310573,49.923989],[-6.312205,49.923202],[-6.313649,49.923447],[-6.312802,49.923717],[-6.311836,49.9235],[-6.310687,49.924059],[-6.311619,49.924561],[-6.313826,49.927615],[-6.312715,49.928029],[-6.309286,49.930392],[-6.30971,49.93121],[-6.308864,49.931876],[-6.309209,49.933554],[-6.308133,49.934243],[-6.305724,49.934961],[-6.304361,49.934391],[-6.302921,49.934556],[-6.300436,49.935477],[-6.299621,49.937354],[-6.299024,49.937469],[-6.2979,49.936836]]],[[[-6.385923,49.934306],[-6.385488,49.93454],[-6.385762,49.934217],[-6.385309,49.934188],[-6.385606,49.934026],[-6.385356,49.933412],[-6.386208,49.933014],[-6.386596,49.932231],[-6.386512,49.933021],[-6.386955,49.933446],[-6.38604,49.934031],[-6.38658,49.934115],[-6.386133,49.934386],[-6.386601,49.934835],[-6.386119,49.934953],[-6.385923,49.934306]]],[[[-6.350694,49.928113],[-6.354212,49.92865],[-6.354244,49.929352],[-6.3548,49.929778],[-6.357628,49.930292],[-6.355627,49.931957],[-6.354241,49.932285],[-6.353692,49.933049],[-6.353654,49.933764],[-6.354758,49.934781],[-6.355901,49.936661],[-6.355055,49.937847],[-6.354014,49.938424],[-6.353258,49.938403],[-6.352072,49.937566],[-6.350228,49.937295],[-6.351582,49.935618],[-6.351512,49.934501],[-6.352035,49.933591],[-6.349453,49.931818],[-6.348629,49.93002],[-6.348759,49.928839],[-6.349432,49.928311],[-6.350694,49.928113]]],[[[-6.347375,49.938937],[-6.348674,49.939189],[-6.348067,49.939702],[-6.347121,49.939457],[-6.347375,49.938937]]],[[[-6.274412,49.943288],[-6.276171,49.944296],[-6.273451,49.943993],[-6.273013,49.943575],[-6.274412,49.943288]]],[[[-6.24483,49.944663],[-6.245512,49.944372],[-6.246229,49.944622],[-6.246573,49.944263],[-6.246915,49.944621],[-6.246473,49.944744],[-6.248129,49.945459],[-6.246165,49.946091],[-6.244745,49.945649],[-6.24483,49.944663]]],[[[-6.25713,49.94577],[-6.258245,49.945853],[-6.259454,49.94685],[-6.257327,49.946453],[-6.25713,49.94577]]],[[[-6.276322,49.945351],[-6.277968,49.945369],[-6.277941,49.945784],[-6.276889,49.946662],[-6.275815,49.946137],[-6.276322,49.945351]]],[[[-6.379274,49.942058],[-6.379867,49.942088],[-6.380001,49.942435],[-6.381002,49.942064],[-6.380947,49.942739],[-6.380151,49.942808],[-6.379849,49.943358],[-6.379274,49.942058]]],[[[-6.264439,49.946211],[-6.266374,49.946158],[-6.266289,49.944789],[-6.265197,49.944234],[-6.263026,49.944357],[-6.262342,49.943361],[-6.261585,49.94311],[-6.261784,49.942837],[-6.262396,49.94306],[-6.26286,49.942794],[-6.262561,49.942191],[-6.263231,49.941863],[-6.264714,49.942621],[-6.267368,49.945534],[-6.267168,49.946465],[-6.266464,49.946393],[-6.265941,49.94681],[-6.266179,49.947263],[-6.266709,49.947336],[-6.266122,49.947699],[-6.263929,49.946772],[-6.264439,49.946211]]],[[[-6.373622,49.943123],[-6.374103,49.943559],[-6.373546,49.943736],[-6.372959,49.943467],[-6.373622,49.943123]]],[[[-6.385746,49.943022],[-6.386214,49.943243],[-6.385877,49.943639],[-6.385746,49.943022]]],[[[-6.386588,49.94369],[-6.386105,49.94409],[-6.385865,49.943796],[-6.386588,49.94369]]],[[[-6.247447,49.949512],[-6.247473,49.948937],[-6.246984,49.948785],[-6.248701,49.948633],[-6.249838,49.949134],[-6.249489,49.949827],[-6.248631,49.949639],[-6.248334,49.949899],[-6.247447,49.949512]]],[[[-6.268831,49.94835],[-6.269951,49.949011],[-6.270064,49.949909],[-6.267391,49.949608],[-6.267797,49.948427],[-6.268831,49.94835]]],[[[-6.245923,49.949752],[-6.246683,49.950132],[-6.24597,49.950402],[-6.246301,49.950703],[-6.245521,49.950822],[-6.245166,49.950768],[-6.245761,49.95046],[-6.244608,49.95002],[-6.245923,49.949752]]],[[[-6.392308,49.946611],[-6.392954,49.946331],[-6.393404,49.946607],[-6.393445,49.947182],[-6.393821,49.947165],[-6.393035,49.947302],[-6.392308,49.946611]]],[[[-6.296287,49.950217],[-6.297425,49.950243],[-6.297892,49.950891],[-6.296287,49.950217]]],[[[-6.391789,49.946853],[-6.392092,49.947474],[-6.391488,49.947446],[-6.391261,49.947064],[-6.391789,49.946853]]],[[[-6.363407,49.94924],[-6.363088,49.94957],[-6.36266,49.949452],[-6.363407,49.94924]]],[[[-6.255098,49.950885],[-6.254318,49.951242],[-6.254152,49.950715],[-6.252567,49.950113],[-6.253453,49.948807],[-6.254179,49.948439],[-6.254911,49.949116],[-6.255363,49.949054],[-6.257612,49.950078],[-6.257364,49.951235],[-6.258289,49.95133],[-6.261346,49.952637],[-6.261825,49.954682],[-6.263065,49.955227],[-6.262182,49.955606],[-6.260172,49.95556],[-6.260398,49.955331],[-6.259974,49.955182],[-6.260927,49.954832],[-6.260818,49.953926],[-6.25846,49.95371],[-6.257743,49.952916],[-6.256726,49.952452],[-6.255764,49.951101],[-6.255098,49.950885]]],[[[-6.257013,49.955992],[-6.257797,49.95604],[-6.257469,49.95628],[-6.257013,49.955992]]],[[[-6.300401,49.955949],[-6.300636,49.956096],[-6.300248,49.956246],[-6.300401,49.955949]]],[[[-6.368809,49.952557],[-6.3683,49.952297],[-6.368898,49.951797],[-6.369358,49.952127],[-6.369149,49.952592],[-6.370581,49.952457],[-6.370694,49.953333],[-6.371521,49.953735],[-6.37034,49.954725],[-6.370675,49.954883],[-6.370425,49.955335],[-6.369777,49.955482],[-6.36867,49.955108],[-6.36828,49.954428],[-6.368809,49.952557]]],[[[-6.313929,49.962319],[-6.314371,49.962358],[-6.313922,49.963306],[-6.313929,49.962319]]],[[[-6.325366,49.962956],[-6.325754,49.963198],[-6.325366,49.963429],[-6.325366,49.962956]]],[[[-6.323409,49.963935],[-6.324862,49.964077],[-6.323925,49.964362],[-6.323409,49.963935]]],[[[-6.317942,49.965181],[-6.318287,49.965196],[-6.318173,49.965644],[-6.316925,49.966337],[-6.317942,49.965181]]],[[[-6.363445,49.96466],[-6.363505,49.964668],[-6.362898,49.964867],[-6.363445,49.96466]]],[[[-6.318121,49.966319],[-6.318932,49.966577],[-6.31728,49.967427],[-6.316922,49.967279],[-6.317158,49.966718],[-6.318121,49.966319]]],[[[-6.329835,49.96636],[-6.328954,49.966271],[-6.329374,49.965342],[-6.330517,49.965092],[-6.330999,49.965517],[-6.332569,49.965525],[-6.333593,49.966508],[-6.332376,49.966987],[-6.330985,49.966751],[-6.330385,49.967558],[-6.329845,49.967397],[-6.330121,49.966829],[-6.329835,49.96636]]],[[[-6.35891,49.966143],[-6.358368,49.966169],[-6.358917,49.965822],[-6.358666,49.965623],[-6.359655,49.965201],[-6.359396,49.964049],[-6.358604,49.96417],[-6.358115,49.963236],[-6.35698,49.963134],[-6.356644,49.962782],[-6.355166,49.96293],[-6.355625,49.962533],[-6.353436,49.96165],[-6.353047,49.960734],[-6.351897,49.959956],[-6.351367,49.95911],[-6.351353,49.958019],[-6.349323,49.95774],[-6.349113,49.956878],[-6.348023,49.955732],[-6.350495,49.953744],[-6.350606,49.953191],[-6.350014,49.952716],[-6.349408,49.953015],[-6.349751,49.952768],[-6.349472,49.952507],[-6.351596,49.951206],[-6.352242,49.950105],[-6.351616,49.949157],[-6.350047,49.948512],[-6.349658,49.946649],[-6.350133,49.945809],[-6.352645,49.944529],[-6.35321,49.944895],[-6.35469,49.945097],[-6.355099,49.945519],[-6.356603,49.945562],[-6.35755,49.944006],[-6.358832,49.943226],[-6.359095,49.943371],[-6.358361,49.943634],[-6.357997,49.944452],[-6.357128,49.944914],[-6.358547,49.94618],[-6.359211,49.946393],[-6.363061,49.94573],[-6.362245,49.946241],[-6.36308,49.946792],[-6.362671,49.94699],[-6.361747,49.946718],[-6.361093,49.947604],[-6.359963,49.947968],[-6.35735,49.947394],[-6.356511,49.948319],[-6.356549,49.949604],[-6.358361,49.950678],[-6.358848,49.950552],[-6.358702,49.949998],[-6.358979,49.950162],[-6.359466,49.949844],[-6.359935,49.950236],[-6.360553,49.950224],[-6.359852,49.950402],[-6.359954,49.950945],[-6.361069,49.951543],[-6.362768,49.951075],[-6.363085,49.950589],[-6.363615,49.951035],[-6.364553,49.951152],[-6.365139,49.951748],[-6.364353,49.952288],[-6.364288,49.954003],[-6.363593,49.953607],[-6.360965,49.953259],[-6.360228,49.952691],[-6.359406,49.953259],[-6.358773,49.953182],[-6.358396,49.953636],[-6.358415,49.954472],[-6.359112,49.955222],[-6.35983,49.955357],[-6.361451,49.954554],[-6.362328,49.955094],[-6.362595,49.955862],[-6.362142,49.956113],[-6.362149,49.955707],[-6.361401,49.955487],[-6.360984,49.955826],[-6.361317,49.956246],[-6.36077,49.956208],[-6.361169,49.956515],[-6.360442,49.956838],[-6.360386,49.95732],[-6.360507,49.957632],[-6.361406,49.957549],[-6.362214,49.958085],[-6.360601,49.957686],[-6.359113,49.958043],[-6.359212,49.958558],[-6.36018,49.958674],[-6.35807,49.959151],[-6.357704,49.959496],[-6.356829,49.959446],[-6.357059,49.960394],[-6.356539,49.960525],[-6.357213,49.960728],[-6.356449,49.961407],[-6.356991,49.96214],[-6.360217,49.963019],[-6.35987,49.964147],[-6.362405,49.963813],[-6.362792,49.964183],[-6.361927,49.965085],[-6.361214,49.964916],[-6.36082,49.965315],[-6.360135,49.965323],[-6.360915,49.96586],[-6.360833,49.966104],[-6.359922,49.96599],[-6.360414,49.96657],[-6.359557,49.966988],[-6.358694,49.967008],[-6.358394,49.966734],[-6.35891,49.966143]]],[[[-6.346728,49.967658],[-6.34608,49.967988],[-6.345148,49.967853],[-6.3442,49.968121],[-6.343705,49.96767],[-6.343153,49.968102],[-6.342623,49.967938],[-6.341934,49.966829],[-6.340894,49.966547],[-6.340377,49.966031],[-6.341393,49.965162],[-6.341445,49.963865],[-6.339484,49.962679],[-6.337762,49.962617],[-6.337113,49.963535],[-6.334266,49.963814],[-6.333966,49.96302],[-6.3334,49.962804],[-6.333369,49.96221],[-6.332054,49.962139],[-6.332226,49.961646],[-6.33306,49.961578],[-6.333532,49.961139],[-6.333045,49.95998],[-6.332711,49.959794],[-6.331827,49.960167],[-6.332741,49.959501],[-6.33249,49.95898],[-6.331257,49.958551],[-6.329274,49.958511],[-6.32866,49.958621],[-6.327905,49.959367],[-6.327189,49.959267],[-6.3263,49.958196],[-6.325327,49.957956],[-6.32448,49.956858],[-6.322788,49.956631],[-6.322852,49.955348],[-6.321009,49.953513],[-6.320132,49.953378],[-6.319629,49.953768],[-6.319141,49.953372],[-6.321338,49.95057],[-6.322754,49.946713],[-6.322613,49.945868],[-6.321959,49.9452],[-6.321078,49.944922],[-6.319523,49.945319],[-6.31968,49.94483],[-6.320494,49.94426],[-6.3237,49.944429],[-6.328294,49.943513],[-6.328604,49.942803],[-6.329492,49.942855],[-6.331111,49.941938],[-6.330952,49.940528],[-6.332008,49.939759],[-6.331521,49.939139],[-6.332002,49.939584],[-6.332311,49.939194],[-6.333025,49.939278],[-6.333076,49.940783],[-6.335492,49.945194],[-6.33659,49.946],[-6.337552,49.945962],[-6.339049,49.946593],[-6.339132,49.947735],[-6.338185,49.948937],[-6.339829,49.950737],[-6.33963,49.951269],[-6.340553,49.951752],[-6.339298,49.952668],[-6.338364,49.954013],[-6.339119,49.955919],[-6.340218,49.95654],[-6.341384,49.956671],[-6.341278,49.955898],[-6.344234,49.957432],[-6.345105,49.958583],[-6.346172,49.95898],[-6.345878,49.959992],[-6.347013,49.960505],[-6.34803,49.962098],[-6.349887,49.962075],[-6.349638,49.962567],[-6.35076,49.963495],[-6.35042,49.964561],[-6.351925,49.965055],[-6.351017,49.965873],[-6.350029,49.966089],[-6.349722,49.966704],[-6.350488,49.967193],[-6.348519,49.968019],[-6.346728,49.967658]]],[[[-6.314835,49.969871],[-6.314168,49.970082],[-6.313651,49.969142],[-6.313059,49.968935],[-6.311664,49.969722],[-6.310642,49.969804],[-6.309469,49.96943],[-6.309068,49.969683],[-6.310102,49.967723],[-6.309645,49.967227],[-6.308675,49.967262],[-6.308276,49.966847],[-6.309007,49.966374],[-6.307747,49.965596],[-6.309484,49.964569],[-6.310649,49.964959],[-6.309925,49.965809],[-6.310523,49.966678],[-6.31205,49.967152],[-6.313536,49.966998],[-6.314154,49.96734],[-6.314357,49.967962],[-6.315847,49.967872],[-6.316382,49.967424],[-6.317234,49.96793],[-6.317914,49.967864],[-6.318215,49.968996],[-6.31746,49.968941],[-6.317291,49.968299],[-6.316069,49.968282],[-6.31528,49.968717],[-6.315959,49.969947],[-6.315414,49.970157],[-6.314835,49.969871]]],[[[-6.295186,49.9741],[-6.292947,49.973566],[-6.291908,49.971872],[-6.292604,49.970945],[-6.292263,49.97015],[-6.289062,49.966526],[-6.286482,49.965332],[-6.285641,49.965201],[-6.284785,49.965494],[-6.283433,49.965188],[-6.282488,49.966008],[-6.281179,49.966348],[-6.279986,49.965775],[-6.279836,49.964919],[-6.279246,49.964875],[-6.279605,49.96441],[-6.278339,49.964243],[-6.278005,49.963929],[-6.276842,49.964224],[-6.276569,49.964583],[-6.274781,49.964608],[-6.274372,49.965626],[-6.273442,49.966367],[-6.272934,49.966048],[-6.272233,49.966116],[-6.272659,49.965657],[-6.272734,49.964451],[-6.269658,49.96415],[-6.268438,49.96472],[-6.268781,49.965388],[-6.268323,49.96684],[-6.267678,49.966757],[-6.267858,49.967095],[-6.267275,49.967552],[-6.266588,49.967364],[-6.265856,49.967603],[-6.26406,49.966985],[-6.26386,49.965977],[-6.26287,49.965677],[-6.262768,49.965153],[-6.261767,49.96533],[-6.262448,49.964366],[-6.261372,49.964485],[-6.261867,49.963537],[-6.26162,49.962914],[-6.262308,49.962468],[-6.264063,49.962266],[-6.26558,49.961013],[-6.268086,49.960958],[-6.268819,49.960229],[-6.268868,49.959461],[-6.270679,49.958506],[-6.271459,49.958329],[-6.272096,49.95891],[-6.273767,49.959321],[-6.277991,49.959273],[-6.281174,49.958182],[-6.281411,49.957462],[-6.280695,49.95736],[-6.281764,49.956429],[-6.284406,49.95619],[-6.285514,49.957619],[-6.285135,49.95777],[-6.285278,49.958271],[-6.286887,49.959307],[-6.287345,49.96053],[-6.290093,49.961893],[-6.294152,49.962717],[-6.294452,49.96351],[-6.296005,49.96402],[-6.304311,49.964054],[-6.304643,49.96503],[-6.304264,49.96587],[-6.304879,49.966043],[-6.304258,49.9659],[-6.304927,49.966663],[-6.304383,49.967351],[-6.303581,49.967302],[-6.30279,49.96796],[-6.302654,49.9692],[-6.303285,49.969924],[-6.302803,49.969763],[-6.302326,49.970197],[-6.298497,49.969506],[-6.297843,49.970011],[-6.297694,49.970977],[-6.298113,49.971331],[-6.299313,49.971461],[-6.299336,49.971888],[-6.29799,49.972783],[-6.297962,49.973584],[-6.297168,49.974076],[-6.295186,49.9741]]],[[[-6.32459,49.97435],[-6.324201,49.974526],[-6.323606,49.973898],[-6.322359,49.973414],[-6.32134,49.973249],[-6.320469,49.973554],[-6.320227,49.97328],[-6.321924,49.972194],[-6.32313,49.970826],[-6.325838,49.970685],[-6.327141,49.970156],[-6.328075,49.970537],[-6.328176,49.971512],[-6.328871,49.972053],[-6.328112,49.972246],[-6.327724,49.972857],[-6.328161,49.974052],[-6.326787,49.974867],[-6.324791,49.974851],[-6.32459,49.97435]]],[[[-6.293146,49.979919],[-6.292701,49.980648],[-6.291581,49.979661],[-6.290249,49.979431],[-6.290281,49.978978],[-6.291098,49.97858],[-6.290574,49.978096],[-6.289727,49.978291],[-6.289925,49.97789],[-6.288376,49.978328],[-6.288682,49.978131],[-6.288136,49.977962],[-6.290156,49.976899],[-6.288538,49.977186],[-6.28791,49.976918],[-6.288917,49.976572],[-6.2884,49.975823],[-6.290821,49.974374],[-6.291216,49.974533],[-6.291063,49.976478],[-6.291623,49.977781],[-6.292838,49.978112],[-6.294226,49.977898],[-6.294821,49.977486],[-6.295967,49.979706],[-6.295336,49.980551],[-6.294607,49.98012],[-6.293146,49.979919]]],[[[-6.32196,49.979198],[-6.321246,49.978638],[-6.321314,49.978197],[-6.323309,49.977447],[-6.323426,49.977779],[-6.324213,49.978004],[-6.323568,49.978446],[-6.324467,49.978527],[-6.323958,49.979442],[-6.324184,49.979696],[-6.323273,49.979789],[-6.322565,49.979443],[-6.322585,49.979962],[-6.321758,49.979559],[-6.32196,49.979198]]]]}}]}