{"type":"FeatureCollection","features":[{"type":"Feature","properties":{"slug":"isle-of-wight","gss_code":"E06000046","name":"Isle of Wight"},"geometry":{"type":"MultiPolygon","coordinates":[[[[-1.591492,50.662262],[-1.59065,50.662401],[-1.590705,50.662335],[-1.591492,50.662262]]],[[[-1.589777,50.662657],[-1.588885,50.662773],[-1.589488,50.662572],[-1.589777,50.662657]]],[[[-1.094778,50.73977],[-1.09536,50.74],[-1.094985,50.740358],[-1.094402,50.740134],[-1.094778,50.73977]]],[[[-1.30159,50.766696],[-1.299978,50.766972],[-1.29969,50.766711],[-1.300315,50.766895],[-1.30063,50.766451],[-1.297974,50.764853],[-1.297661,50.763714],[-1.297134,50.763791],[-1.297425,50.76338],[-1.296918,50.763386],[-1.297146,50.762866],[-1.29652,50.762663],[-1.297015,50.762256],[-1.29612,50.762416],[-1.296347,50.762254],[-1.295692,50.76117],[-1.296449,50.7607],[-1.295498,50.760049],[-1.294859,50.759931],[-1.294396,50.760208],[-1.294411,50.759764],[-1.293541,50.7602],[-1.294058,50.759801],[-1.292739,50.758963],[-1.292273,50.75806],[-1.292931,50.756224],[-1.293927,50.754917],[-1.293521,50.754414],[-1.293886,50.754457],[-1.294499,50.753842],[-1.293564,50.750677],[-1.294034,50.750566],[-1.29308,50.749388],[-1.292333,50.747314],[-1.292855,50.746154],[-1.291542,50.745946],[-1.290153,50.743816],[-1.290152,50.743163],[-1.291801,50.742865],[-1.290496,50.742769],[-1.290716,50.742562],[-1.290106,50.742121],[-1.290325,50.74249],[-1.289981,50.742801],[-1.289358,50.74165],[-1.289716,50.741146],[-1.289557,50.739657],[-1.290289,50.739218],[-1.290142,50.738544],[-1.289032,50.737703],[-1.289307,50.737091],[-1.288684,50.737284],[-1.287603,50.736514],[-1.286583,50.734888],[-1.28796,50.733776],[-1.286954,50.733818],[-1.286896,50.73355],[-1.285635,50.733911],[-1.284713,50.733508],[-1.285021,50.732737],[-1.283792,50.730786],[-1.284194,50.730169],[-1.28367,50.729415],[-1.283849,50.730168],[-1.283311,50.730412],[-1.282959,50.730033],[-1.283028,50.729832],[-1.283654,50.730076],[-1.283546,50.729247],[-1.282932,50.729759],[-1.283587,50.728308],[-1.285225,50.727473],[-1.283659,50.727101],[-1.2835,50.726442],[-1.284647,50.724413],[-1.28483,50.722366],[-1.286925,50.719343],[-1.287471,50.717252],[-1.288311,50.715811],[-1.28958,50.714979],[-1.289261,50.71352],[-1.289982,50.711384],[-1.289694,50.710662],[-1.291303,50.708393],[-1.290888,50.708039],[-1.291993,50.707103],[-1.292239,50.705478],[-1.290873,50.703301],[-1.292099,50.701858],[-1.292739,50.702128],[-1.293519,50.702269],[-1.294825,50.702242],[-1.291979,50.701776],[-1.291601,50.701884],[-1.289904,50.701297],[-1.289484,50.700511],[-1.289549,50.699569],[-1.290273,50.698731],[-1.290297,50.696637],[-1.289908,50.697832],[-1.290168,50.69871],[-1.289445,50.699559],[-1.289416,50.700624],[-1.290059,50.701545],[-1.291576,50.701961],[-1.290325,50.703417],[-1.291277,50.705903],[-1.29104,50.706786],[-1.289122,50.708381],[-1.287437,50.713022],[-1.286974,50.713743],[-1.286456,50.713823],[-1.286661,50.714523],[-1.285817,50.714612],[-1.285603,50.714917],[-1.28581,50.716089],[-1.284934,50.717361],[-1.28475,50.718629],[-1.28401,50.718912],[-1.284059,50.719812],[-1.282378,50.722982],[-1.281047,50.723835],[-1.280153,50.724978],[-1.281192,50.725419],[-1.279897,50.725074],[-1.278509,50.726082],[-1.27716,50.731519],[-1.27668,50.73158],[-1.276913,50.731441],[-1.277006,50.731217],[-1.276174,50.731258],[-1.276062,50.731313],[-1.276215,50.731705],[-1.275657,50.731735],[-1.276229,50.731722],[-1.276121,50.731319],[-1.276974,50.731271],[-1.276592,50.731504],[-1.276642,50.731635],[-1.277336,50.731577],[-1.280715,50.733138],[-1.282147,50.736057],[-1.28047,50.736501],[-1.282282,50.736845],[-1.284323,50.738015],[-1.284107,50.73841],[-1.284601,50.738377],[-1.284035,50.738642],[-1.285014,50.738803],[-1.285598,50.740041],[-1.286259,50.740518],[-1.286256,50.743866],[-1.288175,50.745464],[-1.288578,50.745409],[-1.289093,50.746396],[-1.289287,50.746891],[-1.288762,50.746849],[-1.288581,50.747163],[-1.289107,50.747439],[-1.288799,50.747727],[-1.290442,50.750013],[-1.289635,50.750173],[-1.289463,50.750801],[-1.290738,50.75073],[-1.291137,50.753182],[-1.291017,50.7538],[-1.29031,50.753859],[-1.290731,50.753924],[-1.290397,50.755161],[-1.29098,50.755363],[-1.290972,50.757106],[-1.290429,50.75744],[-1.290844,50.757695],[-1.290269,50.758076],[-1.29051,50.758738],[-1.290015,50.75876],[-1.290448,50.759132],[-1.290199,50.759842],[-1.290563,50.760494],[-1.289302,50.761088],[-1.289054,50.76229],[-1.288351,50.762927],[-1.289678,50.763581],[-1.288348,50.762991],[-1.277336,50.766303],[-1.273927,50.76605],[-1.271456,50.765509],[-1.267028,50.763441],[-1.264711,50.761874],[-1.261196,50.760487],[-1.259744,50.759267],[-1.258578,50.757379],[-1.255283,50.753922],[-1.248738,50.752365],[-1.247318,50.751464],[-1.246402,50.749567],[-1.241835,50.746053],[-1.240208,50.743393],[-1.238699,50.742494],[-1.239178,50.742301],[-1.240382,50.742855],[-1.240213,50.742066],[-1.241314,50.742298],[-1.241154,50.742612],[-1.241716,50.741736],[-1.24149,50.741543],[-1.241748,50.741711],[-1.242286,50.741417],[-1.242033,50.74042],[-1.242393,50.739138],[-1.242989,50.738872],[-1.242522,50.738537],[-1.241847,50.738639],[-1.240745,50.739726],[-1.240492,50.74086],[-1.241518,50.741173],[-1.241273,50.741646],[-1.240794,50.741541],[-1.240688,50.741838],[-1.24063,50.741583],[-1.239789,50.741585],[-1.238604,50.742118],[-1.23767,50.743051],[-1.234914,50.743276],[-1.230915,50.742876],[-1.220322,50.738993],[-1.215954,50.738645],[-1.213953,50.738037],[-1.213567,50.737559],[-1.214136,50.736717],[-1.215758,50.735604],[-1.21648,50.735664],[-1.216183,50.735782],[-1.216773,50.736042],[-1.21752,50.735938],[-1.21923,50.735055],[-1.219845,50.734373],[-1.219668,50.733233],[-1.220327,50.731922],[-1.222282,50.731171],[-1.222879,50.73145],[-1.223542,50.73136],[-1.222908,50.731325],[-1.223128,50.731051],[-1.2228,50.730802],[-1.222539,50.731022],[-1.222588,50.730612],[-1.226344,50.727505],[-1.226911,50.727485],[-1.226667,50.726799],[-1.227351,50.726823],[-1.225941,50.725985],[-1.226468,50.725897],[-1.226531,50.72533],[-1.225514,50.724596],[-1.225158,50.724549],[-1.224727,50.725076],[-1.22482,50.72678],[-1.22423,50.727607],[-1.223006,50.727975],[-1.220669,50.729832],[-1.220611,50.729477],[-1.220063,50.729477],[-1.220101,50.729127],[-1.219519,50.729033],[-1.219706,50.73],[-1.21825,50.730831],[-1.217424,50.732049],[-1.217348,50.73433],[-1.217046,50.734021],[-1.216515,50.734284],[-1.217507,50.734975],[-1.216864,50.734812],[-1.215937,50.733895],[-1.212613,50.733997],[-1.211459,50.734366],[-1.210971,50.73503],[-1.204299,50.73457],[-1.202079,50.733955],[-1.19711,50.733644],[-1.192512,50.732737],[-1.186448,50.733497],[-1.18376,50.733],[-1.182638,50.733492],[-1.181452,50.733322],[-1.178961,50.734184],[-1.164499,50.732832],[-1.163378,50.732969],[-1.162793,50.733534],[-1.161307,50.733587],[-1.160168,50.733152],[-1.159511,50.733333],[-1.159042,50.732971],[-1.159071,50.733324],[-1.158,50.733001],[-1.157455,50.733546],[-1.155254,50.73291],[-1.155135,50.732046],[-1.153485,50.731632],[-1.153604,50.732904],[-1.154641,50.733269],[-1.15224,50.732616],[-1.150185,50.731338],[-1.148059,50.730958],[-1.143754,50.729043],[-1.136849,50.727044],[-1.13473,50.726701],[-1.130503,50.726811],[-1.120221,50.723263],[-1.11827,50.723206],[-1.114434,50.721973],[-1.11138,50.721937],[-1.109708,50.721563],[-1.108236,50.720117],[-1.10794,50.718198],[-1.106957,50.717128],[-1.10614,50.713932],[-1.105205,50.71307],[-1.103191,50.712431],[-1.101514,50.707258],[-1.100534,50.706458],[-1.097945,50.706155],[-1.098085,50.702788],[-1.0991,50.701342],[-1.097913,50.696491],[-1.096143,50.694231],[-1.098469,50.694662],[-1.099097,50.694521],[-1.099603,50.695238],[-1.100772,50.695454],[-1.101159,50.695928],[-1.100952,50.69641],[-1.102294,50.697166],[-1.103888,50.696262],[-1.102508,50.69727],[-1.102928,50.697953],[-1.101718,50.698492],[-1.102186,50.699651],[-1.10289,50.699879],[-1.103003,50.699314],[-1.103995,50.698486],[-1.106107,50.697205],[-1.107498,50.694807],[-1.106461,50.69457],[-1.105331,50.695311],[-1.106531,50.694478],[-1.107455,50.694492],[-1.107084,50.694085],[-1.108387,50.693896],[-1.108292,50.693503],[-1.102389,50.692395],[-1.100708,50.691648],[-1.099817,50.69085],[-1.09848,50.690428],[-1.096484,50.690985],[-1.093554,50.692992],[-1.093025,50.693717],[-1.094685,50.694754],[-1.093564,50.695779],[-1.082422,50.694457],[-1.079133,50.692672],[-1.077359,50.692064],[-1.070673,50.687928],[-1.069598,50.685949],[-1.069876,50.683985],[-1.070129,50.683521],[-1.073501,50.681372],[-1.077125,50.680656],[-1.085392,50.677253],[-1.086257,50.675773],[-1.08769,50.674594],[-1.09196,50.673241],[-1.095349,50.671606],[-1.097145,50.669943],[-1.097604,50.668741],[-1.096983,50.668019],[-1.095354,50.667599],[-1.095186,50.667253],[-1.09613,50.666892],[-1.097031,50.665933],[-1.098085,50.665741],[-1.097946,50.665243],[-1.098894,50.665037],[-1.098545,50.664969],[-1.103209,50.664967],[-1.111771,50.665778],[-1.114592,50.665595],[-1.124316,50.66402],[-1.132596,50.662103],[-1.137644,50.660617],[-1.143019,50.658535],[-1.151896,50.654362],[-1.16045,50.649339],[-1.166044,50.643974],[-1.168504,50.640352],[-1.169217,50.636153],[-1.168268,50.635878],[-1.168628,50.635949],[-1.170014,50.634182],[-1.169117,50.633711],[-1.169298,50.633396],[-1.169053,50.633317],[-1.170972,50.631431],[-1.171747,50.629778],[-1.171498,50.629768],[-1.173531,50.626333],[-1.174789,50.622684],[-1.174461,50.622405],[-1.174601,50.62086],[-1.174191,50.619922],[-1.1735,50.61946],[-1.172546,50.615432],[-1.1731,50.614391],[-1.175656,50.612396],[-1.177134,50.610544],[-1.175553,50.608405],[-1.175264,50.606893],[-1.179269,50.600928],[-1.180412,50.600174],[-1.180516,50.599578],[-1.181313,50.599506],[-1.18118,50.599236],[-1.181659,50.599285],[-1.182606,50.598395],[-1.183631,50.598392],[-1.183702,50.597965],[-1.184075,50.598181],[-1.1854,50.597245],[-1.187314,50.596741],[-1.196004,50.595102],[-1.197205,50.59455],[-1.197808,50.593877],[-1.198862,50.593867],[-1.202038,50.592725],[-1.204159,50.59302],[-1.204351,50.592649],[-1.204393,50.593042],[-1.205349,50.593049],[-1.205238,50.592397],[-1.204248,50.592181],[-1.20427,50.591965],[-1.205429,50.592218],[-1.206136,50.593043],[-1.209953,50.593054],[-1.213392,50.591584],[-1.215913,50.591182],[-1.221099,50.589483],[-1.222643,50.58856],[-1.223512,50.588794],[-1.225309,50.588567],[-1.229861,50.586918],[-1.231621,50.586906],[-1.233445,50.586081],[-1.235404,50.586071],[-1.236421,50.585382],[-1.240061,50.584257],[-1.24194,50.582797],[-1.244678,50.582168],[-1.247115,50.582238],[-1.249885,50.580882],[-1.251886,50.581119],[-1.254977,50.580065],[-1.259811,50.57939],[-1.263313,50.580149],[-1.269002,50.57958],[-1.271401,50.579744],[-1.277786,50.578632],[-1.280755,50.577058],[-1.286202,50.577598],[-1.287735,50.576996],[-1.287974,50.576515],[-1.291607,50.575497],[-1.295117,50.574927],[-1.299026,50.575014],[-1.302454,50.575567],[-1.304072,50.576169],[-1.304653,50.577121],[-1.30794,50.577433],[-1.308599,50.578641],[-1.308554,50.580571],[-1.318643,50.589932],[-1.324575,50.5928],[-1.339481,50.601799],[-1.352978,50.608089],[-1.355557,50.608857],[-1.361966,50.60996],[-1.363669,50.611047],[-1.365715,50.613292],[-1.371035,50.616787],[-1.37486,50.618794],[-1.382606,50.623656],[-1.390422,50.627585],[-1.39737,50.629314],[-1.406905,50.633756],[-1.410053,50.634868],[-1.418636,50.636294],[-1.422868,50.637227],[-1.422868,50.637491],[-1.422982,50.637252],[-1.425543,50.637816],[-1.432724,50.640283],[-1.442596,50.642226],[-1.447148,50.643462],[-1.452673,50.646413],[-1.457834,50.650792],[-1.461254,50.652042],[-1.464748,50.652465],[-1.467902,50.655811],[-1.476747,50.662443],[-1.482687,50.666002],[-1.484499,50.666749],[-1.493633,50.668392],[-1.505718,50.668325],[-1.507384,50.668845],[-1.509019,50.669805],[-1.511036,50.670003],[-1.512879,50.669342],[-1.513527,50.668895],[-1.513483,50.668376],[-1.514033,50.668234],[-1.516938,50.668432],[-1.517223,50.668102],[-1.527144,50.667577],[-1.528661,50.667039],[-1.53988,50.665735],[-1.548712,50.663619],[-1.554862,50.663146],[-1.561448,50.663098],[-1.566181,50.662083],[-1.569137,50.661005],[-1.569659,50.66124],[-1.572067,50.66067],[-1.578902,50.660148],[-1.579482,50.660293],[-1.579037,50.661092],[-1.586544,50.663115],[-1.576659,50.663757],[-1.569608,50.665386],[-1.568982,50.66696],[-1.570241,50.672466],[-1.569623,50.673397],[-1.567417,50.673927],[-1.566429,50.674593],[-1.56306,50.675632],[-1.560476,50.67614],[-1.557421,50.676174],[-1.553528,50.677277],[-1.551088,50.677327],[-1.549098,50.677801],[-1.546916,50.679348],[-1.544746,50.682197],[-1.54307,50.686543],[-1.543133,50.687685],[-1.54179,50.688913],[-1.539476,50.689136],[-1.538243,50.689586],[-1.535408,50.691677],[-1.5341,50.693514],[-1.533333,50.697003],[-1.533893,50.697529],[-1.534281,50.70001],[-1.53481,50.700389],[-1.534485,50.70071],[-1.533419,50.700675],[-1.529864,50.703462],[-1.526799,50.704337],[-1.522125,50.707109],[-1.5154,50.706986],[-1.507837,50.705714],[-1.50659,50.705845],[-1.504981,50.706724],[-1.501568,50.706807],[-1.504988,50.706682],[-1.506015,50.706122],[-1.505404,50.705326],[-1.505951,50.704879],[-1.506696,50.705575],[-1.50967,50.705815],[-1.508806,50.705364],[-1.508867,50.705106],[-1.506798,50.704538],[-1.505118,50.705016],[-1.504572,50.704676],[-1.504435,50.704294],[-1.506128,50.704099],[-1.506124,50.702704],[-1.504967,50.701772],[-1.504936,50.701332],[-1.50435,50.70148],[-1.504461,50.701795],[-1.503937,50.701626],[-1.504173,50.701947],[-1.50348,50.702439],[-1.503547,50.701854],[-1.502901,50.701719],[-1.503233,50.702104],[-1.502901,50.7021],[-1.503212,50.702277],[-1.502876,50.703033],[-1.502471,50.701924],[-1.503018,50.701545],[-1.502969,50.70096],[-1.502488,50.701732],[-1.502042,50.699757],[-1.502977,50.70012],[-1.502465,50.70022],[-1.503032,50.700171],[-1.503281,50.699816],[-1.503249,50.69915],[-1.502739,50.699708],[-1.502212,50.698936],[-1.503192,50.698908],[-1.503508,50.698444],[-1.503462,50.69693],[-1.502826,50.697664],[-1.503233,50.698025],[-1.50306,50.698561],[-1.501806,50.698887],[-1.502441,50.699347],[-1.502264,50.699536],[-1.501458,50.699313],[-1.499835,50.697954],[-1.500188,50.697638],[-1.500863,50.697849],[-1.500266,50.697548],[-1.501071,50.69719],[-1.500737,50.697574],[-1.501467,50.697264],[-1.501715,50.698123],[-1.50215,50.697792],[-1.501929,50.697734],[-1.501242,50.696963],[-1.50166,50.696701],[-1.50233,50.696999],[-1.501682,50.696604],[-1.501943,50.69617],[-1.502949,50.69646],[-1.502605,50.696178],[-1.503052,50.69608],[-1.502208,50.696009],[-1.503379,50.695341],[-1.50398,50.695353],[-1.503465,50.696001],[-1.504214,50.695282],[-1.506063,50.695866],[-1.508098,50.696023],[-1.506087,50.69581],[-1.50384,50.695131],[-1.505722,50.694257],[-1.506464,50.693365],[-1.506611,50.692836],[-1.506307,50.693057],[-1.505952,50.692519],[-1.507265,50.692553],[-1.506781,50.692424],[-1.507219,50.692216],[-1.506313,50.692328],[-1.50683,50.692046],[-1.506363,50.691924],[-1.505929,50.692013],[-1.506457,50.691982],[-1.506121,50.692326],[-1.505646,50.692364],[-1.504928,50.691673],[-1.50622,50.69164],[-1.506678,50.691304],[-1.506921,50.69199],[-1.507234,50.691968],[-1.506948,50.691348],[-1.507255,50.691145],[-1.506791,50.691006],[-1.504924,50.691543],[-1.505029,50.690713],[-1.50591,50.691095],[-1.506101,50.691037],[-1.506391,50.690412],[-1.505986,50.690987],[-1.505688,50.690944],[-1.505814,50.690503],[-1.505088,50.69056],[-1.504953,50.690167],[-1.50557,50.689734],[-1.506094,50.68995],[-1.506042,50.689569],[-1.504809,50.689984],[-1.503994,50.689549],[-1.503854,50.688853],[-1.504504,50.688563],[-1.504743,50.689244],[-1.505303,50.689101],[-1.504625,50.688504],[-1.505845,50.688146],[-1.504637,50.688405],[-1.504212,50.688015],[-1.504491,50.687595],[-1.504018,50.688161],[-1.504451,50.688455],[-1.503808,50.688352],[-1.503569,50.687245],[-1.504008,50.687168],[-1.503556,50.687188],[-1.503224,50.686691],[-1.503729,50.686335],[-1.503698,50.686636],[-1.503948,50.686857],[-1.50375,50.686504],[-1.504192,50.686439],[-1.504609,50.687092],[-1.504629,50.686664],[-1.503865,50.686079],[-1.504708,50.685685],[-1.507324,50.685505],[-1.507811,50.685149],[-1.507463,50.685156],[-1.507715,50.684934],[-1.507337,50.685089],[-1.507877,50.684419],[-1.508684,50.684667],[-1.507983,50.684257],[-1.508794,50.683353],[-1.507818,50.682717],[-1.507041,50.683103],[-1.505156,50.685046],[-1.502358,50.686313],[-1.502763,50.68758],[-1.502316,50.687452],[-1.502875,50.687882],[-1.502688,50.689175],[-1.503064,50.690013],[-1.504133,50.690557],[-1.503803,50.691522],[-1.504902,50.69262],[-1.504391,50.692775],[-1.503835,50.692461],[-1.50432,50.692824],[-1.503518,50.692854],[-1.50363,50.693088],[-1.503155,50.693176],[-1.502492,50.692809],[-1.503098,50.693215],[-1.503689,50.693339],[-1.504222,50.692978],[-1.504419,50.693853],[-1.504986,50.693674],[-1.504408,50.693796],[-1.50438,50.692883],[-1.505147,50.692788],[-1.505641,50.693617],[-1.503548,50.694567],[-1.503529,50.694352],[-1.502729,50.693611],[-1.503517,50.694428],[-1.50312,50.694794],[-1.502895,50.694513],[-1.50113,50.693858],[-1.501562,50.693742],[-1.501955,50.693304],[-1.50154,50.693677],[-1.500126,50.693684],[-1.502789,50.69463],[-1.502322,50.695137],[-1.500459,50.694514],[-1.500862,50.694328],[-1.500159,50.694583],[-1.49916,50.694103],[-1.499719,50.694487],[-1.499342,50.694803],[-1.500347,50.694585],[-1.501242,50.694797],[-1.500641,50.694982],[-1.50079,50.69522],[-1.50136,50.694934],[-1.501945,50.695244],[-1.500704,50.696268],[-1.499997,50.69525],[-1.499919,50.695704],[-1.498883,50.695407],[-1.499474,50.695679],[-1.498637,50.695747],[-1.498449,50.696212],[-1.499611,50.695872],[-1.499804,50.69612],[-1.50003,50.695791],[-1.500556,50.69623],[-1.49951,50.696986],[-1.497763,50.696927],[-1.498148,50.697149],[-1.49794,50.697276],[-1.497887,50.697918],[-1.498252,50.69781],[-1.49802,50.697297],[-1.49883,50.697286],[-1.498547,50.698047],[-1.497854,50.698119],[-1.497652,50.69877],[-1.498112,50.69865],[-1.497746,50.69854],[-1.49821,50.698169],[-1.499403,50.698785],[-1.498383,50.699361],[-1.498047,50.699174],[-1.498336,50.70008],[-1.498447,50.699723],[-1.498691,50.700287],[-1.498999,50.700403],[-1.499498,50.700355],[-1.499453,50.699648],[-1.498949,50.700339],[-1.498487,50.699527],[-1.49883,50.699146],[-1.499743,50.699038],[-1.499282,50.699353],[-1.499843,50.69963],[-1.500077,50.699211],[-1.500454,50.699697],[-1.500045,50.699929],[-1.500668,50.699814],[-1.50135,50.700967],[-1.498992,50.701665],[-1.498839,50.70115],[-1.499629,50.70125],[-1.500153,50.700964],[-1.499849,50.700501],[-1.498909,50.700549],[-1.499441,50.700687],[-1.499353,50.700984],[-1.498488,50.701176],[-1.4985,50.70135],[-1.49796,50.701641],[-1.49754,50.701277],[-1.498291,50.701219],[-1.497573,50.701148],[-1.498336,50.701038],[-1.497767,50.700866],[-1.498504,50.700785],[-1.498547,50.701013],[-1.498858,50.700607],[-1.497568,50.700805],[-1.498253,50.70025],[-1.497528,50.700327],[-1.497626,50.699745],[-1.497376,50.700172],[-1.49756,50.700582],[-1.496754,50.700639],[-1.496585,50.700935],[-1.49676,50.702719],[-1.498343,50.703335],[-1.500258,50.703033],[-1.500602,50.702357],[-1.499949,50.70232],[-1.499533,50.702767],[-1.49936,50.702249],[-1.500988,50.701694],[-1.5015,50.70388],[-1.502422,50.70461],[-1.503172,50.70465],[-1.503517,50.705116],[-1.501151,50.705676],[-1.500331,50.706782],[-1.486898,50.706682],[-1.479133,50.708541],[-1.474735,50.708809],[-1.472358,50.70977],[-1.470824,50.709396],[-1.469464,50.709556],[-1.459712,50.714201],[-1.45661,50.716338],[-1.452784,50.71744],[-1.450337,50.718407],[-1.449144,50.719217],[-1.445946,50.719732],[-1.44071,50.722546],[-1.434443,50.723913],[-1.430594,50.725169],[-1.429118,50.726026],[-1.425681,50.726757],[-1.411753,50.724376],[-1.411313,50.723827],[-1.411662,50.723497],[-1.411972,50.72424],[-1.413342,50.724631],[-1.414005,50.724315],[-1.414087,50.724559],[-1.415861,50.724974],[-1.413872,50.72394],[-1.41269,50.72385],[-1.411967,50.723192],[-1.412263,50.723008],[-1.414045,50.723576],[-1.413918,50.723903],[-1.414437,50.723648],[-1.414582,50.72411],[-1.416143,50.724412],[-1.421356,50.72488],[-1.42201,50.724616],[-1.421222,50.724709],[-1.419284,50.723605],[-1.417946,50.723485],[-1.417556,50.723129],[-1.414291,50.722653],[-1.412911,50.721216],[-1.416343,50.720181],[-1.418118,50.720187],[-1.418229,50.71886],[-1.41584,50.719565],[-1.413951,50.719364],[-1.413326,50.719594],[-1.412945,50.719545],[-1.413231,50.719123],[-1.412864,50.719032],[-1.413533,50.718932],[-1.413031,50.718939],[-1.412986,50.718624],[-1.413375,50.718147],[-1.41392,50.718087],[-1.413563,50.718019],[-1.413952,50.71759],[-1.415501,50.716903],[-1.415153,50.716754],[-1.415853,50.716312],[-1.415973,50.715191],[-1.416449,50.715341],[-1.416283,50.715701],[-1.416873,50.715257],[-1.415633,50.714865],[-1.416707,50.714943],[-1.416238,50.714625],[-1.41742,50.713912],[-1.417369,50.713103],[-1.418818,50.712702],[-1.418959,50.712405],[-1.420513,50.712772],[-1.422861,50.712367],[-1.42246,50.712375],[-1.423551,50.711502],[-1.423026,50.71183],[-1.423012,50.71149],[-1.425168,50.710739],[-1.426058,50.71092],[-1.428727,50.710653],[-1.42534,50.710355],[-1.426341,50.709163],[-1.42727,50.709099],[-1.42713,50.708915],[-1.428331,50.708745],[-1.430247,50.708187],[-1.426963,50.708823],[-1.426833,50.709074],[-1.425981,50.708947],[-1.426237,50.708576],[-1.426835,50.708675],[-1.426578,50.708453],[-1.425922,50.708677],[-1.425905,50.70837],[-1.427326,50.706575],[-1.426521,50.705971],[-1.426816,50.705689],[-1.426541,50.705845],[-1.42653,50.705538],[-1.428669,50.705553],[-1.430789,50.704755],[-1.43118,50.704944],[-1.434005,50.704623],[-1.435251,50.704054],[-1.437549,50.702393],[-1.435277,50.703885],[-1.433637,50.704546],[-1.431938,50.704713],[-1.431692,50.704411],[-1.429915,50.704811],[-1.429702,50.703243],[-1.429599,50.704127],[-1.429866,50.704494],[-1.429335,50.704682],[-1.429729,50.704921],[-1.428808,50.704932],[-1.428536,50.705274],[-1.425861,50.704919],[-1.426283,50.705183],[-1.426129,50.706006],[-1.426639,50.706596],[-1.424748,50.70802],[-1.424996,50.709237],[-1.420585,50.711764],[-1.417759,50.712031],[-1.417091,50.710813],[-1.417447,50.711817],[-1.417074,50.71189],[-1.416733,50.711127],[-1.416878,50.712362],[-1.414612,50.714662],[-1.415027,50.714042],[-1.414797,50.714353],[-1.414626,50.714199],[-1.414237,50.715303],[-1.414139,50.71451],[-1.413496,50.715439],[-1.414003,50.713452],[-1.414351,50.713439],[-1.414053,50.713915],[-1.41432,50.714654],[-1.414436,50.713488],[-1.41523,50.713534],[-1.415154,50.713819],[-1.415516,50.713464],[-1.414081,50.71338],[-1.413832,50.71291],[-1.413878,50.71332],[-1.413342,50.713261],[-1.413437,50.712745],[-1.413154,50.713419],[-1.412975,50.713222],[-1.413581,50.712491],[-1.414179,50.71255],[-1.414052,50.713105],[-1.414348,50.713062],[-1.414541,50.712493],[-1.413563,50.712359],[-1.414191,50.711934],[-1.414445,50.710659],[-1.413756,50.70724],[-1.412956,50.70624],[-1.413026,50.705715],[-1.412583,50.705608],[-1.413044,50.704604],[-1.412407,50.704273],[-1.413244,50.704032],[-1.413056,50.703532],[-1.413166,50.703937],[-1.412348,50.70425],[-1.412801,50.70482],[-1.412268,50.705512],[-1.413085,50.708178],[-1.413006,50.710173],[-1.412335,50.710805],[-1.412942,50.710892],[-1.412276,50.710999],[-1.413035,50.71117],[-1.41286,50.711457],[-1.411627,50.711078],[-1.411879,50.710804],[-1.41148,50.710386],[-1.410716,50.71042],[-1.410349,50.709946],[-1.408666,50.710143],[-1.407311,50.709613],[-1.40766,50.709132],[-1.407086,50.708543],[-1.407465,50.707972],[-1.407024,50.708556],[-1.407541,50.709116],[-1.407019,50.709545],[-1.407553,50.709951],[-1.408027,50.709922],[-1.408564,50.710462],[-1.409746,50.710146],[-1.410614,50.710868],[-1.411109,50.710772],[-1.410956,50.711365],[-1.41172,50.711525],[-1.411835,50.711855],[-1.412339,50.711654],[-1.412017,50.71145],[-1.412545,50.711681],[-1.411848,50.712061],[-1.412381,50.713986],[-1.411903,50.714477],[-1.410815,50.714588],[-1.41077,50.714221],[-1.410466,50.714303],[-1.410603,50.714093],[-1.40966,50.713586],[-1.408872,50.713546],[-1.409192,50.713873],[-1.408638,50.713544],[-1.408839,50.713233],[-1.408503,50.713407],[-1.406611,50.712951],[-1.406635,50.712732],[-1.405815,50.712833],[-1.406,50.712559],[-1.404376,50.712156],[-1.403115,50.711147],[-1.402971,50.711484],[-1.402332,50.710569],[-1.402678,50.710209],[-1.402513,50.709228],[-1.402233,50.710607],[-1.402547,50.710923],[-1.402339,50.711288],[-1.397743,50.710448],[-1.401637,50.711197],[-1.401876,50.71152],[-1.402017,50.711334],[-1.402358,50.711565],[-1.402035,50.711702],[-1.402536,50.711632],[-1.403465,50.712531],[-1.406107,50.713614],[-1.407048,50.714422],[-1.40754,50.714176],[-1.407351,50.714536],[-1.409337,50.715093],[-1.409876,50.716615],[-1.409008,50.71712],[-1.409382,50.717835],[-1.407942,50.718484],[-1.408119,50.719081],[-1.407118,50.717662],[-1.407839,50.717776],[-1.409621,50.716736],[-1.409751,50.716608],[-1.409355,50.715904],[-1.40962,50.716589],[-1.407951,50.717491],[-1.404985,50.717138],[-1.40665,50.717364],[-1.406093,50.717553],[-1.406364,50.71803],[-1.405563,50.718247],[-1.405339,50.717791],[-1.402553,50.717517],[-1.402346,50.717748],[-1.400442,50.717673],[-1.399547,50.717304],[-1.3999,50.716573],[-1.399458,50.716585],[-1.399263,50.717134],[-1.399198,50.716811],[-1.398887,50.716864],[-1.399064,50.717204],[-1.39697,50.717125],[-1.397415,50.717515],[-1.397429,50.719174],[-1.396652,50.716751],[-1.396806,50.717514],[-1.394955,50.716977],[-1.395399,50.716789],[-1.394896,50.71657],[-1.394634,50.716924],[-1.393175,50.716694],[-1.394293,50.716642],[-1.393206,50.716377],[-1.393805,50.71585],[-1.392534,50.716593],[-1.392564,50.716147],[-1.393223,50.715726],[-1.392645,50.715959],[-1.392735,50.715652],[-1.392554,50.715961],[-1.392304,50.715484],[-1.392027,50.715622],[-1.392449,50.715892],[-1.391907,50.715941],[-1.392637,50.716024],[-1.392226,50.716555],[-1.391523,50.71647],[-1.391799,50.716304],[-1.391483,50.715715],[-1.39122,50.716442],[-1.389898,50.716164],[-1.390033,50.715624],[-1.389613,50.716113],[-1.388602,50.716084],[-1.388518,50.715851],[-1.38764,50.716218],[-1.387928,50.715625],[-1.38722,50.716177],[-1.387385,50.715556],[-1.387701,50.715639],[-1.387377,50.715521],[-1.387567,50.714708],[-1.387309,50.715532],[-1.386909,50.715529],[-1.387068,50.715286],[-1.386359,50.715491],[-1.386357,50.715824],[-1.385934,50.715491],[-1.385716,50.716203],[-1.385201,50.716034],[-1.385725,50.715992],[-1.385774,50.715461],[-1.385102,50.715322],[-1.38451,50.715655],[-1.38436,50.714927],[-1.38444,50.715448],[-1.383402,50.715975],[-1.383402,50.716375],[-1.382918,50.716386],[-1.383218,50.716064],[-1.382743,50.715868],[-1.382681,50.716345],[-1.381906,50.71636],[-1.381895,50.716023],[-1.381695,50.716332],[-1.379568,50.716307],[-1.379114,50.716057],[-1.379149,50.715195],[-1.378332,50.714841],[-1.378295,50.714262],[-1.378737,50.713962],[-1.378237,50.714218],[-1.378225,50.714724],[-1.377801,50.714444],[-1.377755,50.711975],[-1.377469,50.711283],[-1.376593,50.710559],[-1.376861,50.710298],[-1.376485,50.710546],[-1.377327,50.711288],[-1.377691,50.713338],[-1.377381,50.712807],[-1.377311,50.713366],[-1.375909,50.713144],[-1.376452,50.713457],[-1.377613,50.713433],[-1.377239,50.71366],[-1.377606,50.714556],[-1.378299,50.715092],[-1.377001,50.715216],[-1.378894,50.715317],[-1.378816,50.715756],[-1.378538,50.715359],[-1.378365,50.7156],[-1.379329,50.717463],[-1.377961,50.718115],[-1.377171,50.717915],[-1.376427,50.718162],[-1.376136,50.718617],[-1.375598,50.718208],[-1.375775,50.718543],[-1.372651,50.718893],[-1.372152,50.719374],[-1.371263,50.719201],[-1.369897,50.719838],[-1.371324,50.719274],[-1.372249,50.719407],[-1.372836,50.71896],[-1.373852,50.719153],[-1.375812,50.718836],[-1.376847,50.718259],[-1.378599,50.718554],[-1.380376,50.717124],[-1.388469,50.716694],[-1.38763,50.716853],[-1.388771,50.717084],[-1.388783,50.71668],[-1.389355,50.716653],[-1.38953,50.716989],[-1.388791,50.717155],[-1.389694,50.717255],[-1.38982,50.716797],[-1.390129,50.717543],[-1.392597,50.717744],[-1.39301,50.717464],[-1.392802,50.717742],[-1.393474,50.718415],[-1.392912,50.719056],[-1.393231,50.719108],[-1.39149,50.719663],[-1.391149,50.71961],[-1.391528,50.719454],[-1.390891,50.719442],[-1.389765,50.719834],[-1.38999,50.719998],[-1.388242,50.719417],[-1.389711,50.719963],[-1.389712,50.720566],[-1.390247,50.720364],[-1.389803,50.721801],[-1.386786,50.722588],[-1.385728,50.722208],[-1.384822,50.722476],[-1.385704,50.722244],[-1.386705,50.722661],[-1.38769,50.722354],[-1.388615,50.723181],[-1.389622,50.723123],[-1.389871,50.723453],[-1.393751,50.723238],[-1.395178,50.723692],[-1.395504,50.723505],[-1.399261,50.724085],[-1.399487,50.724341],[-1.398892,50.724489],[-1.400002,50.724508],[-1.400261,50.72512],[-1.399818,50.725114],[-1.399651,50.724548],[-1.399469,50.725391],[-1.399318,50.72514],[-1.399143,50.725447],[-1.398468,50.725461],[-1.398631,50.725176],[-1.399024,50.725339],[-1.398748,50.724862],[-1.399103,50.724901],[-1.398661,50.724294],[-1.398757,50.724765],[-1.397792,50.724765],[-1.398542,50.724986],[-1.397915,50.724983],[-1.398421,50.725041],[-1.397718,50.725365],[-1.398101,50.725101],[-1.397377,50.725119],[-1.397361,50.724881],[-1.398009,50.724257],[-1.396859,50.725011],[-1.39727,50.725288],[-1.396731,50.725731],[-1.396575,50.724716],[-1.397081,50.724798],[-1.396692,50.724716],[-1.397468,50.724057],[-1.396698,50.724544],[-1.396786,50.724168],[-1.396073,50.724308],[-1.396047,50.723942],[-1.395957,50.724259],[-1.396433,50.724576],[-1.396607,50.725299],[-1.395473,50.724748],[-1.396147,50.725108],[-1.395697,50.725532],[-1.396568,50.725449],[-1.395605,50.726513],[-1.396876,50.726294],[-1.398387,50.726679],[-1.400291,50.72657],[-1.401317,50.727336],[-1.402387,50.727083],[-1.403005,50.726383],[-1.404068,50.726666],[-1.402539,50.727853],[-1.397421,50.728709],[-1.391856,50.73048],[-1.389385,50.731694],[-1.38185,50.732556],[-1.380589,50.733032],[-1.379237,50.734175],[-1.369809,50.73611],[-1.36551,50.737186],[-1.363896,50.737898],[-1.358991,50.738122],[-1.353296,50.73909],[-1.351264,50.740716],[-1.349874,50.741051],[-1.34858,50.74192],[-1.347272,50.743409],[-1.345045,50.748673],[-1.345211,50.750495],[-1.342538,50.752602],[-1.340597,50.753326],[-1.337743,50.755259],[-1.334849,50.755491],[-1.333671,50.756308],[-1.333483,50.755658],[-1.3329,50.756398],[-1.328072,50.757927],[-1.324661,50.760723],[-1.323961,50.762538],[-1.322848,50.763643],[-1.320173,50.765323],[-1.313869,50.767327],[-1.30159,50.766696]]]]}}]}