{"type":"FeatureCollection","features":[{"type":"Feature","properties":{"slug":"kensington-and-chelsea","gss_code":"E09000020","name":"Kensington and Chelsea"},"geometry":{"type":"Polygon","coordinates":[[[-0.22766,51.529914],[-0.225434,51.53016],[-0.223728,51.529947],[-0.217791,51.5286],[-0.216021,51.52792],[-0.215497,51.526719],[-0.212961,51.526884],[-0.206017,51.525854],[-0.203953,51.523533],[-0.201626,51.522742],[-0.20062,51.520712],[-0.20265,51.520895],[-0.203742,51.520624],[-0.201449,51.517804],[-0.200765,51.517984],[-0.199907,51.51684],[-0.199171,51.514541],[-0.195053,51.51504],[-0.194004,51.511701],[-0.192915,51.511843],[-0.192123,51.509878],[-0.187859,51.510195],[-0.184205,51.501789],[-0.180312,51.501462],[-0.179524,51.497781],[-0.173419,51.498231],[-0.16815,51.499033],[-0.167578,51.49828],[-0.165718,51.499219],[-0.165419,51.498685],[-0.162646,51.50023],[-0.160901,51.501677],[-0.158458,51.502226],[-0.157872,51.499004],[-0.156057,51.497776],[-0.155249,51.495054],[-0.155979,51.494463],[-0.154973,51.493826],[-0.155963,51.493201],[-0.154743,51.491971],[-0.155801,51.491465],[-0.155169,51.490039],[-0.155834,51.489614],[-0.15016,51.486037],[-0.150024,51.485462],[-0.16378,51.483636],[-0.175759,51.48162],[-0.177682,51.480351],[-0.177514,51.480103],[-0.179262,51.477994],[-0.180816,51.477916],[-0.182162,51.477385],[-0.183876,51.477443],[-0.186521,51.479869],[-0.188262,51.480967],[-0.19363,51.485891],[-0.195906,51.487371],[-0.196405,51.487187],[-0.197966,51.487907],[-0.202365,51.491662],[-0.201833,51.491845],[-0.203086,51.493371],[-0.207335,51.496153],[-0.207951,51.496032],[-0.210505,51.498347],[-0.21344,51.500177],[-0.216977,51.504466],[-0.217975,51.506143],[-0.215939,51.5064],[-0.216119,51.507521],[-0.215198,51.507651],[-0.215814,51.509153],[-0.216452,51.509113],[-0.21719,51.510399],[-0.218043,51.510224],[-0.217848,51.509753],[-0.219316,51.509554],[-0.220236,51.511733],[-0.222464,51.515407],[-0.228277,51.521095],[-0.226697,51.521939],[-0.226568,51.524626],[-0.227229,51.524777],[-0.22743,51.527996],[-0.22873,51.529906],[-0.228441,51.530319],[-0.227562,51.530155],[-0.22766,51.529914]]]}}]}