{"type":"FeatureCollection","features":[{"type":"Feature","properties":{"slug":"kingston-upon-thames","gss_code":"E09000021","name":"Kingston upon Thames"},"geometry":{"type":"Polygon","coordinates":[[[-0.249651,51.418565],[-0.249521,51.414776],[-0.247158,51.409607],[-0.247483,51.408479],[-0.247022,51.407847],[-0.245819,51.407561],[-0.245336,51.40707],[-0.244703,51.403855],[-0.245226,51.401755],[-0.246816,51.400508],[-0.246727,51.398619],[-0.247407,51.39757],[-0.244672,51.394724],[-0.241708,51.393897],[-0.240095,51.391188],[-0.23873,51.386088],[-0.241639,51.384495],[-0.243232,51.382597],[-0.244279,51.383066],[-0.245028,51.380059],[-0.248473,51.380059],[-0.251856,51.378962],[-0.253882,51.378749],[-0.258212,51.378919],[-0.260991,51.379596],[-0.262267,51.37741],[-0.264624,51.375616],[-0.272446,51.372247],[-0.273462,51.371609],[-0.274023,51.370655],[-0.275832,51.370014],[-0.27656,51.368808],[-0.279819,51.367825],[-0.282162,51.366],[-0.284071,51.36515],[-0.2872,51.362539],[-0.288396,51.36216],[-0.28521,51.361192],[-0.287019,51.359398],[-0.289008,51.358745],[-0.2912,51.356577],[-0.29133,51.355087],[-0.292698,51.353657],[-0.292883,51.352351],[-0.299231,51.348369],[-0.301377,51.345303],[-0.304066,51.343172],[-0.305385,51.339559],[-0.305135,51.336351],[-0.306189,51.335076],[-0.307612,51.334608],[-0.310929,51.332389],[-0.313693,51.331415],[-0.316742,51.329146],[-0.318955,51.327956],[-0.323947,51.326716],[-0.327141,51.326695],[-0.32741,51.326294],[-0.330115,51.327517],[-0.330656,51.32901],[-0.329093,51.330262],[-0.329695,51.332765],[-0.328956,51.340231],[-0.327883,51.343742],[-0.327457,51.344006],[-0.328154,51.34404],[-0.33051,51.348419],[-0.327954,51.352211],[-0.323729,51.354411],[-0.319768,51.359928],[-0.318261,51.363505],[-0.318482,51.365762],[-0.317897,51.369798],[-0.317482,51.371969],[-0.316671,51.373166],[-0.314318,51.374638],[-0.308672,51.375448],[-0.307869,51.378364],[-0.307365,51.378384],[-0.308495,51.380501],[-0.309254,51.380448],[-0.309501,51.382432],[-0.310642,51.384816],[-0.31174,51.385764],[-0.310809,51.386213],[-0.313231,51.388723],[-0.315993,51.387571],[-0.316737,51.388772],[-0.314112,51.390217],[-0.317698,51.393667],[-0.31293,51.397059],[-0.312108,51.398139],[-0.309499,51.400144],[-0.308734,51.402259],[-0.309049,51.409166],[-0.308253,51.415314],[-0.305931,51.421262],[-0.306707,51.423046],[-0.308362,51.425009],[-0.311054,51.426763],[-0.31443,51.428249],[-0.312904,51.430256],[-0.310651,51.43221],[-0.309758,51.432139],[-0.308068,51.431073],[-0.308543,51.430781],[-0.306882,51.43015],[-0.306411,51.430157],[-0.305918,51.431361],[-0.301754,51.430391],[-0.30208,51.43116],[-0.301594,51.431435],[-0.297677,51.428677],[-0.295484,51.427662],[-0.295431,51.427037],[-0.294721,51.426998],[-0.294792,51.426444],[-0.293394,51.426504],[-0.293009,51.428941],[-0.290616,51.42899],[-0.28656,51.420185],[-0.280399,51.421891],[-0.270905,51.429559],[-0.264549,51.43291],[-0.256319,51.436345],[-0.256186,51.436652],[-0.254066,51.437288],[-0.253089,51.435284],[-0.251281,51.434227],[-0.251085,51.432558],[-0.252442,51.431206],[-0.253307,51.430838],[-0.254239,51.429302],[-0.252239,51.425702],[-0.252928,51.423214],[-0.251156,51.42239],[-0.249651,51.418565]]]}}]}