{"type":"FeatureCollection","features":[{"type":"Feature","properties":{"slug":"kingston-upon-hull","gss_code":"E06000010","name":"Kingston upon Hull, City of"},"geometry":{"type":"MultiPolygon","coordinates":[[[[-0.24435,53.737121],[-0.244041,53.737532],[-0.243501,53.737997],[-0.24435,53.737121]]],[[[-0.24583,53.74002],[-0.246607,53.740161],[-0.246639,53.740207],[-0.24583,53.74002]]],[[[-0.34966,53.778439],[-0.348405,53.77545],[-0.346984,53.774991],[-0.344087,53.775427],[-0.342403,53.775301],[-0.341579,53.774695],[-0.34218,53.772706],[-0.340221,53.770983],[-0.337297,53.770327],[-0.333179,53.770788],[-0.331002,53.769625],[-0.330548,53.767922],[-0.328345,53.76601],[-0.328166,53.765049],[-0.329531,53.764456],[-0.332511,53.764484],[-0.334096,53.763192],[-0.3364,53.760274],[-0.336617,53.759319],[-0.334437,53.757126],[-0.331062,53.756741],[-0.329599,53.755862],[-0.329018,53.753292],[-0.33238,53.752397],[-0.333196,53.751773],[-0.332507,53.749985],[-0.328961,53.746142],[-0.328635,53.744765],[-0.330795,53.741582],[-0.331038,53.739874],[-0.331724,53.739739],[-0.332073,53.738905],[-0.332702,53.738905],[-0.332632,53.738292],[-0.33494,53.737792],[-0.334933,53.737433],[-0.335871,53.737252],[-0.335075,53.737573],[-0.335648,53.738239],[-0.336715,53.738149],[-0.336956,53.737971],[-0.336272,53.737309],[-0.336743,53.73705],[-0.338804,53.737377],[-0.340812,53.736723],[-0.339275,53.736621],[-0.339107,53.736195],[-0.339729,53.735854],[-0.363457,53.72935],[-0.3654,53.72915],[-0.365136,53.728913],[-0.365994,53.728646],[-0.384617,53.724341],[-0.3962,53.72221],[-0.396651,53.722999],[-0.397305,53.723142],[-0.402781,53.722423],[-0.403991,53.722696],[-0.404275,53.722128],[-0.414409,53.72061],[-0.416046,53.719917],[-0.419207,53.719581],[-0.420729,53.72314],[-0.420176,53.723267],[-0.420175,53.723899],[-0.421094,53.724856],[-0.421749,53.727421],[-0.422096,53.727384],[-0.42258,53.730464],[-0.422128,53.731774],[-0.419807,53.734345],[-0.419733,53.735355],[-0.417146,53.735864],[-0.415664,53.738774],[-0.411501,53.742466],[-0.410677,53.744181],[-0.409993,53.744263],[-0.410936,53.746355],[-0.407648,53.746568],[-0.402055,53.748145],[-0.401939,53.749987],[-0.422342,53.750561],[-0.42119,53.752232],[-0.421187,53.753774],[-0.418204,53.760632],[-0.408572,53.760588],[-0.407936,53.762693],[-0.403503,53.764922],[-0.400941,53.765776],[-0.398266,53.767597],[-0.394209,53.767514],[-0.390113,53.76849],[-0.38811,53.769345],[-0.388297,53.770964],[-0.387407,53.770742],[-0.388087,53.776397],[-0.389733,53.776575],[-0.390542,53.779674],[-0.389934,53.779603],[-0.39222,53.791133],[-0.365008,53.792287],[-0.359615,53.793362],[-0.359967,53.792817],[-0.359653,53.792042],[-0.356438,53.789975],[-0.353794,53.788902],[-0.350741,53.788453],[-0.348103,53.786967],[-0.347932,53.786258],[-0.348406,53.785552],[-0.351272,53.784598],[-0.351958,53.783581],[-0.351769,53.783068],[-0.348491,53.781842],[-0.347627,53.78105],[-0.34777,53.780284],[-0.34966,53.778439]]],[[[-0.303884,53.79847],[-0.290674,53.790814],[-0.27825,53.78206],[-0.274049,53.783428],[-0.272732,53.782637],[-0.268325,53.785046],[-0.265659,53.782354],[-0.262915,53.78297],[-0.257736,53.783269],[-0.257506,53.781809],[-0.258103,53.78174],[-0.25812,53.78117],[-0.252325,53.781328],[-0.252792,53.775335],[-0.253251,53.77396],[-0.254278,53.773803],[-0.254503,53.772609],[-0.25212,53.772371],[-0.252142,53.770003],[-0.254365,53.770019],[-0.254726,53.766382],[-0.254434,53.765521],[-0.25338,53.764605],[-0.254258,53.763465],[-0.250986,53.76204],[-0.251632,53.760659],[-0.249905,53.759686],[-0.245516,53.759513],[-0.244418,53.75615],[-0.243063,53.755425],[-0.241605,53.755235],[-0.241455,53.754808],[-0.242767,53.750947],[-0.245674,53.749648],[-0.24471,53.748045],[-0.246313,53.746614],[-0.244911,53.744973],[-0.24552,53.743845],[-0.246992,53.74285],[-0.247417,53.74174],[-0.246715,53.74009],[-0.244161,53.739612],[-0.243052,53.738771],[-0.245126,53.736566],[-0.250101,53.733298],[-0.252005,53.732772],[-0.259831,53.736129],[-0.273253,53.740056],[-0.273553,53.740394],[-0.272993,53.7407],[-0.273181,53.740898],[-0.278487,53.741004],[-0.286177,53.74206],[-0.28664,53.742545],[-0.287193,53.742174],[-0.295118,53.742438],[-0.296803,53.742559],[-0.297241,53.742853],[-0.299463,53.741022],[-0.305827,53.740833],[-0.305971,53.742045],[-0.307206,53.741984],[-0.307511,53.742368],[-0.308168,53.742258],[-0.30802,53.741834],[-0.309256,53.741715],[-0.309821,53.742033],[-0.310392,53.741597],[-0.317652,53.740576],[-0.317983,53.741272],[-0.318758,53.741235],[-0.319888,53.740931],[-0.319606,53.740049],[-0.331215,53.738313],[-0.330407,53.74017],[-0.329791,53.740354],[-0.329512,53.742146],[-0.328143,53.744268],[-0.326985,53.744616],[-0.327872,53.744841],[-0.328455,53.74661],[-0.332176,53.75008],[-0.332696,53.751447],[-0.332328,53.752107],[-0.329148,53.752854],[-0.328552,53.753795],[-0.32894,53.755487],[-0.329622,53.756353],[-0.330827,53.756857],[-0.334126,53.75738],[-0.336003,53.758895],[-0.336121,53.759884],[-0.33282,53.76409],[-0.331717,53.764366],[-0.328818,53.764318],[-0.327805,53.764986],[-0.32801,53.766075],[-0.329964,53.767714],[-0.330443,53.769487],[-0.332153,53.770754],[-0.333354,53.77096],[-0.336431,53.770507],[-0.339043,53.770803],[-0.340942,53.771755],[-0.341779,53.772599],[-0.341911,53.773353],[-0.34125,53.774557],[-0.341801,53.775278],[-0.343678,53.77565],[-0.34708,53.77522],[-0.348118,53.775582],[-0.349284,53.778575],[-0.34731,53.780576],[-0.348037,53.781862],[-0.350994,53.782899],[-0.351678,53.783636],[-0.35098,53.784531],[-0.348069,53.785527],[-0.34764,53.786279],[-0.347794,53.786947],[-0.348766,53.787804],[-0.350531,53.788611],[-0.354686,53.789425],[-0.359321,53.792098],[-0.35959,53.792749],[-0.358882,53.793738],[-0.359017,53.794529],[-0.360502,53.795306],[-0.363343,53.795802],[-0.364764,53.798185],[-0.365541,53.802291],[-0.365059,53.803429],[-0.361824,53.804975],[-0.358469,53.805157],[-0.356752,53.805602],[-0.354923,53.806766],[-0.353664,53.808527],[-0.348593,53.808901],[-0.348764,53.809508],[-0.345744,53.809747],[-0.346083,53.810625],[-0.338631,53.810969],[-0.338561,53.810575],[-0.338148,53.810607],[-0.333878,53.81135],[-0.324297,53.812167],[-0.316134,53.81327],[-0.303884,53.79847]]]]}}]}