{"type":"FeatureCollection","features":[{"type":"Feature","properties":{"slug":"kirklees","gss_code":"E08000034","name":"Kirklees"},"geometry":{"type":"Polygon","coordinates":[[[-1.702937,53.764079],[-1.702562,53.764342],[-1.701894,53.763854],[-1.701534,53.764066],[-1.697797,53.762426],[-1.695327,53.762001],[-1.695789,53.761781],[-1.693825,53.760706],[-1.689977,53.759944],[-1.689594,53.759575],[-1.690626,53.758398],[-1.686996,53.757685],[-1.686653,53.758091],[-1.681621,53.756469],[-1.676709,53.753982],[-1.675664,53.752637],[-1.676137,53.752392],[-1.675889,53.752132],[-1.674566,53.752087],[-1.673338,53.751649],[-1.663967,53.747615],[-1.660841,53.746849],[-1.658368,53.74662],[-1.658662,53.746239],[-1.65806,53.74612],[-1.658444,53.745458],[-1.639674,53.747766],[-1.637882,53.747729],[-1.63954,53.746769],[-1.638645,53.746156],[-1.638719,53.744916],[-1.637753,53.743818],[-1.635864,53.742587],[-1.636813,53.741071],[-1.636797,53.740045],[-1.636288,53.739464],[-1.634753,53.739904],[-1.634277,53.739566],[-1.636258,53.738624],[-1.636314,53.737908],[-1.635596,53.736823],[-1.634514,53.736187],[-1.633701,53.733941],[-1.632723,53.732317],[-1.632092,53.732108],[-1.631844,53.731037],[-1.632195,53.731115],[-1.632254,53.730814],[-1.631852,53.728778],[-1.629991,53.727166],[-1.630504,53.72692],[-1.629744,53.726742],[-1.62914,53.72605],[-1.626676,53.724668],[-1.626871,53.723826],[-1.625262,53.723299],[-1.624942,53.721429],[-1.622903,53.721094],[-1.622923,53.720054],[-1.623538,53.719596],[-1.622932,53.719417],[-1.623372,53.718547],[-1.621448,53.718606],[-1.61954,53.719315],[-1.618986,53.718904],[-1.618166,53.718913],[-1.610476,53.720995],[-1.608335,53.721159],[-1.605755,53.720869],[-1.605455,53.721183],[-1.60158,53.719821],[-1.596985,53.71933],[-1.589852,53.717955],[-1.587791,53.716553],[-1.585167,53.716584],[-1.583704,53.716153],[-1.58298,53.714852],[-1.583381,53.714601],[-1.580624,53.712923],[-1.580935,53.712749],[-1.57978,53.712479],[-1.578561,53.710854],[-1.578573,53.709808],[-1.576791,53.709446],[-1.575081,53.70864],[-1.573946,53.708663],[-1.573743,53.70822],[-1.572883,53.708159],[-1.572945,53.707869],[-1.571023,53.707032],[-1.571122,53.706405],[-1.576465,53.704624],[-1.589918,53.702288],[-1.591227,53.701362],[-1.595018,53.699996],[-1.595814,53.700621],[-1.598376,53.699781],[-1.599578,53.698077],[-1.60137,53.696459],[-1.602158,53.696251],[-1.602555,53.693341],[-1.601899,53.692702],[-1.602499,53.692172],[-1.595493,53.691281],[-1.592303,53.691564],[-1.59192,53.689335],[-1.593078,53.688962],[-1.59588,53.686788],[-1.598838,53.683698],[-1.602228,53.683979],[-1.603532,53.682386],[-1.605049,53.679393],[-1.607502,53.679087],[-1.610818,53.677874],[-1.615217,53.677581],[-1.61472,53.674755],[-1.614094,53.673767],[-1.61028,53.672538],[-1.608024,53.672357],[-1.607585,53.671982],[-1.608495,53.670961],[-1.606716,53.669137],[-1.602879,53.669199],[-1.599115,53.667394],[-1.595138,53.664719],[-1.59123,53.662871],[-1.591415,53.662349],[-1.590561,53.661755],[-1.590309,53.661054],[-1.590882,53.660493],[-1.591847,53.66081],[-1.592592,53.659087],[-1.595233,53.659835],[-1.596121,53.659495],[-1.596564,53.658879],[-1.59714,53.658944],[-1.598459,53.658386],[-1.600362,53.658615],[-1.600173,53.658244],[-1.603149,53.658037],[-1.606307,53.657008],[-1.608483,53.657147],[-1.609858,53.656781],[-1.61048,53.656926],[-1.611125,53.656199],[-1.616742,53.65576],[-1.617771,53.655413],[-1.621323,53.655365],[-1.621596,53.654631],[-1.623128,53.654361],[-1.623238,53.654065],[-1.624744,53.653956],[-1.624879,53.653598],[-1.623979,53.653065],[-1.623374,53.651379],[-1.622454,53.65103],[-1.621621,53.6501],[-1.621815,53.649511],[-1.620834,53.647775],[-1.6192,53.646321],[-1.62078,53.643635],[-1.622198,53.642945],[-1.622716,53.642222],[-1.6226,53.641454],[-1.623768,53.639394],[-1.623165,53.638108],[-1.622037,53.637396],[-1.61944,53.639136],[-1.617192,53.637716],[-1.615797,53.634721],[-1.613584,53.633763],[-1.612139,53.632708],[-1.615637,53.631831],[-1.615693,53.630238],[-1.610276,53.62798],[-1.611958,53.626756],[-1.614572,53.625926],[-1.613676,53.624573],[-1.611867,53.623977],[-1.611701,53.623411],[-1.610037,53.622875],[-1.608221,53.621532],[-1.607514,53.619573],[-1.606096,53.619566],[-1.605452,53.618703],[-1.604219,53.618647],[-1.603065,53.617954],[-1.60284,53.618247],[-1.60252,53.618147],[-1.602358,53.617401],[-1.60175,53.617621],[-1.601785,53.61804],[-1.600698,53.618172],[-1.59853,53.617145],[-1.59571,53.616873],[-1.595896,53.61642],[-1.594228,53.616095],[-1.594664,53.615555],[-1.591911,53.614669],[-1.591633,53.614009],[-1.589469,53.612833],[-1.588469,53.611251],[-1.586688,53.610351],[-1.586868,53.609014],[-1.586089,53.608287],[-1.586453,53.607174],[-1.588107,53.606489],[-1.589939,53.607104],[-1.591151,53.606781],[-1.588073,53.603769],[-1.587561,53.603459],[-1.586899,53.603785],[-1.585618,53.602009],[-1.585153,53.600179],[-1.586617,53.599843],[-1.586143,53.599025],[-1.586506,53.596831],[-1.587978,53.593487],[-1.588874,53.593492],[-1.589632,53.593889],[-1.590855,53.592421],[-1.597676,53.590239],[-1.597969,53.589398],[-1.599616,53.589239],[-1.599285,53.588856],[-1.601752,53.587759],[-1.6004,53.586204],[-1.602573,53.584936],[-1.602124,53.584157],[-1.602311,53.582967],[-1.600704,53.581122],[-1.599286,53.580775],[-1.597988,53.579743],[-1.598561,53.579182],[-1.599674,53.579066],[-1.600266,53.577339],[-1.596199,53.576987],[-1.598373,53.5766],[-1.606189,53.572947],[-1.607191,53.571506],[-1.609658,53.572029],[-1.610808,53.570049],[-1.612157,53.56877],[-1.612164,53.567626],[-1.613046,53.566444],[-1.614395,53.565069],[-1.61644,53.564514],[-1.615632,53.563028],[-1.622835,53.562873],[-1.627041,53.563598],[-1.627971,53.563241],[-1.628308,53.563492],[-1.633301,53.563187],[-1.637804,53.562296],[-1.648234,53.562195],[-1.649694,53.561534],[-1.650798,53.56167],[-1.65159,53.561108],[-1.65135,53.560853],[-1.651883,53.56073],[-1.65656,53.560558],[-1.656355,53.560385],[-1.658049,53.559766],[-1.657512,53.559189],[-1.658526,53.558891],[-1.659278,53.559802],[-1.660465,53.559268],[-1.660869,53.559592],[-1.66393,53.557501],[-1.661753,53.555817],[-1.661602,53.554677],[-1.66225,53.554447],[-1.661911,53.553693],[-1.667401,53.553423],[-1.668704,53.553733],[-1.669466,53.553228],[-1.670603,53.554154],[-1.699037,53.553811],[-1.704127,53.56025],[-1.723178,53.559927],[-1.725266,53.555407],[-1.72636,53.554497],[-1.724408,53.552236],[-1.727249,53.550329],[-1.728802,53.548084],[-1.729559,53.548044],[-1.729207,53.547503],[-1.730083,53.546792],[-1.733096,53.545128],[-1.74011,53.54207],[-1.741555,53.541071],[-1.7425,53.541053],[-1.755819,53.536681],[-1.765495,53.535659],[-1.771784,53.533859],[-1.776811,53.535508],[-1.785348,53.534789],[-1.788596,53.535555],[-1.791703,53.535382],[-1.794637,53.534197],[-1.797431,53.533888],[-1.801256,53.535105],[-1.804103,53.536555],[-1.804283,53.537013],[-1.822229,53.521091],[-1.822747,53.521913],[-1.827151,53.523508],[-1.828929,53.523183],[-1.835265,53.520595],[-1.839535,53.519823],[-1.841821,53.519909],[-1.844244,53.521783],[-1.843991,53.522561],[-1.845684,53.524727],[-1.847036,53.525426],[-1.850625,53.526219],[-1.852379,53.527157],[-1.856647,53.53002],[-1.859536,53.53365],[-1.863429,53.534965],[-1.870647,53.539278],[-1.873493,53.54043],[-1.875854,53.54041],[-1.882687,53.539151],[-1.887046,53.535869],[-1.894109,53.533612],[-1.898356,53.537796],[-1.899322,53.538112],[-1.902114,53.538645],[-1.90889,53.538734],[-1.909621,53.538391],[-1.912885,53.551644],[-1.91937,53.550879],[-1.921579,53.553],[-1.924449,53.552554],[-1.928702,53.555585],[-1.942726,53.561641],[-1.944595,53.568686],[-1.9464,53.571506],[-1.948109,53.572848],[-1.95032,53.574165],[-1.950934,53.573637],[-1.953707,53.575686],[-1.953689,53.576031],[-1.956581,53.577571],[-1.966864,53.580017],[-1.971162,53.584156],[-1.978244,53.586788],[-1.981646,53.589338],[-1.990715,53.599476],[-1.994764,53.603388],[-1.995874,53.605115],[-1.999607,53.607943],[-2.007514,53.612535],[-2.007674,53.614376],[-2.008536,53.614811],[-2.009471,53.61678],[-2.00412,53.619493],[-2.004542,53.62241],[-1.993711,53.623923],[-1.986522,53.623927],[-1.979508,53.62306],[-1.972744,53.625773],[-1.966093,53.629415],[-1.964429,53.631794],[-1.963215,53.632731],[-1.957372,53.634139],[-1.947817,53.637372],[-1.941327,53.640777],[-1.935953,53.645194],[-1.934152,53.64834],[-1.929543,53.648344],[-1.926559,53.647599],[-1.910829,53.645596],[-1.906996,53.645426],[-1.905181,53.644955],[-1.903312,53.645089],[-1.897798,53.644652],[-1.894599,53.645422],[-1.894266,53.646627],[-1.892249,53.647941],[-1.892733,53.648516],[-1.882307,53.653852],[-1.875271,53.656902],[-1.874728,53.657265],[-1.875024,53.658069],[-1.874257,53.658365],[-1.873339,53.657887],[-1.872836,53.658017],[-1.870624,53.658833],[-1.869945,53.659432],[-1.868962,53.659183],[-1.867987,53.660165],[-1.867003,53.659506],[-1.864796,53.661056],[-1.863445,53.661069],[-1.862182,53.662149],[-1.860019,53.662052],[-1.860405,53.662688],[-1.853238,53.663756],[-1.852242,53.664206],[-1.852927,53.66481],[-1.851062,53.665688],[-1.849663,53.665947],[-1.847791,53.664536],[-1.843566,53.666122],[-1.847524,53.667755],[-1.849378,53.669172],[-1.851189,53.669673],[-1.851297,53.670418],[-1.853531,53.671889],[-1.85363,53.672548],[-1.852223,53.67216],[-1.851104,53.672812],[-1.842345,53.671897],[-1.841187,53.671376],[-1.838403,53.670887],[-1.835534,53.668975],[-1.831562,53.67019],[-1.827992,53.669856],[-1.826868,53.670261],[-1.825724,53.670256],[-1.818776,53.672912],[-1.815873,53.675608],[-1.812153,53.677602],[-1.804273,53.679397],[-1.803103,53.680164],[-1.795343,53.681365],[-1.789323,53.682797],[-1.787133,53.682489],[-1.78003,53.683591],[-1.778407,53.684533],[-1.774642,53.685575],[-1.769962,53.687725],[-1.76179,53.689644],[-1.760722,53.690422],[-1.760699,53.691509],[-1.759672,53.691912],[-1.759851,53.692677],[-1.751964,53.692959],[-1.747737,53.694529],[-1.746295,53.694468],[-1.743875,53.692296],[-1.741573,53.69137],[-1.740828,53.689816],[-1.740562,53.687064],[-1.738838,53.685399],[-1.736654,53.684789],[-1.735987,53.682475],[-1.732348,53.680516],[-1.731406,53.680362],[-1.730416,53.681654],[-1.727225,53.682811],[-1.732184,53.684581],[-1.731153,53.685552],[-1.734022,53.688082],[-1.734824,53.688327],[-1.734646,53.6887],[-1.735529,53.689685],[-1.733239,53.694805],[-1.737298,53.698185],[-1.738567,53.698368],[-1.739539,53.699455],[-1.736956,53.702278],[-1.738753,53.702336],[-1.738644,53.704105],[-1.739593,53.704068],[-1.739613,53.704474],[-1.73582,53.709097],[-1.736038,53.710291],[-1.738825,53.71216],[-1.737656,53.712525],[-1.737753,53.713021],[-1.735871,53.713243],[-1.741197,53.716916],[-1.743987,53.715614],[-1.744481,53.715834],[-1.744972,53.718263],[-1.746303,53.718789],[-1.747813,53.718932],[-1.748061,53.719468],[-1.75103,53.719721],[-1.755409,53.720736],[-1.755405,53.723115],[-1.753985,53.723097],[-1.753637,53.72586],[-1.756804,53.72617],[-1.758496,53.725453],[-1.759883,53.725261],[-1.765935,53.726314],[-1.770086,53.726252],[-1.769184,53.727264],[-1.766772,53.72816],[-1.765796,53.729146],[-1.763796,53.730211],[-1.763779,53.730757],[-1.762909,53.731288],[-1.761867,53.73279],[-1.761478,53.733978],[-1.760403,53.734255],[-1.760909,53.734645],[-1.754786,53.734707],[-1.749923,53.734239],[-1.745901,53.73449],[-1.747157,53.737992],[-1.74585,53.742304],[-1.747478,53.742732],[-1.745931,53.743692],[-1.747352,53.746691],[-1.746629,53.747327],[-1.74569,53.747119],[-1.743267,53.747431],[-1.742774,53.747095],[-1.741069,53.747541],[-1.740815,53.74791],[-1.733765,53.746918],[-1.733918,53.748199],[-1.733154,53.748979],[-1.732334,53.749124],[-1.731191,53.749915],[-1.730394,53.751301],[-1.728713,53.751595],[-1.727287,53.75286],[-1.726377,53.754302],[-1.726503,53.755056],[-1.725593,53.756159],[-1.722218,53.758834],[-1.719563,53.759524],[-1.718086,53.760632],[-1.717916,53.760447],[-1.713702,53.761712],[-1.714432,53.762458],[-1.710631,53.762853],[-1.709112,53.762471],[-1.70488,53.764848],[-1.702937,53.764079]]]}}]}