{"type":"FeatureCollection","features":[{"type":"Feature","properties":{"slug":"knowsley","gss_code":"E08000011","name":"Knowsley"},"geometry":{"type":"Polygon","coordinates":[[[-2.881501,53.502751],[-2.873332,53.500039],[-2.872026,53.496232],[-2.871067,53.494997],[-2.869682,53.493981],[-2.866423,53.492545],[-2.861478,53.491079],[-2.859179,53.492114],[-2.849836,53.493139],[-2.843938,53.490211],[-2.844447,53.489019],[-2.843397,53.487892],[-2.844421,53.48413],[-2.825574,53.482782],[-2.824964,53.485209],[-2.822949,53.48269],[-2.816752,53.477852],[-2.818652,53.470149],[-2.818712,53.466891],[-2.804408,53.467236],[-2.806273,53.463217],[-2.807004,53.455831],[-2.805107,53.455537],[-2.805281,53.45368],[-2.804188,53.451394],[-2.800259,53.449143],[-2.795069,53.44323],[-2.796767,53.440631],[-2.798952,53.44136],[-2.803973,53.441443],[-2.804639,53.441162],[-2.805349,53.440118],[-2.80503,53.43866],[-2.803079,53.437557],[-2.800124,53.437089],[-2.799186,53.436115],[-2.796809,53.436013],[-2.797746,53.433757],[-2.793961,53.433867],[-2.793236,53.432835],[-2.793789,53.432794],[-2.793337,53.431042],[-2.787945,53.430378],[-2.787243,53.430526],[-2.786029,53.429372],[-2.783572,53.428595],[-2.782017,53.428597],[-2.779666,53.427694],[-2.778719,53.42774],[-2.776201,53.426687],[-2.780208,53.420569],[-2.781673,53.420852],[-2.781837,53.420575],[-2.781384,53.420412],[-2.782459,53.419316],[-2.782119,53.419222],[-2.78246,53.418681],[-2.778205,53.416303],[-2.778777,53.415693],[-2.785691,53.415029],[-2.785592,53.411331],[-2.784124,53.407074],[-2.786686,53.402208],[-2.786776,53.401188],[-2.772259,53.400147],[-2.766389,53.400067],[-2.754919,53.400978],[-2.747422,53.402314],[-2.745175,53.402096],[-2.746264,53.398963],[-2.745321,53.397195],[-2.743396,53.395285],[-2.744324,53.395262],[-2.744123,53.394839],[-2.745287,53.394571],[-2.750648,53.393788],[-2.75005,53.392383],[-2.747106,53.392393],[-2.748142,53.388501],[-2.74923,53.388312],[-2.751426,53.387057],[-2.752597,53.385924],[-2.760271,53.384336],[-2.758782,53.383748],[-2.757775,53.382879],[-2.757654,53.380738],[-2.758658,53.380997],[-2.760581,53.382346],[-2.764525,53.382699],[-2.767593,53.383778],[-2.76931,53.383889],[-2.770779,53.383135],[-2.772078,53.382965],[-2.773165,53.381057],[-2.775622,53.380727],[-2.776671,53.381059],[-2.777052,53.379679],[-2.778542,53.377398],[-2.778889,53.375658],[-2.779738,53.375571],[-2.781282,53.371693],[-2.78229,53.370412],[-2.780247,53.369932],[-2.781912,53.367491],[-2.781894,53.367033],[-2.781177,53.366832],[-2.781306,53.36634],[-2.780914,53.366212],[-2.784564,53.361931],[-2.783876,53.361757],[-2.784823,53.360723],[-2.787302,53.35629],[-2.800901,53.355898],[-2.809064,53.355081],[-2.811948,53.352889],[-2.81622,53.350341],[-2.816954,53.348811],[-2.818807,53.348001],[-2.822498,53.347773],[-2.8232,53.348054],[-2.828712,53.346969],[-2.83217,53.346663],[-2.840406,53.347331],[-2.846339,53.353981],[-2.852084,53.361232],[-2.853496,53.363514],[-2.853668,53.365678],[-2.852025,53.369406],[-2.852405,53.372241],[-2.853995,53.377028],[-2.856189,53.37875],[-2.851847,53.380893],[-2.847942,53.381154],[-2.846599,53.381872],[-2.844432,53.382057],[-2.841722,53.381577],[-2.83498,53.381206],[-2.832443,53.381617],[-2.830885,53.38098],[-2.829067,53.380989],[-2.827921,53.380324],[-2.825113,53.380551],[-2.824197,53.380089],[-2.823017,53.380167],[-2.821955,53.380667],[-2.822704,53.382123],[-2.825064,53.383723],[-2.826153,53.384922],[-2.828707,53.385907],[-2.829937,53.38707],[-2.831547,53.387588],[-2.83365,53.388941],[-2.832713,53.389914],[-2.83287,53.390752],[-2.832009,53.391981],[-2.832446,53.393686],[-2.833322,53.394883],[-2.833554,53.396097],[-2.83402,53.396626],[-2.834583,53.396377],[-2.835351,53.396944],[-2.83667,53.398266],[-2.837345,53.399868],[-2.845014,53.398056],[-2.848039,53.396955],[-2.849742,53.397322],[-2.85622,53.39496],[-2.866403,53.39848],[-2.870456,53.399324],[-2.871916,53.400435],[-2.872747,53.401699],[-2.875354,53.401005],[-2.881414,53.407178],[-2.88168,53.408041],[-2.890542,53.406926],[-2.892412,53.410918],[-2.892364,53.411829],[-2.89111,53.412359],[-2.889744,53.413511],[-2.889286,53.413408],[-2.888235,53.414526],[-2.884097,53.416876],[-2.881331,53.416141],[-2.871163,53.412385],[-2.868695,53.415588],[-2.865927,53.418302],[-2.866308,53.419176],[-2.867682,53.419726],[-2.868885,53.423236],[-2.868224,53.42393],[-2.870098,53.425154],[-2.869455,53.426086],[-2.868564,53.4263],[-2.868145,53.426927],[-2.866177,53.428023],[-2.867477,53.428725],[-2.868597,53.430858],[-2.869303,53.431275],[-2.868908,53.431526],[-2.869386,53.432726],[-2.868789,53.432962],[-2.872661,53.435218],[-2.871955,53.435524],[-2.873416,53.436519],[-2.870843,53.437973],[-2.870123,53.441695],[-2.870591,53.442528],[-2.870054,53.443634],[-2.868245,53.444698],[-2.867855,53.449295],[-2.869641,53.450554],[-2.872089,53.453222],[-2.874157,53.453909],[-2.875121,53.454756],[-2.88094,53.45712],[-2.887093,53.459942],[-2.887799,53.460543],[-2.889538,53.461047],[-2.890102,53.461496],[-2.889978,53.462412],[-2.89117,53.4627],[-2.89144,53.463116],[-2.893037,53.463403],[-2.894175,53.464376],[-2.893996,53.464671],[-2.894696,53.46493],[-2.895304,53.465917],[-2.894888,53.465994],[-2.89515,53.467178],[-2.900315,53.469159],[-2.905929,53.470179],[-2.90394,53.467532],[-2.904924,53.465245],[-2.905963,53.464986],[-2.912503,53.46526],[-2.913768,53.464872],[-2.914378,53.465005],[-2.915757,53.468852],[-2.918658,53.468312],[-2.921086,53.472641],[-2.920041,53.473265],[-2.922615,53.474983],[-2.918962,53.476892],[-2.919081,53.478068],[-2.917919,53.478352],[-2.916843,53.479261],[-2.917161,53.480137],[-2.919559,53.482073],[-2.914268,53.482534],[-2.912325,53.483644],[-2.910015,53.487518],[-2.905249,53.491976],[-2.903867,53.491674],[-2.899607,53.491683],[-2.899175,53.493861],[-2.89675,53.495422],[-2.896385,53.496701],[-2.898688,53.499371],[-2.89842,53.500815],[-2.897697,53.501428],[-2.893802,53.502964],[-2.892363,53.503216],[-2.889648,53.502866],[-2.887963,53.503846],[-2.886223,53.503754],[-2.884234,53.503096],[-2.881501,53.502751]]]}}]}