{"type":"FeatureCollection","features":[{"type":"Feature","properties":{"slug":"lambeth","gss_code":"E09000022","name":"Lambeth"},"geometry":{"type":"Polygon","coordinates":[[[-0.110687,51.508239],[-0.108858,51.508426],[-0.108165,51.506922],[-0.107339,51.507072],[-0.106486,51.505063],[-0.106403,51.503367],[-0.107392,51.503036],[-0.106757,51.50221],[-0.106077,51.502524],[-0.105917,51.502033],[-0.108267,51.500443],[-0.110258,51.496763],[-0.111467,51.496459],[-0.110934,51.495468],[-0.104852,51.493528],[-0.103272,51.491253],[-0.108461,51.485849],[-0.106359,51.484899],[-0.107189,51.483649],[-0.105612,51.48294],[-0.106018,51.482698],[-0.104034,51.480901],[-0.108209,51.480286],[-0.099972,51.476864],[-0.100654,51.474447],[-0.098829,51.471872],[-0.095975,51.469867],[-0.094143,51.470673],[-0.093626,51.471735],[-0.093015,51.472029],[-0.092756,51.469869],[-0.090063,51.465831],[-0.090658,51.463318],[-0.092244,51.461058],[-0.094947,51.458787],[-0.095812,51.457415],[-0.10108,51.453927],[-0.101454,51.452216],[-0.100763,51.450336],[-0.099962,51.450273],[-0.099134,51.448975],[-0.096038,51.446726],[-0.095065,51.445412],[-0.094427,51.443235],[-0.092896,51.441082],[-0.091019,51.437553],[-0.089345,51.432017],[-0.088198,51.429335],[-0.085909,51.428504],[-0.086075,51.427817],[-0.085187,51.4273],[-0.084035,51.425691],[-0.083462,51.422997],[-0.081734,51.423378],[-0.080876,51.42186],[-0.079835,51.42214],[-0.078908,51.421568],[-0.079217,51.420869],[-0.078288,51.420605],[-0.078557,51.419874],[-0.083218,51.41974],[-0.086283,51.419284],[-0.088338,51.420005],[-0.092702,51.422554],[-0.094863,51.42282],[-0.105962,51.422594],[-0.109259,51.423178],[-0.112633,51.423242],[-0.115592,51.420631],[-0.119813,51.418802],[-0.122491,51.415027],[-0.124081,51.414597],[-0.124452,51.413365],[-0.125765,51.412631],[-0.126236,51.41293],[-0.126832,51.412699],[-0.127883,51.411999],[-0.13268,51.412346],[-0.13356,51.41258],[-0.133503,51.412939],[-0.134083,51.410991],[-0.137987,51.411771],[-0.142598,51.413348],[-0.144789,51.412389],[-0.148065,51.41287],[-0.147126,51.413757],[-0.144311,51.415345],[-0.144984,51.415791],[-0.137792,51.421108],[-0.138866,51.424337],[-0.138368,51.430485],[-0.135256,51.430323],[-0.136464,51.43388],[-0.137884,51.433784],[-0.139765,51.435744],[-0.139938,51.436947],[-0.137659,51.438586],[-0.137233,51.439725],[-0.137476,51.440158],[-0.13698,51.440246],[-0.135932,51.442007],[-0.137979,51.441694],[-0.143611,51.441839],[-0.145465,51.445068],[-0.145576,51.446018],[-0.144813,51.448437],[-0.143116,51.449709],[-0.142286,51.450982],[-0.147704,51.45234],[-0.147352,51.452964],[-0.14814,51.456402],[-0.149376,51.459363],[-0.149695,51.461292],[-0.150933,51.463797],[-0.151212,51.465861],[-0.150551,51.465949],[-0.150538,51.467628],[-0.143117,51.470513],[-0.142704,51.470076],[-0.140419,51.47153],[-0.139785,51.471333],[-0.139306,51.47153],[-0.139489,51.471793],[-0.138326,51.471963],[-0.136905,51.473089],[-0.135794,51.472711],[-0.134664,51.47334],[-0.134446,51.473962],[-0.135207,51.474292],[-0.133876,51.475694],[-0.129937,51.481174],[-0.127482,51.48201],[-0.127056,51.483581],[-0.126308,51.484471],[-0.128154,51.484732],[-0.128507,51.485043],[-0.126999,51.485816],[-0.124885,51.487858],[-0.124205,51.487854],[-0.122122,51.4919],[-0.119381,51.503814],[-0.118229,51.505835],[-0.116844,51.506953],[-0.11512,51.50766],[-0.111003,51.508492],[-0.110687,51.508239]]]}}]}