{"type":"FeatureCollection","features":[{"type":"Feature","properties":{"slug":"lancaster","gss_code":"E07000121","name":"Lancaster"},"geometry":{"type":"MultiPolygon","coordinates":[[[[-2.879823,53.943503],[-2.880105,53.94356],[-2.879796,53.943802],[-2.879823,53.943503]]],[[[-2.885052,53.946179],[-2.884,53.946652],[-2.883542,53.946238],[-2.885052,53.946179]]],[[[-2.888245,53.946697],[-2.889485,53.948147],[-2.888309,53.948923],[-2.885706,53.948974],[-2.885419,53.948329],[-2.887218,53.946273],[-2.888245,53.946697]]],[[[-2.847335,53.9644],[-2.849865,53.965032],[-2.846001,53.96549],[-2.844053,53.965231],[-2.843579,53.964675],[-2.847335,53.9644]]],[[[-2.849311,53.965177],[-2.849478,53.965539],[-2.847961,53.965301],[-2.849311,53.965177]]],[[[-2.848081,53.965362],[-2.848816,53.965663],[-2.847989,53.966043],[-2.846125,53.965534],[-2.848081,53.965362]]],[[[-2.898291,53.987786],[-2.900199,53.987806],[-2.901232,53.988382],[-2.901263,53.98903],[-2.90006,53.990558],[-2.899231,53.990736],[-2.897199,53.990544],[-2.893328,53.989577],[-2.893476,53.988909],[-2.898291,53.987786]]],[[[-2.862005,53.995766],[-2.861407,53.996191],[-2.861334,53.996054],[-2.862005,53.995766]]],[[[-2.860941,53.996277],[-2.860918,53.996755],[-2.860375,53.996757],[-2.860941,53.996277]]],[[[-2.860289,53.996872],[-2.860047,53.997602],[-2.85978,53.997303],[-2.860289,53.996872]]],[[[-2.836015,53.998149],[-2.835843,53.998422],[-2.83562,53.998307],[-2.836015,53.998149]]],[[[-2.835047,53.998338],[-2.835565,53.998558],[-2.834706,53.998853],[-2.835047,53.998338]]],[[[-2.833068,53.998965],[-2.833309,53.999026],[-2.832671,53.99939],[-2.833068,53.998965]]],[[[-2.834491,53.999258],[-2.834699,53.999477],[-2.834386,53.999557],[-2.834491,53.999258]]],[[[-2.836068,53.999468],[-2.836,53.999959],[-2.835438,53.999555],[-2.836068,53.999468]]],[[[-2.834961,53.999541],[-2.835186,53.999989],[-2.834474,54.000017],[-2.834961,53.999541]]],[[[-2.833984,53.999436],[-2.833786,54.000136],[-2.833298,53.999945],[-2.833984,53.999436]]],[[[-2.832354,54.000396],[-2.832073,54.000564],[-2.831822,54.000448],[-2.832354,54.000396]]],[[[-2.831489,54.000971],[-2.832375,54.001133],[-2.831683,54.001249],[-2.831489,54.000971]]],[[[-2.832204,54.001414],[-2.832189,54.001669],[-2.83207,54.001438],[-2.832204,54.001414]]],[[[-2.874015,54.001459],[-2.874745,54.001849],[-2.873925,54.001735],[-2.874015,54.001459]]],[[[-2.868408,54.003577],[-2.870194,54.003571],[-2.869823,54.003882],[-2.869075,54.003697],[-2.867741,54.003979],[-2.868408,54.003577]]],[[[-2.873383,54.004019],[-2.872269,54.004207],[-2.871323,54.003852],[-2.871203,54.003388],[-2.871687,54.003208],[-2.873157,54.00355],[-2.875148,54.004708],[-2.872344,54.0047],[-2.872233,54.004303],[-2.873383,54.004019]]],[[[-2.872957,54.004796],[-2.873678,54.00487],[-2.873195,54.005078],[-2.872957,54.004796]]],[[[-2.873811,54.005129],[-2.874225,54.005222],[-2.874046,54.005793],[-2.872965,54.006036],[-2.873811,54.005129]]],[[[-2.877229,54.005717],[-2.877794,54.005952],[-2.877571,54.006137],[-2.877229,54.005717]]],[[[-2.872402,54.00595],[-2.87295,54.006262],[-2.872216,54.006475],[-2.872402,54.00595]]],[[[-2.867816,54.01051],[-2.868418,54.01056],[-2.868143,54.010881],[-2.867456,54.010677],[-2.867816,54.01051]]],[[[-2.869858,54.009999],[-2.87012,54.010443],[-2.869149,54.011051],[-2.868759,54.010627],[-2.869858,54.009999]]],[[[-2.834537,54.012822],[-2.83525,54.013445],[-2.83463,54.013861],[-2.834537,54.012822]]],[[[-2.835552,54.0157],[-2.835621,54.016041],[-2.835275,54.015878],[-2.835552,54.0157]]],[[[-2.835849,54.016428],[-2.836472,54.016627],[-2.836112,54.016628],[-2.835849,54.016428]]],[[[-2.83764,54.021299],[-2.837386,54.022053],[-2.836668,54.022317],[-2.83634,54.022627],[-2.836346,54.022809],[-2.834793,54.022792],[-2.834495,54.022665],[-2.834961,54.022468],[-2.834098,54.022438],[-2.834263,54.020629],[-2.835045,54.021001],[-2.835569,54.020667],[-2.834953,54.020929],[-2.834333,54.020116],[-2.83465,54.017645],[-2.835547,54.017152],[-2.836426,54.017177],[-2.836631,54.018001],[-2.836033,54.018183],[-2.835565,54.01884],[-2.835534,54.019364],[-2.835963,54.019257],[-2.835718,54.018933],[-2.836585,54.019127],[-2.835728,54.018793],[-2.836193,54.018184],[-2.836902,54.018084],[-2.837578,54.020033],[-2.838727,54.020604],[-2.838473,54.020777],[-2.839581,54.02064],[-2.839841,54.021446],[-2.840052,54.021128],[-2.841089,54.021467],[-2.840954,54.02168],[-2.841333,54.022243],[-2.840119,54.022975],[-2.837059,54.022982],[-2.836445,54.022618],[-2.837441,54.022077],[-2.83764,54.021299]]],[[[-2.793104,54.060257],[-2.794527,54.061297],[-2.793454,54.062194],[-2.792913,54.061531],[-2.793104,54.060257]]],[[[-2.458779,54.232485],[-2.459471,54.229526],[-2.460863,54.226716],[-2.463969,54.22211],[-2.465611,54.220717],[-2.469015,54.2189],[-2.473699,54.215282],[-2.47477,54.21375],[-2.475693,54.210299],[-2.47705,54.208897],[-2.47963,54.204627],[-2.479324,54.203373],[-2.47994,54.202329],[-2.511742,54.178822],[-2.515322,54.17796],[-2.518222,54.176649],[-2.518838,54.17589],[-2.522301,54.173912],[-2.52364,54.172417],[-2.523181,54.17128],[-2.526804,54.170389],[-2.527798,54.169682],[-2.528759,54.169484],[-2.529347,54.168598],[-2.529374,54.167096],[-2.530218,54.166517],[-2.528907,54.164238],[-2.530451,54.164033],[-2.529955,54.162648],[-2.530792,54.161526],[-2.531558,54.160945],[-2.532995,54.160856],[-2.533136,54.158558],[-2.533979,54.157693],[-2.536731,54.156513],[-2.541325,54.15772],[-2.543683,54.157595],[-2.544825,54.155717],[-2.547323,54.153319],[-2.552287,54.153657],[-2.557675,54.15349],[-2.560504,54.153052],[-2.561515,54.150531],[-2.557378,54.14998],[-2.558198,54.147421],[-2.557874,54.143364],[-2.558316,54.142907],[-2.560951,54.142842],[-2.56133,54.141964],[-2.56341,54.140406],[-2.562666,54.136509],[-2.563585,54.136161],[-2.563715,54.135457],[-2.563243,54.13516],[-2.562224,54.135184],[-2.562056,54.132836],[-2.562489,54.131736],[-2.561389,54.1299],[-2.562473,54.12916],[-2.56319,54.127896],[-2.564732,54.126905],[-2.563215,54.12538],[-2.563481,54.124678],[-2.562989,54.12442],[-2.563329,54.122706],[-2.560765,54.122373],[-2.560635,54.121718],[-2.559213,54.121086],[-2.556874,54.120609],[-2.553083,54.120543],[-2.544764,54.11713],[-2.544671,54.11655],[-2.545653,54.115978],[-2.545438,54.115694],[-2.546057,54.115171],[-2.545836,54.114367],[-2.54474,54.114023],[-2.544679,54.113221],[-2.543999,54.113239],[-2.543798,54.112629],[-2.542079,54.111738],[-2.541786,54.111866],[-2.539091,54.109921],[-2.538212,54.1099],[-2.53746,54.109115],[-2.536665,54.10907],[-2.536201,54.108626],[-2.536953,54.106876],[-2.536731,54.106486],[-2.538128,54.105675],[-2.536766,54.104099],[-2.534427,54.103424],[-2.531535,54.103281],[-2.530042,54.102709],[-2.527502,54.102602],[-2.526306,54.10195],[-2.524893,54.102329],[-2.524109,54.102129],[-2.524493,54.100315],[-2.526391,54.099177],[-2.525885,54.09844],[-2.52559,54.096029],[-2.52519,54.095983],[-2.525199,54.095335],[-2.52401,54.094622],[-2.520523,54.095543],[-2.517242,54.094968],[-2.509526,54.095425],[-2.50855,54.09423],[-2.508754,54.092422],[-2.506305,54.091475],[-2.494205,54.089804],[-2.492566,54.089876],[-2.491566,54.08732],[-2.488398,54.086725],[-2.486383,54.084852],[-2.480751,54.085379],[-2.470724,54.076564],[-2.464347,54.075279],[-2.465613,54.071731],[-2.46399,54.061084],[-2.469015,54.054881],[-2.470063,54.052286],[-2.470546,54.050855],[-2.46955,54.046212],[-2.486658,54.042555],[-2.492291,54.040015],[-2.49399,54.036545],[-2.492834,54.034144],[-2.49289,54.032137],[-2.495594,54.02893],[-2.49789,54.027393],[-2.497761,54.025819],[-2.499187,54.025064],[-2.500493,54.024873],[-2.498936,54.023999],[-2.497755,54.02203],[-2.502681,54.020399],[-2.512881,54.022367],[-2.518679,54.021245],[-2.521851,54.022494],[-2.52731,54.026245],[-2.531985,54.023849],[-2.538727,54.022652],[-2.544145,54.019691],[-2.545859,54.014874],[-2.547106,54.014077],[-2.549195,54.013673],[-2.556891,54.015459],[-2.564308,54.015264],[-2.566951,54.014827],[-2.568111,54.015049],[-2.572186,54.014623],[-2.574775,54.012939],[-2.57926,54.007581],[-2.579588,54.006478],[-2.578947,54.004785],[-2.580492,54.001483],[-2.580653,54.000118],[-2.57742,53.994416],[-2.577229,53.993005],[-2.574326,53.991728],[-2.571315,53.989406],[-2.570917,53.98782],[-2.572242,53.986817],[-2.573968,53.986156],[-2.573825,53.985174],[-2.57219,53.983556],[-2.569295,53.981821],[-2.565803,53.979018],[-2.561055,53.976129],[-2.557526,53.974912],[-2.566734,53.973467],[-2.574109,53.972996],[-2.577424,53.972011],[-2.578351,53.971246],[-2.579306,53.967482],[-2.581643,53.964769],[-2.588847,53.960216],[-2.593812,53.959373],[-2.602919,53.957087],[-2.606577,53.956706],[-2.611124,53.956851],[-2.613738,53.955763],[-2.615079,53.953377],[-2.616902,53.952212],[-2.620205,53.952813],[-2.623652,53.95496],[-2.630405,53.95771],[-2.637525,53.958459],[-2.643043,53.957588],[-2.644643,53.956898],[-2.646162,53.955298],[-2.650832,53.952255],[-2.649699,53.949907],[-2.648217,53.948922],[-2.655267,53.949315],[-2.662671,53.947394],[-2.664154,53.947267],[-2.673648,53.950221],[-2.679875,53.95026],[-2.684579,53.949397],[-2.687917,53.949702],[-2.688854,53.949178],[-2.699003,53.94709],[-2.700329,53.946047],[-2.702049,53.943556],[-2.702642,53.944881],[-2.701587,53.946354],[-2.700551,53.949173],[-2.703373,53.95352],[-2.7065,53.955898],[-2.706374,53.958329],[-2.709333,53.960432],[-2.710513,53.963631],[-2.711828,53.965759],[-2.710403,53.969709],[-2.711039,53.973212],[-2.712503,53.976142],[-2.714859,53.978565],[-2.715656,53.980244],[-2.719799,53.979443],[-2.720206,53.978488],[-2.722546,53.977251],[-2.72418,53.978605],[-2.725162,53.978788],[-2.72745,53.978513],[-2.728271,53.977902],[-2.728987,53.977819],[-2.730851,53.975653],[-2.735237,53.974526],[-2.73514,53.974015],[-2.733955,53.973118],[-2.734504,53.971844],[-2.735361,53.971502],[-2.735131,53.970581],[-2.736443,53.968037],[-2.73577,53.967411],[-2.733904,53.967563],[-2.733103,53.967148],[-2.734404,53.965494],[-2.736018,53.964454],[-2.736209,53.963742],[-2.739985,53.962433],[-2.739437,53.960116],[-2.740519,53.959023],[-2.741603,53.958615],[-2.741828,53.957014],[-2.741476,53.956857],[-2.742435,53.95618],[-2.753066,53.953401],[-2.755375,53.952331],[-2.755697,53.952699],[-2.753176,53.954808],[-2.753457,53.954883],[-2.752417,53.954965],[-2.752304,53.955446],[-2.750778,53.956617],[-2.752581,53.957184],[-2.753542,53.957846],[-2.756019,53.958292],[-2.757381,53.959219],[-2.756452,53.960432],[-2.75754,53.961333],[-2.757868,53.963109],[-2.759856,53.963523],[-2.759775,53.963871],[-2.760698,53.964498],[-2.766037,53.965213],[-2.768863,53.965065],[-2.770091,53.964637],[-2.771007,53.963543],[-2.774484,53.963881],[-2.774987,53.96481],[-2.776195,53.964757],[-2.777827,53.965205],[-2.777945,53.965656],[-2.780535,53.966646],[-2.782109,53.967997],[-2.786721,53.967375],[-2.786845,53.967655],[-2.787933,53.967824],[-2.789771,53.969863],[-2.792918,53.97094],[-2.794286,53.971929],[-2.794893,53.974208],[-2.796383,53.975472],[-2.798619,53.975117],[-2.798506,53.974483],[-2.799951,53.974016],[-2.798948,53.972457],[-2.799757,53.971547],[-2.799833,53.969891],[-2.801868,53.969278],[-2.802983,53.968052],[-2.80371,53.967951],[-2.803932,53.967617],[-2.803824,53.966579],[-2.80436,53.96579],[-2.803533,53.965507],[-2.803158,53.964924],[-2.803482,53.963683],[-2.804178,53.963565],[-2.804781,53.962823],[-2.806238,53.963174],[-2.807439,53.96199],[-2.806361,53.959855],[-2.806526,53.959399],[-2.805802,53.959312],[-2.804382,53.958089],[-2.803139,53.957608],[-2.804352,53.956737],[-2.805574,53.953925],[-2.805314,53.952943],[-2.803949,53.952562],[-2.803613,53.952134],[-2.803132,53.952182],[-2.802824,53.95158],[-2.803347,53.950956],[-2.805679,53.949788],[-2.806501,53.948017],[-2.810788,53.947103],[-2.811316,53.946684],[-2.813271,53.946252],[-2.813664,53.945807],[-2.81258,53.944918],[-2.810824,53.944344],[-2.808446,53.943857],[-2.80705,53.94409],[-2.803951,53.943426],[-2.802321,53.942073],[-2.804705,53.940322],[-2.805372,53.939285],[-2.804744,53.937125],[-2.803688,53.935754],[-2.809664,53.933553],[-2.818711,53.934929],[-2.825919,53.933367],[-2.864367,53.91808],[-2.873712,53.928462],[-2.873272,53.931182],[-2.877887,53.932466],[-2.881973,53.934864],[-2.883984,53.93533],[-2.883966,53.935881],[-2.885208,53.936808],[-2.883347,53.938075],[-2.882785,53.938025],[-2.883021,53.937569],[-2.88194,53.937074],[-2.881408,53.937473],[-2.880274,53.937448],[-2.879284,53.938931],[-2.877896,53.938931],[-2.878107,53.939707],[-2.876741,53.939654],[-2.87606,53.940761],[-2.877244,53.941694],[-2.878399,53.941431],[-2.878552,53.941866],[-2.878862,53.941559],[-2.880016,53.941474],[-2.879043,53.941913],[-2.879343,53.943405],[-2.879758,53.943868],[-2.880334,53.943607],[-2.879968,53.944156],[-2.878749,53.944301],[-2.879643,53.945482],[-2.880678,53.945248],[-2.882473,53.946281],[-2.882428,53.946709],[-2.881561,53.946647],[-2.880474,53.94546],[-2.880679,53.945847],[-2.879108,53.946222],[-2.879225,53.945538],[-2.878889,53.946316],[-2.877908,53.946619],[-2.876347,53.946482],[-2.876496,53.944787],[-2.876133,53.946254],[-2.874884,53.945698],[-2.874439,53.945804],[-2.875266,53.946326],[-2.875784,53.947411],[-2.875396,53.947763],[-2.875417,53.947183],[-2.874203,53.947045],[-2.873821,53.946409],[-2.872982,53.946893],[-2.873898,53.946707],[-2.874135,53.947099],[-2.875325,53.947227],[-2.87524,53.947841],[-2.87536,53.947838],[-2.875934,53.947489],[-2.876497,53.947695],[-2.875816,53.948881],[-2.875321,53.948959],[-2.874798,53.948143],[-2.874258,53.948626],[-2.873699,53.948334],[-2.874297,53.94872],[-2.874713,53.948286],[-2.875139,53.949021],[-2.875695,53.949096],[-2.873703,53.949097],[-2.87297,53.949465],[-2.874378,53.951144],[-2.872941,53.950643],[-2.873137,53.950514],[-2.872741,53.949852],[-2.872425,53.950143],[-2.872804,53.950064],[-2.87304,53.950462],[-2.872545,53.950471],[-2.872924,53.950757],[-2.873297,53.950795],[-2.871691,53.951402],[-2.869991,53.95065],[-2.869761,53.950833],[-2.870656,53.951158],[-2.868469,53.952826],[-2.865956,53.952514],[-2.865211,53.953176],[-2.864092,53.953332],[-2.865238,53.953382],[-2.866026,53.952815],[-2.868668,53.953041],[-2.870622,53.951429],[-2.87187,53.951743],[-2.874487,53.951761],[-2.875264,53.952201],[-2.874642,53.952102],[-2.875237,53.952665],[-2.873282,53.953211],[-2.872554,53.953783],[-2.874985,53.953066],[-2.875137,53.953842],[-2.876468,53.954062],[-2.874052,53.954594],[-2.876714,53.954335],[-2.876876,53.95464],[-2.877081,53.954339],[-2.877832,53.955095],[-2.877719,53.954599],[-2.878392,53.95418],[-2.880268,53.954043],[-2.883196,53.955819],[-2.882467,53.956141],[-2.8835,53.956141],[-2.883159,53.956708],[-2.884622,53.956017],[-2.885933,53.956511],[-2.886784,53.958355],[-2.883183,53.959078],[-2.882237,53.956885],[-2.88033,53.956689],[-2.879954,53.957371],[-2.878745,53.957719],[-2.878016,53.958693],[-2.876378,53.958077],[-2.876187,53.957695],[-2.875946,53.958117],[-2.873372,53.957684],[-2.872366,53.957818],[-2.87119,53.956523],[-2.872137,53.958],[-2.870644,53.957546],[-2.870718,53.95903],[-2.869826,53.959738],[-2.868039,53.958085],[-2.865988,53.957313],[-2.865638,53.956398],[-2.866093,53.955468],[-2.865257,53.956576],[-2.864536,53.956644],[-2.863969,53.955922],[-2.864081,53.956411],[-2.862933,53.956467],[-2.861036,53.955037],[-2.861736,53.955677],[-2.860481,53.955909],[-2.861655,53.955752],[-2.862356,53.95634],[-2.86204,53.956847],[-2.863725,53.956529],[-2.865447,53.956804],[-2.865949,53.957541],[-2.867961,53.95822],[-2.869376,53.959748],[-2.866022,53.961224],[-2.86546,53.962654],[-2.862991,53.962692],[-2.859443,53.961725],[-2.857778,53.959529],[-2.858286,53.958826],[-2.858659,53.95887],[-2.859294,53.958559],[-2.859513,53.957837],[-2.858834,53.957579],[-2.859693,53.957206],[-2.858666,53.957562],[-2.859244,53.958337],[-2.858804,53.958689],[-2.857626,53.958521],[-2.857248,53.957606],[-2.857088,53.958112],[-2.858004,53.95889],[-2.857501,53.959702],[-2.855076,53.959175],[-2.857216,53.959756],[-2.857714,53.959745],[-2.859201,53.961859],[-2.864796,53.963263],[-2.861876,53.964625],[-2.858892,53.964573],[-2.858092,53.963857],[-2.859091,53.963027],[-2.857692,53.962855],[-2.857505,53.962244],[-2.856128,53.962384],[-2.856879,53.961811],[-2.856007,53.961971],[-2.85576,53.9625],[-2.856687,53.962707],[-2.857202,53.962381],[-2.857274,53.962985],[-2.858358,53.963164],[-2.857514,53.963842],[-2.857684,53.964718],[-2.854281,53.965113],[-2.853228,53.964418],[-2.853425,53.964129],[-2.853098,53.963883],[-2.853823,53.963596],[-2.852966,53.963343],[-2.853313,53.963137],[-2.852901,53.962372],[-2.853232,53.963104],[-2.852762,53.963296],[-2.853606,53.963577],[-2.852945,53.963825],[-2.852812,53.964185],[-2.840616,53.956123],[-2.836333,53.95463],[-2.837479,53.955526],[-2.840628,53.956254],[-2.841278,53.956983],[-2.841181,53.956655],[-2.853963,53.965214],[-2.852054,53.965385],[-2.851198,53.964632],[-2.847323,53.964122],[-2.842027,53.964604],[-2.841999,53.963396],[-2.843886,53.964036],[-2.845204,53.963326],[-2.846188,53.963421],[-2.846595,53.962542],[-2.846109,53.961998],[-2.846513,53.962518],[-2.846128,53.963396],[-2.845232,53.963264],[-2.843931,53.963987],[-2.842288,53.963318],[-2.841767,53.96345],[-2.84167,53.963774],[-2.841745,53.96327],[-2.842671,53.962281],[-2.841829,53.961932],[-2.839257,53.962423],[-2.839044,53.962882],[-2.83978,53.962445],[-2.839192,53.963003],[-2.83953,53.963207],[-2.839267,53.963021],[-2.839934,53.962353],[-2.84182,53.962055],[-2.842332,53.962334],[-2.841427,53.963346],[-2.84076,53.963286],[-2.835871,53.963746],[-2.84112,53.963349],[-2.841888,53.964988],[-2.841557,53.965052],[-2.842645,53.965264],[-2.842567,53.965026],[-2.843368,53.964762],[-2.843693,53.964913],[-2.843293,53.965215],[-2.845809,53.965496],[-2.845394,53.965664],[-2.844974,53.966549],[-2.842876,53.966052],[-2.842562,53.966093],[-2.842273,53.966446],[-2.841807,53.965979],[-2.84129,53.96592],[-2.841182,53.965941],[-2.8409,53.966431],[-2.841361,53.965947],[-2.841737,53.96599],[-2.842159,53.966661],[-2.842492,53.96634],[-2.842828,53.966662],[-2.842942,53.967354],[-2.843041,53.967006],[-2.842618,53.966123],[-2.844888,53.966604],[-2.845076,53.966583],[-2.845604,53.965596],[-2.846418,53.965719],[-2.846093,53.966417],[-2.845242,53.966578],[-2.844356,53.966914],[-2.844059,53.968108],[-2.844544,53.96707],[-2.844911,53.967481],[-2.845015,53.967521],[-2.845584,53.96753],[-2.845309,53.967885],[-2.845655,53.967573],[-2.845536,53.967431],[-2.844991,53.967495],[-2.844433,53.966921],[-2.845237,53.967141],[-2.845248,53.966646],[-2.846294,53.96671],[-2.845849,53.966554],[-2.846616,53.966353],[-2.846547,53.965744],[-2.847657,53.966075],[-2.847906,53.966079],[-2.8487,53.965975],[-2.848319,53.966304],[-2.84881,53.966606],[-2.848389,53.966306],[-2.848872,53.965893],[-2.850818,53.96628],[-2.851784,53.967118],[-2.85328,53.966766],[-2.853091,53.967701],[-2.851656,53.968135],[-2.847599,53.968067],[-2.848717,53.968145],[-2.847646,53.96827],[-2.850661,53.968449],[-2.852953,53.967907],[-2.852935,53.968448],[-2.853554,53.966693],[-2.854582,53.966493],[-2.859906,53.968287],[-2.864885,53.968792],[-2.867724,53.969636],[-2.871948,53.970311],[-2.87389,53.971664],[-2.874613,53.973706],[-2.875892,53.974542],[-2.876976,53.978694],[-2.878651,53.978752],[-2.879249,53.979069],[-2.878611,53.979446],[-2.876985,53.979417],[-2.869991,53.982621],[-2.869269,53.984063],[-2.869036,53.986235],[-2.870546,53.990345],[-2.869837,53.991867],[-2.86854,53.992355],[-2.867987,53.993259],[-2.865264,53.994247],[-2.864857,53.994011],[-2.86524,53.994304],[-2.864669,53.994749],[-2.863012,53.995368],[-2.862749,53.994893],[-2.862501,53.995195],[-2.861986,53.994922],[-2.861147,53.995417],[-2.860767,53.995253],[-2.861438,53.994977],[-2.8611,53.994099],[-2.861469,53.993671],[-2.860545,53.992964],[-2.861871,53.992963],[-2.861022,53.992601],[-2.86042,53.992882],[-2.860473,53.993306],[-2.859455,53.992937],[-2.858403,53.993392],[-2.857061,53.993367],[-2.85676,53.994312],[-2.856035,53.994144],[-2.856166,53.995172],[-2.85728,53.993581],[-2.858199,53.993528],[-2.859743,53.993051],[-2.859284,53.993725],[-2.859972,53.993172],[-2.861146,53.993684],[-2.860689,53.994134],[-2.860891,53.994487],[-2.859611,53.99488],[-2.86113,53.994462],[-2.861131,53.994784],[-2.860256,53.995171],[-2.859854,53.99513],[-2.860987,53.995639],[-2.861894,53.995171],[-2.862352,53.995336],[-2.860697,53.996214],[-2.860412,53.99589],[-2.859913,53.996937],[-2.859447,53.996751],[-2.859904,53.996464],[-2.859418,53.996324],[-2.859573,53.996599],[-2.859028,53.996873],[-2.858479,53.99614],[-2.858882,53.996918],[-2.858447,53.997141],[-2.858095,53.996737],[-2.858238,53.997216],[-2.857118,53.997804],[-2.859284,53.996886],[-2.859806,53.99774],[-2.856046,53.999573],[-2.852091,54.000514],[-2.850641,54.000506],[-2.849119,53.99964],[-2.848815,53.999986],[-2.848287,53.999935],[-2.846505,53.998545],[-2.845226,53.998043],[-2.840679,53.997807],[-2.840288,53.99699],[-2.839967,53.997267],[-2.840469,53.997825],[-2.837023,53.998018],[-2.836629,53.997781],[-2.836828,53.997632],[-2.836612,53.997546],[-2.836852,53.997145],[-2.836515,53.997346],[-2.836553,53.997569],[-2.836754,53.997647],[-2.836601,53.997754],[-2.836596,53.997831],[-2.836739,53.997917],[-2.8359,53.997847],[-2.834032,53.99866],[-2.832808,53.997573],[-2.833926,53.996968],[-2.834968,53.997192],[-2.834516,53.996878],[-2.833748,53.996868],[-2.83298,53.997227],[-2.832818,53.996804],[-2.832506,53.997381],[-2.831995,53.997224],[-2.832209,53.996926],[-2.83166,53.997438],[-2.830653,53.997318],[-2.833348,53.996312],[-2.832267,53.996495],[-2.832392,53.994803],[-2.832211,53.995435],[-2.831702,53.995449],[-2.832131,53.995828],[-2.831434,53.995893],[-2.831972,53.996534],[-2.830446,53.997223],[-2.830627,53.995461],[-2.829029,53.995163],[-2.826548,53.996002],[-2.827806,53.995405],[-2.825461,53.99456],[-2.824777,53.994651],[-2.824175,53.995312],[-2.823364,53.995246],[-2.823343,53.994799],[-2.82297,53.99486],[-2.823227,53.995267],[-2.824132,53.995431],[-2.825245,53.994603],[-2.82747,53.995403],[-2.825733,53.995575],[-2.826615,53.996354],[-2.829231,53.995445],[-2.82989,53.996476],[-2.829552,53.997028],[-2.828693,53.99672],[-2.828884,53.997031],[-2.830841,53.997776],[-2.83226,53.997923],[-2.832391,53.998111],[-2.831535,53.998252],[-2.832346,53.99815],[-2.832748,53.998437],[-2.832605,53.999139],[-2.832272,53.999343],[-2.831915,53.998862],[-2.831371,53.999697],[-2.832448,53.999603],[-2.830927,54.000456],[-2.830622,54.001058],[-2.830879,54.001465],[-2.831363,54.001388],[-2.831003,54.001697],[-2.83185,54.00156],[-2.832571,54.002579],[-2.832409,54.002806],[-2.831184,54.002159],[-2.832268,54.002834],[-2.832371,54.00339],[-2.831151,54.002786],[-2.831449,54.003092],[-2.831037,54.00297],[-2.831256,54.003449],[-2.831903,54.003413],[-2.831941,54.003814],[-2.832281,54.003649],[-2.833153,54.006366],[-2.83278,54.00742],[-2.831717,54.007897],[-2.830124,54.011686],[-2.829421,54.012297],[-2.82898,54.015018],[-2.829426,54.015503],[-2.829977,54.017709],[-2.829943,54.020783],[-2.82903,54.021268],[-2.828223,54.021222],[-2.828911,54.02137],[-2.829487,54.021218],[-2.829946,54.02176],[-2.829009,54.027075],[-2.826742,54.028847],[-2.826466,54.029547],[-2.826608,54.030275],[-2.827293,54.031302],[-2.826721,54.030138],[-2.826814,54.02904],[-2.828663,54.027702],[-2.83055,54.031057],[-2.831671,54.031918],[-2.82937,54.03346],[-2.82895,54.033422],[-2.828708,54.032909],[-2.82809,54.033465],[-2.828766,54.033234],[-2.828906,54.033423],[-2.829341,54.033578],[-2.828106,54.033734],[-2.829238,54.033645],[-2.828374,54.033898],[-2.828805,54.034029],[-2.828381,54.034376],[-2.82911,54.033895],[-2.829413,54.034459],[-2.828683,54.034573],[-2.828963,54.034792],[-2.827954,54.03473],[-2.828923,54.034846],[-2.828502,54.035156],[-2.827899,54.035065],[-2.828017,54.035341],[-2.828546,54.035199],[-2.828681,54.036561],[-2.830059,54.03764],[-2.828751,54.036545],[-2.82865,54.035559],[-2.829314,54.036416],[-2.828673,54.035452],[-2.829576,54.034667],[-2.830343,54.035228],[-2.829694,54.035888],[-2.830539,54.035332],[-2.831476,54.03592],[-2.830435,54.036159],[-2.830845,54.036196],[-2.830641,54.036475],[-2.831551,54.035903],[-2.831695,54.035671],[-2.83121,54.035731],[-2.829953,54.034655],[-2.831268,54.035021],[-2.829804,54.034536],[-2.829543,54.033904],[-2.830274,54.033994],[-2.829582,54.033791],[-2.830817,54.032652],[-2.831199,54.033124],[-2.831096,54.032515],[-2.831818,54.032434],[-2.833046,54.03304],[-2.831355,54.033689],[-2.833046,54.033181],[-2.833664,54.033558],[-2.831528,54.034131],[-2.833537,54.033737],[-2.832584,54.034259],[-2.833206,54.034309],[-2.832384,54.03451],[-2.832946,54.034604],[-2.83322,54.034332],[-2.83321,54.034252],[-2.833058,54.034089],[-2.833888,54.033823],[-2.834752,54.034412],[-2.833829,54.035002],[-2.833279,54.03475],[-2.833472,54.03492],[-2.83276,54.035075],[-2.833736,54.03499],[-2.833086,54.035333],[-2.834797,54.034674],[-2.83523,54.034798],[-2.833104,54.03594],[-2.834294,54.035632],[-2.834023,54.036005],[-2.834481,54.035919],[-2.834727,54.035356],[-2.835601,54.035089],[-2.836232,54.035865],[-2.834101,54.036511],[-2.834894,54.03657],[-2.83469,54.036827],[-2.836446,54.035911],[-2.836984,54.036337],[-2.836345,54.036473],[-2.836885,54.036551],[-2.836302,54.037213],[-2.835406,54.037412],[-2.833393,54.036653],[-2.832898,54.037068],[-2.832414,54.036935],[-2.831893,54.037037],[-2.831498,54.036832],[-2.831231,54.036783],[-2.830902,54.036833],[-2.83058,54.036977],[-2.831595,54.037034],[-2.830396,54.037328],[-2.83242,54.036968],[-2.833242,54.037325],[-2.832718,54.037671],[-2.832059,54.037421],[-2.832666,54.037751],[-2.832547,54.038276],[-2.831722,54.038121],[-2.832147,54.038377],[-2.831161,54.038471],[-2.832431,54.038385],[-2.831946,54.03871],[-2.83281,54.03946],[-2.83218,54.03872],[-2.832961,54.038135],[-2.83328,54.039117],[-2.833141,54.038217],[-2.833086,54.038144],[-2.832763,54.038082],[-2.833401,54.037497],[-2.833222,54.037022],[-2.83368,54.036841],[-2.834876,54.037454],[-2.83323,54.03769],[-2.834735,54.037752],[-2.834604,54.038305],[-2.833949,54.038611],[-2.834643,54.03834],[-2.835045,54.037442],[-2.835939,54.037694],[-2.835675,54.037553],[-2.837595,54.036822],[-2.83792,54.037365],[-2.836473,54.037824],[-2.836646,54.038331],[-2.836072,54.038118],[-2.835747,54.038869],[-2.833934,54.03906],[-2.833245,54.039667],[-2.834037,54.039125],[-2.835197,54.038989],[-2.834749,54.039324],[-2.835816,54.038889],[-2.836053,54.038193],[-2.836623,54.038385],[-2.836995,54.038055],[-2.837211,54.038856],[-2.837561,54.038934],[-2.834703,54.040092],[-2.833327,54.03979],[-2.834541,54.040276],[-2.837733,54.038927],[-2.837295,54.038763],[-2.837076,54.037858],[-2.838374,54.037456],[-2.839442,54.038265],[-2.838892,54.038906],[-2.836774,54.040105],[-2.835647,54.039993],[-2.835635,54.040566],[-2.835838,54.040151],[-2.836545,54.040207],[-2.836604,54.040459],[-2.83661,54.04018],[-2.836865,54.04011],[-2.838861,54.038964],[-2.839492,54.038539],[-2.839978,54.038683],[-2.840071,54.039273],[-2.839188,54.039652],[-2.838441,54.039562],[-2.838443,54.040269],[-2.836949,54.04086],[-2.838359,54.040436],[-2.838202,54.040805],[-2.83747,54.040916],[-2.837928,54.040938],[-2.837526,54.041133],[-2.838269,54.040821],[-2.837491,54.041404],[-2.83834,54.040904],[-2.838771,54.039883],[-2.838544,54.039623],[-2.839259,54.039701],[-2.840371,54.039251],[-2.841257,54.03993],[-2.841889,54.040866],[-2.841038,54.041169],[-2.84063,54.040712],[-2.840642,54.041033],[-2.841016,54.041188],[-2.841906,54.040927],[-2.841455,54.041406],[-2.839698,54.04199],[-2.839215,54.041163],[-2.83875,54.04142],[-2.838358,54.041219],[-2.838221,54.041217],[-2.837979,54.041338],[-2.838323,54.041256],[-2.838175,54.041418],[-2.838668,54.04164],[-2.837703,54.041979],[-2.838553,54.041778],[-2.839134,54.041351],[-2.839724,54.042079],[-2.83894,54.04263],[-2.841304,54.041572],[-2.842101,54.041074],[-2.842313,54.04158],[-2.841435,54.041807],[-2.840263,54.042682],[-2.839684,54.042676],[-2.840056,54.042761],[-2.839594,54.043249],[-2.841526,54.041827],[-2.84252,54.041927],[-2.842594,54.04321],[-2.841681,54.04329],[-2.841399,54.0435],[-2.840741,54.042882],[-2.841407,54.043632],[-2.840439,54.043462],[-2.841213,54.043753],[-2.841492,54.043624],[-2.841685,54.043342],[-2.842809,54.043381],[-2.842326,54.044988],[-2.84091,54.044081],[-2.841984,54.04481],[-2.841487,54.044832],[-2.841259,54.044888],[-2.842023,54.044919],[-2.842006,54.045336],[-2.841573,54.045053],[-2.840655,54.044914],[-2.841626,54.0451],[-2.84169,54.045633],[-2.840566,54.045366],[-2.841269,54.045644],[-2.840187,54.045853],[-2.841453,54.04571],[-2.840132,54.046332],[-2.839527,54.046033],[-2.83919,54.046138],[-2.839669,54.046105],[-2.839958,54.046461],[-2.837238,54.046942],[-2.837422,54.047124],[-2.824055,54.051507],[-2.809481,54.054743],[-2.806166,54.054291],[-2.802603,54.051952],[-2.799726,54.051968],[-2.79772,54.052793],[-2.795841,54.054171],[-2.793287,54.057557],[-2.792511,54.057816],[-2.793176,54.057746],[-2.791976,54.060836],[-2.791246,54.060992],[-2.791978,54.061027],[-2.791651,54.062276],[-2.793295,54.062953],[-2.795765,54.061179],[-2.794045,54.059698],[-2.794476,54.057727],[-2.797569,54.054529],[-2.799788,54.053187],[-2.801993,54.052724],[-2.803427,54.054178],[-2.806543,54.055451],[-2.811673,54.05547],[-2.826591,54.052011],[-2.831961,54.050253],[-2.837522,54.049062],[-2.838187,54.049151],[-2.837815,54.048979],[-2.8383,54.04886],[-2.838961,54.049727],[-2.838714,54.048708],[-2.839328,54.048961],[-2.839171,54.048579],[-2.842953,54.046908],[-2.844665,54.045487],[-2.845808,54.043771],[-2.846404,54.043656],[-2.846571,54.044141],[-2.845959,54.044339],[-2.846497,54.044208],[-2.847299,54.044536],[-2.846802,54.044694],[-2.846513,54.04503],[-2.847166,54.045262],[-2.846603,54.045025],[-2.847305,54.044836],[-2.847063,54.044678],[-2.847325,54.044621],[-2.847384,54.044484],[-2.84682,54.044235],[-2.847243,54.044015],[-2.846673,54.044101],[-2.846386,54.04359],[-2.845368,54.043893],[-2.845433,54.043265],[-2.846487,54.043368],[-2.847324,54.043316],[-2.847713,54.043189],[-2.847598,54.043393],[-2.848148,54.043067],[-2.848166,54.043463],[-2.848949,54.043554],[-2.849432,54.043284],[-2.849256,54.043026],[-2.849774,54.043127],[-2.849515,54.04294],[-2.849126,54.043032],[-2.849383,54.043273],[-2.848902,54.043501],[-2.848267,54.043466],[-2.848194,54.043022],[-2.846201,54.04318],[-2.847562,54.042498],[-2.847816,54.042299],[-2.849671,54.042374],[-2.848483,54.042018],[-2.848653,54.042229],[-2.848003,54.042184],[-2.848382,54.041825],[-2.849216,54.042093],[-2.848716,54.041621],[-2.85022,54.041103],[-2.849224,54.041381],[-2.849344,54.040958],[-2.848497,54.041771],[-2.84733,54.041954],[-2.848079,54.041988],[-2.847439,54.042505],[-2.845605,54.042973],[-2.845122,54.041445],[-2.845413,54.041328],[-2.845578,54.041596],[-2.845459,54.04124],[-2.846083,54.041238],[-2.846408,54.04165],[-2.846549,54.041319],[-2.847522,54.041298],[-2.846267,54.041247],[-2.847725,54.040769],[-2.846218,54.041207],[-2.845227,54.040894],[-2.845235,54.041324],[-2.844179,54.039528],[-2.845669,54.039606],[-2.845601,54.040058],[-2.845967,54.039805],[-2.846444,54.040309],[-2.845908,54.040428],[-2.846533,54.040507],[-2.846622,54.039911],[-2.847361,54.040549],[-2.847062,54.04004],[-2.847985,54.040313],[-2.848404,54.041046],[-2.847898,54.041011],[-2.848401,54.041206],[-2.848466,54.041173],[-2.848376,54.040753],[-2.849135,54.040814],[-2.847366,54.040035],[-2.84773,54.039836],[-2.848327,54.040176],[-2.848749,54.039982],[-2.848317,54.040131],[-2.84745,54.039667],[-2.847384,54.039973],[-2.846847,54.039884],[-2.846504,54.039294],[-2.847136,54.038788],[-2.848714,54.038939],[-2.847116,54.038766],[-2.847014,54.038797],[-2.846455,54.039332],[-2.846717,54.039826],[-2.846324,54.039862],[-2.845523,54.039449],[-2.843914,54.039191],[-2.840534,54.035965],[-2.841129,54.034019],[-2.840536,54.03226],[-2.841514,54.032322],[-2.842451,54.031591],[-2.841535,54.032155],[-2.840457,54.032207],[-2.840933,54.034044],[-2.840506,54.035576],[-2.840093,54.035578],[-2.836542,54.032406],[-2.836479,54.032098],[-2.837962,54.031686],[-2.838519,54.031927],[-2.838236,54.031597],[-2.839361,54.031511],[-2.840282,54.030665],[-2.840526,54.030825],[-2.840218,54.030426],[-2.840626,54.028591],[-2.841385,54.028666],[-2.84057,54.028576],[-2.839935,54.030724],[-2.837573,54.031499],[-2.838223,54.030919],[-2.836906,54.031813],[-2.836185,54.031786],[-2.835246,54.03079],[-2.835997,54.030414],[-2.834976,54.03063],[-2.834375,54.0298],[-2.834926,54.029426],[-2.834079,54.029367],[-2.83294,54.026933],[-2.833078,54.02575],[-2.834628,54.025807],[-2.833371,54.025346],[-2.833864,54.023332],[-2.834326,54.023231],[-2.833969,54.023048],[-2.836356,54.023127],[-2.836641,54.024459],[-2.836979,54.024124],[-2.8366,54.023105],[-2.839384,54.023269],[-2.839778,54.023521],[-2.839838,54.025387],[-2.841432,54.025546],[-2.842087,54.026084],[-2.841517,54.025545],[-2.84008,54.025086],[-2.839999,54.02358],[-2.841001,54.023657],[-2.839597,54.023228],[-2.840346,54.02311],[-2.843228,54.02367],[-2.842489,54.025206],[-2.8434,54.023692],[-2.842653,54.023067],[-2.84203,54.023279],[-2.840353,54.022924],[-2.84141,54.022293],[-2.841295,54.021794],[-2.842781,54.022048],[-2.843766,54.02138],[-2.842888,54.02192],[-2.841122,54.021734],[-2.841236,54.021364],[-2.840455,54.02124],[-2.840552,54.020946],[-2.84157,54.021032],[-2.841822,54.020675],[-2.842579,54.020733],[-2.841832,54.020635],[-2.841502,54.02099],[-2.840653,54.020833],[-2.840308,54.021129],[-2.839919,54.020515],[-2.841184,54.020041],[-2.839716,54.020495],[-2.838295,54.020198],[-2.838795,54.019742],[-2.838737,54.019463],[-2.839548,54.019467],[-2.838626,54.019406],[-2.838555,54.019915],[-2.838097,54.019936],[-2.8376,54.018333],[-2.836928,54.017733],[-2.836717,54.016832],[-2.837174,54.016573],[-2.837882,54.016558],[-2.838037,54.016958],[-2.83803,54.016501],[-2.839108,54.016567],[-2.8385,54.018358],[-2.838587,54.018511],[-2.839458,54.018611],[-2.83976,54.018934],[-2.842214,54.019183],[-2.839809,54.018905],[-2.839645,54.018714],[-2.840214,54.018527],[-2.838623,54.018373],[-2.839241,54.017649],[-2.83957,54.017752],[-2.839277,54.017464],[-2.840456,54.017418],[-2.839246,54.017298],[-2.839295,54.016388],[-2.839941,54.016364],[-2.839217,54.016213],[-2.839408,54.015446],[-2.838886,54.01626],[-2.836782,54.01642],[-2.835908,54.016037],[-2.835749,54.015677],[-2.836846,54.015578],[-2.837793,54.014457],[-2.838918,54.014521],[-2.839363,54.013961],[-2.837621,54.014376],[-2.836595,54.015484],[-2.835855,54.015477],[-2.834962,54.014844],[-2.834721,54.014219],[-2.835474,54.013515],[-2.83506,54.012931],[-2.836131,54.012454],[-2.837603,54.013139],[-2.836525,54.012321],[-2.837148,54.011668],[-2.837943,54.011801],[-2.837072,54.011635],[-2.836246,54.012348],[-2.834958,54.012643],[-2.834681,54.012182],[-2.835293,54.010927],[-2.838516,54.008617],[-2.839309,54.00873],[-2.839481,54.009035],[-2.839145,54.01094],[-2.839667,54.009217],[-2.84088,54.008879],[-2.841584,54.009725],[-2.841691,54.009351],[-2.840915,54.008763],[-2.841431,54.008543],[-2.840072,54.009039],[-2.839494,54.008526],[-2.840413,54.008024],[-2.83821,54.008362],[-2.838701,54.007423],[-2.842296,54.005933],[-2.84973,54.005178],[-2.852118,54.005278],[-2.850904,54.005762],[-2.853311,54.005579],[-2.853432,54.006451],[-2.853865,54.006285],[-2.853491,54.006837],[-2.853966,54.007068],[-2.853319,54.006968],[-2.853772,54.007264],[-2.85295,54.009017],[-2.852515,54.00908],[-2.851436,54.008413],[-2.85041,54.0091],[-2.850757,54.009578],[-2.850642,54.009055],[-2.851551,54.008487],[-2.852767,54.009392],[-2.850927,54.009953],[-2.849422,54.009596],[-2.849106,54.00899],[-2.850257,54.007149],[-2.848816,54.009079],[-2.84912,54.009605],[-2.84772,54.009815],[-2.847731,54.010426],[-2.846751,54.010774],[-2.846885,54.011499],[-2.846065,54.012389],[-2.844732,54.012958],[-2.844806,54.013722],[-2.84445,54.013761],[-2.84376,54.01487],[-2.844636,54.013762],[-2.84494,54.014858],[-2.844927,54.012966],[-2.845397,54.012695],[-2.845782,54.012643],[-2.845905,54.013595],[-2.846933,54.013608],[-2.847425,54.013966],[-2.846981,54.013599],[-2.845952,54.013592],[-2.845847,54.012756],[-2.847339,54.01135],[-2.847694,54.01207],[-2.847423,54.011182],[-2.848396,54.011597],[-2.848652,54.01233],[-2.849735,54.012438],[-2.849281,54.013149],[-2.849342,54.013211],[-2.849981,54.013287],[-2.849364,54.013165],[-2.849855,54.012516],[-2.849747,54.012377],[-2.848679,54.012295],[-2.848401,54.011533],[-2.84756,54.011146],[-2.847201,54.011184],[-2.847127,54.010892],[-2.84805,54.01073],[-2.849077,54.009911],[-2.849917,54.009948],[-2.849823,54.010226],[-2.850761,54.010151],[-2.853213,54.009577],[-2.853966,54.008693],[-2.854628,54.006471],[-2.855241,54.006146],[-2.855616,54.006683],[-2.85531,54.0061],[-2.854948,54.006209],[-2.85539,54.005428],[-2.858706,54.004286],[-2.858866,54.003994],[-2.860492,54.003867],[-2.86229,54.004384],[-2.863166,54.004985],[-2.864054,54.006491],[-2.863692,54.006629],[-2.864239,54.006836],[-2.863461,54.007087],[-2.864027,54.007197],[-2.864079,54.007842],[-2.863721,54.007871],[-2.864133,54.007879],[-2.864477,54.007393],[-2.865765,54.008803],[-2.865565,54.009194],[-2.864353,54.008429],[-2.863754,54.008555],[-2.864198,54.008658],[-2.863896,54.008779],[-2.862594,54.008686],[-2.865116,54.008946],[-2.863405,54.009235],[-2.865837,54.009506],[-2.864616,54.00973],[-2.865831,54.009728],[-2.86549,54.010209],[-2.865849,54.010242],[-2.865513,54.010406],[-2.865905,54.010425],[-2.865956,54.010951],[-2.868095,54.010934],[-2.867382,54.011491],[-2.868436,54.011119],[-2.868641,54.010708],[-2.869044,54.011098],[-2.868763,54.011421],[-2.869211,54.011762],[-2.868136,54.01187],[-2.869325,54.011882],[-2.869972,54.012913],[-2.868679,54.012653],[-2.868898,54.012398],[-2.867732,54.012551],[-2.868637,54.012543],[-2.868233,54.012957],[-2.86769,54.012764],[-2.86775,54.013794],[-2.867261,54.014045],[-2.867764,54.014032],[-2.867818,54.013471],[-2.86813,54.013507],[-2.867796,54.012803],[-2.868383,54.013198],[-2.868594,54.012748],[-2.86932,54.012805],[-2.868793,54.013603],[-2.868998,54.014139],[-2.868512,54.014044],[-2.869971,54.014458],[-2.869015,54.013688],[-2.869691,54.012986],[-2.870459,54.013445],[-2.869918,54.013767],[-2.870559,54.013704],[-2.871099,54.014094],[-2.870076,54.014503],[-2.870984,54.014429],[-2.871249,54.014238],[-2.87094,54.013723],[-2.871617,54.013074],[-2.870729,54.01365],[-2.870049,54.013038],[-2.871334,54.012937],[-2.870906,54.012388],[-2.870878,54.012924],[-2.869869,54.012364],[-2.870298,54.011946],[-2.87083,54.012276],[-2.872012,54.011657],[-2.870773,54.01196],[-2.869483,54.011635],[-2.869348,54.011295],[-2.870261,54.01073],[-2.870279,54.010116],[-2.870876,54.010005],[-2.870427,54.009656],[-2.869635,54.009688],[-2.86887,54.010295],[-2.867684,54.010165],[-2.866729,54.01054],[-2.866478,54.009654],[-2.86681,54.00931],[-2.868068,54.009732],[-2.866681,54.009076],[-2.867331,54.008458],[-2.867981,54.008636],[-2.867857,54.008912],[-2.868788,54.009038],[-2.868265,54.008506],[-2.868945,54.008813],[-2.870919,54.008215],[-2.867727,54.008382],[-2.868855,54.007717],[-2.866639,54.008383],[-2.867088,54.007967],[-2.86704,54.007815],[-2.867785,54.007784],[-2.868104,54.007401],[-2.867644,54.007693],[-2.866761,54.007393],[-2.866955,54.007935],[-2.866364,54.008216],[-2.865923,54.007472],[-2.86538,54.007485],[-2.865599,54.006925],[-2.866418,54.006335],[-2.866462,54.006762],[-2.867308,54.006777],[-2.866737,54.006123],[-2.86746,54.006032],[-2.867753,54.006333],[-2.867972,54.006006],[-2.868158,54.006203],[-2.868589,54.006314],[-2.868285,54.006162],[-2.868887,54.005955],[-2.867633,54.005961],[-2.868264,54.005778],[-2.867791,54.005721],[-2.865636,54.006356],[-2.865549,54.005674],[-2.864733,54.005036],[-2.865152,54.004796],[-2.865588,54.005226],[-2.866014,54.005066],[-2.865521,54.005144],[-2.865519,54.004701],[-2.867024,54.004554],[-2.867135,54.004832],[-2.868234,54.00437],[-2.867636,54.004957],[-2.86808,54.004828],[-2.868429,54.005158],[-2.868715,54.004902],[-2.869115,54.005122],[-2.868876,54.005379],[-2.869388,54.005126],[-2.869713,54.005498],[-2.869462,54.005027],[-2.870155,54.00523],[-2.868688,54.004551],[-2.869545,54.004379],[-2.86855,54.004432],[-2.868512,54.00417],[-2.870325,54.003966],[-2.869804,54.004477],[-2.870701,54.003976],[-2.871625,54.004501],[-2.871188,54.004853],[-2.871585,54.004835],[-2.871769,54.005283],[-2.870001,54.006569],[-2.86937,54.006672],[-2.869767,54.007325],[-2.870534,54.007531],[-2.869566,54.006688],[-2.870622,54.006524],[-2.871274,54.007732],[-2.871211,54.006636],[-2.870365,54.006393],[-2.871316,54.00571],[-2.871691,54.006257],[-2.871436,54.005593],[-2.87212,54.005391],[-2.871853,54.007767],[-2.872057,54.008],[-2.872183,54.007528],[-2.873091,54.008208],[-2.872321,54.007553],[-2.873815,54.008117],[-2.873831,54.00789],[-2.872834,54.007634],[-2.872015,54.006761],[-2.873278,54.006461],[-2.872883,54.007076],[-2.873353,54.007298],[-2.872937,54.00708],[-2.873515,54.006539],[-2.873333,54.006409],[-2.87295,54.006448],[-2.873577,54.005956],[-2.874655,54.006433],[-2.873836,54.006639],[-2.873852,54.007492],[-2.874153,54.00673],[-2.874783,54.0065],[-2.875158,54.007129],[-2.874408,54.00745],[-2.874854,54.008062],[-2.874817,54.007328],[-2.875231,54.007169],[-2.875177,54.006794],[-2.875501,54.006662],[-2.875926,54.00699],[-2.87569,54.006665],[-2.876136,54.006639],[-2.875982,54.00734],[-2.876208,54.006624],[-2.875258,54.006666],[-2.874101,54.005913],[-2.874715,54.005448],[-2.875323,54.006036],[-2.875132,54.005647],[-2.87616,54.005777],[-2.875198,54.005509],[-2.876107,54.005461],[-2.875501,54.005389],[-2.876601,54.005083],[-2.874413,54.005491],[-2.874303,54.00503],[-2.875354,54.004756],[-2.875981,54.004189],[-2.877393,54.005153],[-2.876982,54.005863],[-2.877193,54.006273],[-2.877916,54.006284],[-2.878118,54.005803],[-2.87756,54.00567],[-2.877747,54.005153],[-2.876971,54.004098],[-2.876122,54.003976],[-2.875539,54.004283],[-2.875808,54.00396],[-2.875434,54.003752],[-2.875727,54.004034],[-2.875107,54.004325],[-2.873762,54.003774],[-2.873867,54.003426],[-2.873189,54.003412],[-2.873651,54.002971],[-2.874438,54.003051],[-2.873684,54.002938],[-2.873041,54.00336],[-2.871893,54.00277],[-2.872667,54.002587],[-2.872553,54.002286],[-2.87332,54.001846],[-2.874116,54.001843],[-2.874065,54.002134],[-2.874605,54.001935],[-2.874659,54.002792],[-2.874811,54.001248],[-2.876016,54.001784],[-2.875986,54.00137],[-2.87639,54.001579],[-2.876903,54.000472],[-2.876798,53.999336],[-2.87599,53.998923],[-2.875516,53.997595],[-2.876389,53.996019],[-2.876224,53.994145],[-2.881015,53.989473],[-2.882592,53.989971],[-2.882682,53.993274],[-2.884579,53.997239],[-2.884498,53.998026],[-2.885955,53.99981],[-2.887095,54.000588],[-2.887322,54.001792],[-2.888429,54.00155],[-2.889001,54.001827],[-2.888418,54.001525],[-2.887319,54.001546],[-2.887077,54.000385],[-2.888046,54.000553],[-2.886238,53.999937],[-2.884634,53.997637],[-2.888939,53.998169],[-2.889507,53.998777],[-2.890681,53.999153],[-2.890896,53.99954],[-2.891007,53.999353],[-2.890577,53.999042],[-2.890182,53.998878],[-2.889531,53.998741],[-2.888955,53.99812],[-2.887138,53.997784],[-2.887514,53.997508],[-2.889282,53.997416],[-2.889419,53.997164],[-2.887399,53.997427],[-2.88691,53.997761],[-2.884886,53.997231],[-2.883923,53.994727],[-2.88503,53.99536],[-2.887911,53.995454],[-2.885162,53.995],[-2.884279,53.994361],[-2.884273,53.993608],[-2.883942,53.993596],[-2.884413,53.993134],[-2.884087,53.993036],[-2.885021,53.991959],[-2.885607,53.992048],[-2.885337,53.992353],[-2.885806,53.992607],[-2.885498,53.992288],[-2.885915,53.991988],[-2.885362,53.991858],[-2.886063,53.991051],[-2.887313,53.990571],[-2.889309,53.990356],[-2.893056,53.990395],[-2.89364,53.990819],[-2.893668,53.990503],[-2.894547,53.99037],[-2.897927,53.991096],[-2.900196,53.992041],[-2.900231,53.993157],[-2.898948,53.994502],[-2.901037,53.994877],[-2.901457,53.996661],[-2.902917,53.99684],[-2.903743,53.998417],[-2.899304,53.999117],[-2.898097,53.999614],[-2.898146,53.999953],[-2.897005,54.000672],[-2.899675,53.999537],[-2.900932,54.000056],[-2.904058,54.002859],[-2.903632,54.003173],[-2.904131,54.00363],[-2.904362,54.005059],[-2.903412,54.004845],[-2.905064,54.005569],[-2.905016,54.006223],[-2.905816,54.005802],[-2.906383,54.005918],[-2.906984,54.007166],[-2.906647,54.010413],[-2.906226,54.010654],[-2.905463,54.010284],[-2.90519,54.010579],[-2.906056,54.012715],[-2.905554,54.013627],[-2.90571,54.015269],[-2.903757,54.017303],[-2.902277,54.017977],[-2.904027,54.022189],[-2.90638,54.022188],[-2.907537,54.021722],[-2.907705,54.021271],[-2.909152,54.021248],[-2.910898,54.022756],[-2.911672,54.024691],[-2.912228,54.024965],[-2.912829,54.024739],[-2.9131,54.025371],[-2.918818,54.027669],[-2.92294,54.030574],[-2.924431,54.031257],[-2.923851,54.031942],[-2.920852,54.030953],[-2.920114,54.03098],[-2.919811,54.031499],[-2.920433,54.031602],[-2.92,54.032209],[-2.912313,54.033782],[-2.912369,54.035275],[-2.913448,54.035566],[-2.92037,54.0343],[-2.921948,54.033595],[-2.922917,54.032736],[-2.923399,54.033305],[-2.91953,54.035669],[-2.912468,54.037762],[-2.912501,54.038379],[-2.911316,54.038076],[-2.906272,54.039395],[-2.905989,54.041282],[-2.90656,54.042793],[-2.905868,54.043335],[-2.905169,54.044929],[-2.905386,54.046022],[-2.90634,54.046875],[-2.905909,54.047867],[-2.901763,54.048142],[-2.900154,54.047862],[-2.898977,54.048128],[-2.897129,54.049276],[-2.896996,54.050864],[-2.896081,54.051249],[-2.894938,54.055292],[-2.895147,54.0562],[-2.896437,54.056322],[-2.895741,54.056584],[-2.895627,54.057487],[-2.895408,54.056535],[-2.894308,54.05649],[-2.892782,54.058185],[-2.892372,54.06051],[-2.893748,54.060667],[-2.892915,54.061008],[-2.892998,54.061837],[-2.89265,54.061823],[-2.892523,54.060854],[-2.891226,54.060855],[-2.888643,54.062923],[-2.88758,54.064602],[-2.887394,54.066153],[-2.889488,54.066452],[-2.887333,54.066331],[-2.886986,54.067398],[-2.886541,54.067344],[-2.886898,54.066203],[-2.885269,54.065434],[-2.882726,54.065872],[-2.881696,54.066558],[-2.881758,54.067201],[-2.882378,54.06737],[-2.881591,54.067865],[-2.881679,54.067412],[-2.880963,54.066838],[-2.877433,54.069095],[-2.876446,54.072866],[-2.87835,54.074057],[-2.879091,54.075134],[-2.880079,54.075492],[-2.879155,54.075635],[-2.87644,54.073392],[-2.874494,54.073939],[-2.87212,54.074038],[-2.87268,54.074944],[-2.871141,54.074601],[-2.871719,54.07403],[-2.870254,54.073148],[-2.86758,54.073277],[-2.866168,54.07381],[-2.8651,54.074668],[-2.865074,54.075456],[-2.866333,54.075604],[-2.864872,54.075516],[-2.86486,54.07618],[-2.864663,54.075476],[-2.863085,54.075538],[-2.860819,54.076569],[-2.860371,54.077214],[-2.859303,54.076919],[-2.857048,54.077674],[-2.857472,54.079354],[-2.856625,54.078395],[-2.855354,54.078797],[-2.856706,54.078148],[-2.856504,54.077611],[-2.854519,54.077468],[-2.853745,54.0777],[-2.853186,54.077382],[-2.85046,54.077218],[-2.849765,54.077386],[-2.850451,54.078025],[-2.849613,54.07777],[-2.848923,54.078037],[-2.849593,54.077621],[-2.849478,54.07731],[-2.846633,54.077638],[-2.84301,54.07856],[-2.842667,54.079005],[-2.843564,54.079264],[-2.842164,54.07906],[-2.841202,54.079753],[-2.841545,54.079083],[-2.84104,54.079092],[-2.839073,54.080041],[-2.834411,54.083226],[-2.833287,54.084629],[-2.834726,54.084762],[-2.833635,54.084959],[-2.833318,54.08535],[-2.83332,54.084876],[-2.8326,54.084762],[-2.827785,54.086184],[-2.825267,54.086369],[-2.823986,54.086938],[-2.825217,54.087483],[-2.824392,54.087435],[-2.824001,54.087786],[-2.824043,54.087209],[-2.823569,54.087233],[-2.819497,54.088841],[-2.817088,54.090995],[-2.816987,54.09219],[-2.815296,54.09294],[-2.815295,54.093086],[-2.816185,54.093612],[-2.816382,54.094622],[-2.815369,54.094969],[-2.814273,54.094911],[-2.815139,54.09512],[-2.815988,54.094825],[-2.815799,54.095339],[-2.816403,54.094658],[-2.816389,54.094016],[-2.816138,54.093454],[-2.815445,54.092927],[-2.817072,54.092183],[-2.817153,54.091067],[-2.818925,54.089829],[-2.819628,54.088879],[-2.821496,54.08897],[-2.822491,54.090318],[-2.823924,54.091095],[-2.824272,54.092027],[-2.82359,54.093136],[-2.821203,54.094195],[-2.825349,54.093881],[-2.82768,54.094551],[-2.827501,54.098597],[-2.8266,54.100433],[-2.825127,54.101664],[-2.819913,54.104138],[-2.819262,54.10412],[-2.819034,54.1037],[-2.819104,54.104309],[-2.813065,54.105117],[-2.812946,54.105765],[-2.812095,54.106448],[-2.810164,54.107265],[-2.809885,54.10704],[-2.809639,54.107736],[-2.806571,54.108995],[-2.807303,54.109098],[-2.807577,54.109934],[-2.807306,54.111476],[-2.80609,54.113436],[-2.803653,54.115125],[-2.799788,54.115572],[-2.800269,54.116173],[-2.799172,54.116955],[-2.799021,54.118814],[-2.797937,54.119555],[-2.796135,54.122343],[-2.794538,54.123576],[-2.79383,54.122578],[-2.794876,54.124173],[-2.794167,54.125981],[-2.793041,54.127042],[-2.791636,54.129343],[-2.792497,54.130619],[-2.791084,54.13076],[-2.790944,54.131728],[-2.789842,54.132655],[-2.788495,54.132711],[-2.786788,54.133993],[-2.785565,54.133912],[-2.785373,54.134725],[-2.783247,54.135901],[-2.781481,54.136291],[-2.78123,54.135833],[-2.780352,54.135528],[-2.781317,54.136431],[-2.783233,54.136049],[-2.785189,54.135058],[-2.785892,54.134025],[-2.786694,54.134214],[-2.787685,54.133375],[-2.790372,54.132619],[-2.79153,54.131359],[-2.793532,54.130397],[-2.792698,54.12954],[-2.792886,54.129176],[-2.79525,54.128932],[-2.798079,54.127434],[-2.800257,54.127748],[-2.800925,54.128215],[-2.801291,54.129266],[-2.803162,54.130291],[-2.802904,54.130837],[-2.804668,54.132595],[-2.804789,54.133219],[-2.807213,54.135431],[-2.806357,54.135537],[-2.804464,54.133445],[-2.803134,54.132873],[-2.804245,54.133408],[-2.803911,54.133719],[-2.804507,54.133652],[-2.805046,54.134131],[-2.805371,54.134534],[-2.80497,54.134947],[-2.805286,54.134771],[-2.806021,54.135587],[-2.805953,54.137363],[-2.804819,54.138032],[-2.804425,54.13913],[-2.803556,54.139155],[-2.802144,54.138329],[-2.801235,54.13847],[-2.801283,54.137856],[-2.80059,54.137283],[-2.799991,54.137965],[-2.798825,54.137644],[-2.798996,54.137021],[-2.800486,54.13681],[-2.800126,54.135811],[-2.800853,54.135694],[-2.801185,54.135449],[-2.800809,54.134449],[-2.801081,54.135521],[-2.800136,54.135718],[-2.799952,54.136194],[-2.800386,54.136783],[-2.798818,54.136941],[-2.79861,54.138361],[-2.7989,54.137934],[-2.800184,54.138549],[-2.799989,54.139144],[-2.800671,54.139124],[-2.800464,54.13942],[-2.801496,54.139094],[-2.801618,54.138711],[-2.802338,54.138721],[-2.801778,54.139079],[-2.802124,54.140363],[-2.803498,54.140597],[-2.802758,54.141094],[-2.803003,54.141526],[-2.801751,54.14101],[-2.800955,54.14121],[-2.801734,54.142028],[-2.801685,54.142958],[-2.802281,54.143348],[-2.80173,54.142847],[-2.801919,54.142013],[-2.801168,54.141175],[-2.801994,54.141143],[-2.803118,54.141628],[-2.803518,54.140962],[-2.803793,54.14133],[-2.804001,54.141136],[-2.803803,54.140501],[-2.804338,54.140995],[-2.805165,54.141015],[-2.805291,54.141523],[-2.805406,54.141329],[-2.805391,54.141018],[-2.803023,54.140141],[-2.802688,54.139721],[-2.804296,54.140125],[-2.806305,54.139908],[-2.807729,54.140959],[-2.807241,54.141456],[-2.80793,54.141231],[-2.807741,54.140722],[-2.808298,54.140905],[-2.808888,54.140698],[-2.809006,54.140247],[-2.808431,54.14076],[-2.807516,54.140657],[-2.805512,54.139311],[-2.806749,54.138904],[-2.807809,54.139459],[-2.806922,54.138685],[-2.80746,54.138505],[-2.811625,54.139291],[-2.808442,54.138674],[-2.807921,54.138296],[-2.810493,54.13756],[-2.810986,54.136769],[-2.810733,54.136094],[-2.812098,54.136432],[-2.810985,54.135974],[-2.811218,54.135745],[-2.812495,54.136024],[-2.81183,54.135741],[-2.812017,54.135451],[-2.810722,54.135922],[-2.809508,54.13559],[-2.809747,54.134472],[-2.808486,54.132728],[-2.810161,54.132319],[-2.810512,54.132633],[-2.812143,54.132903],[-2.815417,54.135378],[-2.816781,54.135437],[-2.817032,54.136255],[-2.819655,54.138248],[-2.821363,54.140712],[-2.822278,54.14085],[-2.824438,54.140284],[-2.825688,54.142641],[-2.826651,54.143046],[-2.828181,54.143081],[-2.828983,54.143693],[-2.829057,54.144528],[-2.827688,54.145779],[-2.827968,54.147275],[-2.82743,54.14786],[-2.824031,54.148909],[-2.822323,54.149031],[-2.820992,54.150631],[-2.818956,54.149391],[-2.818185,54.1493],[-2.819085,54.148198],[-2.818073,54.148877],[-2.817903,54.149297],[-2.818996,54.149662],[-2.819814,54.150372],[-2.820431,54.151554],[-2.819392,54.151601],[-2.819021,54.151194],[-2.819287,54.151671],[-2.81792,54.152098],[-2.82042,54.151662],[-2.821129,54.152981],[-2.8189,54.153807],[-2.818789,54.154438],[-2.817958,54.154121],[-2.816663,54.155016],[-2.816175,54.154802],[-2.81354,54.15488],[-2.81356,54.153995],[-2.813271,54.154875],[-2.810594,54.155001],[-2.816395,54.155073],[-2.815938,54.15537],[-2.817543,54.154901],[-2.817565,54.154505],[-2.818121,54.15441],[-2.818602,54.154672],[-2.819155,54.154336],[-2.824399,54.153572],[-2.82836,54.153328],[-2.827255,54.153902],[-2.828191,54.154071],[-2.828676,54.154889],[-2.829426,54.154769],[-2.830514,54.156186],[-2.830269,54.157136],[-2.830901,54.156862],[-2.832012,54.157335],[-2.832318,54.158573],[-2.835192,54.161513],[-2.834808,54.162108],[-2.835295,54.162292],[-2.835098,54.163162],[-2.83425,54.164657],[-2.832796,54.166006],[-2.832449,54.16763],[-2.833529,54.168883],[-2.834129,54.170704],[-2.833973,54.171909],[-2.837913,54.174226],[-2.837217,54.174172],[-2.828801,54.178967],[-2.823467,54.180067],[-2.82114,54.18103],[-2.818786,54.180845],[-2.815625,54.182114],[-2.814984,54.183329],[-2.813773,54.183917],[-2.813524,54.184491],[-2.813973,54.184897],[-2.813687,54.185768],[-2.814089,54.186724],[-2.815407,54.187302],[-2.816333,54.18981],[-2.811076,54.191961],[-2.809041,54.194016],[-2.806175,54.193818],[-2.805499,54.194901],[-2.804045,54.195656],[-2.802861,54.196865],[-2.800071,54.196426],[-2.799932,54.197286],[-2.79923,54.197732],[-2.796998,54.197018],[-2.796142,54.19723],[-2.795013,54.19701],[-2.794896,54.195779],[-2.788627,54.192851],[-2.786457,54.193101],[-2.784346,54.191692],[-2.783147,54.191509],[-2.782493,54.190752],[-2.780205,54.18955],[-2.777742,54.18948],[-2.776458,54.18868],[-2.774797,54.188416],[-2.771836,54.187336],[-2.769761,54.187346],[-2.76922,54.187025],[-2.769111,54.186177],[-2.768232,54.185964],[-2.753426,54.187734],[-2.750787,54.188743],[-2.749301,54.188955],[-2.748603,54.187039],[-2.746786,54.187001],[-2.745532,54.18661],[-2.744942,54.185923],[-2.743054,54.185503],[-2.738768,54.185068],[-2.734387,54.184111],[-2.734985,54.182324],[-2.736142,54.18113],[-2.735707,54.180082],[-2.735935,54.178853],[-2.736587,54.178232],[-2.736283,54.176905],[-2.737058,54.176494],[-2.73655,54.175567],[-2.736528,54.173981],[-2.735827,54.173214],[-2.736489,54.169024],[-2.731913,54.16827],[-2.727291,54.167948],[-2.727817,54.166811],[-2.726625,54.166563],[-2.720008,54.165531],[-2.718074,54.165512],[-2.713265,54.164461],[-2.708647,54.163885],[-2.705742,54.164665],[-2.70564,54.164945],[-2.701317,54.163417],[-2.696395,54.164023],[-2.694529,54.163365],[-2.692934,54.163288],[-2.691101,54.164576],[-2.687971,54.164657],[-2.679842,54.161186],[-2.678851,54.161888],[-2.678162,54.161586],[-2.675794,54.163779],[-2.675827,54.165061],[-2.67693,54.166496],[-2.677141,54.16752],[-2.676407,54.168257],[-2.676445,54.169313],[-2.675591,54.16956],[-2.675137,54.170206],[-2.672468,54.171038],[-2.672582,54.171679],[-2.671846,54.172146],[-2.672985,54.172579],[-2.672293,54.173374],[-2.672826,54.173682],[-2.672641,54.174747],[-2.671924,54.17499],[-2.670256,54.176685],[-2.666902,54.177855],[-2.666173,54.178478],[-2.664725,54.178511],[-2.663908,54.179357],[-2.66281,54.179699],[-2.661586,54.179538],[-2.659479,54.180246],[-2.657687,54.181619],[-2.653247,54.1831],[-2.647731,54.187308],[-2.644639,54.190946],[-2.64151,54.20037],[-2.639936,54.202033],[-2.631224,54.198903],[-2.629987,54.197786],[-2.627371,54.197367],[-2.624957,54.195569],[-2.611943,54.195203],[-2.605753,54.194354],[-2.604466,54.194966],[-2.598948,54.195226],[-2.595552,54.196082],[-2.590871,54.195883],[-2.591017,54.194928],[-2.587004,54.19448],[-2.585312,54.196338],[-2.583793,54.195236],[-2.580971,54.196008],[-2.578244,54.195455],[-2.576078,54.195595],[-2.57102,54.196821],[-2.557794,54.198669],[-2.550751,54.200293],[-2.545534,54.202997],[-2.543364,54.205683],[-2.54212,54.206316],[-2.540986,54.206245],[-2.53977,54.207402],[-2.5359,54.20948],[-2.53241,54.20913],[-2.528364,54.211714],[-2.528125,54.2113],[-2.52654,54.211802],[-2.525997,54.21285],[-2.52386,54.213714],[-2.523544,54.214332],[-2.522688,54.214586],[-2.521384,54.214412],[-2.520518,54.214875],[-2.520545,54.215951],[-2.52007,54.216447],[-2.51885,54.216438],[-2.51826,54.216889],[-2.515082,54.217706],[-2.51087,54.217667],[-2.499603,54.219555],[-2.49845,54.22049],[-2.494244,54.222332],[-2.493734,54.222994],[-2.490703,54.224802],[-2.479468,54.228249],[-2.478681,54.229295],[-2.475164,54.231252],[-2.473219,54.233737],[-2.472375,54.233721],[-2.464883,54.236221],[-2.459585,54.239568],[-2.458779,54.232485]],[[-2.873311,53.948132],[-2.873456,53.948363],[-2.872274,53.948878],[-2.872351,53.948474],[-2.871981,53.947914],[-2.871592,53.947873],[-2.872248,53.948467],[-2.872154,53.948929],[-2.871603,53.949399],[-2.871446,53.94896],[-2.870948,53.948613],[-2.871373,53.94896],[-2.870916,53.949267],[-2.871696,53.949518],[-2.871425,53.949777],[-2.871819,53.949603],[-2.872114,53.949015],[-2.873699,53.948334],[-2.873311,53.948132]],[[-2.858797,53.99502],[-2.857261,53.995377],[-2.859854,53.99513],[-2.858797,53.99502]],[[-2.88908,53.996037],[-2.888944,53.995624],[-2.887911,53.995454],[-2.88908,53.996037]],[[-2.807119,54.141581],[-2.808602,54.141933],[-2.807241,54.141456],[-2.807119,54.141581]]]]}}]}