{"type":"FeatureCollection","features":[{"type":"Feature","properties":{"slug":"leeds","gss_code":"E08000035","name":"Leeds"},"geometry":{"type":"Polygon","coordinates":[[[-1.343934,53.939923],[-1.344706,53.939499],[-1.342126,53.940519],[-1.339501,53.940783],[-1.337478,53.940095],[-1.336283,53.938476],[-1.335006,53.939462],[-1.332424,53.939735],[-1.331683,53.938749],[-1.329666,53.938073],[-1.32528,53.937876],[-1.322657,53.936572],[-1.320943,53.937047],[-1.320519,53.936057],[-1.315421,53.935072],[-1.312386,53.935286],[-1.308533,53.934329],[-1.306927,53.934422],[-1.308369,53.928501],[-1.308895,53.92404],[-1.306462,53.924196],[-1.305264,53.927101],[-1.303695,53.927027],[-1.302155,53.927388],[-1.300383,53.929377],[-1.296704,53.928587],[-1.294115,53.927031],[-1.294248,53.926564],[-1.296851,53.92643],[-1.303832,53.925101],[-1.305681,53.923604],[-1.305637,53.923095],[-1.307356,53.92115],[-1.305097,53.921196],[-1.300868,53.92237],[-1.301356,53.921032],[-1.300352,53.920598],[-1.298428,53.921975],[-1.297203,53.921638],[-1.300101,53.919095],[-1.300132,53.916914],[-1.301269,53.914396],[-1.301999,53.909745],[-1.301402,53.909531],[-1.301634,53.908751],[-1.300693,53.908674],[-1.300453,53.90752],[-1.302451,53.907456],[-1.30603,53.906459],[-1.311351,53.905835],[-1.313894,53.905027],[-1.313719,53.904712],[-1.317343,53.904364],[-1.321142,53.903457],[-1.321832,53.902876],[-1.321713,53.901617],[-1.322252,53.900427],[-1.318145,53.897544],[-1.317731,53.896349],[-1.317823,53.894084],[-1.316777,53.892026],[-1.31793,53.891849],[-1.317547,53.890146],[-1.317953,53.88875],[-1.32002,53.888528],[-1.319996,53.885398],[-1.320804,53.883788],[-1.315607,53.881682],[-1.31576,53.879491],[-1.319693,53.878958],[-1.319429,53.878643],[-1.317081,53.878484],[-1.318407,53.877474],[-1.314797,53.868672],[-1.311784,53.866875],[-1.312603,53.865317],[-1.315413,53.863342],[-1.318893,53.862287],[-1.323262,53.861673],[-1.331554,53.861535],[-1.341971,53.858957],[-1.349926,53.857635],[-1.35297,53.856751],[-1.349435,53.854987],[-1.347015,53.854192],[-1.34275,53.851518],[-1.338429,53.851744],[-1.34046,53.849104],[-1.342138,53.845173],[-1.338225,53.844244],[-1.332343,53.840959],[-1.328157,53.841295],[-1.327963,53.840704],[-1.326557,53.840423],[-1.325422,53.838135],[-1.326001,53.835893],[-1.325209,53.835346],[-1.325342,53.835058],[-1.32844,53.834988],[-1.32875,53.835488],[-1.32974,53.835825],[-1.331251,53.835478],[-1.331186,53.835115],[-1.331799,53.834849],[-1.333499,53.834816],[-1.33354,53.834531],[-1.334375,53.834435],[-1.334021,53.83381],[-1.336097,53.83359],[-1.332773,53.832791],[-1.328304,53.830132],[-1.322313,53.827454],[-1.315369,53.8236],[-1.314029,53.823154],[-1.309674,53.822895],[-1.310398,53.819918],[-1.307091,53.817618],[-1.303623,53.816536],[-1.305106,53.815051],[-1.307293,53.814513],[-1.307602,53.813632],[-1.312435,53.814376],[-1.313624,53.80966],[-1.314872,53.809557],[-1.314602,53.807783],[-1.313942,53.806828],[-1.314168,53.804858],[-1.313624,53.800881],[-1.311729,53.795447],[-1.312827,53.789364],[-1.311644,53.788678],[-1.311269,53.788028],[-1.311921,53.788136],[-1.313636,53.78609],[-1.31381,53.781556],[-1.311604,53.779699],[-1.312598,53.779298],[-1.303464,53.774928],[-1.306787,53.773044],[-1.298126,53.772806],[-1.296362,53.771863],[-1.291962,53.767195],[-1.290398,53.764268],[-1.290415,53.763079],[-1.292229,53.760525],[-1.291968,53.761415],[-1.292466,53.761488],[-1.292699,53.760148],[-1.296749,53.758954],[-1.294696,53.756278],[-1.294942,53.755463],[-1.297532,53.755838],[-1.298273,53.755614],[-1.3015,53.755735],[-1.305563,53.754736],[-1.305962,53.755256],[-1.307736,53.755144],[-1.308508,53.756495],[-1.312239,53.755889],[-1.312616,53.754163],[-1.312089,53.75218],[-1.312833,53.751179],[-1.312803,53.749547],[-1.315357,53.743681],[-1.311567,53.744559],[-1.310036,53.744538],[-1.307226,53.74274],[-1.303831,53.741895],[-1.302349,53.742496],[-1.301967,53.741672],[-1.308206,53.739109],[-1.309578,53.739499],[-1.311708,53.741025],[-1.313632,53.740957],[-1.315957,53.739687],[-1.320209,53.735717],[-1.323099,53.734823],[-1.324437,53.734937],[-1.326879,53.736273],[-1.328539,53.736581],[-1.333366,53.735667],[-1.338277,53.736495],[-1.340083,53.736357],[-1.356481,53.731526],[-1.361024,53.731936],[-1.367949,53.729615],[-1.369736,53.729404],[-1.37412,53.729815],[-1.376074,53.729499],[-1.381712,53.726623],[-1.394487,53.723777],[-1.396158,53.722762],[-1.397354,53.720189],[-1.398951,53.719388],[-1.400928,53.719527],[-1.406792,53.721709],[-1.412173,53.723067],[-1.416548,53.722236],[-1.419015,53.722115],[-1.420578,53.722404],[-1.422016,53.723524],[-1.422854,53.723594],[-1.424827,53.72304],[-1.428271,53.721352],[-1.431,53.723123],[-1.430769,53.723345],[-1.431316,53.723323],[-1.434625,53.725683],[-1.439076,53.727359],[-1.443149,53.728227],[-1.454567,53.728101],[-1.45657,53.727801],[-1.457172,53.72741],[-1.461729,53.727985],[-1.488298,53.727757],[-1.489264,53.723119],[-1.490452,53.723124],[-1.490426,53.722476],[-1.491421,53.722167],[-1.495728,53.722308],[-1.4988,53.723434],[-1.501552,53.723756],[-1.504377,53.725001],[-1.501871,53.725804],[-1.503305,53.727224],[-1.503786,53.726912],[-1.505963,53.727043],[-1.505633,53.729149],[-1.510396,53.72969],[-1.511214,53.729406],[-1.513222,53.727534],[-1.518659,53.723849],[-1.532746,53.716232],[-1.53398,53.714958],[-1.540674,53.713154],[-1.547142,53.710137],[-1.552088,53.705505],[-1.553955,53.702431],[-1.555052,53.70322],[-1.557026,53.701364],[-1.557887,53.699979],[-1.559323,53.698984],[-1.560725,53.699427],[-1.560434,53.699747],[-1.561946,53.700803],[-1.562494,53.700787],[-1.562925,53.70146],[-1.564307,53.701685],[-1.564511,53.702264],[-1.56505,53.70219],[-1.564631,53.702771],[-1.565486,53.70299],[-1.566507,53.704078],[-1.571122,53.706405],[-1.571023,53.707032],[-1.572945,53.707869],[-1.572883,53.708159],[-1.578573,53.709808],[-1.578561,53.710854],[-1.57978,53.712479],[-1.580935,53.712749],[-1.580624,53.712923],[-1.583381,53.714601],[-1.58298,53.714852],[-1.583704,53.716153],[-1.585167,53.716584],[-1.587791,53.716553],[-1.589852,53.717955],[-1.596985,53.71933],[-1.60158,53.719821],[-1.605455,53.721183],[-1.605755,53.720869],[-1.608335,53.721159],[-1.610476,53.720995],[-1.618166,53.718913],[-1.618986,53.718904],[-1.61954,53.719315],[-1.621448,53.718606],[-1.623372,53.718547],[-1.622932,53.719417],[-1.623538,53.719596],[-1.622923,53.720054],[-1.622903,53.721094],[-1.624942,53.721429],[-1.625262,53.723299],[-1.626871,53.723826],[-1.626676,53.724668],[-1.62914,53.72605],[-1.629744,53.726742],[-1.630504,53.72692],[-1.629991,53.727166],[-1.631852,53.728778],[-1.632254,53.730814],[-1.632195,53.731115],[-1.631844,53.731037],[-1.632092,53.732108],[-1.632723,53.732317],[-1.633701,53.733941],[-1.634514,53.736187],[-1.635596,53.736823],[-1.636314,53.737908],[-1.636258,53.738624],[-1.634277,53.739566],[-1.634753,53.739904],[-1.636288,53.739464],[-1.636797,53.740045],[-1.636813,53.741071],[-1.635864,53.742587],[-1.637753,53.743818],[-1.638719,53.744916],[-1.638645,53.746156],[-1.63954,53.746769],[-1.637882,53.747729],[-1.639674,53.747766],[-1.658444,53.745458],[-1.65806,53.74612],[-1.658662,53.746239],[-1.658368,53.74662],[-1.660841,53.746849],[-1.663967,53.747615],[-1.673338,53.751649],[-1.674566,53.752087],[-1.675889,53.752132],[-1.676137,53.752392],[-1.675664,53.752637],[-1.676709,53.753982],[-1.681621,53.756469],[-1.677807,53.759413],[-1.677437,53.760149],[-1.675512,53.760608],[-1.67321,53.762039],[-1.669994,53.762136],[-1.665548,53.763844],[-1.663745,53.765087],[-1.662917,53.76675],[-1.659619,53.767258],[-1.657911,53.767018],[-1.656487,53.767248],[-1.655105,53.766947],[-1.65461,53.766519],[-1.653035,53.766525],[-1.651786,53.766962],[-1.651922,53.767422],[-1.649564,53.768198],[-1.649241,53.768684],[-1.649563,53.768996],[-1.647658,53.770109],[-1.647871,53.770339],[-1.646486,53.771419],[-1.642738,53.772376],[-1.642707,53.772649],[-1.642138,53.772461],[-1.642403,53.773044],[-1.641045,53.773391],[-1.640722,53.773754],[-1.641285,53.774098],[-1.640592,53.775667],[-1.640912,53.776272],[-1.640391,53.776293],[-1.640467,53.776959],[-1.640915,53.777058],[-1.640399,53.777462],[-1.640743,53.777898],[-1.640334,53.778323],[-1.640624,53.779976],[-1.641464,53.779658],[-1.642686,53.780193],[-1.64268,53.779935],[-1.644061,53.779598],[-1.644895,53.780235],[-1.645756,53.780284],[-1.646031,53.779672],[-1.646988,53.779582],[-1.647159,53.779836],[-1.647803,53.779537],[-1.648234,53.779959],[-1.6489,53.779634],[-1.648981,53.779903],[-1.649922,53.779705],[-1.650196,53.780006],[-1.65055,53.779748],[-1.651059,53.780201],[-1.651426,53.779662],[-1.655509,53.779733],[-1.656184,53.779983],[-1.657218,53.779777],[-1.657055,53.780233],[-1.658112,53.779773],[-1.660358,53.779912],[-1.660647,53.779599],[-1.660956,53.77989],[-1.664191,53.779775],[-1.664499,53.780113],[-1.666774,53.779477],[-1.667365,53.779579],[-1.667819,53.779227],[-1.671558,53.779969],[-1.672864,53.779852],[-1.672886,53.78014],[-1.67352,53.780066],[-1.67369,53.780378],[-1.674233,53.780005],[-1.674787,53.780366],[-1.67593,53.780434],[-1.676206,53.78086],[-1.675855,53.781029],[-1.676842,53.781223],[-1.677316,53.781954],[-1.677949,53.782052],[-1.677568,53.782325],[-1.678654,53.782922],[-1.679204,53.782901],[-1.679142,53.783221],[-1.679962,53.783366],[-1.679943,53.783722],[-1.680265,53.783547],[-1.680471,53.784149],[-1.681794,53.784968],[-1.682271,53.786415],[-1.6858,53.785284],[-1.688144,53.78578],[-1.688768,53.785325],[-1.691094,53.785101],[-1.693471,53.784343],[-1.697131,53.784217],[-1.701187,53.783493],[-1.711996,53.78307],[-1.707876,53.786695],[-1.707218,53.787967],[-1.70794,53.789925],[-1.70977,53.791172],[-1.711096,53.791629],[-1.708528,53.794303],[-1.70369,53.801808],[-1.701282,53.802261],[-1.701292,53.80252],[-1.706616,53.804081],[-1.706132,53.806496],[-1.708297,53.810094],[-1.706904,53.81256],[-1.707895,53.813653],[-1.708014,53.81569],[-1.704974,53.823184],[-1.706332,53.825654],[-1.705566,53.827657],[-1.706641,53.828581],[-1.704978,53.830833],[-1.704888,53.831817],[-1.703723,53.832538],[-1.704702,53.834465],[-1.703143,53.836354],[-1.705053,53.837121],[-1.70325,53.839964],[-1.70368,53.842348],[-1.702389,53.843357],[-1.700989,53.845399],[-1.696495,53.847334],[-1.695164,53.849486],[-1.694343,53.850042],[-1.694006,53.85131],[-1.69305,53.852963],[-1.695047,53.855336],[-1.695092,53.857538],[-1.699701,53.857176],[-1.699861,53.857775],[-1.702111,53.857844],[-1.702146,53.860548],[-1.705105,53.860284],[-1.705275,53.86099],[-1.706609,53.861077],[-1.707137,53.861656],[-1.70695,53.862129],[-1.708238,53.862568],[-1.70842,53.864302],[-1.709632,53.864079],[-1.71034,53.863495],[-1.712634,53.865116],[-1.715286,53.866245],[-1.716673,53.865106],[-1.71884,53.864134],[-1.720328,53.864879],[-1.722865,53.864857],[-1.724658,53.865069],[-1.725645,53.865668],[-1.728295,53.865772],[-1.72863,53.864981],[-1.731342,53.864833],[-1.733711,53.864198],[-1.736199,53.864123],[-1.736222,53.863874],[-1.738235,53.863611],[-1.738523,53.86445],[-1.742944,53.863346],[-1.746355,53.863379],[-1.746362,53.864132],[-1.744421,53.865589],[-1.753558,53.867473],[-1.754024,53.866032],[-1.757976,53.866608],[-1.759662,53.863692],[-1.760995,53.863847],[-1.761086,53.864855],[-1.763243,53.865902],[-1.7643,53.866968],[-1.767448,53.866777],[-1.769301,53.867249],[-1.769198,53.867989],[-1.772161,53.868718],[-1.771902,53.869328],[-1.77281,53.869967],[-1.773379,53.869854],[-1.773836,53.87036],[-1.775845,53.870555],[-1.778335,53.871863],[-1.778919,53.873988],[-1.779465,53.874356],[-1.778655,53.875621],[-1.779432,53.87651],[-1.778956,53.876764],[-1.779332,53.877582],[-1.778738,53.878572],[-1.780801,53.878807],[-1.78144,53.879427],[-1.784531,53.88049],[-1.794781,53.880482],[-1.798407,53.884748],[-1.800424,53.885965],[-1.794963,53.894628],[-1.787465,53.8969],[-1.77668,53.893852],[-1.779527,53.891192],[-1.773465,53.889029],[-1.770208,53.890237],[-1.767577,53.889812],[-1.767295,53.890229],[-1.763348,53.888777],[-1.757987,53.885191],[-1.756345,53.884704],[-1.751152,53.885026],[-1.749095,53.885724],[-1.742433,53.884894],[-1.74205,53.885444],[-1.738343,53.886484],[-1.73488,53.886993],[-1.729567,53.886395],[-1.729243,53.885771],[-1.725429,53.885694],[-1.727174,53.887771],[-1.72676,53.888207],[-1.722642,53.890887],[-1.720623,53.891316],[-1.717253,53.891114],[-1.71727,53.892346],[-1.720859,53.893762],[-1.724939,53.893871],[-1.72676,53.894429],[-1.728331,53.894184],[-1.728785,53.894813],[-1.730054,53.894977],[-1.731035,53.895762],[-1.732052,53.89597],[-1.730995,53.897052],[-1.73205,53.898514],[-1.732328,53.89997],[-1.731381,53.90062],[-1.730871,53.901966],[-1.730466,53.901981],[-1.731136,53.90214],[-1.731244,53.902646],[-1.730643,53.9044],[-1.729334,53.906379],[-1.728871,53.908279],[-1.727229,53.908977],[-1.727217,53.910167],[-1.725712,53.91053],[-1.723276,53.911756],[-1.722135,53.911858],[-1.721519,53.911577],[-1.720646,53.910089],[-1.71797,53.908531],[-1.718638,53.910386],[-1.717539,53.91178],[-1.717437,53.913572],[-1.716034,53.917156],[-1.716444,53.917613],[-1.713197,53.917944],[-1.712488,53.917558],[-1.708957,53.918035],[-1.708034,53.917004],[-1.706112,53.917071],[-1.707083,53.919131],[-1.704775,53.918199],[-1.703715,53.918677],[-1.702243,53.91845],[-1.700778,53.917382],[-1.698613,53.916795],[-1.697681,53.916823],[-1.696917,53.917686],[-1.696444,53.917605],[-1.696347,53.917138],[-1.690323,53.917406],[-1.690165,53.916719],[-1.68702,53.916389],[-1.687633,53.914384],[-1.689171,53.912646],[-1.688199,53.911742],[-1.684571,53.911986],[-1.684627,53.910588],[-1.680021,53.910332],[-1.670509,53.91126],[-1.669398,53.911496],[-1.66664,53.912883],[-1.665195,53.913105],[-1.662683,53.913153],[-1.655083,53.912484],[-1.653214,53.911752],[-1.652262,53.911012],[-1.652412,53.910387],[-1.653952,53.909328],[-1.654417,53.908332],[-1.653618,53.906873],[-1.652063,53.9057],[-1.648611,53.905898],[-1.645814,53.907158],[-1.642122,53.907432],[-1.640653,53.907072],[-1.637999,53.905513],[-1.631294,53.905147],[-1.627552,53.905259],[-1.623138,53.903552],[-1.620659,53.903387],[-1.612035,53.906185],[-1.607612,53.908867],[-1.599839,53.909722],[-1.598327,53.909471],[-1.598051,53.909106],[-1.601105,53.90809],[-1.60183,53.906635],[-1.601283,53.905512],[-1.599262,53.903955],[-1.593073,53.90201],[-1.586666,53.901303],[-1.585568,53.901585],[-1.58519,53.902614],[-1.586289,53.904764],[-1.585844,53.90655],[-1.584296,53.909022],[-1.580804,53.909655],[-1.573068,53.910237],[-1.568689,53.910912],[-1.567088,53.910628],[-1.566212,53.909978],[-1.562883,53.90393],[-1.561564,53.903933],[-1.559311,53.904904],[-1.557047,53.904872],[-1.555219,53.904456],[-1.552577,53.903008],[-1.551381,53.903059],[-1.550266,53.904052],[-1.550592,53.907012],[-1.549178,53.908764],[-1.549417,53.9107],[-1.548198,53.910959],[-1.545063,53.910119],[-1.543515,53.910018],[-1.537216,53.910291],[-1.535119,53.909963],[-1.532563,53.908971],[-1.528596,53.908699],[-1.526473,53.909809],[-1.522506,53.911143],[-1.516374,53.911782],[-1.509858,53.911401],[-1.506331,53.912177],[-1.504361,53.913491],[-1.500399,53.915077],[-1.494672,53.915337],[-1.49187,53.91446],[-1.489007,53.911819],[-1.486027,53.910912],[-1.481617,53.910763],[-1.475432,53.911574],[-1.473459,53.91123],[-1.470978,53.911349],[-1.467414,53.910757],[-1.465323,53.909396],[-1.464948,53.90881],[-1.465147,53.907048],[-1.463387,53.905921],[-1.460165,53.906878],[-1.457037,53.907309],[-1.451192,53.907053],[-1.450002,53.907343],[-1.448039,53.908638],[-1.445597,53.909542],[-1.443162,53.912686],[-1.440501,53.913865],[-1.438351,53.914028],[-1.436871,53.913596],[-1.434414,53.910177],[-1.432435,53.911202],[-1.4314,53.913272],[-1.430136,53.913821],[-1.431283,53.916091],[-1.430908,53.916245],[-1.431508,53.917124],[-1.432117,53.920826],[-1.431471,53.923243],[-1.433154,53.924911],[-1.433553,53.926355],[-1.430169,53.928722],[-1.427253,53.929339],[-1.418986,53.928087],[-1.412912,53.928232],[-1.40671,53.92785],[-1.408806,53.929616],[-1.410629,53.930155],[-1.410584,53.931324],[-1.40847,53.934951],[-1.409197,53.935466],[-1.407848,53.935652],[-1.40767,53.936174],[-1.402875,53.936507],[-1.400658,53.9375],[-1.400447,53.940097],[-1.399736,53.940174],[-1.399903,53.941422],[-1.397182,53.942535],[-1.396657,53.941894],[-1.391441,53.942504],[-1.391442,53.942836],[-1.390113,53.943017],[-1.389681,53.942816],[-1.386472,53.94319],[-1.381683,53.940487],[-1.374969,53.940967],[-1.374193,53.941533],[-1.373593,53.941342],[-1.373521,53.941764],[-1.3718,53.942827],[-1.37038,53.943043],[-1.366278,53.941902],[-1.361953,53.941484],[-1.35856,53.941701],[-1.354871,53.943655],[-1.352389,53.944248],[-1.348208,53.944957],[-1.342792,53.944943],[-1.340405,53.945888],[-1.33984,53.945564],[-1.341565,53.943942],[-1.342858,53.943272],[-1.343934,53.939923]]]}}]}