{"type":"FeatureCollection","features":[{"type":"Feature","properties":{"slug":"leicester","gss_code":"E06000016","name":"Leicester"},"geometry":{"type":"Polygon","coordinates":[[[-1.155046,52.689616],[-1.154239,52.689659],[-1.152376,52.688438],[-1.151315,52.688897],[-1.151126,52.688504],[-1.147518,52.690662],[-1.144117,52.687941],[-1.136687,52.679917],[-1.137713,52.67538],[-1.135467,52.675418],[-1.135194,52.673221],[-1.13303,52.673158],[-1.13298,52.669766],[-1.12986,52.669527],[-1.129893,52.66922],[-1.129358,52.66915],[-1.129089,52.66539],[-1.128251,52.665111],[-1.125896,52.667474],[-1.121416,52.66959],[-1.120752,52.670604],[-1.12101,52.671826],[-1.11977,52.671802],[-1.119454,52.672712],[-1.11878,52.672767],[-1.118812,52.673186],[-1.114652,52.672708],[-1.110127,52.671457],[-1.109147,52.672798],[-1.105488,52.671539],[-1.105234,52.671865],[-1.090623,52.668498],[-1.089312,52.670281],[-1.088744,52.66974],[-1.0881,52.669909],[-1.085668,52.669271],[-1.075079,52.669626],[-1.074925,52.667987],[-1.069757,52.667149],[-1.069345,52.667356],[-1.068785,52.66692],[-1.067866,52.666861],[-1.066621,52.665747],[-1.062194,52.663854],[-1.059763,52.663853],[-1.059664,52.663577],[-1.058894,52.663727],[-1.058677,52.66348],[-1.057637,52.663922],[-1.056745,52.663832],[-1.059114,52.657251],[-1.058945,52.656426],[-1.048613,52.654996],[-1.048837,52.653585],[-1.048195,52.652044],[-1.048018,52.648189],[-1.051019,52.648105],[-1.051794,52.644044],[-1.050968,52.64394],[-1.051315,52.643232],[-1.049186,52.643404],[-1.049489,52.642617],[-1.047434,52.642355],[-1.047654,52.638152],[-1.046204,52.638084],[-1.046546,52.637663],[-1.04804,52.637308],[-1.048137,52.635361],[-1.046776,52.635236],[-1.046962,52.63462],[-1.053122,52.634487],[-1.053132,52.633153],[-1.056041,52.632611],[-1.056183,52.632193],[-1.055695,52.630312],[-1.056037,52.629011],[-1.055384,52.628353],[-1.053268,52.627533],[-1.055245,52.624838],[-1.055755,52.624976],[-1.057416,52.623539],[-1.058095,52.623638],[-1.060136,52.621543],[-1.063487,52.619372],[-1.064309,52.619704],[-1.065646,52.619401],[-1.066354,52.61957],[-1.07154,52.617507],[-1.07433,52.613442],[-1.077021,52.61434],[-1.082424,52.614934],[-1.082173,52.615712],[-1.084009,52.615924],[-1.083914,52.615063],[-1.086225,52.615022],[-1.093233,52.616166],[-1.096634,52.616379],[-1.097101,52.613744],[-1.098304,52.611088],[-1.094847,52.610266],[-1.093381,52.610287],[-1.093593,52.608688],[-1.096974,52.606274],[-1.09882,52.603263],[-1.099943,52.603491],[-1.100206,52.602446],[-1.101627,52.602242],[-1.101922,52.59931],[-1.103902,52.597991],[-1.10479,52.59639],[-1.103651,52.595912],[-1.107443,52.595655],[-1.108785,52.596378],[-1.10944,52.596386],[-1.109852,52.597365],[-1.112886,52.596951],[-1.11794,52.597016],[-1.120171,52.597544],[-1.120786,52.595525],[-1.121927,52.595823],[-1.126798,52.595644],[-1.126441,52.592924],[-1.126606,52.591055],[-1.127748,52.591365],[-1.128022,52.590989],[-1.12967,52.591531],[-1.130852,52.589963],[-1.136067,52.589425],[-1.141265,52.590003],[-1.14086,52.587694],[-1.145988,52.588136],[-1.146287,52.586597],[-1.147376,52.585302],[-1.149496,52.581024],[-1.153099,52.580669],[-1.159329,52.581666],[-1.1589,52.582661],[-1.159721,52.582982],[-1.160411,52.582426],[-1.160942,52.582531],[-1.160661,52.584322],[-1.158215,52.584184],[-1.158008,52.585755],[-1.155934,52.585993],[-1.155606,52.587153],[-1.156943,52.587236],[-1.157151,52.588629],[-1.158813,52.588903],[-1.15789,52.590822],[-1.159267,52.59124],[-1.159552,52.591714],[-1.160891,52.591768],[-1.16081,52.5923],[-1.16846,52.592765],[-1.169188,52.591589],[-1.172125,52.591826],[-1.172405,52.592819],[-1.174158,52.592848],[-1.17405,52.593702],[-1.171451,52.593432],[-1.170399,52.593909],[-1.170861,52.594841],[-1.170091,52.595906],[-1.170377,52.596566],[-1.171545,52.596665],[-1.172641,52.597306],[-1.171502,52.598723],[-1.170083,52.598352],[-1.167984,52.601426],[-1.166102,52.60219],[-1.16537,52.603047],[-1.171032,52.605766],[-1.167302,52.608245],[-1.164089,52.609454],[-1.165722,52.611434],[-1.165499,52.613103],[-1.16654,52.613259],[-1.168207,52.614433],[-1.172191,52.615902],[-1.174353,52.617871],[-1.178435,52.618264],[-1.184609,52.620728],[-1.185865,52.621734],[-1.187233,52.621659],[-1.188772,52.622971],[-1.196102,52.625687],[-1.200141,52.626677],[-1.200408,52.627231],[-1.205395,52.628816],[-1.208747,52.630582],[-1.210547,52.630854],[-1.214856,52.633336],[-1.215981,52.634534],[-1.213084,52.636151],[-1.214348,52.636936],[-1.211018,52.639429],[-1.209742,52.641695],[-1.209005,52.642092],[-1.205891,52.642672],[-1.202957,52.641368],[-1.201509,52.641136],[-1.2009,52.639844],[-1.198791,52.6403],[-1.198759,52.641466],[-1.198068,52.641732],[-1.195995,52.641084],[-1.190656,52.640394],[-1.189696,52.64251],[-1.186991,52.64559],[-1.187575,52.647151],[-1.184062,52.649583],[-1.182919,52.653016],[-1.184597,52.653347],[-1.184124,52.657556],[-1.184538,52.659546],[-1.185289,52.660644],[-1.176744,52.664291],[-1.177494,52.665164],[-1.17705,52.665358],[-1.17745,52.667519],[-1.179026,52.669096],[-1.180319,52.669361],[-1.178011,52.671479],[-1.179075,52.673184],[-1.17796,52.674147],[-1.17805,52.675462],[-1.178522,52.67543],[-1.179173,52.676344],[-1.178186,52.676851],[-1.177942,52.678129],[-1.176856,52.678514],[-1.175018,52.678324],[-1.174204,52.67864],[-1.17417,52.67909],[-1.174808,52.679111],[-1.173595,52.67946],[-1.173666,52.679785],[-1.173034,52.67978],[-1.173722,52.681265],[-1.172806,52.681545],[-1.173322,52.681726],[-1.172989,52.682665],[-1.16795,52.685349],[-1.165024,52.688813],[-1.163064,52.687949],[-1.161033,52.690548],[-1.157252,52.691523],[-1.156765,52.691243],[-1.15701,52.691043],[-1.154622,52.689874],[-1.155046,52.689616]]]}}]}