{"type":"FeatureCollection","features":[{"type":"Feature","properties":{"slug":"lewes","gss_code":"E07000063","name":"Lewes"},"geometry":{"type":"MultiPolygon","coordinates":[[[[0.154047,50.770891],[0.151814,50.771355],[0.148952,50.77077],[0.149137,50.770099],[0.151921,50.768767],[0.151396,50.767491],[0.150254,50.766379],[0.146537,50.773349],[0.149226,50.773959],[0.152033,50.775132],[0.152087,50.774844],[0.15074,50.77422],[0.150944,50.772728],[0.151589,50.772284],[0.153828,50.772181],[0.154539,50.771574],[0.154047,50.770891]]],[[[0.143197,50.780051],[0.143712,50.78076],[0.145215,50.780221],[0.143197,50.780051]]],[[[0.146807,50.782036],[0.144995,50.782261],[0.145529,50.783027],[0.146807,50.782036]]],[[[0.147474,50.785033],[0.147893,50.785465],[0.147911,50.785446],[0.147474,50.785033]]],[[[0.14452,50.790146],[0.144533,50.790328],[0.144742,50.790399],[0.14452,50.790146]]],[[[0.051183,50.795433],[0.048985,50.79549],[0.04817,50.795916],[0.047637,50.797704],[0.048809,50.798546],[0.051183,50.795433]]],[[[0.015862,50.887783],[0.01161,50.886696],[0.010802,50.886848],[0.010487,50.887691],[0.009188,50.888485],[0.005668,50.889138],[0.00285,50.889224],[0.00146,50.888869],[0.000283,50.889561],[0.009539,50.895186],[0.010622,50.893265],[0.011869,50.892709],[0.015934,50.889041],[0.015862,50.887783]]],[[[-0.011756,51.000349],[-0.01148,51.001336],[-0.010832,51.00115],[-0.010674,51.001529],[-0.009779,51.001277],[-0.009951,51.001897],[-0.009367,51.001901],[-0.008928,51.001142],[-0.008225,51.001019],[-0.00865,51.000378],[-0.007263,51.000183],[-0.007278,50.999564],[-0.008173,50.999217],[-0.007746,50.998331],[-0.006398,50.998329],[-0.006148,50.998682],[-0.005722,50.998381],[-0.005976,50.99782],[-0.004985,50.997867],[-0.005974,50.997474],[-0.002615,50.997028],[-0.000526,50.995645],[0.000473,50.995542],[0.001821,50.994889],[0.001961,50.994259],[0.002714,50.993934],[0.002395,50.993318],[0.003052,50.993267],[0.003737,50.993662],[0.003779,50.991857],[0.003356,50.991341],[0.003835,50.990835],[0.003155,50.990178],[0.004681,50.98937],[0.00536,50.988146],[0.006878,50.988319],[0.006947,50.987794],[0.005765,50.987681],[0.006674,50.987019],[0.00666,50.986627],[0.007759,50.987119],[0.008766,50.987071],[0.008819,50.983844],[0.009534,50.982963],[0.007762,50.98241],[0.011153,50.977588],[0.014382,50.978427],[0.014441,50.978769],[0.016306,50.979381],[0.017339,50.980251],[0.019873,50.980273],[0.020933,50.980704],[0.02196,50.980684],[0.022791,50.981179],[0.025931,50.980453],[0.026732,50.980502],[0.027337,50.98091],[0.027504,50.980465],[0.028905,50.980446],[0.029685,50.979157],[0.028187,50.978997],[0.028978,50.978635],[0.030165,50.97865],[0.03042,50.97831],[0.029511,50.978016],[0.029593,50.977781],[0.031363,50.977758],[0.031617,50.976983],[0.032582,50.9763],[0.031708,50.975353],[0.03235,50.974833],[0.034497,50.974049],[0.036085,50.974248],[0.037351,50.973669],[0.037564,50.974078],[0.037912,50.974009],[0.038682,50.971953],[0.038148,50.970044],[0.037102,50.969235],[0.037249,50.968977],[0.038524,50.969057],[0.037428,50.968084],[0.038957,50.966604],[0.040351,50.966727],[0.041906,50.966196],[0.044229,50.966302],[0.046857,50.967445],[0.048613,50.967672],[0.048954,50.968216],[0.049865,50.968087],[0.050292,50.968875],[0.051839,50.969258],[0.052618,50.968763],[0.052532,50.968022],[0.053772,50.967571],[0.053552,50.966849],[0.054448,50.965304],[0.053872,50.964552],[0.054157,50.963998],[0.053529,50.963778],[0.053039,50.962343],[0.051892,50.96214],[0.050871,50.961404],[0.049412,50.961538],[0.048891,50.961088],[0.048632,50.958709],[0.050526,50.958963],[0.050945,50.958418],[0.050338,50.956804],[0.05061,50.956376],[0.049983,50.955627],[0.05051,50.95499],[0.049308,50.954971],[0.050619,50.954706],[0.050879,50.953653],[0.050049,50.952841],[0.051026,50.952538],[0.04978,50.952312],[0.050622,50.951493],[0.050614,50.950547],[0.049563,50.950088],[0.04925,50.948951],[0.04817,50.948741],[0.049453,50.947968],[0.048488,50.94763],[0.049027,50.947018],[0.04823,50.946512],[0.049293,50.945264],[0.050324,50.944961],[0.049958,50.944086],[0.051454,50.943978],[0.050815,50.943132],[0.051994,50.942787],[0.052038,50.942183],[0.053158,50.94132],[0.053221,50.940757],[0.053871,50.940473],[0.053505,50.939585],[0.055212,50.938814],[0.055456,50.937753],[0.05488,50.937288],[0.054381,50.935849],[0.05497,50.935318],[0.054651,50.934875],[0.055785,50.93453],[0.05603,50.933962],[0.055443,50.933563],[0.054447,50.933957],[0.054062,50.933647],[0.05563,50.932844],[0.056189,50.931949],[0.055413,50.93143],[0.056673,50.930925],[0.056103,50.929633],[0.055219,50.929347],[0.056217,50.928832],[0.055473,50.928484],[0.056687,50.9279],[0.056741,50.92706],[0.057718,50.926656],[0.057304,50.926071],[0.060622,50.925229],[0.063474,50.925568],[0.067995,50.924723],[0.068397,50.924928],[0.072183,50.922758],[0.078308,50.921651],[0.082697,50.919736],[0.088523,50.918794],[0.090002,50.920652],[0.095569,50.923106],[0.101065,50.920889],[0.105622,50.919561],[0.110953,50.915647],[0.112581,50.915248],[0.121914,50.915281],[0.119867,50.912758],[0.112858,50.908761],[0.111391,50.907385],[0.110098,50.904618],[0.104953,50.900699],[0.103248,50.896612],[0.101109,50.894911],[0.101029,50.893839],[0.098755,50.892309],[0.095156,50.888851],[0.091878,50.884909],[0.096809,50.882985],[0.098048,50.881513],[0.096583,50.872337],[0.09669,50.871774],[0.098498,50.869993],[0.099069,50.869808],[0.101213,50.87042],[0.102945,50.871396],[0.105292,50.872001],[0.105974,50.871322],[0.114585,50.870686],[0.116818,50.865575],[0.120779,50.863253],[0.123787,50.862299],[0.122148,50.859086],[0.122854,50.858468],[0.12727,50.856784],[0.124795,50.85476],[0.121947,50.854524],[0.120329,50.853816],[0.119179,50.854164],[0.117564,50.85186],[0.114939,50.849643],[0.124552,50.846264],[0.12091,50.841223],[0.118766,50.841735],[0.118134,50.840513],[0.116063,50.838971],[0.119438,50.837931],[0.117385,50.835935],[0.114817,50.834943],[0.112236,50.832358],[0.111288,50.830817],[0.107596,50.831435],[0.105798,50.829163],[0.101083,50.825478],[0.099932,50.822958],[0.097934,50.82032],[0.100904,50.819621],[0.103248,50.81852],[0.104855,50.816059],[0.108909,50.812923],[0.109424,50.809503],[0.111368,50.80489],[0.111593,50.801978],[0.114492,50.797391],[0.11923,50.794234],[0.12185,50.793088],[0.13055,50.791701],[0.135627,50.791718],[0.138517,50.791119],[0.140496,50.79127],[0.143729,50.792681],[0.14493,50.790738],[0.144219,50.790292],[0.144124,50.789773],[0.147199,50.787779],[0.146728,50.786533],[0.147736,50.785403],[0.145576,50.783563],[0.141631,50.77884],[0.141753,50.778414],[0.1428,50.778027],[0.141906,50.77761],[0.141676,50.777106],[0.143672,50.775193],[0.145851,50.774028],[0.149936,50.766118],[0.148,50.763824],[0.147362,50.760552],[0.148526,50.758798],[0.146397,50.759135],[0.141299,50.756558],[0.137914,50.755852],[0.121967,50.758304],[0.118389,50.75997],[0.114989,50.761004],[0.113255,50.762561],[0.111772,50.762767],[0.110224,50.763901],[0.10899,50.76379],[0.108475,50.764223],[0.107732,50.763775],[0.104403,50.766106],[0.09171,50.77269],[0.077743,50.779046],[0.0703,50.78157],[0.066742,50.782402],[0.06216,50.78267],[0.058336,50.782144],[0.05808,50.782486],[0.058485,50.783036],[0.058025,50.783651],[0.057429,50.783662],[0.05568,50.788388],[0.054964,50.78851],[0.052522,50.79504],[0.049868,50.798553],[0.050074,50.799471],[0.048521,50.800514],[0.048792,50.800743],[0.048444,50.801644],[0.047985,50.801785],[0.048192,50.803414],[0.047866,50.804427],[0.045408,50.806459],[0.044514,50.808622],[0.043341,50.809572],[0.042016,50.809917],[0.03859,50.809709],[0.036338,50.810328],[0.034021,50.810542],[0.030983,50.81439],[0.028059,50.814792],[0.027138,50.815208],[0.026803,50.81685],[0.028514,50.821908],[0.026207,50.831025],[0.026431,50.83306],[0.027076,50.834257],[0.028023,50.83505],[0.030474,50.836035],[0.031905,50.839515],[0.033257,50.841504],[0.033132,50.843618],[0.03393,50.845069],[0.034775,50.845457],[0.036601,50.845124],[0.037681,50.84535],[0.038559,50.846175],[0.038827,50.847143],[0.04347,50.851251],[0.047221,50.853543],[0.049034,50.853882],[0.048897,50.854144],[0.046955,50.853593],[0.044359,50.852041],[0.03845,50.847278],[0.037603,50.848539],[0.034859,50.850497],[0.030825,50.856044],[0.027316,50.857566],[0.023694,50.861066],[0.021153,50.862412],[0.020531,50.86363],[0.020694,50.864524],[0.023915,50.866086],[0.024107,50.870065],[0.023023,50.871693],[0.01686,50.873283],[0.016227,50.873904],[0.016159,50.875903],[0.015752,50.876355],[0.010122,50.879226],[0.006068,50.879931],[0.004879,50.881325],[0.001001,50.883674],[0.00081,50.884837],[-0.001599,50.886065],[-0.002376,50.887019],[1.2e-05,50.889112],[0.001381,50.888647],[0.00281,50.889006],[0.005183,50.88897],[0.009159,50.888287],[0.010026,50.887764],[0.010477,50.886766],[0.011312,50.886495],[0.015797,50.887528],[0.016283,50.888076],[0.016238,50.889062],[0.01196,50.892876],[0.010805,50.893482],[0.010034,50.895448],[0.011474,50.896781],[0.014848,50.896768],[0.01703,50.897704],[0.017987,50.897088],[0.01888,50.89695],[0.021296,50.899103],[0.021659,50.89985],[0.021516,50.900816],[0.020082,50.901306],[0.02008,50.902064],[0.024191,50.904151],[0.024865,50.904903],[0.025655,50.904594],[0.027052,50.904786],[0.027547,50.904361],[0.029824,50.903779],[0.031005,50.904331],[0.032839,50.904247],[0.033296,50.905036],[0.034474,50.905465],[0.03444,50.907378],[0.033511,50.907856],[0.03379,50.908572],[0.03316,50.909159],[0.033185,50.910397],[0.031898,50.911922],[0.030278,50.912515],[0.030057,50.913064],[0.032752,50.915295],[0.034009,50.915109],[0.035567,50.915265],[0.036351,50.914492],[0.038571,50.91383],[0.039881,50.914034],[0.040565,50.913428],[0.041556,50.913256],[0.042485,50.913454],[0.042495,50.913747],[0.041557,50.913297],[0.040646,50.913446],[0.040131,50.914133],[0.038439,50.913928],[0.036872,50.914566],[0.037832,50.914899],[0.037641,50.915119],[0.036399,50.914625],[0.035826,50.915378],[0.037008,50.915301],[0.037155,50.915619],[0.034068,50.915257],[0.032835,50.91547],[0.030763,50.914179],[0.029909,50.913214],[0.030072,50.912519],[0.031701,50.911842],[0.032968,50.910357],[0.032947,50.909067],[0.033567,50.908512],[0.033321,50.907706],[0.034192,50.907091],[0.03434,50.905569],[0.033019,50.905018],[0.032647,50.904309],[0.030825,50.904439],[0.029678,50.903915],[0.027716,50.904464],[0.027014,50.904958],[0.025795,50.904757],[0.024989,50.905075],[0.019814,50.901914],[0.019928,50.901136],[0.021224,50.900697],[0.021434,50.900038],[0.020104,50.898187],[0.019253,50.897512],[0.018507,50.897079],[0.017081,50.897886],[0.014755,50.896918],[0.013909,50.897213],[0.011364,50.896947],[0.009182,50.895086],[-0.00067,50.889196],[-0.002789,50.887432],[-0.002064,50.886045],[0.000356,50.884722],[0.000888,50.883357],[0.004503,50.881046],[0.005769,50.879851],[0.007012,50.879371],[0.010348,50.878861],[0.013079,50.87723],[0.015416,50.876276],[0.01587,50.875612],[0.015955,50.873924],[0.016627,50.873195],[0.022374,50.871584],[0.023369,50.8707],[0.023827,50.869236],[0.02368,50.86665],[0.023366,50.866043],[0.020906,50.865145],[0.020122,50.864229],[0.020423,50.862785],[0.021456,50.861784],[0.023482,50.860831],[0.027061,50.857254],[0.030263,50.855979],[0.033902,50.850998],[0.03554,50.849356],[0.037464,50.848107],[0.038153,50.84666],[0.03789,50.845968],[0.037161,50.84552],[0.034521,50.845751],[0.033603,50.845338],[0.032654,50.843788],[0.032708,50.841423],[0.031184,50.839279],[0.030082,50.836405],[0.029518,50.835905],[0.027422,50.835334],[0.026063,50.833554],[0.025678,50.83097],[0.02793,50.821766],[0.026246,50.817107],[0.026379,50.815254],[0.027187,50.814626],[0.030423,50.813793],[0.034157,50.809621],[0.03598,50.809894],[0.038397,50.809284],[0.042111,50.809384],[0.0431,50.809099],[0.043903,50.808347],[0.044738,50.806148],[0.046324,50.804516],[0.046991,50.803145],[0.047245,50.800999],[0.048085,50.799231],[0.046294,50.798008],[0.046712,50.797806],[0.046366,50.797402],[0.046788,50.796791],[0.046319,50.796918],[0.048206,50.795323],[0.051671,50.794804],[0.052314,50.793251],[0.052606,50.790236],[0.05407,50.787797],[0.05332,50.788173],[0.052691,50.787766],[0.052422,50.786147],[0.054201,50.785128],[0.055318,50.785407],[0.057255,50.781675],[0.053283,50.781364],[0.052427,50.781105],[0.052304,50.780717],[0.055241,50.777422],[0.058547,50.775897],[0.055236,50.777267],[0.053055,50.779613],[0.043144,50.781494],[0.036242,50.781121],[0.021778,50.785223],[0.018435,50.785184],[0.018139,50.784958],[0.014496,50.785751],[0.014369,50.785556],[0.014246,50.785844],[0.012385,50.786331],[0.012071,50.786165],[0.011599,50.786612],[0.010184,50.786959],[0.006843,50.787206],[0.005676,50.787737],[-0.000221,50.788685],[-0.003156,50.789927],[-0.006569,50.790418],[-0.007161,50.790814],[-0.009676,50.791155],[-0.010794,50.791731],[-0.012793,50.791842],[-0.01551,50.792954],[-0.020744,50.793999],[-0.023005,50.795014],[-0.023493,50.794583],[-0.02441,50.795372],[-0.025446,50.795267],[-0.030477,50.797265],[-0.037683,50.799337],[-0.03825,50.799283],[-0.038465,50.798891],[-0.038577,50.799083],[-0.037097,50.800928],[-0.034391,50.802464],[-0.031766,50.804546],[-0.028199,50.808284],[-0.020623,50.812889],[-0.016002,50.814875],[-0.016586,50.816274],[-0.019302,50.819649],[-0.020428,50.82183],[-0.026339,50.818017],[-0.030229,50.817349],[-0.031003,50.817415],[-0.03327,50.8188],[-0.039685,50.82153],[-0.045968,50.821825],[-0.045484,50.822374],[-0.04582,50.823536],[-0.045115,50.8234],[-0.042458,50.824253],[-0.039104,50.828633],[-0.038856,50.834676],[-0.038076,50.836413],[-0.038992,50.837872],[-0.036315,50.839508],[-0.03686,50.841173],[-0.042549,50.842631],[-0.043447,50.843298],[-0.043491,50.844253],[-0.045614,50.844958],[-0.048908,50.844348],[-0.053541,50.844267],[-0.057363,50.843211],[-0.060378,50.841979],[-0.063297,50.841419],[-0.073452,50.841215],[-0.072448,50.843997],[-0.070779,50.845819],[-0.072498,50.848331],[-0.078832,50.853805],[-0.080014,50.860932],[-0.08167,50.860687],[-0.082804,50.863072],[-0.083197,50.862991],[-0.084134,50.866915],[-0.082865,50.86745],[-0.08464,50.868983],[-0.086102,50.871073],[-0.084928,50.87312],[-0.09436,50.876781],[-0.0948,50.876538],[-0.097519,50.877945],[-0.098476,50.8775],[-0.097963,50.876543],[-0.104462,50.874604],[-0.103495,50.872774],[-0.104915,50.872343],[-0.111361,50.873155],[-0.115313,50.874228],[-0.1218,50.873428],[-0.122234,50.876123],[-0.1243,50.876186],[-0.124212,50.878027],[-0.129616,50.878745],[-0.135279,50.878098],[-0.135858,50.880516],[-0.135534,50.885085],[-0.135005,50.88665],[-0.133979,50.888178],[-0.133373,50.893969],[-0.131941,50.896084],[-0.13082,50.900401],[-0.130729,50.906038],[-0.130081,50.909535],[-0.130782,50.909757],[-0.130834,50.910248],[-0.130285,50.911331],[-0.129694,50.911388],[-0.129624,50.914082],[-0.128403,50.918871],[-0.127048,50.920655],[-0.125698,50.923788],[-0.122393,50.928372],[-0.120774,50.929909],[-0.121034,50.930087],[-0.119913,50.932882],[-0.120469,50.938515],[-0.120063,50.940586],[-0.118756,50.940528],[-0.116919,50.941066],[-0.117888,50.941491],[-0.12006,50.941334],[-0.120037,50.941712],[-0.118093,50.945259],[-0.111099,50.943677],[-0.108916,50.943803],[-0.105426,50.94311],[-0.104253,50.947293],[-0.105275,50.950619],[-0.105209,50.951701],[-0.106281,50.953811],[-0.106228,50.954664],[-0.108195,50.956893],[-0.107911,50.957866],[-0.108302,50.957994],[-0.108519,50.95881],[-0.10817,50.960522],[-0.105496,50.964377],[-0.10936,50.965042],[-0.109095,50.96546],[-0.109398,50.96571],[-0.108555,50.96698],[-0.110385,50.967807],[-0.112669,50.967341],[-0.116309,50.967176],[-0.115124,50.969779],[-0.115709,50.969846],[-0.116107,50.970369],[-0.116337,50.973486],[-0.115148,50.976117],[-0.11434,50.975962],[-0.113966,50.976521],[-0.111684,50.976338],[-0.108716,50.980243],[-0.104346,50.980304],[-0.10267,50.980843],[-0.101596,50.980086],[-0.102017,50.97941],[-0.098107,50.979378],[-0.097341,50.978789],[-0.094189,50.979369],[-0.093067,50.979228],[-0.092804,50.980192],[-0.09314,50.980598],[-0.092282,50.983297],[-0.091855,50.983289],[-0.086832,50.987853],[-0.086668,50.988912],[-0.085291,50.989652],[-0.082391,50.989092],[-0.082007,50.989673],[-0.083159,50.989825],[-0.08382,50.990719],[-0.078765,50.990872],[-0.076785,50.991453],[-0.075463,50.991101],[-0.073619,50.991675],[-0.072012,50.991302],[-0.070525,50.991345],[-0.068511,50.989478],[-0.06716,50.988998],[-0.065696,50.985785],[-0.065559,50.983669],[-0.066236,50.982813],[-0.065186,50.982121],[-0.065043,50.981163],[-0.063769,50.980818],[-0.063572,50.979988],[-0.064033,50.979637],[-0.063713,50.979212],[-0.061266,50.978384],[-0.060678,50.978541],[-0.05998,50.979503],[-0.058432,50.979998],[-0.052238,50.979548],[-0.051795,50.980026],[-0.050135,50.980378],[-0.048757,50.981135],[-0.046985,50.981208],[-0.0454,50.980493],[-0.044454,50.979614],[-0.039586,50.97931],[-0.036718,50.979792],[-0.036716,50.979058],[-0.037867,50.978822],[-0.037072,50.977384],[-0.0363,50.977191],[-0.034665,50.977453],[-0.032025,50.979584],[-0.032152,50.979882],[-0.029318,50.979229],[-0.024604,50.980025],[-0.023533,50.982242],[-0.020076,50.985404],[-0.020231,50.986189],[-0.019535,50.987264],[-0.019344,50.988663],[-0.019152,50.989075],[-0.018774,50.988966],[-0.018832,50.992334],[-0.018146,50.995292],[-0.018484,50.995914],[-0.017607,50.998971],[-0.01779,51.000167],[-0.01635,51.002496],[-0.015785,51.002048],[-0.01442,51.001775],[-0.015291,51.00138],[-0.011756,51.000349]]]]}}]}