{"type":"FeatureCollection","features":[{"type":"Feature","properties":{"slug":"lewisham","gss_code":"E09000023","name":"Lewisham"},"geometry":{"type":"Polygon","coordinates":[[[-0.029385,51.488938],[-0.029447,51.488551],[-0.029107,51.488623],[-0.027554,51.487222],[-0.024713,51.485483],[-0.025167,51.485023],[-0.025762,51.482151],[-0.026365,51.481507],[-0.023281,51.480781],[-0.02304,51.479665],[-0.020308,51.479914],[-0.020401,51.480219],[-0.017801,51.480873],[-0.01709,51.480412],[-0.019166,51.479651],[-0.019418,51.478014],[-0.01984,51.478048],[-0.019288,51.477618],[-0.019388,51.47719],[-0.020051,51.477131],[-0.021119,51.476268],[-0.022804,51.475929],[-0.020923,51.476135],[-0.020953,51.475677],[-0.022528,51.475592],[-0.02226,51.475455],[-0.022861,51.475312],[-0.022792,51.474466],[-0.022582,51.474112],[-0.021275,51.473776],[-0.019973,51.473002],[-0.020312,51.472305],[-0.019301,51.472036],[-0.018659,51.470686],[-0.019245,51.470507],[-0.019114,51.470009],[-0.016891,51.469072],[-0.016562,51.46926],[-0.015062,51.468044],[-0.013106,51.468939],[-0.015147,51.471749],[-0.014528,51.471903],[-0.014045,51.472671],[-0.012563,51.472343],[-0.008229,51.47276],[-0.000898,51.471803],[0.017963,51.47383],[0.015001,51.473081],[0.01553,51.471316],[0.016703,51.469504],[0.016544,51.469129],[0.014364,51.469747],[0.01261,51.469809],[0.013088,51.468147],[0.012701,51.467397],[0.013266,51.466839],[0.009095,51.465873],[0.009903,51.459631],[0.011511,51.456685],[0.014036,51.455728],[0.017549,51.455032],[0.01835,51.451575],[0.01956,51.45171],[0.019885,51.45073],[0.015131,51.450208],[0.014933,51.450611],[0.0151,51.450007],[0.02198,51.448943],[0.022954,51.447203],[0.021243,51.446698],[0.021521,51.444439],[0.020622,51.444206],[0.021506,51.442728],[0.02558,51.441716],[0.029379,51.441705],[0.028593,51.440404],[0.028816,51.438772],[0.024782,51.438208],[0.025436,51.435667],[0.027181,51.436527],[0.028687,51.43641],[0.029087,51.434674],[0.028593,51.434034],[0.031405,51.432583],[0.031159,51.432094],[0.031607,51.432555],[0.032494,51.431891],[0.033256,51.432231],[0.033737,51.431695],[0.037709,51.433341],[0.03754,51.431368],[0.038365,51.428281],[0.037845,51.427801],[0.038474,51.427584],[0.039056,51.424688],[0.036231,51.422389],[0.025459,51.428973],[0.021219,51.426863],[0.018748,51.427058],[0.015981,51.42619],[0.01412,51.426175],[0.014418,51.425215],[0.013539,51.425102],[0.013366,51.424682],[0.011883,51.424086],[0.009982,51.422482],[0.008106,51.42304],[0.007389,51.421402],[0.006863,51.421503],[0.006729,51.420945],[0.006309,51.42103],[0.005216,51.419356],[0.005671,51.418526],[0.003534,51.417427],[0.001743,51.418586],[-0.000119,51.417575],[-0.000729,51.415907],[-0.003391,51.415651],[-0.00328,51.415036],[-0.004967,51.4146],[-0.005583,51.41582],[-0.006553,51.415979],[-0.006591,51.414663],[-0.010312,51.413578],[-0.01424,51.41365],[-0.014538,51.413931],[-0.014274,51.415161],[-0.017967,51.415056],[-0.017798,51.415744],[-0.020999,51.416024],[-0.022174,51.416742],[-0.021697,51.417279],[-0.022558,51.417564],[-0.021396,51.418342],[-0.020759,51.419946],[-0.021649,51.420442],[-0.020998,51.420976],[-0.022242,51.421776],[-0.022574,51.421557],[-0.02434,51.423117],[-0.025963,51.423612],[-0.030081,51.425645],[-0.031971,51.425536],[-0.031794,51.42471],[-0.034213,51.424754],[-0.034195,51.42511],[-0.03747,51.424982],[-0.038453,51.423957],[-0.040997,51.424263],[-0.041572,51.423652],[-0.04381,51.423154],[-0.043676,51.422893],[-0.046251,51.422375],[-0.045992,51.422795],[-0.051748,51.422517],[-0.051802,51.42357],[-0.054737,51.423726],[-0.055136,51.422943],[-0.056755,51.422965],[-0.058099,51.423172],[-0.061405,51.424471],[-0.061426,51.424798],[-0.062404,51.425155],[-0.064408,51.425319],[-0.064553,51.425058],[-0.065809,51.425331],[-0.066022,51.425075],[-0.067886,51.425925],[-0.068658,51.425993],[-0.068902,51.42563],[-0.070886,51.426232],[-0.073907,51.426213],[-0.075081,51.428983],[-0.074864,51.429842],[-0.072865,51.432097],[-0.072226,51.432498],[-0.069114,51.432831],[-0.066812,51.433882],[-0.065851,51.434626],[-0.064393,51.437051],[-0.063401,51.437572],[-0.064049,51.440841],[-0.06503,51.441163],[-0.064036,51.442072],[-0.063018,51.446199],[-0.061801,51.447787],[-0.057578,51.450326],[-0.053856,51.448686],[-0.048997,51.450106],[-0.04608,51.449868],[-0.041648,51.454997],[-0.044574,51.456581],[-0.046134,51.456946],[-0.045211,51.459431],[-0.045191,51.462045],[-0.045973,51.463975],[-0.048515,51.465627],[-0.048176,51.465894],[-0.050812,51.466654],[-0.050544,51.46679],[-0.051297,51.46737],[-0.050851,51.467577],[-0.052269,51.469226],[-0.051658,51.469716],[-0.052742,51.47297],[-0.052687,51.478014],[-0.054235,51.478596],[-0.053099,51.480927],[-0.052782,51.482725],[-0.053056,51.485038],[-0.053534,51.48568],[-0.052925,51.486004],[-0.052854,51.486684],[-0.053969,51.487941],[-0.052592,51.487552],[-0.052346,51.487801],[-0.050487,51.48792],[-0.050065,51.48833],[-0.051937,51.489115],[-0.051339,51.489504],[-0.046541,51.490669],[-0.046529,51.490348],[-0.042256,51.490089],[-0.042479,51.490251],[-0.040277,51.491046],[-0.041024,51.491831],[-0.040031,51.492182],[-0.040492,51.492797],[-0.039235,51.492966],[-0.037251,51.492224],[-0.032384,51.493053],[-0.029385,51.488938]]]}}]}