{"type":"FeatureCollection","features":[{"type":"Feature","properties":{"slug":"lichfield","gss_code":"E07000194","name":"Lichfield"},"geometry":{"type":"Polygon","coordinates":[[[-1.93621,52.805343],[-1.933311,52.805998],[-1.933028,52.805187],[-1.930781,52.805567],[-1.930653,52.804905],[-1.931282,52.804646],[-1.931204,52.804349],[-1.930487,52.804427],[-1.93054,52.803945],[-1.928864,52.803709],[-1.928955,52.803186],[-1.927034,52.802653],[-1.926098,52.801888],[-1.922626,52.801482],[-1.918538,52.800025],[-1.917796,52.800398],[-1.915342,52.799158],[-1.912835,52.800134],[-1.909261,52.799151],[-1.907656,52.79809],[-1.904632,52.797828],[-1.902818,52.79674],[-1.901943,52.795322],[-1.89725,52.795737],[-1.894034,52.797237],[-1.892608,52.79829],[-1.892058,52.799409],[-1.88983,52.800347],[-1.887687,52.7991],[-1.887264,52.799224],[-1.886734,52.798805],[-1.885548,52.798841],[-1.884667,52.79843],[-1.884269,52.797201],[-1.883004,52.79648],[-1.878268,52.796188],[-1.876707,52.795701],[-1.875882,52.795067],[-1.873811,52.794775],[-1.872439,52.793989],[-1.87238,52.793204],[-1.871709,52.793188],[-1.870466,52.792004],[-1.867088,52.791523],[-1.866585,52.790771],[-1.864866,52.790373],[-1.86448,52.789841],[-1.863714,52.789942],[-1.863608,52.789529],[-1.862578,52.789289],[-1.861815,52.788242],[-1.862428,52.787028],[-1.861747,52.786835],[-1.86139,52.786201],[-1.860826,52.786245],[-1.860992,52.785846],[-1.860484,52.786041],[-1.86058,52.785379],[-1.860064,52.7853],[-1.860274,52.784924],[-1.859792,52.784527],[-1.858064,52.784371],[-1.857215,52.783823],[-1.854208,52.783174],[-1.853735,52.782322],[-1.852727,52.782479],[-1.852408,52.783212],[-1.851675,52.783176],[-1.849422,52.785062],[-1.848582,52.785009],[-1.847004,52.786675],[-1.84495,52.787724],[-1.844376,52.790122],[-1.845142,52.793435],[-1.842357,52.795932],[-1.839375,52.796119],[-1.837924,52.795966],[-1.837259,52.795315],[-1.835107,52.795526],[-1.833696,52.79531],[-1.827553,52.793224],[-1.823301,52.794082],[-1.817578,52.793028],[-1.814181,52.790298],[-1.810156,52.785136],[-1.81,52.783389],[-1.809504,52.783143],[-1.812795,52.779026],[-1.815759,52.778056],[-1.818651,52.777791],[-1.820615,52.776982],[-1.820275,52.776426],[-1.821084,52.775467],[-1.823524,52.774327],[-1.82545,52.77266],[-1.827198,52.771714],[-1.826977,52.771434],[-1.828402,52.769059],[-1.826151,52.768848],[-1.82349,52.769145],[-1.823317,52.767035],[-1.822497,52.767305],[-1.819762,52.760838],[-1.818922,52.757083],[-1.817526,52.755191],[-1.816578,52.755713],[-1.814825,52.75562],[-1.81319,52.756572],[-1.811847,52.756438],[-1.807857,52.757398],[-1.803134,52.756181],[-1.802511,52.755307],[-1.801552,52.755078],[-1.801353,52.754278],[-1.798655,52.753782],[-1.795251,52.752343],[-1.794043,52.752779],[-1.793887,52.753959],[-1.793316,52.754315],[-1.790532,52.753786],[-1.789352,52.753194],[-1.788926,52.752498],[-1.790142,52.751596],[-1.786194,52.749332],[-1.786741,52.747204],[-1.784563,52.745852],[-1.780025,52.745863],[-1.778493,52.746206],[-1.777299,52.748625],[-1.777568,52.748908],[-1.778344,52.748293],[-1.778553,52.749013],[-1.775927,52.750789],[-1.774295,52.750993],[-1.772758,52.750742],[-1.771757,52.749737],[-1.772641,52.749108],[-1.771772,52.748854],[-1.770289,52.749175],[-1.769072,52.748039],[-1.768749,52.748092],[-1.769598,52.749168],[-1.768952,52.749163],[-1.768906,52.749434],[-1.769845,52.74987],[-1.769784,52.750147],[-1.767701,52.750054],[-1.76778,52.750662],[-1.767319,52.750852],[-1.763796,52.748419],[-1.760315,52.747243],[-1.759065,52.746151],[-1.757758,52.745578],[-1.757501,52.745225],[-1.758143,52.744141],[-1.757068,52.743618],[-1.756208,52.741631],[-1.753347,52.740794],[-1.753997,52.740347],[-1.750603,52.739148],[-1.749188,52.739743],[-1.74646,52.739264],[-1.744086,52.739368],[-1.743862,52.738922],[-1.744303,52.738355],[-1.740772,52.738291],[-1.737244,52.739096],[-1.734897,52.739164],[-1.733768,52.739759],[-1.734292,52.740104],[-1.733944,52.74025],[-1.733105,52.739879],[-1.733992,52.73893],[-1.731806,52.738959],[-1.731249,52.739251],[-1.73087,52.739073],[-1.731081,52.738354],[-1.728856,52.738453],[-1.72805,52.738976],[-1.727254,52.738501],[-1.727233,52.738027],[-1.726226,52.737801],[-1.725551,52.738016],[-1.725644,52.739047],[-1.723541,52.739231],[-1.723261,52.738542],[-1.724674,52.737768],[-1.724351,52.737061],[-1.723002,52.738077],[-1.721961,52.737812],[-1.721536,52.736362],[-1.722337,52.735436],[-1.719871,52.734737],[-1.720578,52.73421],[-1.719968,52.733431],[-1.717401,52.733405],[-1.717935,52.732702],[-1.71703,52.731965],[-1.716987,52.731383],[-1.717482,52.731293],[-1.714363,52.730731],[-1.712247,52.729999],[-1.710553,52.729884],[-1.707282,52.730592],[-1.704158,52.732079],[-1.704457,52.731068],[-1.703165,52.729481],[-1.701318,52.728464],[-1.696952,52.727195],[-1.694021,52.726868],[-1.687822,52.727286],[-1.682089,52.727016],[-1.677944,52.727504],[-1.675433,52.72686],[-1.675563,52.724897],[-1.67131,52.7243],[-1.671384,52.724061],[-1.669169,52.723583],[-1.666376,52.723593],[-1.666284,52.723942],[-1.66484,52.724048],[-1.664553,52.723603],[-1.663023,52.723645],[-1.662613,52.723005],[-1.656608,52.721748],[-1.655928,52.719843],[-1.656214,52.717798],[-1.655678,52.715951],[-1.657845,52.715327],[-1.657551,52.714948],[-1.659291,52.714083],[-1.658209,52.712608],[-1.657733,52.710579],[-1.65591,52.710455],[-1.656343,52.708571],[-1.654301,52.708209],[-1.654151,52.703058],[-1.655055,52.701981],[-1.654421,52.699979],[-1.655629,52.699464],[-1.655064,52.698776],[-1.653891,52.6988],[-1.653914,52.699303],[-1.652567,52.699556],[-1.649342,52.699658],[-1.648575,52.699243],[-1.64882,52.698554],[-1.648061,52.698398],[-1.644732,52.699344],[-1.642345,52.700443],[-1.641625,52.700322],[-1.641043,52.699676],[-1.637578,52.699644],[-1.637518,52.700051],[-1.63797,52.699868],[-1.638199,52.700194],[-1.637674,52.7014],[-1.636288,52.702401],[-1.635296,52.702497],[-1.634856,52.702387],[-1.635014,52.70196],[-1.634036,52.702069],[-1.634153,52.701477],[-1.633318,52.701504],[-1.632975,52.70087],[-1.631788,52.700346],[-1.630259,52.700099],[-1.629581,52.700327],[-1.626244,52.700244],[-1.62734,52.699553],[-1.626356,52.699003],[-1.625263,52.697406],[-1.623309,52.697515],[-1.622444,52.698611],[-1.620941,52.69952],[-1.618405,52.699805],[-1.618066,52.699599],[-1.616692,52.700507],[-1.615493,52.700701],[-1.61268,52.69998],[-1.612317,52.69914],[-1.611558,52.69924],[-1.611519,52.698857],[-1.610638,52.698517],[-1.610088,52.698914],[-1.607761,52.698401],[-1.607964,52.697358],[-1.606736,52.697601],[-1.607014,52.696833],[-1.605746,52.696501],[-1.605327,52.696983],[-1.604136,52.696716],[-1.601233,52.697399],[-1.599814,52.698305],[-1.598805,52.698458],[-1.598514,52.699334],[-1.599098,52.699042],[-1.599876,52.69966],[-1.599093,52.699777],[-1.598703,52.700385],[-1.596998,52.70045],[-1.590882,52.698064],[-1.589748,52.696062],[-1.586394,52.694492],[-1.587082,52.694287],[-1.588614,52.692775],[-1.588464,52.690685],[-1.589645,52.687261],[-1.602104,52.679621],[-1.604283,52.678999],[-1.603911,52.677891],[-1.606205,52.677033],[-1.605065,52.676168],[-1.60393,52.674197],[-1.604265,52.673721],[-1.606083,52.673189],[-1.615544,52.67198],[-1.6156,52.668756],[-1.61982,52.668214],[-1.62588,52.665528],[-1.628144,52.663889],[-1.627977,52.663491],[-1.631252,52.662502],[-1.639197,52.659315],[-1.639372,52.658786],[-1.647261,52.657172],[-1.650471,52.656346],[-1.651575,52.655764],[-1.656116,52.654772],[-1.6584,52.653303],[-1.662688,52.652231],[-1.665395,52.652039],[-1.666474,52.652247],[-1.670752,52.651602],[-1.673204,52.650715],[-1.68131,52.64878],[-1.684369,52.647221],[-1.689718,52.650923],[-1.694354,52.651102],[-1.70151,52.650715],[-1.704418,52.650952],[-1.711427,52.650122],[-1.714092,52.651307],[-1.720499,52.651615],[-1.722553,52.651366],[-1.721536,52.649914],[-1.722863,52.649425],[-1.721407,52.647681],[-1.724498,52.646896],[-1.724703,52.646516],[-1.725682,52.646533],[-1.72571,52.646127],[-1.727222,52.645656],[-1.734466,52.644593],[-1.73371,52.642912],[-1.734163,52.642078],[-1.733488,52.640796],[-1.733652,52.639475],[-1.732652,52.638424],[-1.733093,52.63763],[-1.735837,52.636907],[-1.734919,52.63587],[-1.732292,52.634923],[-1.731258,52.632716],[-1.726121,52.632162],[-1.720943,52.628535],[-1.711887,52.62546],[-1.709609,52.622022],[-1.709527,52.621327],[-1.707522,52.619124],[-1.702056,52.615736],[-1.700607,52.615518],[-1.691453,52.617392],[-1.690586,52.614242],[-1.692095,52.612238],[-1.690324,52.610659],[-1.690909,52.609492],[-1.691034,52.607552],[-1.688976,52.606266],[-1.688822,52.605821],[-1.689987,52.605485],[-1.691284,52.603916],[-1.692859,52.603274],[-1.693277,52.601406],[-1.694328,52.6002],[-1.693934,52.59977],[-1.695181,52.598709],[-1.696392,52.598766],[-1.698605,52.597008],[-1.699501,52.597008],[-1.699375,52.597434],[-1.700309,52.5974],[-1.703699,52.59604],[-1.703682,52.595285],[-1.704246,52.59528],[-1.704287,52.595015],[-1.703023,52.594726],[-1.702271,52.594876],[-1.701803,52.594572],[-1.701875,52.594077],[-1.700858,52.593804],[-1.700265,52.593264],[-1.70073,52.592129],[-1.700426,52.591676],[-1.700968,52.59166],[-1.700316,52.590885],[-1.704021,52.590608],[-1.704141,52.590075],[-1.703041,52.590233],[-1.704162,52.589266],[-1.703197,52.588619],[-1.704085,52.588498],[-1.703823,52.587594],[-1.708007,52.58758],[-1.714193,52.588871],[-1.717486,52.588694],[-1.717718,52.589149],[-1.723105,52.587902],[-1.724285,52.588435],[-1.727529,52.588346],[-1.729261,52.587951],[-1.730161,52.588359],[-1.73314,52.58859],[-1.733506,52.589086],[-1.737515,52.588969],[-1.739011,52.589275],[-1.740352,52.590225],[-1.739191,52.593546],[-1.741154,52.594281],[-1.742288,52.594319],[-1.744743,52.593743],[-1.751309,52.593332],[-1.755678,52.591666],[-1.763186,52.590403],[-1.768328,52.589113],[-1.770547,52.589305],[-1.773052,52.591005],[-1.774042,52.592164],[-1.77665,52.592211],[-1.781014,52.591263],[-1.783923,52.589107],[-1.788002,52.587898],[-1.789626,52.591615],[-1.793658,52.594422],[-1.795327,52.595132],[-1.794335,52.596168],[-1.796528,52.599123],[-1.797572,52.59917],[-1.801678,52.601073],[-1.803869,52.601332],[-1.811817,52.604409],[-1.827987,52.608715],[-1.83237,52.607807],[-1.83672,52.607357],[-1.838034,52.606746],[-1.838657,52.606872],[-1.844471,52.605224],[-1.848551,52.604653],[-1.852796,52.602493],[-1.85468,52.601352],[-1.863912,52.591075],[-1.867961,52.58853],[-1.867712,52.588276],[-1.870808,52.586779],[-1.872421,52.585006],[-1.873191,52.584912],[-1.875245,52.58575],[-1.878067,52.587677],[-1.884564,52.594617],[-1.888086,52.597024],[-1.890563,52.598124],[-1.890182,52.598474],[-1.892266,52.599152],[-1.892273,52.599967],[-1.887139,52.606631],[-1.886605,52.608377],[-1.884894,52.610515],[-1.885166,52.613378],[-1.886173,52.615571],[-1.894342,52.622672],[-1.897366,52.624733],[-1.904599,52.627736],[-1.908211,52.630172],[-1.909958,52.631784],[-1.915985,52.635286],[-1.914135,52.636174],[-1.913667,52.635884],[-1.91312,52.636108],[-1.912738,52.636724],[-1.913154,52.63703],[-1.908011,52.640071],[-1.907512,52.639812],[-1.907529,52.640603],[-1.905876,52.641782],[-1.906472,52.642139],[-1.905084,52.643208],[-1.909037,52.644759],[-1.909686,52.644355],[-1.912391,52.646548],[-1.918121,52.649951],[-1.915919,52.651494],[-1.916584,52.652258],[-1.90866,52.654],[-1.912842,52.658234],[-1.919592,52.656875],[-1.923684,52.655528],[-1.925806,52.65607],[-1.928589,52.6586],[-1.933651,52.661562],[-1.935474,52.659716],[-1.93662,52.660083],[-1.936455,52.659055],[-1.937027,52.659155],[-1.938663,52.657358],[-1.940517,52.656933],[-1.940449,52.656331],[-1.945446,52.656326],[-1.945736,52.657145],[-1.947386,52.658488],[-1.94964,52.659991],[-1.950225,52.659697],[-1.953635,52.66278],[-1.954613,52.662683],[-1.961147,52.667944],[-1.959536,52.671053],[-1.959488,52.671916],[-1.960471,52.673039],[-1.962686,52.673785],[-1.962471,52.674429],[-1.963225,52.674633],[-1.961999,52.678225],[-1.95831,52.676827],[-1.958073,52.679349],[-1.95925,52.684149],[-1.954587,52.684525],[-1.95366,52.686647],[-1.950777,52.687975],[-1.949203,52.689278],[-1.948161,52.690833],[-1.947502,52.693641],[-1.949632,52.695668],[-1.946629,52.695676],[-1.94303,52.696883],[-1.941318,52.696852],[-1.936513,52.695586],[-1.932621,52.696314],[-1.934206,52.697801],[-1.934135,52.698269],[-1.933258,52.698619],[-1.93228,52.699756],[-1.931491,52.701614],[-1.930116,52.70297],[-1.930155,52.704351],[-1.929409,52.705006],[-1.926423,52.70652],[-1.925662,52.707635],[-1.921241,52.70792],[-1.916619,52.709316],[-1.915511,52.710639],[-1.917173,52.712004],[-1.919022,52.710297],[-1.924057,52.713552],[-1.927607,52.714372],[-1.930542,52.714567],[-1.932473,52.713765],[-1.933945,52.713691],[-1.937326,52.714103],[-1.937701,52.716273],[-1.935826,52.718703],[-1.93554,52.719907],[-1.935862,52.720855],[-1.933424,52.721149],[-1.934497,52.723733],[-1.933923,52.727647],[-1.92716,52.731439],[-1.927095,52.733013],[-1.925758,52.734886],[-1.919908,52.737985],[-1.919519,52.737876],[-1.918734,52.739219],[-1.916263,52.738896],[-1.914122,52.741602],[-1.913141,52.741769],[-1.912338,52.743213],[-1.913866,52.74596],[-1.913222,52.747097],[-1.913838,52.74727],[-1.911508,52.750834],[-1.910807,52.751191],[-1.912341,52.75242],[-1.917199,52.754656],[-1.914627,52.755942],[-1.911747,52.758329],[-1.911387,52.759029],[-1.913116,52.759939],[-1.917826,52.760921],[-1.922998,52.762492],[-1.926251,52.764142],[-1.928637,52.766155],[-1.928809,52.767183],[-1.929711,52.76807],[-1.930405,52.768115],[-1.931633,52.767601],[-1.932502,52.76781],[-1.937387,52.771395],[-1.942912,52.773102],[-1.943958,52.773739],[-1.945841,52.776564],[-1.947441,52.778176],[-1.952085,52.780083],[-1.951278,52.780135],[-1.948258,52.78382],[-1.947109,52.78596],[-1.946447,52.785941],[-1.945253,52.789356],[-1.949204,52.789394],[-1.949279,52.79004],[-1.950675,52.789777],[-1.951367,52.791821],[-1.947948,52.793302],[-1.948205,52.793634],[-1.951786,52.795981],[-1.956097,52.797957],[-1.958076,52.798506],[-1.952629,52.800654],[-1.953038,52.801502],[-1.952402,52.801798],[-1.95269,52.801994],[-1.951162,52.803904],[-1.951327,52.807428],[-1.949906,52.807431],[-1.949814,52.80769],[-1.94887,52.807809],[-1.941777,52.8074],[-1.93584,52.80655],[-1.93621,52.805343]]]}}]}