{"type":"FeatureCollection","features":[{"type":"Feature","properties":{"slug":"luton","gss_code":"E06000032","name":"Luton"},"geometry":{"type":"Polygon","coordinates":[[[-0.421682,51.925681],[-0.422458,51.920169],[-0.422099,51.920095],[-0.421163,51.917453],[-0.420924,51.915253],[-0.419065,51.912304],[-0.418339,51.912778],[-0.414758,51.911531],[-0.40756,51.910692],[-0.402437,51.909703],[-0.40122,51.913053],[-0.393733,51.915462],[-0.393008,51.914412],[-0.387219,51.915944],[-0.386612,51.915628],[-0.385616,51.91568],[-0.385746,51.914568],[-0.384922,51.911209],[-0.37864,51.90404],[-0.37839,51.901646],[-0.3776,51.900505],[-0.37749,51.898433],[-0.373909,51.895314],[-0.371937,51.894723],[-0.365134,51.894378],[-0.360794,51.890836],[-0.358161,51.887571],[-0.357693,51.886444],[-0.355132,51.885111],[-0.353584,51.88307],[-0.351979,51.879602],[-0.353018,51.878887],[-0.349837,51.878676],[-0.350707,51.876131],[-0.354126,51.87554],[-0.354615,51.875164],[-0.354834,51.874015],[-0.358009,51.873197],[-0.362871,51.874024],[-0.368298,51.87306],[-0.365784,51.870762],[-0.369755,51.868115],[-0.37518,51.86949],[-0.374583,51.870057],[-0.375354,51.870429],[-0.376025,51.869874],[-0.377444,51.870838],[-0.37866,51.87016],[-0.380326,51.870186],[-0.386993,51.871213],[-0.388522,51.871867],[-0.391468,51.870129],[-0.393184,51.869727],[-0.39586,51.870581],[-0.397596,51.869668],[-0.400893,51.868652],[-0.403506,51.86645],[-0.405293,51.864375],[-0.409121,51.861495],[-0.410819,51.861783],[-0.412543,51.862868],[-0.416126,51.861995],[-0.414925,51.860772],[-0.414417,51.859035],[-0.416018,51.85931],[-0.420809,51.855086],[-0.42207,51.854481],[-0.423362,51.854784],[-0.425666,51.857127],[-0.4327,51.862423],[-0.441649,51.872122],[-0.449406,51.878351],[-0.455275,51.882287],[-0.466654,51.888194],[-0.479763,51.888519],[-0.483941,51.8883],[-0.484896,51.891342],[-0.505923,51.900612],[-0.497659,51.904004],[-0.494047,51.906075],[-0.491523,51.906338],[-0.490722,51.905243],[-0.482276,51.907795],[-0.481562,51.912884],[-0.478497,51.917331],[-0.486572,51.922148],[-0.485701,51.922701],[-0.482278,51.922349],[-0.475751,51.923685],[-0.470441,51.924171],[-0.465829,51.924104],[-0.462393,51.923543],[-0.458657,51.923944],[-0.456423,51.924603],[-0.4503,51.924731],[-0.446504,51.925583],[-0.441361,51.926177],[-0.438483,51.926054],[-0.438715,51.927026],[-0.437816,51.927747],[-0.423888,51.926289],[-0.421682,51.925681]]]}}]}