{"type":"FeatureCollection","features":[{"type":"Feature","properties":{"slug":"maldon","gss_code":"E07000074","name":"Maldon"},"geometry":{"type":"MultiPolygon","coordinates":[[[[0.922055,51.628876],[0.920856,51.629079],[0.922764,51.629198],[0.922055,51.628876]]],[[[0.670108,51.636688],[0.663919,51.63697],[0.668768,51.637018],[0.670487,51.636914],[0.670108,51.636688]]],[[[0.73931,51.634753],[0.739053,51.635574],[0.739998,51.635719],[0.743057,51.635299],[0.743302,51.635043],[0.73931,51.634753]]],[[[0.735339,51.635598],[0.735613,51.635235],[0.734938,51.635343],[0.734312,51.634953],[0.734187,51.635893],[0.735339,51.635598]]],[[[0.748547,51.634881],[0.745792,51.634568],[0.739178,51.634628],[0.743663,51.635045],[0.746932,51.634731],[0.747552,51.635364],[0.74981,51.635511],[0.751585,51.636014],[0.748547,51.634881]]],[[[0.738793,51.635909],[0.738972,51.635077],[0.737014,51.635194],[0.737634,51.635655],[0.736614,51.636114],[0.737794,51.636068],[0.738143,51.636444],[0.738793,51.635909]]],[[[0.670354,51.637108],[0.664477,51.637073],[0.66547,51.637194],[0.665121,51.637414],[0.664491,51.63722],[0.664857,51.638698],[0.667522,51.638725],[0.668681,51.638219],[0.670161,51.638],[0.670354,51.637108]]],[[[0.713962,51.637523],[0.714426,51.638125],[0.716072,51.638382],[0.715467,51.637988],[0.713962,51.637523]]],[[[0.713801,51.637867],[0.713994,51.638471],[0.7143,51.638546],[0.714397,51.63824],[0.713801,51.637867]]],[[[0.731318,51.636436],[0.729438,51.637486],[0.729405,51.638343],[0.73087,51.637757],[0.732228,51.637661],[0.731318,51.636436]]],[[[0.715996,51.638172],[0.716165,51.638319],[0.716059,51.638648],[0.71678,51.638844],[0.717232,51.638621],[0.715996,51.638172]]],[[[0.738855,51.638232],[0.737944,51.637474],[0.735631,51.637576],[0.736206,51.638337],[0.738473,51.638268],[0.737731,51.638667],[0.738948,51.638682],[0.738855,51.638232]]],[[[0.717391,51.638865],[0.716783,51.639066],[0.717299,51.639299],[0.717627,51.639201],[0.717391,51.638865]]],[[[0.748548,51.636728],[0.748509,51.636044],[0.746996,51.635778],[0.746509,51.635159],[0.74451,51.635143],[0.743258,51.635655],[0.742359,51.635657],[0.742387,51.635996],[0.742158,51.63566],[0.741743,51.636581],[0.74072,51.636213],[0.74089,51.637743],[0.740461,51.637012],[0.738734,51.637421],[0.739078,51.638679],[0.741025,51.638752],[0.741032,51.638294],[0.741338,51.63876],[0.745597,51.63875],[0.745733,51.638402],[0.747293,51.63817],[0.748548,51.636728]]],[[[0.728814,51.638068],[0.728501,51.638133],[0.728563,51.639156],[0.728814,51.638068]]],[[[0.668771,51.638297],[0.667158,51.638862],[0.66776,51.640666],[0.668972,51.639785],[0.669561,51.639356],[0.669264,51.638435],[0.668771,51.638297]]],[[[0.715721,51.638338],[0.714458,51.638219],[0.714412,51.638542],[0.714089,51.638591],[0.714845,51.639621],[0.715908,51.639516],[0.715721,51.638338]]],[[[0.727396,51.638359],[0.725314,51.638726],[0.72535,51.639409],[0.72726,51.638724],[0.727396,51.638359]]],[[[0.751056,51.638606],[0.75181,51.638805],[0.751445,51.638214],[0.750742,51.638136],[0.75042,51.637428],[0.749338,51.636824],[0.748926,51.637346],[0.750005,51.63798],[0.749843,51.63912],[0.751056,51.638606]]],[[[0.735765,51.638188],[0.735367,51.637768],[0.735521,51.638195],[0.735038,51.638759],[0.735457,51.63813],[0.73513,51.637629],[0.732257,51.638027],[0.732502,51.638637],[0.733264,51.638541],[0.732548,51.638677],[0.732879,51.639466],[0.735166,51.639292],[0.735765,51.638188]]],[[[0.738685,51.638791],[0.737371,51.639114],[0.73897,51.639398],[0.738685,51.638791]]],[[[0.730961,51.637788],[0.729338,51.638422],[0.728899,51.639648],[0.732818,51.639506],[0.732031,51.63799],[0.730961,51.637788]]],[[[0.716321,51.638981],[0.716053,51.639566],[0.717704,51.64004],[0.717441,51.639405],[0.716321,51.638981]]],[[[0.716548,51.639772],[0.714921,51.639744],[0.715584,51.640325],[0.716136,51.64016],[0.71659,51.640335],[0.716548,51.639772]]],[[[0.73951,51.638848],[0.739402,51.639677],[0.740848,51.639908],[0.741908,51.639642],[0.741703,51.638961],[0.73951,51.638848]]],[[[0.717806,51.638928],[0.718097,51.639933],[0.720952,51.640373],[0.720967,51.639466],[0.717806,51.638928]]],[[[0.755105,51.638751],[0.752735,51.638013],[0.752947,51.639623],[0.753357,51.639469],[0.755286,51.639469],[0.755105,51.638751]]],[[[0.728372,51.638154],[0.727557,51.63833],[0.727314,51.638732],[0.725833,51.639448],[0.726234,51.639719],[0.72539,51.639694],[0.724764,51.640065],[0.725422,51.640413],[0.727944,51.640206],[0.728372,51.638154]]],[[[0.724262,51.640105],[0.724207,51.640481],[0.72482,51.640375],[0.724262,51.640105]]],[[[0.723945,51.640317],[0.72348,51.64036],[0.723609,51.640565],[0.723945,51.640317]]],[[[0.726841,51.640432],[0.725519,51.640511],[0.726159,51.640583],[0.726841,51.640432]]],[[[0.752465,51.638022],[0.751575,51.638129],[0.751905,51.638644],[0.752456,51.640204],[0.752465,51.638022]]],[[[0.75392,51.640084],[0.755768,51.640241],[0.75699,51.639703],[0.755497,51.639399],[0.754897,51.639693],[0.753343,51.639568],[0.752829,51.63976],[0.752786,51.640452],[0.75392,51.640084]]],[[[0.722943,51.640677],[0.722711,51.640368],[0.721212,51.640547],[0.721018,51.640813],[0.719806,51.640395],[0.719309,51.641028],[0.719469,51.64123],[0.722943,51.640677]]],[[[0.717919,51.640075],[0.716522,51.640392],[0.716144,51.640211],[0.715746,51.640405],[0.715865,51.640968],[0.717494,51.64131],[0.717919,51.640075]]],[[[0.718005,51.640128],[0.717644,51.641284],[0.719074,51.641327],[0.719672,51.640403],[0.718005,51.640128]]],[[[0.744978,51.640276],[0.744832,51.640537],[0.743601,51.640162],[0.743105,51.640285],[0.743201,51.640099],[0.742669,51.640229],[0.745057,51.640911],[0.744978,51.640276]]],[[[0.722913,51.641206],[0.723036,51.640774],[0.719166,51.641398],[0.716878,51.641344],[0.716131,51.641171],[0.715823,51.641016],[0.715681,51.640497],[0.714961,51.64008],[0.713666,51.638262],[0.713624,51.637828],[0.714023,51.63779],[0.713487,51.637365],[0.715347,51.637715],[0.713683,51.637356],[0.711666,51.63728],[0.711755,51.637687],[0.713744,51.638526],[0.713304,51.638879],[0.713622,51.638748],[0.713878,51.639218],[0.713872,51.638711],[0.715823,51.641203],[0.717155,51.641619],[0.719902,51.641691],[0.719203,51.641528],[0.722986,51.641384],[0.719438,51.64144],[0.722913,51.641206]]],[[[0.718289,51.638889],[0.721038,51.63922],[0.721231,51.640346],[0.722153,51.640049],[0.721929,51.639758],[0.722277,51.640033],[0.723122,51.639974],[0.72336,51.639762],[0.722666,51.639654],[0.72401,51.639548],[0.723125,51.639249],[0.724357,51.639478],[0.724269,51.639916],[0.724615,51.639548],[0.725169,51.639602],[0.725219,51.638746],[0.724479,51.638941],[0.7245,51.638717],[0.729166,51.637876],[0.729514,51.637338],[0.731329,51.636375],[0.732312,51.637642],[0.733957,51.637403],[0.734615,51.636986],[0.733049,51.636053],[0.734579,51.63637],[0.736367,51.635008],[0.737395,51.634828],[0.736476,51.63461],[0.738444,51.634464],[0.73715,51.634339],[0.73455,51.634838],[0.73483,51.635184],[0.735842,51.635199],[0.735344,51.635782],[0.734309,51.636277],[0.733678,51.636113],[0.734193,51.635806],[0.73409,51.634875],[0.733648,51.63498],[0.729223,51.637327],[0.729079,51.637774],[0.724192,51.63875],[0.720529,51.638832],[0.715347,51.637715],[0.718289,51.638889]]],[[[0.757228,51.639805],[0.755677,51.640327],[0.758388,51.640982],[0.757478,51.640436],[0.757745,51.64001],[0.757228,51.639805]]],[[[0.746218,51.6405],[0.747969,51.640497],[0.749804,51.640984],[0.746662,51.639242],[0.746055,51.63947],[0.746791,51.639714],[0.745978,51.639969],[0.746028,51.641018],[0.747199,51.641732],[0.74623,51.641097],[0.746218,51.6405]]],[[[0.657718,51.643642],[0.657089,51.644155],[0.657773,51.644109],[0.65862,51.643633],[0.657718,51.643642]]],[[[0.752072,51.641871],[0.753089,51.641966],[0.753212,51.641661],[0.753422,51.641879],[0.756531,51.641556],[0.761052,51.641677],[0.762195,51.641259],[0.762756,51.640341],[0.758348,51.639725],[0.75509,51.63828],[0.753067,51.637003],[0.749725,51.636424],[0.751345,51.63778],[0.752489,51.637332],[0.7525,51.637559],[0.755291,51.638585],[0.755979,51.639458],[0.757057,51.639536],[0.758514,51.640088],[0.761666,51.640302],[0.761898,51.640704],[0.761576,51.641028],[0.761631,51.640331],[0.757944,51.640068],[0.757679,51.640387],[0.758429,51.640687],[0.758695,51.641354],[0.759677,51.641541],[0.75551,51.641155],[0.752446,51.641473],[0.751994,51.641016],[0.74947,51.640269],[0.750487,51.639241],[0.749675,51.639121],[0.749579,51.637765],[0.748581,51.637539],[0.747704,51.638865],[0.748535,51.639458],[0.747469,51.638911],[0.746921,51.639193],[0.750652,51.641358],[0.75124,51.642338],[0.752072,51.641871]]],[[[0.750585,51.641761],[0.748536,51.6423],[0.747479,51.642002],[0.74595,51.641069],[0.745499,51.639743],[0.740775,51.640017],[0.739447,51.639822],[0.736874,51.640181],[0.735703,51.639752],[0.735549,51.639907],[0.736134,51.640692],[0.735924,51.6408],[0.73126,51.641226],[0.736012,51.64065],[0.735404,51.639864],[0.733938,51.639558],[0.72891,51.63978],[0.728681,51.640125],[0.728861,51.639298],[0.72784,51.640436],[0.725648,51.640832],[0.72491,51.640507],[0.723716,51.640717],[0.723954,51.64096],[0.724728,51.640698],[0.728606,51.6413],[0.728564,51.641091],[0.73027,51.642061],[0.73169,51.64217],[0.731988,51.641713],[0.731982,51.642063],[0.732438,51.642108],[0.73366,51.641811],[0.733557,51.641397],[0.73393,51.641723],[0.738228,51.640582],[0.73772,51.640304],[0.738991,51.640493],[0.739318,51.63996],[0.739705,51.640356],[0.742722,51.640486],[0.742352,51.640151],[0.745274,51.639878],[0.745665,51.640966],[0.745308,51.640278],[0.745217,51.641003],[0.744223,51.640864],[0.747415,51.642239],[0.750521,51.642412],[0.750585,51.641761]]],[[[0.656364,51.645178],[0.654561,51.645864],[0.656519,51.645596],[0.656163,51.645471],[0.656364,51.645178]]],[[[0.6543,51.6459],[0.651426,51.646346],[0.651,51.646819],[0.6543,51.6459]]],[[[0.656663,51.647648],[0.655761,51.647739],[0.656236,51.648777],[0.657002,51.648564],[0.656663,51.647648]]],[[[0.940506,51.676991],[0.940169,51.677036],[0.940199,51.676534],[0.939875,51.67692],[0.940204,51.67812],[0.941088,51.678028],[0.940506,51.676991]]],[[[0.771857,51.695596],[0.772157,51.695619],[0.772124,51.69559],[0.771857,51.695596]]],[[[0.754209,51.697903],[0.753886,51.697949],[0.753616,51.698801],[0.754204,51.698389],[0.754209,51.697903]]],[[[0.746691,51.705708],[0.746756,51.705714],[0.747211,51.706227],[0.748658,51.706299],[0.748527,51.705978],[0.749007,51.705729],[0.749417,51.706138],[0.750485,51.70615],[0.750191,51.706369],[0.75129,51.706613],[0.751975,51.70769],[0.750152,51.708039],[0.750218,51.708437],[0.751592,51.708634],[0.752096,51.709037],[0.752611,51.708317],[0.752323,51.707677],[0.752959,51.707349],[0.752438,51.707666],[0.752759,51.70832],[0.754351,51.70863],[0.753974,51.708959],[0.753705,51.70865],[0.753413,51.709034],[0.752915,51.708698],[0.752784,51.709234],[0.753667,51.709499],[0.753988,51.709072],[0.754147,51.70973],[0.754848,51.709714],[0.754667,51.709998],[0.756396,51.709935],[0.75657,51.709385],[0.757989,51.709089],[0.76055,51.708924],[0.763287,51.707838],[0.764988,51.707749],[0.768083,51.708512],[0.769186,51.708359],[0.769277,51.707942],[0.767719,51.708147],[0.764406,51.707045],[0.763581,51.707324],[0.764185,51.706806],[0.763592,51.706696],[0.762149,51.705035],[0.761492,51.705021],[0.761664,51.704634],[0.760912,51.704428],[0.76088,51.704124],[0.760125,51.703842],[0.759419,51.70418],[0.759731,51.703747],[0.758439,51.703506],[0.756862,51.703617],[0.757048,51.703326],[0.755657,51.703018],[0.755976,51.702875],[0.755687,51.702681],[0.75515,51.702838],[0.755194,51.702423],[0.754356,51.701545],[0.753919,51.701535],[0.754159,51.701393],[0.753431,51.700724],[0.751804,51.70053],[0.751149,51.700831],[0.751569,51.700266],[0.751127,51.700082],[0.749838,51.700329],[0.749937,51.700077],[0.750979,51.699892],[0.75181,51.700078],[0.751446,51.699404],[0.751888,51.699597],[0.752773,51.699195],[0.752255,51.698925],[0.75234,51.69832],[0.751543,51.698452],[0.751086,51.698176],[0.751324,51.697962],[0.751617,51.698403],[0.751973,51.698174],[0.752512,51.698302],[0.75249,51.698816],[0.752948,51.698919],[0.753261,51.698256],[0.752428,51.698153],[0.7524,51.697947],[0.753314,51.697774],[0.752713,51.697482],[0.752267,51.697771],[0.752403,51.697499],[0.752807,51.697405],[0.753434,51.697748],[0.753532,51.697976],[0.752801,51.698091],[0.753484,51.698185],[0.75308,51.699284],[0.753516,51.699058],[0.753825,51.697819],[0.75421,51.697864],[0.754238,51.695359],[0.753726,51.694924],[0.752798,51.695337],[0.752321,51.69502],[0.750426,51.69493],[0.750736,51.695332],[0.749934,51.695114],[0.750085,51.694674],[0.749369,51.694408],[0.748387,51.694737],[0.747809,51.694338],[0.746942,51.694615],[0.747045,51.694334],[0.746475,51.694155],[0.747903,51.694069],[0.74559,51.692648],[0.74706,51.693206],[0.74749,51.69368],[0.747232,51.692749],[0.746733,51.692682],[0.747626,51.692287],[0.748283,51.690957],[0.745094,51.69199],[0.745357,51.69258],[0.744869,51.69238],[0.744811,51.69195],[0.743498,51.691657],[0.744063,51.692196],[0.742074,51.692424],[0.740573,51.694041],[0.740025,51.693747],[0.74002,51.693307],[0.741147,51.693112],[0.741097,51.692344],[0.740181,51.69196],[0.73987,51.692118],[0.740289,51.692296],[0.739656,51.692346],[0.740059,51.691806],[0.739217,51.691511],[0.73862,51.69223],[0.73989,51.693014],[0.739956,51.69344],[0.738748,51.693256],[0.739445,51.693479],[0.738302,51.693773],[0.737937,51.692229],[0.738683,51.691401],[0.739902,51.691162],[0.741521,51.691782],[0.742066,51.691435],[0.741344,51.691018],[0.740722,51.691333],[0.739628,51.691081],[0.739712,51.690091],[0.737642,51.689339],[0.737333,51.688887],[0.738279,51.687898],[0.737835,51.687204],[0.738463,51.686969],[0.74092,51.687185],[0.741408,51.687698],[0.741412,51.688824],[0.73955,51.689153],[0.739387,51.68944],[0.741519,51.688837],[0.74247,51.688958],[0.746086,51.690514],[0.746807,51.690094],[0.746727,51.68958],[0.747366,51.689304],[0.746951,51.689243],[0.746966,51.6889],[0.746346,51.689065],[0.746939,51.688714],[0.747447,51.68893],[0.747665,51.688555],[0.74785,51.688933],[0.748554,51.688438],[0.75123,51.688504],[0.752541,51.688828],[0.754316,51.689843],[0.753945,51.689945],[0.754193,51.690069],[0.756937,51.690726],[0.755886,51.690794],[0.755684,51.691167],[0.755838,51.690783],[0.754783,51.690753],[0.75426,51.690427],[0.75408,51.691249],[0.754306,51.69143],[0.754069,51.691301],[0.753987,51.691674],[0.756279,51.691729],[0.757911,51.692356],[0.759399,51.693523],[0.75922,51.695718],[0.75826,51.697701],[0.759209,51.69985],[0.760827,51.700359],[0.762165,51.70039],[0.76252,51.700888],[0.764966,51.701272],[0.766925,51.702721],[0.767375,51.702209],[0.76917,51.702327],[0.77214,51.701754],[0.771302,51.701288],[0.773071,51.701384],[0.772677,51.70017],[0.773044,51.699025],[0.771512,51.698955],[0.772036,51.69868],[0.77271,51.698938],[0.773317,51.69818],[0.772268,51.697268],[0.771599,51.697188],[0.772006,51.696868],[0.772817,51.697131],[0.772765,51.696186],[0.771658,51.695601],[0.772013,51.695482],[0.772314,51.69563],[0.772703,51.695201],[0.772791,51.694438],[0.772207,51.69405],[0.772874,51.694232],[0.773006,51.693378],[0.773789,51.692601],[0.773692,51.692937],[0.774081,51.692662],[0.774011,51.691742],[0.773744,51.691656],[0.775546,51.690851],[0.775579,51.690503],[0.776417,51.690856],[0.775969,51.69017],[0.776306,51.69026],[0.776338,51.689497],[0.775925,51.689548],[0.776246,51.689178],[0.774383,51.688656],[0.773442,51.688934],[0.773771,51.688539],[0.776399,51.689009],[0.776891,51.688812],[0.775619,51.68797],[0.775366,51.688731],[0.774647,51.688065],[0.774133,51.687981],[0.773786,51.68843],[0.774053,51.687754],[0.773382,51.687576],[0.774937,51.68756],[0.775338,51.687853],[0.776235,51.687231],[0.777297,51.685404],[0.778134,51.685163],[0.776994,51.68635],[0.77707,51.687003],[0.77666,51.687297],[0.777036,51.687396],[0.776075,51.687671],[0.777614,51.689256],[0.777616,51.689785],[0.777055,51.690163],[0.777029,51.691249],[0.775909,51.691553],[0.776988,51.691742],[0.7775,51.692544],[0.778328,51.692692],[0.778948,51.692422],[0.779783,51.692786],[0.779528,51.693091],[0.77931,51.692652],[0.778855,51.692744],[0.779288,51.693122],[0.778925,51.693548],[0.777796,51.692821],[0.777822,51.693704],[0.777428,51.693177],[0.775031,51.693062],[0.773993,51.693506],[0.774444,51.696798],[0.77556,51.69724],[0.775837,51.698026],[0.774754,51.700126],[0.775438,51.701585],[0.774244,51.702949],[0.771582,51.704061],[0.774274,51.704926],[0.776267,51.705183],[0.778969,51.70624],[0.780257,51.706327],[0.782517,51.707657],[0.785295,51.707752],[0.785355,51.708145],[0.785975,51.707625],[0.78558,51.707875],[0.785229,51.707577],[0.786264,51.706827],[0.78755,51.706791],[0.789039,51.707318],[0.790217,51.706305],[0.789395,51.707581],[0.788826,51.70758],[0.788693,51.708282],[0.789461,51.708337],[0.790821,51.709057],[0.791935,51.709031],[0.791837,51.708516],[0.79212,51.708314],[0.792865,51.708442],[0.792093,51.708417],[0.792126,51.708841],[0.792951,51.708849],[0.792896,51.708086],[0.793647,51.707516],[0.794872,51.707985],[0.794373,51.708206],[0.795138,51.708481],[0.796139,51.707633],[0.796489,51.707976],[0.797561,51.707945],[0.796739,51.708235],[0.796265,51.707761],[0.795954,51.707858],[0.795866,51.708147],[0.796387,51.708299],[0.795661,51.708316],[0.794561,51.709041],[0.793805,51.710098],[0.7927,51.710167],[0.792968,51.709884],[0.792638,51.70989],[0.792108,51.710233],[0.792373,51.713025],[0.791984,51.71351],[0.792488,51.717038],[0.793367,51.717961],[0.795016,51.718526],[0.801769,51.718808],[0.805904,51.717737],[0.812622,51.719662],[0.819712,51.721081],[0.824357,51.720212],[0.830662,51.716783],[0.83213,51.715679],[0.833633,51.715242],[0.832709,51.714429],[0.833842,51.715084],[0.835556,51.715186],[0.835115,51.714982],[0.835437,51.714711],[0.835495,51.715016],[0.836078,51.71493],[0.835887,51.715261],[0.839473,51.715821],[0.840252,51.715598],[0.848023,51.716517],[0.847921,51.715854],[0.848179,51.715708],[0.849163,51.715908],[0.850387,51.716448],[0.850753,51.7161],[0.850611,51.715312],[0.850825,51.715845],[0.851139,51.715766],[0.850914,51.714971],[0.851223,51.715607],[0.851811,51.71566],[0.851771,51.7153],[0.852287,51.715078],[0.852214,51.713309],[0.852428,51.715059],[0.851945,51.715437],[0.852402,51.715658],[0.851917,51.716172],[0.852321,51.717046],[0.854565,51.717177],[0.855231,51.716949],[0.854624,51.717334],[0.860649,51.718913],[0.860989,51.719522],[0.86492,51.721007],[0.866596,51.720901],[0.86637,51.721512],[0.86754,51.721934],[0.868927,51.721932],[0.869918,51.722928],[0.870726,51.722553],[0.870846,51.723718],[0.873916,51.725355],[0.875302,51.725158],[0.874863,51.725531],[0.876076,51.725662],[0.876148,51.726369],[0.877734,51.727193],[0.878026,51.728075],[0.87868,51.727564],[0.878243,51.728058],[0.878645,51.72855],[0.884094,51.733727],[0.884229,51.733385],[0.882651,51.731895],[0.884023,51.731082],[0.884649,51.731463],[0.886259,51.732996],[0.884924,51.733639],[0.884923,51.734028],[0.885936,51.734564],[0.886382,51.734266],[0.885851,51.734797],[0.886255,51.73523],[0.88733,51.734417],[0.888787,51.735481],[0.888021,51.735114],[0.887409,51.73559],[0.889357,51.736599],[0.88895,51.735722],[0.8899,51.73712],[0.88876,51.739129],[0.890857,51.741383],[0.894597,51.743205],[0.899585,51.744846],[0.904279,51.745767],[0.90926,51.746383],[0.911769,51.746372],[0.914574,51.746935],[0.91647,51.746885],[0.916765,51.746535],[0.916509,51.746048],[0.916822,51.746489],[0.916705,51.746788],[0.916357,51.746974],[0.91906,51.747434],[0.920772,51.748372],[0.922215,51.748453],[0.929685,51.746819],[0.930394,51.745969],[0.929582,51.745633],[0.929116,51.746129],[0.928836,51.74624],[0.925577,51.747007],[0.92916,51.746046],[0.929574,51.745572],[0.930469,51.7459],[0.93047,51.74626],[0.929968,51.746618],[0.930334,51.746602],[0.933969,51.744217],[0.938975,51.742333],[0.94026,51.739908],[0.941726,51.738673],[0.94184,51.738083],[0.94303,51.737512],[0.943593,51.736924],[0.943276,51.73661],[0.94419,51.736431],[0.944057,51.736035],[0.944892,51.735584],[0.943534,51.735635],[0.944735,51.735539],[0.945109,51.735136],[0.944567,51.735188],[0.945063,51.735122],[0.945857,51.735327],[0.94616,51.735027],[0.945898,51.734192],[0.945149,51.735016],[0.945799,51.73378],[0.944467,51.733549],[0.945214,51.733396],[0.94514,51.73308],[0.94588,51.732606],[0.945352,51.732235],[0.945458,51.731803],[0.945425,51.732277],[0.945994,51.732535],[0.946871,51.731628],[0.946021,51.731456],[0.946945,51.731593],[0.945677,51.733218],[0.947535,51.732698],[0.948151,51.731373],[0.948801,51.731095],[0.948463,51.73071],[0.948829,51.73042],[0.948538,51.729969],[0.949005,51.729529],[0.948832,51.729099],[0.947851,51.730171],[0.946988,51.730259],[0.947815,51.730145],[0.948001,51.729741],[0.947548,51.729756],[0.948008,51.729705],[0.948219,51.72925],[0.945986,51.728922],[0.948367,51.729176],[0.94841,51.728336],[0.948093,51.72849],[0.948209,51.727998],[0.947588,51.727855],[0.948117,51.727772],[0.948091,51.726834],[0.946071,51.727166],[0.94792,51.726629],[0.948166,51.726185],[0.946261,51.725849],[0.945743,51.725395],[0.944066,51.725067],[0.943289,51.72471],[0.944007,51.724746],[0.94442,51.725134],[0.945549,51.724775],[0.945141,51.725224],[0.94586,51.725415],[0.946393,51.72581],[0.947481,51.726014],[0.948279,51.724677],[0.947741,51.723259],[0.94805,51.723472],[0.94831,51.723078],[0.948281,51.723803],[0.949101,51.723171],[0.947947,51.720593],[0.947061,51.719741],[0.946188,51.719811],[0.947169,51.719668],[0.947029,51.719195],[0.946465,51.719266],[0.947026,51.718999],[0.946672,51.718202],[0.945844,51.718316],[0.946562,51.717814],[0.94593,51.717011],[0.946115,51.716512],[0.944672,51.716268],[0.944371,51.71667],[0.944451,51.716136],[0.942679,51.715914],[0.943068,51.715846],[0.942039,51.715538],[0.943837,51.715896],[0.94384,51.715342],[0.94408,51.715941],[0.944896,51.715808],[0.944299,51.714121],[0.943815,51.714141],[0.94421,51.713808],[0.942872,51.713834],[0.944103,51.713702],[0.943845,51.713231],[0.942313,51.713464],[0.943631,51.713104],[0.941853,51.71279],[0.94361,51.713025],[0.943452,51.71236],[0.941608,51.712574],[0.943333,51.712319],[0.943207,51.712079],[0.94261,51.712172],[0.943319,51.71189],[0.942398,51.711913],[0.943157,51.711775],[0.942984,51.711425],[0.942014,51.711456],[0.943019,51.711244],[0.94284,51.710837],[0.942217,51.711165],[0.943076,51.710655],[0.943149,51.710281],[0.942752,51.710151],[0.943101,51.710096],[0.942348,51.710063],[0.941861,51.709831],[0.940507,51.710166],[0.941756,51.709795],[0.943064,51.709864],[0.942848,51.7094],[0.941069,51.709735],[0.943366,51.709012],[0.944116,51.707366],[0.943692,51.705991],[0.943077,51.705969],[0.943634,51.705887],[0.943763,51.705497],[0.941939,51.705336],[0.943167,51.7051],[0.941928,51.704026],[0.941382,51.702695],[0.939631,51.702994],[0.940494,51.702786],[0.940063,51.702528],[0.940783,51.701611],[0.94015,51.700385],[0.940446,51.699566],[0.93994,51.699044],[0.940235,51.698962],[0.939826,51.698937],[0.940348,51.698654],[0.939988,51.698302],[0.940637,51.698019],[0.94022,51.697851],[0.940557,51.697858],[0.940729,51.696255],[0.941358,51.695924],[0.940937,51.695792],[0.941349,51.694818],[0.94264,51.693958],[0.940879,51.693668],[0.942784,51.693683],[0.943454,51.692206],[0.94447,51.691365],[0.942371,51.691674],[0.942079,51.691515],[0.939135,51.69162],[0.938773,51.691564],[0.938513,51.691777],[0.938642,51.691027],[0.939034,51.691572],[0.942077,51.691477],[0.942492,51.691621],[0.944718,51.691189],[0.944563,51.690613],[0.941166,51.690539],[0.944597,51.69056],[0.945669,51.689438],[0.943966,51.689306],[0.943759,51.689536],[0.943438,51.689594],[0.943451,51.689688],[0.942718,51.689922],[0.942939,51.689762],[0.942303,51.689729],[0.943265,51.689725],[0.943443,51.689534],[0.943682,51.689534],[0.94372,51.689393],[0.941296,51.689108],[0.945186,51.689296],[0.945188,51.688882],[0.945347,51.689293],[0.946024,51.6893],[0.946606,51.688986],[0.946407,51.688661],[0.946867,51.688374],[0.946478,51.687686],[0.947075,51.687163],[0.946208,51.686866],[0.945015,51.687063],[0.945004,51.687283],[0.944531,51.687739],[0.944927,51.687187],[0.944459,51.687055],[0.943965,51.687836],[0.94423,51.687067],[0.941933,51.687213],[0.941433,51.687366],[0.940842,51.688607],[0.938111,51.688327],[0.940847,51.688574],[0.941297,51.687383],[0.940508,51.687719],[0.941059,51.687367],[0.942595,51.686995],[0.943663,51.687032],[0.943765,51.686799],[0.943907,51.68703],[0.94525,51.686939],[0.945086,51.686748],[0.945383,51.686955],[0.945778,51.686814],[0.945618,51.686405],[0.945895,51.686789],[0.947148,51.686603],[0.946706,51.686032],[0.946826,51.685279],[0.946158,51.685091],[0.945806,51.685367],[0.945892,51.685046],[0.945204,51.684861],[0.945038,51.685145],[0.944935,51.684811],[0.939699,51.685246],[0.939535,51.685737],[0.939367,51.685278],[0.93548,51.685617],[0.938269,51.685347],[0.937576,51.685216],[0.934057,51.685783],[0.932144,51.685891],[0.933726,51.685695],[0.934013,51.68532],[0.936192,51.685308],[0.935923,51.68501],[0.936465,51.685282],[0.937341,51.685193],[0.937273,51.684336],[0.937489,51.685114],[0.938536,51.6852],[0.938514,51.684973],[0.938628,51.685233],[0.945142,51.684641],[0.943764,51.684476],[0.944447,51.684436],[0.944202,51.684158],[0.945366,51.684728],[0.946838,51.684879],[0.947218,51.684365],[0.948107,51.684209],[0.948693,51.683261],[0.947144,51.682708],[0.946843,51.682235],[0.946749,51.682847],[0.946429,51.682228],[0.946786,51.682051],[0.946366,51.681919],[0.944844,51.681959],[0.94423,51.683102],[0.944072,51.682615],[0.944594,51.681867],[0.9427,51.68209],[0.942255,51.682441],[0.942141,51.682201],[0.940954,51.683186],[0.941223,51.682692],[0.940745,51.682697],[0.941274,51.682531],[0.94091,51.682332],[0.941374,51.682491],[0.942465,51.682047],[0.941973,51.681715],[0.942607,51.68202],[0.944427,51.681766],[0.944242,51.681522],[0.945531,51.681857],[0.946013,51.6814],[0.94605,51.6818],[0.946541,51.681543],[0.946462,51.681779],[0.947559,51.681861],[0.94747,51.681062],[0.94625,51.680742],[0.945529,51.6802],[0.945458,51.680653],[0.945347,51.680147],[0.945015,51.680498],[0.945014,51.680098],[0.943069,51.680098],[0.94286,51.680353],[0.942688,51.680104],[0.941422,51.680248],[0.941608,51.679992],[0.940981,51.679956],[0.938853,51.68075],[0.939291,51.68076],[0.93764,51.680923],[0.937747,51.681239],[0.937681,51.681385],[0.937173,51.681811],[0.937845,51.682652],[0.937192,51.682143],[0.937117,51.681805],[0.937678,51.681237],[0.93729,51.680965],[0.936163,51.68204],[0.936393,51.682856],[0.935958,51.682816],[0.936331,51.682755],[0.93606,51.682346],[0.934596,51.682451],[0.936048,51.682243],[0.936124,51.681887],[0.935701,51.681804],[0.936183,51.681835],[0.937021,51.680961],[0.933538,51.68146],[0.935103,51.681095],[0.934798,51.680539],[0.935366,51.680952],[0.936081,51.680861],[0.935465,51.679898],[0.936061,51.680137],[0.936405,51.680948],[0.938668,51.6806],[0.937611,51.68001],[0.938793,51.680541],[0.939794,51.680168],[0.939747,51.679916],[0.939838,51.680134],[0.940981,51.679777],[0.945208,51.679831],[0.945247,51.67948],[0.946069,51.679772],[0.945988,51.679123],[0.946524,51.678846],[0.945675,51.67831],[0.94538,51.678496],[0.945335,51.678157],[0.944924,51.678384],[0.944974,51.678103],[0.943412,51.67793],[0.939304,51.678529],[0.941024,51.678254],[0.937857,51.678223],[0.937515,51.678604],[0.937261,51.678384],[0.936185,51.678628],[0.93652,51.679323],[0.936221,51.678869],[0.93453,51.67906],[0.936058,51.678716],[0.931537,51.679205],[0.932019,51.678882],[0.931389,51.677897],[0.932231,51.6789],[0.934275,51.678168],[0.933627,51.677978],[0.934353,51.678037],[0.934265,51.678254],[0.932201,51.679066],[0.936698,51.67838],[0.935119,51.677557],[0.936886,51.678343],[0.938052,51.67803],[0.935106,51.676623],[0.939018,51.678185],[0.940019,51.678149],[0.938947,51.677303],[0.939849,51.677822],[0.939835,51.676915],[0.940043,51.676523],[0.939316,51.676775],[0.939435,51.677079],[0.939261,51.676725],[0.939567,51.676455],[0.938361,51.676209],[0.940598,51.676455],[0.940246,51.676534],[0.940381,51.676923],[0.940635,51.676987],[0.941206,51.678003],[0.944493,51.677441],[0.94556,51.677714],[0.944169,51.676941],[0.942752,51.676836],[0.944474,51.676804],[0.94574,51.677605],[0.946473,51.677408],[0.945999,51.676601],[0.944223,51.676388],[0.942784,51.675547],[0.93986,51.675075],[0.937004,51.675395],[0.938215,51.674983],[0.937429,51.674966],[0.937074,51.674906],[0.936241,51.674698],[0.935991,51.674544],[0.934143,51.675141],[0.932787,51.67509],[0.934139,51.675079],[0.936006,51.674502],[0.937342,51.674931],[0.940499,51.675026],[0.942875,51.675485],[0.944233,51.676263],[0.945213,51.676432],[0.946371,51.675609],[0.945674,51.675104],[0.945253,51.675677],[0.945522,51.675183],[0.945184,51.674956],[0.941808,51.673906],[0.938566,51.674094],[0.938096,51.673834],[0.936753,51.674188],[0.938046,51.673754],[0.93601,51.673472],[0.934499,51.673808],[0.934624,51.674319],[0.934325,51.673894],[0.93457,51.673696],[0.933905,51.673365],[0.934567,51.672524],[0.934385,51.671814],[0.934609,51.672589],[0.934019,51.673393],[0.934585,51.673629],[0.936584,51.673352],[0.938846,51.673907],[0.939411,51.673861],[0.93878,51.673601],[0.939208,51.673544],[0.939472,51.673871],[0.940271,51.67386],[0.940177,51.673586],[0.943979,51.674217],[0.944306,51.673929],[0.944219,51.673366],[0.942795,51.672845],[0.937631,51.672414],[0.935686,51.671592],[0.937655,51.672349],[0.942813,51.672627],[0.943125,51.67212],[0.942648,51.671814],[0.937743,51.671132],[0.942292,51.671655],[0.942639,51.67087],[0.942336,51.670681],[0.942075,51.67081],[0.940505,51.670055],[0.939825,51.669998],[0.938924,51.670262],[0.937422,51.670262],[0.938377,51.670141],[0.937727,51.66981],[0.938918,51.67022],[0.939816,51.669948],[0.940492,51.669997],[0.942082,51.670402],[0.942552,51.669278],[0.942209,51.669006],[0.938554,51.668728],[0.938104,51.669092],[0.93601,51.669385],[0.93566,51.669601],[0.935999,51.669842],[0.93541,51.67012],[0.935946,51.66982],[0.935545,51.669602],[0.935574,51.669534],[0.93635,51.669253],[0.934876,51.669141],[0.938131,51.669001],[0.937737,51.668763],[0.938407,51.668633],[0.937624,51.668634],[0.938092,51.668585],[0.936999,51.668225],[0.940157,51.668691],[0.939005,51.667983],[0.940434,51.668692],[0.942099,51.668804],[0.942307,51.66804],[0.940651,51.667715],[0.942251,51.667865],[0.941574,51.666797],[0.940969,51.666652],[0.940781,51.667065],[0.940937,51.666563],[0.939666,51.666392],[0.939576,51.666649],[0.939134,51.666278],[0.938405,51.666823],[0.938976,51.666257],[0.938352,51.666358],[0.93775,51.666131],[0.938544,51.666188],[0.935601,51.665679],[0.936088,51.666019],[0.936022,51.666815],[0.936675,51.667067],[0.936682,51.667223],[0.936383,51.66755],[0.935966,51.667716],[0.936631,51.667175],[0.935975,51.666834],[0.935855,51.665858],[0.932673,51.666578],[0.9354,51.665772],[0.934753,51.665621],[0.935243,51.66556],[0.935012,51.665033],[0.935366,51.664323],[0.935151,51.665121],[0.935375,51.665282],[0.936151,51.66539],[0.936579,51.66499],[0.936217,51.665397],[0.935944,51.665448],[0.93538,51.665312],[0.935379,51.665632],[0.93873,51.666109],[0.938807,51.665922],[0.937423,51.665793],[0.938178,51.665818],[0.938291,51.665404],[0.938283,51.665855],[0.938831,51.665872],[0.939509,51.666223],[0.939002,51.665102],[0.93963,51.666243],[0.941485,51.666177],[0.94127,51.665587],[0.942139,51.664559],[0.941129,51.664534],[0.942046,51.664399],[0.942227,51.664076],[0.941878,51.663751],[0.940956,51.663742],[0.941813,51.66371],[0.941643,51.6635],[0.939291,51.663223],[0.938835,51.663578],[0.938489,51.663621],[0.938955,51.663236],[0.937859,51.663648],[0.939078,51.663118],[0.937145,51.663032],[0.93842,51.662879],[0.937844,51.662427],[0.938294,51.662741],[0.938301,51.662377],[0.93859,51.66291],[0.940038,51.663306],[0.941442,51.66328],[0.94183,51.662705],[0.940953,51.662213],[0.94162,51.660828],[0.940857,51.660462],[0.939958,51.660794],[0.940153,51.660524],[0.941061,51.660436],[0.940653,51.660196],[0.939245,51.660384],[0.940788,51.660157],[0.939985,51.659764],[0.940042,51.659452],[0.938191,51.659359],[0.938172,51.660033],[0.938101,51.659403],[0.937451,51.659466],[0.938035,51.659344],[0.93783,51.659011],[0.938112,51.659277],[0.939498,51.659237],[0.938639,51.658204],[0.939145,51.658388],[0.939394,51.65761],[0.939104,51.657608],[0.939469,51.657457],[0.93911,51.656816],[0.938032,51.657274],[0.938917,51.656735],[0.937807,51.656892],[0.938703,51.65646],[0.937114,51.655981],[0.938161,51.656165],[0.938496,51.655509],[0.938505,51.656079],[0.939064,51.655296],[0.938681,51.654825],[0.939148,51.654518],[0.938318,51.65445],[0.939079,51.654237],[0.938396,51.653421],[0.93676,51.653022],[0.937675,51.652925],[0.936921,51.652672],[0.936705,51.652048],[0.936291,51.652095],[0.936907,51.651612],[0.936283,51.651377],[0.936339,51.650719],[0.935698,51.650859],[0.935968,51.650487],[0.935501,51.650265],[0.934839,51.64525],[0.937083,51.640399],[0.936989,51.636224],[0.934452,51.632837],[0.926457,51.629023],[0.92526,51.629456],[0.924387,51.62916],[0.922582,51.629237],[0.918813,51.629051],[0.922063,51.628848],[0.92291,51.629172],[0.924328,51.629107],[0.924853,51.629213],[0.92374,51.62839],[0.921519,51.627501],[0.920675,51.62741],[0.919695,51.627808],[0.920714,51.627313],[0.9197,51.627247],[0.919738,51.62693],[0.919283,51.626827],[0.918977,51.627003],[0.918048,51.627091],[0.918958,51.626971],[0.918954,51.626715],[0.915003,51.625703],[0.915278,51.625933],[0.911471,51.624264],[0.908023,51.623648],[0.904209,51.622534],[0.896933,51.623067],[0.89673,51.623351],[0.894241,51.622991],[0.891041,51.624053],[0.888016,51.622854],[0.88539,51.623599],[0.877283,51.623455],[0.876526,51.623114],[0.872727,51.623118],[0.867307,51.622597],[0.865249,51.622036],[0.859509,51.621333],[0.853897,51.621566],[0.841988,51.622919],[0.841253,51.622649],[0.839002,51.62314],[0.838744,51.623555],[0.839144,51.623822],[0.838453,51.624085],[0.837783,51.62346],[0.836942,51.623578],[0.836561,51.623117],[0.833358,51.622568],[0.823029,51.623236],[0.821526,51.623934],[0.818259,51.624584],[0.816312,51.625395],[0.815818,51.625208],[0.815328,51.625655],[0.814912,51.625436],[0.807525,51.626246],[0.807512,51.625945],[0.807478,51.626253],[0.806201,51.626473],[0.804399,51.626109],[0.80544,51.626748],[0.80509,51.628931],[0.803385,51.629092],[0.803055,51.629374],[0.802088,51.628756],[0.802455,51.626376],[0.803016,51.625894],[0.800609,51.625588],[0.800359,51.625907],[0.800225,51.625573],[0.797438,51.625337],[0.796078,51.625844],[0.796662,51.625377],[0.795122,51.625509],[0.791827,51.626417],[0.794901,51.626547],[0.79151,51.626439],[0.789931,51.626987],[0.78824,51.628156],[0.788674,51.628752],[0.78803,51.628128],[0.785166,51.629803],[0.785393,51.630229],[0.785001,51.630012],[0.784504,51.630312],[0.7848,51.630883],[0.785574,51.630519],[0.784654,51.631021],[0.784494,51.63065],[0.783644,51.630885],[0.780017,51.634302],[0.780201,51.634774],[0.77987,51.634348],[0.773712,51.637623],[0.764672,51.64104],[0.763469,51.64215],[0.761649,51.642717],[0.761604,51.643175],[0.762234,51.643387],[0.761822,51.644306],[0.762122,51.643351],[0.761477,51.643372],[0.760805,51.642785],[0.757774,51.642877],[0.75719,51.643168],[0.757389,51.642801],[0.756552,51.643077],[0.754773,51.642767],[0.753743,51.642875],[0.753615,51.643282],[0.753073,51.643053],[0.748984,51.643784],[0.748725,51.643544],[0.745425,51.643351],[0.745209,51.643697],[0.745675,51.643933],[0.744779,51.643889],[0.746122,51.64568],[0.745693,51.645149],[0.745528,51.645349],[0.74523,51.645462],[0.744842,51.645408],[0.745393,51.645353],[0.745567,51.645016],[0.744611,51.643864],[0.74515,51.643272],[0.746105,51.64312],[0.743817,51.641857],[0.741871,51.641321],[0.740844,51.641333],[0.740263,51.641834],[0.740441,51.641324],[0.739284,51.641466],[0.738373,51.641663],[0.738133,51.642],[0.738133,51.64169],[0.734554,51.642649],[0.731147,51.643067],[0.731102,51.643458],[0.73095,51.64309],[0.728637,51.643148],[0.729067,51.642802],[0.728212,51.642542],[0.727713,51.642729],[0.727831,51.642402],[0.726494,51.642167],[0.72249,51.642892],[0.717011,51.643089],[0.713886,51.641864],[0.713505,51.641051],[0.711717,51.640815],[0.709576,51.637094],[0.708539,51.636744],[0.701501,51.636899],[0.700728,51.637362],[0.699373,51.637391],[0.695906,51.639331],[0.694438,51.638877],[0.692014,51.637074],[0.688289,51.637865],[0.687563,51.6372],[0.686305,51.63698],[0.685222,51.637225],[0.678574,51.636679],[0.677943,51.636982],[0.676125,51.636997],[0.675673,51.636481],[0.675545,51.638462],[0.675473,51.637352],[0.672447,51.637029],[0.67544,51.637447],[0.67542,51.638689],[0.67474,51.638727],[0.674686,51.639128],[0.673233,51.639377],[0.672977,51.638839],[0.67151,51.638742],[0.671545,51.638092],[0.670432,51.637957],[0.670012,51.638201],[0.670462,51.638736],[0.669911,51.638164],[0.669339,51.638271],[0.669774,51.639404],[0.668972,51.639785],[0.668716,51.640362],[0.669536,51.641085],[0.66857,51.640496],[0.667679,51.640854],[0.666271,51.640976],[0.666095,51.64083],[0.667464,51.640508],[0.667046,51.638984],[0.66613,51.638797],[0.664561,51.639048],[0.664789,51.640298],[0.663291,51.639823],[0.662357,51.640452],[0.663165,51.639821],[0.663396,51.639789],[0.664373,51.639864],[0.663882,51.6378],[0.661426,51.637595],[0.663822,51.637536],[0.664437,51.638827],[0.664099,51.637187],[0.663737,51.637351],[0.663308,51.63698],[0.660732,51.637325],[0.660252,51.637914],[0.660528,51.639305],[0.659918,51.643068],[0.660409,51.643279],[0.660503,51.642917],[0.660914,51.643094],[0.664767,51.64193],[0.66466,51.640539],[0.665655,51.640949],[0.665705,51.642026],[0.666769,51.642552],[0.665263,51.642425],[0.661792,51.643639],[0.661845,51.644903],[0.661205,51.644386],[0.660894,51.64472],[0.660085,51.64422],[0.656903,51.645811],[0.656907,51.647336],[0.659682,51.647358],[0.660497,51.646388],[0.660895,51.646248],[0.658092,51.646666],[0.661988,51.645986],[0.662224,51.645414],[0.662487,51.645932],[0.660596,51.646422],[0.659824,51.647293],[0.660304,51.647609],[0.660628,51.647954],[0.660461,51.648147],[0.657073,51.648772],[0.6604,51.647965],[0.659728,51.647437],[0.656934,51.647442],[0.657123,51.648716],[0.656191,51.648843],[0.655621,51.647717],[0.654598,51.647833],[0.656624,51.647529],[0.656442,51.645745],[0.654666,51.645974],[0.654058,51.64691],[0.654416,51.647414],[0.654463,51.648642],[0.654821,51.648851],[0.653441,51.648715],[0.654685,51.648821],[0.654407,51.648667],[0.654333,51.647437],[0.653964,51.647275],[0.65395,51.64688],[0.654336,51.646191],[0.650995,51.647081],[0.651482,51.648026],[0.653016,51.647942],[0.653325,51.648876],[0.652943,51.64797],[0.651499,51.648097],[0.651553,51.648693],[0.653082,51.648876],[0.651273,51.648848],[0.650819,51.646837],[0.649981,51.647231],[0.650847,51.647545],[0.651038,51.647965],[0.650407,51.648459],[0.649839,51.648414],[0.649643,51.647628],[0.648965,51.647379],[0.649054,51.646648],[0.649875,51.646444],[0.650487,51.645736],[0.652672,51.645632],[0.653497,51.644969],[0.654133,51.645104],[0.65456,51.644727],[0.656977,51.644372],[0.65697,51.644046],[0.657885,51.643509],[0.658459,51.643476],[0.658591,51.64208],[0.657631,51.641831],[0.658705,51.641257],[0.658955,51.639527],[0.658322,51.639379],[0.65891,51.639123],[0.657813,51.637847],[0.652879,51.63837],[0.646695,51.638212],[0.640497,51.639497],[0.636263,51.639692],[0.63495,51.640109],[0.634895,51.639706],[0.633919,51.64035],[0.633059,51.639866],[0.632456,51.640214],[0.632258,51.639874],[0.629473,51.639633],[0.629594,51.641633],[0.629024,51.641616],[0.629161,51.642882],[0.62755,51.644833],[0.628444,51.645941],[0.62612,51.6575],[0.626426,51.658076],[0.625271,51.658984],[0.624099,51.661571],[0.623326,51.662277],[0.623323,51.665625],[0.620927,51.667793],[0.619326,51.670997],[0.619217,51.673318],[0.619744,51.673562],[0.619766,51.67534],[0.617851,51.677579],[0.616142,51.678626],[0.615054,51.678945],[0.613239,51.680232],[0.611228,51.680556],[0.609569,51.681218],[0.608837,51.681947],[0.609159,51.684206],[0.611152,51.684098],[0.612205,51.685538],[0.612389,51.687315],[0.611303,51.689427],[0.612854,51.689482],[0.612382,51.690026],[0.610562,51.689761],[0.610906,51.694239],[0.612257,51.69494],[0.611185,51.696383],[0.612585,51.698799],[0.610363,51.70057],[0.606653,51.700851],[0.604564,51.700388],[0.60299,51.702921],[0.603787,51.70507],[0.602012,51.708851],[0.602075,51.711681],[0.604017,51.713733],[0.60523,51.715909],[0.608856,51.719512],[0.611153,51.722787],[0.6103,51.723337],[0.607339,51.723468],[0.604109,51.724944],[0.595367,51.725783],[0.59119,51.728203],[0.589498,51.730173],[0.589129,51.731821],[0.591204,51.733389],[0.591801,51.733699],[0.595158,51.734061],[0.593012,51.739354],[0.591806,51.745665],[0.592126,51.748675],[0.591694,51.751316],[0.592509,51.754161],[0.593366,51.755449],[0.594885,51.755004],[0.59499,51.753936],[0.59885,51.75127],[0.598702,51.750416],[0.599965,51.751523],[0.59989,51.752027],[0.599404,51.752098],[0.600463,51.753276],[0.601145,51.753223],[0.601762,51.753772],[0.60262,51.753714],[0.604381,51.754841],[0.605189,51.756342],[0.604557,51.756919],[0.604778,51.757296],[0.604272,51.757469],[0.604816,51.757905],[0.605401,51.757876],[0.605434,51.758281],[0.606748,51.758943],[0.608631,51.759301],[0.611081,51.760401],[0.614381,51.760824],[0.6139,51.758751],[0.614677,51.758829],[0.615013,51.758093],[0.618693,51.758548],[0.618125,51.760286],[0.61814,51.760948],[0.618818,51.761015],[0.618606,51.762565],[0.619459,51.762533],[0.619125,51.761146],[0.61963,51.760842],[0.623097,51.76131],[0.624992,51.761965],[0.627958,51.761537],[0.628737,51.761992],[0.629885,51.761989],[0.630612,51.761042],[0.633359,51.760151],[0.6338,51.761459],[0.634983,51.761434],[0.635189,51.760043],[0.635919,51.759813],[0.635337,51.75833],[0.637538,51.757648],[0.638552,51.759655],[0.639477,51.75932],[0.639486,51.760047],[0.645663,51.760897],[0.647053,51.761793],[0.647504,51.761511],[0.648315,51.761996],[0.647117,51.763847],[0.645195,51.764247],[0.643497,51.766872],[0.641871,51.767053],[0.640058,51.767843],[0.639214,51.76678],[0.63756,51.766802],[0.63642,51.768309],[0.638418,51.768826],[0.638301,51.770352],[0.636834,51.770342],[0.632681,51.771623],[0.632552,51.772654],[0.633958,51.777613],[0.637074,51.777213],[0.640592,51.779652],[0.644654,51.7816],[0.645761,51.783097],[0.649008,51.784181],[0.649898,51.784794],[0.651108,51.784833],[0.653125,51.788441],[0.654991,51.789225],[0.654825,51.789689],[0.655914,51.790895],[0.655445,51.791431],[0.655953,51.792439],[0.655348,51.793849],[0.6535,51.795601],[0.654307,51.79632],[0.654091,51.796886],[0.654629,51.797115],[0.654296,51.797922],[0.654953,51.79873],[0.654609,51.799113],[0.655349,51.799372],[0.655611,51.800072],[0.65649,51.800648],[0.656689,51.80152],[0.659834,51.803625],[0.659201,51.804827],[0.659756,51.805678],[0.661025,51.806235],[0.662444,51.806238],[0.664689,51.805323],[0.666668,51.805227],[0.667429,51.805977],[0.668456,51.80597],[0.669112,51.808367],[0.670058,51.809452],[0.673362,51.81043],[0.676775,51.810032],[0.678158,51.810714],[0.678691,51.810645],[0.677634,51.812368],[0.67779,51.812884],[0.678941,51.81377],[0.680008,51.814011],[0.679856,51.81514],[0.680935,51.815704],[0.681738,51.815717],[0.682379,51.81621],[0.682582,51.816829],[0.681604,51.817529],[0.682546,51.81846],[0.681852,51.819096],[0.682339,51.819642],[0.682102,51.820125],[0.684169,51.820958],[0.686814,51.8213],[0.689496,51.823027],[0.689858,51.822984],[0.690102,51.824069],[0.689905,51.824453],[0.689076,51.824646],[0.68923,51.825623],[0.690593,51.825655],[0.691672,51.826531],[0.692514,51.826739],[0.693117,51.827885],[0.69695,51.828662],[0.697269,51.829127],[0.698773,51.828418],[0.700937,51.825177],[0.704789,51.822686],[0.708909,51.818904],[0.709862,51.818443],[0.710792,51.817344],[0.710566,51.817193],[0.71313,51.815855],[0.717111,51.812595],[0.721664,51.810005],[0.720175,51.809813],[0.717316,51.81077],[0.716388,51.810266],[0.715055,51.810516],[0.71333,51.80846],[0.717357,51.806958],[0.719036,51.805162],[0.7187,51.804199],[0.71902,51.802007],[0.7185,51.800837],[0.718807,51.79837],[0.718171,51.797363],[0.721569,51.796506],[0.722626,51.797279],[0.726857,51.797494],[0.733639,51.79933],[0.733855,51.798418],[0.737648,51.798551],[0.742862,51.80021],[0.746495,51.799452],[0.75423,51.800969],[0.759344,51.802327],[0.760326,51.802996],[0.7634,51.80324],[0.768622,51.805858],[0.770371,51.805911],[0.772174,51.807353],[0.773451,51.807899],[0.774295,51.807906],[0.774892,51.808917],[0.77909,51.811563],[0.790633,51.806856],[0.793085,51.805006],[0.794794,51.80426],[0.79793,51.803991],[0.801147,51.801482],[0.808955,51.800421],[0.809024,51.799832],[0.811855,51.799119],[0.809924,51.795052],[0.808112,51.793319],[0.810661,51.792896],[0.813404,51.791555],[0.813881,51.791684],[0.816676,51.791041],[0.815929,51.789247],[0.811568,51.790123],[0.80573,51.791948],[0.803929,51.789705],[0.816339,51.78754],[0.816158,51.786363],[0.819629,51.786142],[0.821793,51.785199],[0.823497,51.784855],[0.825668,51.783528],[0.834493,51.782687],[0.835839,51.780811],[0.836563,51.780392],[0.836697,51.779603],[0.839358,51.779681],[0.840239,51.779256],[0.842439,51.77946],[0.844434,51.778879],[0.844354,51.7793],[0.843365,51.779824],[0.843083,51.780602],[0.843355,51.78073],[0.844661,51.780005],[0.845776,51.781041],[0.849869,51.782788],[0.857826,51.783993],[0.858294,51.783875],[0.859344,51.782294],[0.863573,51.782215],[0.871418,51.779892],[0.877254,51.779348],[0.883163,51.774987],[0.883579,51.775047],[0.882577,51.776278],[0.884756,51.774765],[0.884245,51.774437],[0.883688,51.774984],[0.883295,51.774919],[0.884602,51.774159],[0.883868,51.774357],[0.884013,51.774085],[0.886631,51.770893],[0.886846,51.771315],[0.887422,51.770578],[0.886855,51.771363],[0.887883,51.771951],[0.88938,51.770504],[0.888562,51.770647],[0.88934,51.770442],[0.889711,51.77049],[0.89059,51.769734],[0.890089,51.76949],[0.890473,51.768834],[0.889912,51.769118],[0.890284,51.768794],[0.889779,51.768592],[0.889398,51.768971],[0.889533,51.768558],[0.889018,51.769073],[0.889832,51.76923],[0.889398,51.769537],[0.889714,51.769782],[0.888825,51.77007],[0.888742,51.769617],[0.88862,51.770145],[0.888578,51.769695],[0.888214,51.770133],[0.888282,51.769399],[0.887947,51.770236],[0.88794,51.769851],[0.8878,51.770093],[0.887396,51.769741],[0.887275,51.770027],[0.887863,51.770279],[0.88685,51.770807],[0.884999,51.769666],[0.884922,51.768221],[0.88805,51.767633],[0.890594,51.767861],[0.890734,51.767352],[0.887773,51.764633],[0.887625,51.764147],[0.883651,51.763814],[0.87935,51.764651],[0.877932,51.765333],[0.877336,51.765191],[0.875512,51.765733],[0.875083,51.766192],[0.872788,51.766633],[0.872217,51.767598],[0.870864,51.767706],[0.870514,51.76829],[0.868033,51.768514],[0.867062,51.768123],[0.863707,51.768459],[0.863538,51.768194],[0.863253,51.768604],[0.860724,51.768716],[0.859704,51.769215],[0.85947,51.769778],[0.860195,51.773005],[0.858389,51.773345],[0.857481,51.775044],[0.856322,51.774961],[0.854587,51.774151],[0.853244,51.774471],[0.851263,51.774136],[0.850886,51.77331],[0.849924,51.773125],[0.850291,51.772974],[0.848272,51.772721],[0.848606,51.772595],[0.848397,51.772321],[0.848188,51.772524],[0.848288,51.772],[0.849218,51.771883],[0.849008,51.771493],[0.84939,51.77132],[0.848839,51.771112],[0.848394,51.771398],[0.848758,51.771693],[0.848083,51.771729],[0.848383,51.771845],[0.848147,51.772038],[0.848085,51.772341],[0.847743,51.772215],[0.848203,51.772694],[0.847546,51.772298],[0.847717,51.772085],[0.847197,51.772183],[0.847786,51.772586],[0.847007,51.772627],[0.84688,51.772214],[0.846702,51.772496],[0.845798,51.772756],[0.846796,51.772776],[0.845376,51.773214],[0.844806,51.773747],[0.844077,51.773106],[0.844374,51.773718],[0.843713,51.773748],[0.843743,51.773047],[0.844089,51.772828],[0.844143,51.773045],[0.844314,51.772522],[0.843961,51.77223],[0.84366,51.772447],[0.843631,51.77216],[0.844382,51.772114],[0.844168,51.771602],[0.843681,51.772015],[0.843965,51.771525],[0.843249,51.772482],[0.843998,51.772784],[0.843208,51.772535],[0.843657,51.772971],[0.843439,51.772924],[0.843589,51.773333],[0.842348,51.77361],[0.843421,51.773434],[0.843561,51.773779],[0.840138,51.773721],[0.840686,51.772933],[0.841148,51.77277],[0.840868,51.773373],[0.841455,51.773115],[0.841284,51.77282],[0.841537,51.773149],[0.841985,51.773054],[0.841591,51.773059],[0.841869,51.77266],[0.840428,51.772758],[0.83989,51.77368],[0.838744,51.773499],[0.837626,51.774047],[0.83683,51.773908],[0.83672,51.773528],[0.837605,51.773157],[0.835874,51.772009],[0.835529,51.772367],[0.83481,51.772103],[0.835165,51.771909],[0.834684,51.771829],[0.835277,51.771812],[0.835076,51.771341],[0.834416,51.771548],[0.834467,51.771088],[0.834099,51.771094],[0.834234,51.771449],[0.834043,51.771132],[0.834441,51.770725],[0.833723,51.770796],[0.833816,51.770549],[0.833409,51.770435],[0.833383,51.770212],[0.831299,51.77023],[0.831308,51.769992],[0.832031,51.770179],[0.831807,51.769517],[0.832461,51.769266],[0.832029,51.769958],[0.832907,51.770021],[0.833062,51.769787],[0.832588,51.769585],[0.833214,51.769738],[0.833237,51.769296],[0.832701,51.769158],[0.83357,51.769214],[0.83506,51.769473],[0.836037,51.768832],[0.835768,51.769343],[0.836472,51.769758],[0.837092,51.769115],[0.836117,51.768756],[0.84099,51.769289],[0.842678,51.768068],[0.844324,51.767875],[0.84493,51.768215],[0.84518,51.766946],[0.84273,51.765187],[0.843742,51.765266],[0.844098,51.764927],[0.843704,51.764881],[0.844351,51.76487],[0.844014,51.765338],[0.844608,51.765434],[0.844628,51.765773],[0.84404,51.765855],[0.845892,51.765996],[0.845446,51.765832],[0.84554,51.765517],[0.844934,51.765527],[0.844737,51.765083],[0.844972,51.764929],[0.844491,51.764769],[0.844877,51.764689],[0.844632,51.764498],[0.844425,51.76471],[0.844386,51.764245],[0.844735,51.764449],[0.844982,51.764159],[0.84425,51.763817],[0.84501,51.763915],[0.845069,51.764141],[0.844843,51.764597],[0.845808,51.764389],[0.84531,51.764025],[0.846454,51.763682],[0.845784,51.763987],[0.84631,51.764604],[0.846077,51.764791],[0.847309,51.765],[0.846756,51.763997],[0.847341,51.764546],[0.847,51.764105],[0.847757,51.764286],[0.848347,51.763762],[0.847627,51.763628],[0.847249,51.763375],[0.847207,51.763296],[0.84659,51.763433],[0.847629,51.762864],[0.847192,51.763206],[0.847917,51.763636],[0.848176,51.763603],[0.848139,51.763174],[0.848616,51.763817],[0.84892,51.763306],[0.849154,51.764615],[0.848953,51.764784],[0.84983,51.764737],[0.84926,51.764563],[0.850303,51.764701],[0.849457,51.764905],[0.849453,51.765209],[0.850332,51.765619],[0.850482,51.765197],[0.849984,51.765111],[0.850855,51.765089],[0.850831,51.764398],[0.851108,51.764983],[0.851465,51.765076],[0.851905,51.764773],[0.851421,51.764952],[0.851493,51.764491],[0.851244,51.76484],[0.851589,51.764246],[0.852052,51.764713],[0.853089,51.764578],[0.852542,51.763772],[0.852067,51.764058],[0.85236,51.764374],[0.851308,51.764056],[0.850894,51.764393],[0.851395,51.763514],[0.850866,51.76413],[0.850531,51.76382],[0.850129,51.764219],[0.849724,51.764293],[0.850043,51.764135],[0.849382,51.763827],[0.849756,51.763884],[0.850447,51.763305],[0.84991,51.763445],[0.849622,51.763127],[0.84961,51.763387],[0.849418,51.763459],[0.849005,51.763366],[0.849034,51.763144],[0.849219,51.763036],[0.848609,51.762684],[0.847934,51.762796],[0.848894,51.762067],[0.848438,51.762568],[0.849266,51.763012],[0.849036,51.763288],[0.849518,51.763343],[0.849516,51.762877],[0.850625,51.763326],[0.850065,51.763955],[0.850973,51.763624],[0.851283,51.763093],[0.850196,51.763014],[0.850166,51.762359],[0.849725,51.762806],[0.84887,51.762698],[0.848962,51.762364],[0.849181,51.762606],[0.849505,51.762362],[0.849007,51.762134],[0.850374,51.762345],[0.850937,51.762916],[0.851464,51.762931],[0.851304,51.763285],[0.852077,51.763104],[0.851516,51.762827],[0.852009,51.762489],[0.851126,51.762804],[0.851284,51.762624],[0.850571,51.762399],[0.851289,51.762518],[0.850985,51.762362],[0.851431,51.762126],[0.850915,51.762013],[0.851373,51.761503],[0.851196,51.760967],[0.851061,51.761229],[0.850512,51.761293],[0.850706,51.761887],[0.850154,51.761601],[0.850139,51.761843],[0.84972,51.761791],[0.850136,51.76156],[0.849709,51.761601],[0.849924,51.761331],[0.84884,51.761946],[0.849172,51.76091],[0.848747,51.761101],[0.8484,51.760422],[0.849218,51.760466],[0.849517,51.760073],[0.852389,51.760421],[0.853226,51.760669],[0.853704,51.760499],[0.853057,51.760185],[0.853755,51.760408],[0.853973,51.760074],[0.854704,51.760312],[0.853693,51.75962],[0.853407,51.760071],[0.851873,51.76026],[0.85334,51.75986],[0.853112,51.758943],[0.852731,51.759045],[0.853082,51.759708],[0.852448,51.760066],[0.852532,51.759619],[0.852073,51.759488],[0.852213,51.760058],[0.851604,51.760018],[0.851609,51.760304],[0.850746,51.759957],[0.851954,51.760033],[0.85185,51.759569],[0.851522,51.759828],[0.851359,51.759519],[0.850846,51.759508],[0.851005,51.759869],[0.84984,51.760045],[0.84909,51.759549],[0.849678,51.759614],[0.85128,51.75861],[0.851329,51.758275],[0.85047,51.758108],[0.849725,51.758721],[0.849127,51.75842],[0.849283,51.7577],[0.85045,51.757026],[0.851231,51.75701],[0.851467,51.757354],[0.852178,51.757202],[0.853865,51.757948],[0.852928,51.758122],[0.852975,51.757736],[0.852587,51.758076],[0.852786,51.757751],[0.85216,51.757413],[0.852623,51.757741],[0.852399,51.758534],[0.853681,51.758038],[0.853132,51.758467],[0.85378,51.758524],[0.853972,51.758002],[0.854716,51.758644],[0.854689,51.75834],[0.855232,51.758574],[0.855129,51.758846],[0.854074,51.758834],[0.854643,51.759598],[0.855134,51.759599],[0.855653,51.759006],[0.855314,51.758616],[0.856537,51.759146],[0.856521,51.759619],[0.855997,51.759072],[0.855184,51.759796],[0.856256,51.760331],[0.857083,51.759541],[0.85655,51.759421],[0.856675,51.759208],[0.858211,51.759925],[0.858556,51.760584],[0.857874,51.760245],[0.857305,51.760554],[0.85705,51.759941],[0.856611,51.760633],[0.856985,51.761326],[0.857618,51.761678],[0.858695,51.761234],[0.858094,51.761112],[0.857786,51.760649],[0.858129,51.761073],[0.858628,51.760896],[0.859727,51.761619],[0.858635,51.760234],[0.861349,51.762072],[0.860621,51.761962],[0.861185,51.762215],[0.860911,51.762372],[0.860346,51.761717],[0.8597,51.762104],[0.858597,51.76158],[0.858322,51.761797],[0.861582,51.763097],[0.862071,51.763002],[0.86178,51.762803],[0.862108,51.762661],[0.861265,51.76251],[0.861447,51.762137],[0.862008,51.762407],[0.864073,51.762386],[0.868739,51.761205],[0.871503,51.759538],[0.872694,51.759665],[0.873194,51.760131],[0.873923,51.759789],[0.873116,51.759649],[0.875588,51.758771],[0.875658,51.75919],[0.876094,51.759175],[0.875889,51.758695],[0.876746,51.758345],[0.877156,51.758824],[0.877961,51.758587],[0.877031,51.758293],[0.87762,51.758026],[0.878075,51.758414],[0.877808,51.757822],[0.878552,51.756656],[0.877927,51.757802],[0.878435,51.75804],[0.878233,51.758453],[0.878889,51.758339],[0.878617,51.758099],[0.879226,51.757623],[0.87873,51.758142],[0.879335,51.758102],[0.879555,51.757513],[0.879686,51.758174],[0.880326,51.757801],[0.880759,51.757797],[0.880154,51.75802],[0.880508,51.758083],[0.882687,51.757617],[0.880815,51.756953],[0.880112,51.756295],[0.878226,51.756003],[0.874064,51.753648],[0.872525,51.753523],[0.872369,51.75312],[0.870407,51.752293],[0.869116,51.752855],[0.867312,51.753162],[0.869103,51.75277],[0.870202,51.752169],[0.870252,51.751901],[0.869911,51.751942],[0.869701,51.751883],[0.869863,51.751621],[0.869196,51.751658],[0.869047,51.751397],[0.869897,51.751569],[0.869907,51.7519],[0.870434,51.75131],[0.868081,51.750374],[0.865417,51.74874],[0.864277,51.748527],[0.864263,51.748132],[0.863172,51.748012],[0.861356,51.746041],[0.859879,51.745639],[0.858535,51.744696],[0.856727,51.744596],[0.856491,51.744813],[0.857142,51.745126],[0.856391,51.744839],[0.856631,51.744583],[0.856092,51.744703],[0.85716,51.744265],[0.856215,51.744141],[0.856195,51.743786],[0.855656,51.743963],[0.854714,51.743707],[0.854066,51.744226],[0.854615,51.744294],[0.853516,51.744354],[0.85362,51.744786],[0.854125,51.744336],[0.853987,51.744719],[0.853231,51.745006],[0.853184,51.744464],[0.852062,51.744525],[0.852811,51.744532],[0.853011,51.7446],[0.853008,51.744734],[0.852535,51.745248],[0.851572,51.745185],[0.851851,51.74586],[0.851302,51.745916],[0.851026,51.746499],[0.850509,51.746392],[0.850324,51.746212],[0.849809,51.746573],[0.85051,51.746928],[0.850759,51.746635],[0.851152,51.746724],[0.850214,51.747389],[0.847456,51.747488],[0.847182,51.747156],[0.846735,51.745473],[0.846938,51.744763],[0.848803,51.74408],[0.847622,51.744644],[0.848844,51.745229],[0.849349,51.744343],[0.849004,51.744181],[0.849175,51.743771],[0.849534,51.743914],[0.849351,51.744227],[0.851331,51.743505],[0.849992,51.743442],[0.849911,51.743169],[0.850651,51.743009],[0.850276,51.742372],[0.850778,51.743065],[0.850151,51.743392],[0.851359,51.743296],[0.851536,51.743656],[0.852231,51.743513],[0.853053,51.742109],[0.852465,51.741634],[0.849787,51.741187],[0.84775,51.740299],[0.845762,51.740177],[0.846242,51.740565],[0.84459,51.74007],[0.84418,51.74021],[0.844544,51.740485],[0.843751,51.740245],[0.842935,51.740625],[0.842847,51.740826],[0.84343,51.740658],[0.842988,51.740897],[0.84157,51.740795],[0.841366,51.740035],[0.842117,51.739945],[0.841447,51.738741],[0.839393,51.738716],[0.839523,51.73896],[0.840355,51.738954],[0.840734,51.739448],[0.84019,51.738999],[0.839451,51.739019],[0.838969,51.738398],[0.834764,51.738797],[0.833942,51.739169],[0.832017,51.738752],[0.825234,51.738437],[0.824061,51.738973],[0.822777,51.740811],[0.822255,51.740158],[0.822875,51.740326],[0.823012,51.739946],[0.822192,51.739922],[0.821679,51.738813],[0.813535,51.738572],[0.812814,51.739934],[0.811774,51.740016],[0.812557,51.739817],[0.813074,51.739068],[0.811116,51.738843],[0.810138,51.739745],[0.811592,51.739933],[0.810751,51.740087],[0.809948,51.739709],[0.810403,51.740661],[0.809975,51.740697],[0.81004,51.739968],[0.809653,51.739843],[0.80932,51.740053],[0.809756,51.740382],[0.808849,51.740175],[0.807396,51.740567],[0.806937,51.740763],[0.807181,51.740976],[0.80565,51.741128],[0.805319,51.741673],[0.804219,51.740839],[0.798657,51.74227],[0.797163,51.742349],[0.794519,51.74384],[0.793304,51.744178],[0.792292,51.745191],[0.791545,51.744733],[0.791434,51.742792],[0.789966,51.742308],[0.790119,51.740023],[0.789108,51.738642],[0.789075,51.737959],[0.786139,51.737596],[0.783836,51.738117],[0.784783,51.737629],[0.786786,51.737575],[0.787512,51.73725],[0.787094,51.737649],[0.789008,51.737652],[0.787822,51.737182],[0.78939,51.73759],[0.790476,51.738503],[0.790158,51.739052],[0.791564,51.739519],[0.792568,51.740452],[0.793805,51.740218],[0.793059,51.739915],[0.792593,51.739473],[0.793301,51.739541],[0.793752,51.739096],[0.793115,51.73982],[0.794068,51.740225],[0.79341,51.740371],[0.794895,51.740481],[0.79507,51.74003],[0.795059,51.740561],[0.794348,51.740566],[0.79542,51.740804],[0.796682,51.740564],[0.796737,51.740048],[0.794084,51.739197],[0.793608,51.73877],[0.791876,51.7387],[0.788632,51.736653],[0.781157,51.738179],[0.778565,51.739313],[0.776342,51.740783],[0.77635,51.741223],[0.77703,51.740793],[0.777424,51.741364],[0.777105,51.742201],[0.776162,51.742284],[0.777055,51.742398],[0.777571,51.742956],[0.776743,51.743983],[0.776087,51.743721],[0.775701,51.743035],[0.773827,51.742773],[0.773109,51.74217],[0.771874,51.741857],[0.771405,51.740872],[0.771689,51.740287],[0.770768,51.739659],[0.770801,51.73936],[0.771927,51.739315],[0.772402,51.73983],[0.772429,51.739461],[0.772895,51.73931],[0.772996,51.7398],[0.774076,51.739176],[0.774846,51.73941],[0.774591,51.738912],[0.77231,51.73917],[0.770684,51.739144],[0.77025,51.738817],[0.767462,51.738892],[0.765158,51.740449],[0.763613,51.741067],[0.762597,51.741111],[0.760464,51.742486],[0.760192,51.741836],[0.763067,51.740345],[0.763141,51.738699],[0.759773,51.737518],[0.758091,51.737314],[0.755149,51.735296],[0.754278,51.73505],[0.7456,51.736746],[0.744958,51.736381],[0.744302,51.734521],[0.745046,51.733422],[0.745055,51.73461],[0.747935,51.735316],[0.748786,51.735212],[0.748955,51.734339],[0.747768,51.733904],[0.748296,51.733145],[0.747285,51.733011],[0.748546,51.7331],[0.74819,51.733753],[0.749298,51.734104],[0.749378,51.734802],[0.749954,51.734473],[0.749068,51.732465],[0.748441,51.732147],[0.747389,51.732258],[0.747582,51.731959],[0.747672,51.732183],[0.748484,51.731985],[0.749232,51.73227],[0.750205,51.733274],[0.7518,51.732778],[0.745944,51.731055],[0.744636,51.730914],[0.741146,51.731543],[0.739406,51.731068],[0.739342,51.731553],[0.740323,51.732244],[0.740509,51.731918],[0.740709,51.732259],[0.743463,51.731436],[0.744393,51.731435],[0.739071,51.733005],[0.738188,51.732962],[0.737955,51.733307],[0.737255,51.732966],[0.737747,51.732869],[0.737469,51.731946],[0.737789,51.730468],[0.739398,51.729832],[0.737526,51.730253],[0.735769,51.729484],[0.732335,51.730822],[0.730594,51.731134],[0.727049,51.733662],[0.72159,51.736236],[0.718173,51.736713],[0.715562,51.736642],[0.715221,51.736397],[0.715466,51.736945],[0.715134,51.737323],[0.713726,51.737606],[0.712616,51.737136],[0.71423,51.736832],[0.714764,51.737001],[0.714871,51.73663],[0.714689,51.736895],[0.713713,51.736745],[0.712242,51.73697],[0.713005,51.737419],[0.711129,51.736834],[0.713094,51.736421],[0.7123,51.736452],[0.711697,51.73519],[0.713099,51.73489],[0.714602,51.734986],[0.714596,51.734758],[0.714067,51.734803],[0.714817,51.734683],[0.71457,51.734088],[0.71244,51.731136],[0.710349,51.729902],[0.710785,51.729652],[0.709712,51.729174],[0.709991,51.728797],[0.708287,51.726281],[0.707921,51.724784],[0.705529,51.723814],[0.70584,51.72398],[0.705009,51.724389],[0.70484,51.724223],[0.703657,51.725463],[0.7035,51.727452],[0.702742,51.728148],[0.702264,51.727878],[0.702609,51.728146],[0.701921,51.72868],[0.701265,51.728559],[0.701997,51.72833],[0.701937,51.727581],[0.700454,51.728117],[0.700908,51.728408],[0.698925,51.728352],[0.695073,51.729359],[0.694912,51.729094],[0.693594,51.730307],[0.693263,51.73009],[0.69378,51.729579],[0.693508,51.72928],[0.692502,51.729677],[0.692504,51.73005],[0.6923,51.729776],[0.691822,51.730289],[0.691991,51.730695],[0.692507,51.73063],[0.692093,51.730887],[0.692484,51.730715],[0.692957,51.731083],[0.691958,51.732903],[0.692309,51.732204],[0.691806,51.732649],[0.691139,51.732449],[0.691373,51.732873],[0.691884,51.732937],[0.691227,51.734506],[0.691683,51.732919],[0.690445,51.733969],[0.691329,51.733032],[0.690999,51.732157],[0.691609,51.732345],[0.692006,51.73209],[0.691565,51.731867],[0.692116,51.731906],[0.691667,51.731711],[0.692088,51.731822],[0.691506,51.730522],[0.690498,51.730979],[0.690779,51.731284],[0.69024,51.732106],[0.690608,51.732363],[0.6902,51.732202],[0.689375,51.732521],[0.689425,51.732968],[0.690101,51.733091],[0.689467,51.733005],[0.689433,51.733315],[0.689274,51.733512],[0.690009,51.733694],[0.689333,51.733574],[0.688982,51.73333],[0.689358,51.73329],[0.689286,51.732488],[0.688597,51.732657],[0.688777,51.733115],[0.688526,51.732618],[0.689103,51.732494],[0.688892,51.732239],[0.689171,51.732465],[0.689826,51.732213],[0.689891,51.73166],[0.689092,51.731664],[0.689762,51.731528],[0.690044,51.730761],[0.690855,51.730197],[0.690133,51.730418],[0.689849,51.730221],[0.688645,51.731995],[0.68733,51.732542],[0.687339,51.733169],[0.68724,51.732721],[0.686457,51.733048],[0.687367,51.733741],[0.68983,51.734233],[0.690698,51.735093],[0.691204,51.734572],[0.690568,51.735582],[0.69012,51.73555],[0.690073,51.734913],[0.689841,51.735249],[0.689732,51.73527],[0.689099,51.734795],[0.689784,51.735226],[0.689979,51.734786],[0.689602,51.734559],[0.685916,51.734234],[0.685256,51.733049],[0.68297,51.733611],[0.68294,51.734118],[0.682559,51.733753],[0.677149,51.734638],[0.676151,51.735517],[0.676637,51.735345],[0.676208,51.735871],[0.675641,51.736236],[0.676182,51.735781],[0.67506,51.736401],[0.674347,51.736257],[0.675535,51.735958],[0.673144,51.736129],[0.671055,51.736868],[0.671239,51.736952],[0.671083,51.73711],[0.670189,51.737536],[0.671197,51.736959],[0.669182,51.737441],[0.669628,51.737589],[0.667876,51.737812],[0.665522,51.738818],[0.664938,51.739615],[0.665463,51.738855],[0.664155,51.739359],[0.66508,51.741184],[0.663891,51.743671],[0.662349,51.743408],[0.662065,51.742825],[0.663445,51.743168],[0.66454,51.741777],[0.664614,51.741362],[0.664521,51.740987],[0.664033,51.74068],[0.664533,51.741479],[0.6641,51.740922],[0.664236,51.741436],[0.663263,51.741951],[0.66385,51.74132],[0.663638,51.739779],[0.663626,51.740156],[0.663287,51.740128],[0.663832,51.739194],[0.665977,51.738217],[0.664541,51.738481],[0.66619,51.738142],[0.668196,51.73725],[0.667624,51.737038],[0.665847,51.737528],[0.667361,51.736931],[0.668291,51.737216],[0.66981,51.736747],[0.669416,51.736413],[0.669016,51.736549],[0.669281,51.736299],[0.669917,51.736688],[0.672339,51.735885],[0.671241,51.735814],[0.67469,51.735437],[0.676826,51.73425],[0.678831,51.734305],[0.686315,51.732069],[0.686169,51.731847],[0.68651,51.731988],[0.687425,51.73142],[0.687014,51.731059],[0.687516,51.730988],[0.687225,51.730844],[0.687784,51.730496],[0.688715,51.728551],[0.689375,51.727895],[0.691786,51.726744],[0.697304,51.726745],[0.699356,51.726092],[0.697069,51.726486],[0.699131,51.725025],[0.698466,51.724998],[0.697895,51.725509],[0.697386,51.72539],[0.697637,51.724746],[0.697289,51.724619],[0.697693,51.724545],[0.697101,51.724332],[0.696779,51.723643],[0.69731,51.723783],[0.698096,51.723287],[0.697276,51.723127],[0.697411,51.722797],[0.697541,51.722769],[0.698443,51.722572],[0.700219,51.721172],[0.699085,51.722215],[0.699113,51.722423],[0.700232,51.722372],[0.699338,51.722062],[0.700161,51.722224],[0.700421,51.721456],[0.701517,51.721283],[0.701022,51.720812],[0.70068,51.720979],[0.700991,51.720745],[0.701278,51.720917],[0.701257,51.720407],[0.701707,51.72119],[0.703569,51.720862],[0.703856,51.720527],[0.703527,51.719981],[0.702543,51.719868],[0.703125,51.719246],[0.702284,51.719121],[0.703228,51.719049],[0.702731,51.718867],[0.703346,51.718793],[0.703368,51.71943],[0.70378,51.719438],[0.703565,51.718631],[0.703907,51.718345],[0.703662,51.718772],[0.704236,51.719761],[0.703822,51.719516],[0.703095,51.719706],[0.704201,51.720164],[0.704988,51.71972],[0.704521,51.718975],[0.705344,51.719536],[0.705843,51.719017],[0.705433,51.719167],[0.70542,51.718712],[0.705606,51.718966],[0.706752,51.718413],[0.706469,51.717837],[0.706112,51.718264],[0.70558,51.718308],[0.705858,51.718179],[0.705517,51.718226],[0.705516,51.717765],[0.706257,51.718025],[0.706127,51.717712],[0.706639,51.71779],[0.706951,51.71823],[0.707445,51.718017],[0.706896,51.717623],[0.708039,51.717906],[0.708422,51.717472],[0.709041,51.717415],[0.709457,51.717016],[0.709044,51.716859],[0.709416,51.716865],[0.709317,51.716487],[0.708327,51.716426],[0.708254,51.71612],[0.708373,51.716327],[0.709317,51.71615],[0.710013,51.71658],[0.709903,51.716345],[0.710197,51.716116],[0.710427,51.716336],[0.710911,51.715669],[0.709152,51.714911],[0.711042,51.715551],[0.711051,51.71626],[0.71152,51.716122],[0.711283,51.715597],[0.711701,51.715955],[0.712072,51.715754],[0.711416,51.714404],[0.711017,51.714723],[0.711241,51.714399],[0.710913,51.714296],[0.710111,51.715005],[0.710703,51.714342],[0.709734,51.714286],[0.710184,51.713916],[0.711147,51.713856],[0.711208,51.713486],[0.711484,51.713851],[0.711843,51.713483],[0.712341,51.713518],[0.711781,51.71386],[0.713735,51.715456],[0.714084,51.714847],[0.713475,51.714571],[0.71345,51.714082],[0.71356,51.714548],[0.714096,51.714678],[0.714785,51.713935],[0.714152,51.713858],[0.715591,51.713685],[0.71499,51.714059],[0.715342,51.714243],[0.714964,51.714099],[0.714468,51.714427],[0.714298,51.715006],[0.714897,51.714828],[0.714221,51.71509],[0.714382,51.715483],[0.715403,51.715875],[0.715811,51.715747],[0.715662,51.715457],[0.715932,51.715741],[0.715597,51.716018],[0.716183,51.716079],[0.716404,51.715716],[0.716428,51.716098],[0.717817,51.71624],[0.718296,51.715943],[0.718085,51.715599],[0.71993,51.715723],[0.722051,51.714297],[0.726876,51.713216],[0.729173,51.713027],[0.729855,51.712584],[0.731244,51.712835],[0.732547,51.712485],[0.732775,51.712961],[0.735043,51.712785],[0.736815,51.711743],[0.737672,51.711771],[0.737966,51.712138],[0.738954,51.712363],[0.74004,51.711761],[0.744319,51.71087],[0.745728,51.711509],[0.746969,51.711446],[0.745468,51.710534],[0.745624,51.710333],[0.746512,51.71102],[0.746974,51.710261],[0.745253,51.709966],[0.745058,51.709263],[0.744588,51.709979],[0.744628,51.710412],[0.745096,51.710513],[0.744845,51.710796],[0.74389,51.710153],[0.744611,51.70989],[0.74446,51.709362],[0.743473,51.70926],[0.743058,51.709682],[0.743588,51.708722],[0.74272,51.708477],[0.742931,51.708316],[0.74373,51.708727],[0.743474,51.709154],[0.744078,51.709306],[0.745183,51.709123],[0.746075,51.709538],[0.746869,51.709164],[0.745937,51.709055],[0.746155,51.708419],[0.7459,51.708302],[0.74517,51.708911],[0.744891,51.708376],[0.744452,51.708844],[0.74382,51.708485],[0.744597,51.708154],[0.744032,51.708041],[0.744414,51.707616],[0.743578,51.707076],[0.74376,51.706517],[0.743658,51.707042],[0.744483,51.707628],[0.744147,51.707987],[0.744535,51.708006],[0.745061,51.708327],[0.745249,51.708844],[0.745562,51.708264],[0.746158,51.708259],[0.74636,51.708532],[0.746144,51.709032],[0.747013,51.708983],[0.747029,51.709246],[0.746523,51.7096],[0.748031,51.710274],[0.748246,51.709942],[0.748853,51.710041],[0.748652,51.709587],[0.750783,51.709619],[0.75102,51.709085],[0.750151,51.708854],[0.749862,51.709343],[0.749358,51.709227],[0.749846,51.708704],[0.749526,51.708396],[0.749084,51.70867],[0.748378,51.708415],[0.747794,51.708882],[0.748385,51.708313],[0.749303,51.708514],[0.748715,51.708114],[0.748787,51.707751],[0.749125,51.708295],[0.749576,51.707758],[0.751552,51.707538],[0.75084,51.706684],[0.75023,51.706948],[0.749408,51.7067],[0.749044,51.707309],[0.749069,51.706752],[0.750075,51.706513],[0.749181,51.706329],[0.749016,51.705871],[0.748757,51.70652],[0.746996,51.706226],[0.74632,51.705367],[0.746579,51.705122],[0.745699,51.704978],[0.746034,51.704864],[0.746664,51.705109],[0.746421,51.705338],[0.746704,51.705656],[0.746691,51.705708]],[[0.915663,51.746157],[0.91648,51.746008],[0.916509,51.746048],[0.915663,51.746157]],[[0.93421,51.676669],[0.93438,51.67638],[0.933633,51.676194],[0.933629,51.675814],[0.934257,51.675798],[0.933952,51.676005],[0.9346,51.676421],[0.935106,51.676623],[0.93421,51.676669]],[[0.833556,51.770751],[0.833307,51.770741],[0.832615,51.770568],[0.833445,51.77073],[0.833409,51.770435],[0.833556,51.770751]],[[0.850552,51.764734],[0.850585,51.765073],[0.850303,51.764701],[0.850552,51.764734]],[[0.7162,51.713612],[0.717235,51.714753],[0.716373,51.714688],[0.716242,51.71514],[0.716828,51.715377],[0.716117,51.715301],[0.716472,51.714146],[0.715591,51.713685],[0.7162,51.713612]]],[[[0.744604,51.708157],[0.744613,51.708149],[0.744611,51.708149],[0.744604,51.708157]]],[[[0.792108,51.710229],[0.792104,51.710234],[0.792108,51.710233],[0.792108,51.710229]]],[[[0.790809,51.710301],[0.791484,51.710978],[0.792104,51.710234],[0.790809,51.710301]]],[[[0.8513,51.716277],[0.850274,51.716602],[0.849162,51.71602],[0.848016,51.715873],[0.848316,51.716635],[0.849073,51.717125],[0.851299,51.717259],[0.8513,51.716277]]],[[[0.701136,51.722503],[0.699677,51.72265],[0.700789,51.722838],[0.701289,51.722776],[0.701136,51.722503]]],[[[0.697541,51.722769],[0.697293,51.723087],[0.69792,51.723218],[0.698321,51.722953],[0.697541,51.722769]]],[[[0.700277,51.723674],[0.699457,51.723753],[0.699849,51.723908],[0.700277,51.723674]]],[[[0.697847,51.723536],[0.697322,51.723905],[0.698035,51.724067],[0.698356,51.723936],[0.697847,51.723536]]],[[[0.779374,51.724727],[0.778336,51.724893],[0.779469,51.725304],[0.780079,51.725073],[0.779374,51.724727]]],[[[0.703209,51.726897],[0.703019,51.727205],[0.703181,51.727399],[0.703209,51.726897]]],[[[0.780691,51.724492],[0.780213,51.725422],[0.779085,51.725636],[0.779744,51.725932],[0.78279,51.725223],[0.782442,51.724882],[0.780691,51.724492]]],[[[0.702831,51.727256],[0.702282,51.727717],[0.702568,51.727924],[0.703207,51.72766],[0.702831,51.727256]]],[[[0.776303,51.725257],[0.775638,51.725595],[0.774738,51.725263],[0.771992,51.725341],[0.772093,51.726639],[0.77553,51.726441],[0.777019,51.725659],[0.776303,51.725257]]],[[[0.693126,51.727996],[0.692294,51.728118],[0.692865,51.728526],[0.695051,51.728315],[0.693126,51.727996]]],[[[0.770251,51.726262],[0.771036,51.726035],[0.770273,51.725489],[0.76597,51.72653],[0.769202,51.725402],[0.774743,51.725198],[0.77572,51.725523],[0.776263,51.725169],[0.777282,51.725517],[0.778401,51.725081],[0.777711,51.724957],[0.780593,51.723886],[0.78244,51.723667],[0.781955,51.724185],[0.782318,51.724471],[0.782772,51.723628],[0.783253,51.723942],[0.782886,51.72397],[0.783262,51.724226],[0.782936,51.724574],[0.784585,51.723892],[0.783482,51.723887],[0.783442,51.723494],[0.783498,51.723798],[0.784907,51.723819],[0.784056,51.723036],[0.783132,51.722974],[0.782478,51.723455],[0.782906,51.722931],[0.784495,51.722989],[0.783883,51.722148],[0.782975,51.722854],[0.783189,51.722229],[0.783931,51.722127],[0.784484,51.722594],[0.785066,51.722286],[0.784095,51.721218],[0.785137,51.721941],[0.785173,51.722258],[0.784902,51.722923],[0.785847,51.722971],[0.785459,51.72234],[0.785964,51.721837],[0.787703,51.722315],[0.78388,51.721067],[0.78377,51.720651],[0.782533,51.720202],[0.779502,51.720204],[0.778528,51.719476],[0.777084,51.719241],[0.777124,51.719661],[0.777885,51.720049],[0.777064,51.71969],[0.776775,51.719114],[0.772266,51.718677],[0.770131,51.719052],[0.762683,51.721523],[0.756919,51.722571],[0.755201,51.723688],[0.754635,51.724862],[0.756247,51.726723],[0.757233,51.726221],[0.759571,51.726442],[0.763689,51.726229],[0.765883,51.726814],[0.769754,51.726827],[0.770251,51.726262]]],[[[0.778816,51.725234],[0.77578,51.726424],[0.776886,51.726894],[0.778658,51.726433],[0.778816,51.725234]]],[[[0.690905,51.729492],[0.690198,51.729769],[0.69106,51.729661],[0.690905,51.729492]]],[[[0.690646,51.729295],[0.6903,51.729221],[0.690152,51.729508],[0.690138,51.729111],[0.689789,51.729643],[0.689813,51.73015],[0.690222,51.729953],[0.689821,51.729845],[0.690646,51.729295]]],[[[0.690638,51.728863],[0.690511,51.729062],[0.691072,51.729145],[0.691571,51.728744],[0.690732,51.72875],[0.691952,51.728635],[0.69161,51.728306],[0.69049,51.728574],[0.690138,51.729111],[0.690638,51.728863]]],[[[0.694243,51.729116],[0.693397,51.729972],[0.69371,51.73012],[0.694463,51.729384],[0.694243,51.729116]]],[[[0.692511,51.73078],[0.692038,51.730979],[0.692791,51.731178],[0.692511,51.73078]]],[[[0.724667,51.728235],[0.725138,51.726799],[0.724561,51.726596],[0.725142,51.726023],[0.725668,51.725988],[0.726051,51.726429],[0.725673,51.726162],[0.725679,51.726449],[0.726168,51.726682],[0.727885,51.725933],[0.728358,51.72602],[0.728603,51.725375],[0.729908,51.724577],[0.729481,51.724425],[0.729895,51.723965],[0.728516,51.723927],[0.728225,51.723605],[0.727219,51.723453],[0.724581,51.722011],[0.725944,51.721715],[0.727546,51.723014],[0.728378,51.722937],[0.728905,51.7221],[0.729267,51.722217],[0.728888,51.723326],[0.729203,51.723418],[0.730276,51.722329],[0.731208,51.721935],[0.729536,51.721483],[0.729234,51.720588],[0.728882,51.720601],[0.728881,51.720343],[0.729362,51.72055],[0.729659,51.719395],[0.728436,51.718685],[0.729136,51.718405],[0.72617,51.717051],[0.725443,51.717313],[0.724568,51.717088],[0.724252,51.717246],[0.724658,51.717442],[0.724099,51.717658],[0.71687,51.719278],[0.713983,51.718363],[0.7119,51.718117],[0.710005,51.719429],[0.711336,51.718309],[0.708905,51.719206],[0.709095,51.719683],[0.708598,51.719455],[0.708131,51.71964],[0.710646,51.720136],[0.712387,51.721804],[0.713754,51.722131],[0.713705,51.7227],[0.714617,51.723095],[0.714509,51.723471],[0.714938,51.723668],[0.715288,51.725291],[0.716395,51.726021],[0.71652,51.726294],[0.71607,51.726446],[0.716455,51.727161],[0.716803,51.727334],[0.716714,51.72702],[0.717225,51.726813],[0.717582,51.72708],[0.716858,51.727108],[0.717655,51.728556],[0.718237,51.728837],[0.718302,51.727679],[0.718331,51.728383],[0.71874,51.728521],[0.718406,51.728453],[0.718358,51.728901],[0.719314,51.730141],[0.721175,51.73065],[0.723043,51.729776],[0.724667,51.728235]]],[[[0.692221,51.731227],[0.692354,51.731523],[0.692764,51.731223],[0.692221,51.731227]]],[[[0.745277,51.735],[0.745036,51.735351],[0.745657,51.735663],[0.746317,51.735391],[0.745277,51.735]]],[[[0.713676,51.735685],[0.713006,51.736064],[0.712133,51.735847],[0.712577,51.736396],[0.713155,51.736301],[0.713577,51.736496],[0.713676,51.735685]]],[[[0.746488,51.735705],[0.745384,51.735929],[0.746122,51.735974],[0.746832,51.735929],[0.746488,51.735705]]],[[[0.745658,51.736018],[0.745773,51.736505],[0.747497,51.736219],[0.745658,51.736018]]],[[[0.887242,51.734759],[0.886611,51.735031],[0.887289,51.735461],[0.887708,51.735195],[0.887242,51.734759]]],[[[0.801935,51.739078],[0.800692,51.739138],[0.801047,51.739267],[0.801935,51.739078]]],[[[0.800628,51.739357],[0.799512,51.739433],[0.799616,51.739637],[0.800628,51.739357]]],[[[0.772694,51.739803],[0.77252,51.740314],[0.772838,51.740186],[0.773319,51.739966],[0.772694,51.739803]]],[[[0.771712,51.739462],[0.771211,51.73956],[0.772256,51.740332],[0.771712,51.739462]]],[[[0.798963,51.739674],[0.799044,51.739808],[0.799477,51.739736],[0.798963,51.739674]]],[[[0.821792,51.738605],[0.82259,51.739494],[0.823005,51.739309],[0.822558,51.738815],[0.822947,51.738768],[0.821792,51.738605]]],[[[0.791383,51.739609],[0.791013,51.739854],[0.79196,51.740258],[0.791383,51.739609]]],[[[0.797067,51.739787],[0.797146,51.74036],[0.797976,51.740271],[0.798564,51.739829],[0.797067,51.739787]]],[[[0.663558,51.743292],[0.663216,51.743379],[0.66329,51.743559],[0.663558,51.743292]]],[[[0.775557,51.740353],[0.775848,51.740811],[0.775442,51.741002],[0.776136,51.741043],[0.776233,51.740531],[0.775557,51.740353]]],[[[0.883577,51.735136],[0.883142,51.735174],[0.880851,51.732723],[0.877935,51.730645],[0.878035,51.731121],[0.87923,51.731856],[0.879432,51.732706],[0.880127,51.732988],[0.880862,51.734449],[0.881818,51.734533],[0.881579,51.7349],[0.882543,51.735363],[0.884057,51.737669],[0.885537,51.738479],[0.886551,51.737385],[0.883577,51.735136]]],[[[0.772122,51.740485],[0.772274,51.741222],[0.773242,51.74075],[0.773042,51.740487],[0.772122,51.740485]]],[[[0.790875,51.740144],[0.790484,51.740307],[0.791238,51.740792],[0.791457,51.740508],[0.790875,51.740144]]],[[[0.841804,51.738331],[0.842551,51.739621],[0.845459,51.73889],[0.84383,51.738345],[0.841804,51.738331]]],[[[0.773271,51.741273],[0.772373,51.741446],[0.77311,51.741689],[0.773271,51.741273]]],[[[0.774218,51.741521],[0.774882,51.742055],[0.77524,51.741887],[0.774218,51.741521]]],[[[0.776129,51.741415],[0.77583,51.741701],[0.775941,51.741364],[0.775367,51.741623],[0.77585,51.742202],[0.776129,51.741415]]],[[[0.842312,51.740079],[0.841767,51.740306],[0.842409,51.740729],[0.842712,51.740319],[0.842312,51.740079]]],[[[0.773813,51.741585],[0.773545,51.741988],[0.774445,51.742439],[0.773813,51.741585]]],[[[0.791703,51.74227],[0.791062,51.742416],[0.79177,51.742718],[0.791703,51.74227]]],[[[0.792303,51.74208],[0.792929,51.742127],[0.792589,51.741812],[0.792242,51.741943],[0.792464,51.74173],[0.791109,51.741681],[0.791276,51.741312],[0.790548,51.741616],[0.7906,51.741929],[0.791716,51.741985],[0.792573,51.742415],[0.792336,51.742964],[0.793418,51.742796],[0.792303,51.74208]]],[[[0.775974,51.742473],[0.776389,51.743382],[0.776614,51.743062],[0.775974,51.742473]]],[[[0.792187,51.743315],[0.792021,51.743514],[0.792235,51.744098],[0.792536,51.743536],[0.792187,51.743315]]],[[[0.851276,51.745891],[0.851798,51.745849],[0.851446,51.745183],[0.851572,51.745185],[0.852482,51.745205],[0.852911,51.744624],[0.851994,51.744738],[0.851367,51.744398],[0.851027,51.744745],[0.851026,51.744336],[0.849905,51.744693],[0.849931,51.745569],[0.850606,51.74636],[0.851018,51.746372],[0.851276,51.745891]]],[[[0.849885,51.745962],[0.849456,51.745662],[0.849471,51.745994],[0.848913,51.746027],[0.849421,51.745972],[0.847857,51.745258],[0.848073,51.745922],[0.847729,51.74607],[0.847373,51.745579],[0.847926,51.745961],[0.847697,51.745273],[0.846913,51.745416],[0.846939,51.745703],[0.847238,51.745545],[0.84696,51.745794],[0.847278,51.747118],[0.847917,51.74733],[0.849351,51.74699],[0.849885,51.745962]]],[[[0.850015,51.746872],[0.849495,51.747199],[0.849773,51.747294],[0.850307,51.747124],[0.850015,51.746872]]],[[[0.876479,51.758706],[0.876333,51.759006],[0.876981,51.758763],[0.876479,51.758706]]],[[[0.850747,51.759342],[0.851851,51.759495],[0.852131,51.759263],[0.851561,51.759038],[0.851668,51.758817],[0.849897,51.759574],[0.850927,51.75981],[0.850747,51.759342]]],[[[0.852696,51.759614],[0.852662,51.759736],[0.853004,51.759609],[0.852131,51.759263],[0.852696,51.759614]]],[[[0.875343,51.759027],[0.873865,51.759601],[0.873981,51.759846],[0.875521,51.759367],[0.875343,51.759027]]],[[[0.872634,51.759918],[0.871652,51.760144],[0.871859,51.760394],[0.872967,51.760179],[0.872634,51.759918]]],[[[0.85343,51.7609],[0.854196,51.761186],[0.854548,51.760935],[0.854145,51.760201],[0.853793,51.76083],[0.852889,51.760957],[0.852326,51.760822],[0.852741,51.760586],[0.85122,51.760432],[0.851671,51.761378],[0.85343,51.7609]]],[[[0.84991,51.76125],[0.850471,51.761658],[0.850273,51.761255],[0.850642,51.761046],[0.851027,51.761109],[0.850598,51.760476],[0.849937,51.760671],[0.8497,51.760356],[0.849414,51.760502],[0.849511,51.760804],[0.85044,51.760638],[0.850693,51.760847],[0.850336,51.760763],[0.849729,51.761291],[0.849241,51.760962],[0.849009,51.761731],[0.84991,51.76125]]],[[[0.871181,51.760403],[0.87041,51.760549],[0.86964,51.761105],[0.871775,51.760693],[0.871196,51.76064],[0.871181,51.760403]]],[[[0.88093,51.760787],[0.879721,51.761088],[0.880157,51.761139],[0.88093,51.760787]]],[[[0.86575,51.762297],[0.863006,51.762544],[0.862106,51.763024],[0.86575,51.762297]]],[[[0.875006,51.761728],[0.869994,51.763307],[0.873812,51.762397],[0.875006,51.761728]]],[[[0.883664,51.761149],[0.882662,51.760743],[0.881324,51.760683],[0.88044,51.761145],[0.879506,51.761345],[0.879455,51.76109],[0.87876,51.761584],[0.877729,51.761636],[0.877817,51.761983],[0.877057,51.762282],[0.877027,51.762018],[0.876649,51.76209],[0.872838,51.763355],[0.872374,51.763796],[0.883664,51.761149]]],[[[0.855607,51.765208],[0.857381,51.76543],[0.860675,51.764265],[0.859956,51.763803],[0.859591,51.764041],[0.859726,51.763686],[0.858397,51.763188],[0.857441,51.76323],[0.857772,51.762826],[0.855916,51.761761],[0.855114,51.760536],[0.854678,51.761391],[0.852779,51.761296],[0.851161,51.761927],[0.85185,51.762296],[0.851507,51.762555],[0.852077,51.762328],[0.85253,51.762486],[0.852562,51.762811],[0.851888,51.762882],[0.853094,51.763334],[0.852815,51.763617],[0.853287,51.763551],[0.853536,51.764261],[0.853106,51.765201],[0.853048,51.764972],[0.852174,51.765035],[0.852078,51.765461],[0.854386,51.765684],[0.855607,51.765208]]],[[[0.856213,51.765919],[0.855865,51.765633],[0.855377,51.766012],[0.855183,51.765797],[0.853998,51.766089],[0.851681,51.765642],[0.851242,51.766001],[0.854922,51.766209],[0.856213,51.765919]]],[[[0.848928,51.765801],[0.849401,51.766185],[0.850917,51.766194],[0.851478,51.765581],[0.850805,51.765404],[0.850287,51.765892],[0.849809,51.76542],[0.848747,51.765303],[0.848784,51.765],[0.849214,51.764986],[0.848612,51.764834],[0.848921,51.764505],[0.848484,51.7638],[0.847851,51.764334],[0.847487,51.764405],[0.847281,51.764789],[0.847698,51.764783],[0.847658,51.765039],[0.847056,51.765278],[0.846084,51.764899],[0.845771,51.764489],[0.844782,51.764818],[0.845084,51.764846],[0.845316,51.765386],[0.846245,51.765425],[0.846163,51.765805],[0.846806,51.765823],[0.847204,51.766465],[0.848903,51.766185],[0.848928,51.765801]]],[[[0.888217,51.764672],[0.889112,51.765608],[0.889886,51.765103],[0.889681,51.764804],[0.888217,51.764672]]],[[[0.846896,51.767894],[0.847439,51.767892],[0.847973,51.766966],[0.846623,51.766832],[0.846395,51.766184],[0.846347,51.766603],[0.845902,51.766672],[0.845917,51.766312],[0.84486,51.76607],[0.845739,51.766351],[0.845436,51.766602],[0.846186,51.767017],[0.845945,51.767553],[0.845459,51.76746],[0.845696,51.768054],[0.845189,51.768028],[0.845465,51.768443],[0.847052,51.7682],[0.846896,51.767894]]],[[[0.86473,51.767776],[0.867103,51.768072],[0.867332,51.767851],[0.867466,51.7682],[0.868707,51.768044],[0.868285,51.767868],[0.868743,51.767739],[0.86925,51.768099],[0.869302,51.767847],[0.870146,51.767921],[0.871702,51.767229],[0.867305,51.767679],[0.866647,51.76795],[0.864467,51.767603],[0.861845,51.768204],[0.862478,51.768428],[0.86473,51.767776]]],[[[0.893606,51.766456],[0.890861,51.765918],[0.891102,51.765587],[0.890629,51.765817],[0.89053,51.765512],[0.889782,51.765523],[0.889851,51.765291],[0.889133,51.765685],[0.890034,51.76654],[0.890369,51.766365],[0.89006,51.766649],[0.890924,51.766648],[0.890973,51.766916],[0.890292,51.76688],[0.890962,51.767151],[0.890771,51.767315],[0.891664,51.767199],[0.890934,51.767561],[0.891815,51.767519],[0.890934,51.767587],[0.890474,51.768018],[0.89152,51.767908],[0.893606,51.766456]]],[[[0.889532,51.769203],[0.888721,51.769282],[0.889203,51.768805],[0.888578,51.76836],[0.88855,51.768664],[0.888068,51.768674],[0.888503,51.768958],[0.888035,51.769365],[0.888313,51.769353],[0.888505,51.769666],[0.888752,51.769424],[0.888954,51.769721],[0.889532,51.769203]]],[[[0.887379,51.769272],[0.887018,51.769046],[0.886734,51.76941],[0.886705,51.769158],[0.886352,51.769224],[0.886649,51.769426],[0.886059,51.769719],[0.886452,51.769709],[0.886198,51.770033],[0.886619,51.770043],[0.887009,51.77061],[0.887225,51.77007],[0.886661,51.769971],[0.887379,51.769272]]],[[[0.846462,51.772546],[0.846577,51.772194],[0.847857,51.771978],[0.847867,51.771701],[0.848237,51.771578],[0.846475,51.772075],[0.846354,51.772277],[0.845401,51.772112],[0.845659,51.7722],[0.845199,51.772339],[0.845284,51.772089],[0.844746,51.772079],[0.844648,51.772356],[0.845243,51.77245],[0.845107,51.772831],[0.845821,51.772554],[0.846462,51.772546]]],[[[0.851056,51.772412],[0.851802,51.772412],[0.850664,51.771868],[0.850963,51.771644],[0.851339,51.771848],[0.851277,51.771408],[0.851488,51.771562],[0.85183,51.771165],[0.851508,51.770606],[0.850273,51.770457],[0.849015,51.771005],[0.849455,51.771224],[0.850011,51.77217],[0.84961,51.772821],[0.850566,51.772816],[0.851056,51.772412]]],[[[0.857547,51.771505],[0.856992,51.771938],[0.857563,51.772546],[0.857496,51.773156],[0.85788,51.773147],[0.857547,51.771505]]],[[[0.844378,51.772401],[0.844289,51.773035],[0.844768,51.773054],[0.844433,51.773084],[0.844576,51.773496],[0.845026,51.773047],[0.844378,51.772401]]],[[[0.842132,51.77319],[0.840664,51.773552],[0.842277,51.773683],[0.842132,51.77319]]],[[[0.838525,51.77298],[0.839651,51.773208],[0.839834,51.772482],[0.840533,51.77225],[0.839983,51.772255],[0.840891,51.772018],[0.841104,51.77166],[0.841112,51.772305],[0.842518,51.77221],[0.843482,51.771103],[0.846809,51.771392],[0.84929,51.770184],[0.849244,51.769864],[0.84944,51.770066],[0.851621,51.769552],[0.851395,51.769288],[0.851719,51.769452],[0.853328,51.768751],[0.854195,51.76873],[0.856199,51.767655],[0.854069,51.76773],[0.852295,51.767383],[0.852341,51.767866],[0.851104,51.76725],[0.850095,51.767171],[0.848814,51.767523],[0.849061,51.76779],[0.848744,51.767739],[0.848325,51.76832],[0.848598,51.76858],[0.848253,51.768332],[0.846842,51.769106],[0.844849,51.769024],[0.844782,51.769265],[0.843975,51.7686],[0.843131,51.768847],[0.842751,51.76873],[0.843229,51.768679],[0.843052,51.768474],[0.840069,51.769683],[0.837212,51.769187],[0.836539,51.769806],[0.835628,51.769353],[0.834853,51.76952],[0.833491,51.769261],[0.833071,51.770046],[0.834507,51.770643],[0.834462,51.771009],[0.835176,51.771345],[0.835436,51.772058],[0.835877,51.771762],[0.837895,51.77314],[0.836966,51.773782],[0.837694,51.773804],[0.838525,51.77298]]],[[[0.88651,51.771841],[0.887738,51.772146],[0.886849,51.771504],[0.885911,51.772256],[0.887146,51.772651],[0.887542,51.77232],[0.88651,51.771841]]],[[[0.885864,51.772368],[0.886891,51.772966],[0.886737,51.772552],[0.885864,51.772368]]],[[[0.853581,51.772981],[0.854636,51.773472],[0.856189,51.773298],[0.855795,51.77201],[0.856383,51.771235],[0.856029,51.771065],[0.856638,51.770696],[0.856142,51.770609],[0.855895,51.769999],[0.856723,51.769911],[0.856883,51.769348],[0.856218,51.769423],[0.856174,51.769719],[0.856045,51.769478],[0.855198,51.769735],[0.855235,51.769961],[0.854935,51.769805],[0.854872,51.770115],[0.854573,51.769904],[0.854451,51.77034],[0.854148,51.770136],[0.852813,51.770506],[0.852026,51.771704],[0.852469,51.772266],[0.853117,51.772231],[0.852713,51.772724],[0.852,51.772707],[0.851545,51.773464],[0.852386,51.773671],[0.852446,51.774039],[0.853581,51.772981]]],[[[0.886164,51.773636],[0.885821,51.773383],[0.884733,51.773883],[0.885745,51.773163],[0.88534,51.773193],[0.885789,51.773129],[0.885665,51.773388],[0.885877,51.773327],[0.886191,51.773476],[0.88655,51.773215],[0.886074,51.77298],[0.886682,51.773162],[0.885853,51.772676],[0.88435,51.773708],[0.884701,51.774117],[0.884443,51.774387],[0.88487,51.774537],[0.886164,51.773636]]],[[[0.882071,51.776386],[0.881358,51.776597],[0.881781,51.77673],[0.882071,51.776386]]],[[[0.881439,51.776712],[0.88106,51.776985],[0.881643,51.776911],[0.881439,51.776712]]],[[[0.880862,51.77714],[0.880265,51.777443],[0.88062,51.777622],[0.881316,51.777232],[0.880862,51.77714]]],[[[0.880244,51.777536],[0.879664,51.777879],[0.880418,51.777812],[0.880244,51.777536]]],[[[0.87963,51.778033],[0.878828,51.778865],[0.880037,51.778099],[0.87963,51.778033]]],[[[0.878658,51.778953],[0.877012,51.779535],[0.873088,51.779835],[0.871654,51.780238],[0.871733,51.780511],[0.875992,51.78],[0.878658,51.778953]]],[[[0.844582,51.780398],[0.84509,51.781121],[0.846366,51.781796],[0.846932,51.78178],[0.844582,51.780398]]],[[[0.870389,51.780543],[0.864317,51.782366],[0.864817,51.782394],[0.870949,51.780693],[0.870389,51.780543]]],[[[0.850528,51.783134],[0.852086,51.783602],[0.853073,51.783545],[0.850528,51.783134]]],[[[0.863796,51.782573],[0.862042,51.782598],[0.861677,51.782869],[0.86007,51.782586],[0.858828,51.783201],[0.858611,51.783841],[0.859259,51.783775],[0.859218,51.783496],[0.863796,51.782573]]],[[[0.888285,51.76902],[0.887218,51.76892],[0.887634,51.769177],[0.887396,51.769741],[0.888285,51.76902]]],[[[0.84295,51.772819],[0.843031,51.772516],[0.842616,51.773264],[0.842307,51.773194],[0.842654,51.773366],[0.842768,51.77305],[0.843169,51.773274],[0.842944,51.772935],[0.843439,51.772924],[0.84295,51.772819]]]]}}]}