{"type":"FeatureCollection","features":[{"type":"Feature","properties":{"slug":"malvern-hills","gss_code":"E07000235","name":"Malvern Hills"},"geometry":{"type":"Polygon","coordinates":[[[-2.415633,52.367533],[-2.414919,52.367321],[-2.414987,52.366523],[-2.416155,52.364616],[-2.414996,52.362828],[-2.413353,52.361284],[-2.413314,52.360716],[-2.412695,52.360699],[-2.412585,52.360174],[-2.411968,52.360126],[-2.412251,52.360007],[-2.411789,52.359563],[-2.412074,52.358986],[-2.411682,52.358903],[-2.411753,52.357783],[-2.413995,52.355414],[-2.414019,52.35477],[-2.417581,52.352107],[-2.419525,52.351393],[-2.422069,52.349028],[-2.42208,52.346946],[-2.420961,52.345592],[-2.420407,52.343768],[-2.421526,52.343331],[-2.420693,52.342334],[-2.422724,52.338635],[-2.424949,52.33669],[-2.423669,52.336132],[-2.423295,52.335254],[-2.421188,52.333601],[-2.420992,52.33306],[-2.426097,52.332368],[-2.428563,52.330538],[-2.433068,52.329905],[-2.433654,52.328591],[-2.433395,52.3275],[-2.434904,52.326648],[-2.43651,52.324027],[-2.434084,52.322644],[-2.431466,52.32285],[-2.428474,52.322403],[-2.427165,52.32188],[-2.424074,52.322681],[-2.419942,52.322843],[-2.419612,52.32313],[-2.41815,52.32291],[-2.417481,52.322416],[-2.415661,52.322488],[-2.415087,52.323927],[-2.414222,52.324578],[-2.414156,52.325086],[-2.413363,52.325475],[-2.412235,52.324882],[-2.403412,52.324034],[-2.40301,52.32673],[-2.397788,52.324953],[-2.394677,52.321909],[-2.389537,52.321227],[-2.387574,52.322386],[-2.385239,52.322687],[-2.381062,52.324255],[-2.37944,52.324161],[-2.375841,52.325206],[-2.374797,52.325112],[-2.371747,52.326547],[-2.369816,52.326807],[-2.369123,52.326561],[-2.370204,52.325643],[-2.370347,52.323725],[-2.371324,52.323011],[-2.371357,52.322269],[-2.372341,52.321623],[-2.371971,52.320868],[-2.372237,52.320231],[-2.373198,52.319729],[-2.371238,52.317341],[-2.369621,52.317254],[-2.367331,52.31798],[-2.365897,52.3179],[-2.363283,52.314851],[-2.359455,52.315381],[-2.358194,52.316278],[-2.352822,52.318518],[-2.352126,52.319243],[-2.345486,52.320484],[-2.339691,52.320014],[-2.336466,52.31869],[-2.332041,52.319256],[-2.331258,52.319897],[-2.328944,52.320274],[-2.324171,52.323235],[-2.323889,52.323785],[-2.325689,52.324288],[-2.32466,52.32532],[-2.324475,52.326663],[-2.323329,52.327427],[-2.321962,52.330186],[-2.319681,52.33153],[-2.321957,52.332132],[-2.323405,52.333421],[-2.324452,52.333704],[-2.323829,52.335332],[-2.320878,52.33693],[-2.31825,52.337422],[-2.31655,52.338112],[-2.314398,52.33983],[-2.312707,52.339975],[-2.310932,52.34055],[-2.310122,52.340416],[-2.309086,52.339719],[-2.306412,52.339181],[-2.305264,52.337783],[-2.304833,52.335787],[-2.307081,52.336134],[-2.308642,52.335293],[-2.30533,52.335138],[-2.30615,52.333563],[-2.303877,52.332858],[-2.305287,52.332013],[-2.305252,52.331158],[-2.304671,52.330948],[-2.304525,52.329245],[-2.302708,52.328437],[-2.303292,52.328109],[-2.299164,52.32236],[-2.296576,52.323211],[-2.294579,52.32191],[-2.290275,52.323127],[-2.291361,52.324675],[-2.28756,52.32568],[-2.28029,52.326792],[-2.277911,52.32775],[-2.276915,52.327401],[-2.275283,52.328122],[-2.275624,52.328702],[-2.27389,52.328932],[-2.271938,52.326966],[-2.266415,52.323605],[-2.265121,52.320851],[-2.265384,52.319375],[-2.273839,52.311265],[-2.27489,52.30873],[-2.274983,52.304997],[-2.276047,52.301356],[-2.275712,52.297919],[-2.274817,52.295592],[-2.274899,52.292747],[-2.271253,52.286523],[-2.270389,52.282845],[-2.270686,52.2806],[-2.274226,52.276115],[-2.275111,52.272768],[-2.274862,52.271595],[-2.273975,52.270828],[-2.268586,52.268627],[-2.26628,52.268102],[-2.260489,52.26827],[-2.256125,52.267976],[-2.252201,52.26689],[-2.248137,52.263998],[-2.244106,52.260174],[-2.237918,52.257103],[-2.238131,52.256153],[-2.237329,52.255651],[-2.235627,52.252811],[-2.234914,52.252708],[-2.233879,52.251186],[-2.232073,52.250155],[-2.231332,52.248893],[-2.231625,52.247746],[-2.233371,52.245761],[-2.23575,52.241577],[-2.235352,52.240065],[-2.233562,52.238465],[-2.232639,52.237052],[-2.233017,52.236575],[-2.235997,52.235179],[-2.239587,52.234412],[-2.24083,52.233291],[-2.240642,52.232588],[-2.241796,52.232101],[-2.242213,52.230066],[-2.241739,52.227319],[-2.240792,52.225418],[-2.243272,52.221854],[-2.243986,52.219989],[-2.243538,52.217464],[-2.242665,52.216697],[-2.239649,52.215479],[-2.237749,52.214202],[-2.234886,52.211457],[-2.238219,52.210651],[-2.242291,52.208965],[-2.242544,52.209179],[-2.243023,52.208966],[-2.245673,52.211323],[-2.247982,52.210525],[-2.248494,52.210958],[-2.248857,52.210639],[-2.247756,52.208448],[-2.248784,52.207301],[-2.249435,52.207096],[-2.248911,52.206663],[-2.249185,52.206015],[-2.249789,52.205881],[-2.248799,52.204296],[-2.247247,52.204112],[-2.247022,52.20316],[-2.247566,52.202581],[-2.247096,52.201889],[-2.25091,52.199765],[-2.250245,52.197426],[-2.251418,52.196645],[-2.255003,52.196167],[-2.257077,52.196704],[-2.260532,52.196343],[-2.260019,52.195052],[-2.260395,52.194155],[-2.260437,52.192096],[-2.257358,52.192122],[-2.2581,52.191315],[-2.259473,52.191491],[-2.259283,52.191248],[-2.259946,52.191124],[-2.260015,52.190698],[-2.261235,52.190706],[-2.26208,52.189435],[-2.262299,52.185466],[-2.26292,52.185274],[-2.263205,52.184628],[-2.261422,52.184186],[-2.260866,52.182408],[-2.26176,52.181925],[-2.25299,52.183641],[-2.252621,52.183449],[-2.25379,52.182009],[-2.253262,52.181291],[-2.252715,52.181187],[-2.252953,52.180561],[-2.251252,52.180753],[-2.250827,52.181189],[-2.249468,52.180272],[-2.248932,52.178492],[-2.246589,52.176972],[-2.2467,52.176273],[-2.247147,52.176073],[-2.246315,52.175269],[-2.246894,52.17453],[-2.246379,52.174203],[-2.246997,52.173911],[-2.246268,52.173541],[-2.246771,52.173311],[-2.245575,52.172889],[-2.245343,52.171844],[-2.244228,52.171446],[-2.245405,52.171136],[-2.247346,52.169762],[-2.244185,52.168898],[-2.243424,52.169026],[-2.243046,52.16991],[-2.242113,52.17031],[-2.240629,52.169496],[-2.238907,52.169059],[-2.237297,52.169459],[-2.235172,52.169264],[-2.232714,52.169677],[-2.231513,52.168874],[-2.230201,52.16871],[-2.228686,52.167648],[-2.228168,52.165931],[-2.228261,52.164166],[-2.227495,52.163602],[-2.226743,52.163757],[-2.225716,52.164838],[-2.224046,52.165507],[-2.225389,52.166459],[-2.227434,52.166715],[-2.225875,52.168022],[-2.224909,52.168304],[-2.222045,52.168336],[-2.221079,52.16798],[-2.220466,52.167314],[-2.21968,52.165437],[-2.217769,52.163096],[-2.217602,52.161995],[-2.21635,52.161648],[-2.214318,52.161673],[-2.211036,52.162537],[-2.21168,52.163373],[-2.211555,52.164196],[-2.207413,52.164454],[-2.206444,52.165359],[-2.205325,52.165635],[-2.20469,52.166433],[-2.203408,52.166863],[-2.203369,52.167318],[-2.20169,52.167138],[-2.19971,52.164648],[-2.197239,52.162415],[-2.196285,52.158648],[-2.196868,52.155846],[-2.195964,52.154984],[-2.19461,52.15128],[-2.189576,52.14602],[-2.186029,52.145479],[-2.18013,52.145583],[-2.169464,52.144806],[-2.166691,52.145601],[-2.16788,52.144204],[-2.164922,52.142829],[-2.167744,52.141784],[-2.169233,52.140781],[-2.17174,52.140436],[-2.17243,52.137926],[-2.17355,52.136858],[-2.172839,52.135012],[-2.174477,52.135098],[-2.177265,52.134407],[-2.182527,52.132214],[-2.185707,52.130342],[-2.18809,52.130018],[-2.190614,52.130542],[-2.192149,52.130209],[-2.193727,52.129242],[-2.195297,52.126089],[-2.196406,52.124835],[-2.187626,52.122154],[-2.18393,52.119968],[-2.185815,52.117733],[-2.184611,52.117265],[-2.183052,52.116014],[-2.1827,52.115282],[-2.181496,52.115223],[-2.180928,52.11332],[-2.176419,52.112444],[-2.176621,52.110735],[-2.175916,52.110776],[-2.171837,52.108749],[-2.16927,52.108348],[-2.162613,52.109356],[-2.159674,52.10879],[-2.158758,52.107867],[-2.156807,52.107448],[-2.155227,52.107725],[-2.151846,52.107458],[-2.151706,52.105896],[-2.148754,52.103251],[-2.148794,52.099652],[-2.149549,52.099737],[-2.1512,52.096151],[-2.151728,52.094916],[-2.151652,52.093428],[-2.15534,52.093398],[-2.154823,52.090269],[-2.156243,52.088976],[-2.157105,52.085577],[-2.158319,52.08453],[-2.156791,52.082479],[-2.155811,52.076537],[-2.149757,52.076772],[-2.149978,52.075426],[-2.151292,52.074227],[-2.151035,52.073534],[-2.153355,52.071348],[-2.153201,52.069809],[-2.15383,52.069063],[-2.154056,52.066009],[-2.155036,52.063539],[-2.158128,52.061227],[-2.161358,52.060514],[-2.16556,52.060881],[-2.169953,52.059246],[-2.175392,52.058651],[-2.173505,52.0553],[-2.169734,52.05552],[-2.170061,52.050059],[-2.171067,52.049675],[-2.170784,52.049084],[-2.171369,52.047611],[-2.175505,52.04648],[-2.176981,52.045474],[-2.178165,52.043693],[-2.180409,52.042301],[-2.180679,52.041728],[-2.180549,52.035482],[-2.179764,52.034862],[-2.179158,52.033504],[-2.179397,52.031954],[-2.178109,52.029209],[-2.178561,52.028577],[-2.177592,52.027215],[-2.177572,52.026465],[-2.178313,52.025629],[-2.177127,52.023946],[-2.176906,52.022559],[-2.183052,52.019753],[-2.187683,52.01908],[-2.184066,52.013901],[-2.172135,52.008461],[-2.165518,52.004785],[-2.164128,52.0034],[-2.163555,52.001561],[-2.163728,51.998321],[-2.164004,51.996888],[-2.164727,51.996073],[-2.166583,51.995261],[-2.170266,51.99467],[-2.171737,51.994838],[-2.174907,51.996141],[-2.176029,51.997225],[-2.176626,51.997193],[-2.179454,51.999258],[-2.181106,51.999483],[-2.181503,51.999111],[-2.179846,51.996811],[-2.179426,51.994848],[-2.181702,51.991888],[-2.183693,51.990852],[-2.185084,51.990561],[-2.190364,51.991557],[-2.193659,51.993423],[-2.194414,51.993177],[-2.195202,51.994365],[-2.197098,51.994347],[-2.197201,51.995009],[-2.198413,51.995574],[-2.200463,51.995734],[-2.200828,51.994808],[-2.203046,51.995346],[-2.202886,51.996363],[-2.205643,51.996391],[-2.205596,51.995341],[-2.211689,51.996656],[-2.213436,51.996742],[-2.215675,51.995846],[-2.214446,51.995385],[-2.216951,51.994077],[-2.220613,51.995497],[-2.223302,51.992883],[-2.22443,51.992782],[-2.226398,51.990783],[-2.228982,51.990848],[-2.227806,51.988627],[-2.233171,51.986711],[-2.234043,51.985973],[-2.237632,51.980921],[-2.243311,51.975171],[-2.243583,51.974706],[-2.242861,51.974144],[-2.243969,51.972903],[-2.246237,51.971497],[-2.248906,51.968225],[-2.25111,51.968758],[-2.251823,51.967706],[-2.25136,51.966565],[-2.2565,51.967106],[-2.258691,51.967816],[-2.263619,51.967354],[-2.267766,51.968083],[-2.268452,51.968585],[-2.273646,51.969445],[-2.27697,51.969485],[-2.280562,51.970574],[-2.288291,51.970668],[-2.293303,51.969665],[-2.297242,51.967599],[-2.300433,51.966775],[-2.303703,51.968656],[-2.305788,51.970833],[-2.309465,51.970647],[-2.309048,51.972162],[-2.307927,51.972818],[-2.309264,51.973772],[-2.308624,51.974095],[-2.308777,51.974438],[-2.31262,51.976505],[-2.323696,51.975621],[-2.326539,51.975791],[-2.326882,51.976391],[-2.325325,51.976649],[-2.324685,51.978941],[-2.324118,51.978791],[-2.323304,51.98048],[-2.322597,51.980904],[-2.322449,51.982501],[-2.322922,51.984466],[-2.322329,51.986463],[-2.322328,51.988817],[-2.321807,51.989451],[-2.322035,51.989763],[-2.321165,51.990481],[-2.320657,51.992128],[-2.323256,51.996287],[-2.323494,51.997406],[-2.322826,51.997477],[-2.323513,51.999457],[-2.325657,51.999591],[-2.325793,52.000704],[-2.32471,52.003567],[-2.326109,52.005629],[-2.329423,52.006829],[-2.333045,52.007263],[-2.333809,52.007669],[-2.336337,52.007785],[-2.340493,52.00674],[-2.341903,52.008767],[-2.343054,52.009204],[-2.344001,52.00877],[-2.345687,52.010327],[-2.347574,52.01129],[-2.349271,52.011458],[-2.351062,52.013159],[-2.352543,52.013535],[-2.351856,52.015691],[-2.350467,52.016484],[-2.349376,52.017848],[-2.350979,52.020099],[-2.351379,52.021359],[-2.350823,52.022471],[-2.35205,52.024863],[-2.350267,52.030804],[-2.348163,52.031954],[-2.347533,52.033282],[-2.347984,52.03582],[-2.349918,52.036516],[-2.348514,52.037966],[-2.348269,52.040723],[-2.348874,52.048553],[-2.348379,52.049078],[-2.347118,52.049487],[-2.346984,52.051299],[-2.347412,52.05305],[-2.350082,52.053719],[-2.350211,52.054773],[-2.351548,52.056375],[-2.350854,52.057371],[-2.349687,52.057871],[-2.347455,52.061606],[-2.344377,52.061129],[-2.343214,52.062593],[-2.341463,52.063943],[-2.339425,52.068924],[-2.339261,52.069712],[-2.339911,52.071616],[-2.339195,52.074528],[-2.34005,52.075899],[-2.340504,52.078541],[-2.338473,52.080547],[-2.338729,52.082537],[-2.338089,52.086454],[-2.338504,52.087909],[-2.337963,52.089885],[-2.338502,52.092429],[-2.338298,52.095449],[-2.34037,52.096515],[-2.34078,52.096429],[-2.340458,52.096008],[-2.341106,52.0957],[-2.342988,52.095355],[-2.349118,52.095646],[-2.349585,52.099441],[-2.350437,52.100107],[-2.3515,52.101944],[-2.351386,52.102632],[-2.351814,52.102731],[-2.352147,52.103486],[-2.350656,52.103651],[-2.350129,52.104156],[-2.349989,52.106088],[-2.351588,52.109725],[-2.353658,52.112967],[-2.353799,52.113517],[-2.35267,52.113602],[-2.352631,52.114193],[-2.355602,52.121855],[-2.355393,52.12307],[-2.356204,52.12416],[-2.35609,52.127083],[-2.355548,52.128217],[-2.354448,52.12872],[-2.352771,52.128518],[-2.350536,52.129122],[-2.344608,52.132591],[-2.348363,52.136701],[-2.348547,52.138164],[-2.349565,52.139659],[-2.349686,52.141222],[-2.350173,52.140895],[-2.351835,52.142832],[-2.351772,52.144475],[-2.351402,52.144624],[-2.356454,52.14847],[-2.358722,52.151896],[-2.362525,52.151144],[-2.36515,52.150991],[-2.369695,52.152119],[-2.3717,52.15211],[-2.37265,52.152606],[-2.37586,52.15293],[-2.37806,52.154707],[-2.379384,52.155055],[-2.381271,52.154157],[-2.384919,52.153725],[-2.386314,52.15264],[-2.387933,52.152106],[-2.388688,52.150604],[-2.389942,52.150914],[-2.390429,52.15001],[-2.391804,52.149121],[-2.392486,52.147552],[-2.39403,52.146758],[-2.395253,52.146922],[-2.397006,52.147868],[-2.400163,52.14827],[-2.402291,52.147922],[-2.403645,52.147079],[-2.407107,52.145856],[-2.409644,52.145966],[-2.412344,52.145329],[-2.415004,52.145165],[-2.415339,52.14584],[-2.417691,52.147557],[-2.421468,52.149663],[-2.422371,52.151497],[-2.424706,52.153559],[-2.425077,52.154471],[-2.423218,52.155538],[-2.424199,52.15603],[-2.424918,52.157137],[-2.426992,52.15837],[-2.427285,52.160815],[-2.426291,52.160958],[-2.426464,52.161477],[-2.427846,52.16249],[-2.427551,52.162539],[-2.428167,52.163359],[-2.429092,52.1636],[-2.431072,52.165189],[-2.431797,52.165235],[-2.43172,52.166056],[-2.432884,52.167257],[-2.433539,52.167266],[-2.435182,52.168219],[-2.434617,52.169791],[-2.435407,52.170998],[-2.433094,52.172026],[-2.430559,52.171862],[-2.429131,52.172316],[-2.427324,52.172245],[-2.42653,52.172526],[-2.422071,52.172347],[-2.422351,52.173513],[-2.422954,52.173767],[-2.422831,52.174767],[-2.42363,52.174989],[-2.423883,52.175817],[-2.424465,52.176251],[-2.424954,52.176154],[-2.425086,52.176923],[-2.425479,52.177067],[-2.423246,52.17987],[-2.420303,52.180445],[-2.418955,52.181663],[-2.416649,52.182171],[-2.415068,52.183262],[-2.416165,52.185208],[-2.418116,52.185909],[-2.417915,52.186528],[-2.419218,52.187904],[-2.417701,52.189456],[-2.416041,52.189668],[-2.414688,52.190233],[-2.413782,52.191909],[-2.411097,52.193218],[-2.410382,52.195462],[-2.408665,52.19644],[-2.408994,52.198644],[-2.408605,52.198874],[-2.409081,52.19953],[-2.40865,52.199663],[-2.408352,52.200613],[-2.408586,52.201565],[-2.407623,52.20226],[-2.407894,52.202741],[-2.406892,52.203207],[-2.404983,52.202813],[-2.404967,52.202497],[-2.404085,52.202159],[-2.403343,52.202357],[-2.40324,52.201801],[-2.402382,52.201392],[-2.401802,52.201351],[-2.402009,52.201882],[-2.40057,52.201673],[-2.400384,52.2023],[-2.402217,52.20531],[-2.402659,52.20715],[-2.398705,52.206828],[-2.397416,52.205821],[-2.39629,52.205633],[-2.395195,52.206893],[-2.393477,52.207661],[-2.392484,52.208993],[-2.393163,52.210663],[-2.397213,52.212467],[-2.399858,52.214565],[-2.4017,52.215462],[-2.4016,52.217393],[-2.403702,52.21971],[-2.403984,52.221394],[-2.402932,52.221787],[-2.400676,52.221382],[-2.397995,52.221522],[-2.397476,52.221974],[-2.39837,52.22382],[-2.397587,52.224521],[-2.396486,52.224776],[-2.393635,52.224217],[-2.389678,52.222087],[-2.388202,52.221859],[-2.38681,52.222072],[-2.385417,52.222819],[-2.384048,52.224746],[-2.385733,52.226502],[-2.387163,52.226273],[-2.389457,52.227456],[-2.388926,52.22935],[-2.389319,52.229902],[-2.390292,52.230352],[-2.392068,52.230325],[-2.393288,52.231001],[-2.399043,52.231516],[-2.399404,52.231833],[-2.402092,52.23106],[-2.405311,52.231263],[-2.406902,52.230787],[-2.409373,52.230643],[-2.409791,52.23105],[-2.411126,52.23141],[-2.414243,52.231746],[-2.416749,52.233804],[-2.420152,52.23532],[-2.423071,52.237245],[-2.426325,52.236129],[-2.430154,52.236713],[-2.431909,52.236647],[-2.433098,52.237051],[-2.434624,52.236927],[-2.437205,52.237658],[-2.439202,52.23674],[-2.444125,52.235654],[-2.445158,52.236383],[-2.450568,52.236256],[-2.450911,52.236728],[-2.464978,52.234383],[-2.465701,52.235141],[-2.465645,52.236486],[-2.466291,52.236889],[-2.466503,52.237642],[-2.471219,52.240529],[-2.4733,52.241232],[-2.474702,52.241359],[-2.473649,52.250725],[-2.47259,52.252821],[-2.468099,52.256038],[-2.46768,52.255952],[-2.465087,52.25772],[-2.461833,52.258736],[-2.459764,52.260666],[-2.456927,52.261196],[-2.455126,52.262685],[-2.4529,52.263222],[-2.446514,52.263838],[-2.446612,52.264078],[-2.441671,52.265388],[-2.440477,52.266316],[-2.437877,52.266654],[-2.436927,52.26817],[-2.437066,52.268831],[-2.434337,52.269004],[-2.430767,52.270432],[-2.427996,52.27061],[-2.429837,52.271457],[-2.430621,52.272768],[-2.432155,52.273075],[-2.433189,52.273832],[-2.434385,52.275346],[-2.434103,52.275781],[-2.438181,52.276259],[-2.438449,52.277099],[-2.440189,52.277444],[-2.440238,52.278755],[-2.441762,52.278399],[-2.4441,52.278565],[-2.448153,52.280648],[-2.451262,52.282811],[-2.451619,52.283554],[-2.451403,52.285083],[-2.455836,52.284844],[-2.463576,52.285192],[-2.465309,52.284104],[-2.467455,52.283327],[-2.472211,52.285588],[-2.475961,52.285637],[-2.483382,52.284375],[-2.483605,52.283587],[-2.485016,52.282319],[-2.48642,52.281881],[-2.487033,52.281337],[-2.48832,52.281373],[-2.489167,52.280955],[-2.492006,52.278176],[-2.4937,52.278372],[-2.495667,52.277606],[-2.497232,52.277387],[-2.500774,52.277755],[-2.503113,52.27745],[-2.503562,52.275544],[-2.504252,52.275113],[-2.503996,52.272113],[-2.500983,52.269248],[-2.499318,52.268604],[-2.498512,52.267412],[-2.497648,52.267471],[-2.496113,52.26657],[-2.493541,52.264022],[-2.493339,52.263015],[-2.493901,52.261807],[-2.49464,52.261435],[-2.495671,52.256891],[-2.501344,52.257457],[-2.50671,52.2566],[-2.51019,52.256456],[-2.513642,52.255732],[-2.515375,52.256016],[-2.51844,52.254296],[-2.520612,52.252362],[-2.522459,52.251735],[-2.522543,52.250995],[-2.523521,52.249293],[-2.525202,52.248832],[-2.525896,52.248167],[-2.527401,52.249165],[-2.52891,52.249656],[-2.529237,52.250446],[-2.529692,52.250412],[-2.529024,52.251717],[-2.531673,52.253277],[-2.534128,52.251291],[-2.534556,52.25144],[-2.535813,52.250767],[-2.539016,52.251529],[-2.538978,52.252607],[-2.539713,52.253073],[-2.541088,52.253021],[-2.547949,52.249698],[-2.552501,52.251281],[-2.552701,52.252363],[-2.553109,52.252475],[-2.554592,52.251997],[-2.559649,52.251945],[-2.567371,52.250141],[-2.569162,52.250833],[-2.569985,52.252816],[-2.574206,52.252731],[-2.574573,52.249625],[-2.576141,52.247753],[-2.580655,52.248305],[-2.585439,52.248298],[-2.587303,52.247763],[-2.588678,52.246275],[-2.589664,52.245802],[-2.596468,52.244258],[-2.599842,52.243798],[-2.601914,52.243858],[-2.602641,52.243272],[-2.604374,52.242822],[-2.608529,52.243762],[-2.610252,52.243701],[-2.610726,52.243351],[-2.610655,52.242599],[-2.614908,52.2418],[-2.616272,52.243348],[-2.620472,52.242043],[-2.621099,52.242689],[-2.621595,52.242],[-2.628871,52.240349],[-2.630515,52.243706],[-2.630739,52.243934],[-2.631461,52.243786],[-2.634266,52.247231],[-2.632843,52.247689],[-2.633245,52.249688],[-2.634233,52.250755],[-2.631106,52.252938],[-2.63146,52.253244],[-2.630652,52.253666],[-2.63136,52.254198],[-2.63088,52.257453],[-2.627877,52.260204],[-2.627797,52.260752],[-2.628297,52.261165],[-2.623006,52.262235],[-2.616264,52.264691],[-2.614395,52.265716],[-2.612494,52.267792],[-2.609951,52.269305],[-2.610613,52.270302],[-2.610627,52.271244],[-2.607814,52.273028],[-2.60673,52.275665],[-2.604386,52.275495],[-2.603329,52.276172],[-2.603613,52.276448],[-2.602955,52.276433],[-2.601878,52.277005],[-2.601661,52.276488],[-2.599106,52.276086],[-2.596449,52.276593],[-2.59627,52.277314],[-2.596934,52.278188],[-2.598253,52.278203],[-2.598382,52.27892],[-2.599554,52.279848],[-2.597507,52.280346],[-2.597931,52.281618],[-2.599724,52.28151],[-2.600439,52.281825],[-2.598967,52.283542],[-2.600525,52.284981],[-2.600361,52.285625],[-2.602018,52.285487],[-2.604307,52.286641],[-2.612629,52.286767],[-2.61433,52.286484],[-2.61671,52.285303],[-2.616363,52.284731],[-2.616634,52.284082],[-2.616053,52.283987],[-2.616542,52.283215],[-2.616304,52.282972],[-2.618305,52.282197],[-2.620601,52.282849],[-2.623191,52.284603],[-2.623402,52.287043],[-2.624882,52.287577],[-2.626219,52.288862],[-2.62691,52.288277],[-2.629477,52.287226],[-2.631667,52.287041],[-2.632383,52.287283],[-2.633794,52.286416],[-2.635044,52.28609],[-2.63988,52.286311],[-2.644248,52.2902],[-2.644631,52.292181],[-2.644241,52.293701],[-2.648174,52.293868],[-2.652568,52.295285],[-2.655991,52.299075],[-2.661087,52.30031],[-2.661127,52.301062],[-2.661663,52.301428],[-2.661195,52.301927],[-2.661577,52.30223],[-2.662144,52.30206],[-2.663207,52.303951],[-2.661623,52.304609],[-2.661602,52.304873],[-2.659354,52.305379],[-2.658574,52.305251],[-2.658519,52.304341],[-2.656518,52.305141],[-2.653773,52.30521],[-2.652789,52.305786],[-2.647554,52.305281],[-2.645378,52.306199],[-2.643226,52.308178],[-2.63876,52.307696],[-2.637257,52.308148],[-2.636325,52.308953],[-2.633833,52.307396],[-2.633337,52.306069],[-2.632445,52.305641],[-2.631656,52.305686],[-2.629717,52.306658],[-2.626929,52.306128],[-2.623114,52.306463],[-2.619074,52.305632],[-2.618267,52.306035],[-2.618095,52.306947],[-2.617302,52.307824],[-2.616056,52.307983],[-2.614639,52.307645],[-2.613029,52.306633],[-2.610001,52.306281],[-2.605812,52.307639],[-2.602792,52.309375],[-2.600525,52.310198],[-2.595089,52.313886],[-2.589803,52.313192],[-2.587239,52.313524],[-2.5845,52.313172],[-2.582425,52.315069],[-2.579949,52.316519],[-2.578203,52.316914],[-2.57641,52.316762],[-2.574897,52.317573],[-2.574123,52.31754],[-2.570421,52.315101],[-2.567911,52.314478],[-2.566439,52.313175],[-2.564699,52.31249],[-2.563756,52.311436],[-2.562575,52.31109],[-2.562492,52.312329],[-2.561921,52.312471],[-2.563488,52.313425],[-2.563467,52.31389],[-2.562277,52.314477],[-2.561941,52.315386],[-2.562381,52.315684],[-2.562286,52.31653],[-2.562766,52.317224],[-2.563928,52.317495],[-2.564736,52.318857],[-2.563992,52.319401],[-2.564153,52.320279],[-2.56338,52.32057],[-2.562777,52.321429],[-2.56395,52.322437],[-2.563948,52.32289],[-2.562701,52.323701],[-2.562645,52.324569],[-2.561616,52.32516],[-2.56122,52.325951],[-2.561905,52.327218],[-2.56087,52.329834],[-2.561681,52.331417],[-2.562357,52.331872],[-2.562219,52.333108],[-2.560603,52.333456],[-2.559355,52.334292],[-2.557009,52.335043],[-2.555505,52.334369],[-2.554313,52.334734],[-2.551219,52.337086],[-2.549326,52.337205],[-2.548501,52.33858],[-2.547162,52.339288],[-2.546811,52.339891],[-2.540965,52.341933],[-2.538994,52.343144],[-2.53915,52.344139],[-2.53561,52.344317],[-2.534145,52.344104],[-2.5337,52.343676],[-2.531467,52.343379],[-2.529715,52.342635],[-2.526816,52.342491],[-2.525465,52.34211],[-2.524992,52.3424],[-2.523964,52.341852],[-2.521907,52.341848],[-2.517782,52.338622],[-2.516391,52.337984],[-2.513497,52.337734],[-2.512129,52.33711],[-2.511343,52.336256],[-2.50862,52.334751],[-2.50841,52.333257],[-2.509074,52.332438],[-2.510628,52.332553],[-2.511728,52.332002],[-2.512592,52.33232],[-2.513096,52.331202],[-2.513911,52.330771],[-2.513205,52.329214],[-2.509981,52.32951],[-2.507835,52.329053],[-2.506999,52.328279],[-2.505734,52.328073],[-2.503774,52.328466],[-2.502945,52.329],[-2.49804,52.329077],[-2.497913,52.329393],[-2.49622,52.329298],[-2.495236,52.329682],[-2.494729,52.329692],[-2.494373,52.329314],[-2.491064,52.329322],[-2.490195,52.329456],[-2.488051,52.330629],[-2.482792,52.331174],[-2.482877,52.331411],[-2.48238,52.33152],[-2.481796,52.331078],[-2.481408,52.331693],[-2.479858,52.332597],[-2.480112,52.333828],[-2.481012,52.334413],[-2.48107,52.335856],[-2.478382,52.337938],[-2.478221,52.338422],[-2.479658,52.340211],[-2.482103,52.341624],[-2.484354,52.34456],[-2.483801,52.346427],[-2.483295,52.346597],[-2.482942,52.347543],[-2.483416,52.347637],[-2.482843,52.348924],[-2.481631,52.349518],[-2.481792,52.35112],[-2.483481,52.352194],[-2.483792,52.353184],[-2.48588,52.353834],[-2.486639,52.353788],[-2.487723,52.354312],[-2.488383,52.355402],[-2.485161,52.356256],[-2.486109,52.358338],[-2.486771,52.358866],[-2.483892,52.360563],[-2.482773,52.36005],[-2.479997,52.360282],[-2.47912,52.36008],[-2.478373,52.360808],[-2.477919,52.360116],[-2.475696,52.359748],[-2.474041,52.360714],[-2.473912,52.361039],[-2.474535,52.361563],[-2.473439,52.361987],[-2.473395,52.362811],[-2.47625,52.365455],[-2.474749,52.36718],[-2.473995,52.367158],[-2.473642,52.366291],[-2.47277,52.36596],[-2.470876,52.366359],[-2.469285,52.366313],[-2.46912,52.366022],[-2.469831,52.365498],[-2.469058,52.364772],[-2.467793,52.364559],[-2.464045,52.365101],[-2.463443,52.366531],[-2.462773,52.36701],[-2.46084,52.367574],[-2.45836,52.367227],[-2.458234,52.367781],[-2.45755,52.36785],[-2.456236,52.367414],[-2.454944,52.367934],[-2.451565,52.367538],[-2.449111,52.367666],[-2.446988,52.367185],[-2.446529,52.367429],[-2.445505,52.367111],[-2.440619,52.366979],[-2.435458,52.366266],[-2.431276,52.367191],[-2.428772,52.366752],[-2.426042,52.365822],[-2.424478,52.366342],[-2.422847,52.366241],[-2.421885,52.367345],[-2.420252,52.368079],[-2.418141,52.368024],[-2.416161,52.368547],[-2.414696,52.368248],[-2.415469,52.368057],[-2.415633,52.367533]]]}}]}