{"type":"FeatureCollection","features":[{"type":"Feature","properties":{"slug":"manchester","gss_code":"E08000003","name":"Manchester"},"geometry":{"type":"Polygon","coordinates":[[[-2.238449,53.538792],[-2.234131,53.539195],[-2.233513,53.540165],[-2.228862,53.540692],[-2.22776,53.541581],[-2.220783,53.542676],[-2.219706,53.543286],[-2.21946,53.54384],[-2.218725,53.543907],[-2.21781,53.543464],[-2.217694,53.542415],[-2.213065,53.542158],[-2.210921,53.540768],[-2.208536,53.538443],[-2.207545,53.538481],[-2.207124,53.538195],[-2.20565,53.536898],[-2.206928,53.535801],[-2.206771,53.534213],[-2.205812,53.533085],[-2.204509,53.532498],[-2.200583,53.53176],[-2.193877,53.53164],[-2.186014,53.529059],[-2.172116,53.527115],[-2.172137,53.527806],[-2.170219,53.527746],[-2.170501,53.523957],[-2.169147,53.523585],[-2.164791,53.520166],[-2.159188,53.522127],[-2.15628,53.518846],[-2.154761,53.518033],[-2.156236,53.515809],[-2.156457,53.516294],[-2.158166,53.515396],[-2.158886,53.514551],[-2.160393,53.513981],[-2.160228,53.513667],[-2.16083,53.513345],[-2.160417,53.513053],[-2.161166,53.512875],[-2.163019,53.512908],[-2.164399,53.513594],[-2.167084,53.513377],[-2.168605,53.513577],[-2.171422,53.513167],[-2.171575,53.512562],[-2.17263,53.512394],[-2.173026,53.512002],[-2.173072,53.512318],[-2.173476,53.512279],[-2.173279,53.511857],[-2.174081,53.510571],[-2.17357,53.510396],[-2.173876,53.510044],[-2.174307,53.510133],[-2.173555,53.509813],[-2.174067,53.509471],[-2.174443,53.50969],[-2.174255,53.509033],[-2.175646,53.508072],[-2.17563,53.507589],[-2.176744,53.507009],[-2.178266,53.506768],[-2.17871,53.50585],[-2.177898,53.505452],[-2.176779,53.505502],[-2.176553,53.505225],[-2.177748,53.504982],[-2.175513,53.50265],[-2.17087,53.503145],[-2.172602,53.50244],[-2.168537,53.500999],[-2.165931,53.498983],[-2.164376,53.499521],[-2.161865,53.498326],[-2.161644,53.49742],[-2.162915,53.496981],[-2.162831,53.496745],[-2.163412,53.496779],[-2.163237,53.496033],[-2.164019,53.494707],[-2.163588,53.493688],[-2.163933,53.492944],[-2.16303,53.492849],[-2.16397,53.491397],[-2.165969,53.491573],[-2.166638,53.490858],[-2.16606,53.489714],[-2.166227,53.488868],[-2.169027,53.488523],[-2.168925,53.487181],[-2.169664,53.486782],[-2.169537,53.48608],[-2.169026,53.486125],[-2.168885,53.485759],[-2.169218,53.48573],[-2.168482,53.482933],[-2.167537,53.481096],[-2.167689,53.480111],[-2.168064,53.480088],[-2.165969,53.479557],[-2.165438,53.477258],[-2.165011,53.476897],[-2.162232,53.476294],[-2.161565,53.47485],[-2.155924,53.475319],[-2.155433,53.474444],[-2.150661,53.472866],[-2.150128,53.472326],[-2.149894,53.470913],[-2.147848,53.469043],[-2.146863,53.467498],[-2.147925,53.466626],[-2.14785,53.465786],[-2.149145,53.465155],[-2.149973,53.463711],[-2.152783,53.463247],[-2.152321,53.462462],[-2.151975,53.462536],[-2.150173,53.46079],[-2.149017,53.460582],[-2.149213,53.460325],[-2.150775,53.460214],[-2.149241,53.45941],[-2.150279,53.457942],[-2.152119,53.457721],[-2.160364,53.454283],[-2.159877,53.453345],[-2.161694,53.453145],[-2.161282,53.45182],[-2.166044,53.453648],[-2.167412,53.449417],[-2.17288,53.448001],[-2.171964,53.447262],[-2.17395,53.443862],[-2.175293,53.434365],[-2.175845,53.434333],[-2.176755,53.433016],[-2.177802,53.433699],[-2.179045,53.433994],[-2.179012,53.434278],[-2.180087,53.434371],[-2.179814,53.434609],[-2.180204,53.434786],[-2.183909,53.435199],[-2.184192,53.435617],[-2.185213,53.435667],[-2.185646,53.436094],[-2.186595,53.436001],[-2.187385,53.436296],[-2.187432,53.436668],[-2.18854,53.436653],[-2.187136,53.435228],[-2.188702,53.434873],[-2.191352,53.435128],[-2.193076,53.429248],[-2.193141,53.427653],[-2.196898,53.428109],[-2.199065,53.427044],[-2.20186,53.423622],[-2.2045,53.422176],[-2.204929,53.422367],[-2.207693,53.42008],[-2.206219,53.420104],[-2.206493,53.418976],[-2.208426,53.419159],[-2.20967,53.417944],[-2.213428,53.418915],[-2.2146,53.413241],[-2.215414,53.411391],[-2.214533,53.41105],[-2.215476,53.41089],[-2.214973,53.409707],[-2.212595,53.406968],[-2.219474,53.405052],[-2.219326,53.403964],[-2.220128,53.402378],[-2.222668,53.401176],[-2.224856,53.401379],[-2.227851,53.400855],[-2.236042,53.401065],[-2.238143,53.400822],[-2.240605,53.399789],[-2.242537,53.399475],[-2.242544,53.397778],[-2.246828,53.39606],[-2.244406,53.394081],[-2.245985,53.393821],[-2.246025,53.391383],[-2.244467,53.391337],[-2.243914,53.390401],[-2.245734,53.390239],[-2.246222,53.38783],[-2.242625,53.387691],[-2.242434,53.385662],[-2.242985,53.384962],[-2.242441,53.38399],[-2.24307,53.383025],[-2.242607,53.382553],[-2.242878,53.382269],[-2.241952,53.382011],[-2.242097,53.381718],[-2.240927,53.380595],[-2.241342,53.380102],[-2.241278,53.37882],[-2.242107,53.377969],[-2.24132,53.3761],[-2.241679,53.375606],[-2.241461,53.374868],[-2.240266,53.374027],[-2.239895,53.373043],[-2.240475,53.372694],[-2.239009,53.372131],[-2.238676,53.370799],[-2.236933,53.370197],[-2.24079,53.359574],[-2.244143,53.359779],[-2.244193,53.361044],[-2.245205,53.361139],[-2.249592,53.360592],[-2.254098,53.360854],[-2.256447,53.360677],[-2.258937,53.359461],[-2.258041,53.357044],[-2.261103,53.356141],[-2.264612,53.353979],[-2.26392,53.353676],[-2.264194,53.352979],[-2.266848,53.351711],[-2.267077,53.350573],[-2.271808,53.350699],[-2.273344,53.350376],[-2.278364,53.348616],[-2.28064,53.345969],[-2.284636,53.346508],[-2.286705,53.345528],[-2.285867,53.345019],[-2.287933,53.343089],[-2.290054,53.342292],[-2.291279,53.34302],[-2.294038,53.343066],[-2.294481,53.342807],[-2.295816,53.343044],[-2.296727,53.342056],[-2.29786,53.341901],[-2.301327,53.340122],[-2.301662,53.340224],[-2.302836,53.340993],[-2.297459,53.34381],[-2.298132,53.34443],[-2.296433,53.344942],[-2.296704,53.346039],[-2.298307,53.346675],[-2.297013,53.348647],[-2.298201,53.349097],[-2.299138,53.349001],[-2.298567,53.349699],[-2.298955,53.349951],[-2.299915,53.349869],[-2.301455,53.349045],[-2.301376,53.35033],[-2.30208,53.350683],[-2.303462,53.350649],[-2.304295,53.351351],[-2.304545,53.352334],[-2.305444,53.352676],[-2.305565,53.353126],[-2.307911,53.353529],[-2.309448,53.354422],[-2.312229,53.354788],[-2.312714,53.356073],[-2.314347,53.356791],[-2.314012,53.35743],[-2.306039,53.358382],[-2.300085,53.360007],[-2.298595,53.360825],[-2.296236,53.363124],[-2.292664,53.370269],[-2.290563,53.372705],[-2.290117,53.372701],[-2.285665,53.376245],[-2.287221,53.376347],[-2.288585,53.376893],[-2.292683,53.380801],[-2.29421,53.381714],[-2.296547,53.382252],[-2.299874,53.384331],[-2.300215,53.384987],[-2.299148,53.386099],[-2.299762,53.387013],[-2.299619,53.387664],[-2.299993,53.388199],[-2.299715,53.388467],[-2.300372,53.388994],[-2.300134,53.389399],[-2.300483,53.389475],[-2.29988,53.389818],[-2.300152,53.392154],[-2.303593,53.395054],[-2.305013,53.397088],[-2.30734,53.397415],[-2.319919,53.411624],[-2.315858,53.410896],[-2.312712,53.409823],[-2.307245,53.409786],[-2.305902,53.410057],[-2.303579,53.409584],[-2.300693,53.40976],[-2.297716,53.408362],[-2.297271,53.411004],[-2.296525,53.411877],[-2.293943,53.413582],[-2.290905,53.4142],[-2.288885,53.415378],[-2.288132,53.415431],[-2.287263,53.414919],[-2.284509,53.416138],[-2.283087,53.416023],[-2.281545,53.415284],[-2.277843,53.415475],[-2.278423,53.417534],[-2.278194,53.418314],[-2.276392,53.418998],[-2.275998,53.419388],[-2.276442,53.41965],[-2.275441,53.419406],[-2.273621,53.422501],[-2.27565,53.423295],[-2.280629,53.42392],[-2.283652,53.425008],[-2.285331,53.427243],[-2.285995,53.429335],[-2.289103,53.432038],[-2.293277,53.432676],[-2.296031,53.432471],[-2.299866,53.433434],[-2.300201,53.436348],[-2.299699,53.437325],[-2.295569,53.435867],[-2.294304,53.436062],[-2.295439,53.438799],[-2.291493,53.439211],[-2.289871,53.441289],[-2.291506,53.44313],[-2.29326,53.443626],[-2.293129,53.44445],[-2.29288,53.444334],[-2.291812,53.44538],[-2.289649,53.445077],[-2.286212,53.449121],[-2.279756,53.449197],[-2.27938,53.450185],[-2.271466,53.450732],[-2.258187,53.458825],[-2.253687,53.459946],[-2.253938,53.460507],[-2.253246,53.460721],[-2.253502,53.461245],[-2.253022,53.461338],[-2.253722,53.46273],[-2.2559,53.462175],[-2.257919,53.462384],[-2.259811,53.465333],[-2.262702,53.467435],[-2.264572,53.467888],[-2.265114,53.468471],[-2.264565,53.46877],[-2.265707,53.469733],[-2.268161,53.469707],[-2.265096,53.472511],[-2.26532,53.472729],[-2.264056,53.473638],[-2.262678,53.476733],[-2.260113,53.477839],[-2.255787,53.480613],[-2.248938,53.483207],[-2.245638,53.48514],[-2.24526,53.486737],[-2.248645,53.488241],[-2.249107,53.489316],[-2.250488,53.490085],[-2.250676,53.492152],[-2.251628,53.492975],[-2.253482,53.493471],[-2.252504,53.495323],[-2.254856,53.497343],[-2.254019,53.497685],[-2.255423,53.499119],[-2.254293,53.499597],[-2.254954,53.500371],[-2.252372,53.50286],[-2.252674,53.503141],[-2.251533,53.5039],[-2.247076,53.502391],[-2.246566,53.503851],[-2.245336,53.504911],[-2.245766,53.506469],[-2.248856,53.507128],[-2.248539,53.507754],[-2.250327,53.508049],[-2.249213,53.509531],[-2.248081,53.509421],[-2.246574,53.510885],[-2.246473,53.51159],[-2.245227,53.512157],[-2.246915,53.514324],[-2.250234,53.516304],[-2.256966,53.517946],[-2.256655,53.519697],[-2.256236,53.519955],[-2.256491,53.520259],[-2.254222,53.520667],[-2.254414,53.521667],[-2.253419,53.521809],[-2.253497,53.522446],[-2.252867,53.522495],[-2.253477,53.524253],[-2.251455,53.524016],[-2.251785,53.525761],[-2.248805,53.524806],[-2.246645,53.529236],[-2.256756,53.527168],[-2.26248,53.525],[-2.264114,53.52469],[-2.265848,53.527003],[-2.266023,53.530233],[-2.267398,53.5338],[-2.268297,53.534972],[-2.267765,53.535237],[-2.26838,53.535342],[-2.268644,53.535923],[-2.26846,53.537102],[-2.267525,53.538044],[-2.258759,53.543155],[-2.253024,53.543987],[-2.251737,53.544609],[-2.248021,53.54416],[-2.239358,53.54008],[-2.238449,53.538792]]]}}]}