{"type":"FeatureCollection","features":[{"type":"Feature","properties":{"slug":"mansfield","gss_code":"E07000174","name":"Mansfield"},"geometry":{"type":"Polygon","coordinates":[[[-1.098287,53.232566],[-1.095587,53.23256],[-1.094999,53.231666],[-1.094764,53.228614],[-1.095548,53.227097],[-1.09732,53.219543],[-1.102854,53.219728],[-1.10394,53.219249],[-1.103592,53.216828],[-1.103891,53.212951],[-1.104552,53.210507],[-1.104989,53.210348],[-1.104247,53.208877],[-1.113327,53.196485],[-1.115714,53.194673],[-1.120068,53.192206],[-1.124844,53.191187],[-1.12784,53.190074],[-1.127742,53.189687],[-1.136119,53.188684],[-1.138801,53.187862],[-1.140058,53.187082],[-1.141916,53.185009],[-1.147932,53.180152],[-1.152984,53.175326],[-1.151548,53.172062],[-1.132479,53.162827],[-1.131653,53.162907],[-1.12868,53.159541],[-1.126135,53.157396],[-1.11678,53.153668],[-1.111056,53.153428],[-1.111158,53.152829],[-1.111955,53.152374],[-1.11415,53.151618],[-1.118054,53.149357],[-1.122211,53.147976],[-1.127453,53.144947],[-1.130141,53.141618],[-1.129971,53.140271],[-1.128743,53.138984],[-1.129928,53.137921],[-1.130256,53.135948],[-1.1272,53.134794],[-1.128584,53.13275],[-1.126889,53.132132],[-1.127157,53.130785],[-1.126266,53.128364],[-1.126254,53.126885],[-1.127293,53.125386],[-1.127242,53.124498],[-1.120217,53.119081],[-1.125583,53.117528],[-1.127641,53.118548],[-1.130816,53.119568],[-1.134481,53.119227],[-1.136296,53.118557],[-1.1369,53.119481],[-1.14044,53.119906],[-1.1435,53.121396],[-1.147027,53.121946],[-1.150352,53.121391],[-1.152712,53.120514],[-1.15853,53.119787],[-1.160947,53.119097],[-1.161159,53.119455],[-1.165384,53.117982],[-1.1676,53.11597],[-1.169121,53.115284],[-1.177891,53.11481],[-1.182988,53.115175],[-1.185852,53.115809],[-1.186447,53.117323],[-1.188467,53.119737],[-1.193781,53.119907],[-1.198843,53.12177],[-1.20045,53.121733],[-1.201769,53.122504],[-1.202487,53.124464],[-1.210587,53.125918],[-1.219349,53.129077],[-1.220293,53.129667],[-1.222932,53.130301],[-1.225223,53.132072],[-1.2293,53.134171],[-1.237915,53.13966],[-1.239918,53.139587],[-1.23715,53.146304],[-1.237821,53.148761],[-1.239848,53.148715],[-1.240181,53.151241],[-1.240983,53.153096],[-1.243753,53.154203],[-1.247523,53.153044],[-1.251276,53.154379],[-1.255324,53.154616],[-1.256842,53.156386],[-1.257022,53.160157],[-1.257995,53.161328],[-1.258818,53.163736],[-1.260068,53.164367],[-1.254678,53.164773],[-1.253754,53.165179],[-1.253666,53.165602],[-1.253172,53.165518],[-1.253396,53.165887],[-1.252367,53.166238],[-1.252904,53.166936],[-1.251692,53.167266],[-1.249848,53.168553],[-1.250231,53.168816],[-1.249456,53.168961],[-1.249672,53.169272],[-1.249071,53.169964],[-1.24949,53.170902],[-1.248235,53.171651],[-1.246309,53.172119],[-1.244606,53.173311],[-1.24527,53.175214],[-1.245759,53.175385],[-1.243671,53.176298],[-1.243332,53.177018],[-1.241689,53.178149],[-1.238765,53.17908],[-1.237801,53.178932],[-1.237419,53.179173],[-1.236182,53.178847],[-1.236202,53.178479],[-1.234562,53.178245],[-1.234012,53.178458],[-1.231989,53.178136],[-1.229124,53.178852],[-1.226733,53.178686],[-1.222595,53.18016],[-1.220948,53.179572],[-1.221039,53.179156],[-1.220465,53.178786],[-1.219035,53.179116],[-1.218398,53.178929],[-1.215661,53.180907],[-1.213422,53.180909],[-1.212808,53.180632],[-1.212264,53.181027],[-1.209401,53.181121],[-1.204292,53.182358],[-1.201192,53.182429],[-1.200845,53.18274],[-1.198727,53.183029],[-1.199342,53.183376],[-1.196988,53.184782],[-1.195325,53.187014],[-1.195117,53.189416],[-1.195863,53.192418],[-1.196828,53.193563],[-1.197252,53.195176],[-1.201589,53.198813],[-1.201507,53.203015],[-1.200968,53.203963],[-1.202193,53.206798],[-1.201815,53.207061],[-1.202842,53.208369],[-1.204816,53.208277],[-1.20586,53.210029],[-1.205681,53.210463],[-1.208205,53.21171],[-1.208462,53.212684],[-1.209028,53.212546],[-1.210868,53.215277],[-1.211072,53.215779],[-1.209413,53.217687],[-1.206608,53.216628],[-1.202716,53.216659],[-1.202237,53.216117],[-1.196933,53.21678],[-1.196788,53.217165],[-1.18857,53.218396],[-1.188266,53.218716],[-1.181557,53.21868],[-1.179133,53.219134],[-1.175769,53.219227],[-1.171121,53.218959],[-1.161753,53.221545],[-1.156896,53.222299],[-1.146601,53.224963],[-1.139788,53.225775],[-1.132597,53.225734],[-1.123674,53.224673],[-1.122106,53.225566],[-1.123067,53.226709],[-1.122082,53.230856],[-1.11969,53.231041],[-1.119728,53.232084],[-1.116446,53.231837],[-1.111459,53.23044],[-1.108853,53.232639],[-1.104984,53.235123],[-1.103296,53.235607],[-1.102146,53.235622],[-1.101257,53.235002],[-1.099492,53.234812],[-1.099233,53.234133],[-1.098295,53.234091],[-1.098287,53.232566]]]}}]}