{"type":"FeatureCollection","features":[{"type":"Feature","properties":{"slug":"medway","gss_code":"E06000035","name":"Medway"},"geometry":{"type":"MultiPolygon","coordinates":[[[[0.621506,51.387599],[0.621254,51.388051],[0.621771,51.38781],[0.621506,51.387599]]],[[[0.618163,51.387734],[0.61881,51.388208],[0.618812,51.387737],[0.618163,51.387734]]],[[[0.620713,51.388128],[0.619908,51.388337],[0.620291,51.388456],[0.620713,51.388128]]],[[[0.620958,51.388254],[0.620333,51.38848],[0.620114,51.388452],[0.620654,51.388563],[0.621142,51.388509],[0.620958,51.388254]]],[[[0.623518,51.388335],[0.623494,51.387725],[0.622937,51.387758],[0.623221,51.387441],[0.62251,51.387402],[0.622728,51.38853],[0.623518,51.388335]]],[[[0.621921,51.388124],[0.621267,51.38833],[0.621483,51.388604],[0.621921,51.388124]]],[[[0.619409,51.387709],[0.619088,51.388042],[0.619834,51.388796],[0.619604,51.388541],[0.619875,51.388306],[0.619345,51.388285],[0.619409,51.387709]]],[[[0.622184,51.388927],[0.622551,51.388605],[0.622391,51.387771],[0.621671,51.387958],[0.62225,51.388001],[0.62202,51.388665],[0.62007,51.388553],[0.621099,51.388999],[0.622184,51.388927]]],[[[0.586015,51.391896],[0.585802,51.392218],[0.586511,51.392937],[0.588809,51.393623],[0.589636,51.39235],[0.589056,51.391887],[0.586015,51.391896]]],[[[0.614542,51.398661],[0.615325,51.398644],[0.615203,51.398127],[0.616015,51.396984],[0.6162,51.396201],[0.615324,51.395384],[0.61485,51.397587],[0.612541,51.398331],[0.611743,51.398896],[0.611561,51.399737],[0.60741,51.397291],[0.607558,51.396653],[0.605362,51.395318],[0.604609,51.394239],[0.603388,51.393833],[0.601103,51.394201],[0.598708,51.395033],[0.59824,51.395735],[0.597015,51.39608],[0.59855,51.396334],[0.598294,51.396686],[0.596681,51.396692],[0.596067,51.398869],[0.595037,51.399412],[0.595128,51.400216],[0.5966,51.400155],[0.599002,51.401026],[0.599848,51.402131],[0.602027,51.402343],[0.612204,51.401309],[0.613935,51.400953],[0.614644,51.400447],[0.613571,51.400211],[0.614542,51.398661]]],[[[0.615686,51.405384],[0.614663,51.405623],[0.6141,51.40627],[0.616144,51.406527],[0.616594,51.40633],[0.615686,51.405384]]],[[[0.610966,51.405878],[0.613432,51.405866],[0.614779,51.405231],[0.61485,51.404869],[0.612548,51.40492],[0.612844,51.405274],[0.612495,51.405599],[0.611528,51.40565],[0.611112,51.405212],[0.609839,51.405528],[0.609367,51.405352],[0.608199,51.405868],[0.60797,51.40632],[0.608346,51.406427],[0.607843,51.406915],[0.610467,51.406438],[0.610966,51.405878]]],[[[0.572778,51.405469],[0.574612,51.405014],[0.576881,51.405397],[0.576174,51.405517],[0.576798,51.405799],[0.57662,51.405588],[0.577526,51.405474],[0.578607,51.406461],[0.578442,51.406875],[0.579465,51.406883],[0.579659,51.406636],[0.579148,51.406512],[0.579766,51.406542],[0.580038,51.4062],[0.57863,51.406257],[0.578414,51.405937],[0.579084,51.405887],[0.579145,51.405494],[0.579184,51.405793],[0.579607,51.405788],[0.579461,51.404881],[0.581032,51.405121],[0.581436,51.404678],[0.581185,51.404455],[0.582145,51.404126],[0.582573,51.403134],[0.582126,51.402558],[0.5813,51.402426],[0.577528,51.403022],[0.569143,51.402865],[0.563561,51.402168],[0.56152,51.402233],[0.560246,51.40323],[0.560884,51.404708],[0.560827,51.406057],[0.562852,51.407052],[0.563679,51.407968],[0.566181,51.407634],[0.570668,51.40784],[0.572778,51.405469]]],[[[0.597741,51.406849],[0.598638,51.407036],[0.598549,51.406784],[0.599023,51.40668],[0.599774,51.406945],[0.60324,51.406896],[0.601271,51.406583],[0.600967,51.405989],[0.60026,51.405723],[0.599572,51.405766],[0.59905,51.40637],[0.596895,51.405976],[0.595427,51.406562],[0.596057,51.407347],[0.596587,51.40742],[0.596038,51.407535],[0.597244,51.407367],[0.597741,51.406849]]],[[[0.617171,51.40675],[0.614354,51.406682],[0.612776,51.406098],[0.611299,51.406059],[0.610865,51.406544],[0.608434,51.407175],[0.613756,51.407518],[0.614789,51.407423],[0.615076,51.406811],[0.616219,51.40703],[0.615628,51.407188],[0.617837,51.407513],[0.617171,51.40675]]],[[[0.553575,51.39848],[0.553856,51.399272],[0.555581,51.398914],[0.55428,51.397479],[0.554724,51.397613],[0.555009,51.397264],[0.556286,51.398595],[0.55758,51.397459],[0.557521,51.396536],[0.558714,51.396261],[0.559697,51.397985],[0.55842,51.398302],[0.559129,51.398433],[0.561909,51.397919],[0.5621,51.39751],[0.560969,51.39479],[0.561587,51.395041],[0.561721,51.396027],[0.563681,51.396097],[0.565332,51.395127],[0.567969,51.394559],[0.568703,51.393723],[0.572136,51.39213],[0.572247,51.392636],[0.574493,51.392826],[0.574592,51.392607],[0.575287,51.393308],[0.576031,51.393282],[0.575561,51.392156],[0.576376,51.391838],[0.577349,51.390549],[0.578264,51.390474],[0.580248,51.391],[0.58238,51.390268],[0.585534,51.39003],[0.586377,51.39081],[0.58768,51.39091],[0.592904,51.390257],[0.592586,51.388534],[0.59305,51.387855],[0.592635,51.387183],[0.59312,51.386989],[0.593413,51.387358],[0.594641,51.38654],[0.596347,51.387422],[0.596684,51.388398],[0.597824,51.389211],[0.59854,51.389127],[0.600429,51.389683],[0.602098,51.390635],[0.602924,51.390141],[0.602764,51.389448],[0.601577,51.389249],[0.600269,51.389473],[0.596838,51.388057],[0.596689,51.386901],[0.598763,51.385774],[0.599101,51.385369],[0.598882,51.384697],[0.600092,51.384519],[0.601361,51.383483],[0.602372,51.383417],[0.605018,51.381406],[0.608255,51.38035],[0.608885,51.380737],[0.609887,51.38077],[0.612052,51.379432],[0.611835,51.378925],[0.613979,51.378488],[0.615483,51.378707],[0.61637,51.377978],[0.617047,51.378415],[0.616395,51.379126],[0.617339,51.379432],[0.616698,51.379013],[0.617153,51.378779],[0.617883,51.37925],[0.617491,51.37957],[0.618508,51.379536],[0.620688,51.381815],[0.621962,51.382599],[0.621596,51.383671],[0.621694,51.386974],[0.620682,51.387606],[0.620054,51.387633],[0.620044,51.388048],[0.619609,51.38816],[0.620502,51.388108],[0.620082,51.387971],[0.6204,51.38767],[0.620999,51.38817],[0.620763,51.387713],[0.621428,51.387648],[0.621036,51.387532],[0.622335,51.387336],[0.621945,51.386837],[0.622578,51.387211],[0.624883,51.387108],[0.622478,51.387287],[0.623243,51.387436],[0.623554,51.387739],[0.623631,51.387894],[0.623571,51.388339],[0.623791,51.387908],[0.623679,51.387504],[0.623825,51.38786],[0.623806,51.388303],[0.624326,51.388447],[0.624198,51.387702],[0.624795,51.388186],[0.624558,51.387712],[0.625297,51.38793],[0.624899,51.387546],[0.625416,51.387584],[0.625417,51.387276],[0.626045,51.388406],[0.626365,51.387211],[0.626549,51.38826],[0.63166,51.388223],[0.634545,51.389068],[0.635087,51.388248],[0.635679,51.388138],[0.635225,51.387973],[0.635656,51.38702],[0.633946,51.385022],[0.633327,51.384509],[0.63041,51.384348],[0.628122,51.38276],[0.6281,51.382208],[0.624854,51.381198],[0.625245,51.38024],[0.623851,51.379489],[0.624063,51.378892],[0.62322,51.377917],[0.622527,51.376038],[0.623512,51.376364],[0.623343,51.377039],[0.623697,51.376425],[0.626051,51.376306],[0.625979,51.376052],[0.625097,51.375964],[0.626955,51.374731],[0.625738,51.373465],[0.625835,51.37141],[0.623293,51.369223],[0.626267,51.368251],[0.626741,51.368689],[0.628382,51.368368],[0.634908,51.36637],[0.629299,51.35922],[0.628569,51.359371],[0.625088,51.354818],[0.623415,51.351435],[0.622085,51.349689],[0.620033,51.349709],[0.618163,51.348642],[0.617934,51.347394],[0.613724,51.341118],[0.611322,51.339318],[0.612052,51.337941],[0.610949,51.336474],[0.60801,51.334644],[0.603878,51.336257],[0.60203,51.334625],[0.601404,51.333301],[0.599766,51.332529],[0.596941,51.332708],[0.596811,51.333339],[0.59423,51.333219],[0.593957,51.333565],[0.591817,51.333763],[0.586471,51.335088],[0.58596,51.334739],[0.5832,51.334703],[0.577724,51.336446],[0.575429,51.337591],[0.573942,51.336776],[0.573452,51.336925],[0.571911,51.335549],[0.570391,51.33672],[0.568398,51.337377],[0.565506,51.33778],[0.563457,51.338743],[0.556711,51.336534],[0.554452,51.333764],[0.554764,51.332223],[0.553973,51.33163],[0.548727,51.330897],[0.54592,51.329564],[0.545347,51.328572],[0.544004,51.327896],[0.540139,51.330255],[0.538682,51.331756],[0.538588,51.332824],[0.532886,51.337153],[0.525641,51.334717],[0.524493,51.335139],[0.523791,51.33588],[0.522257,51.336418],[0.521736,51.337465],[0.520357,51.338231],[0.519958,51.33919],[0.519552,51.339166],[0.519332,51.339935],[0.516671,51.339666],[0.514806,51.340466],[0.514137,51.341127],[0.511161,51.340913],[0.509643,51.34208],[0.507221,51.343276],[0.505846,51.342937],[0.502218,51.348804],[0.503097,51.349251],[0.501989,51.351298],[0.503146,51.353134],[0.503092,51.354667],[0.49407,51.352654],[0.491247,51.354022],[0.489485,51.354346],[0.489001,51.35521],[0.487648,51.35601],[0.481809,51.357683],[0.479658,51.357443],[0.479127,51.358427],[0.475993,51.360551],[0.475681,51.360222],[0.472766,51.361815],[0.470392,51.362227],[0.468053,51.363557],[0.460916,51.366638],[0.457648,51.367624],[0.457082,51.36808],[0.46395,51.370796],[0.467695,51.373401],[0.477767,51.374957],[0.479392,51.375491],[0.480184,51.376004],[0.48024,51.376483],[0.480813,51.376198],[0.480509,51.376684],[0.481146,51.376219],[0.480387,51.377371],[0.481371,51.377834],[0.482343,51.376585],[0.482817,51.376775],[0.481997,51.377716],[0.48213,51.378719],[0.485182,51.378379],[0.4852,51.377654],[0.484352,51.377626],[0.484675,51.377517],[0.483105,51.376782],[0.482962,51.377016],[0.483073,51.376756],[0.485335,51.377683],[0.485203,51.378478],[0.488865,51.378856],[0.490527,51.380174],[0.491626,51.380291],[0.494643,51.382515],[0.496721,51.384578],[0.496818,51.386888],[0.49629,51.387432],[0.500651,51.390456],[0.501618,51.391697],[0.505386,51.393477],[0.508646,51.394218],[0.50962,51.393502],[0.510201,51.391765],[0.509979,51.391158],[0.508089,51.390495],[0.510368,51.39102],[0.510517,51.38907],[0.509596,51.388451],[0.511186,51.388728],[0.51144,51.388095],[0.510988,51.387846],[0.511417,51.38702],[0.510856,51.38668],[0.512389,51.385862],[0.512668,51.386019],[0.513916,51.385162],[0.513614,51.384321],[0.514135,51.384183],[0.514773,51.384505],[0.515453,51.384084],[0.517328,51.383724],[0.522582,51.3851],[0.523421,51.386562],[0.522846,51.387672],[0.523043,51.388358],[0.523938,51.38968],[0.526058,51.395947],[0.528123,51.398333],[0.528632,51.398354],[0.528545,51.39884],[0.528913,51.398751],[0.5292,51.399114],[0.528881,51.399252],[0.531124,51.402478],[0.532508,51.406619],[0.533543,51.408089],[0.535205,51.409543],[0.537244,51.410257],[0.539889,51.41003],[0.544063,51.409139],[0.548385,51.407422],[0.553293,51.400416],[0.552818,51.399989],[0.553566,51.399821],[0.552655,51.399639],[0.552656,51.399409],[0.553674,51.399333],[0.553575,51.39848]]],[[[0.623382,51.423408],[0.623118,51.423549],[0.623507,51.42378],[0.622552,51.423787],[0.623865,51.42407],[0.624433,51.42388],[0.623382,51.423408]]],[[[0.614324,51.423985],[0.613937,51.424268],[0.613976,51.42399],[0.613156,51.424053],[0.613558,51.42436],[0.614152,51.424316],[0.614324,51.423985]]],[[[0.635094,51.422884],[0.638914,51.421267],[0.638269,51.420981],[0.638163,51.420212],[0.638529,51.420033],[0.638365,51.41865],[0.638856,51.418443],[0.638028,51.417873],[0.638492,51.416489],[0.637386,51.41688],[0.637584,51.418158],[0.636915,51.418186],[0.637254,51.418597],[0.636959,51.419663],[0.636899,51.419351],[0.636088,51.419801],[0.635368,51.419647],[0.634681,51.42042],[0.634061,51.420578],[0.633212,51.420715],[0.632314,51.420382],[0.631906,51.420574],[0.632465,51.420836],[0.631618,51.420633],[0.629884,51.421052],[0.631098,51.422162],[0.630257,51.422822],[0.630522,51.423418],[0.630154,51.423924],[0.631217,51.423874],[0.631338,51.424159],[0.633851,51.423827],[0.635094,51.422884]]],[[[0.614605,51.424314],[0.615212,51.42516],[0.61552,51.425039],[0.614605,51.424314]]],[[[0.616194,51.426464],[0.616431,51.427343],[0.616863,51.427327],[0.616499,51.427259],[0.616765,51.426845],[0.616194,51.426464]]],[[[0.624552,51.426799],[0.624054,51.426935],[0.624313,51.427423],[0.624552,51.426799]]],[[[0.622144,51.427759],[0.621245,51.427426],[0.621095,51.427671],[0.620746,51.427657],[0.62139,51.427877],[0.620529,51.427828],[0.621191,51.428064],[0.622144,51.427759]]],[[[0.638929,51.42697],[0.637402,51.426992],[0.637398,51.426573],[0.636735,51.426314],[0.635488,51.426446],[0.635032,51.426902],[0.634249,51.426748],[0.633584,51.427195],[0.633152,51.426957],[0.633683,51.428528],[0.633864,51.427686],[0.634974,51.427701],[0.635339,51.428582],[0.636622,51.429429],[0.637939,51.429047],[0.638316,51.427599],[0.638929,51.42697]]],[[[0.630453,51.429184],[0.630076,51.429414],[0.629891,51.429182],[0.629814,51.429586],[0.629231,51.429814],[0.629544,51.429991],[0.629182,51.430254],[0.629867,51.430269],[0.629812,51.429675],[0.630453,51.429184]]],[[[0.639267,51.432209],[0.639101,51.43197],[0.638706,51.43231],[0.637993,51.432068],[0.63872,51.432493],[0.639267,51.432209]]],[[[0.640021,51.432922],[0.639755,51.43321],[0.640371,51.433293],[0.641111,51.433103],[0.640021,51.432922]]],[[[0.636791,51.43358],[0.636275,51.43375],[0.636699,51.433504],[0.635832,51.433624],[0.635627,51.433314],[0.635418,51.434074],[0.635924,51.434374],[0.637423,51.433871],[0.636791,51.43358]]],[[[0.638965,51.433979],[0.638622,51.434326],[0.639161,51.434439],[0.640669,51.434061],[0.638965,51.433979]]],[[[0.629303,51.434717],[0.628378,51.43551],[0.630492,51.435244],[0.630675,51.43474],[0.629303,51.434717]]],[[[0.647421,51.43545],[0.646999,51.435823],[0.647324,51.436456],[0.646771,51.436682],[0.64727,51.436862],[0.648032,51.436264],[0.647421,51.43545]]],[[[0.669484,51.436057],[0.670528,51.437082],[0.670849,51.437008],[0.669484,51.436057]]],[[[0.639352,51.438103],[0.638799,51.438215],[0.639284,51.437869],[0.638467,51.438132],[0.638087,51.437977],[0.63796,51.437616],[0.638587,51.437206],[0.637056,51.437266],[0.638654,51.4386],[0.63941,51.438644],[0.638965,51.438436],[0.639352,51.438103]]],[[[0.670835,51.437085],[0.670887,51.438152],[0.672909,51.438059],[0.670835,51.437085]]],[[[0.670697,51.438245],[0.669995,51.438701],[0.670957,51.438376],[0.670697,51.438245]]],[[[0.640176,51.437961],[0.640743,51.437543],[0.637972,51.437017],[0.638994,51.437253],[0.638084,51.437627],[0.638189,51.437907],[0.63932,51.43779],[0.639717,51.438173],[0.639216,51.438482],[0.639905,51.438438],[0.639758,51.438777],[0.639468,51.438516],[0.639415,51.439178],[0.640068,51.439432],[0.640176,51.437961]]],[[[0.638104,51.438813],[0.637047,51.438771],[0.636309,51.438008],[0.636029,51.438206],[0.636788,51.438711],[0.636638,51.438906],[0.636233,51.438914],[0.636564,51.438718],[0.636102,51.438441],[0.635633,51.438496],[0.636396,51.439396],[0.637241,51.439645],[0.636774,51.438992],[0.638104,51.438813]]],[[[0.634581,51.43931],[0.635024,51.440276],[0.635052,51.439391],[0.634581,51.43931]]],[[[0.632875,51.43976],[0.63261,51.440247],[0.633367,51.440246],[0.633516,51.439919],[0.632733,51.439445],[0.632605,51.439819],[0.632096,51.439749],[0.630865,51.440416],[0.6311,51.440909],[0.631428,51.440413],[0.632875,51.43976]]],[[[0.6292,51.440416],[0.629552,51.4405],[0.629855,51.440026],[0.629581,51.439584],[0.630038,51.439308],[0.629472,51.439114],[0.629614,51.438752],[0.628805,51.437798],[0.628085,51.438046],[0.627165,51.437617],[0.626192,51.438543],[0.62647,51.438774],[0.626605,51.439268],[0.627487,51.440291],[0.627615,51.440811],[0.628245,51.441118],[0.629291,51.440651],[0.6292,51.440416]]],[[[0.63831,51.439465],[0.637896,51.439518],[0.638257,51.440164],[0.639494,51.440625],[0.639692,51.441248],[0.640237,51.441126],[0.64012,51.440665],[0.638144,51.439683],[0.63831,51.439465]]],[[[0.634092,51.440795],[0.632268,51.441249],[0.633229,51.44112],[0.633797,51.441396],[0.634092,51.440795]]],[[[0.636958,51.440772],[0.636219,51.440542],[0.635879,51.440685],[0.636505,51.440833],[0.636536,51.44117],[0.635713,51.441129],[0.63583,51.440849],[0.635182,51.441175],[0.636478,51.441394],[0.636958,51.440772]]],[[[0.633777,51.441585],[0.633395,51.441281],[0.63251,51.441683],[0.632861,51.441233],[0.631741,51.441822],[0.633777,51.441585]]],[[[0.646104,51.436578],[0.645383,51.437225],[0.645973,51.438024],[0.644989,51.438662],[0.645579,51.439191],[0.64526,51.439813],[0.645633,51.440522],[0.64512,51.440694],[0.645409,51.441613],[0.645947,51.440679],[0.645462,51.438572],[0.646394,51.437848],[0.645721,51.437401],[0.645794,51.436987],[0.64653,51.436688],[0.646104,51.436578]]],[[[0.662134,51.440715],[0.663259,51.440828],[0.663895,51.440509],[0.664424,51.440899],[0.664811,51.440737],[0.663791,51.440359],[0.66432,51.440041],[0.66506,51.44008],[0.664967,51.440392],[0.665263,51.440197],[0.665261,51.43928],[0.664683,51.438928],[0.663798,51.439443],[0.663405,51.439357],[0.663247,51.440083],[0.662651,51.440184],[0.662718,51.440457],[0.66225,51.440383],[0.662499,51.440532],[0.662459,51.440608],[0.661758,51.440685],[0.662413,51.440497],[0.661538,51.440202],[0.661386,51.439578],[0.660855,51.439635],[0.661535,51.440842],[0.660343,51.441173],[0.660824,51.441741],[0.66133,51.441699],[0.662134,51.440715]]],[[[0.672263,51.440358],[0.671776,51.440125],[0.671494,51.440551],[0.670843,51.440374],[0.669985,51.442183],[0.670578,51.442015],[0.672263,51.440358]]],[[[0.655491,51.442024],[0.655742,51.442282],[0.65705,51.442042],[0.657288,51.441616],[0.65594,51.441179],[0.655558,51.441468],[0.654182,51.44139],[0.652956,51.440249],[0.653753,51.439802],[0.655408,51.439532],[0.656783,51.439788],[0.656704,51.440585],[0.657133,51.440248],[0.658494,51.440069],[0.658145,51.439625],[0.656996,51.439815],[0.656274,51.439402],[0.656242,51.438858],[0.654808,51.439085],[0.65418,51.438584],[0.653524,51.438654],[0.653649,51.439104],[0.651995,51.439172],[0.651512,51.438801],[0.65028,51.439047],[0.65014,51.43944],[0.650975,51.439413],[0.651944,51.440444],[0.650809,51.440882],[0.652565,51.441474],[0.653888,51.442574],[0.654532,51.442061],[0.655491,51.442024]]],[[[0.66531,51.44214],[0.664211,51.442396],[0.66556,51.442459],[0.66531,51.44214]]],[[[0.66703,51.441476],[0.666892,51.442449],[0.667621,51.441768],[0.66703,51.441476]]],[[[0.635918,51.442165],[0.636373,51.443216],[0.636552,51.442876],[0.635918,51.442165]]],[[[0.661118,51.44175],[0.660949,51.442284],[0.661487,51.442206],[0.660954,51.442495],[0.661704,51.442727],[0.663724,51.442388],[0.661118,51.44175]]],[[[0.636181,51.442033],[0.63684,51.442584],[0.636805,51.4432],[0.637354,51.443443],[0.636851,51.442388],[0.636181,51.442033]]],[[[0.64514,51.44257],[0.646848,51.443094],[0.646118,51.442454],[0.645481,51.442362],[0.646694,51.44192],[0.646659,51.442245],[0.647466,51.442112],[0.64736,51.442567],[0.647066,51.442237],[0.64657,51.442422],[0.647239,51.442757],[0.649605,51.4432],[0.6502,51.443116],[0.648797,51.442034],[0.64976,51.441785],[0.650349,51.442136],[0.651084,51.441788],[0.651608,51.441901],[0.650815,51.441509],[0.651064,51.441165],[0.649909,51.440215],[0.649164,51.44008],[0.649417,51.440488],[0.649025,51.441209],[0.647738,51.440851],[0.647937,51.441356],[0.647533,51.441692],[0.64562,51.441499],[0.645292,51.441727],[0.645099,51.441474],[0.645062,51.442129],[0.643731,51.44227],[0.643249,51.441955],[0.643318,51.442237],[0.642272,51.442631],[0.643191,51.443003],[0.643112,51.442589],[0.644236,51.442307],[0.64388,51.442731],[0.643468,51.442607],[0.643919,51.443215],[0.644967,51.442928],[0.646167,51.443335],[0.64625,51.443628],[0.646582,51.443405],[0.64514,51.44257]]],[[[0.643486,51.443772],[0.644056,51.443674],[0.643571,51.443537],[0.644095,51.443591],[0.643343,51.443103],[0.643254,51.443916],[0.643814,51.443943],[0.643486,51.443772]]],[[[0.642829,51.443323],[0.642384,51.44339],[0.642784,51.44308],[0.642329,51.443282],[0.64265,51.443017],[0.641487,51.442909],[0.642669,51.444115],[0.642829,51.443323]]],[[[0.660052,51.442935],[0.660939,51.443446],[0.661578,51.443212],[0.66041,51.4427],[0.660199,51.441834],[0.659555,51.442652],[0.659785,51.443005],[0.658767,51.442913],[0.660334,51.443757],[0.660883,51.443569],[0.660052,51.442935]]],[[[0.636827,51.443473],[0.637181,51.443856],[0.636537,51.444244],[0.636857,51.444396],[0.637677,51.443753],[0.636827,51.443473]]],[[[0.641021,51.443668],[0.641502,51.443576],[0.641991,51.444008],[0.642186,51.443782],[0.640921,51.443398],[0.640265,51.443889],[0.641035,51.443145],[0.640781,51.44226],[0.640343,51.441844],[0.639868,51.442507],[0.638764,51.442421],[0.638925,51.442062],[0.638299,51.441473],[0.638621,51.440713],[0.63811,51.440694],[0.637889,51.441493],[0.638449,51.442221],[0.638101,51.442643],[0.638711,51.443164],[0.638193,51.443677],[0.637521,51.44347],[0.638076,51.443775],[0.637508,51.444081],[0.638588,51.444464],[0.638444,51.444618],[0.638058,51.444753],[0.639959,51.44488],[0.640081,51.444922],[0.640196,51.445192],[0.641423,51.444922],[0.640555,51.444345],[0.641021,51.443668]]],[[[0.647385,51.444099],[0.647224,51.444605],[0.648302,51.444599],[0.648014,51.444532],[0.648397,51.444208],[0.647923,51.44433],[0.648006,51.444134],[0.649349,51.444281],[0.649795,51.4448],[0.649927,51.444122],[0.649375,51.444096],[0.64966,51.444364],[0.649149,51.444023],[0.647777,51.444067],[0.648562,51.443993],[0.647861,51.443767],[0.648739,51.443975],[0.647764,51.443619],[0.647654,51.444024],[0.647198,51.44401],[0.64666,51.444183],[0.64717,51.444039],[0.646953,51.444649],[0.647302,51.445039],[0.647918,51.44496],[0.647137,51.444592],[0.647385,51.444099]]],[[[0.636436,51.444729],[0.637398,51.444386],[0.636648,51.444524],[0.636171,51.444178],[0.636067,51.444474],[0.63589,51.443955],[0.63556,51.444368],[0.635087,51.44408],[0.634744,51.444723],[0.635247,51.444616],[0.634793,51.444868],[0.635441,51.444788],[0.634945,51.445147],[0.635821,51.445038],[0.635564,51.445339],[0.636292,51.445464],[0.635938,51.445835],[0.63663,51.445863],[0.636436,51.444729]]],[[[0.661086,51.446731],[0.660079,51.446785],[0.661253,51.44658],[0.661305,51.445805],[0.66023,51.446113],[0.661144,51.445791],[0.660887,51.444833],[0.661212,51.443738],[0.660726,51.443927],[0.659431,51.443776],[0.659084,51.444179],[0.656996,51.443827],[0.656583,51.444105],[0.657151,51.444254],[0.657446,51.444991],[0.6572,51.445689],[0.65704,51.445341],[0.656806,51.445675],[0.655529,51.44544],[0.656077,51.445986],[0.657033,51.446178],[0.657538,51.447716],[0.658563,51.447935],[0.660426,51.447448],[0.661086,51.446731]]],[[[0.460191,51.466102],[0.459973,51.466171],[0.46048,51.466429],[0.461037,51.466173],[0.460958,51.466438],[0.4623,51.466161],[0.460191,51.466102]]],[[[0.553662,51.483515],[0.552937,51.482422],[0.553795,51.481853],[0.553689,51.481392],[0.554109,51.481669],[0.554515,51.481343],[0.554364,51.481625],[0.554787,51.481836],[0.555213,51.481693],[0.555953,51.481759],[0.555146,51.481763],[0.555193,51.482115],[0.558512,51.482717],[0.558403,51.484096],[0.560045,51.484698],[0.566066,51.484067],[0.574349,51.484294],[0.576044,51.48343],[0.579389,51.480363],[0.580281,51.480412],[0.58106,51.481013],[0.582192,51.480816],[0.582006,51.479946],[0.58265,51.479663],[0.581936,51.4794],[0.582694,51.479654],[0.582034,51.479986],[0.582627,51.480922],[0.584972,51.481068],[0.585016,51.483799],[0.585684,51.484402],[0.587858,51.484038],[0.590246,51.483036],[0.591793,51.483175],[0.599424,51.4811],[0.60143,51.481403],[0.609839,51.479299],[0.610399,51.479388],[0.611711,51.478791],[0.611453,51.477896],[0.613078,51.475942],[0.615242,51.475111],[0.618025,51.475876],[0.621117,51.47604],[0.624458,51.47735],[0.6279,51.477863],[0.629391,51.477677],[0.6313,51.478067],[0.635094,51.478068],[0.642065,51.478967],[0.646087,51.478823],[0.650514,51.476677],[0.659953,51.477669],[0.660828,51.477287],[0.66154,51.475949],[0.663307,51.475276],[0.666016,51.475508],[0.669695,51.474999],[0.670127,51.473826],[0.671208,51.473565],[0.671339,51.472984],[0.670092,51.47318],[0.671146,51.472774],[0.670494,51.472473],[0.670394,51.470262],[0.673563,51.467454],[0.676742,51.466454],[0.679875,51.466227],[0.683493,51.46542],[0.687599,51.46219],[0.687349,51.460051],[0.687818,51.460041],[0.688261,51.460675],[0.688476,51.46015],[0.688317,51.460999],[0.689199,51.461188],[0.688765,51.462151],[0.690006,51.461176],[0.688947,51.460676],[0.689478,51.460755],[0.689721,51.460434],[0.689389,51.460274],[0.689806,51.460439],[0.68952,51.460849],[0.689842,51.460533],[0.689643,51.460833],[0.690108,51.461097],[0.69081,51.460794],[0.68991,51.460123],[0.690002,51.459606],[0.689556,51.459541],[0.690283,51.459378],[0.690258,51.459881],[0.690623,51.459382],[0.690907,51.459478],[0.690851,51.460015],[0.690229,51.460072],[0.69104,51.460657],[0.690465,51.461025],[0.690733,51.461414],[0.690246,51.461236],[0.689789,51.461476],[0.689772,51.461937],[0.688996,51.462282],[0.689387,51.462568],[0.68893,51.462681],[0.688358,51.462354],[0.687564,51.462915],[0.687253,51.463333],[0.688061,51.463496],[0.687957,51.463713],[0.687677,51.463957],[0.687807,51.463567],[0.687362,51.463371],[0.686762,51.463672],[0.686556,51.464029],[0.687185,51.464372],[0.686397,51.464229],[0.685059,51.465271],[0.686151,51.464813],[0.685765,51.465198],[0.679563,51.467359],[0.679759,51.467116],[0.677577,51.467376],[0.677598,51.467636],[0.676669,51.467463],[0.677374,51.468196],[0.676608,51.468829],[0.677183,51.468294],[0.676609,51.467467],[0.674735,51.467932],[0.675333,51.468454],[0.674683,51.467994],[0.672815,51.469143],[0.674082,51.469568],[0.676307,51.468283],[0.674175,51.469575],[0.674069,51.469593],[0.672694,51.469251],[0.671985,51.470047],[0.673399,51.470274],[0.673646,51.470044],[0.673583,51.470265],[0.673226,51.470292],[0.672051,51.470101],[0.671893,51.470297],[0.672561,51.470413],[0.671858,51.470318],[0.671686,51.470778],[0.671636,51.471741],[0.671748,51.471515],[0.673138,51.471323],[0.673204,51.47082],[0.673525,51.470724],[0.674168,51.471086],[0.674628,51.470115],[0.674156,51.4715],[0.673874,51.471714],[0.675307,51.472395],[0.673832,51.471733],[0.673433,51.472252],[0.674173,51.471186],[0.673576,51.470759],[0.673151,51.471368],[0.67194,51.471594],[0.671291,51.472177],[0.675878,51.473131],[0.678525,51.47472],[0.680928,51.474505],[0.686062,51.475087],[0.687011,51.474402],[0.693348,51.472978],[0.694573,51.472381],[0.698802,51.472474],[0.699631,51.472745],[0.703034,51.471348],[0.711965,51.464429],[0.717247,51.461563],[0.718395,51.460473],[0.719433,51.460453],[0.719998,51.45983],[0.720508,51.459763],[0.721743,51.457914],[0.722731,51.453798],[0.723452,51.447377],[0.722932,51.44689],[0.723505,51.44671],[0.723281,51.443569],[0.72164,51.442947],[0.721352,51.441527],[0.717641,51.437786],[0.713361,51.435656],[0.710337,51.434831],[0.709907,51.434886],[0.709576,51.435543],[0.708797,51.43565],[0.707136,51.435217],[0.705373,51.433862],[0.699808,51.433216],[0.69824,51.433721],[0.694219,51.433637],[0.690693,51.433003],[0.68783,51.433504],[0.677839,51.433178],[0.675717,51.433489],[0.673845,51.434183],[0.673477,51.434773],[0.674905,51.43595],[0.675967,51.436191],[0.676936,51.436939],[0.676743,51.4387],[0.67564,51.43991],[0.672527,51.440132],[0.670338,51.44267],[0.66976,51.442909],[0.669881,51.443473],[0.669453,51.443122],[0.66918,51.443587],[0.669607,51.443678],[0.669039,51.443768],[0.669028,51.444196],[0.669952,51.444245],[0.669079,51.444815],[0.67089,51.445636],[0.671441,51.446514],[0.670987,51.447],[0.671949,51.447258],[0.672101,51.447967],[0.670373,51.448465],[0.670897,51.447818],[0.670232,51.447139],[0.670035,51.445979],[0.668684,51.445633],[0.667617,51.444513],[0.667056,51.444501],[0.66725,51.443979],[0.665659,51.444083],[0.663365,51.443629],[0.66267,51.4441],[0.663754,51.446073],[0.662336,51.447687],[0.6593,51.448976],[0.656064,51.449225],[0.65481,51.448849],[0.653773,51.44758],[0.653873,51.447161],[0.653274,51.447057],[0.653009,51.446549],[0.651278,51.446765],[0.649913,51.445931],[0.650446,51.445694],[0.650837,51.446232],[0.651194,51.446349],[0.650835,51.446148],[0.651781,51.446051],[0.650832,51.445824],[0.649873,51.445024],[0.650352,51.44569],[0.649582,51.445211],[0.650156,51.445816],[0.649707,51.445403],[0.649779,51.445881],[0.64932,51.445766],[0.649331,51.445376],[0.649203,51.445646],[0.648687,51.445594],[0.649338,51.444993],[0.649345,51.444922],[0.648841,51.444443],[0.648624,51.444606],[0.649186,51.444809],[0.64905,51.444991],[0.648592,51.445087],[0.649142,51.444818],[0.648631,51.444672],[0.648107,51.445186],[0.64899,51.445221],[0.648218,51.445518],[0.645303,51.444493],[0.64477,51.443862],[0.645184,51.443979],[0.645063,51.443708],[0.643646,51.444243],[0.641557,51.444381],[0.641784,51.44419],[0.641286,51.443722],[0.641173,51.444293],[0.640808,51.444242],[0.641535,51.444707],[0.641407,51.445066],[0.641129,51.445192],[0.639952,51.445206],[0.640001,51.44492],[0.638128,51.444819],[0.6377,51.444598],[0.638409,51.444562],[0.637683,51.444527],[0.637169,51.444696],[0.636964,51.445251],[0.637105,51.444762],[0.636649,51.444937],[0.636977,51.446007],[0.635932,51.446217],[0.635807,51.445972],[0.63636,51.445925],[0.635915,51.445926],[0.635732,51.445604],[0.63533,51.445677],[0.635542,51.445117],[0.634991,51.445296],[0.634739,51.444931],[0.63446,51.445025],[0.634588,51.444267],[0.633889,51.444956],[0.633369,51.444889],[0.634257,51.444218],[0.63469,51.444236],[0.634893,51.444357],[0.634641,51.444175],[0.634335,51.44417],[0.633632,51.444437],[0.633436,51.444233],[0.633214,51.443746],[0.633481,51.443854],[0.633786,51.443504],[0.634129,51.443771],[0.634294,51.443489],[0.633853,51.442713],[0.633295,51.442937],[0.632097,51.442677],[0.632719,51.442905],[0.632258,51.443313],[0.632117,51.442793],[0.63178,51.443141],[0.631936,51.442592],[0.631544,51.44324],[0.631209,51.442662],[0.631989,51.442516],[0.63106,51.44228],[0.63159,51.442279],[0.631652,51.441846],[0.631541,51.442165],[0.631075,51.441893],[0.630704,51.44223],[0.630431,51.44182],[0.63097,51.441896],[0.630657,51.441659],[0.631107,51.441793],[0.630875,51.441598],[0.631451,51.441072],[0.630712,51.441077],[0.631041,51.441122],[0.63076,51.4413],[0.630312,51.441128],[0.630787,51.440903],[0.630476,51.440864],[0.630246,51.441106],[0.630251,51.441245],[0.630883,51.441487],[0.63021,51.441312],[0.62981,51.441624],[0.630568,51.441716],[0.63023,51.441908],[0.629786,51.441653],[0.629735,51.441572],[0.630037,51.441247],[0.629593,51.44163],[0.630574,51.442062],[0.629979,51.442424],[0.62973,51.44183],[0.629503,51.442213],[0.630221,51.442538],[0.630769,51.442267],[0.630227,51.44268],[0.6308,51.442835],[0.630986,51.442456],[0.631301,51.443039],[0.630916,51.442765],[0.63076,51.442946],[0.631788,51.443532],[0.632105,51.443527],[0.631695,51.443434],[0.632019,51.44344],[0.631853,51.443232],[0.632531,51.443702],[0.632986,51.443379],[0.633087,51.443736],[0.632531,51.443856],[0.632199,51.443649],[0.632747,51.444392],[0.632086,51.44421],[0.632724,51.444508],[0.633233,51.443924],[0.633433,51.444477],[0.63274,51.444708],[0.633342,51.44464],[0.633214,51.444853],[0.632418,51.444694],[0.632014,51.444436],[0.631905,51.443979],[0.631416,51.444123],[0.632109,51.444633],[0.632993,51.444946],[0.632089,51.444688],[0.631276,51.444155],[0.631644,51.444028],[0.630774,51.443803],[0.630834,51.443522],[0.630397,51.443651],[0.63021,51.443189],[0.630045,51.443401],[0.629203,51.443075],[0.63008,51.443516],[0.628823,51.442937],[0.628682,51.442357],[0.628254,51.4425],[0.628623,51.442278],[0.628315,51.441772],[0.62859,51.441423],[0.62779,51.441288],[0.627953,51.44169],[0.627667,51.44158],[0.627129,51.440012],[0.626337,51.439332],[0.626393,51.438844],[0.626048,51.439011],[0.626397,51.438783],[0.625425,51.438512],[0.626148,51.438508],[0.626215,51.4379],[0.625813,51.438032],[0.625835,51.438374],[0.625498,51.438292],[0.625933,51.43777],[0.626319,51.437924],[0.626295,51.438237],[0.626485,51.438161],[0.626814,51.437884],[0.626213,51.437694],[0.626847,51.43756],[0.625759,51.43755],[0.625748,51.437958],[0.625079,51.438124],[0.625323,51.438149],[0.625359,51.43875],[0.62469,51.438797],[0.624301,51.438708],[0.624485,51.438411],[0.624894,51.438657],[0.625225,51.438272],[0.624539,51.437884],[0.624137,51.438231],[0.624401,51.438341],[0.623853,51.438188],[0.62386,51.438691],[0.622754,51.43832],[0.623793,51.438536],[0.62367,51.438184],[0.62179,51.437782],[0.622635,51.438368],[0.622226,51.438314],[0.621721,51.437972],[0.621724,51.43755],[0.621467,51.437987],[0.619859,51.437645],[0.620647,51.437692],[0.620336,51.436989],[0.619782,51.437399],[0.620186,51.437193],[0.620129,51.437533],[0.618998,51.437461],[0.618957,51.436532],[0.617958,51.435576],[0.618248,51.434988],[0.618796,51.435149],[0.619285,51.434528],[0.618801,51.434662],[0.619014,51.43428],[0.618323,51.434866],[0.618643,51.434174],[0.618281,51.434285],[0.618148,51.434029],[0.618477,51.434081],[0.617819,51.433528],[0.618767,51.4324],[0.617326,51.431597],[0.618054,51.431149],[0.616215,51.4313],[0.614425,51.429428],[0.613562,51.429805],[0.612331,51.42965],[0.612029,51.428696],[0.612662,51.428462],[0.612614,51.427941],[0.612271,51.427487],[0.611707,51.427644],[0.61147,51.4274],[0.612039,51.427213],[0.611684,51.42705],[0.612584,51.426886],[0.612301,51.4274],[0.612756,51.42711],[0.612926,51.427366],[0.612938,51.426491],[0.612073,51.426561],[0.611155,51.425989],[0.611907,51.425382],[0.610962,51.425575],[0.610324,51.425116],[0.610101,51.422617],[0.608464,51.42171],[0.605399,51.421087],[0.605211,51.420548],[0.605622,51.42013],[0.606052,51.420173],[0.609844,51.421401],[0.612101,51.422955],[0.612748,51.422734],[0.613761,51.422967],[0.613571,51.423669],[0.615256,51.424169],[0.615604,51.42504],[0.615371,51.425341],[0.615778,51.425313],[0.615854,51.425904],[0.616216,51.425774],[0.616429,51.426059],[0.615999,51.425888],[0.616236,51.426382],[0.616131,51.425961],[0.617808,51.427732],[0.616636,51.427413],[0.617231,51.427733],[0.61674,51.428016],[0.617307,51.428103],[0.617343,51.427872],[0.617448,51.42821],[0.617903,51.42799],[0.617514,51.427716],[0.618056,51.427903],[0.617351,51.42843],[0.617782,51.428466],[0.618284,51.428001],[0.618335,51.428612],[0.618958,51.428568],[0.618477,51.427976],[0.620626,51.427705],[0.620091,51.427443],[0.62113,51.427609],[0.620452,51.427461],[0.620834,51.427311],[0.620343,51.427272],[0.620442,51.427079],[0.61996,51.427353],[0.620125,51.426962],[0.621714,51.426551],[0.620525,51.427191],[0.620879,51.427258],[0.621042,51.427453],[0.621245,51.426934],[0.622198,51.426835],[0.621857,51.426677],[0.622371,51.426718],[0.622221,51.426515],[0.622493,51.42672],[0.622594,51.426233],[0.622722,51.426478],[0.623238,51.426145],[0.623114,51.425787],[0.622615,51.426136],[0.622764,51.425694],[0.622347,51.425838],[0.621911,51.42652],[0.622248,51.425862],[0.621948,51.426],[0.621889,51.425691],[0.622023,51.425444],[0.622553,51.425737],[0.622677,51.425431],[0.62212,51.425282],[0.622819,51.424957],[0.622272,51.42499],[0.623003,51.424695],[0.623322,51.424095],[0.623751,51.424116],[0.622522,51.423825],[0.622569,51.424143],[0.622981,51.424054],[0.622681,51.424273],[0.622461,51.424119],[0.622449,51.423821],[0.623041,51.423488],[0.622381,51.423591],[0.622108,51.423073],[0.622173,51.423066],[0.622546,51.42346],[0.622841,51.422804],[0.621317,51.422681],[0.620624,51.421816],[0.61556,51.420454],[0.612871,51.419175],[0.610877,51.417402],[0.607,51.416529],[0.603011,51.416147],[0.602304,51.415709],[0.600023,51.415887],[0.599696,51.415582],[0.598114,51.416228],[0.59785,51.415961],[0.59782,51.41628],[0.597181,51.416388],[0.594293,51.415206],[0.591789,51.414728],[0.586503,51.416417],[0.586757,51.415981],[0.58596,51.415861],[0.586434,51.416143],[0.586114,51.416391],[0.585726,51.416349],[0.584852,51.416074],[0.586182,51.416319],[0.586209,51.416107],[0.585586,51.416154],[0.585749,51.415819],[0.585436,51.416109],[0.585463,51.415754],[0.585105,51.416065],[0.584323,51.415903],[0.585203,51.415884],[0.584782,51.415568],[0.584139,51.415605],[0.583682,51.41616],[0.583673,51.415761],[0.583536,51.416132],[0.583472,51.4159],[0.582528,51.416167],[0.583358,51.416216],[0.580573,51.416206],[0.582433,51.41616],[0.582616,51.415927],[0.581113,51.416104],[0.581682,51.415846],[0.580771,51.415793],[0.581636,51.415717],[0.580726,51.415595],[0.580077,51.415915],[0.580829,51.41604],[0.579178,51.416017],[0.580109,51.415811],[0.579126,51.415837],[0.579757,51.415732],[0.57934,51.415578],[0.579985,51.415683],[0.579719,51.415233],[0.579255,51.41527],[0.579627,51.415038],[0.578972,51.41477],[0.578512,51.415991],[0.576556,51.415763],[0.57549,51.415473],[0.57378,51.413496],[0.57305,51.413369],[0.572969,51.413083],[0.572391,51.413127],[0.572308,51.413616],[0.572138,51.413201],[0.570936,51.413188],[0.571331,51.413046],[0.571071,51.41287],[0.57059,51.413168],[0.571163,51.413676],[0.569674,51.413271],[0.569031,51.4134],[0.56898,51.413162],[0.568466,51.413324],[0.568127,51.413035],[0.568428,51.412739],[0.567156,51.41208],[0.567303,51.411597],[0.566721,51.411757],[0.566023,51.411329],[0.565315,51.411501],[0.563982,51.411144],[0.563549,51.409551],[0.561249,51.409801],[0.562547,51.410622],[0.562451,51.411241],[0.559596,51.411268],[0.555296,51.412325],[0.54585,51.412056],[0.537893,51.413618],[0.534535,51.413314],[0.532457,51.412675],[0.530663,51.411773],[0.528843,51.409831],[0.526318,51.405382],[0.526089,51.404016],[0.52657,51.403546],[0.526196,51.402622],[0.524151,51.401193],[0.522933,51.399773],[0.521355,51.399569],[0.51921,51.400125],[0.517459,51.401024],[0.516313,51.401015],[0.515754,51.400161],[0.517568,51.400261],[0.518197,51.400081],[0.518229,51.399616],[0.520774,51.399375],[0.522993,51.398025],[0.522176,51.396304],[0.521071,51.395849],[0.520665,51.395222],[0.520558,51.394263],[0.520936,51.393354],[0.521291,51.393348],[0.521163,51.391142],[0.51901,51.386986],[0.517586,51.387049],[0.514888,51.388857],[0.511003,51.394639],[0.50869,51.396518],[0.507116,51.396853],[0.506699,51.397244],[0.5062,51.396865],[0.503791,51.397157],[0.50146,51.395355],[0.50165,51.394886],[0.499739,51.392923],[0.49857,51.392257],[0.495931,51.392705],[0.493933,51.393807],[0.493455,51.393588],[0.49608,51.392299],[0.494873,51.391472],[0.496114,51.39098],[0.497652,51.391828],[0.495574,51.39064],[0.496094,51.390969],[0.494073,51.391756],[0.493207,51.39118],[0.492399,51.391705],[0.491905,51.391672],[0.492847,51.391112],[0.492669,51.390594],[0.493247,51.390507],[0.492404,51.390497],[0.492711,51.390136],[0.491468,51.389831],[0.492094,51.389449],[0.491571,51.389654],[0.490624,51.389],[0.492202,51.388496],[0.490865,51.3888],[0.490691,51.388417],[0.4915,51.388087],[0.490393,51.388408],[0.490191,51.388043],[0.49049,51.386148],[0.491662,51.38421],[0.490003,51.38206],[0.48734,51.381789],[0.485718,51.382191],[0.48106,51.381467],[0.476079,51.379313],[0.474505,51.377823],[0.473886,51.376727],[0.470392,51.376163],[0.469979,51.376863],[0.469532,51.376858],[0.470154,51.375997],[0.467876,51.375731],[0.464668,51.374623],[0.463478,51.373821],[0.462664,51.374001],[0.463231,51.373488],[0.461946,51.373055],[0.458915,51.371017],[0.456597,51.370174],[0.449806,51.366634],[0.448593,51.365166],[0.448217,51.363832],[0.448568,51.36147],[0.448228,51.359461],[0.449433,51.358019],[0.451768,51.356693],[0.451362,51.356305],[0.450526,51.356306],[0.44994,51.356083],[0.451374,51.356244],[0.451575,51.355968],[0.452089,51.356464],[0.453515,51.355771],[0.454376,51.354628],[0.454745,51.353255],[0.455131,51.353233],[0.455919,51.352106],[0.455833,51.35127],[0.455283,51.350749],[0.449741,51.34937],[0.448778,51.348784],[0.448008,51.347404],[0.448534,51.346784],[0.450948,51.345917],[0.452007,51.345041],[0.452108,51.344122],[0.451442,51.342653],[0.450862,51.342693],[0.450724,51.342145],[0.451789,51.342321],[0.453464,51.340633],[0.452095,51.340612],[0.445273,51.341832],[0.431291,51.345001],[0.426655,51.346914],[0.420885,51.347262],[0.418595,51.347912],[0.41664,51.347519],[0.411003,51.348211],[0.406714,51.347762],[0.407163,51.346624],[0.405259,51.345284],[0.404102,51.344899],[0.39992,51.344457],[0.397346,51.345776],[0.400966,51.349933],[0.401283,51.352955],[0.403457,51.356455],[0.404734,51.356504],[0.407194,51.359824],[0.412539,51.363992],[0.418432,51.372643],[0.417799,51.373336],[0.419066,51.374507],[0.419571,51.375617],[0.420937,51.3761],[0.423414,51.376146],[0.424966,51.376581],[0.430187,51.383666],[0.431145,51.38638],[0.431109,51.388033],[0.434642,51.388881],[0.447144,51.388958],[0.447363,51.39001],[0.447951,51.390362],[0.452002,51.39145],[0.453322,51.391379],[0.456709,51.394286],[0.453915,51.397034],[0.451853,51.398321],[0.456717,51.39859],[0.467687,51.398301],[0.467957,51.399521],[0.469453,51.399704],[0.468211,51.403171],[0.474636,51.406229],[0.477616,51.407186],[0.476003,51.40879],[0.475506,51.408646],[0.47514,51.412947],[0.480904,51.414797],[0.483679,51.412749],[0.488283,51.414207],[0.489235,51.415326],[0.48856,51.419443],[0.491196,51.424775],[0.49052,51.425084],[0.490156,51.425848],[0.489619,51.425933],[0.489211,51.42703],[0.489386,51.430031],[0.488481,51.430222],[0.488364,51.430527],[0.488856,51.434942],[0.486357,51.436026],[0.489759,51.437579],[0.490973,51.438677],[0.487917,51.440377],[0.48796,51.443285],[0.486091,51.443498],[0.484364,51.44475],[0.482789,51.44492],[0.481125,51.44569],[0.480194,51.445553],[0.479888,51.446041],[0.478912,51.446377],[0.477321,51.446247],[0.476848,51.446653],[0.475765,51.446767],[0.469801,51.45058],[0.469628,51.451241],[0.468752,51.451203],[0.467645,51.454292],[0.466968,51.454636],[0.465918,51.454779],[0.465607,51.45433],[0.462116,51.45455],[0.460735,51.455985],[0.459335,51.456624],[0.459257,51.455542],[0.458761,51.455701],[0.458878,51.45516],[0.458544,51.455221],[0.458657,51.456343],[0.457758,51.45668],[0.458118,51.45682],[0.457761,51.45707],[0.457549,51.456791],[0.457246,51.45701],[0.458612,51.459154],[0.458064,51.459441],[0.457483,51.460837],[0.456132,51.461035],[0.45568,51.462323],[0.454345,51.46342],[0.45587,51.465097],[0.45833,51.466033],[0.460247,51.465398],[0.460458,51.465058],[0.46544,51.464695],[0.467012,51.464038],[0.467729,51.464296],[0.467125,51.464784],[0.466789,51.465912],[0.466096,51.465761],[0.464172,51.46623],[0.464865,51.466495],[0.465666,51.466243],[0.465472,51.466503],[0.46662,51.465974],[0.465717,51.466762],[0.464561,51.466781],[0.46373,51.466346],[0.463127,51.466589],[0.464194,51.466732],[0.462794,51.46662],[0.462766,51.466248],[0.463108,51.466471],[0.464026,51.466245],[0.462958,51.466034],[0.462179,51.466497],[0.462699,51.466553],[0.460097,51.466474],[0.459471,51.466315],[0.458358,51.466472],[0.458123,51.466958],[0.459362,51.470118],[0.461409,51.472053],[0.4613,51.473108],[0.464086,51.477325],[0.467038,51.479427],[0.468462,51.482658],[0.480251,51.486868],[0.483579,51.487251],[0.488897,51.487208],[0.492618,51.486591],[0.509762,51.485307],[0.513967,51.485624],[0.515913,51.484871],[0.521616,51.484796],[0.525978,51.484214],[0.530663,51.485144],[0.536636,51.485588],[0.543888,51.486853],[0.54687,51.487054],[0.553607,51.484939],[0.553662,51.483515]],[[0.62186,51.423328],[0.621614,51.42313],[0.622108,51.423073],[0.62186,51.423328]]]]}}]}