{"type":"FeatureCollection","features":[{"type":"Feature","properties":{"slug":"melton","gss_code":"E07000133","name":"Melton"},"geometry":{"type":"Polygon","coordinates":[[[-0.784344,52.976419],[-0.783175,52.976935],[-0.7818,52.976446],[-0.780091,52.9773],[-0.778647,52.976693],[-0.778279,52.976923],[-0.777551,52.976643],[-0.777705,52.976264],[-0.777278,52.976035],[-0.778223,52.975033],[-0.777109,52.974578],[-0.778078,52.972159],[-0.777673,52.972063],[-0.777721,52.96706],[-0.778316,52.964951],[-0.778009,52.962833],[-0.779257,52.961333],[-0.777794,52.960705],[-0.778368,52.960344],[-0.778437,52.959314],[-0.776418,52.959135],[-0.774313,52.958111],[-0.773674,52.958505],[-0.770322,52.9569],[-0.76454,52.954936],[-0.759999,52.952712],[-0.75947,52.952846],[-0.756947,52.950993],[-0.755313,52.951379],[-0.755284,52.950726],[-0.755961,52.950581],[-0.755468,52.950539],[-0.75495,52.949556],[-0.755821,52.947776],[-0.755506,52.947132],[-0.757923,52.946321],[-0.757157,52.94561],[-0.757439,52.945484],[-0.756847,52.944597],[-0.759536,52.94135],[-0.760871,52.937732],[-0.762154,52.935835],[-0.761671,52.935367],[-0.761987,52.934082],[-0.765372,52.929775],[-0.766107,52.928026],[-0.765515,52.925881],[-0.762919,52.923796],[-0.766577,52.922946],[-0.767483,52.922464],[-0.766738,52.92149],[-0.768435,52.920624],[-0.768471,52.919895],[-0.769445,52.919607],[-0.768712,52.917433],[-0.769496,52.917122],[-0.768877,52.916281],[-0.771982,52.912512],[-0.77302,52.909041],[-0.774543,52.907343],[-0.775429,52.905758],[-0.776859,52.904809],[-0.773801,52.902536],[-0.770009,52.903717],[-0.768789,52.901954],[-0.763967,52.903142],[-0.763695,52.901075],[-0.761773,52.901332],[-0.761714,52.90049],[-0.75911,52.900717],[-0.758468,52.90049],[-0.758675,52.899493],[-0.759831,52.898728],[-0.761577,52.895723],[-0.762537,52.895118],[-0.762489,52.894458],[-0.763988,52.893645],[-0.764317,52.892478],[-0.763565,52.891995],[-0.76394,52.890859],[-0.766205,52.88843],[-0.766754,52.887496],[-0.766592,52.886798],[-0.761661,52.884555],[-0.760342,52.885198],[-0.759449,52.884613],[-0.757755,52.884276],[-0.757157,52.885984],[-0.750077,52.88395],[-0.747734,52.882975],[-0.745531,52.882792],[-0.742723,52.883157],[-0.740424,52.880045],[-0.739175,52.87695],[-0.736109,52.872966],[-0.73615,52.870091],[-0.733673,52.866922],[-0.729104,52.862163],[-0.724591,52.858825],[-0.721784,52.855907],[-0.718748,52.853902],[-0.709479,52.845079],[-0.706738,52.840819],[-0.705831,52.838053],[-0.703653,52.833672],[-0.698388,52.825999],[-0.695604,52.823565],[-0.6924,52.821781],[-0.687918,52.818255],[-0.686497,52.816289],[-0.682067,52.811774],[-0.682234,52.810711],[-0.680629,52.807213],[-0.682754,52.798961],[-0.683107,52.794683],[-0.681584,52.791129],[-0.677305,52.78999],[-0.677493,52.788359],[-0.674109,52.787768],[-0.67455,52.785527],[-0.676959,52.785693],[-0.675507,52.781018],[-0.675659,52.77754],[-0.674355,52.776754],[-0.672757,52.771437],[-0.66951,52.766296],[-0.668164,52.762062],[-0.664101,52.75671],[-0.671321,52.756411],[-0.671554,52.756798],[-0.674086,52.756943],[-0.674515,52.757956],[-0.684429,52.75648],[-0.684077,52.754869],[-0.684351,52.75311],[-0.690041,52.752004],[-0.696967,52.74922],[-0.696157,52.746529],[-0.699938,52.746613],[-0.701708,52.746063],[-0.70428,52.74616],[-0.707544,52.745594],[-0.718197,52.744798],[-0.717702,52.741976],[-0.719522,52.741502],[-0.720364,52.74163],[-0.72021,52.740962],[-0.72888,52.740038],[-0.729066,52.739377],[-0.733908,52.739711],[-0.74314,52.738339],[-0.745141,52.738409],[-0.751515,52.736736],[-0.753319,52.736575],[-0.754621,52.73774],[-0.753997,52.738463],[-0.754268,52.738683],[-0.754857,52.738958],[-0.755611,52.738741],[-0.75584,52.739233],[-0.756346,52.739004],[-0.756149,52.738639],[-0.756678,52.738531],[-0.757658,52.739053],[-0.757978,52.739736],[-0.759157,52.73958],[-0.759126,52.739162],[-0.760011,52.738966],[-0.760023,52.738652],[-0.761596,52.738823],[-0.761568,52.738115],[-0.762708,52.738312],[-0.763566,52.739084],[-0.764726,52.739194],[-0.76481,52.73998],[-0.764271,52.740078],[-0.764125,52.74054],[-0.76532,52.741373],[-0.766911,52.741755],[-0.766747,52.7422],[-0.767827,52.742991],[-0.767654,52.743682],[-0.768603,52.743679],[-0.768597,52.743363],[-0.770411,52.742913],[-0.770212,52.743628],[-0.771291,52.743643],[-0.771412,52.744187],[-0.772715,52.743797],[-0.773624,52.743915],[-0.773734,52.744188],[-0.77484,52.744047],[-0.775543,52.743536],[-0.776484,52.743934],[-0.778162,52.742477],[-0.779744,52.741799],[-0.780011,52.740999],[-0.780369,52.741037],[-0.780673,52.740575],[-0.781519,52.740867],[-0.7815,52.740602],[-0.782361,52.740701],[-0.782352,52.740378],[-0.783589,52.740388],[-0.787179,52.740931],[-0.789143,52.740024],[-0.789575,52.740223],[-0.791276,52.739884],[-0.790995,52.740185],[-0.791848,52.74019],[-0.791743,52.739568],[-0.793254,52.739491],[-0.794245,52.73798],[-0.795291,52.738007],[-0.79563,52.737013],[-0.796543,52.736808],[-0.796892,52.737318],[-0.797533,52.737102],[-0.797409,52.736832],[-0.798327,52.736778],[-0.799017,52.737167],[-0.799018,52.736759],[-0.799976,52.736999],[-0.800207,52.736552],[-0.801191,52.736743],[-0.801258,52.736005],[-0.802211,52.735639],[-0.803285,52.733969],[-0.805631,52.731623],[-0.810138,52.730031],[-0.812906,52.729476],[-0.813573,52.728964],[-0.813715,52.72748],[-0.815172,52.725805],[-0.817399,52.725107],[-0.816592,52.724663],[-0.817959,52.722718],[-0.818409,52.722638],[-0.818095,52.722368],[-0.818545,52.722235],[-0.818363,52.721678],[-0.817737,52.721562],[-0.818599,52.719585],[-0.818327,52.719366],[-0.81987,52.718472],[-0.819275,52.717995],[-0.819605,52.717679],[-0.821281,52.717374],[-0.821471,52.716946],[-0.820969,52.716787],[-0.821591,52.716624],[-0.821208,52.715989],[-0.821753,52.715675],[-0.815187,52.714973],[-0.814573,52.713496],[-0.813213,52.713471],[-0.813166,52.712296],[-0.800234,52.707798],[-0.803368,52.704649],[-0.802428,52.703265],[-0.799298,52.703318],[-0.799498,52.703506],[-0.797511,52.704087],[-0.79714,52.703857],[-0.796684,52.70403],[-0.795533,52.701565],[-0.796074,52.701319],[-0.796394,52.699977],[-0.795877,52.696906],[-0.793257,52.696251],[-0.790127,52.694425],[-0.786037,52.694751],[-0.785581,52.692315],[-0.786799,52.687065],[-0.785081,52.68475],[-0.783893,52.682108],[-0.784207,52.677149],[-0.78391,52.677049],[-0.784386,52.676564],[-0.784235,52.675083],[-0.782116,52.670476],[-0.782195,52.66914],[-0.783365,52.667878],[-0.784536,52.667299],[-0.79014,52.667185],[-0.791124,52.66516],[-0.793593,52.663376],[-0.794116,52.662361],[-0.794519,52.660889],[-0.793866,52.660115],[-0.7929,52.65968],[-0.79385,52.659175],[-0.794773,52.656949],[-0.796599,52.657268],[-0.797335,52.657692],[-0.798066,52.657634],[-0.798718,52.657177],[-0.801187,52.652367],[-0.804333,52.649455],[-0.805328,52.647661],[-0.807157,52.647691],[-0.80766,52.646572],[-0.80876,52.646121],[-0.815983,52.645927],[-0.82018,52.647925],[-0.822272,52.647254],[-0.823228,52.649179],[-0.823571,52.653352],[-0.823113,52.653389],[-0.822604,52.651271],[-0.821461,52.650405],[-0.817188,52.649962],[-0.813522,52.652029],[-0.811583,52.65502],[-0.809487,52.657183],[-0.809528,52.657612],[-0.817036,52.656623],[-0.821747,52.65776],[-0.82537,52.65806],[-0.827652,52.658796],[-0.829549,52.658753],[-0.830173,52.660744],[-0.829233,52.662789],[-0.830629,52.6678],[-0.831901,52.670625],[-0.833981,52.672705],[-0.840933,52.675529],[-0.84621,52.67501],[-0.853409,52.673516],[-0.855491,52.673312],[-0.856941,52.673711],[-0.858782,52.673751],[-0.859198,52.674373],[-0.858267,52.674895],[-0.859052,52.676148],[-0.856482,52.679644],[-0.854697,52.683305],[-0.855486,52.684939],[-0.859857,52.684349],[-0.866803,52.684921],[-0.870635,52.684529],[-0.871103,52.684155],[-0.872694,52.68435],[-0.873112,52.683573],[-0.873084,52.681785],[-0.874408,52.679951],[-0.880648,52.677626],[-0.88283,52.675829],[-0.887708,52.675051],[-0.887703,52.674548],[-0.888539,52.674406],[-0.890268,52.674154],[-0.890601,52.674508],[-0.892206,52.674386],[-0.892127,52.673969],[-0.892907,52.67371],[-0.893663,52.673773],[-0.893894,52.674424],[-0.895839,52.67395],[-0.896327,52.674093],[-0.896182,52.674512],[-0.896782,52.674672],[-0.897423,52.673978],[-0.897811,52.674234],[-0.898122,52.674071],[-0.898214,52.674465],[-0.899537,52.674234],[-0.900139,52.674961],[-0.901557,52.674739],[-0.901533,52.675548],[-0.902435,52.675397],[-0.902592,52.675866],[-0.903241,52.675877],[-0.902565,52.676064],[-0.902969,52.676336],[-0.90377,52.676024],[-0.903591,52.675732],[-0.904509,52.675514],[-0.907924,52.676576],[-0.908537,52.676363],[-0.908708,52.676737],[-0.909766,52.677117],[-0.910407,52.676869],[-0.911009,52.677216],[-0.910878,52.676905],[-0.911844,52.676655],[-0.911926,52.677172],[-0.912787,52.676556],[-0.912112,52.675763],[-0.912672,52.675406],[-0.912442,52.674321],[-0.913183,52.673969],[-0.912588,52.673642],[-0.913236,52.673519],[-0.913821,52.672511],[-0.914395,52.672506],[-0.914049,52.672367],[-0.914502,52.672086],[-0.914031,52.671968],[-0.91426,52.671749],[-0.914972,52.671404],[-0.915828,52.671555],[-0.91605,52.671141],[-0.934749,52.674558],[-0.941304,52.676811],[-0.943399,52.678067],[-0.948924,52.680381],[-0.947238,52.682729],[-0.954746,52.684061],[-0.956168,52.682666],[-0.961011,52.684746],[-0.971169,52.691039],[-0.996041,52.695787],[-1.006096,52.69838],[-1.007503,52.696315],[-1.007976,52.696393],[-1.006313,52.698627],[-1.004847,52.704519],[-1.006807,52.704847],[-1.006766,52.705343],[-1.011558,52.706483],[-1.01341,52.7096],[-1.013005,52.70993],[-1.013224,52.710235],[-1.015593,52.710824],[-1.01336,52.713611],[-1.012699,52.713238],[-1.010795,52.714455],[-1.00765,52.717386],[-1.004854,52.717096],[-1.003279,52.717252],[-1.003562,52.720201],[-1.001088,52.720075],[-1.000668,52.722283],[-1.001051,52.723662],[-1.004715,52.723602],[-1.017244,52.724468],[-1.018768,52.726802],[-1.019911,52.72698],[-1.027322,52.734928],[-1.026192,52.734658],[-1.022986,52.734676],[-1.021479,52.735129],[-1.019407,52.735101],[-1.019362,52.735533],[-1.019928,52.735802],[-1.019324,52.737106],[-1.021845,52.737811],[-1.024256,52.740482],[-1.023665,52.74074],[-1.028568,52.744818],[-1.031481,52.747984],[-1.031159,52.748282],[-1.033053,52.749789],[-1.032536,52.750137],[-1.033528,52.751133],[-1.032321,52.751999],[-1.03366,52.753376],[-1.030382,52.756186],[-1.034721,52.757108],[-1.036842,52.758371],[-1.038537,52.761468],[-1.03861,52.763315],[-1.041541,52.763143],[-1.041423,52.766059],[-1.045906,52.766023],[-1.045345,52.767206],[-1.04208,52.769781],[-1.043482,52.771622],[-1.037947,52.77503],[-1.040646,52.777409],[-1.046623,52.780955],[-1.04244,52.801167],[-1.040133,52.804544],[-1.036885,52.810681],[-1.036009,52.814544],[-1.036507,52.816272],[-1.029919,52.818106],[-1.02799,52.819625],[-1.027852,52.820152],[-1.025586,52.819453],[-1.023506,52.821158],[-1.021488,52.822074],[-1.019629,52.822162],[-1.019207,52.821745],[-1.015549,52.82153],[-1.010181,52.821733],[-1.001678,52.820424],[-0.998579,52.820567],[-0.995683,52.821272],[-0.995493,52.820931],[-0.993809,52.820672],[-0.991534,52.819759],[-0.989004,52.81825],[-0.987668,52.819423],[-0.983491,52.82037],[-0.981923,52.821227],[-0.981916,52.821597],[-0.981314,52.821689],[-0.981446,52.822198],[-0.97993,52.823631],[-0.980086,52.823934],[-0.978137,52.824541],[-0.977788,52.825012],[-0.978053,52.825519],[-0.977377,52.826563],[-0.977167,52.828127],[-0.975724,52.828315],[-0.975895,52.828962],[-0.975051,52.829228],[-0.975514,52.829704],[-0.974778,52.829939],[-0.975359,52.830651],[-0.975308,52.831395],[-0.974924,52.833012],[-0.974435,52.833104],[-0.973915,52.834324],[-0.977364,52.83664],[-0.977075,52.840738],[-0.973073,52.84314],[-0.972318,52.843236],[-0.971514,52.844281],[-0.970475,52.844768],[-0.970613,52.844985],[-0.960864,52.843359],[-0.960375,52.843953],[-0.959435,52.843863],[-0.959734,52.844557],[-0.958939,52.844791],[-0.959242,52.845211],[-0.957751,52.845288],[-0.957437,52.846367],[-0.956743,52.846591],[-0.955882,52.846366],[-0.955743,52.846865],[-0.956194,52.847099],[-0.954986,52.847691],[-0.955195,52.848074],[-0.954455,52.848651],[-0.95467,52.849031],[-0.952831,52.85044],[-0.951731,52.850544],[-0.951324,52.850929],[-0.950738,52.85072],[-0.9506,52.851114],[-0.951022,52.851343],[-0.950306,52.851412],[-0.950232,52.851726],[-0.949239,52.851463],[-0.949061,52.851996],[-0.948092,52.851751],[-0.948295,52.851512],[-0.947884,52.85138],[-0.947005,52.852334],[-0.946308,52.852275],[-0.946009,52.852557],[-0.94545,52.852124],[-0.94498,52.852671],[-0.944218,52.852621],[-0.944051,52.853091],[-0.943377,52.853142],[-0.94338,52.853678],[-0.942399,52.853563],[-0.942339,52.854014],[-0.941217,52.853973],[-0.941887,52.854547],[-0.941196,52.85488],[-0.940595,52.854555],[-0.940924,52.855143],[-0.940126,52.855319],[-0.94055,52.856053],[-0.939399,52.856059],[-0.940108,52.856823],[-0.939916,52.857033],[-0.939217,52.856828],[-0.939447,52.85804],[-0.938687,52.858997],[-0.939341,52.859018],[-0.939519,52.859547],[-0.940624,52.859801],[-0.94065,52.860405],[-0.941471,52.860398],[-0.940964,52.86063],[-0.941221,52.860925],[-0.940827,52.861564],[-0.938463,52.861963],[-0.93541,52.863208],[-0.934231,52.8641],[-0.928121,52.866083],[-0.932717,52.870063],[-0.936064,52.871811],[-0.938906,52.874064],[-0.93999,52.875102],[-0.940564,52.87683],[-0.933745,52.876644],[-0.933727,52.877181],[-0.931604,52.878023],[-0.930416,52.87899],[-0.927914,52.878347],[-0.925941,52.878852],[-0.920678,52.879202],[-0.92042,52.879672],[-0.916775,52.878876],[-0.916548,52.879585],[-0.915651,52.879597],[-0.914776,52.880692],[-0.914345,52.882405],[-0.911809,52.882222],[-0.912011,52.883597],[-0.909173,52.883689],[-0.90646,52.884499],[-0.906038,52.884678],[-0.906547,52.885232],[-0.903868,52.88642],[-0.899243,52.888125],[-0.899018,52.887928],[-0.894536,52.889789],[-0.886671,52.892039],[-0.878625,52.895677],[-0.875469,52.89758],[-0.875013,52.897503],[-0.87432,52.898218],[-0.873008,52.898171],[-0.869504,52.900264],[-0.860243,52.90402],[-0.857634,52.905642],[-0.861256,52.908626],[-0.861399,52.909087],[-0.860441,52.909834],[-0.863748,52.911325],[-0.862893,52.913114],[-0.860485,52.915817],[-0.858259,52.917498],[-0.857504,52.918883],[-0.854156,52.920899],[-0.852982,52.921096],[-0.848227,52.923588],[-0.841384,52.928375],[-0.842406,52.928517],[-0.840597,52.930364],[-0.841333,52.931109],[-0.836778,52.935792],[-0.835331,52.9378],[-0.836219,52.938098],[-0.834926,52.939388],[-0.827425,52.94174],[-0.824361,52.94179],[-0.822567,52.944087],[-0.828057,52.944545],[-0.833909,52.945881],[-0.830881,52.948586],[-0.832856,52.9496],[-0.820022,52.960464],[-0.813702,52.956994],[-0.812851,52.957464],[-0.812467,52.959135],[-0.811758,52.959825],[-0.811988,52.960803],[-0.809894,52.964968],[-0.809812,52.96598],[-0.806899,52.966727],[-0.805871,52.96734],[-0.805241,52.96809],[-0.804042,52.971619],[-0.803023,52.971725],[-0.802089,52.972557],[-0.801134,52.972554],[-0.801448,52.972807],[-0.800827,52.973167],[-0.799854,52.973169],[-0.799111,52.97435],[-0.796967,52.975862],[-0.797275,52.976213],[-0.796694,52.976245],[-0.79615,52.976732],[-0.790508,52.977224],[-0.788855,52.976694],[-0.787564,52.977679],[-0.784344,52.976419]]]}}]}