{"type":"FeatureCollection","features":[{"type":"Feature","properties":{"slug":"merton","gss_code":"E09000024","name":"Merton"},"geometry":{"type":"Polygon","coordinates":[[[-0.190249,51.434802],[-0.191171,51.433455],[-0.189775,51.431351],[-0.188399,51.432089],[-0.187398,51.432103],[-0.187268,51.432986],[-0.185726,51.433166],[-0.184231,51.431268],[-0.184555,51.427819],[-0.184046,51.426352],[-0.181939,51.424731],[-0.17357,51.423177],[-0.167952,51.42082],[-0.164834,51.420358],[-0.165015,51.420107],[-0.161649,51.419857],[-0.160326,51.421907],[-0.159915,51.421965],[-0.15986,51.422603],[-0.151388,51.419874],[-0.149421,51.419888],[-0.144454,51.417752],[-0.140359,51.419264],[-0.144984,51.415791],[-0.144311,51.415345],[-0.147126,51.413757],[-0.148065,51.41287],[-0.144789,51.412389],[-0.142598,51.413348],[-0.137987,51.411771],[-0.134083,51.410991],[-0.133503,51.412939],[-0.13356,51.41258],[-0.13268,51.412346],[-0.127883,51.411999],[-0.127725,51.412316],[-0.128173,51.410938],[-0.128485,51.410991],[-0.129456,51.409574],[-0.132077,51.409203],[-0.132303,51.406808],[-0.130446,51.403274],[-0.127713,51.401469],[-0.125398,51.398826],[-0.125681,51.398324],[-0.12465,51.398097],[-0.12414,51.39761],[-0.129652,51.393652],[-0.128727,51.393502],[-0.134322,51.390847],[-0.134837,51.390961],[-0.14185,51.389304],[-0.143233,51.390417],[-0.144281,51.390665],[-0.158027,51.389251],[-0.158271,51.388821],[-0.159871,51.388509],[-0.160961,51.387819],[-0.161826,51.388137],[-0.165299,51.387999],[-0.16633,51.389609],[-0.167472,51.390004],[-0.171308,51.392518],[-0.172919,51.392675],[-0.174813,51.393413],[-0.1793,51.389805],[-0.188399,51.385434],[-0.190492,51.386204],[-0.190291,51.386371],[-0.191607,51.387115],[-0.191845,51.386912],[-0.193142,51.387834],[-0.19348,51.387647],[-0.193844,51.387914],[-0.200282,51.384942],[-0.203407,51.387253],[-0.205074,51.386136],[-0.209784,51.3883],[-0.21336,51.385055],[-0.212944,51.384851],[-0.21374,51.384036],[-0.21808,51.380182],[-0.227725,51.383969],[-0.233712,51.387615],[-0.234641,51.390558],[-0.239691,51.389274],[-0.240095,51.391188],[-0.241708,51.393897],[-0.244672,51.394724],[-0.247407,51.39757],[-0.246727,51.398619],[-0.246816,51.400508],[-0.245226,51.401755],[-0.244703,51.403855],[-0.245336,51.40707],[-0.245819,51.407561],[-0.247022,51.407847],[-0.247483,51.408479],[-0.247158,51.409607],[-0.249521,51.414776],[-0.249651,51.418565],[-0.251156,51.42239],[-0.252928,51.423214],[-0.252239,51.425702],[-0.254239,51.429302],[-0.253307,51.430838],[-0.252442,51.431206],[-0.251085,51.432558],[-0.241417,51.435024],[-0.231242,51.438163],[-0.224476,51.438607],[-0.224314,51.438868],[-0.220629,51.438461],[-0.217822,51.438693],[-0.216594,51.438371],[-0.215698,51.437743],[-0.21253,51.437829],[-0.190027,51.441465],[-0.189854,51.440271],[-0.19064,51.438919],[-0.189218,51.438544],[-0.190249,51.434802]]]}}]}