{"type":"FeatureCollection","features":[{"type":"Feature","properties":{"slug":"mid-sussex","gss_code":"E07000228","name":"Mid Sussex"},"geometry":{"type":"Polygon","coordinates":[[[-0.081066,51.142204],[-0.076313,51.142296],[-0.073962,51.141778],[-0.06708,51.141107],[-0.063203,51.141258],[-0.056326,51.136766],[-0.053017,51.137839],[-0.046354,51.139131],[-0.04178,51.139566],[-0.033241,51.139261],[-0.030705,51.138617],[-0.024655,51.138613],[-0.021136,51.139389],[-0.020049,51.139288],[-0.020369,51.140957],[-0.018781,51.140719],[-0.018344,51.141184],[-0.016701,51.140995],[-0.016165,51.140381],[-0.014414,51.140066],[-0.01445,51.139625],[-0.012455,51.139266],[-0.012446,51.138899],[-0.011332,51.139073],[-0.010172,51.13874],[-0.010044,51.138313],[-0.006786,51.13914],[-0.00623,51.138474],[-0.006732,51.137641],[-0.005483,51.137948],[-0.005427,51.138209],[-0.003149,51.138106],[-0.001397,51.138934],[0.001166,51.139606],[0.007097,51.138986],[0.010984,51.138949],[0.017094,51.139149],[0.019915,51.139952],[0.020986,51.139348],[0.023239,51.139073],[0.02736,51.139848],[0.026089,51.137021],[0.027227,51.135555],[0.027812,51.13318],[0.026046,51.131914],[0.025289,51.128208],[0.025496,51.127323],[0.025926,51.126767],[0.026455,51.126693],[0.026363,51.125433],[0.025205,51.12344],[0.025623,51.122606],[0.026898,51.121858],[0.028147,51.117712],[0.032439,51.116696],[0.034223,51.115918],[0.034545,51.114967],[0.036464,51.115116],[0.037452,51.113222],[0.036784,51.112231],[0.039997,51.111765],[0.041499,51.11222],[0.041261,51.110815],[0.044131,51.111094],[0.044537,51.110647],[0.041258,51.110234],[0.039211,51.10938],[0.038531,51.109929],[0.037982,51.109849],[0.037534,51.110389],[0.036789,51.110481],[0.036385,51.1099],[0.035386,51.109794],[0.03414,51.108578],[0.03296,51.10863],[0.033169,51.108309],[0.032297,51.108104],[0.031875,51.108643],[0.027085,51.108566],[0.02713,51.109021],[0.025515,51.109054],[0.023924,51.107879],[0.021491,51.106969],[0.018561,51.103592],[0.015702,51.104559],[0.013175,51.106077],[0.009505,51.110392],[0.008583,51.108829],[0.006729,51.10772],[0.006918,51.106747],[0.00575,51.106246],[0.004942,51.10522],[0.006577,51.104574],[0.007376,51.104812],[0.009939,51.103741],[0.011362,51.102555],[0.010583,51.102178],[0.008253,51.102542],[0.00294,51.102292],[0.001374,51.101445],[-0.000663,51.100982],[-0.004242,51.099177],[-0.005265,51.098917],[-0.007065,51.099146],[-0.007163,51.098437],[-0.008056,51.097762],[-0.010903,51.096523],[-0.011981,51.096367],[-0.013931,51.097571],[-0.014256,51.096872],[-0.015868,51.096606],[-0.017691,51.097061],[-0.018332,51.096401],[-0.019564,51.096022],[-0.021362,51.096801],[-0.021754,51.096629],[-0.021608,51.09594],[-0.022373,51.095381],[-0.023904,51.095006],[-0.025401,51.094213],[-0.02617,51.09175],[-0.026991,51.091743],[-0.028046,51.093129],[-0.030835,51.094213],[-0.035485,51.093833],[-0.036197,51.093457],[-0.036193,51.092997],[-0.035127,51.092445],[-0.031045,51.092567],[-0.031784,51.091337],[-0.031535,51.087838],[-0.028044,51.081868],[-0.026852,51.075113],[-0.024011,51.075818],[-0.021841,51.075947],[-0.019582,51.075669],[-0.016849,51.074226],[-0.013257,51.073967],[-0.013992,51.070435],[-0.01497,51.069352],[-0.013144,51.06651],[-0.011108,51.065852],[-0.010214,51.065],[-0.010358,51.064094],[-0.009763,51.06354],[-0.011421,51.06268],[-0.011139,51.060956],[-0.010403,51.059253],[-0.008475,51.057637],[-0.008548,51.056458],[-0.005924,51.056818],[-0.003777,51.056308],[-0.002552,51.055505],[0.002024,51.055655],[0.001662,51.057516],[0.004182,51.057745],[0.00429,51.058064],[0.006107,51.057521],[0.007844,51.057978],[0.008733,51.056893],[0.010436,51.057255],[0.013741,51.056996],[0.012603,51.055667],[0.011255,51.052993],[0.007721,51.050907],[0.004039,51.04988],[0.002022,51.048933],[-0.00181,51.048436],[-0.003002,51.047564],[-0.003509,51.04682],[-0.002094,51.044589],[-0.002374,51.044017],[-0.002017,51.043068],[-0.00271,51.042316],[-0.005662,51.041491],[-0.005698,51.041226],[-0.007638,51.040958],[-0.006619,51.040072],[-0.007904,51.038988],[-0.007516,51.038046],[-0.004229,51.038289],[-0.001889,51.037714],[-0.00213,51.036995],[-0.000639,51.036958],[-0.001565,51.035755],[-0.002566,51.035212],[-0.008044,51.034186],[-0.008215,51.032473],[-0.010118,51.031295],[-0.011212,51.029431],[-0.012073,51.028788],[-0.013501,51.029119],[-0.014968,51.028835],[-0.017092,51.027774],[-0.017927,51.028003],[-0.018423,51.027684],[-0.020659,51.027484],[-0.021174,51.026741],[-0.021875,51.026503],[-0.020883,51.026452],[-0.020268,51.026026],[-0.02001,51.024644],[-0.020461,51.022583],[-0.019635,51.021582],[-0.021578,51.020738],[-0.020481,51.020177],[-0.020633,51.019857],[-0.019661,51.019504],[-0.019993,51.018589],[-0.02218,51.016784],[-0.021877,51.016682],[-0.021517,51.01707],[-0.019522,51.016601],[-0.019466,51.015683],[-0.016031,51.014814],[-0.016519,51.014526],[-0.01665,51.01381],[-0.017714,51.013618],[-0.017577,51.01318],[-0.018329,51.012521],[-0.01793,51.012195],[-0.01872,51.011167],[-0.018445,51.010694],[-0.01886,51.010663],[-0.019888,51.009441],[-0.019906,51.007839],[-0.018626,51.006717],[-0.019212,51.006555],[-0.019271,51.005879],[-0.018789,51.00581],[-0.018788,51.005476],[-0.020096,51.003468],[-0.018486,51.003133],[-0.018484,51.002633],[-0.017373,51.003197],[-0.015657,51.002943],[-0.015802,51.002513],[-0.01635,51.002496],[-0.01779,51.000167],[-0.017607,50.998971],[-0.018484,50.995914],[-0.018146,50.995292],[-0.018832,50.992334],[-0.018774,50.988966],[-0.019152,50.989075],[-0.019344,50.988663],[-0.019535,50.987264],[-0.020231,50.986189],[-0.020076,50.985404],[-0.023533,50.982242],[-0.024604,50.980025],[-0.029318,50.979229],[-0.032152,50.979882],[-0.032025,50.979584],[-0.034665,50.977453],[-0.0363,50.977191],[-0.037072,50.977384],[-0.037867,50.978822],[-0.036716,50.979058],[-0.036718,50.979792],[-0.039586,50.97931],[-0.044454,50.979614],[-0.0454,50.980493],[-0.046985,50.981208],[-0.048757,50.981135],[-0.050135,50.980378],[-0.051795,50.980026],[-0.052238,50.979548],[-0.058432,50.979998],[-0.05998,50.979503],[-0.060678,50.978541],[-0.061266,50.978384],[-0.063713,50.979212],[-0.064033,50.979637],[-0.063572,50.979988],[-0.063769,50.980818],[-0.065043,50.981163],[-0.065186,50.982121],[-0.066236,50.982813],[-0.065559,50.983669],[-0.065696,50.985785],[-0.06716,50.988998],[-0.068511,50.989478],[-0.070525,50.991345],[-0.072012,50.991302],[-0.073619,50.991675],[-0.075463,50.991101],[-0.076785,50.991453],[-0.078765,50.990872],[-0.08382,50.990719],[-0.083159,50.989825],[-0.082007,50.989673],[-0.082391,50.989092],[-0.085291,50.989652],[-0.086668,50.988912],[-0.086832,50.987853],[-0.091855,50.983289],[-0.092282,50.983297],[-0.09314,50.980598],[-0.092804,50.980192],[-0.093067,50.979228],[-0.094189,50.979369],[-0.097341,50.978789],[-0.098107,50.979378],[-0.102017,50.97941],[-0.101596,50.980086],[-0.10267,50.980843],[-0.104346,50.980304],[-0.108716,50.980243],[-0.111684,50.976338],[-0.113966,50.976521],[-0.11434,50.975962],[-0.115148,50.976117],[-0.116337,50.973486],[-0.116107,50.970369],[-0.115709,50.969846],[-0.115124,50.969779],[-0.116309,50.967176],[-0.112669,50.967341],[-0.110385,50.967807],[-0.108555,50.96698],[-0.109398,50.96571],[-0.109095,50.96546],[-0.10936,50.965042],[-0.105496,50.964377],[-0.10817,50.960522],[-0.108519,50.95881],[-0.108302,50.957994],[-0.107911,50.957866],[-0.108195,50.956893],[-0.106228,50.954664],[-0.106281,50.953811],[-0.105209,50.951701],[-0.105275,50.950619],[-0.104253,50.947293],[-0.105426,50.94311],[-0.108916,50.943803],[-0.111099,50.943677],[-0.118093,50.945259],[-0.120037,50.941712],[-0.12006,50.941334],[-0.117888,50.941491],[-0.116919,50.941066],[-0.118756,50.940528],[-0.120063,50.940586],[-0.120469,50.938515],[-0.119913,50.932882],[-0.121034,50.930087],[-0.120774,50.929909],[-0.122393,50.928372],[-0.125698,50.923788],[-0.127048,50.920655],[-0.128403,50.918871],[-0.129624,50.914082],[-0.129694,50.911388],[-0.130285,50.911331],[-0.130834,50.910248],[-0.130782,50.909757],[-0.130081,50.909535],[-0.130729,50.906038],[-0.13082,50.900401],[-0.131941,50.896084],[-0.133373,50.893969],[-0.133979,50.888178],[-0.135005,50.88665],[-0.1371,50.884614],[-0.142454,50.884261],[-0.142118,50.885785],[-0.144637,50.886978],[-0.152469,50.885465],[-0.153157,50.884811],[-0.152749,50.882493],[-0.152908,50.879857],[-0.154956,50.879722],[-0.161905,50.881002],[-0.168124,50.88077],[-0.168323,50.882859],[-0.167647,50.884858],[-0.168239,50.885247],[-0.165839,50.892335],[-0.168578,50.892379],[-0.16858,50.891372],[-0.169124,50.891366],[-0.169322,50.889917],[-0.177783,50.890461],[-0.180758,50.888291],[-0.182417,50.888271],[-0.181302,50.88365],[-0.181861,50.880905],[-0.185073,50.876585],[-0.186271,50.875674],[-0.187725,50.875586],[-0.189748,50.874416],[-0.187734,50.86857],[-0.189219,50.869028],[-0.194371,50.869645],[-0.197354,50.869551],[-0.198988,50.870121],[-0.200921,50.874914],[-0.202637,50.875857],[-0.205402,50.870087],[-0.209257,50.870505],[-0.213882,50.870465],[-0.214147,50.875179],[-0.224555,50.876292],[-0.224647,50.877239],[-0.225522,50.878068],[-0.226719,50.878181],[-0.232671,50.875939],[-0.23382,50.875158],[-0.237551,50.87179],[-0.238754,50.869719],[-0.239238,50.867886],[-0.242406,50.868317],[-0.244342,50.869022],[-0.24866,50.873071],[-0.248404,50.874962],[-0.246863,50.876289],[-0.245551,50.876284],[-0.245061,50.880612],[-0.243791,50.884889],[-0.243837,50.888692],[-0.243339,50.891722],[-0.243887,50.895925],[-0.243189,50.899369],[-0.243769,50.901461],[-0.243416,50.902096],[-0.241641,50.902157],[-0.244154,50.907363],[-0.241857,50.907714],[-0.241491,50.908013],[-0.241014,50.907654],[-0.239583,50.907689],[-0.236174,50.908194],[-0.234013,50.909868],[-0.233484,50.911293],[-0.226279,50.91166],[-0.224414,50.9114],[-0.223741,50.911781],[-0.226771,50.912693],[-0.226515,50.913651],[-0.226912,50.914158],[-0.225814,50.915944],[-0.225974,50.916672],[-0.226692,50.916901],[-0.227706,50.91823],[-0.2293,50.918671],[-0.228561,50.9213],[-0.229853,50.924156],[-0.229506,50.92436],[-0.229838,50.92525],[-0.2294,50.926188],[-0.230092,50.926866],[-0.230063,50.927937],[-0.230587,50.928576],[-0.23148,50.928917],[-0.230255,50.92996],[-0.229957,50.931483],[-0.23025,50.932051],[-0.229449,50.933445],[-0.230037,50.934175],[-0.229713,50.934412],[-0.230069,50.935344],[-0.2311,50.935559],[-0.231644,50.935365],[-0.231963,50.935791],[-0.231539,50.936458],[-0.22832,50.938445],[-0.22789,50.939548],[-0.228179,50.940839],[-0.227552,50.942381],[-0.224427,50.942912],[-0.225054,50.945444],[-0.22476,50.948448],[-0.22986,50.94861],[-0.238747,50.950049],[-0.240232,50.951269],[-0.240897,50.952853],[-0.240972,50.957443],[-0.240451,50.958983],[-0.241143,50.961651],[-0.240836,50.963718],[-0.241507,50.96785],[-0.241414,50.970048],[-0.240284,50.973693],[-0.235919,50.979589],[-0.233934,50.981684],[-0.23279,50.983602],[-0.229756,50.986421],[-0.229749,50.987592],[-0.230963,50.989178],[-0.236139,50.987174],[-0.24182,50.986755],[-0.241996,50.990726],[-0.241071,50.991503],[-0.239325,50.991973],[-0.239168,50.992684],[-0.237131,50.992499],[-0.236259,50.992778],[-0.236691,50.996308],[-0.234996,50.998676],[-0.234827,50.99957],[-0.235004,51.004256],[-0.235745,51.005728],[-0.234688,51.00628],[-0.232741,51.008327],[-0.232723,51.009965],[-0.232015,51.010847],[-0.238041,51.012062],[-0.245137,51.012261],[-0.245498,51.014132],[-0.244585,51.015706],[-0.243048,51.01691],[-0.240991,51.016969],[-0.239951,51.017408],[-0.238451,51.01953],[-0.236907,51.020211],[-0.236639,51.021018],[-0.237554,51.021545],[-0.237781,51.02215],[-0.242194,51.023261],[-0.242699,51.023802],[-0.249081,51.024947],[-0.247947,51.027965],[-0.24806,51.031042],[-0.247086,51.033429],[-0.243948,51.034576],[-0.241428,51.035025],[-0.240757,51.035066],[-0.239384,51.034252],[-0.23931,51.034534],[-0.235833,51.035795],[-0.236097,51.036247],[-0.229237,51.037908],[-0.228127,51.037717],[-0.228224,51.035323],[-0.226523,51.034617],[-0.225306,51.037241],[-0.224058,51.037935],[-0.22297,51.038048],[-0.222438,51.037634],[-0.219159,51.037922],[-0.221589,51.0404],[-0.221744,51.041082],[-0.226758,51.041568],[-0.225996,51.044078],[-0.22356,51.04563],[-0.222327,51.047579],[-0.221216,51.047985],[-0.219405,51.051782],[-0.223318,51.057239],[-0.222754,51.060165],[-0.222122,51.060747],[-0.220206,51.060986],[-0.220003,51.061392],[-0.218725,51.061836],[-0.217848,51.063657],[-0.215652,51.064145],[-0.212254,51.064125],[-0.211891,51.06435],[-0.211296,51.068355],[-0.213005,51.071931],[-0.212299,51.072259],[-0.212583,51.07538],[-0.21152,51.075387],[-0.2109,51.079505],[-0.211449,51.082626],[-0.212755,51.084801],[-0.212751,51.085899],[-0.212075,51.086613],[-0.211995,51.08629],[-0.207632,51.086344],[-0.201052,51.084885],[-0.1964,51.084806],[-0.195581,51.086147],[-0.190987,51.087742],[-0.174044,51.089287],[-0.172542,51.089896],[-0.168833,51.090546],[-0.16448,51.092004],[-0.162128,51.092444],[-0.153942,51.096485],[-0.150616,51.099251],[-0.147884,51.100814],[-0.146387,51.102247],[-0.145185,51.102641],[-0.145218,51.103181],[-0.139509,51.108051],[-0.137367,51.111545],[-0.136808,51.116838],[-0.137785,51.119072],[-0.13794,51.12058],[-0.138755,51.120555],[-0.140873,51.12403],[-0.141508,51.127955],[-0.14108,51.130179],[-0.139514,51.132547],[-0.140091,51.134227],[-0.139898,51.136213],[-0.137572,51.14216],[-0.131749,51.141469],[-0.131085,51.139434],[-0.127402,51.139536],[-0.12757,51.140302],[-0.125143,51.14086],[-0.124558,51.140273],[-0.120811,51.140722],[-0.117829,51.140575],[-0.117252,51.141606],[-0.114586,51.141104],[-0.114965,51.140702],[-0.111644,51.140375],[-0.111765,51.140079],[-0.109169,51.139368],[-0.09369,51.138426],[-0.085389,51.142751],[-0.082613,51.142638],[-0.081066,51.142204]]]}}]}