{"type":"FeatureCollection","features":[{"type":"Feature","properties":{"slug":"mid-suffolk","gss_code":"E07000203","name":"Mid Suffolk"},"geometry":{"type":"Polygon","coordinates":[[[1.349867,52.403342],[1.351495,52.403884],[1.352976,52.403538],[1.357409,52.404082],[1.359013,52.403915],[1.359497,52.403342],[1.360964,52.403523],[1.364244,52.398477],[1.364796,52.398184],[1.367393,52.398886],[1.368416,52.397269],[1.370924,52.395605],[1.371532,52.394724],[1.374857,52.394677],[1.375917,52.393354],[1.37573,52.389641],[1.378394,52.388363],[1.37972,52.386262],[1.382601,52.384668],[1.388518,52.380136],[1.391429,52.378603],[1.393175,52.378115],[1.396505,52.37508],[1.398715,52.373991],[1.399991,52.372805],[1.400421,52.371657],[1.403747,52.369459],[1.409509,52.363265],[1.407017,52.360908],[1.400415,52.35752],[1.397726,52.355486],[1.393789,52.355399],[1.38771,52.354243],[1.383822,52.352189],[1.380109,52.348621],[1.377437,52.347717],[1.374675,52.347746],[1.369505,52.346334],[1.367413,52.344723],[1.365243,52.342309],[1.361978,52.341308],[1.359912,52.339823],[1.357405,52.337274],[1.362161,52.334366],[1.360862,52.333286],[1.359629,52.3304],[1.358009,52.323033],[1.357476,52.322157],[1.360375,52.320393],[1.365059,52.318432],[1.367323,52.317866],[1.371017,52.313731],[1.373021,52.313194],[1.375036,52.31312],[1.377024,52.313585],[1.379307,52.313267],[1.380548,52.312082],[1.380247,52.311269],[1.381987,52.310421],[1.384022,52.310667],[1.384271,52.309372],[1.38229,52.305502],[1.380725,52.303546],[1.383301,52.300021],[1.382267,52.299352],[1.38414,52.294106],[1.387155,52.291654],[1.391269,52.290749],[1.398064,52.28773],[1.401645,52.285698],[1.393859,52.283357],[1.390789,52.283065],[1.388007,52.281672],[1.388695,52.281338],[1.386717,52.280735],[1.38471,52.280765],[1.384178,52.280313],[1.381501,52.279816],[1.376311,52.275455],[1.376003,52.276089],[1.371968,52.275416],[1.371073,52.276083],[1.367226,52.277149],[1.363037,52.27783],[1.35968,52.27895],[1.35548,52.278775],[1.356232,52.277205],[1.355702,52.276331],[1.356336,52.275452],[1.355657,52.274077],[1.353548,52.275442],[1.35275,52.276489],[1.35045,52.276656],[1.350574,52.278074],[1.350034,52.279059],[1.349369,52.279306],[1.34936,52.279842],[1.346145,52.280099],[1.344432,52.28209],[1.344957,52.28343],[1.345009,52.286059],[1.34703,52.288829],[1.346555,52.290953],[1.347674,52.292298],[1.347296,52.293405],[1.343786,52.295172],[1.339913,52.296114],[1.338572,52.296812],[1.336685,52.297082],[1.336136,52.297508],[1.33174,52.298413],[1.327591,52.298479],[1.327638,52.297498],[1.328302,52.296652],[1.328263,52.294536],[1.328994,52.294521],[1.330077,52.292948],[1.330402,52.290966],[1.33261,52.290951],[1.332688,52.289929],[1.333893,52.287894],[1.336486,52.287465],[1.339502,52.287413],[1.341269,52.284448],[1.340648,52.280424],[1.338998,52.276708],[1.337473,52.277013],[1.336862,52.276668],[1.337749,52.274396],[1.337313,52.274094],[1.338251,52.27276],[1.338169,52.271898],[1.337031,52.270493],[1.338429,52.270219],[1.339767,52.265926],[1.338534,52.266288],[1.3337,52.265443],[1.328948,52.265423],[1.326453,52.264642],[1.32617,52.263817],[1.324623,52.263346],[1.322208,52.260128],[1.317106,52.258695],[1.311078,52.258977],[1.309435,52.259658],[1.303555,52.259429],[1.301512,52.258817],[1.301018,52.259016],[1.2973,52.256388],[1.293377,52.255474],[1.292464,52.254847],[1.291845,52.253164],[1.293368,52.250359],[1.293516,52.247609],[1.288552,52.241941],[1.286456,52.240461],[1.282021,52.239663],[1.279797,52.238303],[1.277398,52.238282],[1.27409,52.23725],[1.270506,52.23586],[1.269833,52.235035],[1.268133,52.234089],[1.258064,52.230837],[1.257856,52.230349],[1.256427,52.230623],[1.254194,52.230452],[1.247952,52.229065],[1.247363,52.228674],[1.2463,52.226771],[1.248923,52.225814],[1.246112,52.222319],[1.246081,52.221353],[1.245052,52.220358],[1.2454,52.219301],[1.243544,52.217695],[1.248347,52.215828],[1.243527,52.214403],[1.244336,52.213169],[1.241621,52.212144],[1.243985,52.210644],[1.242736,52.208209],[1.243038,52.207255],[1.242685,52.205118],[1.241684,52.20438],[1.241984,52.201108],[1.242264,52.20034],[1.245684,52.200154],[1.247102,52.200526],[1.247748,52.20007],[1.249251,52.200336],[1.250676,52.199763],[1.250589,52.199287],[1.2526,52.19816],[1.253934,52.197922],[1.254552,52.198244],[1.25673,52.198365],[1.25724,52.197073],[1.256957,52.19492],[1.255185,52.194547],[1.255456,52.191153],[1.255158,52.189988],[1.254016,52.190046],[1.254173,52.188131],[1.251257,52.18607],[1.247502,52.184767],[1.247621,52.18348],[1.244232,52.181337],[1.243257,52.180016],[1.241476,52.175873],[1.239843,52.170429],[1.237135,52.16966],[1.22878,52.170434],[1.226993,52.169755],[1.224104,52.169404],[1.224065,52.168991],[1.220884,52.169294],[1.219813,52.167751],[1.220517,52.167256],[1.219795,52.166935],[1.216066,52.166416],[1.213965,52.166539],[1.215043,52.164625],[1.215425,52.161571],[1.211722,52.160548],[1.211247,52.160048],[1.205204,52.158149],[1.202247,52.155809],[1.196668,52.155004],[1.196632,52.148583],[1.195482,52.147286],[1.193974,52.147376],[1.193681,52.14696],[1.192185,52.144154],[1.191403,52.139984],[1.18702,52.139608],[1.176703,52.13693],[1.17678,52.135735],[1.175353,52.132466],[1.171768,52.132258],[1.169469,52.13125],[1.170487,52.129315],[1.170129,52.129263],[1.170204,52.127623],[1.172453,52.127562],[1.173307,52.128293],[1.175635,52.129158],[1.177953,52.127886],[1.176633,52.126954],[1.176481,52.125988],[1.177797,52.122129],[1.177767,52.1207],[1.17671,52.119824],[1.17227,52.118167],[1.172339,52.117446],[1.171226,52.117288],[1.171891,52.115549],[1.17037,52.114305],[1.170572,52.113631],[1.169092,52.113205],[1.165514,52.113314],[1.164173,52.108781],[1.165089,52.106018],[1.165226,52.103578],[1.167231,52.099804],[1.166421,52.09838],[1.164635,52.09716],[1.162683,52.094649],[1.161509,52.094508],[1.160294,52.093078],[1.162762,52.092283],[1.160511,52.0915],[1.157839,52.088752],[1.154287,52.091017],[1.153726,52.091221],[1.153591,52.090981],[1.151627,52.091978],[1.151956,52.09242],[1.149336,52.092883],[1.14947,52.093728],[1.144897,52.093988],[1.144586,52.094345],[1.142292,52.09447],[1.142224,52.0942],[1.141101,52.094282],[1.1403,52.094067],[1.140216,52.093708],[1.139552,52.093689],[1.140032,52.091792],[1.13942,52.0915],[1.139804,52.089271],[1.138474,52.089128],[1.138533,52.088393],[1.133512,52.087874],[1.132446,52.088034],[1.129868,52.087604],[1.129621,52.087321],[1.123363,52.087621],[1.120875,52.087404],[1.113786,52.09005],[1.112681,52.08878],[1.111028,52.089265],[1.110494,52.088362],[1.109594,52.088402],[1.109119,52.088097],[1.108885,52.085606],[1.11134,52.085559],[1.111195,52.084863],[1.111828,52.084837],[1.11123,52.083152],[1.1103,52.082705],[1.110342,52.081997],[1.109263,52.08196],[1.108668,52.080443],[1.110342,52.079396],[1.10934,52.078386],[1.110394,52.078562],[1.112071,52.076443],[1.110518,52.075353],[1.111534,52.074727],[1.110921,52.074294],[1.110907,52.073342],[1.109222,52.073558],[1.109216,52.071043],[1.107659,52.071758],[1.107586,52.072141],[1.105574,52.071728],[1.105047,52.070843],[1.103372,52.07018],[1.100111,52.069576],[1.097591,52.068681],[1.096694,52.066516],[1.091371,52.065407],[1.081831,52.065781],[1.069383,52.065138],[1.067891,52.065456],[1.065387,52.065392],[1.058189,52.066535],[1.057614,52.068511],[1.053389,52.070002],[1.05288,52.073042],[1.051373,52.075033],[1.049058,52.075315],[1.049033,52.07623],[1.047576,52.077865],[1.046457,52.078111],[1.045445,52.077911],[1.045118,52.076112],[1.043541,52.075222],[1.041462,52.074578],[1.041922,52.072262],[1.040957,52.071015],[1.041604,52.069671],[1.041019,52.069519],[1.041431,52.068626],[1.035855,52.068424],[1.033159,52.06937],[1.028752,52.069921],[1.026056,52.070912],[1.026605,52.071707],[1.026477,52.07284],[1.027908,52.074261],[1.027339,52.07463],[1.028205,52.076747],[1.027466,52.077944],[1.020501,52.083583],[1.019804,52.085275],[1.019115,52.085693],[1.020303,52.08687],[1.016759,52.089637],[1.010816,52.091634],[1.00661,52.093526],[1.007105,52.093789],[1.005101,52.097524],[1.003808,52.09861],[0.996818,52.098112],[0.994331,52.097091],[0.992787,52.095983],[0.99081,52.096683],[0.985721,52.097254],[0.984436,52.097124],[0.979782,52.095245],[0.979874,52.096513],[0.977496,52.09689],[0.976384,52.096857],[0.973007,52.095365],[0.970778,52.095671],[0.973071,52.097669],[0.974796,52.099939],[0.97333,52.100745],[0.975362,52.101425],[0.974131,52.103928],[0.973509,52.103834],[0.972832,52.104905],[0.972238,52.104792],[0.971986,52.105074],[0.973673,52.105294],[0.97312,52.106923],[0.970053,52.106552],[0.96622,52.104544],[0.96524,52.105439],[0.9641,52.105057],[0.963659,52.105273],[0.96208,52.104519],[0.959302,52.104855],[0.956592,52.106079],[0.957332,52.106383],[0.953361,52.108504],[0.951547,52.110578],[0.952427,52.111336],[0.951779,52.112757],[0.951253,52.112674],[0.950569,52.119625],[0.953655,52.120281],[0.951276,52.123805],[0.949325,52.12522],[0.94659,52.125957],[0.944735,52.127646],[0.945342,52.128832],[0.94481,52.129483],[0.947637,52.131051],[0.946919,52.13148],[0.946364,52.134685],[0.947202,52.135458],[0.94566,52.136172],[0.946482,52.137105],[0.948366,52.137215],[0.948823,52.137817],[0.946727,52.142573],[0.94538,52.142556],[0.945415,52.143489],[0.944033,52.144654],[0.946551,52.145496],[0.946173,52.146213],[0.944567,52.147336],[0.944424,52.149502],[0.943738,52.150545],[0.942762,52.151193],[0.938416,52.152466],[0.939449,52.153389],[0.941729,52.153674],[0.93805,52.15754],[0.93654,52.157063],[0.936837,52.15648],[0.934922,52.15585],[0.93338,52.155909],[0.933266,52.156525],[0.932333,52.15625],[0.930737,52.154371],[0.929873,52.153993],[0.928795,52.154039],[0.927277,52.153036],[0.922607,52.153768],[0.921945,52.155269],[0.918321,52.155893],[0.913069,52.153488],[0.911744,52.153655],[0.907511,52.15302],[0.897946,52.150542],[0.89237,52.150472],[0.893883,52.157678],[0.888776,52.155638],[0.883505,52.15503],[0.88298,52.155462],[0.882133,52.154663],[0.88158,52.154701],[0.878745,52.157592],[0.877505,52.15932],[0.877788,52.159427],[0.874022,52.160116],[0.872321,52.163491],[0.86989,52.164547],[0.868823,52.165577],[0.86354,52.164018],[0.861922,52.163831],[0.859441,52.165936],[0.857658,52.165461],[0.859536,52.16339],[0.856296,52.162851],[0.853002,52.161862],[0.846965,52.161762],[0.843326,52.161266],[0.832912,52.16198],[0.829771,52.162725],[0.825579,52.162667],[0.82118,52.164102],[0.816601,52.168221],[0.815146,52.169122],[0.814386,52.16893],[0.813721,52.170435],[0.817242,52.17237],[0.822494,52.174559],[0.824572,52.179715],[0.829862,52.17925],[0.830123,52.180283],[0.836274,52.182169],[0.83335,52.184688],[0.832729,52.186841],[0.833345,52.186824],[0.834679,52.187993],[0.836042,52.190121],[0.836042,52.192681],[0.838055,52.194583],[0.838129,52.195341],[0.83723,52.195215],[0.837226,52.195683],[0.835359,52.195825],[0.836693,52.196798],[0.835963,52.197235],[0.836346,52.198296],[0.832556,52.198651],[0.832638,52.197615],[0.832038,52.19763],[0.831907,52.197144],[0.830083,52.196838],[0.829776,52.197323],[0.832106,52.197693],[0.831915,52.198965],[0.830257,52.19904],[0.829284,52.197633],[0.827594,52.198614],[0.826417,52.200217],[0.825353,52.199456],[0.824501,52.199667],[0.821355,52.19899],[0.819416,52.198987],[0.819919,52.200167],[0.818809,52.202029],[0.815155,52.20391],[0.814208,52.207043],[0.817125,52.213286],[0.819806,52.221327],[0.820635,52.222769],[0.821974,52.223264],[0.820832,52.223521],[0.821719,52.224895],[0.822775,52.227915],[0.820915,52.22937],[0.821856,52.229983],[0.819952,52.233379],[0.824163,52.238868],[0.82713,52.238968],[0.824974,52.240336],[0.821398,52.241535],[0.816923,52.241425],[0.813589,52.243804],[0.813426,52.245995],[0.806681,52.246439],[0.80777,52.249395],[0.801053,52.251107],[0.797581,52.25123],[0.798225,52.2562],[0.802186,52.258144],[0.798994,52.262356],[0.800832,52.263659],[0.799441,52.264713],[0.801604,52.265909],[0.803768,52.265984],[0.809417,52.267051],[0.81299,52.265102],[0.817711,52.264382],[0.820709,52.26649],[0.82298,52.266269],[0.825826,52.266515],[0.83306,52.264816],[0.836244,52.263139],[0.836931,52.261976],[0.841919,52.26012],[0.843865,52.2598],[0.845958,52.261778],[0.845707,52.262327],[0.844646,52.263227],[0.842502,52.263985],[0.840184,52.266319],[0.842594,52.268027],[0.849568,52.264804],[0.85206,52.265486],[0.85356,52.267514],[0.856327,52.268442],[0.855509,52.269764],[0.854119,52.270438],[0.852794,52.271725],[0.85444,52.27516],[0.853888,52.27522],[0.854212,52.276227],[0.853683,52.27707],[0.850466,52.278429],[0.849102,52.280095],[0.849046,52.281961],[0.84843,52.282351],[0.845985,52.282711],[0.843898,52.284443],[0.842899,52.284781],[0.849788,52.285344],[0.8527,52.286183],[0.855557,52.286349],[0.855262,52.291546],[0.859664,52.291964],[0.863626,52.293267],[0.869003,52.293459],[0.868687,52.295755],[0.866795,52.297864],[0.874079,52.299492],[0.874329,52.298282],[0.87689,52.297552],[0.876989,52.295827],[0.880023,52.296014],[0.880339,52.295309],[0.8796,52.293406],[0.883785,52.292785],[0.887357,52.292719],[0.886875,52.295908],[0.885634,52.296097],[0.885727,52.297424],[0.884649,52.297412],[0.883625,52.298269],[0.882866,52.298184],[0.882935,52.300137],[0.889687,52.299722],[0.892885,52.300102],[0.895935,52.299993],[0.898313,52.299712],[0.899454,52.29899],[0.900152,52.298916],[0.90284,52.300781],[0.90335,52.30181],[0.903161,52.303846],[0.908919,52.301592],[0.911678,52.30206],[0.911336,52.303481],[0.909014,52.304472],[0.908185,52.303487],[0.904577,52.305588],[0.908731,52.30613],[0.916814,52.308102],[0.919472,52.309413],[0.918545,52.311338],[0.925136,52.311737],[0.931124,52.312869],[0.930127,52.314322],[0.927541,52.316432],[0.925941,52.319279],[0.92681,52.320084],[0.926214,52.321424],[0.92612,52.323353],[0.92514,52.325587],[0.925693,52.327336],[0.926852,52.328335],[0.928509,52.327951],[0.931432,52.330402],[0.932271,52.331998],[0.932222,52.332944],[0.933192,52.334146],[0.932697,52.33573],[0.936116,52.335322],[0.937941,52.334702],[0.940579,52.335517],[0.946621,52.336457],[0.953231,52.336861],[0.952888,52.33714],[0.955081,52.338145],[0.955831,52.339331],[0.957304,52.340353],[0.95748,52.340743],[0.95566,52.341718],[0.956745,52.345471],[0.957696,52.345723],[0.957982,52.347408],[0.957378,52.347862],[0.957964,52.350755],[0.956959,52.350856],[0.956152,52.351499],[0.956006,52.354401],[0.955097,52.355602],[0.953154,52.356033],[0.953707,52.35701],[0.959191,52.361707],[0.964719,52.364103],[0.96721,52.365721],[0.96705,52.366842],[0.966629,52.367103],[0.966611,52.368702],[0.967214,52.36884],[0.967471,52.370113],[0.977986,52.370017],[0.980319,52.369519],[0.987137,52.371524],[0.988401,52.371554],[0.990918,52.370814],[0.997812,52.37154],[0.998663,52.371757],[1.003468,52.374592],[1.006814,52.375743],[1.014202,52.375692],[1.021465,52.378033],[1.027686,52.378572],[1.029098,52.378593],[1.029107,52.378275],[1.029971,52.378249],[1.029983,52.378742],[1.034004,52.378374],[1.035265,52.37904],[1.03709,52.3791],[1.037722,52.377327],[1.044167,52.377808],[1.048264,52.377687],[1.048763,52.378038],[1.050143,52.378183],[1.051315,52.378115],[1.053234,52.3773],[1.056187,52.377033],[1.062107,52.377332],[1.064563,52.377961],[1.065024,52.378641],[1.068384,52.378506],[1.069333,52.377846],[1.070447,52.377742],[1.069644,52.376735],[1.072779,52.375784],[1.075361,52.373148],[1.079258,52.372364],[1.082483,52.373094],[1.099805,52.371555],[1.102159,52.370708],[1.104645,52.37123],[1.111509,52.371665],[1.113626,52.371102],[1.115,52.371348],[1.11616,52.371015],[1.116093,52.370692],[1.117259,52.369681],[1.118233,52.369444],[1.119422,52.369699],[1.120982,52.36931],[1.123009,52.367222],[1.127834,52.367118],[1.130251,52.367709],[1.131912,52.367457],[1.132663,52.367806],[1.133979,52.367086],[1.139133,52.367142],[1.141103,52.366826],[1.141432,52.366502],[1.143613,52.366376],[1.144518,52.364979],[1.145975,52.365079],[1.1466,52.364517],[1.147717,52.364784],[1.150375,52.364589],[1.150748,52.363457],[1.154852,52.361993],[1.155407,52.361498],[1.158444,52.36117],[1.160823,52.361449],[1.161226,52.362139],[1.162937,52.362144],[1.163827,52.361925],[1.163885,52.361516],[1.165223,52.361401],[1.165306,52.360983],[1.167572,52.360189],[1.170802,52.359883],[1.172434,52.360409],[1.173369,52.359857],[1.174171,52.360454],[1.175214,52.359978],[1.176426,52.360294],[1.177192,52.360966],[1.179577,52.360283],[1.180404,52.359469],[1.182191,52.35937],[1.182124,52.358828],[1.18248,52.358734],[1.186955,52.359777],[1.187809,52.360945],[1.189204,52.361069],[1.190064,52.361784],[1.191257,52.361759],[1.192647,52.361043],[1.195256,52.361466],[1.195882,52.360688],[1.197811,52.360529],[1.198015,52.360171],[1.20016,52.359824],[1.200815,52.358676],[1.201923,52.359639],[1.202746,52.359651],[1.206049,52.357359],[1.208323,52.357087],[1.212641,52.355387],[1.214079,52.355412],[1.214945,52.355732],[1.216314,52.357362],[1.217013,52.357425],[1.217813,52.357027],[1.220681,52.358042],[1.220301,52.358458],[1.220813,52.359121],[1.22131,52.359073],[1.221643,52.358502],[1.222195,52.358517],[1.222905,52.359523],[1.224191,52.360041],[1.22508,52.359916],[1.226186,52.360528],[1.227927,52.36006],[1.230329,52.360277],[1.231801,52.361731],[1.233214,52.362048],[1.233013,52.364947],[1.234508,52.364868],[1.236654,52.365402],[1.238377,52.364897],[1.24006,52.365722],[1.242444,52.366023],[1.243387,52.365731],[1.24451,52.366036],[1.245627,52.365324],[1.247062,52.365539],[1.247393,52.366407],[1.24833,52.365815],[1.249021,52.366298],[1.249856,52.366375],[1.251157,52.367844],[1.252151,52.368402],[1.253322,52.370266],[1.255903,52.371043],[1.258382,52.370564],[1.259997,52.371099],[1.262355,52.372986],[1.26286,52.374345],[1.264049,52.374546],[1.264364,52.375045],[1.265581,52.375572],[1.266534,52.376917],[1.267601,52.377451],[1.268222,52.378214],[1.268199,52.379392],[1.269784,52.380235],[1.270832,52.380046],[1.271505,52.381169],[1.272315,52.381559],[1.272512,52.382306],[1.274849,52.383518],[1.275816,52.383562],[1.276508,52.38441],[1.278486,52.385082],[1.279283,52.385979],[1.279206,52.386798],[1.281049,52.38765],[1.281273,52.388562],[1.283155,52.388992],[1.286235,52.39069],[1.288964,52.390958],[1.290556,52.390014],[1.291376,52.39018],[1.291496,52.389758],[1.293206,52.38952],[1.295388,52.390607],[1.296131,52.39172],[1.299134,52.391783],[1.300049,52.391373],[1.301274,52.391747],[1.302587,52.39062],[1.304604,52.391],[1.306921,52.390164],[1.308224,52.389377],[1.308526,52.388499],[1.311797,52.38784],[1.313172,52.388251],[1.316489,52.387371],[1.316855,52.387614],[1.316171,52.388436],[1.31759,52.388413],[1.320012,52.389559],[1.321713,52.389018],[1.322704,52.389105],[1.324718,52.39031],[1.325029,52.391014],[1.325984,52.391642],[1.330606,52.393554],[1.330252,52.394317],[1.331468,52.394714],[1.33173,52.395463],[1.333365,52.397065],[1.333457,52.398515],[1.335213,52.399744],[1.335798,52.401966],[1.337809,52.401714],[1.34028,52.402353],[1.341708,52.402201],[1.344815,52.403718],[1.347581,52.404424],[1.349867,52.403342]]]}}]}