{"type":"FeatureCollection","features":[{"type":"Feature","properties":{"slug":"middlesbrough","gss_code":"E06000002","name":"Middlesbrough"},"geometry":{"type":"MultiPolygon","coordinates":[[[[-1.277197,54.547826],[-1.276905,54.548147],[-1.277117,54.547908],[-1.277197,54.547826]]],[[[-1.273903,54.552338],[-1.273881,54.552366],[-1.273813,54.552368],[-1.273903,54.552338]]],[[[-1.273307,54.552865],[-1.272131,54.553475],[-1.272219,54.553356],[-1.273307,54.552865]]],[[[-1.271146,54.554945],[-1.270872,54.555758],[-1.270935,54.555376],[-1.271146,54.554945]]],[[[-1.19652,54.575323],[-1.200264,54.576916],[-1.200287,54.576941],[-1.19652,54.575323]]],[[[-1.194335,54.579865],[-1.198687,54.578053],[-1.200948,54.577693],[-1.202218,54.579067],[-1.202449,54.580379],[-1.198313,54.5817],[-1.197373,54.581533],[-1.197514,54.582101],[-1.194335,54.579865]]],[[[-1.230169,54.583773],[-1.22981,54.584082],[-1.229784,54.583679],[-1.229394,54.583956],[-1.226706,54.583551],[-1.224065,54.58266],[-1.223157,54.582875],[-1.215309,54.5811],[-1.215353,54.580617],[-1.219872,54.580227],[-1.219511,54.578924],[-1.212093,54.580274],[-1.209615,54.579889],[-1.204862,54.580074],[-1.203593,54.577115],[-1.206983,54.57684],[-1.206604,54.5766],[-1.203516,54.577043],[-1.204226,54.579893],[-1.202757,54.580217],[-1.202236,54.57894],[-1.201027,54.577681],[-1.201743,54.577567],[-1.200302,54.576901],[-1.194214,54.57432],[-1.190309,54.574876],[-1.186571,54.572659],[-1.184851,54.569795],[-1.183554,54.569222],[-1.177745,54.568474],[-1.176429,54.566531],[-1.176467,54.564977],[-1.175829,54.5638],[-1.175865,54.561223],[-1.172293,54.559302],[-1.170729,54.557416],[-1.168881,54.55644],[-1.166663,54.554053],[-1.173554,54.552839],[-1.176826,54.551576],[-1.179193,54.550213],[-1.185951,54.549099],[-1.190684,54.547903],[-1.195683,54.545204],[-1.198764,54.544565],[-1.198808,54.544247],[-1.191433,54.539318],[-1.180807,54.533522],[-1.167804,54.526965],[-1.164362,54.525676],[-1.161567,54.52506],[-1.162553,54.523546],[-1.164994,54.521943],[-1.161818,54.520197],[-1.16154,54.518471],[-1.15974,54.515837],[-1.155949,54.516291],[-1.15322,54.516129],[-1.148245,54.514401],[-1.147329,54.515264],[-1.142499,54.515957],[-1.139959,54.515808],[-1.137369,54.514995],[-1.139468,54.509267],[-1.141119,54.507767],[-1.142862,54.504802],[-1.144077,54.503819],[-1.146262,54.503112],[-1.146693,54.501372],[-1.148059,54.501125],[-1.152667,54.501912],[-1.158296,54.502373],[-1.163113,54.503542],[-1.164073,54.503412],[-1.164193,54.503149],[-1.165369,54.503547],[-1.166033,54.503109],[-1.166638,54.503724],[-1.166977,54.503384],[-1.168972,54.503534],[-1.170653,54.502348],[-1.172309,54.502552],[-1.172727,54.502881],[-1.173541,54.502505],[-1.174392,54.502894],[-1.173908,54.503209],[-1.174209,54.503839],[-1.173471,54.504049],[-1.173864,54.504717],[-1.175549,54.504688],[-1.176143,54.504314],[-1.179379,54.505999],[-1.180011,54.506195],[-1.181163,54.505772],[-1.185094,54.507285],[-1.189725,54.506293],[-1.195485,54.506632],[-1.19668,54.506185],[-1.202146,54.506953],[-1.203786,54.506894],[-1.207289,54.508146],[-1.208453,54.508878],[-1.213845,54.510005],[-1.219065,54.510166],[-1.220136,54.510941],[-1.227612,54.511996],[-1.230605,54.511882],[-1.230442,54.511003],[-1.231728,54.511427],[-1.233405,54.510569],[-1.234866,54.510316],[-1.236489,54.510739],[-1.237779,54.510666],[-1.238689,54.511303],[-1.240281,54.511489],[-1.241461,54.512064],[-1.242168,54.511576],[-1.243662,54.511399],[-1.245238,54.511557],[-1.246781,54.511297],[-1.248787,54.51197],[-1.249825,54.511713],[-1.250645,54.512002],[-1.251239,54.513117],[-1.256303,54.512395],[-1.256375,54.511402],[-1.259066,54.512674],[-1.263863,54.512545],[-1.264164,54.512996],[-1.266243,54.513567],[-1.267267,54.514446],[-1.267828,54.514351],[-1.268186,54.514694],[-1.269943,54.514614],[-1.272802,54.515098],[-1.273323,54.514766],[-1.274267,54.514904],[-1.276816,54.51657],[-1.277579,54.516558],[-1.278366,54.517203],[-1.278919,54.517207],[-1.278577,54.517449],[-1.27926,54.517495],[-1.279293,54.517812],[-1.282249,54.51838],[-1.282002,54.519718],[-1.28075,54.520558],[-1.28194,54.522478],[-1.282764,54.522966],[-1.282059,54.52411],[-1.282457,54.525382],[-1.282071,54.52643],[-1.283021,54.526566],[-1.283389,54.527508],[-1.283898,54.527652],[-1.283515,54.527885],[-1.284332,54.527974],[-1.284259,54.528572],[-1.285074,54.530297],[-1.284701,54.530503],[-1.284653,54.532898],[-1.285432,54.53625],[-1.284656,54.536666],[-1.284818,54.537035],[-1.283963,54.538119],[-1.283558,54.537954],[-1.28196,54.538659],[-1.278786,54.542415],[-1.278873,54.545244],[-1.278635,54.545762],[-1.27779,54.546077],[-1.27801,54.547109],[-1.276936,54.547177],[-1.277128,54.547853],[-1.274879,54.546574],[-1.277069,54.547861],[-1.276204,54.54871],[-1.275456,54.551752],[-1.274079,54.552044],[-1.271536,54.553784],[-1.270913,54.555274],[-1.270624,54.556589],[-1.271119,54.557225],[-1.275505,54.558863],[-1.278093,54.560877],[-1.281886,54.56514],[-1.277915,54.566174],[-1.269147,54.567052],[-1.265881,54.567905],[-1.262494,54.569449],[-1.260437,54.5717],[-1.256745,54.587833],[-1.255901,54.588966],[-1.254365,54.589864],[-1.251569,54.590703],[-1.247816,54.590593],[-1.245932,54.590206],[-1.237416,54.586306],[-1.230015,54.584124],[-1.230169,54.583773]]]]}}]}