{"type":"FeatureCollection","features":[{"type":"Feature","properties":{"slug":"milton-keynes","gss_code":"E06000042","name":"Milton Keynes"},"geometry":{"type":"Polygon","coordinates":[[[-0.681236,52.195724],[-0.680023,52.196141],[-0.675256,52.195804],[-0.673425,52.196067],[-0.668136,52.195034],[-0.667945,52.194073],[-0.665991,52.192732],[-0.661307,52.191774],[-0.659336,52.191026],[-0.657448,52.189775],[-0.655584,52.1896],[-0.651,52.189965],[-0.64316,52.188845],[-0.640858,52.187167],[-0.63914,52.186688],[-0.639779,52.184507],[-0.63951,52.183435],[-0.630293,52.181781],[-0.627447,52.181545],[-0.629317,52.178714],[-0.627723,52.17619],[-0.628255,52.172536],[-0.631173,52.171824],[-0.633529,52.169951],[-0.634929,52.168067],[-0.634486,52.16658],[-0.63149,52.164262],[-0.630136,52.16196],[-0.629613,52.15957],[-0.630688,52.155024],[-0.632763,52.153988],[-0.63581,52.15319],[-0.640766,52.152818],[-0.640595,52.152095],[-0.639579,52.151421],[-0.636032,52.14751],[-0.637923,52.146129],[-0.636391,52.143772],[-0.634362,52.142392],[-0.634929,52.141162],[-0.635598,52.141203],[-0.635452,52.139254],[-0.634942,52.139198],[-0.634623,52.137972],[-0.630124,52.137407],[-0.62893,52.136937],[-0.627056,52.13523],[-0.61936,52.133021],[-0.617631,52.133045],[-0.614151,52.133897],[-0.607249,52.133869],[-0.604016,52.130231],[-0.602122,52.128932],[-0.598912,52.125731],[-0.59901,52.123595],[-0.597808,52.121951],[-0.596927,52.119222],[-0.597159,52.117458],[-0.598017,52.116517],[-0.59783,52.115613],[-0.595731,52.113578],[-0.593055,52.112264],[-0.59181,52.110692],[-0.593252,52.110487],[-0.597137,52.108567],[-0.59862,52.106875],[-0.600353,52.106142],[-0.600965,52.10537],[-0.601872,52.105027],[-0.596751,52.101685],[-0.598106,52.101034],[-0.602536,52.100135],[-0.603959,52.099124],[-0.604531,52.095824],[-0.605979,52.095483],[-0.607274,52.094561],[-0.605788,52.092122],[-0.608396,52.09114],[-0.609711,52.091041],[-0.611209,52.09011],[-0.615172,52.088947],[-0.616506,52.088218],[-0.618581,52.085616],[-0.621156,52.084342],[-0.623384,52.083742],[-0.62431,52.084235],[-0.625819,52.084457],[-0.62816,52.082144],[-0.631358,52.080975],[-0.632426,52.079749],[-0.635367,52.078183],[-0.636447,52.077088],[-0.638537,52.073126],[-0.638586,52.071698],[-0.641584,52.067721],[-0.6437,52.066673],[-0.648328,52.065803],[-0.651008,52.064144],[-0.653417,52.06174],[-0.654383,52.059496],[-0.656852,52.058006],[-0.658051,52.056776],[-0.659133,52.056963],[-0.661238,52.053959],[-0.66213,52.054351],[-0.663327,52.052529],[-0.664077,52.052016],[-0.665762,52.051568],[-0.667644,52.050395],[-0.668976,52.048717],[-0.643057,52.037257],[-0.64387,52.035535],[-0.643264,52.034662],[-0.643405,52.032559],[-0.644817,52.031221],[-0.642248,52.030294],[-0.643893,52.028269],[-0.642536,52.028089],[-0.643164,52.026832],[-0.642567,52.026711],[-0.643012,52.025898],[-0.640829,52.025316],[-0.641488,52.024764],[-0.640202,52.024071],[-0.640329,52.023661],[-0.645852,52.021684],[-0.647536,52.019035],[-0.65096,52.018547],[-0.650555,52.017042],[-0.649075,52.014891],[-0.648319,52.01525],[-0.645008,52.013657],[-0.644024,52.012773],[-0.644382,52.012645],[-0.64346,52.010901],[-0.64543,52.010334],[-0.649413,52.010265],[-0.650657,52.00967],[-0.656285,52.005394],[-0.656616,52.003983],[-0.658753,52.001737],[-0.659385,52.000037],[-0.66169,51.999736],[-0.660239,51.996691],[-0.660119,51.994682],[-0.659324,51.993043],[-0.660626,51.9908],[-0.657791,51.989816],[-0.655465,51.9882],[-0.655462,51.987252],[-0.655971,51.986738],[-0.655101,51.985175],[-0.656285,51.984361],[-0.655791,51.98377],[-0.656351,51.982727],[-0.656173,51.982026],[-0.651289,51.977617],[-0.649077,51.976216],[-0.648077,51.974405],[-0.645681,51.972228],[-0.647472,51.971585],[-0.649857,51.971269],[-0.651058,51.970539],[-0.652236,51.970337],[-0.653017,51.969249],[-0.666108,51.976082],[-0.668662,51.977633],[-0.669129,51.978421],[-0.670424,51.97791],[-0.670856,51.976542],[-0.67745,51.976745],[-0.678358,51.978254],[-0.682185,51.979566],[-0.687917,51.980598],[-0.688809,51.981128],[-0.689788,51.981202],[-0.693136,51.982454],[-0.696276,51.98225],[-0.700074,51.984419],[-0.700078,51.985419],[-0.701553,51.985447],[-0.701577,51.986965],[-0.703751,51.988023],[-0.709319,51.988343],[-0.713384,51.989816],[-0.713817,51.987719],[-0.715488,51.985608],[-0.715229,51.984948],[-0.71787,51.982416],[-0.717092,51.981485],[-0.71449,51.980999],[-0.71384,51.980454],[-0.714397,51.980061],[-0.713192,51.979844],[-0.712734,51.978904],[-0.713971,51.978563],[-0.713941,51.977871],[-0.723729,51.975289],[-0.729756,51.973017],[-0.73047,51.97235],[-0.73308,51.971944],[-0.740379,51.969863],[-0.747555,51.973557],[-0.743647,51.975247],[-0.748193,51.977015],[-0.755436,51.980648],[-0.757805,51.983007],[-0.761997,51.985558],[-0.771206,51.982913],[-0.776278,51.988625],[-0.782824,51.98852],[-0.78924,51.987948],[-0.794118,51.987126],[-0.799474,51.986969],[-0.803504,51.985504],[-0.804512,51.98616],[-0.806293,51.995749],[-0.807789,51.999918],[-0.812243,52.006016],[-0.813797,52.005532],[-0.816329,52.005434],[-0.817996,52.006072],[-0.819338,52.007318],[-0.819259,52.010622],[-0.819614,52.010701],[-0.819301,52.011664],[-0.819818,52.012286],[-0.824933,52.014828],[-0.827208,52.01521],[-0.829174,52.016033],[-0.831813,52.018142],[-0.835312,52.01881],[-0.839191,52.021107],[-0.844991,52.022647],[-0.847008,52.024611],[-0.84741,52.025528],[-0.849531,52.025982],[-0.852435,52.027411],[-0.851926,52.027986],[-0.856957,52.030505],[-0.855943,52.031637],[-0.858071,52.033011],[-0.857815,52.033214],[-0.859124,52.034384],[-0.861346,52.035542],[-0.861172,52.035737],[-0.865405,52.0377],[-0.865067,52.038104],[-0.867135,52.038571],[-0.866938,52.040081],[-0.871274,52.04022],[-0.871772,52.0418],[-0.870714,52.043659],[-0.867734,52.046221],[-0.865707,52.046683],[-0.864792,52.045784],[-0.864154,52.045597],[-0.864017,52.0459],[-0.863231,52.046019],[-0.862595,52.045261],[-0.859423,52.044602],[-0.857883,52.046026],[-0.855586,52.047351],[-0.855705,52.047949],[-0.852901,52.049997],[-0.852445,52.050841],[-0.853284,52.052248],[-0.855629,52.053175],[-0.858,52.053225],[-0.860403,52.054525],[-0.860973,52.055449],[-0.859869,52.056226],[-0.8602,52.058081],[-0.860626,52.058718],[-0.862007,52.059346],[-0.863016,52.060272],[-0.862679,52.060934],[-0.85927,52.063158],[-0.859238,52.063623],[-0.857359,52.064091],[-0.85524,52.063972],[-0.85064,52.064683],[-0.845192,52.062969],[-0.839595,52.063796],[-0.835792,52.066259],[-0.833864,52.068694],[-0.832835,52.069366],[-0.832581,52.071172],[-0.831313,52.072006],[-0.832407,52.07203],[-0.834071,52.072746],[-0.834175,52.073434],[-0.834753,52.07362],[-0.834937,52.074326],[-0.836026,52.075063],[-0.83603,52.076814],[-0.835245,52.077621],[-0.835249,52.07981],[-0.836779,52.080593],[-0.837443,52.082293],[-0.839207,52.082835],[-0.840652,52.083784],[-0.8417,52.083724],[-0.841292,52.084089],[-0.843805,52.084899],[-0.843711,52.085706],[-0.845096,52.08644],[-0.845577,52.087771],[-0.846336,52.08812],[-0.845928,52.089032],[-0.846785,52.090787],[-0.846278,52.091036],[-0.846713,52.091509],[-0.850079,52.092415],[-0.850497,52.092091],[-0.851681,52.092038],[-0.854332,52.092585],[-0.854779,52.092354],[-0.856034,52.093109],[-0.856374,52.095046],[-0.857917,52.097508],[-0.858453,52.097412],[-0.860293,52.09801],[-0.861332,52.09785],[-0.862147,52.098287],[-0.863522,52.098404],[-0.864845,52.099256],[-0.867455,52.099286],[-0.868624,52.099633],[-0.868916,52.100167],[-0.869531,52.100038],[-0.868777,52.101089],[-0.867985,52.101084],[-0.866022,52.101952],[-0.86527,52.102938],[-0.86682,52.10378],[-0.867444,52.104724],[-0.868417,52.104297],[-0.869863,52.105097],[-0.869794,52.106427],[-0.86902,52.107071],[-0.870243,52.107748],[-0.868985,52.107988],[-0.868618,52.108441],[-0.869307,52.109482],[-0.869152,52.109876],[-0.869803,52.110456],[-0.870435,52.11027],[-0.871473,52.11178],[-0.873043,52.11268],[-0.873825,52.112274],[-0.87488,52.112509],[-0.875234,52.112179],[-0.876468,52.11292],[-0.878166,52.112875],[-0.878514,52.11248],[-0.88034,52.113041],[-0.881485,52.112645],[-0.88357,52.113538],[-0.88451,52.11331],[-0.886131,52.113498],[-0.887033,52.114215],[-0.887324,52.11473],[-0.886528,52.114973],[-0.886345,52.115578],[-0.885146,52.116228],[-0.88394,52.116367],[-0.882892,52.117507],[-0.883002,52.118078],[-0.88197,52.118183],[-0.882437,52.118845],[-0.881542,52.119062],[-0.881748,52.119891],[-0.880669,52.120173],[-0.880765,52.121733],[-0.880006,52.122368],[-0.880832,52.123429],[-0.87965,52.124148],[-0.880758,52.126292],[-0.879836,52.126666],[-0.87886,52.126141],[-0.869005,52.130648],[-0.868711,52.130135],[-0.865993,52.130165],[-0.853529,52.131674],[-0.85294,52.130338],[-0.851265,52.129344],[-0.846739,52.12941],[-0.838228,52.130714],[-0.835768,52.132843],[-0.83211,52.131253],[-0.828205,52.132611],[-0.828632,52.135697],[-0.831363,52.141294],[-0.831967,52.143684],[-0.816544,52.143525],[-0.814019,52.142475],[-0.813495,52.143852],[-0.813004,52.144211],[-0.812581,52.144128],[-0.812771,52.14572],[-0.811398,52.146712],[-0.810982,52.147666],[-0.809141,52.148753],[-0.809307,52.150065],[-0.807246,52.151594],[-0.806948,52.15282],[-0.807588,52.156979],[-0.802673,52.15755],[-0.801957,52.158679],[-0.799708,52.157065],[-0.798917,52.155368],[-0.796853,52.153404],[-0.794097,52.154047],[-0.793874,52.153248],[-0.794259,52.152362],[-0.793562,52.152283],[-0.792091,52.151329],[-0.79047,52.152101],[-0.787715,52.154241],[-0.786403,52.156536],[-0.784187,52.158676],[-0.783412,52.160276],[-0.780312,52.163357],[-0.783095,52.164188],[-0.783194,52.165925],[-0.779514,52.16559],[-0.777879,52.168772],[-0.77359,52.168888],[-0.765332,52.171099],[-0.764141,52.167799],[-0.762717,52.166312],[-0.762746,52.16498],[-0.762048,52.163446],[-0.760976,52.164007],[-0.759847,52.165704],[-0.75681,52.16745],[-0.750657,52.167639],[-0.749735,52.166877],[-0.746066,52.168872],[-0.744795,52.17028],[-0.742539,52.170955],[-0.73895,52.171178],[-0.73875,52.172237],[-0.73743,52.173668],[-0.734731,52.1735],[-0.72926,52.179473],[-0.725489,52.180876],[-0.720738,52.181902],[-0.719008,52.182565],[-0.716028,52.185441],[-0.711619,52.188187],[-0.708662,52.188792],[-0.705044,52.190787],[-0.705456,52.191571],[-0.701672,52.193308],[-0.696339,52.194304],[-0.69408,52.195266],[-0.686629,52.195814],[-0.684788,52.196355],[-0.681236,52.195724]]]}}]}