{"type":"FeatureCollection","features":[{"type":"Feature","properties":{"slug":"scotland","name":"Scotland"},"geometry":{"type":"MultiPolygon","coordinates":[[[[-5.2109,55.7056],[-5.26,55.7207],[-5.3151,55.7061],[-5.3648,55.6783],[-5.3953,55.6113],[-5.3491,55.5709],[-5.3554,55.5067],[-5.3181,55.4718],[-5.2514,55.4394],[-5.1964,55.4338],[-5.1124,55.4399],[-5.0832,55.4555],[-5.0948,55.4917],[-5.0793,55.5098],[-5.1252,55.5242],[-5.0832,55.5522],[-5.1088,55.5718],[-5.1536,55.5784],[-5.1292,55.6136],[-5.1591,55.6751],[-5.2109,55.7056]]],[[[-5.7222,55.7279],[-5.7743,55.6768],[-5.7635,55.6459],[-5.7344,55.6594],[-5.7222,55.7279]]],[[[-4.8936,55.7658],[-4.9038,55.7928],[-4.9296,55.7845],[-4.9469,55.7431],[-4.8936,55.7658]]],[[[-5.1823,55.9248],[-5.2214,55.9012],[-5.1697,55.8521],[-5.1292,55.8452],[-5.1204,55.7723],[-5.1026,55.7797],[-5.061,55.7585],[-5.0538,55.7332],[-5.0043,55.7308],[-5.032,55.7536],[-5.001,55.77],[-5.0247,55.8434],[-5.0589,55.8392],[-5.0873,55.8617],[-5.0784,55.8814],[-5.1823,55.9248]]],[[[-6.1273,55.938],[-6.1969,55.9269],[-6.3054,55.8669],[-6.3345,55.8223],[-6.3461,55.8345],[-6.3393,55.8879],[-6.4145,55.8524],[-6.4546,55.8524],[-6.4566,55.8092],[-6.487,55.7927],[-6.4566,55.7825],[-6.4976,55.7356],[-6.4983,55.706],[-6.5257,55.6929],[-6.4885,55.6711],[-6.4148,55.706],[-6.3717,55.7446],[-6.3473,55.7842],[-6.2597,55.7843],[-6.2523,55.771],[-6.3315,55.742],[-6.3412,55.7161],[-6.2875,55.7022],[-6.2591,55.6576],[-6.3038,55.6487],[-6.3392,55.5911],[-6.2678,55.5791],[-6.2115,55.6203],[-6.1494,55.6256],[-6.0633,55.6595],[-6.0297,55.6827],[-6.0469,55.7636],[-6.084,55.7826],[-6.104,55.8129],[-6.1081,55.8567],[-6.1321,55.8897],[-6.1273,55.938]]],[[[-6.2184,56.028],[-6.2702,56.0232],[-6.2552,56.0017],[-6.2184,56.028]]],[[[-6.1397,56.1228],[-6.1808,56.1177],[-6.2462,56.0841],[-6.2551,56.0489],[-6.2788,56.0372],[-6.188,56.041],[-6.1957,56.0606],[-6.1674,56.0789],[-6.1397,56.1228]]],[[[-5.7075,56.1485],[-5.8222,56.0896],[-5.9499,56.0376],[-6.0061,55.9731],[-5.9404,55.9604],[-5.8548,55.9903],[-5.8487,55.9782],[-5.9182,55.9573],[-6.027,55.947],[-6.0869,55.9],[-6.0874,55.8313],[-6.0358,55.7954],[-5.9638,55.7928],[-5.9396,55.8259],[-5.9365,55.8674],[-5.9023,55.8673],[-5.8974,55.8899],[-5.845,55.9403],[-5.7931,56.0132],[-5.6876,56.1114],[-5.7075,56.1485]]],[[[-5.6802,56.1865],[-5.6882,56.1996],[-5.7439,56.1771],[-5.7443,56.1612],[-5.6723,56.1682],[-5.6802,56.1865]]],[[[-5.6092,56.2293],[-5.6113,56.1954],[-5.5887,56.2074],[-5.6092,56.2293]]],[[[-5.6232,56.2502],[-5.639,56.2701],[-5.6655,56.2192],[-5.6353,56.1902],[-5.6232,56.2502]]],[[[-5.5855,56.3246],[-5.6188,56.3218],[-5.6542,56.2977],[-5.6244,56.2653],[-5.5992,56.28],[-5.5855,56.3246]]],[[[-6.4071,56.3145],[-6.386,56.3506],[-6.4284,56.3366],[-6.4403,56.3096],[-6.4071,56.3145]]],[[[-5.4981,56.4199],[-5.5634,56.4082],[-5.5885,56.3804],[-5.5515,56.3728],[-5.4981,56.4199]]],[[[-6.2166,56.4984],[-6.2686,56.4784],[-6.241,56.466],[-6.1418,56.4714],[-6.2166,56.4984]]],[[[-5.4309,56.5575],[-5.47,56.5486],[-5.5224,56.5125],[-5.5688,56.4958],[-5.5985,56.461],[-5.507,56.4981],[-5.4309,56.5575]]],[[[-6.7265,56.5406],[-6.7543,56.5557],[-6.7786,56.5371],[-6.8177,56.5431],[-6.8729,56.5189],[-6.9509,56.529],[-6.9877,56.504],[-6.9668,56.4582],[-6.8942,56.4447],[-6.8955,56.4742],[-6.8675,56.4907],[-6.8116,56.4889],[-6.8048,56.5236],[-6.7256,56.5272],[-6.7265,56.5406]]],[[[-5.7749,56.4958],[-5.7966,56.5148],[-5.8246,56.5062],[-5.8615,56.5211],[-5.9515,56.518],[-5.9894,56.5797],[-6.0699,56.6211],[-6.0666,56.6386],[-6.1276,56.6559],[-6.1983,56.6423],[-6.1946,56.6237],[-6.227,56.6334],[-6.2242,56.605],[-6.3238,56.6062],[-6.3152,56.5771],[-6.2869,56.5811],[-6.3405,56.5372],[-6.2821,56.5234],[-6.2299,56.5288],[-6.1487,56.5002],[-6.1232,56.473],[-6.0357,56.4883],[-5.9968,56.4825],[-6.072,56.4478],[-6.1184,56.4514],[-6.1512,56.4131],[-6.206,56.3852],[-6.1949,56.3588],[-6.106,56.3668],[-6.0032,56.3937],[-6.0186,56.3645],[-6.103,56.3422],[-6.1903,56.3322],[-6.3568,56.3437],[-6.3724,56.3188],[-6.3304,56.2742],[-6.2688,56.2714],[-6.201,56.2917],[-6.1429,56.2845],[-6.0784,56.3021],[-6.044,56.293],[-5.9899,56.3206],[-5.9344,56.3215],[-5.8767,56.3562],[-5.8462,56.3456],[-5.8884,56.3214],[-5.8341,56.3109],[-5.7458,56.3418],[-5.6946,56.3731],[-5.7267,56.3817],[-5.793,56.3679],[-5.7318,56.3962],[-5.6789,56.384],[-5.6526,56.4155],[-5.6616,56.4482],[-5.7749,56.4958]]],[[[-6.4535,56.6878],[-6.4947,56.6905],[-6.5711,56.6492],[-6.6122,56.6378],[-6.6443,56.6019],[-6.7102,56.5767],[-6.625,56.5925],[-6.5667,56.5865],[-6.506,56.6166],[-6.4527,56.6748],[-6.4535,56.6878]]],[[[-5.8767,56.8106],[-5.8869,56.792],[-5.8092,56.7935],[-5.8767,56.8106]]],[[[-6.2657,56.8479],[-6.2774,56.8353],[-6.2199,56.8307],[-6.2657,56.8479]]],[[[-7.6236,56.8238],[-7.6577,56.7999],[-7.6221,56.8026],[-7.6236,56.8238]]],[[[-6.1117,56.9245],[-6.1386,56.9442],[-6.1587,56.915],[-6.2081,56.9049],[-6.2075,56.8874],[-6.1386,56.872],[-6.1163,56.8887],[-6.1117,56.9245]]],[[[-6.308,57.0536],[-6.33,57.0604],[-6.3978,57.0427],[-6.4601,57.0074],[-6.3797,56.9736],[-6.3696,56.9523],[-6.3119,56.9349],[-6.26,56.9624],[-6.2383,57.0048],[-6.2602,57.0368],[-6.308,57.0536]]],[[[-6.5567,57.0697],[-6.6048,57.0458],[-6.4884,57.0671],[-6.5567,57.0697]]],[[[-7.4492,57.0252],[-7.5062,57.0054],[-7.5243,56.9716],[-7.5611,56.9558],[-7.5318,56.9473],[-7.5731,56.9336],[-7.5342,56.9216],[-7.5312,56.9474],[-7.4359,56.9487],[-7.4378,56.9642],[-7.379,56.9901],[-7.419,56.9972],[-7.4492,57.0252]]],[[[-7.2991,57.067],[-7.2687,57.0909],[-7.3129,57.0835],[-7.2991,57.067]]],[[[-6.1834,57.1628],[-6.256,57.1495],[-6.204,57.136],[-6.1834,57.1628]]],[[[-5.9944,57.3248],[-6.0224,57.3058],[-5.9804,57.2738],[-5.929,57.2809],[-5.9246,57.305],[-5.9944,57.3248]]],[[[-7.3257,57.4051],[-7.4295,57.388],[-7.4038,57.3593],[-7.3967,57.3015],[-7.4206,57.2886],[-7.4355,57.2365],[-7.4124,57.1496],[-7.3735,57.1039],[-7.278,57.1077],[-7.2294,57.0959],[-7.2119,57.1174],[-7.2857,57.1427],[-7.3335,57.1359],[-7.3559,57.1537],[-7.2735,57.1509],[-7.2446,57.1637],[-7.2676,57.2241],[-7.2531,57.2604],[-7.2033,57.2809],[-7.2308,57.3357],[-7.2699,57.379],[-7.3322,57.3936],[-7.3257,57.4051]]],[[[-5.9784,57.4946],[-6.0572,57.4599],[-6.0849,57.4213],[-6.0828,57.3523],[-6.0503,57.3284],[-5.9928,57.3582],[-6.0323,57.4294],[-5.9784,57.4946]]],[[[-7.27,57.4442],[-7.2359,57.4638],[-7.3676,57.4918],[-7.4053,57.4721],[-7.3922,57.4241],[-7.3571,57.4228],[-7.3044,57.3988],[-7.2062,57.416],[-7.216,57.4363],[-7.27,57.4442]]],[[[-7.2322,57.5038],[-7.2757,57.499],[-7.2448,57.4789],[-7.2038,57.4754],[-7.2322,57.5038]]],[[[-5.9676,57.5815],[-5.9786,57.5146],[-5.9539,57.5684],[-5.9676,57.5815]]],[[[-6.3973,57.3431],[-6.3395,57.3053],[-6.4307,57.34],[-6.4828,57.311],[-6.4515,57.2624],[-6.3839,57.2227],[-6.363,57.1922],[-6.2848,57.2014],[-6.3221,57.1601],[-6.2097,57.1778],[-6.1735,57.1745],[-6.1681,57.1986],[-6.1019,57.1701],[-6.1127,57.1372],[-6.0838,57.1268],[-6.0293,57.1847],[-6.0369,57.2278],[-5.9835,57.1682],[-5.8664,57.1714],[-5.9318,57.1586],[-6.005,57.1148],[-6.0073,57.0747],[-6.0376,57.0474],[-6.0018,57.0202],[-5.9238,57.0432],[-5.8533,57.1116],[-5.8049,57.121],[-5.8046,57.1783],[-5.7811,57.1669],[-5.6694,57.2089],[-5.6476,57.2551],[-5.7296,57.2608],[-5.7535,57.2747],[-5.8035,57.2594],[-5.9142,57.2413],[-5.9202,57.2617],[-5.9939,57.2704],[-6.0206,57.2877],[-6.0702,57.2668],[-6.0416,57.2933],[-6.0558,57.3132],[-6.1001,57.3237],[-6.1462,57.371],[-6.1255,57.3953],[-6.1616,57.4064],[-6.2021,57.3905],[-6.1977,57.4121],[-6.1457,57.4301],[-6.1389,57.5451],[-6.1506,57.5865],[-6.1913,57.6333],[-6.2354,57.6374],[-6.2527,57.6747],[-6.3012,57.6916],[-6.297,57.7075],[-6.3564,57.698],[-6.3424,57.685],[-6.4277,57.6422],[-6.3942,57.6127],[-6.3945,57.5852],[-6.3594,57.5889],[-6.3985,57.5624],[-6.3652,57.5152],[-6.3046,57.4823],[-6.3998,57.5088],[-6.4526,57.4807],[-6.429,57.5179],[-6.4634,57.5009],[-6.5043,57.534],[-6.5655,57.5482],[-6.5811,57.5864],[-6.6346,57.6085],[-6.6417,57.5521],[-6.5606,57.508],[-6.6375,57.5023],[-6.5739,57.4302],[-6.6397,57.4427],[-6.717,57.5137],[-6.7484,57.4967],[-6.72,57.4497],[-6.7803,57.4578],[-6.7816,57.4263],[-6.7431,57.4176],[-6.7195,57.3717],[-6.6532,57.3584],[-6.5808,57.333],[-6.5636,57.3386],[-6.573,57.3885],[-6.5384,57.4135],[-6.5166,57.3932],[-6.4926,57.4057],[-6.4611,57.3426],[-6.3973,57.3431]]],[[[-7.2001,57.6201],[-7.2037,57.6445],[-7.1004,57.6079],[-7.0631,57.6403],[-7.132,57.6412],[-7.1665,57.6535],[-7.156,57.6766],[-7.195,57.6908],[-7.1439,57.7292],[-7.1996,57.7345],[-7.2278,57.7048],[-7.1829,57.703],[-7.2783,57.6643],[-7.2686,57.6475],[-7.3759,57.6588],[-7.3827,57.6309],[-7.4495,57.6632],[-7.4857,57.6506],[-7.5246,57.5882],[-7.4646,57.5651],[-7.4185,57.5829],[-7.3641,57.5558],[-7.3113,57.5542],[-7.3998,57.5403],[-7.361,57.4992],[-7.3452,57.5419],[-7.3131,57.5084],[-7.2459,57.507],[-7.1474,57.5163],[-7.1351,57.5541],[-7.1655,57.5474],[-7.2845,57.5526],[-7.1874,57.5662],[-7.1176,57.5662],[-7.1016,57.5935],[-7.1817,57.5969],[-7.1527,57.6131],[-7.2001,57.6201]]],[[[-7.215,57.7848],[-7.266,57.7735],[-7.242,57.76],[-7.215,57.7848]]],[[[-8.6152,57.8279],[-8.5741,57.7998],[-8.5501,57.8124],[-8.6152,57.8279]]],[[[-6.9957,57.9191],[-7.0414,57.9124],[-7.076,57.8914],[-7.0061,57.8844],[-6.9957,57.9191]]],[[[-7.1069,58.0275],[-7.1685,58.0272],[-7.1533,58.0089],[-7.1036,58.0046],[-7.1069,58.0275]]],[[[-6.8861,58.258],[-6.8672,58.2075],[-6.8043,58.2073],[-6.7853,58.2189],[-6.8369,58.2321],[-6.8496,58.2568],[-6.8861,58.258]]],[[[-6.4238,58.0973],[-6.5262,58.0854],[-6.578,58.0882],[-6.4715,58.1033],[-6.4221,58.1288],[-6.3705,58.1314],[-6.3975,58.2073],[-6.3529,58.1887],[-6.2873,58.2054],[-6.252,58.1802],[-6.2074,58.1897],[-6.1538,58.2214],[-6.1379,58.2597],[-6.2013,58.2478],[-6.2245,58.2273],[-6.2847,58.2067],[-6.3774,58.2219],[-6.3176,58.2464],[-6.3186,58.27],[-6.1864,58.348],[-6.2183,58.3682],[-6.1671,58.4297],[-6.1827,58.4637],[-6.2658,58.515],[-6.3079,58.4768],[-6.4359,58.4345],[-6.5471,58.3651],[-6.639,58.3429],[-6.6681,58.3497],[-6.7565,58.3066],[-6.8043,58.3043],[-6.828,58.2842],[-6.8089,58.2533],[-6.7724,58.2359],[-6.7155,58.1694],[-6.7498,58.1922],[-6.8282,58.2046],[-6.8835,58.1695],[-6.8589,58.1109],[-6.8784,58.1273],[-6.8932,58.1871],[-6.944,58.2043],[-6.9094,58.2138],[-6.9586,58.2346],[-7.0544,58.2208],[-7.0894,58.164],[-7.1354,58.1228],[-7.1134,58.1144],[-7.1003,58.0723],[-7.0205,58.0711],[-7.059,58.0556],[-7.0389,58.0337],[-6.9815,58.048],[-6.9124,58.0505],[-7.0292,58.0314],[-7.051,58.0113],[-7.0815,58.0203],[-7.0799,57.9671],[-7.0227,57.9523],[-7.008,57.9639],[-6.9113,57.9362],[-6.8496,57.9346],[-6.8642,57.9225],[-6.8136,57.9009],[-6.949,57.9047],[-6.9519,57.8774],[-7.0231,57.8347],[-7.0754,57.8221],[-7.1335,57.8374],[-7.0599,57.7829],[-6.9788,57.7436],[-6.9436,57.7402],[-6.8737,57.7747],[-6.8847,57.7942],[-6.8404,57.8163],[-6.7916,57.8048],[-6.7979,57.8344],[-6.7366,57.8269],[-6.7741,57.8675],[-6.8129,57.8821],[-6.7733,57.8995],[-6.7445,57.8861],[-6.6657,57.8821],[-6.6739,57.9172],[-6.7606,58.0034],[-6.6721,58.0449],[-6.6954,58.058],[-6.5864,58.0532],[-6.6643,58.0425],[-6.7128,58.011],[-6.7004,57.9603],[-6.6527,57.9188],[-6.6063,57.9173],[-6.6422,57.9559],[-6.6125,57.9504],[-6.5823,57.9151],[-6.5413,57.9173],[-6.5486,57.9565],[-6.5182,57.9276],[-6.4715,57.9379],[-6.4489,57.9656],[-6.4739,58.0008],[-6.5801,58.0034],[-6.4374,58.0163],[-6.3887,58],[-6.3601,58.037],[-6.379,58.0485],[-6.3788,58.0914],[-6.3986,58.1104],[-6.4238,58.0973]]],[[[-2.0346,55.8112],[-2.0698,55.8427],[-2.0768,55.872],[-2.1257,55.8837],[-2.1374,55.9165],[-2.2237,55.933],[-2.2592,55.9238],[-2.3304,55.9302],[-2.3852,55.951],[-2.4453,55.9879],[-2.5121,56.0064],[-2.5988,55.9977],[-2.5889,56.0222],[-2.6204,56.048],[-2.8131,56.0633],[-2.8659,56.0376],[-2.8584,56.011],[-2.9215,55.9735],[-3.0667,55.945],[-3.1185,55.9585],[-3.1822,55.9914],[-3.2632,55.9791],[-3.3266,55.9853],[-3.352,56.0016],[-3.3897,55.9898],[-3.5047,55.998],[-3.5975,56.021],[-3.6715,56.0157],[-3.6828,56.036],[-3.7284,56.0323],[-3.7333,56.0637],[-3.7691,56.0766],[-3.7972,56.109],[-3.6934,56.0509],[-3.5725,56.0579],[-3.5503,56.0418],[-3.4633,56.0302],[-3.3909,56.0059],[-3.3902,56.0246],[-3.3226,56.0347],[-3.2843,56.0562],[-3.1744,56.0626],[-3.151,56.1167],[-3.0842,56.1397],[-2.9722,56.2054],[-2.9247,56.2122],[-2.8694,56.1871],[-2.8114,56.1846],[-2.7816,56.2009],[-2.693,56.2211],[-2.5855,56.2791],[-2.6304,56.2929],[-2.6604,56.3183],[-2.7774,56.3327],[-2.8208,56.3671],[-2.8388,56.353],[-2.8877,56.3619],[-2.8243,56.3799],[-2.8065,56.4432],[-2.8551,56.4387],[-2.9213,56.4516],[-2.99,56.4207],[-3.0343,56.4162],[-3.2263,56.3551],[-3.3029,56.3579],[-3.1937,56.3846],[-3.0855,56.4505],[-3.0033,56.4512],[-2.9528,56.4643],[-2.8702,56.4624],[-2.8027,56.4802],[-2.7326,56.466],[-2.716,56.4954],[-2.636,56.5272],[-2.6189,56.5449],[-2.5376,56.5668],[-2.4842,56.6288],[-2.5001,56.6625],[-2.4397,56.6887],[-2.4416,56.7016],[-2.5161,56.6986],[-2.5159,56.7235],[-2.4547,56.7034],[-2.4246,56.7547],[-2.3162,56.8015],[-2.2743,56.8419],[-2.2289,56.8672],[-2.1965,56.9089],[-2.2092,56.9676],[-2.1613,57.018],[-2.0921,57.068],[-2.0486,57.1283],[-2.0735,57.1457],[-2.0768,57.1776],[-2.0439,57.2432],[-1.988,57.31],[-1.9102,57.3659],[-1.8586,57.3901],[-1.7804,57.4647],[-1.8041,57.5564],[-1.8221,57.5706],[-1.8235,57.6121],[-1.8877,57.6385],[-1.9194,57.6739],[-1.9956,57.6811],[-2.0032,57.6983],[-2.042,57.6917],[-2.1181,57.7011],[-2.1753,57.6736],[-2.2633,57.6793],[-2.2975,57.6962],[-2.35,57.6696],[-2.5536,57.6707],[-2.5742,57.6827],[-2.7404,57.6819],[-2.7906,57.6996],[-2.8515,57.7066],[-3.0273,57.6636],[-3.1364,57.6802],[-3.2794,57.7192],[-3.3383,57.725],[-3.4603,57.7036],[-3.4976,57.7042],[-3.4932,57.6844],[-3.5494,57.6617],[-3.6243,57.6628],[-3.5801,57.6365],[-3.6372,57.6326],[-3.6196,57.6553],[-3.6909,57.6589],[-3.7026,57.6464],[-3.7823,57.6242],[-3.8325,57.5972],[-3.9301,57.5858],[-4.0128,57.6011],[-4.0581,57.5909],[-4.0382,57.568],[-4.1868,57.4838],[-4.22,57.4967],[-4.2876,57.4813],[-4.3775,57.4794],[-4.4171,57.5044],[-4.2344,57.5008],[-4.1744,57.5662],[-4.0914,57.5741],[-4.102,57.6075],[-3.9941,57.6768],[-4.0372,57.6838],[-4.0867,57.6645],[-4.1651,57.6569],[-4.1655,57.6759],[-4.2213,57.6724],[-4.3296,57.6275],[-4.4267,57.5756],[-4.4204,57.5995],[-4.3014,57.6749],[-4.2074,57.6927],[-4.1659,57.6861],[-4.0732,57.7323],[-4.0095,57.7423],[-4.0348,57.6951],[-3.9753,57.6944],[-3.9163,57.7526],[-3.8706,57.7767],[-3.7933,57.8365],[-3.7722,57.8668],[-3.8117,57.8605],[-3.8562,57.8253],[-3.939,57.8169],[-3.907,57.8313],[-3.9663,57.8452],[-4.048,57.8153],[-4.1128,57.8342],[-4.1638,57.8337],[-4.191,57.8623],[-4.297,57.8519],[-4.3582,57.8785],[-4.3443,57.8875],[-4.2875,57.8619],[-4.2341,57.875],[-4.1624,57.8593],[-4.0119,57.861],[-4.0014,57.9264],[-4.069,57.9368],[-4.082,57.9513],[-4.0112,57.9486],[-3.9833,57.9696],[-3.8478,58.0065],[-3.8043,58.0571],[-3.7454,58.0682],[-3.6604,58.1115],[-3.5084,58.1718],[-3.4279,58.2442],[-3.3814,58.2704],[-3.2911,58.2978],[-3.2288,58.3045],[-3.1081,58.3711],[-3.0616,58.4417],[-3.0527,58.479],[-3.1118,58.4758],[-3.1348,58.5021],[-3.1259,58.5274],[-3.0681,58.5641],[-3.0729,58.5919],[-3.0434,58.598],[-3.0245,58.6437],[-3.1003,58.6467],[-3.1575,58.6372],[-3.1879,58.6601],[-3.2272,58.6499],[-3.3446,58.6468],[-3.3768,58.6722],[-3.4127,58.64],[-3.3469,58.6158],[-3.3706,58.5944],[-3.4599,58.6124],[-3.5252,58.5969],[-3.5358,58.623],[-3.6579,58.6196],[-3.7888,58.5628],[-3.7918,58.5703],[-3.9208,58.5601],[-3.9329,58.5731],[-4.0046,58.5636],[-4.019,58.6016],[-4.0735,58.5505],[-4.1261,58.5694],[-4.1747,58.5423],[-4.212,58.5515],[-4.2134,58.5301],[-4.2731,58.5258],[-4.2996,58.5432],[-4.3616,58.5324],[-4.4297,58.4922],[-4.4748,58.4449],[-4.455,58.4961],[-4.4092,58.5217],[-4.4244,58.5499],[-4.4992,58.5762],[-4.5847,58.5778],[-4.5946,58.5343],[-4.6591,58.5069],[-4.6635,58.4827],[-4.7573,58.4503],[-4.6542,58.5445],[-4.7344,58.5664],[-4.7668,58.5845],[-4.8204,58.5626],[-4.8247,58.5969],[-5.005,58.6252],[-5.0155,58.578],[-5.0515,58.5438],[-5.0912,58.5369],[-5.1249,58.4939],[-5.1149,58.4786],[-5.0166,58.4527],[-5.0749,58.4518],[-5.1114,58.4151],[-5.0322,58.3929],[-5.0196,58.3768],[-5.1409,58.4123],[-5.1759,58.362],[-5.1206,58.2938],[-5.0561,58.2576],[-5.023,58.2642],[-4.9221,58.2552],[-4.9945,58.2507],[-4.9354,58.2145],[-5.0026,58.2405],[-5.054,58.2458],[-5.109,58.2699],[-5.1541,58.2527],[-5.2207,58.2543],[-5.3103,58.2242],[-5.3762,58.2642],[-5.4042,58.2357],[-5.3616,58.2179],[-5.3096,58.155],[-5.2599,58.1377],[-5.3026,58.1196],[-5.2676,58.1019],[-5.2822,58.0738],[-5.357,58.0576],[-5.4267,58.1059],[-5.4577,58.0771],[-5.4126,58.0528],[-5.42,58.0332],[-5.357,58.0264],[-5.3107,57.9793],[-5.1922,57.9575],[-5.1795,57.941],[-5.2236,57.9248],[-5.0991,57.8694],[-5.0655,57.8273],[-5.0861,57.8299],[-5.1279,57.8746],[-5.1518,57.8755],[-5.2397,57.9177],[-5.2973,57.9104],[-5.4044,57.9313],[-5.3926,57.9123],[-5.3388,57.9063],[-5.3094,57.8785],[-5.2432,57.8664],[-5.2194,57.8414],[-5.3246,57.8652],[-5.3494,57.8859],[-5.4222,57.9092],[-5.4547,57.8509],[-5.5362,57.8679],[-5.5614,57.9178],[-5.6183,57.9243],[-5.6559,57.889],[-5.6347,57.857],[-5.5819,57.8361],[-5.6235,57.7683],[-5.6688,57.8001],[-5.7005,57.8707],[-5.814,57.8582],[-5.8014,57.7833],[-5.813,57.7499],[-5.7599,57.7314],[-5.6968,57.7301],[-5.6717,57.7014],[-5.6917,57.6907],[-5.7381,57.7084],[-5.7892,57.6974],[-5.8189,57.639],[-5.7717,57.6324],[-5.7039,57.5637],[-5.6685,57.5457],[-5.5892,57.5568],[-5.5168,57.5496],[-5.5331,57.5292],[-5.574,57.5294],[-5.621,57.5208],[-5.6552,57.5422],[-5.652,57.5115],[-5.8119,57.5854],[-5.8373,57.5783],[-5.8729,57.4741],[-5.8548,57.4433],[-5.8173,57.4438],[-5.8304,57.391],[-5.7884,57.3464],[-5.7414,57.3532],[-5.6258,57.3994],[-5.634,57.3801],[-5.6016,57.3552],[-5.5554,57.3583],[-5.4497,57.4253],[-5.4574,57.3913],[-5.5339,57.3531],[-5.5772,57.3538],[-5.6187,57.3375],[-5.6859,57.3414],[-5.7165,57.3152],[-5.7182,57.2836],[-5.6003,57.2809],[-5.5925,57.2708],[-5.5233,57.2809],[-5.4558,57.2398],[-5.3925,57.2324],[-5.4329,57.2122],[-5.5304,57.2714],[-5.6496,57.2406],[-5.6237,57.2125],[-5.6895,57.1724],[-5.6605,57.1425],[-5.6111,57.1458],[-5.5615,57.1336],[-5.5274,57.1019],[-5.4228,57.1156],[-5.3889,57.1092],[-5.5097,57.0976],[-5.52,57.0814],[-5.5672,57.096],[-5.5919,57.1193],[-5.647,57.1275],[-5.7219,57.1182],[-5.7271,57.1009],[-5.7976,57.0653],[-5.7453,57.0348],[-5.6925,57.0406],[-5.6624,56.9949],[-5.6178,56.9825],[-5.5335,57.002],[-5.5087,56.9938],[-5.6349,56.9704],[-5.7086,56.991],[-5.7274,57.0183],[-5.8207,57.0119],[-5.8427,56.99],[-5.8528,56.9408],[-5.8855,56.9048],[-5.9235,56.8903],[-5.8873,56.8742],[-5.7966,56.8924],[-5.7377,56.8961],[-5.7235,56.8849],[-5.7887,56.86],[-5.7548,56.8482],[-5.8166,56.828],[-5.8575,56.8311],[-5.865,56.8107],[-5.7953,56.7909],[-5.8369,56.7781],[-5.887,56.7852],[-5.9095,56.7498],[-5.9627,56.7836],[-5.9879,56.7683],[-6.065,56.7586],[-6.1193,56.7654],[-6.2249,56.7273],[-6.2153,56.7012],[-6.1419,56.6833],[-6.0515,56.693],[-6.0302,56.6803],[-5.9456,56.6887],[-5.926,56.6757],[-5.8447,56.6743],[-5.77,56.7084],[-5.7168,56.7093],[-5.6547,56.6819],[-5.5954,56.6917],[-5.5354,56.6843],[-5.6104,56.6767],[-5.7046,56.6817],[-5.7468,56.7017],[-5.8832,56.6404],[-5.9061,56.6578],[-6.004,56.6494],[-6.001,56.6198],[-5.9596,56.5824],[-5.9046,56.5512],[-5.7714,56.5325],[-5.6948,56.5109],[-5.6845,56.4974],[-5.5612,56.544],[-5.4883,56.6103],[-5.4342,56.6428],[-5.3997,56.6465],[-5.3055,56.7109],[-5.2427,56.7202],[-5.2316,56.7582],[-5.1545,56.8009],[-5.1238,56.8339],[-5.1798,56.8461],[-5.3092,56.8465],[-5.3169,56.858],[-5.1914,56.8551],[-5.0897,56.8305],[-5.2291,56.7294],[-5.2474,56.703],[-5.1853,56.6999],[-5.1621,56.6852],[-5.013,56.7142],[-5.1469,56.6771],[-5.2241,56.686],[-5.2515,56.6671],[-5.3139,56.6553],[-5.2958,56.6393],[-5.3608,56.6039],[-5.4167,56.539],[-5.3665,56.5238],[-5.323,56.5482],[-5.2942,56.5462],[-5.3337,56.5201],[-5.3898,56.5102],[-5.4203,56.5266],[-5.4738,56.4819],[-5.427,56.4957],[-5.407,56.4589],[-5.3455,56.4714],[-5.2567,56.464],[-5.2302,56.4467],[-5.1846,56.461],[-5.1559,56.5013],[-5.124,56.5108],[-5.0655,56.5639],[-5.1355,56.477],[-5.2372,56.4363],[-5.3503,56.4596],[-5.4651,56.4461],[-5.4732,56.4128],[-5.5131,56.3962],[-5.5387,56.3503],[-5.5777,56.3332],[-5.598,56.252],[-5.5618,56.2607],[-5.4813,56.257],[-5.5659,56.2372],[-5.541,56.2178],[-5.6014,56.162],[-5.6062,56.1299],[-5.5255,56.1882],[-5.5105,56.1804],[-5.5678,56.1124],[-5.5292,56.0966],[-5.5269,56.0724],[-5.5847,56.0917],[-5.6326,56.0525],[-5.714,55.9498],[-5.6761,55.9592],[-5.6089,56.0241],[-5.5666,56.0412],[-5.6754,55.9318],[-5.6784,55.8866],[-5.6091,55.9292],[-5.5976,55.9158],[-5.6629,55.8474],[-5.6645,55.7998],[-5.608,55.7951],[-5.6139,55.7619],[-5.5225,55.7955],[-5.4459,55.8572],[-5.4471,55.8371],[-5.516,55.7848],[-5.5698,55.7669],[-5.62,55.7097],[-5.6765,55.6824],[-5.6631,55.6678],[-5.6927,55.5874],[-5.7154,55.5749],[-5.7129,55.4583],[-5.7223,55.4267],[-5.7947,55.3921],[-5.7999,55.3008],[-5.7554,55.2895],[-5.6908,55.3067],[-5.6035,55.3075],[-5.5618,55.3237],[-5.5215,55.3598],[-5.5265,55.392],[-5.5525,55.4178],[-5.5839,55.4137],[-5.5478,55.4459],[-5.49,55.53],[-5.4878,55.579],[-5.4585,55.5764],[-5.4818,55.6437],[-5.4487,55.6879],[-5.451,55.7071],[-5.391,55.7513],[-5.3276,55.7646],[-5.3147,55.7826],[-5.3399,55.8273],[-5.3956,55.8707],[-5.4451,55.9581],[-5.4482,56.0173],[-5.437,56.0362],[-5.4058,56.0015],[-5.3574,56.0256],[-5.3407,56.0507],[-5.2979,56.0651],[-5.2552,56.1135],[-5.1921,56.1499],[-5.1175,56.1707],[-5.1042,56.2018],[-5.0537,56.2465],[-5.0405,56.2356],[-4.9169,56.2722],[-4.985,56.2343],[-5.0552,56.2109],[-5.0813,56.1705],[-5.1527,56.1376],[-5.2032,56.1284],[-5.2028,56.1071],[-5.2886,56.0493],[-5.3469,55.9717],[-5.3306,55.957],[-5.3491,55.9083],[-5.3115,55.8754],[-5.3124,55.8566],[-5.2566,55.8519],[-5.2158,55.8268],[-5.203,55.8406],[-5.2422,55.8944],[-5.2075,55.9164],[-5.1923,55.9837],[-5.1782,55.9329],[-5.1058,55.9005],[-5.0773,55.8996],[-5.0828,55.9391],[-5.1181,55.9723],[-5.0685,55.9522],[-5.0447,55.871],[-4.9788,55.8618],[-4.9313,55.9435],[-4.9086,55.9671],[-4.9636,55.9917],[-4.956,56.0017],[-4.8971,55.9867],[-4.9105,56.0459],[-4.8755,56.0874],[-4.9093,56.1122],[-4.9,56.1461],[-4.8869,56.1094],[-4.8626,56.1002],[-4.7818,56.1866],[-4.7498,56.2067],[-4.839,56.1135],[-4.8812,56.0494],[-4.848,55.988],[-4.7685,55.9875],[-4.7928,56.0008],[-4.8418,56.0588],[-4.8359,56.0806],[-4.7805,56.0166],[-4.7002,55.9917],[-4.6836,55.9709],[-4.5822,55.9384],[-4.4871,55.9264],[-4.5719,55.9232],[-4.7458,55.9466],[-4.8176,55.9628],[-4.8769,55.9435],[-4.8712,55.91],[-4.8894,55.8822],[-4.8884,55.8186],[-4.8552,55.7743],[-4.8574,55.7469],[-4.9031,55.7222],[-4.9052,55.6991],[-4.8625,55.6841],[-4.8153,55.6475],[-4.8218,55.6374],[-4.7563,55.6312],[-4.697,55.6059],[-4.6582,55.5702],[-4.6641,55.5419],[-4.6203,55.497],[-4.6509,55.4408],[-4.7129,55.4329],[-4.7696,55.4007],[-4.7755,55.3594],[-4.8472,55.3238],[-4.8361,55.2832],[-4.859,55.2322],[-4.9108,55.1984],[-4.9415,55.164],[-4.9932,55.1405],[-5.0137,55.0885],[-5.0507,55.0533],[-5.0574,55.0211],[-4.9908,54.9218],[-5.0303,54.9063],[-5.0706,54.9361],[-5.0608,54.9677],[-5.0975,55.0172],[-5.1578,55.008],[-5.179,54.9828],[-5.1853,54.9164],[-5.1373,54.8513],[-5.0553,54.8103],[-5.0011,54.7729],[-4.9925,54.735],[-4.9574,54.7286],[-4.9479,54.7001],[-4.9726,54.6897],[-4.9649,54.6641],[-4.9211,54.6435],[-4.8773,54.6392],[-4.8821,54.6693],[-4.9611,54.804],[-4.9392,54.8309],[-4.8517,54.8591],[-4.8112,54.8642],[-4.7834,54.8349],[-4.709,54.8241],[-4.6723,54.8003],[-4.6008,54.777],[-4.5716,54.7381],[-4.489,54.7014],[-4.3938,54.6775],[-4.3498,54.7091],[-4.3669,54.7229],[-4.3545,54.8134],[-4.4122,54.828],[-4.4257,54.8823],[-4.3963,54.8938],[-4.3627,54.8632],[-4.2574,54.8374],[-4.2278,54.8642],[-4.2092,54.8136],[-4.1597,54.7803],[-4.1224,54.7879],[-4.0949,54.7659],[-4.0913,54.8144],[-4.063,54.8398],[-4.0457,54.8154],[-4.065,54.7847],[-4.0453,54.7699],[-3.985,54.7687],[-3.9403,54.7885],[-3.8362,54.8163],[-3.8637,54.8458],[-3.7645,54.8566],[-3.6934,54.8881],[-3.6884,54.8795],[-3.5949,54.8728],[-3.563,54.9072],[-3.5897,54.9262],[-3.5768,55.0077],[-3.53,54.9669],[-3.4761,54.9668],[-3.4321,54.993],[-3.4085,54.9744],[-3.3308,54.9795],[-3.2691,54.9655],[-3.207,54.9761],[-3.1463,54.9643],[-3.1186,54.9745],[-3.1176,54.9749],[-3.0561,54.9865],[-3.0259,55.0365],[-3.0509,55.0528],[-2.9586,55.0493],[-2.9404,55.0691],[-2.8276,55.1248],[-2.7035,55.1732],[-2.6668,55.2216],[-2.6314,55.2237],[-2.6267,55.2622],[-2.559,55.3179],[-2.5203,55.323],[-2.4754,55.3547],[-2.415,55.3589],[-2.3789,55.3492],[-2.3375,55.3672],[-2.3449,55.3993],[-2.2606,55.4329],[-2.2313,55.4284],[-2.1655,55.4684],[-2.2013,55.4753],[-2.2288,55.5095],[-2.2403,55.5556],[-2.2888,55.5803],[-2.2892,55.6038],[-2.336,55.6325],[-2.3058,55.647],[-2.2344,55.641],[-2.2483,55.6521],[-2.1672,55.706],[-2.1443,55.7393],[-2.0856,55.762],[-2.0861,55.793],[-2.0346,55.8112]]],[[[-3.0675,58.8438],[-3.143,58.8331],[-3.137,58.8162],[-3.08,58.8141],[-3.0675,58.8438]]],[[[-3.3518,58.9319],[-3.4027,58.9222],[-3.4351,58.8756],[-3.3792,58.8679],[-3.37,58.8372],[-3.3284,58.8175],[-3.2965,58.7779],[-3.2294,58.785],[-3.1882,58.777],[-3.1391,58.8015],[-3.2087,58.8002],[-3.1708,58.8217],[-3.2052,58.8269],[-3.2131,58.878],[-3.3021,58.9056],[-3.3518,58.9319]]],[[[-2.8022,59.0808],[-2.8605,59.0562],[-2.9025,59.077],[-2.9339,59.0304],[-2.8058,59.0285],[-2.8242,59.047],[-2.8022,59.0808]]],[[[-3.1979,59.154],[-3.3153,59.1348],[-3.3578,59.1036],[-3.3485,59.0373],[-3.3661,59.0151],[-3.3558,58.9649],[-3.3005,58.9596],[-3.2303,58.967],[-3.2352,58.9432],[-3.1988,58.9138],[-3.1308,58.9171],[-3.0856,58.9403],[-3.0268,58.9412],[-2.9835,58.9626],[-2.9328,58.9026],[-2.8974,58.8955],[-2.9182,58.8545],[-2.9633,58.8496],[-2.9104,58.8379],[-3.0137,58.8328],[-2.9834,58.8122],[-2.9924,58.7538],[-2.9614,58.7302],[-2.9096,58.754],[-2.9398,58.7673],[-2.9306,58.7943],[-2.889,58.8233],[-2.9063,58.8398],[-2.884,58.9003],[-2.8323,58.8808],[-2.7474,58.9239],[-2.7125,58.9207],[-2.708,58.9729],[-2.8063,58.9463],[-2.792,58.927],[-2.8309,58.9249],[-2.8356,58.9622],[-2.7919,58.9654],[-2.8018,58.9908],[-2.8557,58.9856],[-2.8837,58.9606],[-2.9189,58.965],[-2.912,59.0059],[-2.9317,59.0144],[-2.9589,58.9849],[-3.0044,59.0091],[-3.0538,58.9935],[-3.102,59.0097],[-3.0613,59.0235],[-3.0656,59.0484],[-3.0123,59.0388],[-3.0059,59.0734],[-3.0953,59.1183],[-3.1979,59.154]]],[[[-2.6283,59.1602],[-2.6751,59.1532],[-2.6226,59.125],[-2.6699,59.1087],[-2.6875,59.0782],[-2.651,59.076],[-2.6577,59.1003],[-2.6047,59.0971],[-2.6062,59.0728],[-2.5271,59.0929],[-2.5385,59.1217],[-2.5963,59.1159],[-2.6283,59.1602]]],[[[-2.9082,59.1633],[-2.9451,59.1546],[-2.9203,59.125],[-2.9082,59.1633]]],[[[-3.0682,59.1952],[-3.1184,59.1727],[-3.0931,59.1456],[-3.0401,59.1265],[-2.9656,59.1351],[-2.9788,59.1632],[-2.9536,59.1793],[-3.0497,59.1835],[-3.0682,59.1952]]],[[[-2.7352,59.2208],[-2.7899,59.236],[-2.7799,59.1895],[-2.8276,59.188],[-2.7883,59.1381],[-2.7392,59.148],[-2.7624,59.1904],[-2.7352,59.2208]]],[[[-2.4167,59.2875],[-2.4238,59.3119],[-2.5445,59.2601],[-2.5749,59.275],[-2.5294,59.3028],[-2.5581,59.3055],[-2.6143,59.2827],[-2.6023,59.2595],[-2.6957,59.2211],[-2.6742,59.192],[-2.6308,59.2376],[-2.5883,59.2414],[-2.571,59.2211],[-2.4791,59.2771],[-2.4167,59.2875]]],[[[-2.9526,59.3543],[-3.0337,59.3234],[-3.0249,59.2779],[-2.9834,59.2594],[-2.9281,59.2855],[-2.8748,59.2557],[-2.8826,59.2859],[-2.9892,59.3167],[-2.9555,59.3277],[-2.9526,59.3543]]],[[[-2.8767,59.3344],[-2.8689,59.3715],[-2.8907,59.3828],[-2.9052,59.3233],[-2.8767,59.3344]]],[[[-2.3836,59.3921],[-2.4324,59.3863],[-2.4486,59.3574],[-2.3988,59.3554],[-2.3836,59.3921]]],[[[-1.6074,59.5529],[-1.6399,59.5521],[-1.6513,59.5131],[-1.6314,59.5137],[-1.6074,59.5529]]],[[[-1.3101,60.1052],[-1.356,60.0793],[-1.3421,60.0575],[-1.3101,60.1052]]],[[[-2.0674,60.1556],[-2.1122,60.1459],[-2.0642,60.1098],[-2.0399,60.1395],[-2.0674,60.1556]]],[[[-1.0797,60.1879],[-1.0789,60.1709],[-1.1297,60.1843],[-1.1223,60.1199],[-1.0729,60.1027],[-1.0503,60.1607],[-1.0797,60.1879]]],[[[-1.7179,60.3458],[-1.7187,60.32],[-1.6661,60.3214],[-1.7179,60.3458]]],[[[-0.9137,60.3772],[-0.9626,60.3827],[-1.0027,60.3691],[-1.0377,60.3346],[-0.9787,60.3314],[-0.9137,60.3772]]],[[[-1.4278,60.3904],[-1.4757,60.3743],[-1.4317,60.3451],[-1.3889,60.3549],[-1.3824,60.3761],[-1.4278,60.3904]]],[[[-0.8473,60.6282],[-0.8976,60.6204],[-0.9363,60.6308],[-0.9479,60.6103],[-0.892,60.5631],[-0.8602,60.569],[-0.8967,60.5869],[-0.831,60.5882],[-0.8013,60.5689],[-0.7711,60.5923],[-0.7784,60.6143],[-0.8182,60.6018],[-0.8473,60.6282]]],[[[-1.2719,59.8861],[-1.2542,59.9763],[-1.2737,59.9921],[-1.198,59.991],[-1.2334,60.0333],[-1.2035,60.0476],[-1.2259,60.0999],[-1.175,60.1192],[-1.1725,60.1412],[-1.132,60.1489],[-1.1632,60.1659],[-1.154,60.2039],[-1.2194,60.1722],[-1.1679,60.223],[-1.222,60.1989],[-1.1853,60.2322],[-1.2314,60.2297],[-1.1649,60.2602],[-1.1075,60.259],[-1.1599,60.2807],[-1.0835,60.3246],[-1.1681,60.3223],[-1.1873,60.3511],[-1.1182,60.3453],[-1.0755,60.3567],[-1.0754,60.388],[-1.1414,60.383],[-1.0555,60.4319],[-1.0497,60.4486],[-1.1514,60.4034],[-1.1941,60.4199],[-1.2616,60.3991],[-1.1682,60.4413],[-1.2027,60.4448],[-1.2065,60.4839],[-1.2277,60.4948],[-1.3031,60.4638],[-1.2599,60.4486],[-1.3304,60.4372],[-1.3241,60.5108],[-1.3583,60.5298],[-1.3155,60.5414],[-1.3082,60.6376],[-1.3497,60.61],[-1.4113,60.6153],[-1.4346,60.5738],[-1.4972,60.5386],[-1.4448,60.5038],[-1.5183,60.5317],[-1.5335,60.5563],[-1.5665,60.5378],[-1.5738,60.5001],[-1.6107,60.5089],[-1.633,60.4872],[-1.606,60.475],[-1.5545,60.4905],[-1.4544,60.4896],[-1.4653,60.4521],[-1.4528,60.416],[-1.3993,60.4194],[-1.405,60.3839],[-1.3776,60.3768],[-1.3533,60.3945],[-1.362,60.3689],[-1.3019,60.3698],[-1.3365,60.3594],[-1.3306,60.3374],[-1.3681,60.332],[-1.3693,60.2858],[-1.3877,60.3137],[-1.4281,60.3285],[-1.4813,60.3031],[-1.5054,60.3195],[-1.5732,60.2875],[-1.6037,60.3069],[-1.6896,60.2989],[-1.7017,60.2548],[-1.6239,60.2075],[-1.6121,60.2201],[-1.5148,60.2291],[-1.4728,60.2208],[-1.5428,60.2043],[-1.5106,60.1647],[-1.4512,60.1529],[-1.4223,60.1647],[-1.3985,60.2173],[-1.3475,60.2008],[-1.2927,60.2539],[-1.3275,60.1666],[-1.2837,60.1957],[-1.3055,60.1328],[-1.2672,60.142],[-1.2742,60.0974],[-1.3037,60.0595],[-1.3177,60.0128],[-1.3469,59.9989],[-1.3299,59.9465],[-1.364,59.9458],[-1.3791,59.8944],[-1.3189,59.8975],[-1.2765,59.8562],[-1.2719,59.8861]]],[[[-1.0434,60.7316],[-1.1279,60.7267],[-1.1259,60.6925],[-1.1462,60.6283],[-1.1578,60.6556],[-1.2009,60.5955],[-1.1679,60.4991],[-1.1464,60.4838],[-1.1008,60.4908],[-1.1173,60.5097],[-1.0417,60.49],[-1.0144,60.5488],[-1.0323,60.6428],[-0.9823,60.6386],[-1.012,60.7201],[-1.0434,60.7316]]],[[[-0.8759,60.8457],[-0.9549,60.7913],[-0.9322,60.7819],[-0.952,60.7176],[-0.9843,60.7194],[-0.9815,60.6841],[-0.9385,60.6757],[-0.9133,60.6901],[-0.8552,60.6749],[-0.8707,60.7022],[-0.8028,60.7585],[-0.8358,60.7866],[-0.7809,60.7803],[-0.8044,60.8101],[-0.7601,60.8154],[-0.8352,60.8427],[-0.8672,60.8057],[-0.8759,60.8457]]]]}},{"type":"Feature","properties":{"slug":"wales","name":"Wales"},"geometry":{"type":"MultiPolygon","coordinates":[[[[-4.5837,53.2902],[-4.6313,53.3078],[-4.6812,53.3234],[-4.6832,53.2822],[-4.6174,53.2792],[-4.6114,53.2468],[-4.5534,53.2471],[-4.5971,53.275],[-4.5837,53.2902]]],[[[-3.1074,53.2721],[-3.0719,53.2311],[-3.1426,53.2595],[-3.1933,53.289],[-3.3036,53.3349],[-3.3097,53.3558],[-3.4122,53.3428],[-3.6096,53.2905],[-3.7076,53.2938],[-3.775,53.3282],[-3.8135,53.3226],[-3.833,53.338],[-3.8773,53.3329],[-3.7984,53.2667],[-3.8488,53.2963],[-4.0829,53.2285],[-4.1225,53.2372],[-4.1994,53.21],[-4.2081,53.1872],[-4.3143,53.1237],[-4.3382,53.1214],[-4.3389,53.0539],[-4.3535,53.0335],[-4.4132,52.9972],[-4.4373,52.9983],[-4.4714,52.967],[-4.5289,52.9374],[-4.567,52.9407],[-4.6501,52.906],[-4.767,52.7967],[-4.7321,52.7821],[-4.7207,52.8029],[-4.6881,52.7935],[-4.6427,52.8006],[-4.6113,52.8245],[-4.5362,52.8003],[-4.5267,52.7791],[-4.4866,52.7947],[-4.495,52.8381],[-4.4571,52.8711],[-4.3751,52.8964],[-4.3267,52.8919],[-4.3165,52.9085],[-4.2236,52.9193],[-4.1698,52.9058],[-4.1297,52.9218],[-4.0871,52.9019],[-4.1479,52.8962],[-4.1191,52.8481],[-4.1523,52.8133],[-4.0589,52.7178],[-4.0231,52.736],[-3.9996,52.7235],[-4.0574,52.7063],[-4.0573,52.6873],[-4.0948,52.6686],[-4.1284,52.6112],[-4.0702,52.5432],[-3.9398,52.5607],[-4.0226,52.5235],[-4.0576,52.5316],[-4.0519,52.4817],[-4.0799,52.4451],[-4.0899,52.399],[-4.1403,52.3226],[-4.2075,52.2637],[-4.3249,52.2137],[-4.3775,52.2158],[-4.4451,52.1701],[-4.5186,52.135],[-4.5666,52.1439],[-4.6857,52.13],[-4.6882,52.1028],[-4.7314,52.1178],[-4.7594,52.0778],[-4.8379,52.0503],[-4.8413,52.0247],[-4.8793,52.0192],[-4.9102,52.0347],[-4.9206,52.0103],[-4.97,51.9975],[-4.9916,52.0259],[-5.0748,52.0307],[-5.0722,52.0046],[-5.0956,51.9937],[-5.0854,51.9686],[-5.1373,51.9636],[-5.154,51.9483],[-5.1961,51.9506],[-5.2076,51.9342],[-5.3001,51.9091],[-5.3172,51.8621],[-5.2176,51.8734],[-5.1284,51.8585],[-5.1041,51.813],[-5.117,51.7685],[-5.1603,51.7721],[-5.2033,51.7555],[-5.2088,51.7346],[-5.2541,51.7381],[-5.1873,51.7089],[-5.1761,51.6808],[-5.1529,51.6961],[-5.1735,51.715],[-5.1051,51.7236],[-5.0876,51.7075],[-5.0346,51.7107],[-4.9849,51.6994],[-4.895,51.7112],[-4.8875,51.7307],[-4.9138,51.7466],[-4.9147,51.7717],[-4.8875,51.7674],[-4.8841,51.7193],[-4.8348,51.7237],[-4.9756,51.6869],[-4.9219,51.6788],[-4.9745,51.6718],[-4.9817,51.6892],[-5.0512,51.6939],[-5.0454,51.6767],[-5.1104,51.6918],[-5.1247,51.6818],[-5.067,51.6645],[-5.0593,51.6206],[-4.9895,51.6129],[-4.9263,51.5961],[-4.8987,51.6272],[-4.8608,51.6471],[-4.7811,51.6349],[-4.7601,51.6514],[-4.711,51.6521],[-4.6802,51.6974],[-4.6979,51.7111],[-4.6611,51.7317],[-4.5592,51.742],[-4.4628,51.7317],[-4.4177,51.7452],[-4.4596,51.768],[-4.4039,51.7573],[-4.3635,51.7964],[-4.3797,51.7273],[-4.3185,51.6759],[-4.2831,51.6676],[-4.1966,51.6838],[-4.1456,51.6548],[-4.0759,51.6573],[-4.1647,51.6252],[-4.2246,51.6276],[-4.2458,51.6474],[-4.2797,51.6159],[-4.3092,51.6096],[-4.2913,51.5631],[-4.2321,51.5426],[-4.1827,51.5485],[-4.1435,51.569],[-4.0741,51.5622],[-3.9763,51.5678],[-3.9945,51.5981],[-3.9613,51.6116],[-3.8508,51.6145],[-3.8026,51.5818],[-3.7217,51.482],[-3.6504,51.4777],[-3.597,51.4412],[-3.559,51.4013],[-3.3409,51.3812],[-3.2789,51.3854],[-3.2241,51.4037],[-3.1696,51.4062],[-3.1641,51.4518],[-3.1213,51.4905],[-3.0276,51.5206],[-2.99,51.5484],[-2.905,51.5324],[-2.8449,51.5457],[-2.7479,51.5802],[-2.7104,51.5837],[-2.6579,51.6221],[-2.6685,51.6456],[-2.6569,51.6745],[-2.6875,51.7304],[-2.6627,51.7539],[-2.6805,51.7689],[-2.6785,51.8028],[-2.6504,51.8261],[-2.7197,51.8489],[-2.7388,51.8366],[-2.7788,51.8659],[-2.7683,51.8804],[-2.8361,51.9061],[-2.8778,51.9338],[-2.9718,51.905],[-2.9767,51.9275],[-3.0081,51.9271],[-3.0259,51.9573],[-3.0674,51.9831],[-3.0992,52.0227],[-3.0906,52.0505],[-3.1259,52.0783],[-3.1049,52.1167],[-3.1359,52.1379],[-3.0725,52.1558],[-3.1224,52.1634],[-3.0947,52.1837],[-3.1021,52.2027],[-3.0721,52.2131],[-3.073,52.2359],[-3.0058,52.2643],[-2.9496,52.2695],[-3.0126,52.2792],[-3.0009,52.3218],[-2.9668,52.3294],[-2.9745,52.3547],[-3.0402,52.3443],[-3.1106,52.3772],[-3.1544,52.3877],[-3.2195,52.4212],[-3.2356,52.4425],[-3.1972,52.476],[-3.111,52.4989],[-3.0292,52.5013],[-3.0039,52.5198],[-2.9942,52.5529],[-3.0142,52.5755],[-3.1115,52.5414],[-3.1395,52.5857],[-3.0896,52.5995],[-3.0511,52.6474],[-3.047,52.6913],[-2.9651,52.7323],[-3.0218,52.7519],[-3.0171,52.7676],[-3.0795,52.7715],[-3.0866,52.7956],[-3.1183,52.7836],[-3.1609,52.7957],[-3.163,52.8475],[-3.1277,52.8671],[-3.1475,52.8902],[-3.1142,52.894],[-3.096,52.9303],[-3.0351,52.9295],[-2.975,52.969],[-2.9289,52.9387],[-2.8874,52.9525],[-2.841,52.9426],[-2.7988,52.8958],[-2.7553,52.9246],[-2.7284,52.9253],[-2.7268,52.9833],[-2.7683,52.9949],[-2.836,52.9972],[-2.8701,53.0454],[-2.8757,53.0815],[-2.9021,53.092],[-2.8811,53.1216],[-2.9102,53.1126],[-2.9951,53.1542],[-2.9278,53.1714],[-2.9223,53.1893],[-3.036,53.2518],[-3.0856,53.2568],[-3.1074,53.2721]]],[[[-4.5837,53.2902],[-4.5555,53.2497],[-4.4973,53.2068],[-4.505,53.1879],[-4.458,53.1793],[-4.429,53.1601],[-4.3863,53.191],[-4.3872,53.1695],[-4.4197,53.164],[-4.4076,53.1443],[-4.3584,53.1315],[-4.2186,53.1856],[-4.205,53.2131],[-4.1005,53.2548],[-4.0406,53.3102],[-4.119,53.3192],[-4.2013,53.2954],[-4.2339,53.3407],[-4.2302,53.3577],[-4.2944,53.3664],[-4.2694,53.3905],[-4.2927,53.4116],[-4.4258,53.4301],[-4.4502,53.4129],[-4.5745,53.4027],[-4.5551,53.3739],[-4.5806,53.3254],[-4.5621,53.3165],[-4.5837,53.2902]]]]}},{"type":"Feature","properties":{"slug":"northern-ireland","name":"Northern Ireland"},"geometry":{"type":"MultiPolygon","coordinates":[[[[-6.455,55.2391],[-6.4773,55.2517],[-6.5277,55.2264],[-6.6058,55.2059],[-6.7219,55.1899],[-6.7526,55.1685],[-6.8747,55.1681],[-6.965,55.1944],[-6.9601,55.1771],[-6.99,55.1095],[-7.0201,55.1003],[-7.0138,55.0771],[-7.0595,55.0476],[-7.1308,55.042],[-7.1558,55.0581],[-7.2251,55.0607],[-7.2518,55.0442],[-7.2634,55.0657],[-7.2892,55.0474],[-7.3458,55.0504],[-7.3912,55.0202],[-7.4075,54.9637],[-7.3921,54.9454],[-7.4472,54.9351],[-7.4431,54.8713],[-7.4838,54.8241],[-7.5493,54.7894],[-7.5492,54.7405],[-7.6366,54.7515],[-7.7449,54.7052],[-7.8367,54.7364],[-7.8795,54.7027],[-7.9181,54.7027],[-7.9137,54.6756],[-7.8566,54.6505],[-7.8543,54.6319],[-7.8133,54.6439],[-7.7416,54.6179],[-7.7084,54.6349],[-7.7035,54.6085],[-7.7515,54.5988],[-7.8332,54.5523],[-7.8505,54.533],[-7.9497,54.5336],[-8.006,54.5459],[-8.0426,54.4877],[-8.089,54.4871],[-8.1147,54.4691],[-8.1775,54.4648],[-8.1592,54.4403],[-8.0841,54.3974],[-8.0574,54.3657],[-8.0003,54.3581],[-7.9617,54.3124],[-7.9109,54.296],[-7.8619,54.2935],[-7.8602,54.2176],[-7.8115,54.2009],[-7.6854,54.2078],[-7.6285,54.1692],[-7.6104,54.1438],[-7.5474,54.1221],[-7.5281,54.1358],[-7.4793,54.1222],[-7.4423,54.1539],[-7.4204,54.1369],[-7.3728,54.1395],[-7.3447,54.1171],[-7.3053,54.1234],[-7.3395,54.1467],[-7.2798,54.1676],[-7.3089,54.1321],[-7.2919,54.1191],[-7.2629,54.1374],[-7.2591,54.1922],[-7.221,54.2158],[-7.145,54.2247],[-7.1422,54.2556],[-7.1729,54.2861],[-7.207,54.2944],[-7.1791,54.3097],[-7.1888,54.3376],[-7.1533,54.3353],[-7.1035,54.356],[-7.1097,54.3683],[-7.0291,54.4213],[-6.9238,54.3829],[-6.9064,54.3504],[-6.876,54.3466],[-6.851,54.292],[-6.878,54.2791],[-6.8277,54.2614],[-6.8162,54.223],[-6.7412,54.1824],[-6.6919,54.2002],[-6.6441,54.1798],[-6.6297,54.1535],[-6.6451,54.0992],[-6.6689,54.0728],[-6.6238,54.0365],[-6.5866,54.0576],[-6.5105,54.0527],[-6.4778,54.0771],[-6.4435,54.0565],[-6.3636,54.0726],[-6.3664,54.1136],[-6.318,54.091],[-6.2909,54.1127],[-6.2541,54.0964],[-6.1981,54.0982],[-6.1594,54.065],[-6.0949,54.0626],[-6.0731,54.0459],[-6.1076,54.0402],[-6.0631,54.0229],[-5.9962,54.0613],[-5.8983,54.104],[-5.8718,54.1676],[-5.8928,54.2053],[-5.8301,54.2428],[-5.8485,54.2548],[-5.8147,54.2862],[-5.822,54.2434],[-5.6873,54.2505],[-5.6602,54.2256],[-5.6376,54.2612],[-5.6086,54.2513],[-5.5505,54.3064],[-5.4968,54.3333],[-5.4897,54.3764],[-5.4602,54.3864],[-5.4782,54.4319],[-5.4356,54.4571],[-5.4328,54.4873],[-5.4632,54.4979],[-5.4858,54.5466],[-5.4772,54.5641],[-5.5216,54.5976],[-5.5302,54.645],[-5.584,54.6777],[-5.7207,54.667],[-5.741,54.6776],[-5.8054,54.659],[-5.8551,54.6337],[-5.9129,54.648],[-5.8957,54.6741],[-5.8407,54.7052],[-5.7417,54.7286],[-5.688,54.767],[-5.6896,54.8022],[-5.725,54.8478],[-5.7976,54.8522],[-5.8443,54.9008],[-5.8781,54.9076],[-5.919,54.9618],[-5.9917,54.9864],[-5.9632,55.0442],[-5.9769,55.0563],[-6.0425,55.053],[-6.0587,55.0812],[-6.036,55.1032],[-6.0284,55.1621],[-6.0741,55.198],[-6.146,55.228],[-6.2362,55.2027],[-6.2894,55.2302],[-6.368,55.2458],[-6.4093,55.2323],[-6.455,55.2391]]],[[[-6.2399,55.312],[-6.2861,55.2934],[-6.193,55.2926],[-6.1899,55.2585],[-6.1698,55.3016],[-6.2399,55.312]]]]}}]}