{"type":"FeatureCollection","features":[{"type":"Feature","properties":{"slug":"new-forest","gss_code":"E07000091","name":"New Forest"},"geometry":{"type":"MultiPolygon","coordinates":[[[[-1.692496,50.7373],[-1.692548,50.737353],[-1.692535,50.737398],[-1.692496,50.7373]]],[[[-1.382389,50.778849],[-1.384573,50.778546],[-1.386927,50.777338],[-1.388398,50.777748],[-1.390233,50.777701],[-1.390752,50.778068],[-1.390695,50.7785],[-1.384689,50.780192],[-1.379644,50.780591],[-1.380468,50.780061],[-1.378818,50.780924],[-1.377295,50.781153],[-1.378346,50.780461],[-1.379875,50.780261],[-1.382389,50.778849]]],[[[-1.481208,50.928453],[-1.481783,50.928548],[-1.481087,50.928476],[-1.481208,50.928453]]],[[[-1.481982,50.928867],[-1.482297,50.928946],[-1.481938,50.928898],[-1.481982,50.928867]]],[[[-1.480952,50.929605],[-1.481064,50.929625],[-1.481005,50.929642],[-1.480952,50.929605]]],[[[-1.481367,50.930031],[-1.481428,50.929759],[-1.481698,50.930292],[-1.481367,50.930031]]],[[[-1.482154,50.931193],[-1.480061,50.930683],[-1.480513,50.930386],[-1.480355,50.929104],[-1.480722,50.928741],[-1.478168,50.928843],[-1.477623,50.92842],[-1.475825,50.927988],[-1.47719,50.926864],[-1.47761,50.926922],[-1.477398,50.927571],[-1.477692,50.926991],[-1.477357,50.926662],[-1.477293,50.926814],[-1.477204,50.925798],[-1.478221,50.926007],[-1.478654,50.92581],[-1.47884,50.927364],[-1.479179,50.928277],[-1.478979,50.927338],[-1.479583,50.927493],[-1.480632,50.927184],[-1.482013,50.927931],[-1.48184,50.928236],[-1.480883,50.928384],[-1.4812,50.928713],[-1.482572,50.928788],[-1.481943,50.928811],[-1.481602,50.928925],[-1.480833,50.929573],[-1.480913,50.929705],[-1.481343,50.929673],[-1.481347,50.930076],[-1.481698,50.930292],[-1.482154,50.931193]]],[[[-1.485568,50.93233],[-1.485499,50.93245],[-1.484861,50.932678],[-1.485568,50.93233]]],[[[-1.485458,50.932849],[-1.485732,50.932901],[-1.485749,50.932933],[-1.485458,50.932849]]],[[[-1.691978,50.739412],[-1.690821,50.740604],[-1.689018,50.741573],[-1.688576,50.741414],[-1.687918,50.742118],[-1.684645,50.743821],[-1.682805,50.746611],[-1.681674,50.750151],[-1.681819,50.75185],[-1.690613,50.751606],[-1.703921,50.752562],[-1.712704,50.752495],[-1.7127,50.75225],[-1.714985,50.752026],[-1.71797,50.75217],[-1.727035,50.751015],[-1.744169,50.747455],[-1.742333,50.749249],[-1.743574,50.750008],[-1.743597,50.752715],[-1.744353,50.753608],[-1.744656,50.756073],[-1.742016,50.756668],[-1.741824,50.758316],[-1.741414,50.758687],[-1.741684,50.760339],[-1.740118,50.760964],[-1.739877,50.762773],[-1.73896,50.763271],[-1.73968,50.765348],[-1.741241,50.767207],[-1.744786,50.773117],[-1.746387,50.773404],[-1.748289,50.775141],[-1.745689,50.776256],[-1.748759,50.779449],[-1.756558,50.77842],[-1.767576,50.772912],[-1.76802,50.773305],[-1.770117,50.772549],[-1.769936,50.771316],[-1.768882,50.769783],[-1.773162,50.76819],[-1.7756,50.766992],[-1.776065,50.766353],[-1.779048,50.767366],[-1.779991,50.767339],[-1.781277,50.766669],[-1.782253,50.765021],[-1.783425,50.764649],[-1.783879,50.764845],[-1.783766,50.765625],[-1.784121,50.765919],[-1.785188,50.76584],[-1.78501,50.764951],[-1.785496,50.764752],[-1.785986,50.765488],[-1.788277,50.76687],[-1.788834,50.767833],[-1.787242,50.770491],[-1.787693,50.770604],[-1.789558,50.769947],[-1.789688,50.770288],[-1.788501,50.771151],[-1.790171,50.770969],[-1.7905,50.771658],[-1.789543,50.772233],[-1.788882,50.773482],[-1.788118,50.773759],[-1.787866,50.774249],[-1.789957,50.774559],[-1.790749,50.776213],[-1.7905,50.776533],[-1.788729,50.776943],[-1.78853,50.778076],[-1.787868,50.778855],[-1.790981,50.780332],[-1.792123,50.782666],[-1.794345,50.782209],[-1.795716,50.783358],[-1.797523,50.783836],[-1.797321,50.78452],[-1.795836,50.785455],[-1.795677,50.785902],[-1.796207,50.786281],[-1.798477,50.785753],[-1.800804,50.787421],[-1.802616,50.790809],[-1.801255,50.791117],[-1.800965,50.791885],[-1.804266,50.791371],[-1.805967,50.792021],[-1.805605,50.792525],[-1.803513,50.791946],[-1.803564,50.792964],[-1.800868,50.794118],[-1.801445,50.794616],[-1.803957,50.794818],[-1.804797,50.795684],[-1.803022,50.796081],[-1.802156,50.796897],[-1.803443,50.797559],[-1.803491,50.798529],[-1.801933,50.798945],[-1.801373,50.799715],[-1.802349,50.800319],[-1.804034,50.799988],[-1.804658,50.800459],[-1.804795,50.800989],[-1.804006,50.802589],[-1.804282,50.803578],[-1.806964,50.803506],[-1.809736,50.804957],[-1.810576,50.805902],[-1.811664,50.806076],[-1.812068,50.806548],[-1.811904,50.807094],[-1.8106,50.807099],[-1.811807,50.808019],[-1.811832,50.80873],[-1.810539,50.808893],[-1.809939,50.80977],[-1.806761,50.810466],[-1.805733,50.811627],[-1.802874,50.813512],[-1.803492,50.814053],[-1.806424,50.815012],[-1.807274,50.8163],[-1.806593,50.817831],[-1.805093,50.818348],[-1.804026,50.819984],[-1.802496,50.820308],[-1.801756,50.820976],[-1.801669,50.822236],[-1.802138,50.822438],[-1.803216,50.82193],[-1.804039,50.82196],[-1.804526,50.822361],[-1.804325,50.822836],[-1.804845,50.823714],[-1.80458,50.82471],[-1.803239,50.825246],[-1.804624,50.82703],[-1.803635,50.830024],[-1.802928,50.830741],[-1.801366,50.830953],[-1.800563,50.831498],[-1.798953,50.831388],[-1.797977,50.830363],[-1.797145,50.830021],[-1.79566,50.830789],[-1.794437,50.83103],[-1.794118,50.831518],[-1.795771,50.831822],[-1.796655,50.833221],[-1.795502,50.833878],[-1.792067,50.833588],[-1.791534,50.834103],[-1.791627,50.835336],[-1.790615,50.836314],[-1.791392,50.836957],[-1.792941,50.83659],[-1.794406,50.836801],[-1.794545,50.837724],[-1.798565,50.838852],[-1.800006,50.839988],[-1.800322,50.841043],[-1.799266,50.841301],[-1.798669,50.840818],[-1.797355,50.840791],[-1.796996,50.841092],[-1.798077,50.841987],[-1.799617,50.841539],[-1.799849,50.842195],[-1.801873,50.84242],[-1.803359,50.844477],[-1.803611,50.845279],[-1.802745,50.845418],[-1.800219,50.84724],[-1.80041,50.847872],[-1.799943,50.848449],[-1.801272,50.849284],[-1.80237,50.849543],[-1.802884,50.850661],[-1.804805,50.851154],[-1.805498,50.851991],[-1.805838,50.853071],[-1.803624,50.853342],[-1.803262,50.853914],[-1.804169,50.854164],[-1.804756,50.854781],[-1.804089,50.855539],[-1.804003,50.856476],[-1.804841,50.856792],[-1.805435,50.857636],[-1.805086,50.85901],[-1.807175,50.860138],[-1.806413,50.861498],[-1.808028,50.86446],[-1.81279,50.864573],[-1.81375,50.863381],[-1.812924,50.862332],[-1.814745,50.862052],[-1.814833,50.858701],[-1.821236,50.856772],[-1.829518,50.855319],[-1.841632,50.858043],[-1.84602,50.858137],[-1.850944,50.858725],[-1.850564,50.860298],[-1.853209,50.862673],[-1.853539,50.86346],[-1.851665,50.864223],[-1.853539,50.866505],[-1.847832,50.869686],[-1.84848,50.873778],[-1.845272,50.877998],[-1.846122,50.87942],[-1.847711,50.880878],[-1.847977,50.882339],[-1.847492,50.883408],[-1.844491,50.885297],[-1.844043,50.886829],[-1.845099,50.888251],[-1.848556,50.889887],[-1.844889,50.893168],[-1.841707,50.89702],[-1.83987,50.89789],[-1.837239,50.897198],[-1.831474,50.897391],[-1.825576,50.896167],[-1.824953,50.895771],[-1.823899,50.898226],[-1.816542,50.903948],[-1.817273,50.905429],[-1.817569,50.907465],[-1.820407,50.912106],[-1.819159,50.9127],[-1.818611,50.914546],[-1.818844,50.916526],[-1.817481,50.917608],[-1.815034,50.920584],[-1.814467,50.922882],[-1.814773,50.923132],[-1.81266,50.925333],[-1.810552,50.926808],[-1.81106,50.927037],[-1.810658,50.927203],[-1.811591,50.927371],[-1.811438,50.927804],[-1.812784,50.92752],[-1.813215,50.927835],[-1.813927,50.92705],[-1.817465,50.92716],[-1.817851,50.92677],[-1.820748,50.926299],[-1.824143,50.927095],[-1.826301,50.92687],[-1.828272,50.927768],[-1.829863,50.927609],[-1.832664,50.929214],[-1.835343,50.929548],[-1.83539,50.930057],[-1.838749,50.930803],[-1.840182,50.931868],[-1.840722,50.931581],[-1.84184,50.93168],[-1.842659,50.93096],[-1.844137,50.930725],[-1.844973,50.930188],[-1.846082,50.930266],[-1.846595,50.929562],[-1.851057,50.928835],[-1.851809,50.928258],[-1.854185,50.927511],[-1.855958,50.926458],[-1.855814,50.926116],[-1.85648,50.925681],[-1.855971,50.925538],[-1.855747,50.924983],[-1.857466,50.923152],[-1.859093,50.922374],[-1.859905,50.921304],[-1.860941,50.921127],[-1.86107,50.92064],[-1.863488,50.919389],[-1.864632,50.918923],[-1.873644,50.917226],[-1.875007,50.919797],[-1.876118,50.920585],[-1.877871,50.923105],[-1.87923,50.924064],[-1.878803,50.924326],[-1.880382,50.924935],[-1.881579,50.926377],[-1.892554,50.931624],[-1.896899,50.934396],[-1.898567,50.935878],[-1.899087,50.938392],[-1.9026,50.940726],[-1.905382,50.943084],[-1.909183,50.945327],[-1.910577,50.949223],[-1.912442,50.951016],[-1.912484,50.952199],[-1.916106,50.953131],[-1.918741,50.956366],[-1.920986,50.961496],[-1.923923,50.962723],[-1.927184,50.963595],[-1.928402,50.964988],[-1.928685,50.966293],[-1.929889,50.967796],[-1.934864,50.969093],[-1.93922,50.969657],[-1.941258,50.971826],[-1.942079,50.973363],[-1.94483,50.975748],[-1.948133,50.976475],[-1.950798,50.97813],[-1.952521,50.978583],[-1.954729,50.978118],[-1.955466,50.978266],[-1.957224,50.983195],[-1.95683,50.9898],[-1.953666,50.987758],[-1.949936,50.982311],[-1.936575,50.991518],[-1.935528,50.992757],[-1.927876,50.997697],[-1.923743,50.997318],[-1.920335,50.997423],[-1.912307,50.999356],[-1.903298,50.999339],[-1.898017,50.998623],[-1.895342,50.999231],[-1.892467,50.999618],[-1.891573,50.999444],[-1.888795,50.999969],[-1.886741,50.999528],[-1.88528,51.00025],[-1.883309,51.002172],[-1.8822,51.002707],[-1.879231,51.003948],[-1.875431,51.004699],[-1.874482,51.006331],[-1.873786,51.006235],[-1.874367,51.005366],[-1.874649,51.003567],[-1.874632,50.995852],[-1.875099,50.991736],[-1.874588,50.988155],[-1.874181,50.987727],[-1.873911,50.984501],[-1.869338,50.988912],[-1.866828,50.990822],[-1.862049,50.996641],[-1.855891,51.001583],[-1.85368,51.004469],[-1.852804,51.005028],[-1.842257,51.008527],[-1.835817,51.009473],[-1.827412,50.997273],[-1.821545,50.992991],[-1.819856,50.990258],[-1.815422,50.985923],[-1.807584,50.992046],[-1.80567,50.99163],[-1.800314,50.991395],[-1.796013,50.9902],[-1.790952,50.990086],[-1.787946,50.988145],[-1.783834,50.986899],[-1.77561,50.985161],[-1.77579,50.984812],[-1.775355,50.984712],[-1.769985,50.983828],[-1.76984,50.983495],[-1.765638,50.982938],[-1.75432,50.980448],[-1.754402,50.977892],[-1.743934,50.977822],[-1.743939,50.977475],[-1.742946,50.977114],[-1.739805,50.976617],[-1.735258,50.976409],[-1.733715,50.976438],[-1.729888,50.977314],[-1.726188,50.977344],[-1.722303,50.976786],[-1.719571,50.976786],[-1.719637,50.976149],[-1.718715,50.976001],[-1.716505,50.974174],[-1.709634,50.97123],[-1.701027,50.962725],[-1.689299,50.954637],[-1.685712,50.952919],[-1.676882,50.949667],[-1.669182,50.947233],[-1.6673,50.94703],[-1.66166,50.945278],[-1.65185,50.94717],[-1.649648,50.948506],[-1.646376,50.949465],[-1.641715,50.952496],[-1.641097,50.953161],[-1.640378,50.955447],[-1.634965,50.959242],[-1.62849,50.957125],[-1.623399,50.954637],[-1.619751,50.958567],[-1.612782,50.958098],[-1.607746,50.954962],[-1.596496,50.956072],[-1.595578,50.953754],[-1.590901,50.953348],[-1.590083,50.951264],[-1.588482,50.953539],[-1.586886,50.954776],[-1.586338,50.957422],[-1.585223,50.957737],[-1.584233,50.959065],[-1.584075,50.962118],[-1.575682,50.960776],[-1.561685,50.965916],[-1.561146,50.964962],[-1.556846,50.965501],[-1.55269,50.967526],[-1.547613,50.967821],[-1.544532,50.969281],[-1.544212,50.968568],[-1.543863,50.969061],[-1.543414,50.968244],[-1.542103,50.968168],[-1.542351,50.967733],[-1.54148,50.967479],[-1.541474,50.96656],[-1.540922,50.966586],[-1.541134,50.965912],[-1.540736,50.965517],[-1.541413,50.965319],[-1.541563,50.964454],[-1.540607,50.963897],[-1.540524,50.963202],[-1.539661,50.962853],[-1.540049,50.962559],[-1.539562,50.961545],[-1.537962,50.960347],[-1.537358,50.96015],[-1.536942,50.960427],[-1.535669,50.960005],[-1.535331,50.959357],[-1.53427,50.959063],[-1.533597,50.958019],[-1.534007,50.957184],[-1.533207,50.956616],[-1.533997,50.956231],[-1.533618,50.955808],[-1.534435,50.954692],[-1.533564,50.953297],[-1.532912,50.952833],[-1.532288,50.952996],[-1.531928,50.952129],[-1.530877,50.951949],[-1.531322,50.951536],[-1.531126,50.951264],[-1.530446,50.95114],[-1.530066,50.951574],[-1.529102,50.950362],[-1.527093,50.950689],[-1.526903,50.950125],[-1.525938,50.950836],[-1.525241,50.950393],[-1.523963,50.950529],[-1.523705,50.950826],[-1.524314,50.951136],[-1.522727,50.951369],[-1.522695,50.951996],[-1.522185,50.952003],[-1.521888,50.951551],[-1.521541,50.952227],[-1.519388,50.952086],[-1.519018,50.95171],[-1.517937,50.951767],[-1.517042,50.951425],[-1.516155,50.951523],[-1.515114,50.950406],[-1.512732,50.950922],[-1.510799,50.950008],[-1.509969,50.950108],[-1.509692,50.949752],[-1.510394,50.948298],[-1.509663,50.94757],[-1.508937,50.947439],[-1.508825,50.946574],[-1.508232,50.947043],[-1.507703,50.946745],[-1.508285,50.945802],[-1.507348,50.9444],[-1.507857,50.943753],[-1.507341,50.943163],[-1.507889,50.942718],[-1.507699,50.940696],[-1.506202,50.940384],[-1.506503,50.939797],[-1.504341,50.938404],[-1.504135,50.937609],[-1.503119,50.936884],[-1.503077,50.936193],[-1.501143,50.936079],[-1.50135,50.935628],[-1.500267,50.934525],[-1.49843,50.934638],[-1.497347,50.935081],[-1.493481,50.934912],[-1.492764,50.934708],[-1.492475,50.933913],[-1.490577,50.933491],[-1.489678,50.934493],[-1.488478,50.934853],[-1.488319,50.93456],[-1.488912,50.933932],[-1.488412,50.933435],[-1.487477,50.932973],[-1.486649,50.93319],[-1.485726,50.932832],[-1.485001,50.932718],[-1.485541,50.932466],[-1.485989,50.932122],[-1.486676,50.931276],[-1.486118,50.931086],[-1.485855,50.929928],[-1.484714,50.930022],[-1.484458,50.929358],[-1.483939,50.929346],[-1.482815,50.92828],[-1.482235,50.928531],[-1.482128,50.927817],[-1.481144,50.927309],[-1.481584,50.927066],[-1.479534,50.927303],[-1.478961,50.926714],[-1.479381,50.926244],[-1.480614,50.926425],[-1.480954,50.925848],[-1.482103,50.925475],[-1.481678,50.926119],[-1.482153,50.9258],[-1.48214,50.925449],[-1.482059,50.925189],[-1.48269,50.92483],[-1.482883,50.926157],[-1.484879,50.926106],[-1.485274,50.926424],[-1.484966,50.92608],[-1.485419,50.926039],[-1.485612,50.926573],[-1.486067,50.926659],[-1.486268,50.927486],[-1.486931,50.927745],[-1.486676,50.92895],[-1.487106,50.929956],[-1.487016,50.928464],[-1.487276,50.928061],[-1.487731,50.928498],[-1.486563,50.92721],[-1.486273,50.926111],[-1.485701,50.925879],[-1.482948,50.925865],[-1.483366,50.925164],[-1.485093,50.924977],[-1.483333,50.925107],[-1.48325,50.924784],[-1.482364,50.924501],[-1.481351,50.925535],[-1.480879,50.925593],[-1.480419,50.925196],[-1.480917,50.925135],[-1.47948,50.924185],[-1.478737,50.924467],[-1.477778,50.923873],[-1.478494,50.923446],[-1.47855,50.922774],[-1.47942,50.922863],[-1.47845,50.922714],[-1.478438,50.921316],[-1.479209,50.921538],[-1.479216,50.922031],[-1.479491,50.921492],[-1.47968,50.921896],[-1.48071,50.921963],[-1.479744,50.921853],[-1.479475,50.921299],[-1.479829,50.921329],[-1.480037,50.921157],[-1.479457,50.920803],[-1.480431,50.921027],[-1.481301,50.920756],[-1.481117,50.921008],[-1.482142,50.921421],[-1.482776,50.921157],[-1.482779,50.921975],[-1.483704,50.922897],[-1.483468,50.922433],[-1.483817,50.922337],[-1.482827,50.921966],[-1.482984,50.921147],[-1.482753,50.921044],[-1.481845,50.921276],[-1.481114,50.920504],[-1.480459,50.92095],[-1.480243,50.920387],[-1.480262,50.920895],[-1.479353,50.920654],[-1.479148,50.92094],[-1.479854,50.921203],[-1.47935,50.921134],[-1.479189,50.921378],[-1.477425,50.920965],[-1.479139,50.920469],[-1.481227,50.919355],[-1.478963,50.920491],[-1.477422,50.920856],[-1.476823,50.921226],[-1.476735,50.920753],[-1.478043,50.919891],[-1.47683,50.92014],[-1.476811,50.919882],[-1.47917,50.919007],[-1.478566,50.91914],[-1.478225,50.918229],[-1.477656,50.918038],[-1.478444,50.917397],[-1.477718,50.91766],[-1.476827,50.917334],[-1.477755,50.91685],[-1.477836,50.916381],[-1.478318,50.91661],[-1.477338,50.915555],[-1.477215,50.915759],[-1.476293,50.915537],[-1.476661,50.915693],[-1.476242,50.916269],[-1.475787,50.916221],[-1.47561,50.917004],[-1.475002,50.91648],[-1.475299,50.916583],[-1.475235,50.91595],[-1.475614,50.915767],[-1.475208,50.915693],[-1.474791,50.916241],[-1.474307,50.916124],[-1.474543,50.91557],[-1.473487,50.915797],[-1.473515,50.91543],[-1.475484,50.915376],[-1.475654,50.915121],[-1.47466,50.915263],[-1.473443,50.91481],[-1.474863,50.913122],[-1.475457,50.914202],[-1.474642,50.91429],[-1.475039,50.914377],[-1.47481,50.914657],[-1.475339,50.914342],[-1.475389,50.914796],[-1.475551,50.914306],[-1.475881,50.914425],[-1.474372,50.911993],[-1.474751,50.912012],[-1.474054,50.911698],[-1.474835,50.911632],[-1.475524,50.91287],[-1.476142,50.912199],[-1.477193,50.912383],[-1.475606,50.91292],[-1.47604,50.913218],[-1.475886,50.914056],[-1.476947,50.914541],[-1.476879,50.914345],[-1.477928,50.914158],[-1.477592,50.914704],[-1.4779,50.915156],[-1.477236,50.915139],[-1.477662,50.915721],[-1.478329,50.915639],[-1.478476,50.915961],[-1.478071,50.916155],[-1.478993,50.916539],[-1.479289,50.916222],[-1.478586,50.914706],[-1.479142,50.915582],[-1.479505,50.91557],[-1.478383,50.912546],[-1.479716,50.91213],[-1.479889,50.912368],[-1.481343,50.911774],[-1.48225,50.910929],[-1.484419,50.910087],[-1.484942,50.909566],[-1.487391,50.910297],[-1.488875,50.910252],[-1.489546,50.910508],[-1.491141,50.912028],[-1.490318,50.915349],[-1.490793,50.915827],[-1.490516,50.914681],[-1.491113,50.913611],[-1.491239,50.911902],[-1.489852,50.91049],[-1.488967,50.91015],[-1.486959,50.910054],[-1.485351,50.909413],[-1.486063,50.909074],[-1.486534,50.909255],[-1.486593,50.909196],[-1.486454,50.908943],[-1.487392,50.908447],[-1.48776,50.907578],[-1.487366,50.908404],[-1.486444,50.908909],[-1.486531,50.909223],[-1.486106,50.909041],[-1.484908,50.909338],[-1.484319,50.909907],[-1.484107,50.909536],[-1.484074,50.910031],[-1.482525,50.910099],[-1.482605,50.909816],[-1.483259,50.909836],[-1.483677,50.909466],[-1.483496,50.909166],[-1.483177,50.90982],[-1.482564,50.909796],[-1.481588,50.910105],[-1.479749,50.911531],[-1.478258,50.911936],[-1.473669,50.909293],[-1.471248,50.907012],[-1.467222,50.905825],[-1.466045,50.903973],[-1.464308,50.903381],[-1.464474,50.902978],[-1.463504,50.903664],[-1.463204,50.903372],[-1.462403,50.90359],[-1.462057,50.903252],[-1.460768,50.903683],[-1.46058,50.903425],[-1.460238,50.903747],[-1.460068,50.903473],[-1.461948,50.903096],[-1.461435,50.902718],[-1.460612,50.902929],[-1.461433,50.902548],[-1.460905,50.902403],[-1.460724,50.902672],[-1.460603,50.902328],[-1.461116,50.902109],[-1.462236,50.90285],[-1.463013,50.90297],[-1.462507,50.903231],[-1.463722,50.90307],[-1.461713,50.902128],[-1.46174,50.901741],[-1.461288,50.901975],[-1.461694,50.901617],[-1.461509,50.901424],[-1.461662,50.901605],[-1.460979,50.901894],[-1.460755,50.901486],[-1.459326,50.90126],[-1.459308,50.901764],[-1.459668,50.901546],[-1.459656,50.901864],[-1.460615,50.901926],[-1.460022,50.902309],[-1.460221,50.902064],[-1.459727,50.90211],[-1.459909,50.902489],[-1.45898,50.903073],[-1.459419,50.902282],[-1.458881,50.902354],[-1.459089,50.900677],[-1.458009,50.902188],[-1.457677,50.902071],[-1.458274,50.901229],[-1.458066,50.90096],[-1.457365,50.90084],[-1.45714,50.901409],[-1.45719,50.900955],[-1.45666,50.900972],[-1.456975,50.901534],[-1.456328,50.901348],[-1.457052,50.902092],[-1.456734,50.902326],[-1.45608,50.90227],[-1.456427,50.901814],[-1.456155,50.901452],[-1.455791,50.901779],[-1.45567,50.9013],[-1.456068,50.901015],[-1.454363,50.90111],[-1.455512,50.901334],[-1.455195,50.902033],[-1.45464,50.901489],[-1.454322,50.901857],[-1.453904,50.901469],[-1.45324,50.901823],[-1.452728,50.901641],[-1.452896,50.901431],[-1.452231,50.901754],[-1.451954,50.901459],[-1.452694,50.900586],[-1.45236,50.900296],[-1.449499,50.901618],[-1.446983,50.901518],[-1.441996,50.90204],[-1.444115,50.899255],[-1.441567,50.90172],[-1.429538,50.897721],[-1.42945,50.897114],[-1.428836,50.896836],[-1.426645,50.89676],[-1.424863,50.894786],[-1.425135,50.894293],[-1.426148,50.894303],[-1.426754,50.894699],[-1.427858,50.894137],[-1.42822,50.894547],[-1.428569,50.894651],[-1.430912,50.894497],[-1.431161,50.895326],[-1.43106,50.894477],[-1.428477,50.894586],[-1.427818,50.894048],[-1.426756,50.894515],[-1.425403,50.893963],[-1.424162,50.894548],[-1.407322,50.879703],[-1.399794,50.875876],[-1.399786,50.8756],[-1.399401,50.875676],[-1.397493,50.874698],[-1.400755,50.871912],[-1.399493,50.871342],[-1.398735,50.87139],[-1.399231,50.870749],[-1.398689,50.870944],[-1.395708,50.86909],[-1.394511,50.868754],[-1.392846,50.869677],[-1.391442,50.866867],[-1.391112,50.866654],[-1.389947,50.867287],[-1.38903,50.866652],[-1.390429,50.865658],[-1.389866,50.865793],[-1.388449,50.865159],[-1.388291,50.864598],[-1.388875,50.864148],[-1.388621,50.863887],[-1.388921,50.863736],[-1.38798,50.863725],[-1.386898,50.862625],[-1.38734,50.863281],[-1.386927,50.863409],[-1.388185,50.863913],[-1.388226,50.864282],[-1.386632,50.864204],[-1.385689,50.863721],[-1.386045,50.863488],[-1.385607,50.863667],[-1.385046,50.863435],[-1.385187,50.863141],[-1.38592,50.86317],[-1.38553,50.863135],[-1.385594,50.862841],[-1.384892,50.863218],[-1.383947,50.862822],[-1.385095,50.862651],[-1.384817,50.862101],[-1.38554,50.862487],[-1.385283,50.862146],[-1.38597,50.861819],[-1.386715,50.862227],[-1.385835,50.8613],[-1.385687,50.86183],[-1.384463,50.86194],[-1.384184,50.862628],[-1.383094,50.86256],[-1.382566,50.86188],[-1.383556,50.86203],[-1.383031,50.861655],[-1.38391,50.861685],[-1.383754,50.861384],[-1.384566,50.861549],[-1.384259,50.861353],[-1.384791,50.861306],[-1.38389,50.861312],[-1.384301,50.86085],[-1.384665,50.860982],[-1.384455,50.860778],[-1.385464,50.861088],[-1.384711,50.860746],[-1.384902,50.860569],[-1.384408,50.860712],[-1.384972,50.860485],[-1.38441,50.86062],[-1.384675,50.860477],[-1.384218,50.860377],[-1.383797,50.86114],[-1.383566,50.860769],[-1.383796,50.861214],[-1.383392,50.861527],[-1.382548,50.861344],[-1.382625,50.860804],[-1.383319,50.860507],[-1.382701,50.860724],[-1.382842,50.860399],[-1.382497,50.860506],[-1.382438,50.861029],[-1.381843,50.860863],[-1.382352,50.861153],[-1.382361,50.861657],[-1.380948,50.861004],[-1.381,50.86048],[-1.381966,50.860431],[-1.381432,50.860175],[-1.3824,50.860198],[-1.381596,50.860047],[-1.382039,50.859745],[-1.380511,50.860081],[-1.38079,50.860476],[-1.379167,50.860079],[-1.380196,50.859999],[-1.379219,50.859528],[-1.380313,50.859798],[-1.380098,50.85945],[-1.380735,50.859486],[-1.380235,50.859031],[-1.38108,50.859136],[-1.381408,50.859631],[-1.381199,50.859085],[-1.381774,50.859422],[-1.381708,50.859093],[-1.38205,50.859083],[-1.383802,50.859975],[-1.382442,50.859115],[-1.383249,50.858766],[-1.382316,50.859121],[-1.3815,50.858938],[-1.38196,50.858542],[-1.38258,50.858657],[-1.382532,50.858162],[-1.38253,50.858566],[-1.381778,50.858528],[-1.381096,50.858994],[-1.380346,50.858747],[-1.379551,50.858981],[-1.379663,50.858679],[-1.381113,50.858501],[-1.380528,50.858198],[-1.381539,50.858199],[-1.381645,50.857876],[-1.380329,50.85811],[-1.380263,50.858376],[-1.380058,50.858212],[-1.379996,50.858518],[-1.379676,50.858528],[-1.379787,50.858237],[-1.379097,50.858475],[-1.379597,50.858563],[-1.37918,50.858737],[-1.379332,50.858996],[-1.378808,50.858858],[-1.378858,50.859176],[-1.378656,50.858801],[-1.378084,50.858811],[-1.378222,50.859211],[-1.376998,50.85862],[-1.377977,50.858799],[-1.378437,50.858662],[-1.377791,50.858521],[-1.37811,50.858292],[-1.37863,50.8586],[-1.378839,50.85845],[-1.378313,50.858229],[-1.378909,50.858362],[-1.378819,50.858091],[-1.379234,50.858186],[-1.37948,50.857864],[-1.379894,50.858048],[-1.379584,50.857808],[-1.38005,50.857602],[-1.380397,50.857845],[-1.381497,50.857527],[-1.380186,50.857578],[-1.380513,50.85708],[-1.381051,50.856998],[-1.380429,50.85703],[-1.380697,50.856882],[-1.380926,50.856611],[-1.380605,50.856685],[-1.380325,50.856333],[-1.380693,50.856808],[-1.380065,50.856814],[-1.380409,50.857132],[-1.380029,50.857509],[-1.378862,50.85793],[-1.378992,50.857418],[-1.3784,50.857921],[-1.37873,50.857989],[-1.377701,50.858131],[-1.377625,50.858405],[-1.37722,50.858271],[-1.378227,50.857894],[-1.378679,50.857125],[-1.379492,50.857022],[-1.379327,50.856777],[-1.378207,50.857178],[-1.377917,50.857753],[-1.376783,50.85809],[-1.377031,50.857602],[-1.377482,50.857711],[-1.377885,50.857357],[-1.377263,50.857327],[-1.377843,50.857175],[-1.377472,50.856993],[-1.377901,50.857183],[-1.378156,50.856936],[-1.37746,50.856803],[-1.378573,50.856553],[-1.378621,50.8562],[-1.379001,50.856313],[-1.378745,50.856118],[-1.377306,50.856648],[-1.377078,50.857335],[-1.376295,50.857223],[-1.376631,50.857605],[-1.376857,50.857486],[-1.376552,50.857995],[-1.375375,50.857541],[-1.375893,50.85738],[-1.374433,50.857564],[-1.375127,50.856966],[-1.374675,50.856881],[-1.374884,50.857022],[-1.374247,50.857369],[-1.373644,50.857034],[-1.37434,50.85701],[-1.374365,50.856805],[-1.373821,50.856956],[-1.374095,50.856702],[-1.373624,50.856749],[-1.373954,50.856418],[-1.373448,50.856647],[-1.373667,50.85693],[-1.37329,50.856558],[-1.374607,50.856106],[-1.374812,50.856666],[-1.375287,50.856448],[-1.375259,50.856986],[-1.376158,50.857106],[-1.375523,50.856741],[-1.376159,50.856672],[-1.375456,50.85645],[-1.376128,50.856418],[-1.376418,50.856742],[-1.377563,50.856052],[-1.37808,50.856118],[-1.377878,50.855899],[-1.376355,50.856403],[-1.375932,50.856274],[-1.376601,50.856205],[-1.377256,50.855736],[-1.376393,50.856194],[-1.375746,50.856037],[-1.376029,50.856133],[-1.374877,50.856337],[-1.374725,50.855935],[-1.375338,50.855648],[-1.375817,50.8559],[-1.375499,50.855628],[-1.375814,50.855451],[-1.376384,50.855813],[-1.376072,50.855424],[-1.376557,50.855675],[-1.376313,50.85541],[-1.377069,50.85532],[-1.377683,50.855626],[-1.377132,50.855181],[-1.377658,50.854991],[-1.377856,50.855279],[-1.378199,50.85486],[-1.378813,50.855814],[-1.379312,50.856039],[-1.378928,50.855754],[-1.379436,50.855569],[-1.378999,50.855569],[-1.378243,50.854641],[-1.37669,50.855299],[-1.37591,50.855303],[-1.376816,50.854832],[-1.376829,50.854474],[-1.377646,50.854553],[-1.377023,50.854406],[-1.377017,50.854001],[-1.376362,50.854907],[-1.37575,50.854734],[-1.376134,50.854969],[-1.375416,50.855154],[-1.375683,50.855312],[-1.37517,50.855537],[-1.375005,50.855296],[-1.375082,50.855578],[-1.374568,50.855528],[-1.374418,50.855847],[-1.373809,50.855612],[-1.376935,50.853905],[-1.375795,50.854411],[-1.37609,50.854176],[-1.3757,50.85413],[-1.374151,50.855001],[-1.375505,50.853454],[-1.375895,50.853673],[-1.375615,50.853407],[-1.37496,50.853357],[-1.374709,50.853497],[-1.375298,50.853642],[-1.374756,50.854239],[-1.374351,50.853986],[-1.374512,50.854297],[-1.373933,50.854343],[-1.373976,50.854926],[-1.373583,50.854771],[-1.37371,50.855008],[-1.372549,50.855259],[-1.37326,50.854701],[-1.372961,50.854471],[-1.373803,50.854254],[-1.373455,50.854225],[-1.374281,50.852981],[-1.373234,50.85431],[-1.372565,50.854362],[-1.372692,50.85485],[-1.372133,50.854322],[-1.372779,50.854203],[-1.37215,50.854082],[-1.372368,50.853827],[-1.373083,50.854005],[-1.373123,50.853622],[-1.372865,50.85391],[-1.372493,50.853796],[-1.373389,50.853225],[-1.372791,50.853077],[-1.372085,50.853981],[-1.371243,50.85404],[-1.371447,50.853553],[-1.372027,50.85353],[-1.371446,50.853415],[-1.372395,50.85308],[-1.371817,50.852766],[-1.372191,50.852396],[-1.373455,50.852657],[-1.372126,50.851877],[-1.371706,50.851836],[-1.372408,50.852177],[-1.371635,50.852516],[-1.37186,50.853013],[-1.37105,50.853311],[-1.371211,50.853727],[-1.370723,50.85375],[-1.371145,50.853805],[-1.371042,50.85404],[-1.37029,50.853871],[-1.370608,50.853447],[-1.369687,50.853497],[-1.370147,50.853042],[-1.370847,50.853169],[-1.371118,50.85284],[-1.371144,50.852573],[-1.370769,50.852935],[-1.37008,50.852837],[-1.370319,50.852513],[-1.370636,50.85264],[-1.370467,50.852327],[-1.371368,50.85221],[-1.370583,50.852257],[-1.370653,50.851904],[-1.369733,50.853318],[-1.36898,50.853499],[-1.368832,50.853061],[-1.369432,50.852771],[-1.369065,50.852577],[-1.369985,50.852315],[-1.368887,50.852454],[-1.36922,50.851863],[-1.369943,50.85186],[-1.369321,50.851671],[-1.370553,50.851433],[-1.369927,50.851373],[-1.370096,50.851022],[-1.37005,50.85096],[-1.369312,50.85063],[-1.370074,50.851013],[-1.369178,50.851659],[-1.368105,50.851273],[-1.368467,50.851033],[-1.367637,50.851031],[-1.367918,50.851522],[-1.367885,50.851242],[-1.368632,50.851781],[-1.369129,50.851736],[-1.368564,50.852406],[-1.368922,50.852713],[-1.368289,50.852883],[-1.368604,50.853077],[-1.367327,50.853129],[-1.368131,50.852635],[-1.367389,50.852688],[-1.368218,50.852178],[-1.36785,50.852085],[-1.368058,50.851899],[-1.367614,50.851955],[-1.367451,50.852561],[-1.36704,50.852571],[-1.367399,50.852898],[-1.367052,50.853154],[-1.366564,50.852664],[-1.367031,50.852037],[-1.366421,50.852222],[-1.366446,50.852646],[-1.365921,50.852199],[-1.36705,50.851777],[-1.366875,50.851607],[-1.367367,50.851639],[-1.366923,50.851499],[-1.365741,50.852219],[-1.36487,50.851787],[-1.365787,50.851892],[-1.365655,50.851613],[-1.365083,50.851651],[-1.365535,50.851396],[-1.366355,50.851593],[-1.365678,50.851344],[-1.365842,50.851109],[-1.367181,50.851246],[-1.367331,50.850974],[-1.366471,50.850967],[-1.367406,50.850596],[-1.366926,50.850496],[-1.366031,50.851083],[-1.366769,50.850463],[-1.366378,50.850506],[-1.364792,50.851673],[-1.364474,50.851723],[-1.36492,50.851468],[-1.365201,50.850784],[-1.366158,50.850251],[-1.365939,50.849761],[-1.366877,50.849975],[-1.366112,50.849621],[-1.36587,50.849736],[-1.365689,50.85039],[-1.364948,50.850556],[-1.364879,50.851034],[-1.364424,50.850951],[-1.364698,50.851447],[-1.363905,50.851334],[-1.364288,50.851629],[-1.363746,50.851706],[-1.363291,50.851204],[-1.363688,50.851149],[-1.362776,50.851133],[-1.362905,50.850696],[-1.364146,50.850946],[-1.364347,50.850769],[-1.363667,50.850466],[-1.364336,50.850588],[-1.365402,50.849811],[-1.36509,50.849863],[-1.365147,50.84952],[-1.364719,50.850136],[-1.364021,50.850373],[-1.363917,50.850094],[-1.36388,50.850357],[-1.363044,50.850579],[-1.363664,50.849833],[-1.364538,50.849779],[-1.364806,50.848954],[-1.364383,50.849689],[-1.36371,50.849662],[-1.364239,50.849073],[-1.363521,50.849834],[-1.363425,50.849475],[-1.363124,50.849622],[-1.362646,50.850668],[-1.362171,50.849892],[-1.361953,50.850151],[-1.362427,50.850608],[-1.360969,50.85017],[-1.361869,50.85019],[-1.361029,50.850063],[-1.36106,50.84974],[-1.362682,50.84977],[-1.362155,50.849499],[-1.363364,50.849044],[-1.362389,50.849301],[-1.362726,50.848896],[-1.363899,50.848878],[-1.362958,50.848823],[-1.363034,50.848617],[-1.361733,50.8496],[-1.36151,50.84938],[-1.360877,50.849643],[-1.361028,50.849165],[-1.361603,50.84911],[-1.361044,50.848941],[-1.361562,50.848923],[-1.361652,50.848561],[-1.362997,50.848393],[-1.363499,50.847909],[-1.363875,50.848292],[-1.363684,50.847844],[-1.364407,50.848284],[-1.36285,50.847134],[-1.362541,50.847412],[-1.363164,50.847397],[-1.363678,50.847781],[-1.362052,50.848493],[-1.361743,50.848388],[-1.362414,50.847922],[-1.361332,50.848108],[-1.361578,50.848435],[-1.360851,50.848676],[-1.360761,50.849474],[-1.35997,50.849308],[-1.360558,50.849629],[-1.360601,50.85016],[-1.360242,50.85023],[-1.359605,50.849501],[-1.359861,50.850307],[-1.357472,50.849502],[-1.357711,50.849273],[-1.359108,50.849604],[-1.3593,50.849212],[-1.358268,50.849309],[-1.357501,50.848833],[-1.35864,50.848871],[-1.35888,50.848618],[-1.359714,50.849064],[-1.360181,50.848808],[-1.358992,50.8485],[-1.359438,50.848303],[-1.360359,50.848619],[-1.36008,50.848411],[-1.360619,50.848393],[-1.360387,50.848143],[-1.360893,50.847953],[-1.35973,50.848308],[-1.359968,50.84775],[-1.361903,50.847496],[-1.360434,50.847533],[-1.360685,50.847281],[-1.361662,50.847305],[-1.360621,50.847169],[-1.360786,50.846904],[-1.36195,50.846891],[-1.360746,50.845453],[-1.359618,50.845094],[-1.360498,50.845223],[-1.359871,50.84504],[-1.36027,50.844709],[-1.360514,50.845054],[-1.36063,50.844636],[-1.360263,50.844535],[-1.360581,50.843913],[-1.360091,50.843715],[-1.3612,50.843532],[-1.360563,50.842874],[-1.359224,50.842927],[-1.359268,50.843191],[-1.358824,50.843095],[-1.359122,50.843371],[-1.358493,50.843653],[-1.358546,50.843128],[-1.358165,50.843546],[-1.357876,50.843046],[-1.357443,50.84343],[-1.358269,50.843681],[-1.3581,50.84418],[-1.359089,50.844866],[-1.358866,50.845164],[-1.357972,50.84521],[-1.358173,50.844902],[-1.35784,50.844891],[-1.358366,50.844796],[-1.357636,50.844855],[-1.357862,50.844531],[-1.357402,50.844579],[-1.357435,50.844328],[-1.357167,50.844455],[-1.357754,50.845214],[-1.356143,50.845646],[-1.356995,50.845075],[-1.356866,50.844839],[-1.356147,50.845534],[-1.35633,50.844994],[-1.355791,50.844994],[-1.356122,50.845296],[-1.355776,50.845587],[-1.355049,50.845519],[-1.355133,50.845267],[-1.354161,50.845523],[-1.354795,50.844622],[-1.355383,50.844846],[-1.35493,50.844559],[-1.355299,50.844332],[-1.355985,50.844757],[-1.355543,50.844226],[-1.356653,50.84473],[-1.356345,50.844343],[-1.357081,50.844171],[-1.356271,50.844304],[-1.355674,50.844115],[-1.355828,50.843919],[-1.356195,50.84404],[-1.35701,50.843888],[-1.357548,50.84419],[-1.357474,50.843814],[-1.357059,50.843806],[-1.357262,50.843542],[-1.355967,50.843753],[-1.356331,50.843271],[-1.357268,50.843485],[-1.357032,50.84301],[-1.357589,50.842834],[-1.356795,50.842587],[-1.357134,50.842744],[-1.356908,50.84305],[-1.356039,50.842662],[-1.356397,50.842426],[-1.355573,50.84221],[-1.355263,50.842288],[-1.355337,50.842522],[-1.356094,50.842372],[-1.355865,50.842668],[-1.356934,50.843258],[-1.356025,50.843008],[-1.355669,50.843846],[-1.355368,50.843302],[-1.355969,50.842809],[-1.355369,50.842745],[-1.355343,50.843218],[-1.354902,50.842954],[-1.355147,50.842777],[-1.354779,50.842892],[-1.355271,50.843479],[-1.354606,50.843015],[-1.354345,50.843267],[-1.355273,50.843566],[-1.355515,50.844004],[-1.35484,50.844228],[-1.35496,50.84379],[-1.354064,50.843723],[-1.354766,50.844295],[-1.354151,50.845208],[-1.351709,50.846493],[-1.352308,50.845303],[-1.353512,50.844787],[-1.352803,50.844918],[-1.353018,50.844598],[-1.354023,50.844798],[-1.353653,50.844434],[-1.354198,50.844369],[-1.353867,50.843923],[-1.353486,50.844467],[-1.353501,50.844078],[-1.353049,50.844182],[-1.353068,50.844494],[-1.352664,50.844077],[-1.354016,50.843477],[-1.353454,50.843604],[-1.354057,50.843007],[-1.352592,50.843955],[-1.35281,50.843345],[-1.353651,50.843052],[-1.352734,50.843281],[-1.35313,50.842846],[-1.354631,50.842539],[-1.353236,50.842772],[-1.353867,50.842281],[-1.354054,50.841915],[-1.353774,50.8423],[-1.353425,50.842053],[-1.352218,50.843469],[-1.352586,50.844701],[-1.351639,50.845215],[-1.35158,50.845786],[-1.351096,50.845785],[-1.351571,50.845887],[-1.351207,50.846315],[-1.350401,50.846533],[-1.349974,50.846169],[-1.349739,50.846446],[-1.349055,50.846345],[-1.349298,50.846159],[-1.348001,50.845675],[-1.345912,50.845503],[-1.34242,50.843994],[-1.342061,50.843385],[-1.34027,50.842691],[-1.339624,50.841725],[-1.341078,50.840729],[-1.34278,50.8403],[-1.342162,50.840115],[-1.342504,50.839987],[-1.342438,50.839666],[-1.34217,50.839732],[-1.342116,50.840137],[-1.342246,50.840373],[-1.339428,50.841208],[-1.338146,50.840625],[-1.337695,50.839971],[-1.338026,50.839634],[-1.337341,50.838709],[-1.33555,50.838433],[-1.335741,50.83813],[-1.334898,50.837318],[-1.335935,50.836723],[-1.336609,50.836897],[-1.338211,50.83652],[-1.338188,50.836255],[-1.3384,50.836455],[-1.339551,50.836109],[-1.339084,50.83613],[-1.339715,50.835702],[-1.338357,50.835341],[-1.339638,50.835415],[-1.338836,50.834807],[-1.338889,50.834266],[-1.339168,50.834491],[-1.339576,50.834324],[-1.339159,50.834697],[-1.340155,50.835129],[-1.339929,50.835535],[-1.340249,50.835476],[-1.340367,50.834961],[-1.3397,50.83475],[-1.340297,50.834774],[-1.339602,50.834705],[-1.34012,50.834433],[-1.340385,50.834757],[-1.340314,50.834171],[-1.340007,50.833795],[-1.339986,50.834235],[-1.339278,50.833752],[-1.339988,50.833716],[-1.339895,50.833054],[-1.340476,50.832368],[-1.339506,50.831558],[-1.338166,50.829262],[-1.339417,50.826643],[-1.337998,50.827039],[-1.337115,50.827807],[-1.33643,50.827741],[-1.336186,50.828232],[-1.336375,50.827559],[-1.335377,50.826783],[-1.3355,50.826322],[-1.333125,50.826258],[-1.331855,50.825872],[-1.331104,50.825107],[-1.331311,50.825762],[-1.332127,50.826327],[-1.331564,50.826396],[-1.331884,50.826763],[-1.331474,50.826679],[-1.331307,50.827083],[-1.330382,50.82744],[-1.330639,50.827036],[-1.330258,50.826932],[-1.33106,50.826883],[-1.330888,50.826409],[-1.331533,50.826322],[-1.331377,50.826075],[-1.330757,50.826355],[-1.331065,50.825994],[-1.330773,50.825834],[-1.330667,50.82623],[-1.330179,50.82615],[-1.330733,50.826482],[-1.330308,50.826758],[-1.330125,50.826386],[-1.330035,50.827044],[-1.329696,50.827098],[-1.330063,50.827119],[-1.330053,50.82752],[-1.328901,50.827462],[-1.328883,50.826976],[-1.329394,50.827374],[-1.329763,50.827251],[-1.329337,50.826901],[-1.329775,50.826571],[-1.329338,50.826832],[-1.329196,50.826535],[-1.32839,50.827119],[-1.328424,50.827331],[-1.328889,50.827174],[-1.328633,50.827457],[-1.327525,50.827765],[-1.327059,50.827479],[-1.327582,50.827455],[-1.327122,50.827399],[-1.327942,50.826712],[-1.327664,50.82748],[-1.328224,50.827398],[-1.328141,50.826843],[-1.328492,50.826762],[-1.328098,50.826211],[-1.328517,50.826027],[-1.328431,50.826556],[-1.329117,50.826293],[-1.328684,50.825665],[-1.329303,50.825999],[-1.329157,50.82632],[-1.32847,50.826639],[-1.328674,50.826656],[-1.329357,50.826214],[-1.329739,50.826537],[-1.329861,50.825742],[-1.32996,50.826179],[-1.330485,50.825867],[-1.330168,50.825685],[-1.330913,50.825736],[-1.330148,50.8251],[-1.330489,50.825033],[-1.330147,50.824903],[-1.330369,50.824676],[-1.330908,50.824968],[-1.330527,50.824508],[-1.329982,50.824768],[-1.32977,50.82421],[-1.329575,50.82467],[-1.328909,50.824332],[-1.330301,50.823999],[-1.330137,50.823818],[-1.329053,50.824222],[-1.328406,50.823908],[-1.327967,50.824379],[-1.325949,50.825084],[-1.326129,50.825577],[-1.325454,50.825348],[-1.325328,50.82567],[-1.326089,50.825661],[-1.325903,50.825908],[-1.324497,50.826353],[-1.324104,50.826193],[-1.324339,50.82569],[-1.325015,50.82587],[-1.325411,50.82529],[-1.324924,50.825738],[-1.324365,50.825613],[-1.324353,50.825069],[-1.324639,50.825307],[-1.325066,50.825062],[-1.324485,50.825026],[-1.323459,50.824304],[-1.323621,50.823682],[-1.324202,50.823627],[-1.324608,50.824398],[-1.324815,50.824027],[-1.325197,50.824085],[-1.325129,50.824475],[-1.325302,50.824083],[-1.325693,50.824343],[-1.326218,50.82418],[-1.326251,50.824463],[-1.327564,50.823782],[-1.326256,50.824111],[-1.32619,50.823562],[-1.325796,50.824076],[-1.324157,50.823363],[-1.323048,50.823678],[-1.322688,50.823413],[-1.325196,50.822621],[-1.325468,50.823008],[-1.325665,50.822769],[-1.326614,50.822929],[-1.326882,50.82253],[-1.326321,50.821994],[-1.325329,50.8217],[-1.325174,50.820935],[-1.324127,50.820378],[-1.323691,50.818799],[-1.323331,50.818798],[-1.324239,50.818106],[-1.325538,50.817772],[-1.324924,50.817335],[-1.32598,50.816486],[-1.324692,50.817097],[-1.324104,50.817997],[-1.323174,50.818365],[-1.322924,50.818111],[-1.320752,50.817945],[-1.320368,50.817208],[-1.319092,50.816998],[-1.318311,50.817087],[-1.318118,50.817694],[-1.317333,50.817892],[-1.317333,50.817185],[-1.316761,50.816871],[-1.317811,50.816856],[-1.317439,50.816721],[-1.317834,50.816607],[-1.317166,50.816359],[-1.317113,50.816697],[-1.316372,50.816684],[-1.316271,50.816415],[-1.31672,50.816385],[-1.31615,50.816356],[-1.314586,50.815348],[-1.313997,50.816268],[-1.313307,50.815866],[-1.312619,50.815921],[-1.312469,50.815686],[-1.31306,50.815598],[-1.313886,50.81603],[-1.313618,50.815736],[-1.314046,50.815208],[-1.313337,50.815467],[-1.313524,50.814876],[-1.313093,50.815365],[-1.312642,50.815331],[-1.313399,50.814609],[-1.312852,50.814004],[-1.311475,50.813429],[-1.309729,50.814581],[-1.308313,50.816861],[-1.309671,50.818733],[-1.310238,50.818924],[-1.310653,50.818554],[-1.310634,50.818838],[-1.30983,50.81969],[-1.308558,50.820301],[-1.307699,50.820326],[-1.307016,50.819908],[-1.307577,50.816134],[-1.308497,50.814895],[-1.31212,50.812143],[-1.320377,50.808039],[-1.327611,50.803124],[-1.332923,50.796892],[-1.336595,50.79383],[-1.340244,50.788003],[-1.341921,50.785995],[-1.346267,50.785073],[-1.350143,50.785049],[-1.352571,50.784015],[-1.354046,50.78385],[-1.358195,50.78453],[-1.359299,50.784375],[-1.368608,50.785287],[-1.375871,50.785149],[-1.377387,50.785389],[-1.378203,50.785118],[-1.378542,50.785473],[-1.379317,50.785482],[-1.382073,50.785013],[-1.388243,50.785961],[-1.38883,50.785601],[-1.388456,50.785159],[-1.388967,50.785142],[-1.389831,50.785845],[-1.392646,50.785757],[-1.395797,50.784855],[-1.395694,50.784581],[-1.396246,50.78485],[-1.396081,50.784615],[-1.396851,50.784326],[-1.398333,50.784159],[-1.403976,50.784704],[-1.407468,50.785877],[-1.407727,50.785454],[-1.408726,50.786684],[-1.407539,50.787202],[-1.408005,50.787302],[-1.407711,50.787771],[-1.407282,50.787673],[-1.407667,50.787906],[-1.40711,50.787832],[-1.406743,50.788267],[-1.406248,50.789257],[-1.40655,50.789125],[-1.406814,50.789954],[-1.406309,50.790056],[-1.406372,50.789505],[-1.40577,50.790119],[-1.405807,50.79047],[-1.406395,50.790102],[-1.406945,50.790753],[-1.405787,50.790711],[-1.406009,50.790757],[-1.405484,50.790893],[-1.405572,50.79137],[-1.406109,50.79079],[-1.406449,50.790855],[-1.406477,50.791301],[-1.407133,50.791643],[-1.406582,50.791678],[-1.406297,50.791347],[-1.405618,50.791705],[-1.40505,50.79136],[-1.405577,50.791835],[-1.40698,50.791797],[-1.405957,50.79218],[-1.406877,50.792149],[-1.407003,50.792619],[-1.406232,50.792405],[-1.406819,50.793329],[-1.406757,50.793049],[-1.407393,50.793045],[-1.4076,50.793251],[-1.407162,50.7934],[-1.408317,50.793464],[-1.40728,50.793593],[-1.408219,50.793712],[-1.408664,50.79409],[-1.408797,50.794525],[-1.408408,50.794613],[-1.407886,50.794034],[-1.40831,50.794705],[-1.407857,50.794881],[-1.408831,50.794752],[-1.408749,50.795077],[-1.408233,50.795086],[-1.408216,50.795197],[-1.40833,50.795449],[-1.408585,50.79562],[-1.408262,50.795232],[-1.409325,50.795035],[-1.408848,50.794875],[-1.408986,50.794627],[-1.409432,50.795085],[-1.409186,50.795426],[-1.409546,50.7954],[-1.409634,50.79628],[-1.408727,50.796176],[-1.408659,50.796265],[-1.408791,50.796537],[-1.408732,50.796202],[-1.409616,50.796473],[-1.409602,50.79687],[-1.409376,50.796801],[-1.408843,50.796884],[-1.408833,50.797243],[-1.409062,50.796859],[-1.409655,50.796962],[-1.409553,50.798133],[-1.408509,50.798059],[-1.409553,50.798402],[-1.409494,50.798798],[-1.408619,50.798909],[-1.409303,50.798944],[-1.408823,50.799266],[-1.408959,50.799622],[-1.409613,50.798966],[-1.408935,50.800663],[-1.409813,50.800565],[-1.409537,50.800839],[-1.410012,50.800758],[-1.411333,50.801671],[-1.412003,50.802704],[-1.41249,50.802805],[-1.413229,50.802284],[-1.413031,50.802635],[-1.414016,50.802615],[-1.413981,50.802967],[-1.413535,50.802771],[-1.413512,50.803159],[-1.412814,50.802766],[-1.413652,50.803283],[-1.413084,50.803958],[-1.413515,50.803927],[-1.41293,50.804184],[-1.413214,50.80435],[-1.412873,50.804651],[-1.411964,50.804716],[-1.413457,50.805229],[-1.413629,50.805626],[-1.413561,50.804959],[-1.413094,50.804808],[-1.413199,50.804523],[-1.4136,50.804599],[-1.413462,50.804164],[-1.413891,50.804393],[-1.413661,50.803604],[-1.415904,50.80328],[-1.417429,50.802104],[-1.419087,50.801651],[-1.418492,50.801644],[-1.418838,50.801429],[-1.418499,50.800868],[-1.419267,50.801109],[-1.419614,50.801861],[-1.419428,50.80117],[-1.418627,50.800822],[-1.416341,50.801603],[-1.417664,50.800891],[-1.41866,50.800747],[-1.419208,50.800848],[-1.419946,50.801916],[-1.419896,50.801223],[-1.419489,50.800845],[-1.419961,50.800377],[-1.418971,50.800621],[-1.419894,50.800247],[-1.420337,50.800534],[-1.420676,50.801701],[-1.418087,50.803263],[-1.417252,50.804877],[-1.417435,50.805593],[-1.41912,50.807025],[-1.422366,50.807689],[-1.421849,50.807457],[-1.422279,50.80716],[-1.422803,50.808202],[-1.423721,50.807536],[-1.424607,50.807953],[-1.424596,50.808256],[-1.425654,50.807313],[-1.426035,50.807581],[-1.42576,50.807946],[-1.426426,50.807567],[-1.427083,50.80863],[-1.426289,50.80991],[-1.427135,50.809397],[-1.429143,50.811093],[-1.429339,50.810834],[-1.42959,50.811115],[-1.429521,50.810902],[-1.429999,50.810933],[-1.429845,50.811247],[-1.430421,50.811204],[-1.430431,50.810925],[-1.431274,50.811054],[-1.432156,50.810649],[-1.431992,50.810332],[-1.432556,50.810782],[-1.43248,50.810194],[-1.433014,50.810566],[-1.433798,50.81033],[-1.434322,50.81082],[-1.434132,50.810391],[-1.4353,50.810199],[-1.435096,50.810042],[-1.435528,50.810258],[-1.434912,50.809905],[-1.434082,50.810084],[-1.433752,50.809809],[-1.434129,50.809614],[-1.436016,50.809919],[-1.435932,50.810407],[-1.436318,50.810166],[-1.436659,50.810361],[-1.437017,50.810663],[-1.436713,50.810817],[-1.437218,50.81085],[-1.437019,50.811134],[-1.437344,50.810988],[-1.438349,50.811456],[-1.43779,50.81184],[-1.438225,50.811777],[-1.438502,50.812094],[-1.437364,50.81355],[-1.438286,50.814935],[-1.438141,50.815423],[-1.440626,50.8157],[-1.442422,50.815537],[-1.442518,50.815827],[-1.442456,50.815352],[-1.442789,50.815522],[-1.442952,50.815193],[-1.442999,50.815645],[-1.44469,50.816362],[-1.44458,50.818885],[-1.445234,50.819353],[-1.448622,50.820177],[-1.451209,50.81918],[-1.451108,50.81884],[-1.449342,50.818951],[-1.447056,50.818621],[-1.446417,50.817774],[-1.446824,50.815813],[-1.445537,50.81467],[-1.445602,50.81354],[-1.444593,50.81458],[-1.442571,50.814276],[-1.440427,50.814426],[-1.439975,50.81422],[-1.440362,50.814022],[-1.4397,50.814142],[-1.440139,50.8139],[-1.43965,50.814121],[-1.439306,50.813929],[-1.440414,50.813703],[-1.439236,50.813694],[-1.439931,50.813165],[-1.439285,50.813297],[-1.439629,50.812364],[-1.44042,50.812156],[-1.439687,50.812234],[-1.440235,50.811498],[-1.439847,50.811536],[-1.439222,50.810846],[-1.439947,50.810293],[-1.439103,50.810587],[-1.438305,50.810321],[-1.437598,50.809599],[-1.435806,50.808798],[-1.43611,50.808611],[-1.43366,50.808484],[-1.431235,50.809242],[-1.430089,50.809259],[-1.429328,50.808176],[-1.429723,50.807917],[-1.429806,50.808271],[-1.429916,50.808089],[-1.430171,50.808386],[-1.431108,50.808006],[-1.429794,50.808021],[-1.430579,50.80746],[-1.429141,50.808005],[-1.428425,50.806753],[-1.429466,50.806351],[-1.428211,50.806641],[-1.428384,50.806396],[-1.42814,50.806536],[-1.426123,50.805509],[-1.424833,50.805269],[-1.422073,50.805809],[-1.420329,50.80565],[-1.420405,50.80539],[-1.421481,50.805634],[-1.422619,50.805393],[-1.420506,50.805242],[-1.42409,50.802447],[-1.422224,50.803616],[-1.421405,50.803462],[-1.423906,50.801938],[-1.423452,50.801954],[-1.423605,50.801457],[-1.423963,50.801463],[-1.423399,50.800609],[-1.422575,50.800193],[-1.42291,50.799964],[-1.419064,50.799031],[-1.416555,50.799131],[-1.413584,50.800176],[-1.412286,50.800072],[-1.413011,50.79949],[-1.41212,50.79992],[-1.411898,50.798939],[-1.412481,50.798798],[-1.41277,50.799277],[-1.413668,50.799051],[-1.412843,50.799088],[-1.41277,50.798486],[-1.412679,50.798836],[-1.412434,50.79868],[-1.411714,50.798819],[-1.411677,50.797761],[-1.412243,50.797826],[-1.412067,50.797996],[-1.412126,50.798262],[-1.412202,50.797961],[-1.412718,50.798186],[-1.413081,50.797971],[-1.41251,50.797434],[-1.412915,50.797993],[-1.411861,50.797719],[-1.412283,50.797428],[-1.411472,50.797745],[-1.411977,50.797451],[-1.411449,50.797643],[-1.411479,50.797054],[-1.413484,50.796573],[-1.413033,50.796164],[-1.413127,50.79654],[-1.411625,50.796614],[-1.411635,50.796237],[-1.412049,50.79617],[-1.411672,50.796108],[-1.412212,50.795839],[-1.411724,50.796049],[-1.411691,50.795629],[-1.412559,50.79568],[-1.411753,50.795569],[-1.411657,50.794951],[-1.412214,50.794841],[-1.41254,50.795231],[-1.41238,50.794724],[-1.412927,50.794603],[-1.411591,50.794731],[-1.411347,50.793829],[-1.411665,50.793695],[-1.411943,50.794621],[-1.412363,50.794544],[-1.412617,50.794393],[-1.412029,50.79367],[-1.413078,50.793297],[-1.411122,50.793362],[-1.411848,50.793203],[-1.411386,50.792407],[-1.410412,50.792464],[-1.409861,50.791238],[-1.410779,50.791191],[-1.410908,50.79171],[-1.410976,50.790915],[-1.410886,50.7912],[-1.410773,50.791162],[-1.409825,50.791125],[-1.409653,50.790424],[-1.410351,50.790168],[-1.41063,50.790292],[-1.409983,50.790576],[-1.410171,50.79074],[-1.410766,50.790325],[-1.411231,50.7907],[-1.411512,50.790231],[-1.410625,50.790236],[-1.411739,50.789926],[-1.412017,50.788996],[-1.413985,50.787213],[-1.413186,50.78582],[-1.412993,50.783972],[-1.412424,50.78394],[-1.410024,50.782555],[-1.408841,50.782566],[-1.408796,50.782322],[-1.407436,50.781922],[-1.408193,50.781953],[-1.406588,50.781607],[-1.405844,50.780869],[-1.398892,50.777438],[-1.398055,50.776298],[-1.395026,50.77728],[-1.395607,50.777428],[-1.395153,50.777714],[-1.394292,50.777249],[-1.392713,50.777467],[-1.392356,50.776911],[-1.393009,50.777041],[-1.397707,50.775951],[-1.40175,50.774715],[-1.406952,50.772375],[-1.407762,50.771042],[-1.407055,50.771292],[-1.406889,50.771066],[-1.410181,50.770132],[-1.410385,50.769391],[-1.40917,50.770218],[-1.409493,50.769691],[-1.406834,50.770948],[-1.406334,50.771582],[-1.405885,50.771642],[-1.406225,50.770892],[-1.405257,50.772213],[-1.404725,50.772295],[-1.404348,50.771851],[-1.397793,50.773619],[-1.394425,50.77493],[-1.393677,50.775669],[-1.393202,50.775729],[-1.393397,50.775379],[-1.397449,50.773501],[-1.401924,50.772341],[-1.415526,50.767258],[-1.419145,50.766473],[-1.426171,50.766283],[-1.429113,50.765455],[-1.438815,50.764503],[-1.442119,50.763845],[-1.443709,50.762989],[-1.447026,50.762339],[-1.456258,50.762241],[-1.461391,50.761081],[-1.462088,50.761847],[-1.461632,50.761108],[-1.462186,50.760782],[-1.463813,50.760941],[-1.462469,50.761222],[-1.463083,50.761237],[-1.463388,50.761598],[-1.4623,50.761858],[-1.46308,50.761834],[-1.462874,50.762781],[-1.464859,50.764835],[-1.4659,50.76428],[-1.465297,50.763136],[-1.465786,50.762976],[-1.466158,50.76207],[-1.465094,50.760895],[-1.464181,50.760833],[-1.467508,50.759866],[-1.466793,50.759631],[-1.46578,50.759883],[-1.464614,50.760589],[-1.465566,50.759633],[-1.469484,50.759589],[-1.470887,50.758979],[-1.473111,50.7588],[-1.473239,50.758547],[-1.476321,50.75843],[-1.480234,50.757438],[-1.483566,50.755948],[-1.484778,50.75576],[-1.495605,50.755267],[-1.502151,50.753975],[-1.510157,50.753955],[-1.51378,50.753259],[-1.514864,50.753896],[-1.515592,50.753499],[-1.519592,50.754125],[-1.52117,50.755172],[-1.526742,50.757125],[-1.527602,50.758535],[-1.52832,50.75858],[-1.528946,50.757041],[-1.530048,50.758573],[-1.530942,50.759122],[-1.534348,50.75912],[-1.535351,50.759463],[-1.534562,50.759436],[-1.533479,50.761452],[-1.533571,50.762649],[-1.534972,50.763891],[-1.537617,50.762659],[-1.537476,50.762408],[-1.535823,50.762254],[-1.53501,50.761468],[-1.536225,50.760358],[-1.536059,50.759946],[-1.536969,50.759813],[-1.536401,50.759202],[-1.536618,50.758846],[-1.536332,50.758984],[-1.535345,50.758271],[-1.533758,50.757933],[-1.533915,50.75765],[-1.533462,50.757739],[-1.52848,50.75456],[-1.528625,50.754021],[-1.527532,50.753181],[-1.529604,50.751073],[-1.528837,50.750752],[-1.529044,50.750451],[-1.52722,50.749694],[-1.526339,50.749833],[-1.525288,50.748868],[-1.527058,50.747132],[-1.526588,50.745115],[-1.525925,50.744568],[-1.53065,50.742432],[-1.532558,50.744276],[-1.533701,50.74379],[-1.534881,50.744846],[-1.536873,50.743023],[-1.536996,50.742243],[-1.53524,50.741827],[-1.537092,50.73967],[-1.538284,50.73906],[-1.541828,50.739799],[-1.540596,50.739295],[-1.53808,50.738897],[-1.534773,50.741047],[-1.533299,50.741417],[-1.531271,50.740349],[-1.531266,50.739747],[-1.531824,50.739342],[-1.530977,50.738349],[-1.530942,50.737035],[-1.533289,50.734967],[-1.535542,50.73423],[-1.540596,50.729793],[-1.543216,50.72809],[-1.545464,50.727075],[-1.546853,50.728393],[-1.549892,50.728538],[-1.551622,50.727962],[-1.551906,50.727716],[-1.551156,50.727604],[-1.551588,50.727197],[-1.552406,50.727433],[-1.554596,50.72406],[-1.554504,50.723327],[-1.555518,50.722257],[-1.558446,50.721371],[-1.558587,50.720762],[-1.559296,50.721222],[-1.560314,50.720985],[-1.561888,50.721257],[-1.563637,50.722056],[-1.56449,50.723034],[-1.56748,50.722518],[-1.565797,50.722383],[-1.566068,50.721891],[-1.564902,50.720999],[-1.570885,50.718237],[-1.572953,50.717606],[-1.573027,50.717385],[-1.572194,50.717432],[-1.572506,50.716992],[-1.572987,50.716938],[-1.5735,50.717424],[-1.573437,50.717002],[-1.573789,50.717312],[-1.576845,50.716496],[-1.580478,50.718273],[-1.574654,50.715078],[-1.574167,50.715068],[-1.57133,50.712992],[-1.566941,50.710451],[-1.566327,50.710954],[-1.56461,50.711269],[-1.565699,50.710905],[-1.565675,50.710631],[-1.56606,50.710778],[-1.566352,50.710262],[-1.565763,50.710626],[-1.56598,50.710092],[-1.562566,50.709159],[-1.562612,50.708832],[-1.561994,50.709044],[-1.562538,50.709212],[-1.561593,50.709467],[-1.561758,50.708815],[-1.560951,50.708277],[-1.560366,50.70871],[-1.560011,50.708022],[-1.559324,50.707806],[-1.558982,50.708162],[-1.558663,50.707655],[-1.559389,50.709104],[-1.558805,50.709269],[-1.558888,50.708822],[-1.557944,50.707493],[-1.556593,50.707102],[-1.556137,50.707312],[-1.556706,50.707637],[-1.556402,50.707737],[-1.555241,50.707279],[-1.557033,50.708442],[-1.556285,50.709305],[-1.553806,50.706771],[-1.551882,50.706779],[-1.552588,50.707842],[-1.553856,50.708573],[-1.553747,50.710679],[-1.554161,50.711696],[-1.553636,50.71271],[-1.555105,50.713843],[-1.555375,50.714367],[-1.555039,50.714301],[-1.553951,50.713477],[-1.552808,50.711535],[-1.550458,50.7089],[-1.549491,50.708351],[-1.547934,50.708326],[-1.549272,50.707613],[-1.550475,50.706305],[-1.55445,50.706078],[-1.565056,50.708864],[-1.576232,50.715325],[-1.577385,50.715315],[-1.580603,50.717687],[-1.584401,50.719173],[-1.63013,50.729434],[-1.640247,50.73207],[-1.641323,50.732215],[-1.641915,50.731924],[-1.647018,50.733325],[-1.649584,50.73301],[-1.649944,50.732723],[-1.652658,50.733575],[-1.654637,50.733818],[-1.65492,50.733522],[-1.659935,50.734503],[-1.661299,50.734593],[-1.661653,50.734205],[-1.662154,50.734538],[-1.664477,50.734843],[-1.666345,50.735038],[-1.666684,50.734668],[-1.669077,50.735275],[-1.670393,50.73536],[-1.670703,50.735104],[-1.680479,50.736578],[-1.689291,50.737481],[-1.691182,50.73755],[-1.691639,50.737157],[-1.692535,50.737398],[-1.691978,50.739412]]]]}}]}