{"type":"FeatureCollection","features":[{"type":"Feature","properties":{"slug":"newark-and-sherwood","gss_code":"E07000175","name":"Newark and Sherwood"},"geometry":{"type":"Polygon","coordinates":[[[-0.683542,53.254546],[-0.682352,53.251537],[-0.68061,53.251993],[-0.666577,53.239702],[-0.667114,53.238805],[-0.667153,53.236506],[-0.666406,53.235316],[-0.666509,53.233451],[-0.668919,53.231164],[-0.669061,53.229999],[-0.670143,53.229304],[-0.670182,53.228526],[-0.671307,53.228042],[-0.67102,53.22735],[-0.671478,53.225928],[-0.672973,53.224465],[-0.673146,53.223775],[-0.674735,53.222599],[-0.674976,53.220376],[-0.676182,53.218225],[-0.675872,53.217644],[-0.686683,53.219631],[-0.686875,53.219967],[-0.697616,53.220237],[-0.708259,53.212231],[-0.709011,53.212291],[-0.714753,53.207608],[-0.720312,53.209322],[-0.722459,53.209428],[-0.722252,53.2098],[-0.723759,53.210103],[-0.724413,53.209648],[-0.730569,53.210756],[-0.742485,53.198438],[-0.753766,53.188156],[-0.762168,53.188239],[-0.762547,53.185752],[-0.764138,53.181544],[-0.75222,53.181054],[-0.737728,53.179305],[-0.730266,53.180095],[-0.729712,53.178247],[-0.725903,53.178465],[-0.71816,53.177288],[-0.71866,53.177079],[-0.718722,53.174938],[-0.716028,53.170412],[-0.723232,53.155104],[-0.722122,53.151939],[-0.722063,53.149739],[-0.721209,53.148183],[-0.721048,53.14429],[-0.718673,53.142011],[-0.717156,53.138945],[-0.715375,53.136883],[-0.718935,53.135765],[-0.724,53.133419],[-0.728084,53.130385],[-0.732407,53.127802],[-0.732015,53.126706],[-0.731106,53.126373],[-0.731092,53.124003],[-0.728155,53.123213],[-0.727258,53.122043],[-0.720837,53.120887],[-0.71856,53.119569],[-0.716883,53.119444],[-0.716755,53.116185],[-0.718371,53.110352],[-0.721251,53.104268],[-0.725479,53.100749],[-0.729618,53.097902],[-0.728975,53.096146],[-0.724383,53.092589],[-0.715393,53.087196],[-0.715391,53.086512],[-0.709417,53.085982],[-0.709601,53.085233],[-0.706149,53.083378],[-0.708159,53.082427],[-0.710358,53.079378],[-0.707477,53.07873],[-0.702761,53.076654],[-0.698482,53.075468],[-0.698755,53.074681],[-0.697945,53.074682],[-0.698569,53.073576],[-0.697715,53.072789],[-0.698066,53.072241],[-0.697433,53.071684],[-0.698386,53.070941],[-0.698806,53.067746],[-0.697587,53.066037],[-0.6953,53.067044],[-0.695161,53.066211],[-0.697045,53.065071],[-0.698478,53.065065],[-0.700498,53.063834],[-0.701539,53.063663],[-0.702762,53.064292],[-0.704276,53.064358],[-0.704264,53.06505],[-0.705698,53.065415],[-0.70783,53.065397],[-0.711044,53.066222],[-0.712097,53.065863],[-0.713467,53.066047],[-0.713487,53.065354],[-0.71408,53.065597],[-0.714408,53.065315],[-0.715059,53.065393],[-0.71594,53.064406],[-0.715218,53.063796],[-0.714073,53.06368],[-0.713849,53.062328],[-0.713188,53.061962],[-0.71294,53.061083],[-0.713668,53.06032],[-0.716204,53.059059],[-0.717841,53.059562],[-0.71897,53.059411],[-0.7198,53.059915],[-0.722598,53.059922],[-0.723548,53.059386],[-0.723259,53.058788],[-0.724122,53.058836],[-0.725089,53.05831],[-0.724692,53.058087],[-0.725363,53.05749],[-0.724931,53.057152],[-0.725589,53.056293],[-0.726702,53.056488],[-0.726708,53.056084],[-0.727333,53.055994],[-0.727542,53.055645],[-0.728416,53.055825],[-0.729102,53.055101],[-0.730221,53.055001],[-0.730025,53.054609],[-0.731075,53.054346],[-0.733372,53.055573],[-0.73425,53.054833],[-0.736057,53.054923],[-0.736559,53.054653],[-0.736962,53.054915],[-0.738049,53.054777],[-0.738563,53.055247],[-0.739132,53.05499],[-0.738825,53.05461],[-0.739735,53.053768],[-0.740684,53.053587],[-0.742833,53.05464],[-0.745628,53.054126],[-0.749552,53.055116],[-0.755856,53.044],[-0.757147,53.037865],[-0.756619,53.036676],[-0.757817,53.036477],[-0.758854,53.03517],[-0.758434,53.032387],[-0.760826,53.02941],[-0.770386,53.027318],[-0.773955,53.025535],[-0.776673,53.024711],[-0.780409,53.024402],[-0.784872,53.025183],[-0.785843,53.025741],[-0.788414,53.025853],[-0.795825,53.010598],[-0.798614,53.011011],[-0.802031,53.012113],[-0.803644,53.012955],[-0.804274,53.012246],[-0.80406,53.006385],[-0.802616,53.006385],[-0.80251,53.005361],[-0.800521,53.003827],[-0.800189,53.002194],[-0.795859,53.000594],[-0.794936,52.999967],[-0.793822,52.997866],[-0.791891,52.997475],[-0.792563,52.995884],[-0.791494,52.995429],[-0.791512,52.99503],[-0.790566,52.994612],[-0.790092,52.993815],[-0.789686,52.993651],[-0.789455,52.993938],[-0.787325,52.993207],[-0.788095,52.99177],[-0.784459,52.990145],[-0.784536,52.988568],[-0.78213,52.988473],[-0.782204,52.98759],[-0.78159,52.987374],[-0.780905,52.986427],[-0.780158,52.98644],[-0.780306,52.985115],[-0.779575,52.984977],[-0.778457,52.983699],[-0.777554,52.983807],[-0.777478,52.981692],[-0.776853,52.981431],[-0.777669,52.980389],[-0.777079,52.980042],[-0.777599,52.979593],[-0.776789,52.979005],[-0.777648,52.978435],[-0.776995,52.97786],[-0.778647,52.976693],[-0.780091,52.9773],[-0.7818,52.976446],[-0.783175,52.976935],[-0.784344,52.976419],[-0.787564,52.977679],[-0.788855,52.976694],[-0.790508,52.977224],[-0.79615,52.976732],[-0.796694,52.976245],[-0.797275,52.976213],[-0.796967,52.975862],[-0.799111,52.97435],[-0.799854,52.973169],[-0.800827,52.973167],[-0.801448,52.972807],[-0.801134,52.972554],[-0.802089,52.972557],[-0.803023,52.971725],[-0.804042,52.971619],[-0.805241,52.96809],[-0.805871,52.96734],[-0.806899,52.966727],[-0.809812,52.96598],[-0.809894,52.964968],[-0.811988,52.960803],[-0.811758,52.959825],[-0.812467,52.959135],[-0.812851,52.957464],[-0.813702,52.956994],[-0.820022,52.960464],[-0.822373,52.962474],[-0.836072,52.967921],[-0.83159,52.97057],[-0.830476,52.971624],[-0.828279,52.972218],[-0.826134,52.973511],[-0.825447,52.973333],[-0.822079,52.976914],[-0.815158,52.985661],[-0.818147,52.986625],[-0.820372,52.987752],[-0.820595,52.989667],[-0.822365,52.992624],[-0.823484,52.997221],[-0.823046,52.999467],[-0.822198,52.999968],[-0.822313,53.000394],[-0.825049,53.002253],[-0.828903,53.003191],[-0.829913,53.006548],[-0.833354,53.007724],[-0.835759,53.005696],[-0.843632,53.008177],[-0.847268,53.008872],[-0.848965,53.009657],[-0.850596,53.008524],[-0.851599,53.008524],[-0.855078,53.006674],[-0.859506,53.009388],[-0.860831,53.009825],[-0.86088,53.010119],[-0.864553,53.011344],[-0.868633,53.007967],[-0.872449,53.007137],[-0.876255,53.006997],[-0.87978,53.006353],[-0.881944,53.009171],[-0.884297,53.011257],[-0.895422,53.015536],[-0.896957,53.016624],[-0.903934,53.025476],[-0.905768,53.027245],[-0.909901,53.030152],[-0.910428,53.032081],[-0.910149,53.033202],[-0.909274,53.034134],[-0.910075,53.035088],[-0.91012,53.035928],[-0.915116,53.033496],[-0.917418,53.031568],[-0.919393,53.03102],[-0.92244,53.029237],[-0.924793,53.02702],[-0.929216,53.02075],[-0.93802,53.014115],[-0.944431,53.011248],[-0.94976,53.010374],[-0.95203,53.009618],[-0.954762,53.008317],[-0.957397,53.005912],[-0.960786,53.003998],[-0.966447,52.996657],[-0.970439,52.990124],[-0.971875,52.988813],[-0.975962,52.986326],[-0.977897,52.985714],[-0.992071,52.9866],[-0.997724,52.986017],[-1.004475,52.986106],[-1.007086,52.985457],[-1.007836,52.987365],[-1.007233,52.987552],[-1.007254,52.987896],[-1.008765,52.989204],[-1.011018,52.989525],[-1.012889,52.988466],[-1.014589,52.989835],[-1.016807,52.988763],[-1.021518,52.992722],[-1.023305,52.991859],[-1.024725,52.993101],[-1.027495,52.992674],[-1.028967,52.993676],[-1.031166,52.992674],[-1.034189,52.996154],[-1.036944,52.99595],[-1.036943,52.995468],[-1.038118,52.99563],[-1.039358,52.998428],[-1.037257,52.999056],[-1.039207,53.000217],[-1.037963,53.001078],[-1.036638,53.003567],[-1.034212,53.005003],[-1.03658,53.006872],[-1.037151,53.006803],[-1.038183,53.00726],[-1.041165,53.006852],[-1.043166,53.007272],[-1.046354,53.00716],[-1.047947,53.007762],[-1.048751,53.008608],[-1.048893,53.009535],[-1.051157,53.010451],[-1.052449,53.010514],[-1.052908,53.011175],[-1.052592,53.013027],[-1.053895,53.01436],[-1.047767,53.017417],[-1.042553,53.019378],[-1.032209,53.020462],[-1.030286,53.02107],[-1.029391,53.023201],[-1.02991,53.023748],[-1.02973,53.024256],[-1.030612,53.024751],[-1.034284,53.025636],[-1.034695,53.026472],[-1.035665,53.026939],[-1.0361,53.026695],[-1.036912,53.027325],[-1.037107,53.028079],[-1.038893,53.028708],[-1.041876,53.031414],[-1.05672,53.03541],[-1.057715,53.037935],[-1.058912,53.039494],[-1.059471,53.039058],[-1.059508,53.039496],[-1.060237,53.039648],[-1.059918,53.040036],[-1.060704,53.041103],[-1.061011,53.040546],[-1.060696,53.040416],[-1.062833,53.040097],[-1.061938,53.040993],[-1.062502,53.041555],[-1.062969,53.041345],[-1.063516,53.041552],[-1.063103,53.041607],[-1.063433,53.041781],[-1.062881,53.042426],[-1.063856,53.043112],[-1.064331,53.044494],[-1.066649,53.045504],[-1.069331,53.045877],[-1.070268,53.046342],[-1.070238,53.0467],[-1.071116,53.046798],[-1.0713,53.047093],[-1.073691,53.047456],[-1.076022,53.048841],[-1.076534,53.050077],[-1.078442,53.051022],[-1.079136,53.052015],[-1.080483,53.052312],[-1.080431,53.052899],[-1.081614,53.053358],[-1.081751,53.054105],[-1.082817,53.054576],[-1.082679,53.055677],[-1.084537,53.057558],[-1.08445,53.058771],[-1.085651,53.060512],[-1.093431,53.067353],[-1.09138,53.069821],[-1.086673,53.073233],[-1.08643,53.07528],[-1.088272,53.077305],[-1.089502,53.078019],[-1.094316,53.07415],[-1.100828,53.076037],[-1.106534,53.075626],[-1.111445,53.076205],[-1.113959,53.077011],[-1.120005,53.076011],[-1.12242,53.075218],[-1.125453,53.074926],[-1.127332,53.074],[-1.130182,53.073607],[-1.120643,53.086749],[-1.127537,53.087041],[-1.128953,53.087436],[-1.13126,53.088209],[-1.135649,53.090551],[-1.140148,53.092352],[-1.139597,53.09609],[-1.139266,53.09607],[-1.139287,53.099645],[-1.1495,53.099955],[-1.157668,53.09901],[-1.159957,53.10396],[-1.164251,53.103269],[-1.167778,53.107515],[-1.169992,53.109474],[-1.172751,53.111194],[-1.175583,53.112309],[-1.177891,53.11481],[-1.169121,53.115284],[-1.1676,53.11597],[-1.165384,53.117982],[-1.161159,53.119455],[-1.160947,53.119097],[-1.15853,53.119787],[-1.152712,53.120514],[-1.150352,53.121391],[-1.147027,53.121946],[-1.1435,53.121396],[-1.14044,53.119906],[-1.1369,53.119481],[-1.136296,53.118557],[-1.134481,53.119227],[-1.130816,53.119568],[-1.127641,53.118548],[-1.125583,53.117528],[-1.120217,53.119081],[-1.127242,53.124498],[-1.127293,53.125386],[-1.126254,53.126885],[-1.126266,53.128364],[-1.127157,53.130785],[-1.126889,53.132132],[-1.128584,53.13275],[-1.1272,53.134794],[-1.130256,53.135948],[-1.129928,53.137921],[-1.128743,53.138984],[-1.129971,53.140271],[-1.130141,53.141618],[-1.127453,53.144947],[-1.122211,53.147976],[-1.118054,53.149357],[-1.11415,53.151618],[-1.111955,53.152374],[-1.111158,53.152829],[-1.111056,53.153428],[-1.11678,53.153668],[-1.126135,53.157396],[-1.12868,53.159541],[-1.131653,53.162907],[-1.132479,53.162827],[-1.151548,53.172062],[-1.152984,53.175326],[-1.147932,53.180152],[-1.141916,53.185009],[-1.140058,53.187082],[-1.138801,53.187862],[-1.136119,53.188684],[-1.127742,53.189687],[-1.12784,53.190074],[-1.124844,53.191187],[-1.120068,53.192206],[-1.115714,53.194673],[-1.113327,53.196485],[-1.104247,53.208877],[-1.104989,53.210348],[-1.104552,53.210507],[-1.103891,53.212951],[-1.103592,53.216828],[-1.10394,53.219249],[-1.102854,53.219728],[-1.09732,53.219543],[-1.095548,53.227097],[-1.094764,53.228614],[-1.094999,53.231666],[-1.095587,53.23256],[-1.098287,53.232566],[-1.098295,53.234091],[-1.099233,53.234133],[-1.099492,53.234812],[-1.101257,53.235002],[-1.102146,53.235622],[-1.103296,53.235607],[-1.09295,53.237233],[-1.08631,53.237698],[-1.072483,53.240906],[-1.068917,53.242675],[-1.06626,53.244308],[-1.066219,53.244742],[-1.058437,53.249106],[-1.052145,53.2522],[-1.046006,53.253505],[-1.027955,53.261036],[-1.027534,53.260852],[-1.027316,53.258067],[-1.025905,53.252136],[-1.023177,53.247933],[-1.023548,53.247803],[-1.019316,53.245395],[-1.017253,53.243657],[-1.016896,53.243938],[-1.012922,53.241643],[-1.012547,53.241674],[-1.011798,53.24048],[-1.010131,53.239511],[-1.006595,53.23614],[-0.996578,53.236747],[-0.983927,53.236605],[-0.969979,53.23576],[-0.967542,53.235334],[-0.967902,53.234932],[-0.964641,53.233876],[-0.961287,53.233276],[-0.957536,53.231893],[-0.952933,53.227085],[-0.950234,53.226152],[-0.947218,53.225763],[-0.949147,53.224299],[-0.948297,53.222754],[-0.949655,53.22109],[-0.948658,53.220834],[-0.948264,53.219206],[-0.949713,53.218005],[-0.949291,53.214306],[-0.947249,53.213859],[-0.944652,53.214649],[-0.93985,53.215485],[-0.936545,53.215944],[-0.935803,53.215769],[-0.934894,53.21619],[-0.929974,53.21644],[-0.921682,53.218683],[-0.920013,53.218356],[-0.916548,53.218324],[-0.907269,53.220503],[-0.901703,53.221145],[-0.900012,53.221952],[-0.899973,53.222267],[-0.899275,53.222385],[-0.898304,53.223347],[-0.896301,53.223216],[-0.894248,53.223671],[-0.888848,53.223497],[-0.886927,53.222742],[-0.883711,53.222344],[-0.880197,53.220957],[-0.879342,53.221073],[-0.878858,53.220426],[-0.877545,53.220322],[-0.877491,53.219804],[-0.875459,53.218563],[-0.872597,53.218172],[-0.872375,53.217827],[-0.871129,53.217458],[-0.871126,53.216993],[-0.867297,53.216398],[-0.866411,53.215741],[-0.866465,53.215194],[-0.864704,53.213946],[-0.862779,53.213154],[-0.86209,53.213807],[-0.860866,53.213512],[-0.857839,53.212207],[-0.854425,53.214669],[-0.85309,53.214775],[-0.852632,53.21547],[-0.848498,53.215309],[-0.848214,53.218662],[-0.83982,53.21892],[-0.830798,53.217566],[-0.831483,53.215694],[-0.835509,53.216218],[-0.836505,53.215531],[-0.836955,53.213658],[-0.83052,53.212831],[-0.832063,53.206732],[-0.827476,53.206332],[-0.826547,53.205863],[-0.824765,53.203405],[-0.824919,53.202741],[-0.823146,53.202237],[-0.821571,53.20135],[-0.819864,53.201636],[-0.818547,53.203098],[-0.817612,53.203338],[-0.817375,53.204106],[-0.815724,53.204919],[-0.803703,53.205559],[-0.798857,53.204662],[-0.791045,53.204868],[-0.785713,53.204347],[-0.787397,53.2031],[-0.787047,53.202403],[-0.788048,53.20226],[-0.78893,53.201665],[-0.790076,53.199147],[-0.780971,53.196453],[-0.782172,53.194301],[-0.78175,53.191409],[-0.783598,53.190662],[-0.788034,53.191099],[-0.791008,53.190383],[-0.793191,53.186566],[-0.792993,53.185857],[-0.791242,53.184016],[-0.791195,53.183235],[-0.791785,53.182731],[-0.794546,53.182089],[-0.795803,53.181175],[-0.795542,53.180367],[-0.793409,53.179305],[-0.788924,53.178909],[-0.786731,53.178282],[-0.785794,53.177479],[-0.785276,53.175886],[-0.784921,53.175807],[-0.784468,53.176393],[-0.784602,53.177235],[-0.786514,53.179023],[-0.78799,53.179389],[-0.792729,53.179659],[-0.794435,53.180516],[-0.794721,53.181196],[-0.794384,53.181538],[-0.791766,53.182053],[-0.790017,53.182938],[-0.790176,53.18402],[-0.791926,53.18678],[-0.790329,53.189768],[-0.789364,53.190288],[-0.788036,53.19045],[-0.783356,53.189913],[-0.782015,53.19014],[-0.780711,53.1911],[-0.779893,53.191243],[-0.780528,53.191515],[-0.78108,53.193509],[-0.780458,53.195587],[-0.776343,53.199573],[-0.77649,53.200675],[-0.779235,53.202763],[-0.77953,53.203865],[-0.778914,53.204672],[-0.775931,53.206132],[-0.775089,53.206922],[-0.775077,53.207976],[-0.776818,53.209368],[-0.778203,53.212477],[-0.775132,53.214611],[-0.775055,53.215149],[-0.776799,53.216483],[-0.776909,53.217415],[-0.776675,53.218657],[-0.775211,53.218022],[-0.776305,53.218546],[-0.782158,53.223773],[-0.782847,53.22561],[-0.782516,53.227522],[-0.781122,53.23056],[-0.777555,53.234786],[-0.777933,53.236865],[-0.777008,53.23893],[-0.777996,53.242751],[-0.777953,53.244368],[-0.776496,53.246893],[-0.77105,53.246754],[-0.771053,53.24616],[-0.763211,53.245878],[-0.760753,53.245644],[-0.760367,53.245207],[-0.747214,53.244391],[-0.740577,53.243669],[-0.735083,53.243874],[-0.734865,53.247675],[-0.734179,53.249069],[-0.735075,53.251474],[-0.734822,53.253041],[-0.734151,53.254004],[-0.727129,53.255443],[-0.725926,53.255278],[-0.724068,53.255583],[-0.721767,53.256097],[-0.71952,53.257155],[-0.712976,53.258137],[-0.694764,53.258402],[-0.693524,53.257921],[-0.69113,53.257669],[-0.688027,53.258391],[-0.683542,53.254546]]]}}]}