{"type":"FeatureCollection","features":[{"type":"Feature","properties":{"slug":"newcastle-upon-tyne","gss_code":"E08000021","name":"Newcastle upon Tyne"},"geometry":{"type":"Polygon","coordinates":[[[-1.639757,55.069166],[-1.637894,55.064769],[-1.63939,55.064315],[-1.639689,55.063584],[-1.637059,55.061777],[-1.632209,55.048229],[-1.634231,55.047961],[-1.638335,55.045813],[-1.639713,55.044082],[-1.638508,55.041551],[-1.6262,55.041425],[-1.626069,55.040223],[-1.62384,55.039931],[-1.623672,55.04034],[-1.622431,55.040166],[-1.622933,55.03904],[-1.622396,55.038956],[-1.619462,55.040473],[-1.616589,55.041294],[-1.602153,55.039756],[-1.593962,55.03935],[-1.593736,55.038934],[-1.592638,55.03894],[-1.592104,55.034662],[-1.590727,55.030861],[-1.587383,55.025778],[-1.587777,55.025433],[-1.592464,55.024441],[-1.593853,55.023651],[-1.594163,55.023798],[-1.599063,55.017566],[-1.601132,55.011965],[-1.600266,55.009838],[-1.587965,55.008638],[-1.583921,55.008887],[-1.579214,55.009792],[-1.577136,55.005325],[-1.57444,55.005682],[-1.574701,55.006585],[-1.572618,55.006803],[-1.571981,55.003923],[-1.561606,55.006227],[-1.558504,55.005544],[-1.558932,55.000014],[-1.56059,54.995879],[-1.562981,54.992317],[-1.561251,54.991435],[-1.558634,54.992797],[-1.556358,54.993371],[-1.55229,54.989702],[-1.550206,54.990539],[-1.549338,54.990472],[-1.547917,54.992621],[-1.546976,54.992105],[-1.545782,54.989025],[-1.540443,54.989891],[-1.538385,54.987041],[-1.539027,54.986732],[-1.538833,54.985663],[-1.539788,54.984478],[-1.539986,54.983319],[-1.537898,54.982958],[-1.5337,54.98575],[-1.53089,54.984242],[-1.530844,54.984015],[-1.53253,54.982855],[-1.532304,54.982621],[-1.534935,54.978615],[-1.536928,54.965393],[-1.537513,54.964458],[-1.537833,54.964591],[-1.540752,54.963003],[-1.543417,54.962132],[-1.544081,54.96236],[-1.545685,54.961998],[-1.551625,54.960059],[-1.554031,54.960006],[-1.560821,54.963122],[-1.56722,54.965129],[-1.570213,54.965428],[-1.577181,54.965186],[-1.58066,54.966078],[-1.588049,54.970815],[-1.588503,54.972087],[-1.589522,54.972384],[-1.590173,54.973357],[-1.591482,54.974022],[-1.591666,54.974628],[-1.590833,54.975002],[-1.590868,54.975582],[-1.592818,54.976298],[-1.591038,54.975595],[-1.590971,54.975068],[-1.591827,54.974663],[-1.591658,54.973719],[-1.590262,54.973179],[-1.589691,54.972254],[-1.588745,54.97201],[-1.588434,54.970584],[-1.591781,54.971129],[-1.594368,54.97116],[-1.596821,54.970955],[-1.600166,54.970177],[-1.608179,54.968016],[-1.615597,54.965141],[-1.615441,54.964851],[-1.620393,54.962444],[-1.623882,54.961088],[-1.627579,54.960315],[-1.639454,54.96035],[-1.647427,54.961464],[-1.658815,54.964061],[-1.683959,54.965929],[-1.69134,54.968076],[-1.692852,54.968891],[-1.693492,54.969688],[-1.706797,54.973902],[-1.708371,54.973982],[-1.709809,54.974483],[-1.712002,54.974312],[-1.7126,54.973993],[-1.710223,54.974288],[-1.702625,54.972484],[-1.703183,54.971625],[-1.702576,54.971264],[-1.705917,54.970813],[-1.707644,54.969953],[-1.709343,54.968247],[-1.711008,54.967626],[-1.714885,54.967582],[-1.720237,54.968202],[-1.723256,54.969166],[-1.72544,54.970497],[-1.725822,54.971213],[-1.724931,54.973623],[-1.72611,54.97535],[-1.73884,54.979551],[-1.738811,54.980012],[-1.739111,54.97973],[-1.746176,54.982013],[-1.750488,54.982873],[-1.750688,54.983154],[-1.752157,54.982998],[-1.752456,54.983443],[-1.752964,54.983459],[-1.753328,54.98299],[-1.763433,54.981306],[-1.769681,54.981373],[-1.772621,54.987613],[-1.774265,54.988392],[-1.775685,54.98963],[-1.775021,54.994976],[-1.773576,54.996158],[-1.774174,55.002703],[-1.773661,55.002747],[-1.773842,55.004139],[-1.759563,55.003019],[-1.757744,55.002939],[-1.756563,55.003263],[-1.756911,55.010375],[-1.756344,55.015944],[-1.751058,55.015614],[-1.750245,55.024021],[-1.742678,55.024079],[-1.740033,55.024581],[-1.739699,55.025212],[-1.740091,55.025508],[-1.739288,55.026834],[-1.737982,55.026983],[-1.739179,55.028376],[-1.739321,55.029595],[-1.735102,55.029558],[-1.732329,55.029998],[-1.731902,55.031689],[-1.728694,55.032227],[-1.726929,55.033165],[-1.721622,55.03364],[-1.721607,55.034072],[-1.714448,55.034024],[-1.716944,55.038626],[-1.711159,55.039489],[-1.711578,55.041239],[-1.70862,55.04135],[-1.708654,55.042261],[-1.703721,55.042303],[-1.700793,55.042906],[-1.700211,55.043626],[-1.695026,55.042909],[-1.695127,55.043372],[-1.694316,55.044333],[-1.694461,55.045622],[-1.693982,55.046109],[-1.695095,55.048646],[-1.694681,55.049455],[-1.695567,55.050646],[-1.696873,55.051225],[-1.698028,55.052395],[-1.710574,55.052788],[-1.713774,55.065463],[-1.704068,55.065847],[-1.704716,55.068609],[-1.70458,55.070929],[-1.701015,55.070866],[-1.700939,55.071218],[-1.696819,55.070845],[-1.696723,55.070532],[-1.691296,55.0697],[-1.690564,55.070418],[-1.69104,55.072719],[-1.685834,55.073488],[-1.679717,55.075042],[-1.661847,55.078412],[-1.647681,55.079389],[-1.645574,55.076831],[-1.641806,55.070751],[-1.639757,55.069166]]]}}]}