{"type":"FeatureCollection","features":[{"type":"Feature","properties":{"slug":"newcastle-under-lyme","gss_code":"E07000195","name":"Newcastle-under-Lyme"},"geometry":{"type":"Polygon","coordinates":[[[-2.194752,53.103036],[-2.193737,53.102378],[-2.191437,53.102304],[-2.189271,53.101432],[-2.188942,53.100534],[-2.186229,53.097702],[-2.185798,53.09608],[-2.184318,53.095252],[-2.183743,53.09342],[-2.18115,53.090545],[-2.181148,53.089844],[-2.181563,53.089281],[-2.18495,53.090134],[-2.188911,53.090085],[-2.188968,53.090351],[-2.192178,53.090687],[-2.19598,53.091744],[-2.196675,53.092414],[-2.198563,53.092733],[-2.200387,53.0917],[-2.199586,53.089469],[-2.201544,53.08903],[-2.201992,53.088004],[-2.201371,53.0867],[-2.207137,53.087048],[-2.210052,53.08562],[-2.211517,53.08674],[-2.214034,53.085681],[-2.215879,53.08531],[-2.21664,53.084646],[-2.216737,53.082662],[-2.220686,53.082129],[-2.221543,53.081018],[-2.225142,53.079331],[-2.226532,53.078966],[-2.227351,53.079539],[-2.230071,53.077745],[-2.231419,53.078026],[-2.234066,53.075622],[-2.234895,53.075903],[-2.236066,53.074766],[-2.237441,53.074337],[-2.238761,53.073339],[-2.237614,53.07241],[-2.238295,53.071937],[-2.238508,53.071171],[-2.237032,53.06955],[-2.236642,53.06788],[-2.233511,53.066218],[-2.23414,53.064393],[-2.23279,53.063719],[-2.230543,53.063422],[-2.227918,53.063731],[-2.225817,53.05901],[-2.225695,53.057699],[-2.225363,53.057694],[-2.219166,53.043738],[-2.209211,53.035858],[-2.20637,53.030638],[-2.20496,53.023141],[-2.202553,53.020025],[-2.20833,53.016717],[-2.213655,53.015964],[-2.215531,53.015283],[-2.214927,53.014039],[-2.215643,53.013802],[-2.215262,53.012446],[-2.215767,53.011072],[-2.215529,53.010569],[-2.214421,53.010168],[-2.215066,53.009952],[-2.214617,53.009415],[-2.213076,53.009726],[-2.212331,53.008372],[-2.212625,53.008301],[-2.21153,53.00703],[-2.214536,53.00614],[-2.217782,53.003988],[-2.215874,53.00251],[-2.21719,53.001637],[-2.216178,53.001492],[-2.214972,52.999946],[-2.213218,52.996484],[-2.213446,52.994473],[-2.212402,52.993347],[-2.212779,52.993022],[-2.212497,52.992553],[-2.213196,52.992477],[-2.21189,52.988647],[-2.212465,52.988184],[-2.211487,52.987114],[-2.210591,52.987193],[-2.210206,52.986764],[-2.210608,52.986455],[-2.210277,52.986028],[-2.210688,52.985873],[-2.210031,52.985096],[-2.210359,52.984763],[-2.208837,52.984023],[-2.208406,52.983203],[-2.206389,52.982917],[-2.204341,52.981398],[-2.208037,52.980637],[-2.217977,52.980481],[-2.22042,52.979541],[-2.221234,52.97864],[-2.223894,52.977089],[-2.224553,52.975928],[-2.225758,52.975848],[-2.226384,52.976312],[-2.227083,52.976346],[-2.229463,52.975377],[-2.229996,52.975795],[-2.232033,52.975043],[-2.232137,52.973819],[-2.233361,52.973292],[-2.233498,52.972929],[-2.234392,52.972584],[-2.236056,52.972708],[-2.238544,52.972052],[-2.245925,52.968263],[-2.251083,52.966394],[-2.252288,52.965637],[-2.252451,52.964428],[-2.253575,52.963931],[-2.254281,52.96407],[-2.255849,52.965611],[-2.258702,52.965079],[-2.262566,52.96569],[-2.263653,52.963506],[-2.264404,52.962849],[-2.267355,52.963193],[-2.268375,52.963662],[-2.269313,52.96317],[-2.270225,52.963372],[-2.269751,52.961795],[-2.273328,52.957757],[-2.274576,52.954318],[-2.275416,52.953893],[-2.278026,52.951227],[-2.276947,52.95013],[-2.277401,52.949295],[-2.277162,52.948498],[-2.276571,52.948656],[-2.276277,52.948416],[-2.276228,52.947921],[-2.276865,52.947746],[-2.276269,52.947449],[-2.276511,52.947049],[-2.275333,52.946554],[-2.275995,52.946416],[-2.275265,52.945467],[-2.275722,52.945195],[-2.274495,52.945168],[-2.274776,52.944396],[-2.273849,52.943694],[-2.274045,52.943353],[-2.273376,52.943264],[-2.273635,52.942283],[-2.273207,52.942147],[-2.273142,52.94115],[-2.270577,52.939346],[-2.270744,52.939149],[-2.26981,52.939392],[-2.269396,52.938415],[-2.268222,52.938086],[-2.2683,52.937751],[-2.267406,52.937808],[-2.267051,52.9371],[-2.267435,52.93687],[-2.266394,52.936547],[-2.265096,52.934957],[-2.263233,52.933961],[-2.26407,52.933581],[-2.26378,52.932601],[-2.264428,52.932553],[-2.264587,52.930367],[-2.263108,52.93012],[-2.262544,52.927756],[-2.264065,52.923683],[-2.266477,52.923749],[-2.266707,52.923415],[-2.268978,52.92323],[-2.269615,52.923641],[-2.270023,52.923434],[-2.2712,52.923741],[-2.271639,52.924254],[-2.272436,52.924137],[-2.272679,52.924485],[-2.276098,52.924683],[-2.276576,52.924917],[-2.276188,52.925262],[-2.27695,52.925285],[-2.279115,52.926574],[-2.279885,52.926366],[-2.280356,52.926658],[-2.282183,52.9269],[-2.282771,52.926624],[-2.283495,52.926906],[-2.283897,52.926599],[-2.284651,52.926834],[-2.285477,52.926581],[-2.285983,52.927101],[-2.286232,52.926859],[-2.286998,52.927003],[-2.287057,52.927584],[-2.288729,52.928304],[-2.293176,52.929636],[-2.293514,52.930287],[-2.296359,52.931946],[-2.297816,52.931255],[-2.301154,52.930647],[-2.302052,52.930042],[-2.306014,52.932415],[-2.308856,52.930651],[-2.310628,52.931124],[-2.311791,52.930365],[-2.31478,52.930927],[-2.319612,52.932444],[-2.322817,52.930526],[-2.323029,52.930841],[-2.325545,52.929957],[-2.328,52.930012],[-2.330226,52.928896],[-2.332764,52.928204],[-2.333104,52.926814],[-2.333739,52.926202],[-2.339008,52.92307],[-2.340052,52.922015],[-2.340937,52.921578],[-2.341421,52.921661],[-2.343085,52.92015],[-2.346277,52.916575],[-2.347307,52.914119],[-2.349284,52.915447],[-2.35067,52.915819],[-2.350736,52.916297],[-2.353415,52.917108],[-2.354713,52.918046],[-2.357879,52.918558],[-2.361434,52.917567],[-2.365316,52.917586],[-2.366602,52.916732],[-2.368702,52.916314],[-2.369088,52.915645],[-2.371365,52.914689],[-2.373438,52.914576],[-2.376996,52.913241],[-2.37915,52.912913],[-2.378977,52.911039],[-2.382711,52.906116],[-2.380865,52.903845],[-2.381124,52.90284],[-2.382498,52.901456],[-2.382121,52.899378],[-2.382688,52.897841],[-2.382142,52.897059],[-2.380719,52.896433],[-2.380603,52.895012],[-2.379596,52.893885],[-2.379684,52.893042],[-2.378938,52.891721],[-2.380266,52.891082],[-2.382636,52.891112],[-2.384428,52.89036],[-2.385269,52.88934],[-2.384914,52.888636],[-2.385555,52.887988],[-2.386603,52.888574],[-2.388921,52.888987],[-2.390473,52.889067],[-2.392235,52.888617],[-2.393994,52.888592],[-2.394921,52.889347],[-2.396032,52.88955],[-2.398982,52.888714],[-2.400554,52.888831],[-2.40308,52.887946],[-2.404738,52.888095],[-2.40508,52.887843],[-2.405409,52.888219],[-2.407443,52.88759],[-2.411858,52.88789],[-2.41481,52.884944],[-2.415897,52.885073],[-2.416576,52.885856],[-2.419307,52.886773],[-2.420334,52.885277],[-2.423897,52.883804],[-2.425851,52.882002],[-2.428038,52.88225],[-2.431547,52.881713],[-2.435608,52.881833],[-2.438349,52.881266],[-2.440412,52.881227],[-2.44202,52.880668],[-2.445464,52.873999],[-2.449072,52.874904],[-2.451468,52.878198],[-2.454866,52.877465],[-2.454783,52.878035],[-2.455775,52.879516],[-2.457629,52.879101],[-2.457335,52.879953],[-2.457645,52.880899],[-2.456162,52.884263],[-2.456224,52.885262],[-2.457272,52.886311],[-2.461489,52.888771],[-2.462011,52.888765],[-2.465263,52.892315],[-2.468063,52.896932],[-2.469685,52.903804],[-2.470782,52.905878],[-2.462042,52.908395],[-2.462432,52.908573],[-2.462198,52.908873],[-2.460855,52.909384],[-2.460157,52.911744],[-2.459451,52.911567],[-2.460012,52.912142],[-2.459464,52.912462],[-2.459854,52.912701],[-2.459288,52.913023],[-2.459545,52.913367],[-2.458352,52.913566],[-2.458154,52.91441],[-2.457227,52.914683],[-2.457473,52.914154],[-2.456766,52.914116],[-2.455687,52.915568],[-2.45593,52.916148],[-2.455579,52.916616],[-2.456782,52.917889],[-2.455996,52.91876],[-2.456816,52.919089],[-2.456509,52.919939],[-2.457605,52.92021],[-2.457316,52.920966],[-2.456906,52.921054],[-2.457551,52.921473],[-2.456769,52.922326],[-2.456809,52.922967],[-2.456186,52.922989],[-2.456525,52.923241],[-2.456176,52.923764],[-2.456841,52.924374],[-2.456219,52.924438],[-2.455885,52.925699],[-2.453444,52.925921],[-2.451943,52.925245],[-2.450643,52.925122],[-2.450266,52.925868],[-2.450581,52.927557],[-2.448923,52.928374],[-2.44818,52.928085],[-2.446946,52.928606],[-2.446762,52.929229],[-2.445399,52.930295],[-2.44591,52.930506],[-2.445387,52.932193],[-2.444045,52.932825],[-2.44359,52.934202],[-2.440874,52.937072],[-2.440354,52.939014],[-2.439692,52.939317],[-2.439744,52.940044],[-2.437994,52.941631],[-2.437256,52.941777],[-2.437719,52.942619],[-2.436723,52.94387],[-2.435125,52.944008],[-2.434676,52.944498],[-2.433869,52.944515],[-2.431455,52.945828],[-2.43132,52.946192],[-2.430498,52.946032],[-2.429391,52.946335],[-2.429311,52.946698],[-2.428356,52.94712],[-2.428537,52.947716],[-2.427541,52.948487],[-2.427726,52.948769],[-2.425151,52.950013],[-2.420637,52.948861],[-2.41894,52.949597],[-2.41897,52.949389],[-2.418259,52.949317],[-2.418181,52.94892],[-2.4167,52.949115],[-2.416833,52.948758],[-2.41625,52.948483],[-2.41496,52.948725],[-2.415167,52.94828],[-2.414136,52.948201],[-2.414628,52.948005],[-2.414029,52.947677],[-2.415006,52.94706],[-2.413609,52.94662],[-2.410223,52.947151],[-2.408762,52.946355],[-2.407466,52.947422],[-2.405503,52.947318],[-2.405907,52.947959],[-2.405319,52.948088],[-2.405438,52.948379],[-2.404861,52.948305],[-2.404634,52.949067],[-2.405576,52.950568],[-2.405324,52.953208],[-2.407203,52.956222],[-2.406987,52.956691],[-2.407492,52.957378],[-2.407134,52.957908],[-2.408181,52.958844],[-2.410436,52.959256],[-2.413859,52.960823],[-2.412917,52.961771],[-2.410862,52.961113],[-2.410615,52.962351],[-2.40959,52.962028],[-2.409323,52.96255],[-2.406637,52.962411],[-2.40281,52.961654],[-2.402895,52.961254],[-2.400389,52.960924],[-2.40034,52.960628],[-2.399154,52.960651],[-2.398103,52.957739],[-2.393743,52.950552],[-2.393023,52.951304],[-2.392433,52.951169],[-2.392458,52.951564],[-2.391734,52.951646],[-2.391711,52.952099],[-2.387337,52.952678],[-2.386164,52.953273],[-2.386275,52.954366],[-2.38475,52.959822],[-2.38258,52.961685],[-2.380901,52.96228],[-2.379003,52.963906],[-2.377555,52.964415],[-2.377142,52.964935],[-2.379104,52.96785],[-2.379131,52.969276],[-2.382832,52.970658],[-2.381808,52.971509],[-2.379718,52.976065],[-2.379067,52.975215],[-2.376439,52.97482],[-2.374605,52.975541],[-2.373622,52.976452],[-2.370737,52.977466],[-2.368731,52.979359],[-2.370269,52.982162],[-2.371536,52.982953],[-2.373507,52.983568],[-2.375077,52.986243],[-2.375983,52.98653],[-2.376621,52.988294],[-2.379807,52.991066],[-2.379845,52.991676],[-2.378817,52.991992],[-2.378621,52.992951],[-2.376698,52.993676],[-2.376251,52.9945],[-2.376475,52.995368],[-2.377284,52.995646],[-2.376419,52.996805],[-2.376496,52.99769],[-2.377921,52.998246],[-2.379876,52.998045],[-2.380794,52.998411],[-2.380245,52.999006],[-2.380805,52.999722],[-2.379992,53.000808],[-2.380503,53.001425],[-2.380512,53.002016],[-2.380148,53.002092],[-2.380667,53.002766],[-2.380513,53.003823],[-2.380977,53.004051],[-2.380806,53.005202],[-2.381809,53.006249],[-2.381791,53.006909],[-2.382952,53.007222],[-2.383045,53.007787],[-2.382277,53.008121],[-2.38169,53.007982],[-2.381729,53.008341],[-2.380998,53.008548],[-2.381182,53.008839],[-2.380703,53.00882],[-2.380781,53.009167],[-2.379284,53.009594],[-2.378411,53.010364],[-2.376416,53.010156],[-2.374705,53.010602],[-2.3733,53.011689],[-2.372796,53.013461],[-2.370422,53.01453],[-2.377519,53.019957],[-2.38144,53.023826],[-2.381292,53.024153],[-2.384227,53.026168],[-2.379785,53.027591],[-2.381308,53.030565],[-2.382783,53.031638],[-2.384265,53.031844],[-2.386125,53.033603],[-2.384287,53.033896],[-2.383845,53.036595],[-2.384551,53.038448],[-2.383867,53.040817],[-2.38446,53.041698],[-2.383228,53.041746],[-2.382536,53.042888],[-2.382476,53.044222],[-2.383529,53.045554],[-2.382159,53.04585],[-2.38358,53.047429],[-2.385124,53.048091],[-2.383278,53.04851],[-2.382271,53.049227],[-2.380728,53.04966],[-2.382193,53.05116],[-2.381481,53.052475],[-2.380988,53.052727],[-2.377431,53.052641],[-2.377173,53.052937],[-2.376201,53.052971],[-2.37506,53.054531],[-2.373619,53.054204],[-2.372299,53.054575],[-2.370748,53.054351],[-2.370293,53.054811],[-2.366601,53.054553],[-2.361719,53.055097],[-2.361501,53.054105],[-2.359429,53.05474],[-2.357579,53.054719],[-2.35668,53.058215],[-2.354645,53.058418],[-2.354471,53.058744],[-2.353735,53.058849],[-2.352791,53.058346],[-2.352728,53.057878],[-2.35165,53.057672],[-2.351646,53.05729],[-2.350001,53.057067],[-2.350196,53.056708],[-2.349036,53.056373],[-2.348598,53.055845],[-2.347586,53.05617],[-2.344481,53.059047],[-2.341448,53.059996],[-2.339095,53.06317],[-2.338848,53.064421],[-2.336253,53.06634],[-2.335874,53.067407],[-2.331621,53.069714],[-2.330402,53.07088],[-2.329901,53.073213],[-2.328768,53.074099],[-2.329487,53.075365],[-2.329009,53.07658],[-2.323709,53.077656],[-2.322905,53.078116],[-2.322407,53.078991],[-2.31783,53.081441],[-2.316782,53.081186],[-2.313651,53.081331],[-2.30972,53.082482],[-2.303403,53.082996],[-2.301876,53.082122],[-2.301551,53.081275],[-2.299825,53.081408],[-2.296752,53.081059],[-2.295767,53.080397],[-2.295263,53.079726],[-2.295442,53.079253],[-2.294461,53.078296],[-2.293376,53.078326],[-2.29195,53.078974],[-2.290657,53.078904],[-2.288486,53.079759],[-2.285026,53.079735],[-2.278496,53.080913],[-2.275289,53.082189],[-2.274498,53.083854],[-2.27547,53.084838],[-2.276268,53.084957],[-2.277059,53.085912],[-2.271112,53.086731],[-2.269242,53.087574],[-2.268392,53.088547],[-2.267028,53.088111],[-2.260978,53.089009],[-2.258102,53.090224],[-2.257125,53.090016],[-2.255899,53.090674],[-2.253427,53.093071],[-2.253248,53.093977],[-2.250675,53.093089],[-2.250915,53.092853],[-2.249853,53.093259],[-2.249426,53.092988],[-2.249845,53.092825],[-2.249737,53.092232],[-2.249088,53.091635],[-2.249663,53.090724],[-2.247423,53.08987],[-2.246432,53.090308],[-2.246378,53.091611],[-2.243461,53.093834],[-2.242571,53.095151],[-2.240519,53.096555],[-2.238995,53.098273],[-2.238921,53.100019],[-2.237769,53.100772],[-2.237951,53.101047],[-2.233999,53.10294],[-2.231953,53.10311],[-2.230353,53.103767],[-2.227015,53.104128],[-2.224696,53.103605],[-2.223074,53.103795],[-2.222076,53.104675],[-2.223132,53.104992],[-2.222867,53.106043],[-2.221996,53.106827],[-2.222611,53.107318],[-2.22243,53.107622],[-2.216971,53.109957],[-2.217056,53.110977],[-2.21286,53.114303],[-2.212908,53.11505],[-2.211315,53.115824],[-2.209472,53.115306],[-2.205879,53.112475],[-2.203815,53.109594],[-2.201645,53.107647],[-2.201444,53.106932],[-2.200293,53.106391],[-2.199303,53.105283],[-2.19677,53.104617],[-2.195142,53.103839],[-2.194752,53.103036]]]}}]}