{"type":"FeatureCollection","features":[{"type":"Feature","properties":{"slug":"north-hertfordshire","gss_code":"E07000099","name":"North Hertfordshire"},"geometry":{"type":"Polygon","coordinates":[[[-0.150211,52.05918],[-0.152059,52.057418],[-0.15264,52.055849],[-0.154946,52.054273],[-0.155121,52.053061],[-0.15453,52.052348],[-0.152139,52.051026],[-0.149026,52.050226],[-0.146035,52.047546],[-0.144576,52.04699],[-0.141674,52.047244],[-0.13672,52.04603],[-0.13373,52.046233],[-0.131303,52.043302],[-0.131573,52.04263],[-0.126829,52.036086],[-0.124677,52.034856],[-0.123747,52.033634],[-0.123102,52.029996],[-0.122525,52.029953],[-0.122339,52.029636],[-0.126568,52.020922],[-0.120999,52.019521],[-0.112403,52.026121],[-0.112236,52.025912],[-0.107694,52.028355],[-0.079039,52.037884],[-0.063914,52.043528],[-0.056988,52.045362],[-0.054264,52.046608],[-0.050266,52.050068],[-0.037569,52.05785],[-0.030631,52.061236],[-0.030019,52.061959],[-0.028797,52.0619],[-0.024412,52.063316],[-0.020849,52.063631],[-0.017242,52.063261],[-0.013175,52.061397],[-0.012628,52.061548],[-0.006433,52.05724],[-0.003552,52.053418],[-0.001343,52.051609],[0.002604,52.050095],[0.007186,52.049533],[0.01129,52.04966],[0.024856,52.051431],[0.033649,52.05183],[0.040394,52.053136],[0.041569,52.049036],[0.041625,52.045266],[0.043365,52.041873],[0.043034,52.041501],[0.047641,52.03675],[0.049667,52.033835],[0.050456,52.028473],[0.052098,52.024631],[0.054397,52.022493],[0.058287,52.020565],[0.060167,52.018648],[0.058991,52.016374],[0.059042,52.014527],[0.062146,52.012012],[0.06245,52.010932],[0.063957,52.009611],[0.065096,52.007604],[0.070196,52.004362],[0.071021,52.00274],[0.072195,52.002702],[0.07415,52.001407],[0.073806,51.994268],[0.073058,51.992208],[0.07247,51.987414],[0.071018,51.984956],[0.069061,51.984043],[0.066907,51.979807],[0.064739,51.980443],[0.058428,51.981324],[0.048581,51.984567],[0.048385,51.984261],[0.043714,51.984807],[0.043307,51.985322],[0.04353,51.986029],[0.044172,51.986252],[0.044573,51.986944],[0.042325,51.987264],[0.041707,51.98655],[0.038541,51.9864],[0.038594,51.986863],[0.037756,51.986852],[0.037838,51.988461],[0.038346,51.988946],[0.035026,51.989629],[0.034448,51.988737],[0.033889,51.988717],[0.032269,51.987038],[0.026218,51.987984],[0.024955,51.987878],[0.02157,51.988944],[0.022648,51.988071],[0.023271,51.984371],[0.016211,51.983864],[0.015965,51.984149],[0.012722,51.98397],[0.012906,51.982475],[0.010089,51.982253],[0.009577,51.983829],[0.0092,51.983854],[0.008807,51.984795],[0.00701,51.984883],[0.005791,51.983755],[0.003475,51.983521],[0.003621,51.983145],[0.00247,51.983054],[0.002016,51.984241],[0.000249,51.983802],[-0.001503,51.986977],[-0.002024,51.989442],[-0.001246,51.98956],[-0.0018,51.99265],[-0.003008,51.992636],[-0.003036,51.993446],[-0.010008,51.993325],[-0.013497,51.996375],[-0.023734,51.99717],[-0.023099,51.996159],[-0.023095,51.994962],[-0.025652,51.995154],[-0.026472,51.987369],[-0.029912,51.987302],[-0.031514,51.984878],[-0.030601,51.983789],[-0.032485,51.983458],[-0.037888,51.981676],[-0.047953,51.979737],[-0.048201,51.979449],[-0.047084,51.978127],[-0.045302,51.978073],[-0.043506,51.977358],[-0.040876,51.974961],[-0.040037,51.973009],[-0.038535,51.971417],[-0.038582,51.969122],[-0.04019,51.967701],[-0.042176,51.967686],[-0.045915,51.964771],[-0.051146,51.962609],[-0.057025,51.958442],[-0.058825,51.957752],[-0.062635,51.957715],[-0.063641,51.957177],[-0.06554,51.956845],[-0.067078,51.959694],[-0.068443,51.964426],[-0.0696,51.966337],[-0.070723,51.971293],[-0.074657,51.971164],[-0.075319,51.969541],[-0.077716,51.969093],[-0.07815,51.968643],[-0.077873,51.967655],[-0.077182,51.967196],[-0.079213,51.966482],[-0.07977,51.967306],[-0.08012,51.967231],[-0.080236,51.966017],[-0.085914,51.961673],[-0.087613,51.961729],[-0.088732,51.960003],[-0.088364,51.959552],[-0.092525,51.956238],[-0.092874,51.956482],[-0.094194,51.956011],[-0.097463,51.954439],[-0.098245,51.955148],[-0.10433,51.953989],[-0.104453,51.954241],[-0.107012,51.953959],[-0.106247,51.94878],[-0.107262,51.946326],[-0.107543,51.943919],[-0.110154,51.941901],[-0.115703,51.942493],[-0.117005,51.94204],[-0.120165,51.942188],[-0.120806,51.940815],[-0.120527,51.939829],[-0.118427,51.937033],[-0.116675,51.936176],[-0.11755,51.93425],[-0.120513,51.930983],[-0.119128,51.930622],[-0.119479,51.929819],[-0.119151,51.929483],[-0.119454,51.92896],[-0.119031,51.928693],[-0.119285,51.928283],[-0.124782,51.929301],[-0.130026,51.931423],[-0.138339,51.932988],[-0.14277,51.932437],[-0.145267,51.934055],[-0.148499,51.933131],[-0.150693,51.931844],[-0.151656,51.930859],[-0.154799,51.9296],[-0.152267,51.926484],[-0.155245,51.925531],[-0.154806,51.923983],[-0.160048,51.921292],[-0.159926,51.920194],[-0.162181,51.920341],[-0.163479,51.921746],[-0.163165,51.922276],[-0.164629,51.926861],[-0.166511,51.926721],[-0.167907,51.927964],[-0.171279,51.928224],[-0.173367,51.928904],[-0.175671,51.930603],[-0.184606,51.932413],[-0.18713,51.929893],[-0.18795,51.928467],[-0.190307,51.928672],[-0.193143,51.927699],[-0.195171,51.92924],[-0.194384,51.930434],[-0.19713,51.930469],[-0.19854,51.928793],[-0.199611,51.929655],[-0.200403,51.92924],[-0.202347,51.930559],[-0.204928,51.928545],[-0.207426,51.929775],[-0.208292,51.929026],[-0.209999,51.928388],[-0.210263,51.930018],[-0.216706,51.930564],[-0.216859,51.930083],[-0.217187,51.930109],[-0.220068,51.930968],[-0.22657,51.930114],[-0.224885,51.929352],[-0.227725,51.926947],[-0.22701,51.925891],[-0.227701,51.924569],[-0.226486,51.923973],[-0.226181,51.924528],[-0.225434,51.924187],[-0.224659,51.922486],[-0.225916,51.922238],[-0.226072,51.920833],[-0.229305,51.917232],[-0.228079,51.916941],[-0.228714,51.913112],[-0.231476,51.908511],[-0.232962,51.907274],[-0.234372,51.905255],[-0.232091,51.904239],[-0.232662,51.903617],[-0.228857,51.903454],[-0.229826,51.902695],[-0.230092,51.901211],[-0.229338,51.899446],[-0.230535,51.898889],[-0.229678,51.898098],[-0.227712,51.898931],[-0.227035,51.898093],[-0.225922,51.897587],[-0.224859,51.895585],[-0.225275,51.893236],[-0.218997,51.895964],[-0.216013,51.896142],[-0.215469,51.894277],[-0.216369,51.893983],[-0.215758,51.893466],[-0.215197,51.89359],[-0.214662,51.89331],[-0.214582,51.894067],[-0.212696,51.894253],[-0.209928,51.891876],[-0.20851,51.890122],[-0.210663,51.889652],[-0.209274,51.886919],[-0.207633,51.885464],[-0.205898,51.883134],[-0.2048,51.883521],[-0.204204,51.880138],[-0.200853,51.881737],[-0.197957,51.882161],[-0.195956,51.882943],[-0.193289,51.882601],[-0.191903,51.882924],[-0.18467,51.878453],[-0.181868,51.877356],[-0.173585,51.875331],[-0.171197,51.873594],[-0.170395,51.871146],[-0.170573,51.870398],[-0.167229,51.868201],[-0.16725,51.865541],[-0.166666,51.863573],[-0.164495,51.861833],[-0.169528,51.859297],[-0.169019,51.858108],[-0.169628,51.857232],[-0.172785,51.856588],[-0.175994,51.856754],[-0.176075,51.858514],[-0.178582,51.859043],[-0.179403,51.859685],[-0.18096,51.860133],[-0.183552,51.860116],[-0.183546,51.860444],[-0.185895,51.860246],[-0.185784,51.858933],[-0.186403,51.859423],[-0.189665,51.857799],[-0.190499,51.858227],[-0.191813,51.857321],[-0.196832,51.85938],[-0.1976,51.857694],[-0.198742,51.857772],[-0.200098,51.856451],[-0.200886,51.856627],[-0.20422,51.85504],[-0.204945,51.855276],[-0.20669,51.854263],[-0.205173,51.853305],[-0.203522,51.854761],[-0.203117,51.853975],[-0.203644,51.85323],[-0.202003,51.85152],[-0.199063,51.849732],[-0.197635,51.850231],[-0.196415,51.849549],[-0.197176,51.848926],[-0.197554,51.846138],[-0.1987,51.845945],[-0.198544,51.84547],[-0.199429,51.844592],[-0.19873,51.844361],[-0.199163,51.843957],[-0.201462,51.843536],[-0.203948,51.844899],[-0.205413,51.84438],[-0.208128,51.841965],[-0.210601,51.840443],[-0.211987,51.840574],[-0.214571,51.839603],[-0.215243,51.840047],[-0.212705,51.841567],[-0.212181,51.842495],[-0.208233,51.844697],[-0.205963,51.846399],[-0.208716,51.84758],[-0.211301,51.849358],[-0.210414,51.849854],[-0.212926,51.851396],[-0.2165,51.848948],[-0.21717,51.847707],[-0.218881,51.847051],[-0.21826,51.846634],[-0.222346,51.844699],[-0.223025,51.84622],[-0.223949,51.84664],[-0.225758,51.844544],[-0.225996,51.843719],[-0.223423,51.841314],[-0.224195,51.840215],[-0.222577,51.839009],[-0.221784,51.839247],[-0.220785,51.838765],[-0.219582,51.838807],[-0.218681,51.838414],[-0.220192,51.837621],[-0.219847,51.836688],[-0.223444,51.835291],[-0.221674,51.834093],[-0.22491,51.833234],[-0.22642,51.834553],[-0.226106,51.834913],[-0.226939,51.835265],[-0.226925,51.835895],[-0.22585,51.83677],[-0.22568,51.837645],[-0.226863,51.837103],[-0.22793,51.837059],[-0.229048,51.836078],[-0.230051,51.836048],[-0.230727,51.836771],[-0.231646,51.836951],[-0.232105,51.836563],[-0.233296,51.836385],[-0.235989,51.836239],[-0.237038,51.83646],[-0.239009,51.834994],[-0.240588,51.83498],[-0.242282,51.835728],[-0.241714,51.836343],[-0.244904,51.838822],[-0.244953,51.839417],[-0.243043,51.841805],[-0.243011,51.842726],[-0.245028,51.843511],[-0.245275,51.844583],[-0.246504,51.845217],[-0.247326,51.846161],[-0.247959,51.846234],[-0.253945,51.844537],[-0.257025,51.845448],[-0.259319,51.844607],[-0.259559,51.844759],[-0.266394,51.841776],[-0.268129,51.842208],[-0.271328,51.840468],[-0.272651,51.840458],[-0.27302,51.83969],[-0.272795,51.836506],[-0.273535,51.835365],[-0.280095,51.834736],[-0.290787,51.835673],[-0.292006,51.835523],[-0.29199,51.834806],[-0.29599,51.834307],[-0.296328,51.834346],[-0.295841,51.834872],[-0.298343,51.835339],[-0.298518,51.83485],[-0.299395,51.834928],[-0.301076,51.835737],[-0.302538,51.835945],[-0.30532,51.835146],[-0.307792,51.835103],[-0.315539,51.836366],[-0.319398,51.836655],[-0.320372,51.837905],[-0.322251,51.839083],[-0.323318,51.843105],[-0.323218,51.844832],[-0.327707,51.846792],[-0.329252,51.846547],[-0.329381,51.846925],[-0.333379,51.84804],[-0.337075,51.848635],[-0.339486,51.849606],[-0.340946,51.850575],[-0.342173,51.853014],[-0.347085,51.855486],[-0.349524,51.857183],[-0.350323,51.860839],[-0.353745,51.864331],[-0.355215,51.867255],[-0.353884,51.870556],[-0.354834,51.874015],[-0.354615,51.875164],[-0.354126,51.87554],[-0.350707,51.876131],[-0.349837,51.878676],[-0.353018,51.878887],[-0.351979,51.879602],[-0.353584,51.88307],[-0.355132,51.885111],[-0.357693,51.886444],[-0.358161,51.887571],[-0.360794,51.890836],[-0.365134,51.894378],[-0.371937,51.894723],[-0.373909,51.895314],[-0.37749,51.898433],[-0.3776,51.900505],[-0.37839,51.901646],[-0.37864,51.90404],[-0.384922,51.911209],[-0.385746,51.914568],[-0.385616,51.91568],[-0.385169,51.91682],[-0.383579,51.918275],[-0.384431,51.91957],[-0.384727,51.919462],[-0.387868,51.921372],[-0.388458,51.923467],[-0.389349,51.924749],[-0.388621,51.925097],[-0.389345,51.925779],[-0.397679,51.928784],[-0.402485,51.930167],[-0.405648,51.932466],[-0.40248,51.933394],[-0.403744,51.935873],[-0.403426,51.935997],[-0.405444,51.938429],[-0.4063,51.941294],[-0.405035,51.945483],[-0.40523,51.946035],[-0.404716,51.946165],[-0.405218,51.946989],[-0.404508,51.947033],[-0.403936,51.947882],[-0.402116,51.948952],[-0.403476,51.950512],[-0.402901,51.950953],[-0.403329,51.953616],[-0.402811,51.954998],[-0.403989,51.955341],[-0.403994,51.955575],[-0.403706,51.956144],[-0.401669,51.956372],[-0.402212,51.960524],[-0.401284,51.960589],[-0.400222,51.964879],[-0.398882,51.964929],[-0.399439,51.967671],[-0.398944,51.967437],[-0.394776,51.967371],[-0.394158,51.968323],[-0.393433,51.968577],[-0.393615,51.969377],[-0.393069,51.970521],[-0.393325,51.971806],[-0.391748,51.973514],[-0.391623,51.975125],[-0.391147,51.975547],[-0.391359,51.976983],[-0.390373,51.977619],[-0.388835,51.978052],[-0.388626,51.978591],[-0.386317,51.97945],[-0.384832,51.978288],[-0.380686,51.979432],[-0.380245,51.978348],[-0.37963,51.977958],[-0.379535,51.976591],[-0.378721,51.975886],[-0.378903,51.97365],[-0.378206,51.971636],[-0.379247,51.967318],[-0.380423,51.96538],[-0.37951,51.963412],[-0.379374,51.958138],[-0.379807,51.957065],[-0.38177,51.955297],[-0.382986,51.953452],[-0.382912,51.951414],[-0.382524,51.950916],[-0.381556,51.950609],[-0.374213,51.948686],[-0.374105,51.947769],[-0.372582,51.948019],[-0.36987,51.949439],[-0.366088,51.950674],[-0.363305,51.952864],[-0.353888,51.95716],[-0.350225,51.957578],[-0.351189,51.961967],[-0.349162,51.963741],[-0.351275,51.964655],[-0.35076,51.965376],[-0.351728,51.966201],[-0.349084,51.970008],[-0.349704,51.970479],[-0.349316,51.971154],[-0.351951,51.973739],[-0.354034,51.974161],[-0.359383,51.973894],[-0.361893,51.974385],[-0.363814,51.975166],[-0.363383,51.97604],[-0.365867,51.97752],[-0.365905,51.978688],[-0.366902,51.978969],[-0.367969,51.980071],[-0.367273,51.982149],[-0.367603,51.982445],[-0.367296,51.983749],[-0.365682,51.983941],[-0.361325,51.985365],[-0.358713,51.985511],[-0.356231,51.985235],[-0.353018,51.983875],[-0.352359,51.984166],[-0.352071,51.983697],[-0.352587,51.983563],[-0.352376,51.983293],[-0.347096,51.98378],[-0.345777,51.983148],[-0.340689,51.982532],[-0.338729,51.982722],[-0.334412,51.98388],[-0.331777,51.983964],[-0.321751,51.982577],[-0.318089,51.982615],[-0.315065,51.981924],[-0.312557,51.981893],[-0.310408,51.982603],[-0.308462,51.986923],[-0.306839,51.989],[-0.304586,51.990522],[-0.300579,51.99227],[-0.29533,51.99541],[-0.300004,52.000755],[-0.296089,52.002192],[-0.294409,52.002042],[-0.292046,52.001058],[-0.290508,52.000772],[-0.287663,52.001505],[-0.28555,52.001523],[-0.284747,52.001215],[-0.283933,52.001816],[-0.282416,52.001564],[-0.281925,52.000911],[-0.28401,51.999377],[-0.282954,51.998722],[-0.282796,51.997717],[-0.283594,51.997381],[-0.283375,51.99666],[-0.282599,51.996053],[-0.27891,51.994697],[-0.277106,51.993624],[-0.275623,51.991844],[-0.275792,51.990956],[-0.274445,51.989625],[-0.274598,51.989139],[-0.272879,51.988687],[-0.272853,51.988236],[-0.272281,51.988136],[-0.272801,51.987226],[-0.273838,51.986659],[-0.273739,51.985335],[-0.274669,51.984282],[-0.274863,51.982836],[-0.274108,51.983043],[-0.273186,51.982415],[-0.273901,51.98121],[-0.271666,51.981501],[-0.270654,51.979612],[-0.267186,51.980266],[-0.263175,51.979625],[-0.260255,51.979705],[-0.259282,51.983159],[-0.258297,51.983114],[-0.257449,51.985386],[-0.247983,51.98508],[-0.246611,51.98748],[-0.248451,51.987432],[-0.248401,51.987882],[-0.246216,51.987933],[-0.245743,51.988921],[-0.245014,51.992894],[-0.24564,51.993052],[-0.244959,51.993114],[-0.244079,51.999023],[-0.237601,51.999058],[-0.238523,51.998157],[-0.236868,51.997947],[-0.232055,52.000538],[-0.229182,52.002942],[-0.227632,52.002987],[-0.224749,52.003927],[-0.223194,52.005078],[-0.221771,52.004675],[-0.220724,52.005755],[-0.219366,52.005409],[-0.218353,52.006338],[-0.217119,52.005997],[-0.213645,52.008861],[-0.213491,52.008514],[-0.2039,52.008745],[-0.201256,52.009825],[-0.206045,52.016114],[-0.207533,52.020241],[-0.212823,52.026568],[-0.219493,52.036741],[-0.211966,52.042845],[-0.211181,52.044533],[-0.209008,52.047301],[-0.199183,52.056665],[-0.199138,52.05725],[-0.197094,52.05901],[-0.197724,52.059501],[-0.195636,52.060972],[-0.194983,52.062415],[-0.180545,52.06135],[-0.17254,52.060223],[-0.171601,52.063328],[-0.169824,52.06545],[-0.167831,52.069006],[-0.166247,52.070698],[-0.164366,52.074618],[-0.164783,52.075056],[-0.164298,52.075248],[-0.164514,52.076332],[-0.164166,52.077035],[-0.160544,52.0797],[-0.157605,52.080441],[-0.15712,52.080299],[-0.157873,52.079979],[-0.157091,52.079416],[-0.157224,52.07877],[-0.156363,52.076779],[-0.153491,52.076234],[-0.152111,52.075181],[-0.150014,52.074278],[-0.148722,52.072904],[-0.148026,52.071275],[-0.148606,52.070484],[-0.147509,52.06945],[-0.148009,52.068873],[-0.147927,52.067637],[-0.149014,52.066222],[-0.150655,52.065838],[-0.151885,52.064674],[-0.149934,52.061235],[-0.150211,52.05918]]]}}]}