{"type":"FeatureCollection","features":[{"type":"Feature","properties":{"slug":"north-northamptonshire","gss_code":"E06000061","name":"North Northamptonshire"},"geometry":{"type":"Polygon","coordinates":[[[-0.511331,52.643173],[-0.510614,52.643391],[-0.510476,52.642969],[-0.509542,52.643121],[-0.509634,52.642482],[-0.50902,52.642401],[-0.507225,52.641164],[-0.504143,52.64013],[-0.503385,52.640042],[-0.502263,52.640492],[-0.499258,52.639298],[-0.497007,52.640087],[-0.493904,52.64007],[-0.492196,52.636873],[-0.491114,52.636368],[-0.490805,52.63537],[-0.488934,52.633452],[-0.488824,52.632831],[-0.488059,52.632505],[-0.486108,52.634422],[-0.485153,52.632836],[-0.47676,52.630564],[-0.475311,52.628901],[-0.473503,52.628234],[-0.47096,52.623768],[-0.471063,52.621364],[-0.472095,52.621285],[-0.470961,52.617953],[-0.474791,52.61691],[-0.473729,52.614433],[-0.47722,52.614677],[-0.479637,52.61445],[-0.481024,52.602787],[-0.48544,52.60218],[-0.485329,52.600155],[-0.485849,52.598931],[-0.488629,52.596909],[-0.490707,52.590534],[-0.49415,52.589703],[-0.494541,52.588673],[-0.497651,52.586851],[-0.49236,52.581672],[-0.489423,52.580554],[-0.485332,52.579981],[-0.478834,52.577439],[-0.480736,52.576956],[-0.481455,52.576304],[-0.478815,52.573645],[-0.475387,52.574371],[-0.471145,52.574627],[-0.461005,52.576025],[-0.447693,52.578684],[-0.425028,52.582413],[-0.424633,52.581493],[-0.419982,52.581355],[-0.418177,52.579734],[-0.415381,52.578743],[-0.415079,52.576006],[-0.415892,52.573384],[-0.414718,52.572289],[-0.415695,52.570104],[-0.414633,52.569518],[-0.411932,52.568906],[-0.40736,52.565821],[-0.407291,52.564055],[-0.408728,52.562144],[-0.40985,52.561624],[-0.411772,52.561799],[-0.413367,52.561504],[-0.415254,52.562123],[-0.416582,52.561975],[-0.417059,52.561441],[-0.416908,52.56075],[-0.419594,52.558962],[-0.417101,52.555886],[-0.416368,52.55566],[-0.416043,52.552715],[-0.415339,52.551553],[-0.414078,52.551546],[-0.41174,52.550808],[-0.411224,52.549954],[-0.403305,52.548925],[-0.40206,52.548322],[-0.402204,52.546808],[-0.403678,52.545163],[-0.403804,52.543767],[-0.403657,52.542815],[-0.402527,52.541876],[-0.40239,52.540705],[-0.401283,52.538685],[-0.402643,52.534912],[-0.404601,52.533582],[-0.404668,52.532307],[-0.40714,52.531477],[-0.410066,52.531202],[-0.411917,52.529747],[-0.412235,52.528778],[-0.413346,52.52843],[-0.41385,52.526994],[-0.413467,52.525507],[-0.413064,52.525193],[-0.411675,52.525495],[-0.411846,52.524753],[-0.40872,52.522519],[-0.406294,52.522375],[-0.406496,52.522079],[-0.404308,52.521692],[-0.400471,52.521877],[-0.398492,52.52088],[-0.396749,52.520616],[-0.394647,52.519807],[-0.390749,52.51944],[-0.390831,52.518719],[-0.386624,52.51673],[-0.387462,52.51618],[-0.383441,52.513799],[-0.380895,52.512775],[-0.381034,52.512553],[-0.37948,52.511937],[-0.377927,52.510658],[-0.373011,52.510802],[-0.371464,52.51035],[-0.368575,52.508751],[-0.364214,52.507927],[-0.358183,52.505788],[-0.355073,52.506101],[-0.355118,52.506322],[-0.354345,52.506495],[-0.354079,52.504832],[-0.352148,52.503353],[-0.353081,52.502859],[-0.353452,52.502199],[-0.354701,52.501862],[-0.355212,52.501147],[-0.355692,52.501266],[-0.35621,52.500474],[-0.357596,52.499567],[-0.357757,52.498477],[-0.358029,52.498148],[-0.358564,52.498172],[-0.358495,52.497653],[-0.359344,52.497108],[-0.359121,52.496176],[-0.359647,52.495894],[-0.358901,52.494797],[-0.359223,52.494419],[-0.358142,52.493909],[-0.358376,52.492988],[-0.357701,52.492094],[-0.358129,52.491052],[-0.359386,52.490242],[-0.359398,52.489813],[-0.358318,52.489395],[-0.358222,52.488825],[-0.357884,52.488864],[-0.356775,52.48777],[-0.356357,52.486708],[-0.355385,52.486237],[-0.354614,52.485112],[-0.353283,52.484757],[-0.351986,52.483504],[-0.351314,52.483505],[-0.350063,52.482569],[-0.34983,52.4816],[-0.350274,52.480747],[-0.349242,52.479336],[-0.348449,52.479105],[-0.34746,52.477981],[-0.348994,52.473563],[-0.349718,52.472888],[-0.34828,52.471256],[-0.342279,52.469104],[-0.343065,52.468498],[-0.34159,52.466943],[-0.344815,52.46584],[-0.349471,52.462164],[-0.35056,52.462927],[-0.35351,52.460275],[-0.354028,52.458035],[-0.355459,52.456158],[-0.360256,52.452505],[-0.363482,52.45061],[-0.361833,52.449003],[-0.361879,52.448227],[-0.363488,52.447106],[-0.363063,52.446585],[-0.36707,52.443804],[-0.368799,52.441209],[-0.370217,52.43993],[-0.36886,52.43962],[-0.370064,52.437884],[-0.371279,52.438059],[-0.371867,52.436843],[-0.370307,52.436848],[-0.369342,52.43494],[-0.367734,52.434496],[-0.366495,52.435036],[-0.364422,52.434049],[-0.362408,52.433531],[-0.36594,52.431665],[-0.372366,52.430445],[-0.379459,52.42796],[-0.386939,52.423885],[-0.392335,52.419938],[-0.397889,52.418329],[-0.400947,52.415464],[-0.407459,52.413493],[-0.417073,52.411599],[-0.418431,52.408151],[-0.419612,52.407325],[-0.420279,52.405066],[-0.415936,52.403805],[-0.421906,52.400912],[-0.421531,52.400756],[-0.422435,52.400126],[-0.424554,52.399401],[-0.424834,52.399629],[-0.431947,52.396293],[-0.432935,52.396277],[-0.436998,52.388187],[-0.439255,52.386314],[-0.443761,52.383857],[-0.446222,52.383213],[-0.448756,52.383729],[-0.450886,52.384752],[-0.454938,52.385702],[-0.454746,52.384573],[-0.456855,52.384094],[-0.456832,52.382329],[-0.462474,52.383046],[-0.464057,52.381602],[-0.46829,52.382894],[-0.469888,52.379896],[-0.475828,52.380121],[-0.476981,52.38069],[-0.477956,52.380738],[-0.478848,52.380154],[-0.484761,52.381631],[-0.485441,52.381322],[-0.486738,52.379031],[-0.489609,52.379226],[-0.494196,52.381203],[-0.495946,52.379516],[-0.490461,52.375103],[-0.488519,52.374024],[-0.492304,52.371714],[-0.49853,52.366839],[-0.499487,52.366993],[-0.499885,52.365201],[-0.4987,52.360096],[-0.496006,52.358388],[-0.492989,52.357455],[-0.489266,52.354413],[-0.487014,52.353174],[-0.484278,52.352387],[-0.484158,52.351778],[-0.482058,52.350489],[-0.477682,52.34892],[-0.477339,52.348409],[-0.477931,52.346981],[-0.480504,52.344431],[-0.483264,52.340903],[-0.472436,52.339574],[-0.467773,52.338441],[-0.466657,52.338928],[-0.467098,52.335286],[-0.46523,52.332614],[-0.464796,52.33031],[-0.46451,52.326102],[-0.465366,52.322953],[-0.474151,52.319752],[-0.476261,52.318064],[-0.478133,52.319282],[-0.481881,52.320762],[-0.48714,52.321083],[-0.506655,52.319914],[-0.51684,52.317651],[-0.51983,52.317693],[-0.519797,52.316622],[-0.514051,52.314697],[-0.516866,52.312952],[-0.540605,52.291492],[-0.541969,52.289942],[-0.541964,52.288855],[-0.538692,52.285819],[-0.538147,52.284824],[-0.535978,52.282869],[-0.535009,52.28255],[-0.535235,52.282229],[-0.534096,52.281355],[-0.534461,52.279545],[-0.534165,52.277615],[-0.532524,52.272539],[-0.53119,52.270402],[-0.536432,52.268208],[-0.539325,52.266095],[-0.537737,52.262856],[-0.537625,52.261651],[-0.539899,52.257306],[-0.541312,52.256317],[-0.542879,52.255974],[-0.54452,52.256127],[-0.546144,52.256727],[-0.549969,52.256465],[-0.552326,52.256921],[-0.554738,52.25818],[-0.558046,52.25635],[-0.565693,52.253468],[-0.571583,52.258247],[-0.579354,52.266435],[-0.580884,52.265232],[-0.588111,52.270778],[-0.586335,52.272831],[-0.588974,52.274069],[-0.596102,52.276047],[-0.602123,52.278587],[-0.608127,52.278931],[-0.610617,52.279498],[-0.61058,52.2789],[-0.611075,52.278532],[-0.620057,52.276923],[-0.626978,52.274877],[-0.626922,52.273382],[-0.631413,52.270048],[-0.635474,52.271932],[-0.637663,52.272401],[-0.639908,52.272442],[-0.6469,52.27118],[-0.651079,52.269055],[-0.653655,52.268289],[-0.65276,52.266588],[-0.650034,52.256778],[-0.649789,52.254107],[-0.648967,52.252713],[-0.645495,52.242461],[-0.643085,52.238544],[-0.643448,52.23586],[-0.642729,52.233325],[-0.639655,52.228951],[-0.638621,52.227945],[-0.637332,52.227318],[-0.643619,52.223362],[-0.648634,52.220876],[-0.652365,52.217263],[-0.653575,52.215239],[-0.658498,52.210084],[-0.66146,52.208126],[-0.668664,52.197731],[-0.668136,52.195034],[-0.673425,52.196067],[-0.675256,52.195804],[-0.680023,52.196141],[-0.681236,52.195724],[-0.684788,52.196355],[-0.686629,52.195814],[-0.69408,52.195266],[-0.696339,52.194304],[-0.701672,52.193308],[-0.705456,52.191571],[-0.707433,52.192993],[-0.71171,52.197356],[-0.716949,52.21329],[-0.7174,52.215779],[-0.716938,52.217936],[-0.714222,52.221441],[-0.715749,52.221509],[-0.717996,52.223481],[-0.717976,52.224913],[-0.720429,52.226911],[-0.720651,52.228323],[-0.723526,52.230422],[-0.724844,52.232855],[-0.724595,52.233903],[-0.726015,52.235371],[-0.727269,52.237933],[-0.736792,52.242733],[-0.741872,52.24399],[-0.744104,52.243583],[-0.748803,52.246031],[-0.753708,52.247872],[-0.759366,52.247448],[-0.761111,52.248505],[-0.760849,52.248684],[-0.762409,52.248814],[-0.764958,52.248031],[-0.765899,52.24742],[-0.76672,52.24618],[-0.767961,52.24684],[-0.769016,52.245871],[-0.774197,52.245289],[-0.775333,52.24601],[-0.779151,52.246514],[-0.780285,52.245535],[-0.781363,52.245401],[-0.781387,52.244569],[-0.783438,52.244224],[-0.7842,52.243529],[-0.791416,52.242242],[-0.795083,52.254081],[-0.801431,52.252687],[-0.801422,52.257299],[-0.800876,52.257875],[-0.801368,52.258164],[-0.801071,52.258429],[-0.80169,52.258558],[-0.80142,52.259006],[-0.801733,52.259143],[-0.801523,52.260454],[-0.801128,52.260603],[-0.80169,52.261074],[-0.801379,52.261357],[-0.801797,52.262271],[-0.803053,52.263456],[-0.80284,52.26413],[-0.803466,52.265865],[-0.802958,52.266701],[-0.80569,52.270841],[-0.807303,52.27219],[-0.809141,52.275328],[-0.807633,52.278441],[-0.807072,52.28153],[-0.807735,52.282935],[-0.807595,52.284511],[-0.80713,52.2863],[-0.805939,52.287311],[-0.805898,52.288255],[-0.808381,52.292874],[-0.810986,52.29536],[-0.812534,52.298649],[-0.812284,52.298911],[-0.813642,52.300288],[-0.814121,52.302279],[-0.814867,52.302783],[-0.814906,52.304458],[-0.815929,52.305856],[-0.815709,52.306791],[-0.817157,52.30799],[-0.816747,52.308573],[-0.81795,52.309596],[-0.814233,52.311524],[-0.809368,52.315179],[-0.805532,52.316934],[-0.794962,52.323049],[-0.794444,52.323001],[-0.792848,52.323797],[-0.792573,52.326176],[-0.790588,52.327578],[-0.789294,52.32919],[-0.785779,52.330617],[-0.786851,52.331363],[-0.78754,52.332855],[-0.786088,52.338643],[-0.785955,52.341839],[-0.786662,52.34441],[-0.787675,52.345359],[-0.788655,52.347307],[-0.790166,52.353512],[-0.791203,52.355967],[-0.796317,52.361663],[-0.799742,52.363883],[-0.805767,52.366199],[-0.805541,52.366394],[-0.81672,52.370308],[-0.819031,52.371556],[-0.826294,52.373574],[-0.831109,52.376173],[-0.832582,52.379425],[-0.833659,52.384312],[-0.839856,52.391158],[-0.840598,52.392851],[-0.849831,52.393686],[-0.850092,52.393311],[-0.854398,52.394112],[-0.857253,52.395314],[-0.861808,52.396179],[-0.866138,52.399667],[-0.873695,52.402674],[-0.87701,52.401738],[-0.880609,52.401545],[-0.885312,52.400339],[-0.887217,52.399123],[-0.888458,52.398804],[-0.888187,52.398173],[-0.888756,52.398071],[-0.888656,52.397748],[-0.889343,52.397839],[-0.889386,52.398374],[-0.890537,52.398594],[-0.890386,52.403695],[-0.889288,52.406305],[-0.889165,52.407991],[-0.888689,52.407992],[-0.889282,52.409556],[-0.888171,52.411728],[-0.888249,52.413745],[-0.888902,52.415225],[-0.887638,52.417288],[-0.887261,52.419592],[-0.88635,52.420302],[-0.886248,52.420854],[-0.886937,52.423354],[-0.88526,52.423643],[-0.882002,52.422623],[-0.878281,52.422943],[-0.876664,52.423553],[-0.875047,52.423533],[-0.873407,52.426578],[-0.870982,52.429303],[-0.868707,52.432856],[-0.86438,52.434215],[-0.86707,52.435293],[-0.872956,52.436778],[-0.87929,52.439174],[-0.893246,52.441554],[-0.898424,52.441532],[-0.904384,52.442171],[-0.90386,52.445505],[-0.905342,52.448384],[-0.905851,52.453328],[-0.90625,52.45366],[-0.905777,52.454578],[-0.904674,52.454931],[-0.904542,52.455591],[-0.904076,52.455768],[-0.904149,52.456431],[-0.901544,52.45811],[-0.900973,52.458855],[-0.901441,52.458849],[-0.901412,52.459134],[-0.900782,52.459138],[-0.901281,52.459756],[-0.898919,52.461144],[-0.897527,52.462496],[-0.895498,52.465503],[-0.892704,52.467223],[-0.889557,52.470441],[-0.886193,52.469345],[-0.884832,52.471518],[-0.882469,52.471162],[-0.882361,52.471406],[-0.882218,52.476185],[-0.88404,52.477328],[-0.885092,52.4787],[-0.885248,52.480272],[-0.884535,52.481307],[-0.888861,52.483005],[-0.888044,52.483316],[-0.887848,52.483765],[-0.890501,52.484127],[-0.890445,52.48438],[-0.891627,52.484924],[-0.892742,52.484828],[-0.893403,52.485393],[-0.897793,52.485612],[-0.897881,52.486229],[-0.89727,52.486507],[-0.898048,52.486918],[-0.897875,52.487414],[-0.897153,52.487718],[-0.896485,52.487299],[-0.896205,52.488026],[-0.895234,52.488149],[-0.894729,52.488677],[-0.895899,52.490437],[-0.89671,52.490642],[-0.895602,52.492044],[-0.894809,52.492296],[-0.888948,52.491808],[-0.883721,52.492263],[-0.882126,52.493166],[-0.88231,52.494682],[-0.881793,52.496882],[-0.880652,52.497133],[-0.879459,52.498214],[-0.879286,52.499771],[-0.880965,52.500463],[-0.881816,52.500343],[-0.881391,52.501179],[-0.880461,52.501222],[-0.881619,52.501652],[-0.881184,52.502121],[-0.882291,52.502003],[-0.88281,52.503335],[-0.88167,52.50381],[-0.881153,52.504438],[-0.880121,52.504424],[-0.879922,52.504877],[-0.880388,52.505553],[-0.879873,52.506137],[-0.881032,52.506167],[-0.880648,52.507008],[-0.881484,52.507712],[-0.88051,52.508641],[-0.881016,52.50926],[-0.879995,52.51019],[-0.880585,52.51126],[-0.880034,52.511746],[-0.8808,52.511804],[-0.881149,52.51232],[-0.88193,52.511989],[-0.882442,52.512581],[-0.88183,52.513028],[-0.882715,52.513116],[-0.882673,52.513607],[-0.883409,52.513808],[-0.882334,52.5151],[-0.881366,52.514818],[-0.880524,52.51558],[-0.881333,52.515869],[-0.880326,52.516208],[-0.878081,52.51616],[-0.8779,52.516566],[-0.878501,52.516947],[-0.878421,52.51729],[-0.876121,52.517364],[-0.875555,52.517963],[-0.874411,52.517547],[-0.873802,52.518025],[-0.873889,52.518489],[-0.87257,52.518393],[-0.871747,52.519383],[-0.872474,52.520808],[-0.87146,52.520809],[-0.870784,52.522359],[-0.871336,52.524148],[-0.870993,52.524752],[-0.868826,52.525887],[-0.868758,52.526981],[-0.867431,52.526912],[-0.867024,52.526307],[-0.866502,52.526248],[-0.865861,52.526759],[-0.863623,52.527199],[-0.863223,52.528327],[-0.862379,52.527891],[-0.86149,52.527926],[-0.861916,52.527242],[-0.861251,52.526779],[-0.860743,52.527044],[-0.860336,52.52669],[-0.859435,52.527212],[-0.859024,52.527094],[-0.858718,52.526219],[-0.859932,52.525986],[-0.858277,52.52562],[-0.858471,52.524511],[-0.857857,52.523913],[-0.856535,52.523909],[-0.856753,52.524341],[-0.856356,52.52444],[-0.855532,52.523863],[-0.855232,52.524225],[-0.85344,52.523721],[-0.853224,52.524129],[-0.851518,52.523642],[-0.851985,52.522981],[-0.851613,52.523126],[-0.850879,52.522603],[-0.850226,52.521666],[-0.849009,52.521766],[-0.849196,52.520964],[-0.848486,52.520834],[-0.848414,52.520272],[-0.847855,52.520402],[-0.847717,52.521374],[-0.846635,52.521279],[-0.845281,52.521707],[-0.84486,52.521188],[-0.846274,52.520385],[-0.845466,52.519366],[-0.84312,52.519589],[-0.842875,52.520227],[-0.842115,52.519531],[-0.840947,52.520556],[-0.840518,52.520129],[-0.839684,52.520194],[-0.840356,52.519103],[-0.839693,52.518582],[-0.838594,52.518364],[-0.838075,52.519088],[-0.837667,52.518763],[-0.83658,52.519273],[-0.83574,52.518937],[-0.834764,52.517886],[-0.833432,52.518382],[-0.833237,52.519311],[-0.832481,52.519359],[-0.831568,52.518853],[-0.831817,52.519592],[-0.831163,52.519487],[-0.831037,52.519065],[-0.830627,52.519459],[-0.830968,52.518809],[-0.830447,52.518306],[-0.829921,52.519078],[-0.828742,52.518624],[-0.829115,52.518265],[-0.828542,52.51784],[-0.826965,52.518387],[-0.827148,52.517212],[-0.825778,52.517127],[-0.824807,52.517795],[-0.822408,52.51799],[-0.822638,52.5175],[-0.821643,52.517495],[-0.821734,52.5168],[-0.820768,52.516671],[-0.820634,52.515746],[-0.820122,52.515541],[-0.818259,52.515549],[-0.817775,52.516112],[-0.816459,52.516433],[-0.814924,52.515541],[-0.81259,52.515952],[-0.812174,52.517394],[-0.811107,52.517853],[-0.81124,52.519095],[-0.810867,52.519367],[-0.808942,52.519252],[-0.808573,52.518456],[-0.806345,52.518495],[-0.804358,52.517583],[-0.803384,52.518145],[-0.803252,52.517729],[-0.803888,52.517573],[-0.803872,52.517196],[-0.801573,52.5166],[-0.801872,52.517256],[-0.800782,52.517235],[-0.80123,52.518066],[-0.800301,52.518034],[-0.800254,52.517681],[-0.798397,52.516872],[-0.797771,52.517033],[-0.796187,52.516409],[-0.795779,52.51593],[-0.796199,52.515716],[-0.795471,52.51528],[-0.793335,52.515427],[-0.788861,52.513689],[-0.787782,52.513712],[-0.788346,52.514745],[-0.787818,52.515086],[-0.787466,52.514544],[-0.786851,52.514672],[-0.786991,52.515515],[-0.783962,52.515587],[-0.784052,52.516065],[-0.78261,52.516474],[-0.781987,52.517235],[-0.780293,52.517022],[-0.779869,52.517794],[-0.779112,52.518107],[-0.777378,52.518004],[-0.776734,52.517579],[-0.776176,52.517816],[-0.775718,52.517306],[-0.7751,52.517533],[-0.775373,52.518053],[-0.774867,52.518276],[-0.772329,52.51607],[-0.770044,52.515389],[-0.767816,52.514244],[-0.766558,52.514413],[-0.766188,52.513356],[-0.761027,52.514186],[-0.759311,52.512008],[-0.758349,52.511249],[-0.757216,52.510949],[-0.755708,52.511102],[-0.754626,52.51187],[-0.751245,52.512176],[-0.751616,52.513147],[-0.750719,52.513264],[-0.75028,52.513864],[-0.749524,52.513803],[-0.749515,52.514499],[-0.748633,52.514336],[-0.747293,52.514844],[-0.747135,52.515759],[-0.747984,52.516244],[-0.747848,52.516547],[-0.746651,52.516876],[-0.744365,52.516211],[-0.742217,52.517028],[-0.739256,52.517454],[-0.739391,52.518634],[-0.733908,52.520474],[-0.730311,52.521261],[-0.73017,52.520873],[-0.729618,52.520911],[-0.730047,52.521916],[-0.726873,52.522754],[-0.726833,52.523164],[-0.725157,52.523169],[-0.725156,52.522821],[-0.723604,52.522641],[-0.723586,52.52237],[-0.716606,52.523008],[-0.716487,52.522595],[-0.71576,52.522344],[-0.715299,52.523194],[-0.713367,52.524534],[-0.713658,52.524964],[-0.711915,52.525702],[-0.711917,52.526046],[-0.710022,52.526581],[-0.70956,52.527738],[-0.707987,52.527913],[-0.707832,52.528568],[-0.708353,52.528747],[-0.708209,52.529188],[-0.708908,52.529279],[-0.708895,52.529814],[-0.706737,52.530161],[-0.707596,52.530528],[-0.70763,52.530843],[-0.706348,52.531213],[-0.706098,52.530636],[-0.705505,52.530935],[-0.705707,52.531242],[-0.704654,52.531127],[-0.704864,52.531654],[-0.703742,52.532197],[-0.702817,52.532251],[-0.702881,52.533183],[-0.701439,52.533552],[-0.701733,52.534574],[-0.700679,52.534472],[-0.699626,52.535687],[-0.700275,52.535741],[-0.700578,52.536394],[-0.699981,52.536753],[-0.700596,52.536829],[-0.700544,52.537346],[-0.701207,52.53727],[-0.70113,52.537677],[-0.700582,52.537902],[-0.700276,52.537607],[-0.699188,52.537734],[-0.698671,52.538656],[-0.697159,52.538329],[-0.69643,52.538546],[-0.696691,52.538971],[-0.697951,52.539365],[-0.69704,52.539816],[-0.696178,52.539738],[-0.696237,52.540097],[-0.698271,52.54098],[-0.699237,52.542261],[-0.696397,52.542357],[-0.697481,52.542955],[-0.697714,52.543857],[-0.696752,52.54421],[-0.698028,52.545307],[-0.697833,52.545702],[-0.696622,52.546327],[-0.693965,52.545366],[-0.693172,52.545898],[-0.69361,52.546456],[-0.692555,52.546869],[-0.691983,52.545544],[-0.689608,52.546333],[-0.688448,52.546137],[-0.688489,52.546763],[-0.687618,52.547],[-0.687201,52.547855],[-0.686376,52.547866],[-0.68587,52.548637],[-0.684755,52.548978],[-0.685977,52.549558],[-0.683599,52.552358],[-0.681829,52.551667],[-0.679734,52.553437],[-0.682306,52.553596],[-0.677563,52.558292],[-0.674864,52.558638],[-0.674319,52.559345],[-0.673106,52.558886],[-0.672663,52.559031],[-0.672644,52.560413],[-0.673577,52.560343],[-0.67383,52.560812],[-0.673083,52.561099],[-0.673309,52.56149],[-0.672101,52.561829],[-0.67186,52.562173],[-0.67138,52.562068],[-0.671547,52.562598],[-0.670469,52.562577],[-0.670764,52.563272],[-0.671881,52.563001],[-0.671287,52.564106],[-0.670359,52.564257],[-0.669862,52.563806],[-0.669591,52.56458],[-0.668941,52.564762],[-0.668539,52.565372],[-0.666277,52.566353],[-0.664115,52.56679],[-0.663202,52.566576],[-0.663043,52.567256],[-0.661931,52.567729],[-0.660913,52.568946],[-0.658616,52.568402],[-0.654513,52.570366],[-0.651587,52.570074],[-0.649346,52.570582],[-0.647956,52.571175],[-0.64746,52.572144],[-0.647732,52.572438],[-0.646697,52.572577],[-0.64674,52.573187],[-0.647309,52.5733],[-0.646896,52.573773],[-0.644923,52.573884],[-0.643712,52.573409],[-0.642993,52.573674],[-0.642233,52.573003],[-0.641655,52.572938],[-0.64062,52.571711],[-0.63895,52.571512],[-0.637848,52.571812],[-0.636273,52.572736],[-0.633426,52.573677],[-0.633582,52.574189],[-0.633012,52.574279],[-0.633452,52.574713],[-0.63292,52.575262],[-0.633977,52.575336],[-0.633017,52.575588],[-0.632508,52.57634],[-0.631294,52.576534],[-0.630582,52.576117],[-0.629564,52.576542],[-0.628103,52.576547],[-0.627769,52.577181],[-0.628393,52.577495],[-0.62781,52.578232],[-0.626027,52.578074],[-0.625158,52.578602],[-0.625502,52.578885],[-0.624835,52.57917],[-0.622037,52.579793],[-0.620033,52.579741],[-0.618908,52.581365],[-0.617585,52.581489],[-0.617819,52.58216],[-0.616504,52.582313],[-0.617174,52.583376],[-0.614012,52.584122],[-0.612726,52.583948],[-0.61188,52.584476],[-0.610777,52.584238],[-0.608503,52.584758],[-0.607476,52.585343],[-0.607426,52.585884],[-0.605474,52.586527],[-0.605025,52.587021],[-0.605178,52.587556],[-0.603849,52.587762],[-0.602969,52.588652],[-0.599915,52.588853],[-0.597758,52.58876],[-0.596888,52.588383],[-0.594286,52.588354],[-0.592009,52.587269],[-0.588743,52.586793],[-0.585406,52.588431],[-0.584184,52.589853],[-0.582752,52.593247],[-0.58407,52.593216],[-0.584515,52.593435],[-0.584387,52.593886],[-0.583757,52.595052],[-0.582807,52.595175],[-0.581479,52.595883],[-0.579162,52.595494],[-0.577549,52.593308],[-0.577955,52.591813],[-0.578316,52.591265],[-0.578976,52.591082],[-0.579184,52.590445],[-0.577861,52.590407],[-0.579001,52.589627],[-0.57846,52.589282],[-0.578767,52.588834],[-0.577956,52.587898],[-0.576782,52.587892],[-0.576509,52.587545],[-0.577004,52.587172],[-0.575568,52.586454],[-0.571904,52.585803],[-0.569943,52.58609],[-0.568565,52.585706],[-0.567769,52.586322],[-0.565282,52.586388],[-0.564475,52.585934],[-0.562518,52.586275],[-0.561624,52.587075],[-0.560642,52.588944],[-0.561044,52.591052],[-0.56053,52.591272],[-0.5617,52.592219],[-0.55994,52.593647],[-0.558081,52.594509],[-0.554071,52.594655],[-0.547217,52.593282],[-0.546718,52.592588],[-0.545174,52.593499],[-0.544176,52.592866],[-0.542647,52.594829],[-0.542978,52.595735],[-0.543612,52.596169],[-0.544427,52.596124],[-0.546149,52.597269],[-0.549032,52.598348],[-0.549308,52.5986],[-0.548937,52.598961],[-0.549372,52.599301],[-0.550548,52.599339],[-0.552425,52.600032],[-0.552938,52.601412],[-0.552139,52.602186],[-0.551232,52.604476],[-0.550219,52.604848],[-0.549599,52.6057],[-0.547559,52.606956],[-0.547655,52.607632],[-0.548476,52.60822],[-0.54847,52.609906],[-0.549331,52.611218],[-0.550055,52.611635],[-0.550131,52.612251],[-0.544933,52.614594],[-0.54462,52.615067],[-0.543781,52.614721],[-0.542936,52.614973],[-0.543024,52.61604],[-0.541541,52.616644],[-0.540633,52.617527],[-0.539057,52.617876],[-0.538885,52.618795],[-0.539554,52.619728],[-0.538063,52.621124],[-0.539118,52.623144],[-0.541158,52.62462],[-0.540261,52.625966],[-0.53851,52.627028],[-0.538114,52.627924],[-0.537422,52.627846],[-0.536948,52.627383],[-0.537314,52.626173],[-0.535638,52.627084],[-0.534553,52.628111],[-0.534687,52.628609],[-0.534086,52.628847],[-0.535639,52.629353],[-0.534984,52.630454],[-0.533844,52.630543],[-0.533512,52.631446],[-0.530893,52.632098],[-0.528852,52.631994],[-0.523631,52.634887],[-0.520754,52.637505],[-0.52083,52.638881],[-0.521433,52.639535],[-0.520729,52.640092],[-0.521078,52.640699],[-0.520082,52.641444],[-0.518349,52.641731],[-0.517203,52.642442],[-0.515723,52.642056],[-0.514697,52.6431],[-0.513478,52.64263],[-0.512714,52.642799],[-0.511969,52.643591],[-0.511331,52.643173]]]}}]}