{"type":"FeatureCollection","features":[{"type":"Feature","properties":{"slug":"north-devon","gss_code":"E07000043","name":"North Devon"},"geometry":{"type":"Polygon","coordinates":[[[-3.784073,51.245661],[-3.78429,51.245244],[-3.78248,51.243974],[-3.782461,51.243601],[-3.780975,51.242857],[-3.78079,51.24302],[-3.779723,51.241819],[-3.777826,51.241017],[-3.776079,51.23973],[-3.773265,51.238718],[-3.771242,51.238435],[-3.77103,51.238061],[-3.769779,51.237662],[-3.764558,51.23704],[-3.761914,51.237362],[-3.758552,51.237252],[-3.758277,51.237627],[-3.758142,51.237267],[-3.755429,51.236809],[-3.754976,51.237065],[-3.75482,51.236739],[-3.752668,51.236943],[-3.751206,51.236403],[-3.74904,51.236235],[-3.748229,51.236628],[-3.747808,51.236469],[-3.748067,51.236367],[-3.746911,51.236297],[-3.746768,51.235727],[-3.745196,51.235477],[-3.742165,51.235383],[-3.740406,51.235819],[-3.731409,51.23528],[-3.7277,51.235439],[-3.724194,51.234121],[-3.722679,51.233986],[-3.720824,51.233095],[-3.722023,51.232408],[-3.722511,51.231023],[-3.723119,51.230531],[-3.727067,51.229436],[-3.727318,51.22704],[-3.7267,51.225645],[-3.728304,51.225101],[-3.729253,51.223909],[-3.733201,51.222725],[-3.728737,51.218851],[-3.729046,51.216755],[-3.730887,51.216012],[-3.731573,51.215131],[-3.730824,51.213027],[-3.729412,51.211535],[-3.727735,51.208428],[-3.728463,51.207047],[-3.728484,51.205771],[-3.727987,51.20458],[-3.726372,51.202741],[-3.727068,51.201214],[-3.726211,51.199423],[-3.727008,51.197463],[-3.729,51.19463],[-3.732021,51.193622],[-3.732088,51.190969],[-3.72945,51.188296],[-3.726002,51.186355],[-3.724421,51.183921],[-3.72509,51.18247],[-3.723826,51.180727],[-3.726032,51.178934],[-3.728061,51.178728],[-3.728748,51.178125],[-3.730185,51.178041],[-3.732851,51.177066],[-3.735492,51.176949],[-3.738099,51.177329],[-3.738539,51.177059],[-3.739589,51.177112],[-3.742115,51.175972],[-3.745875,51.175557],[-3.751179,51.17709],[-3.7573,51.17731],[-3.777182,51.173507],[-3.78211,51.17228],[-3.786303,51.171927],[-3.793381,51.17275],[-3.79599,51.174544],[-3.806267,51.177873],[-3.811889,51.177632],[-3.815569,51.178504],[-3.817519,51.17853],[-3.824358,51.176115],[-3.83228,51.177563],[-3.838447,51.177098],[-3.839821,51.176674],[-3.838923,51.174959],[-3.837496,51.167358],[-3.836463,51.165038],[-3.835351,51.154107],[-3.832069,51.151186],[-3.834472,51.144859],[-3.834738,51.141383],[-3.834102,51.140197],[-3.834491,51.138381],[-3.831149,51.135377],[-3.82525,51.131249],[-3.822115,51.126954],[-3.816409,51.122665],[-3.813727,51.121049],[-3.807176,51.117919],[-3.804289,51.115685],[-3.797501,51.114076],[-3.791437,51.111371],[-3.787035,51.110168],[-3.780121,51.107705],[-3.776909,51.106935],[-3.767395,51.105783],[-3.75755,51.100539],[-3.750874,51.095128],[-3.745491,51.092536],[-3.741344,51.089852],[-3.73863,51.088683],[-3.730048,51.086777],[-3.722468,51.082901],[-3.719947,51.080821],[-3.714907,51.080177],[-3.70925,51.080688],[-3.704326,51.080406],[-3.701518,51.080757],[-3.697859,51.080389],[-3.696499,51.080958],[-3.695042,51.081071],[-3.694308,51.080609],[-3.692445,51.080559],[-3.688774,51.078444],[-3.687298,51.076167],[-3.685629,51.075148],[-3.684189,51.074763],[-3.684161,51.074389],[-3.682368,51.073354],[-3.679639,51.072714],[-3.675633,51.07282],[-3.672805,51.071193],[-3.669833,51.070398],[-3.666384,51.070191],[-3.664919,51.0695],[-3.664799,51.067631],[-3.664337,51.067154],[-3.659186,51.06616],[-3.658232,51.065569],[-3.656201,51.065074],[-3.653358,51.06498],[-3.650289,51.064076],[-3.65088,51.0616],[-3.652311,51.060395],[-3.652331,51.059642],[-3.649826,51.059415],[-3.648836,51.058564],[-3.645411,51.057877],[-3.642448,51.058537],[-3.63997,51.057819],[-3.638072,51.056626],[-3.635354,51.056297],[-3.633655,51.057017],[-3.631279,51.059523],[-3.62809,51.059783],[-3.624304,51.061239],[-3.61935,51.059962],[-3.614693,51.056567],[-3.613053,51.056107],[-3.612413,51.056217],[-3.611222,51.05758],[-3.61033,51.057947],[-3.607585,51.057314],[-3.604845,51.057564],[-3.603831,51.057077],[-3.602959,51.055784],[-3.601429,51.055398],[-3.596875,51.055918],[-3.594471,51.055195],[-3.594859,51.05489],[-3.596119,51.054794],[-3.596658,51.053679],[-3.597609,51.053447],[-3.599831,51.051686],[-3.600286,51.050607],[-3.599941,51.047594],[-3.599172,51.046285],[-3.598295,51.042584],[-3.597549,51.041671],[-3.598222,51.040549],[-3.598215,51.037033],[-3.602518,51.03273],[-3.602783,51.029949],[-3.610913,51.024435],[-3.611276,51.023608],[-3.61084,51.021875],[-3.611926,51.018836],[-3.614701,51.01555],[-3.614263,51.013823],[-3.614706,51.012739],[-3.612086,51.011714],[-3.610688,51.01072],[-3.610109,51.009988],[-3.610185,51.008691],[-3.609746,51.007983],[-3.603208,51.007233],[-3.605767,51.006056],[-3.607361,51.004444],[-3.606225,51.003338],[-3.604309,51.002329],[-3.603871,51.001321],[-3.601904,51.000357],[-3.601783,50.999666],[-3.60051,50.99866],[-3.598778,50.995661],[-3.599936,50.99517],[-3.599715,50.994915],[-3.600532,50.9935],[-3.600462,50.992021],[-3.602008,50.991064],[-3.605118,50.990224],[-3.606843,50.99074],[-3.606581,50.991569],[-3.60763,50.992771],[-3.606002,50.993879],[-3.605327,50.994922],[-3.611789,50.994809],[-3.611733,50.995245],[-3.614599,50.998871],[-3.620042,51.000622],[-3.62287,51.004998],[-3.628816,51.005774],[-3.628744,50.999759],[-3.627829,50.995664],[-3.626652,50.994594],[-3.627237,50.994485],[-3.627899,50.993637],[-3.628743,50.991523],[-3.628665,50.989223],[-3.623006,50.983355],[-3.620079,50.978621],[-3.619604,50.97861],[-3.619997,50.974356],[-3.619609,50.968173],[-3.618248,50.968356],[-3.616653,50.967489],[-3.615424,50.967272],[-3.611123,50.968593],[-3.609232,50.968048],[-3.605926,50.967777],[-3.604112,50.967875],[-3.60173,50.96853],[-3.60028,50.967634],[-3.597847,50.96721],[-3.598783,50.966142],[-3.599082,50.965006],[-3.600838,50.963712],[-3.600483,50.963447],[-3.601394,50.962312],[-3.601642,50.960918],[-3.600698,50.959075],[-3.601138,50.956239],[-3.600878,50.955321],[-3.59844,50.954953],[-3.598795,50.954083],[-3.59805,50.952638],[-3.598051,50.950346],[-3.595909,50.946724],[-3.595764,50.945154],[-3.5962,50.943797],[-3.598742,50.94085],[-3.603036,50.936942],[-3.606136,50.93495],[-3.608363,50.933017],[-3.609472,50.931576],[-3.610504,50.928743],[-3.612634,50.926582],[-3.614314,50.926382],[-3.615139,50.925104],[-3.617208,50.924357],[-3.619329,50.922501],[-3.620585,50.921912],[-3.625356,50.921552],[-3.627487,50.919587],[-3.632569,50.919875],[-3.634202,50.918795],[-3.640871,50.918004],[-3.642923,50.921252],[-3.643811,50.921824],[-3.650124,50.921653],[-3.654166,50.92089],[-3.658509,50.92055],[-3.665604,50.920541],[-3.673656,50.918972],[-3.675808,50.918025],[-3.676699,50.918036],[-3.677264,50.917507],[-3.681091,50.916788],[-3.686921,50.914926],[-3.693033,50.914244],[-3.69853,50.913001],[-3.697692,50.910608],[-3.703484,50.91101],[-3.706346,50.910746],[-3.708461,50.911393],[-3.712628,50.911436],[-3.717081,50.910522],[-3.719205,50.910602],[-3.720346,50.910268],[-3.720777,50.910578],[-3.72512,50.909957],[-3.72562,50.909741],[-3.725582,50.909072],[-3.728058,50.910765],[-3.728388,50.909962],[-3.729235,50.910182],[-3.729695,50.90774],[-3.731523,50.907085],[-3.732034,50.906096],[-3.734491,50.90508],[-3.735055,50.903231],[-3.736245,50.902598],[-3.736035,50.901674],[-3.73702,50.901116],[-3.737032,50.90037],[-3.735738,50.89853],[-3.735886,50.89635],[-3.734907,50.895611],[-3.734854,50.894532],[-3.733734,50.892283],[-3.734684,50.89066],[-3.735446,50.890097],[-3.738821,50.890859],[-3.744806,50.890303],[-3.743458,50.889681],[-3.742637,50.888816],[-3.740575,50.888248],[-3.740333,50.887432],[-3.74075,50.88708],[-3.742735,50.886911],[-3.74439,50.886347],[-3.74478,50.885638],[-3.749411,50.882467],[-3.749928,50.881031],[-3.749424,50.880046],[-3.749744,50.879331],[-3.749466,50.878451],[-3.750773,50.877901],[-3.751347,50.878015],[-3.751572,50.877649],[-3.753161,50.877253],[-3.753583,50.876814],[-3.755125,50.876464],[-3.760841,50.876812],[-3.75995,50.880184],[-3.762306,50.88304],[-3.764962,50.885574],[-3.767068,50.888344],[-3.76832,50.888807],[-3.768088,50.889003],[-3.774618,50.889726],[-3.774584,50.891522],[-3.77516,50.89232],[-3.777494,50.893463],[-3.779484,50.893995],[-3.781176,50.897237],[-3.782838,50.898822],[-3.781529,50.900735],[-3.782019,50.901613],[-3.783321,50.902483],[-3.78516,50.902147],[-3.785737,50.902469],[-3.787141,50.902448],[-3.78913,50.903744],[-3.790642,50.903899],[-3.793565,50.903301],[-3.79435,50.902137],[-3.79539,50.901972],[-3.795332,50.901463],[-3.798697,50.901218],[-3.801119,50.901895],[-3.802453,50.902732],[-3.806042,50.902725],[-3.807204,50.903511],[-3.809024,50.90412],[-3.812936,50.904555],[-3.814771,50.902993],[-3.815342,50.902918],[-3.815164,50.901863],[-3.816997,50.901778],[-3.818342,50.90302],[-3.818123,50.904301],[-3.817733,50.904874],[-3.816029,50.905774],[-3.816002,50.906564],[-3.815429,50.906951],[-3.814207,50.90939],[-3.81127,50.911639],[-3.813402,50.913165],[-3.817079,50.914105],[-3.816835,50.914583],[-3.820971,50.91429],[-3.823385,50.913489],[-3.821953,50.91224],[-3.823515,50.91135],[-3.824837,50.910034],[-3.827132,50.908817],[-3.827437,50.90739],[-3.829098,50.906991],[-3.830548,50.907045],[-3.830037,50.907326],[-3.83037,50.90754],[-3.831682,50.907223],[-3.83175,50.907736],[-3.832761,50.907826],[-3.832918,50.90818],[-3.83398,50.908181],[-3.834294,50.90864],[-3.837429,50.907685],[-3.839692,50.908086],[-3.839142,50.90849],[-3.840879,50.907898],[-3.843311,50.908216],[-3.84452,50.907877],[-3.844853,50.908293],[-3.846269,50.908589],[-3.847454,50.908289],[-3.846912,50.908101],[-3.847387,50.907816],[-3.848882,50.908395],[-3.852589,50.908175],[-3.85428,50.907958],[-3.856129,50.90721],[-3.856701,50.907608],[-3.856988,50.907221],[-3.857232,50.907391],[-3.858294,50.90689],[-3.860265,50.906745],[-3.862128,50.907073],[-3.862364,50.907428],[-3.86543,50.908641],[-3.867722,50.909262],[-3.869273,50.909315],[-3.873901,50.907908],[-3.874751,50.907967],[-3.875579,50.90673],[-3.878575,50.906149],[-3.880409,50.906311],[-3.881754,50.906788],[-3.883599,50.906713],[-3.884956,50.907404],[-3.886869,50.9075],[-3.887636,50.907112],[-3.887773,50.907619],[-3.888452,50.907996],[-3.889425,50.907558],[-3.889926,50.908003],[-3.890761,50.907751],[-3.890974,50.907045],[-3.892245,50.907864],[-3.893173,50.907354],[-3.894046,50.9077],[-3.894932,50.906752],[-3.895652,50.906865],[-3.89729,50.906217],[-3.89817,50.906197],[-3.897499,50.905887],[-3.897904,50.90568],[-3.898752,50.90645],[-3.899625,50.905999],[-3.899316,50.905528],[-3.900614,50.906045],[-3.900786,50.905525],[-3.899878,50.905077],[-3.901724,50.90347],[-3.902744,50.903488],[-3.902916,50.904172],[-3.904158,50.905087],[-3.904438,50.906665],[-3.904048,50.908193],[-3.905045,50.909455],[-3.90378,50.910459],[-3.903773,50.911816],[-3.902116,50.912826],[-3.90241,50.913171],[-3.903761,50.913469],[-3.903481,50.915008],[-3.902342,50.916206],[-3.903543,50.916542],[-3.903764,50.915874],[-3.904805,50.915343],[-3.905766,50.916545],[-3.90594,50.917621],[-3.904792,50.918426],[-3.903258,50.917943],[-3.902521,50.918175],[-3.903483,50.919456],[-3.901989,50.920914],[-3.902805,50.922971],[-3.901201,50.923875],[-3.901382,50.924221],[-3.902709,50.924693],[-3.901843,50.925409],[-3.901975,50.925913],[-3.904417,50.927398],[-3.905115,50.92755],[-3.906088,50.927282],[-3.905466,50.927018],[-3.905774,50.926432],[-3.905184,50.926453],[-3.9045,50.925475],[-3.904479,50.92517],[-3.905323,50.924934],[-3.907258,50.924841],[-3.908655,50.925382],[-3.9098,50.924615],[-3.910349,50.924834],[-3.910428,50.924438],[-3.913005,50.924214],[-3.914389,50.924412],[-3.915244,50.923887],[-3.915875,50.924193],[-3.918335,50.924178],[-3.91962,50.923931],[-3.921292,50.922983],[-3.92274,50.922974],[-3.922764,50.923231],[-3.923725,50.923409],[-3.923604,50.92305],[-3.924499,50.923166],[-3.924396,50.922836],[-3.927106,50.92285],[-3.928413,50.922388],[-3.929143,50.922751],[-3.929778,50.922303],[-3.930252,50.922565],[-3.930769,50.922324],[-3.931458,50.922476],[-3.931994,50.922254],[-3.931527,50.921842],[-3.93291,50.921765],[-3.933143,50.921513],[-3.936951,50.921642],[-3.939172,50.920633],[-3.94097,50.920932],[-3.940992,50.920332],[-3.94291,50.920134],[-3.945811,50.918804],[-3.948974,50.918803],[-3.948888,50.918482],[-3.949387,50.918668],[-3.949726,50.918283],[-3.952513,50.918164],[-3.952768,50.917842],[-3.954206,50.917689],[-3.954975,50.918832],[-3.957501,50.920426],[-3.958703,50.921007],[-3.960102,50.920777],[-3.963582,50.921703],[-3.965403,50.922671],[-3.966819,50.924],[-3.97711,50.925485],[-3.978254,50.925955],[-3.978963,50.92568],[-3.97871,50.925264],[-3.981606,50.926301],[-3.988075,50.92651],[-3.995952,50.925569],[-3.996655,50.925979],[-3.996955,50.928305],[-3.998084,50.930811],[-3.996103,50.934033],[-3.997749,50.935622],[-3.993281,50.936902],[-3.993954,50.939021],[-3.995979,50.941699],[-3.995121,50.942873],[-3.994988,50.944959],[-3.994124,50.946431],[-3.994288,50.94794],[-3.993894,50.948426],[-3.991341,50.949309],[-3.990464,50.949929],[-3.989565,50.949937],[-3.989046,50.950649],[-3.984585,50.952452],[-3.980109,50.953126],[-3.978523,50.952469],[-3.976748,50.952809],[-3.974521,50.953842],[-3.973303,50.953423],[-3.971521,50.953338],[-3.967108,50.954418],[-3.96366,50.954431],[-3.961684,50.955249],[-3.960881,50.956141],[-3.964037,50.957205],[-3.965678,50.958209],[-3.966552,50.959725],[-3.96625,50.961428],[-3.96492,50.963337],[-3.963745,50.964215],[-3.960614,50.965609],[-3.958089,50.965748],[-3.957365,50.966207],[-3.956998,50.966835],[-3.958152,50.96895],[-3.957942,50.970203],[-3.958416,50.971697],[-3.957879,50.972241],[-3.953337,50.974364],[-3.952601,50.975948],[-3.952874,50.976567],[-3.954403,50.97745],[-3.958249,50.977769],[-3.958444,50.978486],[-3.957854,50.980745],[-3.958088,50.981335],[-3.958752,50.981635],[-3.961082,50.981072],[-3.961435,50.979706],[-3.960722,50.978942],[-3.962563,50.978897],[-3.965387,50.980479],[-3.967701,50.980873],[-3.970185,50.98067],[-3.973166,50.982026],[-3.974237,50.982019],[-3.975772,50.980672],[-3.976552,50.980547],[-3.980602,50.981013],[-3.983698,50.982111],[-3.985615,50.980327],[-3.988092,50.979497],[-3.989944,50.978288],[-3.990734,50.975785],[-3.991748,50.974402],[-3.992799,50.97449],[-3.999847,50.972659],[-4.001232,50.97264],[-4.003858,50.97194],[-4.006092,50.972777],[-4.006487,50.972453],[-4.004924,50.969525],[-4.007419,50.968875],[-4.010308,50.967534],[-4.011822,50.967389],[-4.012934,50.967755],[-4.013054,50.96808],[-4.014627,50.968254],[-4.015641,50.968743],[-4.018533,50.968671],[-4.020014,50.969452],[-4.020277,50.9699],[-4.019696,50.971043],[-4.019727,50.97209],[-4.023075,50.973243],[-4.024856,50.973434],[-4.026562,50.974399],[-4.027945,50.976099],[-4.028064,50.976983],[-4.029069,50.977039],[-4.030581,50.978362],[-4.031466,50.978331],[-4.031449,50.978586],[-4.033084,50.97898],[-4.033092,50.979345],[-4.03439,50.979776],[-4.03429,50.980231],[-4.03566,50.980841],[-4.036244,50.981579],[-4.035732,50.982169],[-4.036244,50.982319],[-4.036475,50.9835],[-4.037535,50.985188],[-4.037368,50.98597],[-4.036799,50.986316],[-4.037138,50.986996],[-4.036814,50.987917],[-4.036955,50.988248],[-4.037375,50.988152],[-4.03638,50.989735],[-4.03571,50.990045],[-4.035798,50.990406],[-4.035357,50.990417],[-4.035487,50.991815],[-4.035128,50.991988],[-4.03555,50.992525],[-4.036038,50.992495],[-4.035871,50.992847],[-4.036522,50.993292],[-4.035879,50.993816],[-4.03622,50.994609],[-4.036858,50.994523],[-4.037315,50.99513],[-4.036035,50.995658],[-4.035384,50.996925],[-4.033571,50.997089],[-4.033713,50.999039],[-4.032818,51.002843],[-4.0343,51.007621],[-4.03791,51.007548],[-4.04365,51.008177],[-4.045831,51.007604],[-4.047355,51.009605],[-4.048008,51.008788],[-4.049252,51.008369],[-4.057448,51.008322],[-4.06398,51.01031],[-4.064223,51.009522],[-4.065395,51.009533],[-4.066092,51.008954],[-4.069108,51.008429],[-4.079254,51.008689],[-4.080533,51.007011],[-4.080946,51.00518],[-4.079411,51.003251],[-4.077902,51.002674],[-4.078148,51.002564],[-4.079249,51.002463],[-4.081275,51.002948],[-4.082202,51.002672],[-4.087955,51.002961],[-4.090842,51.003795],[-4.093575,51.003772],[-4.093879,51.005436],[-4.094369,51.006022],[-4.096385,51.00673],[-4.097064,51.008442],[-4.098248,51.009593],[-4.106587,51.010275],[-4.107021,51.010892],[-4.108812,51.010802],[-4.109974,51.010978],[-4.109811,51.011138],[-4.116319,51.010428],[-4.119249,51.011418],[-4.119618,51.011222],[-4.119131,51.010413],[-4.120963,51.010894],[-4.120205,51.01166],[-4.119522,51.014283],[-4.117484,51.015453],[-4.116049,51.016886],[-4.115911,51.019128],[-4.122121,51.0194],[-4.12425,51.020181],[-4.127513,51.020658],[-4.132504,51.020194],[-4.135212,51.020678],[-4.136208,51.019038],[-4.13836,51.018412],[-4.139734,51.017509],[-4.142683,51.017011],[-4.142264,51.017866],[-4.144146,51.018511],[-4.148502,51.018774],[-4.149595,51.016538],[-4.1514,51.016372],[-4.151434,51.016057],[-4.154398,51.015992],[-4.155006,51.014374],[-4.158199,51.014711],[-4.158795,51.014469],[-4.164271,51.014481],[-4.166171,51.014531],[-4.167402,51.015228],[-4.168245,51.016812],[-4.169378,51.017853],[-4.171041,51.018311],[-4.172294,51.019053],[-4.172951,51.020748],[-4.173872,51.021586],[-4.174413,51.022787],[-4.1758,51.023192],[-4.175791,51.023461],[-4.177301,51.023264],[-4.177357,51.023587],[-4.178014,51.023707],[-4.178212,51.023414],[-4.17873,51.023441],[-4.178202,51.023855],[-4.178395,51.024316],[-4.179738,51.023891],[-4.179291,51.023227],[-4.181081,51.022226],[-4.182256,51.022394],[-4.182587,51.023212],[-4.184379,51.023299],[-4.184659,51.023022],[-4.183981,51.022933],[-4.183925,51.021727],[-4.185389,51.021092],[-4.185887,51.021092],[-4.186659,51.021928],[-4.186114,51.022502],[-4.186278,51.023459],[-4.186721,51.023575],[-4.188292,51.02289],[-4.187858,51.022393],[-4.187173,51.022276],[-4.187461,51.021553],[-4.188066,51.021314],[-4.190171,51.021464],[-4.191358,51.021001],[-4.192006,51.021262],[-4.193187,51.020719],[-4.194543,51.020725],[-4.19625,51.021526],[-4.195883,51.022038],[-4.196428,51.022377],[-4.197701,51.021147],[-4.198189,51.021252],[-4.198382,51.021368],[-4.197833,51.021577],[-4.197288,51.022605],[-4.197031,51.024211],[-4.198924,51.026692],[-4.199211,51.027822],[-4.199226,51.028764],[-4.19899,51.027367],[-4.198807,51.026978],[-4.199,51.027725],[-4.198533,51.027743],[-4.19903,51.027841],[-4.199002,51.029148],[-4.198185,51.029227],[-4.19899,51.029209],[-4.198959,51.029942],[-4.198865,51.03014],[-4.197868,51.02985],[-4.198858,51.030305],[-4.198274,51.03035],[-4.198812,51.030535],[-4.198291,51.030612],[-4.198756,51.030704],[-4.198132,51.031086],[-4.198638,51.031078],[-4.198505,51.031704],[-4.197947,51.031575],[-4.198369,51.032089],[-4.197889,51.032041],[-4.198323,51.032131],[-4.197855,51.03235],[-4.198149,51.032445],[-4.197738,51.032868],[-4.197372,51.032812],[-4.19775,51.032917],[-4.198307,51.032267],[-4.199121,51.030183],[-4.198533,51.032191],[-4.197613,51.033267],[-4.198069,51.033556],[-4.195219,51.035206],[-4.191464,51.036425],[-4.188252,51.038168],[-4.186933,51.039693],[-4.185981,51.041709],[-4.182662,51.044599],[-4.180307,51.047735],[-4.180811,51.047976],[-4.179719,51.04874],[-4.179404,51.0501],[-4.181487,51.051161],[-4.182366,51.051153],[-4.181751,51.054277],[-4.181994,51.05603],[-4.180144,51.059045],[-4.179941,51.060756],[-4.180615,51.06117],[-4.179853,51.061791],[-4.180568,51.062385],[-4.179234,51.062786],[-4.178751,51.06352],[-4.179638,51.065551],[-4.180726,51.065799],[-4.180686,51.066516],[-4.179522,51.067698],[-4.178554,51.068151],[-4.174097,51.06902],[-4.173818,51.068784],[-4.171665,51.06967],[-4.171651,51.069967],[-4.17275,51.070002],[-4.173417,51.070687],[-4.172106,51.071998],[-4.170153,51.072853],[-4.165651,51.073988],[-4.164357,51.074736],[-4.162166,51.074398],[-4.161288,51.073833],[-4.159858,51.073637],[-4.159825,51.073283],[-4.159715,51.073582],[-4.158453,51.073283],[-4.15841,51.073063],[-4.15884,51.073169],[-4.158743,51.072394],[-4.159463,51.072254],[-4.159447,51.072717],[-4.160127,51.072495],[-4.15952,51.072217],[-4.160224,51.072465],[-4.160097,51.072161],[-4.16056,51.072378],[-4.160205,51.072172],[-4.160889,51.072144],[-4.160193,51.072094],[-4.160187,51.071647],[-4.161059,51.071803],[-4.160291,51.071497],[-4.16077,51.071578],[-4.161192,51.071148],[-4.159183,51.071561],[-4.159849,51.071882],[-4.159378,51.071998],[-4.159237,51.071739],[-4.159285,51.072016],[-4.158154,51.072209],[-4.158584,51.072816],[-4.158028,51.072794],[-4.157885,51.073508],[-4.157298,51.073325],[-4.157472,51.073472],[-4.15662,51.073584],[-4.156445,51.073286],[-4.156003,51.073368],[-4.156158,51.073031],[-4.155541,51.073342],[-4.155856,51.073508],[-4.155203,51.073487],[-4.154873,51.073282],[-4.155189,51.073161],[-4.154333,51.073193],[-4.154337,51.07283],[-4.154304,51.073222],[-4.154437,51.073271],[-4.153792,51.073246],[-4.154192,51.072778],[-4.153856,51.072565],[-4.15381,51.072891],[-4.153407,51.07286],[-4.15379,51.072924],[-4.153379,51.07303],[-4.153672,51.073246],[-4.151722,51.073485],[-4.152792,51.074642],[-4.152958,51.074267],[-4.153608,51.074375],[-4.154065,51.074607],[-4.153589,51.075035],[-4.15447,51.075556],[-4.155484,51.075626],[-4.155147,51.076599],[-4.154298,51.076778],[-4.154606,51.077291],[-4.154026,51.077711],[-4.154969,51.079436],[-4.153077,51.080131],[-4.146251,51.079979],[-4.142709,51.079178],[-4.139225,51.079621],[-4.136164,51.078516],[-4.132772,51.078427],[-4.129629,51.077567],[-4.12769,51.077832],[-4.126935,51.078304],[-4.125778,51.078325],[-4.12346,51.079245],[-4.122965,51.078509],[-4.123347,51.07774],[-4.123028,51.077169],[-4.118537,51.074286],[-4.116647,51.074378],[-4.117147,51.074159],[-4.11467,51.073833],[-4.114555,51.074036],[-4.114219,51.073475],[-4.114396,51.073092],[-4.113893,51.07345],[-4.113149,51.072935],[-4.112057,51.073204],[-4.111871,51.072934],[-4.110903,51.072846],[-4.111894,51.072977],[-4.111965,51.073244],[-4.112944,51.073106],[-4.1146,51.074574],[-4.118824,51.075458],[-4.119749,51.076458],[-4.121904,51.077657],[-4.121866,51.078488],[-4.122304,51.078713],[-4.120497,51.08025],[-4.118077,51.081534],[-4.117946,51.082919],[-4.118884,51.087656],[-4.118666,51.08889],[-4.117855,51.089884],[-4.117748,51.089477],[-4.117213,51.088936],[-4.115967,51.088379],[-4.117683,51.089478],[-4.117645,51.089752],[-4.116374,51.089672],[-4.11766,51.089839],[-4.114651,51.090024],[-4.114254,51.089905],[-4.114476,51.089684],[-4.114225,51.08978],[-4.114216,51.089912],[-4.114297,51.089953],[-4.113172,51.089684],[-4.113005,51.089276],[-4.112804,51.089289],[-4.111378,51.088507],[-4.111959,51.088095],[-4.112405,51.088268],[-4.112841,51.08833],[-4.112837,51.088036],[-4.113241,51.088032],[-4.11341,51.087905],[-4.112458,51.08743],[-4.112231,51.086322],[-4.112415,51.087447],[-4.113324,51.087925],[-4.112817,51.088005],[-4.112692,51.088294],[-4.112004,51.088044],[-4.111048,51.088301],[-4.110455,51.087765],[-4.111144,51.087383],[-4.110339,51.087712],[-4.109898,51.087098],[-4.110387,51.086756],[-4.109875,51.087045],[-4.107783,51.085057],[-4.108898,51.085104],[-4.110815,51.085979],[-4.109465,51.085265],[-4.109611,51.085017],[-4.109137,51.085147],[-4.108275,51.0844],[-4.107457,51.084219],[-4.107655,51.083875],[-4.107411,51.084211],[-4.108263,51.084426],[-4.108726,51.085004],[-4.107756,51.084805],[-4.107783,51.08534],[-4.105455,51.084305],[-4.106483,51.083671],[-4.10567,51.082752],[-4.106324,51.08235],[-4.107776,51.082878],[-4.106331,51.08232],[-4.105345,51.082801],[-4.104261,51.081563],[-4.103129,51.081197],[-4.102986,51.081372],[-4.104182,51.081552],[-4.105034,51.082752],[-4.104389,51.082259],[-4.102943,51.081845],[-4.100507,51.081595],[-4.104368,51.08229],[-4.104508,51.082903],[-4.105953,51.083102],[-4.106359,51.083729],[-4.105234,51.084216],[-4.102851,51.08334],[-4.103135,51.082928],[-4.102716,51.083286],[-4.098846,51.082942],[-4.099374,51.082313],[-4.098563,51.082939],[-4.097813,51.082805],[-4.097892,51.082512],[-4.097692,51.082798],[-4.094509,51.082513],[-4.095294,51.08255],[-4.095108,51.08231],[-4.095975,51.082183],[-4.096829,51.081311],[-4.097696,51.081462],[-4.096755,51.081208],[-4.095544,51.081146],[-4.096625,51.081343],[-4.095938,51.082121],[-4.094879,51.082141],[-4.095106,51.082502],[-4.091873,51.082063],[-4.092114,51.081781],[-4.092491,51.082001],[-4.092954,51.081966],[-4.091932,51.081507],[-4.090878,51.081563],[-4.090583,51.081208],[-4.090246,51.081467],[-4.089705,51.081194],[-4.089817,51.081487],[-4.087143,51.079934],[-4.089404,51.080226],[-4.086895,51.079864],[-4.085108,51.078546],[-4.076243,51.076851],[-4.073422,51.077195],[-4.073283,51.07679],[-4.07334,51.077217],[-4.07084,51.077872],[-4.070385,51.077322],[-4.070798,51.077895],[-4.066925,51.079175],[-4.069782,51.078382],[-4.067837,51.079273],[-4.06628,51.079397],[-4.064573,51.078919],[-4.056393,51.074955],[-4.055742,51.073115],[-4.054799,51.071901],[-4.057046,51.06952],[-4.057204,51.068455],[-4.056741,51.067549],[-4.054746,51.065722],[-4.054107,51.064269],[-4.053996,51.062493],[-4.054465,51.060736],[-4.056268,51.058138],[-4.057576,51.057885],[-4.056307,51.058074],[-4.05602,51.056964],[-4.05085,51.053999],[-4.052925,51.052345],[-4.051902,51.051641],[-4.05204,51.050359],[-4.051029,51.048109],[-4.050586,51.044948],[-4.050016,51.04346],[-4.049841,51.043872],[-4.049694,51.043528],[-4.049407,51.043711],[-4.050216,51.044814],[-4.050625,51.048022],[-4.051643,51.050337],[-4.051365,51.051298],[-4.052248,51.052729],[-4.050737,51.053354],[-4.05019,51.053268],[-4.049616,51.053475],[-4.049418,51.053135],[-4.048947,51.052997],[-4.047342,51.053323],[-4.049026,51.053054],[-4.049602,51.053533],[-4.050604,51.053397],[-4.050356,51.05411],[-4.053207,51.05603],[-4.05526,51.056859],[-4.055992,51.057595],[-4.053681,51.061212],[-4.053375,51.064637],[-4.053766,51.065426],[-4.056551,51.068416],[-4.056299,51.069447],[-4.054706,51.070577],[-4.054025,51.07168],[-4.05534,51.074991],[-4.060161,51.078313],[-4.066876,51.081112],[-4.066301,51.081506],[-4.063227,51.08219],[-4.061148,51.083511],[-4.061057,51.083877],[-4.063201,51.084068],[-4.063615,51.084549],[-4.063332,51.084975],[-4.061675,51.084933],[-4.059986,51.085776],[-4.050535,51.087359],[-4.049008,51.087121],[-4.05059,51.087423],[-4.058652,51.086163],[-4.060138,51.08581],[-4.061772,51.085052],[-4.063382,51.085076],[-4.063747,51.084529],[-4.063376,51.084048],[-4.061339,51.083863],[-4.061298,51.083552],[-4.063343,51.082345],[-4.066019,51.081801],[-4.067138,51.081186],[-4.069504,51.081291],[-4.073414,51.080466],[-4.073591,51.080789],[-4.073757,51.08054],[-4.076459,51.081583],[-4.073957,51.080571],[-4.074059,51.080299],[-4.075476,51.080019],[-4.076684,51.080404],[-4.079742,51.082363],[-4.081908,51.083141],[-4.077481,51.082298],[-4.084897,51.084043],[-4.088219,51.085796],[-4.096184,51.087465],[-4.099174,51.088651],[-4.099137,51.089279],[-4.099368,51.088789],[-4.101974,51.090196],[-4.104879,51.092498],[-4.106784,51.09322],[-4.107211,51.093678],[-4.112942,51.094444],[-4.118907,51.094629],[-4.128702,51.093475],[-4.128824,51.09191],[-4.12827,51.091472],[-4.129264,51.089788],[-4.129271,51.087988],[-4.131186,51.08655],[-4.133136,51.085838],[-4.146551,51.083728],[-4.149844,51.084447],[-4.152174,51.085342],[-4.157129,51.085391],[-4.159555,51.08505],[-4.162104,51.083811],[-4.163746,51.083577],[-4.16591,51.084713],[-4.168971,51.087509],[-4.167159,51.090628],[-4.167688,51.092069],[-4.167552,51.093344],[-4.164482,51.09791],[-4.164523,51.099945],[-4.163914,51.10051],[-4.162732,51.100701],[-4.164238,51.100478],[-4.164725,51.099961],[-4.16498,51.098237],[-4.165419,51.098194],[-4.165022,51.097963],[-4.165398,51.096761],[-4.168863,51.092657],[-4.16919,51.091444],[-4.169014,51.091268],[-4.168838,51.091713],[-4.168377,51.090916],[-4.169204,51.090719],[-4.170253,51.08843],[-4.170977,51.087944],[-4.170864,51.087224],[-4.167041,51.084185],[-4.167678,51.082198],[-4.167597,51.081589],[-4.166977,51.081102],[-4.167286,51.080589],[-4.166597,51.080471],[-4.173288,51.079329],[-4.185473,51.076162],[-4.188003,51.073022],[-4.190756,51.071327],[-4.191199,51.070877],[-4.190908,51.070581],[-4.191788,51.070094],[-4.191571,51.069395],[-4.190792,51.069277],[-4.19026,51.067782],[-4.188367,51.068076],[-4.187721,51.067884],[-4.188188,51.066805],[-4.18983,51.066066],[-4.192962,51.06714],[-4.198772,51.070034],[-4.205788,51.071512],[-4.209485,51.073531],[-4.213081,51.074728],[-4.217435,51.076803],[-4.218558,51.078059],[-4.220081,51.082189],[-4.22229,51.085225],[-4.223227,51.087444],[-4.223045,51.101315],[-4.22185,51.112079],[-4.222454,51.117695],[-4.224064,51.117759],[-4.225815,51.118426],[-4.228587,51.118268],[-4.231153,51.11889],[-4.231962,51.118718],[-4.233098,51.119197],[-4.234819,51.119059],[-4.235151,51.119142],[-4.234578,51.119152],[-4.234682,51.119428],[-4.238976,51.120075],[-4.23723,51.120253],[-4.239293,51.120254],[-4.239876,51.120547],[-4.239165,51.120612],[-4.240374,51.12059],[-4.239336,51.120678],[-4.24061,51.120852],[-4.239699,51.120969],[-4.240818,51.121212],[-4.239969,51.121501],[-4.241088,51.121566],[-4.240456,51.121759],[-4.240596,51.121963],[-4.242095,51.1222],[-4.241738,51.122467],[-4.242621,51.122377],[-4.241991,51.122473],[-4.24318,51.122825],[-4.242496,51.123075],[-4.243086,51.12322],[-4.242335,51.123812],[-4.242967,51.12407],[-4.24262,51.124065],[-4.242911,51.124336],[-4.242458,51.124918],[-4.242861,51.125148],[-4.242177,51.125335],[-4.242519,51.12549],[-4.241613,51.125502],[-4.241064,51.125939],[-4.241264,51.126163],[-4.240052,51.126476],[-4.239862,51.126919],[-4.239214,51.126963],[-4.239557,51.127426],[-4.238517,51.127434],[-4.237766,51.129829],[-4.23589,51.130894],[-4.237288,51.130199],[-4.238438,51.131515],[-4.239161,51.133348],[-4.240036,51.133466],[-4.239633,51.1335],[-4.240309,51.133657],[-4.240384,51.134014],[-4.241886,51.134071],[-4.245035,51.135122],[-4.244077,51.135385],[-4.24659,51.135416],[-4.247067,51.135704],[-4.246046,51.135662],[-4.24713,51.135782],[-4.246459,51.13592],[-4.247326,51.136023],[-4.247823,51.136612],[-4.248676,51.136753],[-4.24793,51.136899],[-4.249412,51.137238],[-4.249374,51.13755],[-4.248326,51.137566],[-4.249367,51.137782],[-4.248948,51.138068],[-4.249859,51.137883],[-4.24979,51.138136],[-4.253461,51.138973],[-4.253697,51.139334],[-4.254469,51.139362],[-4.255088,51.139828],[-4.255318,51.139536],[-4.256331,51.139588],[-4.255937,51.139714],[-4.259248,51.141014],[-4.259263,51.141458],[-4.260501,51.141608],[-4.260075,51.141934],[-4.260276,51.14247],[-4.261885,51.142803],[-4.261472,51.143369],[-4.261104,51.143235],[-4.26053,51.143574],[-4.259694,51.143236],[-4.258801,51.143402],[-4.259423,51.144034],[-4.25871,51.144113],[-4.258476,51.144526],[-4.259638,51.144803],[-4.258145,51.14493],[-4.257211,51.145675],[-4.257388,51.146603],[-4.255709,51.146919],[-4.253838,51.146474],[-4.253619,51.14677],[-4.2515,51.146504],[-4.250885,51.146138],[-4.248515,51.145802],[-4.247937,51.14539],[-4.245254,51.145742],[-4.24434,51.145257],[-4.242932,51.145579],[-4.241569,51.145168],[-4.24055,51.145567],[-4.239112,51.145187],[-4.237033,51.145659],[-4.236649,51.145401],[-4.234899,51.145591],[-4.234637,51.145273],[-4.232339,51.144974],[-4.229882,51.145237],[-4.225168,51.144256],[-4.223753,51.144235],[-4.223568,51.144551],[-4.222457,51.144641],[-4.222133,51.145495],[-4.22144,51.145568],[-4.21984,51.146764],[-4.214559,51.154228],[-4.212099,51.160493],[-4.209759,51.170773],[-4.209773,51.172638],[-4.21242,51.173355],[-4.212266,51.173578],[-4.212909,51.173891],[-4.212549,51.174308],[-4.213043,51.174387],[-4.212514,51.174621],[-4.213332,51.175046],[-4.212601,51.175113],[-4.214492,51.176463],[-4.213348,51.176152],[-4.214217,51.176997],[-4.213261,51.176838],[-4.2138,51.177408],[-4.213034,51.177069],[-4.213455,51.177439],[-4.212213,51.177634],[-4.21148,51.178392],[-4.214294,51.180447],[-4.213862,51.180985],[-4.21388,51.182025],[-4.214366,51.182446],[-4.215664,51.182414],[-4.215822,51.183271],[-4.217146,51.183441],[-4.218242,51.184217],[-4.220815,51.184895],[-4.221611,51.185692],[-4.22249,51.185812],[-4.222304,51.186155],[-4.223728,51.186319],[-4.224894,51.185896],[-4.225855,51.185962],[-4.226943,51.18648],[-4.225966,51.186648],[-4.229337,51.187216],[-4.23058,51.187798],[-4.228798,51.188267],[-4.229263,51.18848],[-4.227657,51.188721],[-4.228081,51.188963],[-4.22496,51.188776],[-4.222381,51.189403],[-4.222712,51.189607],[-4.218889,51.189985],[-4.217368,51.189319],[-4.217822,51.190088],[-4.216794,51.189914],[-4.216782,51.19018],[-4.216211,51.189813],[-4.216349,51.189451],[-4.215515,51.189813],[-4.214847,51.189651],[-4.215077,51.189867],[-4.214712,51.190017],[-4.213975,51.189637],[-4.214348,51.189913],[-4.213629,51.19026],[-4.21267,51.189826],[-4.21314,51.190184],[-4.212645,51.190505],[-4.211579,51.190201],[-4.212128,51.19069],[-4.211356,51.190407],[-4.211432,51.190611],[-4.210645,51.190546],[-4.21093,51.191057],[-4.210404,51.190918],[-4.210645,51.191403],[-4.209941,51.191435],[-4.21009,51.191897],[-4.208631,51.191905],[-4.20876,51.192124],[-4.208309,51.192026],[-4.207289,51.192603],[-4.206893,51.194047],[-4.207374,51.194826],[-4.207957,51.195023],[-4.206722,51.195155],[-4.206566,51.19551],[-4.207108,51.1958],[-4.206669,51.195953],[-4.205892,51.195519],[-4.205065,51.195639],[-4.205179,51.196082],[-4.204955,51.195851],[-4.204493,51.196156],[-4.204273,51.196771],[-4.204753,51.19692],[-4.204077,51.196926],[-4.203854,51.197354],[-4.204649,51.197981],[-4.203359,51.198012],[-4.20353,51.198512],[-4.202805,51.198572],[-4.202557,51.199046],[-4.203976,51.199172],[-4.20409,51.199556],[-4.20253,51.199351],[-4.203242,51.199799],[-4.202057,51.19983],[-4.202629,51.200173],[-4.201635,51.199827],[-4.201916,51.200206],[-4.201178,51.199728],[-4.201704,51.20031],[-4.201297,51.200619],[-4.199993,51.200191],[-4.20019,51.200473],[-4.199021,51.200297],[-4.1984,51.199352],[-4.196051,51.199607],[-4.194575,51.199174],[-4.194904,51.199373],[-4.19462,51.199499],[-4.194002,51.199105],[-4.194398,51.199389],[-4.193084,51.199241],[-4.193115,51.198862],[-4.190721,51.199959],[-4.188902,51.199423],[-4.187359,51.199819],[-4.186923,51.199592],[-4.18365,51.199623],[-4.183684,51.199891],[-4.182981,51.199584],[-4.183026,51.199169],[-4.181833,51.198756],[-4.181296,51.198818],[-4.181328,51.199098],[-4.180406,51.198583],[-4.180099,51.198772],[-4.180175,51.198047],[-4.177636,51.197308],[-4.177004,51.197653],[-4.177233,51.19825],[-4.176766,51.198286],[-4.176713,51.198606],[-4.176383,51.198267],[-4.175692,51.198482],[-4.17611,51.199065],[-4.174939,51.198698],[-4.175011,51.199095],[-4.174687,51.198752],[-4.173958,51.198835],[-4.174354,51.19913],[-4.174057,51.199327],[-4.173075,51.198963],[-4.173214,51.199234],[-4.171574,51.199],[-4.171128,51.20101],[-4.170151,51.200699],[-4.16984,51.200957],[-4.170523,51.201604],[-4.168958,51.201081],[-4.168126,51.201164],[-4.166919,51.201743],[-4.167387,51.202312],[-4.166691,51.202097],[-4.166771,51.202763],[-4.166384,51.202531],[-4.166132,51.202824],[-4.16553,51.202561],[-4.163149,51.202559],[-4.162652,51.202266],[-4.162763,51.202542],[-4.161542,51.202334],[-4.161558,51.202582],[-4.161098,51.202567],[-4.159397,51.20177],[-4.158624,51.20198],[-4.158781,51.20242],[-4.157779,51.202256],[-4.157101,51.202689],[-4.156691,51.20332],[-4.156937,51.203781],[-4.156241,51.20383],[-4.156023,51.204287],[-4.1546,51.204316],[-4.153876,51.203977],[-4.152578,51.204119],[-4.15175,51.203457],[-4.151503,51.20393],[-4.152173,51.204453],[-4.151521,51.204437],[-4.150895,51.203969],[-4.150213,51.204433],[-4.148705,51.203591],[-4.148978,51.204179],[-4.147959,51.203743],[-4.148058,51.204069],[-4.146121,51.204079],[-4.144808,51.204895],[-4.14492,51.205218],[-4.14373,51.20556],[-4.143083,51.206217],[-4.14312,51.206954],[-4.143629,51.207139],[-4.143058,51.207102],[-4.142183,51.206395],[-4.142425,51.206257],[-4.142055,51.206252],[-4.141995,51.206557],[-4.141666,51.206421],[-4.141977,51.207589],[-4.14126,51.207485],[-4.140503,51.206741],[-4.140292,51.206958],[-4.139761,51.206683],[-4.139979,51.207125],[-4.139448,51.206743],[-4.139359,51.207211],[-4.1374,51.20733],[-4.137893,51.207765],[-4.136229,51.20746],[-4.135992,51.207998],[-4.135324,51.208132],[-4.13566,51.208607],[-4.134882,51.208438],[-4.135482,51.209182],[-4.13515,51.209291],[-4.133789,51.208656],[-4.131837,51.208649],[-4.129125,51.209574],[-4.128417,51.210264],[-4.127877,51.210074],[-4.127941,51.210347],[-4.127131,51.210435],[-4.127712,51.210778],[-4.127378,51.210743],[-4.12749,51.211087],[-4.126237,51.210771],[-4.124669,51.211029],[-4.121649,51.210432],[-4.12135,51.210734],[-4.121679,51.210885],[-4.120951,51.210979],[-4.121974,51.21214],[-4.121582,51.212633],[-4.119485,51.212157],[-4.117552,51.211031],[-4.113744,51.210918],[-4.113879,51.211285],[-4.113479,51.211443],[-4.112186,51.211201],[-4.11193,51.21131],[-4.112532,51.21149],[-4.111657,51.211506],[-4.111643,51.210926],[-4.11104,51.210851],[-4.113427,51.21045],[-4.11313,51.20972],[-4.113541,51.21043],[-4.115165,51.210534],[-4.115659,51.209723],[-4.112599,51.209141],[-4.111535,51.209484],[-4.110636,51.209032],[-4.110455,51.209802],[-4.108668,51.20983],[-4.108141,51.209463],[-4.107683,51.209719],[-4.107868,51.210081],[-4.1064,51.209821],[-4.10652,51.210196],[-4.105843,51.210045],[-4.105564,51.210809],[-4.106132,51.21133],[-4.105623,51.211384],[-4.105022,51.21094],[-4.105255,51.211223],[-4.10467,51.21134],[-4.105172,51.211669],[-4.103991,51.211441],[-4.104046,51.211661],[-4.103259,51.211894],[-4.102563,51.212574],[-4.102758,51.212807],[-4.102385,51.21274],[-4.103374,51.213055],[-4.102964,51.213175],[-4.103164,51.213365],[-4.102018,51.21281],[-4.102319,51.213216],[-4.100765,51.213164],[-4.099856,51.212633],[-4.10049,51.212316],[-4.099048,51.212186],[-4.098668,51.211963],[-4.099061,51.211925],[-4.098236,51.211649],[-4.098009,51.210823],[-4.096999,51.210904],[-4.095789,51.211895],[-4.096606,51.212193],[-4.096376,51.212597],[-4.095528,51.212395],[-4.095519,51.212781],[-4.094426,51.212765],[-4.094769,51.21297],[-4.093382,51.212911],[-4.093713,51.213281],[-4.092984,51.21293],[-4.092347,51.213524],[-4.092542,51.213952],[-4.091433,51.213724],[-4.091376,51.213977],[-4.090181,51.21403],[-4.088406,51.215603],[-4.089021,51.21628],[-4.088323,51.216898],[-4.088775,51.217075],[-4.088231,51.21698],[-4.087823,51.21732],[-4.085587,51.217092],[-4.08589,51.216631],[-4.084137,51.21635],[-4.083414,51.215909],[-4.083352,51.216206],[-4.082201,51.216097],[-4.082359,51.217316],[-4.080179,51.218057],[-4.077724,51.216305],[-4.077916,51.215285],[-4.075856,51.215739],[-4.075063,51.215467],[-4.07406,51.215585],[-4.071064,51.214227],[-4.070104,51.214166],[-4.069711,51.21481],[-4.069272,51.214561],[-4.069914,51.21527],[-4.07216,51.215897],[-4.072701,51.216416],[-4.075005,51.216924],[-4.073657,51.216933],[-4.072392,51.217378],[-4.072189,51.216686],[-4.070687,51.21681],[-4.070364,51.216497],[-4.070658,51.21644],[-4.069874,51.216432],[-4.070466,51.216279],[-4.069218,51.216126],[-4.069667,51.21595],[-4.0652,51.215125],[-4.064826,51.214851],[-4.065265,51.214425],[-4.064106,51.214411],[-4.063901,51.214191],[-4.064317,51.213999],[-4.06351,51.213967],[-4.065197,51.213587],[-4.062159,51.2132],[-4.061851,51.213031],[-4.0624,51.212886],[-4.060805,51.21247],[-4.060371,51.211735],[-4.059825,51.211687],[-4.060078,51.211992],[-4.059714,51.211685],[-4.058846,51.21169],[-4.057809,51.212415],[-4.056167,51.211934],[-4.055954,51.211317],[-4.055478,51.211226],[-4.05612,51.21079],[-4.055044,51.210548],[-4.054825,51.209812],[-4.052801,51.209802],[-4.05306,51.209209],[-4.05209,51.208993],[-4.052275,51.208451],[-4.050767,51.207452],[-4.049837,51.207457],[-4.050011,51.207839],[-4.049345,51.207364],[-4.049418,51.207601],[-4.04844,51.207451],[-4.047895,51.207873],[-4.046905,51.207589],[-4.047151,51.207968],[-4.045464,51.207179],[-4.045353,51.207431],[-4.044979,51.207236],[-4.045072,51.207653],[-4.044671,51.207417],[-4.045055,51.207845],[-4.044618,51.207712],[-4.044452,51.208029],[-4.044207,51.207405],[-4.043802,51.207649],[-4.043169,51.207276],[-4.042593,51.207397],[-4.042566,51.207061],[-4.0421,51.207204],[-4.04136,51.206576],[-4.040735,51.206657],[-4.040508,51.20705],[-4.038746,51.206673],[-4.03809,51.207507],[-4.039706,51.20793],[-4.040073,51.209672],[-4.041294,51.209741],[-4.041407,51.210024],[-4.038676,51.210241],[-4.037204,51.210105],[-4.036528,51.209711],[-4.035992,51.210212],[-4.035444,51.209796],[-4.035045,51.210171],[-4.033637,51.209989],[-4.031834,51.210518],[-4.030806,51.211562],[-4.03247,51.213531],[-4.032103,51.214558],[-4.03079,51.215462],[-4.029765,51.215551],[-4.028373,51.216383],[-4.02551,51.216385],[-4.024353,51.215546],[-4.023757,51.21553],[-4.022132,51.216161],[-4.021843,51.216457],[-4.022118,51.216666],[-4.021613,51.216726],[-4.021078,51.216703],[-4.02066,51.21626],[-4.019788,51.216627],[-4.017218,51.21632],[-4.013178,51.21728],[-4.008625,51.216652],[-4.00603,51.217249],[-4.00496,51.218296],[-4.00399,51.218189],[-4.003166,51.219258],[-4.001919,51.219038],[-4.001824,51.218661],[-4.000881,51.218518],[-4.00004,51.217861],[-3.99887,51.218339],[-3.997984,51.218353],[-3.997079,51.217937],[-3.996855,51.218363],[-3.996043,51.218134],[-3.996096,51.217803],[-3.995581,51.218052],[-3.995122,51.217706],[-3.993867,51.217545],[-3.992938,51.218289],[-3.991479,51.217977],[-3.988671,51.218343],[-3.988181,51.217931],[-3.987589,51.218056],[-3.987757,51.218271],[-3.987184,51.218667],[-3.982814,51.218202],[-3.981641,51.218744],[-3.981369,51.21922],[-3.980485,51.219405],[-3.977727,51.218967],[-3.976391,51.219674],[-3.975865,51.220504],[-3.975106,51.220355],[-3.974777,51.219809],[-3.97272,51.220024],[-3.971239,51.219325],[-3.970266,51.219321],[-3.969943,51.219851],[-3.968805,51.219274],[-3.965179,51.21928],[-3.964774,51.21954],[-3.965062,51.219699],[-3.964663,51.219726],[-3.963127,51.219174],[-3.961154,51.219332],[-3.960494,51.21909],[-3.9596,51.219262],[-3.958994,51.219808],[-3.958252,51.219118],[-3.958371,51.21958],[-3.957667,51.219283],[-3.957113,51.219894],[-3.956794,51.219533],[-3.957013,51.219954],[-3.956511,51.220244],[-3.956112,51.220102],[-3.95607,51.220429],[-3.954424,51.220432],[-3.954011,51.220131],[-3.953917,51.220749],[-3.953658,51.220551],[-3.953711,51.220768],[-3.952356,51.220891],[-3.951655,51.220652],[-3.95218,51.22102],[-3.950992,51.220804],[-3.95056,51.221044],[-3.950796,51.221204],[-3.950253,51.22099],[-3.949519,51.221462],[-3.94749,51.221723],[-3.945771,51.222901],[-3.945255,51.223572],[-3.945477,51.224129],[-3.944508,51.224401],[-3.94455,51.224988],[-3.942358,51.225033],[-3.941666,51.225707],[-3.941891,51.226029],[-3.940842,51.227121],[-3.940124,51.227185],[-3.939685,51.227953],[-3.940009,51.227992],[-3.93877,51.228779],[-3.937315,51.228868],[-3.936658,51.228695],[-3.936811,51.228473],[-3.93569,51.228416],[-3.936063,51.228511],[-3.935361,51.22884],[-3.934374,51.228712],[-3.934066,51.229183],[-3.931421,51.229753],[-3.928234,51.229535],[-3.927232,51.230322],[-3.92716,51.230992],[-3.927636,51.2311],[-3.926187,51.23181],[-3.925392,51.231409],[-3.925889,51.231774],[-3.925637,51.231901],[-3.924901,51.231243],[-3.924779,51.231444],[-3.922699,51.23102],[-3.922556,51.230708],[-3.920727,51.230475],[-3.920378,51.230124],[-3.919266,51.230305],[-3.918727,51.229895],[-3.917321,51.230493],[-3.913224,51.230453],[-3.910628,51.229612],[-3.9102,51.229788],[-3.90982,51.229433],[-3.909914,51.229825],[-3.909095,51.229736],[-3.908657,51.229216],[-3.908263,51.229162],[-3.908594,51.229637],[-3.907907,51.229658],[-3.908072,51.229005],[-3.907036,51.229539],[-3.907043,51.229005],[-3.905686,51.228742],[-3.904432,51.229093],[-3.903618,51.228957],[-3.904068,51.229639],[-3.902297,51.229017],[-3.902223,51.228571],[-3.901866,51.228666],[-3.901495,51.228313],[-3.90121,51.226337],[-3.89926,51.225701],[-3.898272,51.225677],[-3.898193,51.226035],[-3.897205,51.225884],[-3.897357,51.225363],[-3.896986,51.225645],[-3.896295,51.225289],[-3.896119,51.225685],[-3.896117,51.224459],[-3.892303,51.224077],[-3.892031,51.22377],[-3.890456,51.224344],[-3.890096,51.224838],[-3.889585,51.224591],[-3.889771,51.224782],[-3.889226,51.224725],[-3.888982,51.22517],[-3.888672,51.224934],[-3.887278,51.225437],[-3.887401,51.225702],[-3.886841,51.225342],[-3.886178,51.225629],[-3.885404,51.225168],[-3.885255,51.225536],[-3.884917,51.225276],[-3.884764,51.225772],[-3.883891,51.225552],[-3.882804,51.226639],[-3.882848,51.227434],[-3.882102,51.22749],[-3.882574,51.227978],[-3.881635,51.227713],[-3.880747,51.228797],[-3.880855,51.229338],[-3.878876,51.228565],[-3.878817,51.228858],[-3.878435,51.228838],[-3.878355,51.22806],[-3.877394,51.22765],[-3.876624,51.227852],[-3.876252,51.227369],[-3.875585,51.227719],[-3.87501,51.227575],[-3.875035,51.228088],[-3.873826,51.227504],[-3.873689,51.227102],[-3.872709,51.227054],[-3.872872,51.227432],[-3.872465,51.227092],[-3.871658,51.227842],[-3.872597,51.229367],[-3.872434,51.2301],[-3.871602,51.230086],[-3.872081,51.230571],[-3.871385,51.230341],[-3.871937,51.231246],[-3.870301,51.231218],[-3.870909,51.231493],[-3.870074,51.23156],[-3.868958,51.231069],[-3.864114,51.231479],[-3.863552,51.231187],[-3.863579,51.231596],[-3.863018,51.231063],[-3.861521,51.23077],[-3.860081,51.231111],[-3.859241,51.232304],[-3.857185,51.232888],[-3.857169,51.233282],[-3.85686,51.233046],[-3.855918,51.233249],[-3.855512,51.233699],[-3.854991,51.233687],[-3.854752,51.234291],[-3.854104,51.234212],[-3.853737,51.234569],[-3.849722,51.23487],[-3.848696,51.234661],[-3.84851,51.234919],[-3.84572,51.235234],[-3.844204,51.23503],[-3.841701,51.235332],[-3.839234,51.234997],[-3.836189,51.23387],[-3.834866,51.232816],[-3.832665,51.231903],[-3.830707,51.232045],[-3.831217,51.231625],[-3.83112,51.231126],[-3.830905,51.230923],[-3.830901,51.231222],[-3.830552,51.231822],[-3.830817,51.230887],[-3.830074,51.230416],[-3.83047,51.231091],[-3.829885,51.232051],[-3.827474,51.232732],[-3.825185,51.231825],[-3.821959,51.231554],[-3.821071,51.231807],[-3.818885,51.231721],[-3.816903,51.231396],[-3.816982,51.231606],[-3.816001,51.231203],[-3.813431,51.231154],[-3.812281,51.231941],[-3.810462,51.231635],[-3.810309,51.231905],[-3.808567,51.231785],[-3.80666,51.23233],[-3.801115,51.235723],[-3.80096,51.236267],[-3.799551,51.236749],[-3.79821,51.237964],[-3.798398,51.238419],[-3.797527,51.238398],[-3.795305,51.240401],[-3.795007,51.240994],[-3.795795,51.241815],[-3.795195,51.241792],[-3.794652,51.24207],[-3.79498,51.242264],[-3.794668,51.242459],[-3.793518,51.242706],[-3.792259,51.243983],[-3.790729,51.244057],[-3.789693,51.244772],[-3.789345,51.244598],[-3.78949,51.244929],[-3.788451,51.24547],[-3.788732,51.245855],[-3.788095,51.245676],[-3.788278,51.246081],[-3.787857,51.245925],[-3.785483,51.246406],[-3.784073,51.245661]],[[-4.114259,51.089353],[-4.113596,51.089277],[-4.113864,51.088771],[-4.11354,51.089242],[-4.113005,51.089276],[-4.114259,51.089353]],[[-4.111039,51.086082],[-4.110755,51.085238],[-4.110815,51.085979],[-4.111039,51.086082]]]}}]}