{"type":"FeatureCollection","features":[{"type":"Feature","properties":{"slug":"north-east-derbyshire","gss_code":"E07000038","name":"North East Derbyshire"},"geometry":{"type":"Polygon","coordinates":[[[-1.390698,53.335981],[-1.389458,53.336011],[-1.388823,53.336447],[-1.388916,53.336233],[-1.386573,53.334885],[-1.387226,53.334098],[-1.387919,53.334522],[-1.38873,53.33318],[-1.390725,53.331641],[-1.39034,53.331021],[-1.391205,53.32829],[-1.390429,53.326077],[-1.392004,53.322649],[-1.389932,53.318511],[-1.38926,53.318732],[-1.387863,53.318402],[-1.387304,53.317884],[-1.386859,53.318043],[-1.386739,53.317632],[-1.38435,53.31758],[-1.383659,53.317827],[-1.380616,53.316994],[-1.377039,53.317424],[-1.37413,53.31725],[-1.371646,53.316081],[-1.36545,53.315877],[-1.364168,53.315204],[-1.362623,53.315036],[-1.361923,53.315772],[-1.362947,53.317565],[-1.361777,53.318486],[-1.353473,53.319109],[-1.347238,53.318869],[-1.347307,53.318551],[-1.343053,53.317904],[-1.340895,53.316988],[-1.341629,53.316081],[-1.34026,53.315535],[-1.337668,53.31587],[-1.336549,53.316604],[-1.336581,53.317965],[-1.334525,53.320334],[-1.334562,53.321018],[-1.332311,53.322057],[-1.332216,53.322464],[-1.332806,53.322931],[-1.332417,53.3235],[-1.328165,53.326806],[-1.328126,53.327335],[-1.328769,53.327696],[-1.3283,53.328974],[-1.324669,53.32881],[-1.324756,53.327091],[-1.322298,53.327527],[-1.321613,53.3255],[-1.315612,53.326787],[-1.315512,53.326457],[-1.314958,53.326521],[-1.313678,53.327321],[-1.313006,53.329362],[-1.310537,53.329354],[-1.311439,53.330252],[-1.311322,53.330874],[-1.310508,53.331906],[-1.30925,53.331737],[-1.308789,53.332171],[-1.311502,53.332114],[-1.312299,53.334165],[-1.305973,53.33377],[-1.302209,53.332526],[-1.299072,53.332533],[-1.297392,53.331427],[-1.297097,53.330652],[-1.295735,53.330132],[-1.295376,53.330364],[-1.294667,53.329479],[-1.29318,53.328982],[-1.292829,53.328786],[-1.293231,53.328682],[-1.291822,53.3282],[-1.291767,53.327898],[-1.291231,53.327976],[-1.288589,53.326228],[-1.289311,53.324414],[-1.290344,53.32371],[-1.290109,53.323141],[-1.293947,53.322784],[-1.295159,53.321792],[-1.295687,53.319709],[-1.294735,53.315271],[-1.295678,53.315037],[-1.293665,53.313982],[-1.285307,53.311611],[-1.282011,53.309463],[-1.284483,53.309657],[-1.28661,53.309015],[-1.291591,53.309224],[-1.303058,53.312876],[-1.304639,53.312949],[-1.307476,53.312521],[-1.309168,53.311868],[-1.313584,53.310913],[-1.318717,53.310399],[-1.321928,53.309039],[-1.321804,53.30854],[-1.318946,53.307055],[-1.317825,53.30581],[-1.316263,53.305117],[-1.316086,53.301805],[-1.313572,53.299719],[-1.310674,53.297948],[-1.313358,53.296767],[-1.320027,53.295166],[-1.322937,53.295154],[-1.32345,53.295403],[-1.324141,53.295109],[-1.324085,53.294095],[-1.322558,53.291591],[-1.318997,53.289159],[-1.321924,53.288929],[-1.32191,53.28858],[-1.320738,53.286975],[-1.318696,53.285507],[-1.316717,53.281656],[-1.322588,53.281376],[-1.333634,53.289758],[-1.33611,53.288853],[-1.336451,53.288114],[-1.337194,53.288366],[-1.337272,53.289572],[-1.33906,53.289862],[-1.339691,53.289091],[-1.339216,53.288761],[-1.342981,53.285645],[-1.346613,53.285704],[-1.347334,53.286146],[-1.348268,53.285658],[-1.348946,53.285941],[-1.34916,53.286594],[-1.353247,53.286469],[-1.358976,53.28775],[-1.359555,53.288325],[-1.360725,53.288716],[-1.366942,53.289194],[-1.3685,53.292099],[-1.367988,53.292961],[-1.369911,53.29372],[-1.37065,53.294468],[-1.371369,53.295652],[-1.371487,53.297316],[-1.374175,53.2984],[-1.377063,53.299004],[-1.377153,53.29685],[-1.380868,53.296606],[-1.380729,53.295494],[-1.385989,53.294895],[-1.385957,53.294115],[-1.386671,53.293753],[-1.386299,53.292285],[-1.387343,53.289878],[-1.38656,53.286946],[-1.387163,53.286105],[-1.391419,53.286472],[-1.391762,53.287139],[-1.396744,53.284562],[-1.396143,53.283791],[-1.396316,53.283423],[-1.399496,53.282459],[-1.399278,53.281972],[-1.401737,53.281574],[-1.402999,53.283351],[-1.407946,53.286274],[-1.40981,53.28674],[-1.414639,53.286816],[-1.41544,53.287639],[-1.417971,53.286272],[-1.418915,53.284895],[-1.421488,53.283425],[-1.423125,53.283461],[-1.423236,53.282715],[-1.43219,53.281874],[-1.436082,53.280854],[-1.438662,53.280625],[-1.439036,53.28021],[-1.441926,53.28207],[-1.443941,53.282704],[-1.447116,53.282854],[-1.447906,53.283151],[-1.451593,53.281932],[-1.454452,53.281379],[-1.455254,53.28176],[-1.457069,53.283745],[-1.458639,53.282972],[-1.459061,53.281111],[-1.460986,53.278057],[-1.464401,53.278456],[-1.465805,53.278076],[-1.464913,53.277205],[-1.465246,53.276001],[-1.464902,53.274938],[-1.466944,53.274636],[-1.466873,53.273931],[-1.465077,53.272225],[-1.465417,53.27031],[-1.462664,53.270305],[-1.464134,53.268025],[-1.465984,53.267743],[-1.466275,53.267963],[-1.466429,53.267591],[-1.467832,53.267494],[-1.469987,53.267672],[-1.470558,53.267151],[-1.471528,53.266989],[-1.472202,53.266386],[-1.47349,53.266076],[-1.477575,53.264018],[-1.480649,53.263362],[-1.478646,53.262796],[-1.475654,53.259632],[-1.474361,53.259462],[-1.474342,53.26004],[-1.473739,53.259704],[-1.473233,53.260086],[-1.471351,53.259614],[-1.471094,53.25936],[-1.47248,53.258314],[-1.470702,53.257259],[-1.472164,53.256537],[-1.473496,53.257262],[-1.476218,53.254724],[-1.475125,53.253447],[-1.478823,53.252339],[-1.478005,53.250958],[-1.475872,53.250873],[-1.474894,53.250098],[-1.473804,53.249837],[-1.473923,53.249211],[-1.474719,53.248792],[-1.477868,53.248251],[-1.478522,53.248512],[-1.479221,53.24824],[-1.480427,53.248719],[-1.481265,53.247894],[-1.481054,53.246541],[-1.481648,53.246468],[-1.480372,53.244678],[-1.478533,53.2434],[-1.478938,53.242397],[-1.477572,53.239736],[-1.471543,53.239413],[-1.472301,53.238904],[-1.471574,53.238504],[-1.471395,53.236249],[-1.471424,53.236022],[-1.471872,53.236124],[-1.471879,53.233422],[-1.478089,53.233768],[-1.480693,53.233254],[-1.480841,53.233474],[-1.483163,53.233314],[-1.48299,53.232636],[-1.483975,53.232483],[-1.482557,53.231019],[-1.484168,53.230711],[-1.484157,53.228976],[-1.483067,53.22899],[-1.481958,53.226246],[-1.47729,53.226241],[-1.475843,53.225084],[-1.476977,53.224373],[-1.4778,53.224315],[-1.478409,53.223722],[-1.478134,53.222913],[-1.47967,53.222713],[-1.479526,53.222229],[-1.478396,53.222321],[-1.475461,53.221635],[-1.470468,53.221357],[-1.468833,53.220646],[-1.467599,53.219516],[-1.461676,53.221649],[-1.460171,53.220323],[-1.459116,53.22065],[-1.457376,53.219638],[-1.447527,53.221414],[-1.44527,53.220001],[-1.444172,53.220751],[-1.44298,53.219805],[-1.441205,53.220631],[-1.439294,53.218785],[-1.440714,53.217106],[-1.440001,53.213593],[-1.437268,53.213151],[-1.433451,53.213819],[-1.42928,53.215429],[-1.427501,53.215361],[-1.422687,53.214377],[-1.422381,53.21412],[-1.423058,53.213836],[-1.422565,53.213867],[-1.422609,53.213503],[-1.421932,53.213395],[-1.420819,53.212465],[-1.41704,53.213984],[-1.411637,53.215543],[-1.409784,53.215151],[-1.409857,53.215348],[-1.409041,53.215378],[-1.409043,53.215655],[-1.405106,53.214684],[-1.405362,53.214302],[-1.401394,53.21374],[-1.399094,53.215455],[-1.399632,53.215491],[-1.40018,53.217016],[-1.401599,53.217779],[-1.395595,53.222696],[-1.39852,53.225235],[-1.397087,53.225441],[-1.396334,53.226299],[-1.396419,53.227087],[-1.399264,53.230574],[-1.400529,53.231348],[-1.401093,53.233578],[-1.400798,53.234282],[-1.398903,53.233878],[-1.393618,53.23401],[-1.394052,53.234986],[-1.391636,53.235613],[-1.391578,53.237194],[-1.390824,53.237243],[-1.391195,53.237626],[-1.390081,53.237882],[-1.39027,53.238857],[-1.389532,53.238869],[-1.388423,53.239615],[-1.387701,53.239458],[-1.383259,53.242021],[-1.382969,53.242655],[-1.380341,53.243797],[-1.377231,53.241213],[-1.375688,53.240847],[-1.374147,53.240947],[-1.37151,53.24125],[-1.370365,53.241962],[-1.367592,53.24268],[-1.366527,53.242668],[-1.362473,53.244437],[-1.36011,53.244626],[-1.35672,53.245711],[-1.354283,53.245724],[-1.35085,53.246329],[-1.349709,53.244844],[-1.34942,53.242816],[-1.347896,53.241783],[-1.347123,53.239468],[-1.343238,53.240424],[-1.339362,53.240111],[-1.339322,53.240452],[-1.338715,53.240467],[-1.338778,53.241432],[-1.336498,53.241767],[-1.335334,53.24128],[-1.331931,53.241603],[-1.332151,53.236677],[-1.326042,53.236049],[-1.323196,53.237819],[-1.319155,53.239548],[-1.31653,53.23763],[-1.311519,53.232377],[-1.311338,53.231716],[-1.313454,53.22923],[-1.314083,53.225899],[-1.313733,53.224992],[-1.314747,53.223909],[-1.313035,53.223828],[-1.312532,53.222913],[-1.312576,53.22164],[-1.313698,53.220526],[-1.31431,53.21919],[-1.311134,53.217287],[-1.310614,53.215936],[-1.312546,53.212283],[-1.31153,53.21201],[-1.310998,53.210099],[-1.312433,53.208696],[-1.313381,53.208941],[-1.313743,53.208473],[-1.314205,53.20578],[-1.313701,53.204904],[-1.313889,53.202586],[-1.311538,53.198891],[-1.3149,53.19482],[-1.315443,53.193309],[-1.31625,53.193144],[-1.31752,53.191347],[-1.31853,53.185907],[-1.320616,53.185459],[-1.321836,53.185612],[-1.324158,53.186291],[-1.327215,53.187859],[-1.328437,53.188031],[-1.329975,53.187697],[-1.330317,53.187225],[-1.331364,53.186925],[-1.334991,53.186989],[-1.336061,53.1875],[-1.336981,53.18737],[-1.337211,53.18686],[-1.339714,53.187018],[-1.340972,53.187548],[-1.343651,53.188004],[-1.344513,53.187929],[-1.344605,53.186033],[-1.345654,53.183442],[-1.352048,53.184473],[-1.352216,53.1855],[-1.353601,53.185357],[-1.354429,53.184418],[-1.356726,53.185463],[-1.358124,53.184716],[-1.359681,53.184362],[-1.359308,53.184194],[-1.361821,53.182641],[-1.363242,53.182734],[-1.363888,53.18234],[-1.364562,53.180556],[-1.365062,53.18035],[-1.367906,53.1801],[-1.369411,53.180831],[-1.37117,53.180653],[-1.373171,53.178664],[-1.374118,53.176852],[-1.376685,53.175058],[-1.377442,53.173735],[-1.378247,53.173734],[-1.375961,53.172552],[-1.373752,53.172373],[-1.372291,53.17149],[-1.366791,53.170955],[-1.364651,53.167261],[-1.362267,53.166363],[-1.36012,53.166461],[-1.358789,53.165668],[-1.358347,53.1642],[-1.356832,53.163566],[-1.35706,53.163379],[-1.355526,53.162238],[-1.354671,53.160624],[-1.353843,53.160367],[-1.352917,53.159232],[-1.352945,53.158139],[-1.353658,53.157479],[-1.353038,53.156447],[-1.35341,53.155919],[-1.35475,53.155357],[-1.355915,53.153833],[-1.355028,53.151646],[-1.357477,53.150499],[-1.360653,53.147666],[-1.362527,53.147],[-1.36253,53.143263],[-1.366263,53.142382],[-1.366626,53.141757],[-1.370995,53.139473],[-1.374193,53.139148],[-1.374703,53.138412],[-1.377194,53.13697],[-1.377725,53.135834],[-1.377297,53.135331],[-1.375892,53.134938],[-1.375535,53.134057],[-1.374769,53.134133],[-1.374197,53.133703],[-1.372776,53.131647],[-1.373388,53.130955],[-1.372716,53.129995],[-1.373387,53.129455],[-1.372701,53.128587],[-1.37488,53.12637],[-1.374191,53.125854],[-1.373297,53.125813],[-1.374109,53.124817],[-1.374812,53.124787],[-1.375138,53.123565],[-1.374881,53.121701],[-1.376539,53.120079],[-1.377311,53.118549],[-1.371708,53.110957],[-1.370907,53.109092],[-1.372149,53.108253],[-1.37365,53.107856],[-1.377032,53.108668],[-1.377369,53.108449],[-1.377921,53.10866],[-1.378123,53.108245],[-1.378974,53.108822],[-1.379109,53.108448],[-1.379672,53.108542],[-1.379608,53.107889],[-1.380234,53.10831],[-1.38123,53.108372],[-1.381287,53.107905],[-1.382467,53.107518],[-1.383429,53.107635],[-1.38402,53.106982],[-1.385193,53.106993],[-1.386047,53.106587],[-1.386271,53.106923],[-1.38679,53.106312],[-1.387186,53.106729],[-1.388262,53.106405],[-1.388228,53.105956],[-1.38904,53.106432],[-1.389755,53.106174],[-1.389543,53.105807],[-1.390424,53.1058],[-1.390322,53.105452],[-1.392318,53.105386],[-1.392723,53.104883],[-1.393877,53.105096],[-1.394907,53.104762],[-1.395561,53.105161],[-1.397462,53.105334],[-1.400525,53.10622],[-1.402895,53.107308],[-1.403952,53.107059],[-1.404234,53.106614],[-1.404537,53.107027],[-1.406328,53.106909],[-1.406171,53.107365],[-1.407003,53.106893],[-1.407696,53.107053],[-1.407915,53.10746],[-1.409121,53.107333],[-1.409093,53.107073],[-1.410031,53.107402],[-1.409859,53.106381],[-1.413919,53.105465],[-1.417249,53.105653],[-1.419662,53.106565],[-1.420319,53.105512],[-1.422373,53.104504],[-1.423734,53.10336],[-1.4247,53.103593],[-1.424938,53.104003],[-1.42544,53.103968],[-1.427365,53.105469],[-1.428913,53.105713],[-1.430144,53.105325],[-1.432544,53.105897],[-1.433004,53.105498],[-1.434393,53.105703],[-1.437253,53.104941],[-1.438846,53.104983],[-1.44024,53.104608],[-1.441567,53.104777],[-1.441911,53.104465],[-1.44254,53.104646],[-1.442696,53.104374],[-1.443407,53.104504],[-1.448252,53.103674],[-1.44857,53.104163],[-1.450302,53.104474],[-1.450797,53.104972],[-1.450431,53.105031],[-1.450473,53.105537],[-1.45235,53.106459],[-1.452416,53.107033],[-1.453355,53.107325],[-1.455545,53.109616],[-1.457281,53.108837],[-1.460009,53.108311],[-1.461514,53.110171],[-1.465369,53.110801],[-1.464638,53.113966],[-1.463007,53.114141],[-1.463613,53.115038],[-1.4647,53.115363],[-1.464967,53.115821],[-1.466178,53.115719],[-1.467296,53.11604],[-1.468829,53.118446],[-1.469586,53.118852],[-1.469843,53.119806],[-1.471175,53.119776],[-1.474074,53.120701],[-1.480299,53.121487],[-1.486843,53.12293],[-1.488999,53.129999],[-1.490535,53.131557],[-1.493616,53.131253],[-1.495366,53.133965],[-1.508655,53.146313],[-1.509645,53.148735],[-1.509082,53.14924],[-1.509666,53.150992],[-1.515632,53.154008],[-1.517349,53.15647],[-1.539629,53.171396],[-1.547793,53.181996],[-1.551749,53.188538],[-1.552991,53.196287],[-1.548295,53.199918],[-1.529771,53.201091],[-1.517645,53.200769],[-1.517516,53.201228],[-1.515594,53.202632],[-1.516833,53.203624],[-1.51727,53.206052],[-1.518902,53.205782],[-1.519441,53.206183],[-1.521265,53.206468],[-1.5244,53.206464],[-1.525975,53.207504],[-1.52872,53.207457],[-1.531795,53.207882],[-1.535255,53.211088],[-1.537447,53.211533],[-1.540239,53.210726],[-1.542505,53.21187],[-1.553611,53.215781],[-1.569022,53.223084],[-1.568899,53.224933],[-1.567569,53.226363],[-1.566898,53.22647],[-1.565905,53.227218],[-1.56625,53.227941],[-1.56499,53.229738],[-1.565691,53.231272],[-1.567606,53.232856],[-1.567472,53.233734],[-1.569701,53.234255],[-1.570034,53.23552],[-1.570969,53.235881],[-1.570763,53.237129],[-1.571296,53.237494],[-1.570643,53.239691],[-1.571479,53.23989],[-1.572056,53.241013],[-1.570985,53.241263],[-1.570384,53.240834],[-1.569338,53.241271],[-1.568517,53.241901],[-1.568532,53.242626],[-1.567998,53.243164],[-1.56388,53.24512],[-1.562051,53.246684],[-1.559509,53.247542],[-1.557619,53.248836],[-1.557176,53.249561],[-1.56578,53.261428],[-1.570973,53.262924],[-1.575376,53.263093],[-1.578811,53.262647],[-1.582355,53.263285],[-1.584957,53.262723],[-1.584555,53.263098],[-1.584879,53.263638],[-1.584252,53.263637],[-1.584306,53.264024],[-1.582913,53.263899],[-1.583635,53.264689],[-1.582964,53.264826],[-1.583698,53.265676],[-1.583373,53.266159],[-1.582706,53.265772],[-1.582418,53.266278],[-1.58313,53.266486],[-1.582519,53.267236],[-1.582932,53.267308],[-1.582629,53.267611],[-1.583246,53.269182],[-1.582736,53.269556],[-1.5836,53.269703],[-1.583411,53.270377],[-1.582782,53.270291],[-1.582439,53.271337],[-1.583542,53.271311],[-1.583694,53.27204],[-1.58425,53.272094],[-1.584755,53.272877],[-1.585911,53.273489],[-1.586348,53.275465],[-1.589353,53.2781],[-1.589379,53.278784],[-1.587671,53.280858],[-1.587908,53.281128],[-1.584719,53.282435],[-1.583885,53.283264],[-1.582441,53.283256],[-1.57861,53.286505],[-1.580555,53.288791],[-1.58219,53.28906],[-1.582043,53.289344],[-1.5831,53.29009],[-1.583432,53.289882],[-1.583951,53.29044],[-1.584463,53.290361],[-1.584348,53.290832],[-1.584904,53.290855],[-1.584971,53.291146],[-1.597468,53.295795],[-1.5993,53.302363],[-1.598601,53.304916],[-1.597814,53.305402],[-1.59873,53.308075],[-1.599093,53.311318],[-1.590378,53.318298],[-1.586774,53.319927],[-1.587294,53.320882],[-1.586902,53.321404],[-1.584902,53.321588],[-1.578924,53.316695],[-1.581288,53.316427],[-1.583005,53.315722],[-1.58124,53.314307],[-1.580534,53.311738],[-1.573157,53.312772],[-1.573906,53.31338],[-1.570494,53.314366],[-1.5675,53.314762],[-1.566089,53.313569],[-1.56409,53.313633],[-1.56226,53.315796],[-1.561365,53.315821],[-1.560175,53.313696],[-1.55849,53.313716],[-1.555752,53.311549],[-1.556553,53.311444],[-1.559123,53.309741],[-1.559688,53.308244],[-1.561827,53.306602],[-1.557934,53.305756],[-1.558458,53.305322],[-1.554791,53.306091],[-1.553538,53.305896],[-1.550396,53.306227],[-1.549076,53.306983],[-1.546858,53.306648],[-1.542604,53.305289],[-1.541656,53.30467],[-1.540928,53.304943],[-1.540935,53.304685],[-1.539235,53.304533],[-1.539007,53.304827],[-1.536769,53.304749],[-1.536791,53.305081],[-1.535042,53.305262],[-1.534986,53.305717],[-1.53458,53.305516],[-1.533115,53.306225],[-1.533373,53.306491],[-1.532973,53.306873],[-1.533409,53.307172],[-1.533086,53.30764],[-1.533407,53.307653],[-1.532854,53.308456],[-1.531842,53.308751],[-1.532014,53.309896],[-1.531458,53.309988],[-1.531215,53.310652],[-1.531028,53.310421],[-1.530119,53.31067],[-1.53003,53.310438],[-1.529411,53.310925],[-1.528674,53.310877],[-1.528197,53.310326],[-1.526185,53.310403],[-1.526316,53.311466],[-1.52579,53.312102],[-1.524184,53.312457],[-1.52163,53.311735],[-1.521547,53.312771],[-1.521196,53.312855],[-1.519115,53.312295],[-1.517339,53.312206],[-1.51613,53.312601],[-1.515896,53.313406],[-1.515261,53.313788],[-1.510488,53.316046],[-1.502132,53.317582],[-1.500715,53.315902],[-1.496127,53.316387],[-1.493095,53.31673],[-1.49233,53.317401],[-1.491065,53.317379],[-1.484716,53.318749],[-1.484631,53.318517],[-1.4825,53.318884],[-1.47969,53.318721],[-1.479599,53.31933],[-1.476917,53.319284],[-1.469623,53.317188],[-1.467866,53.317158],[-1.467208,53.31801],[-1.463223,53.319788],[-1.461667,53.320212],[-1.459974,53.320083],[-1.459735,53.319734],[-1.457262,53.320714],[-1.45728,53.32177],[-1.455224,53.321869],[-1.455825,53.323474],[-1.454307,53.32428],[-1.45513,53.324966],[-1.45637,53.325112],[-1.456593,53.326302],[-1.458037,53.326412],[-1.460239,53.327246],[-1.461701,53.328449],[-1.459936,53.329704],[-1.458276,53.328729],[-1.45752,53.328658],[-1.456637,53.32939],[-1.45988,53.330689],[-1.453937,53.330717],[-1.450804,53.33157],[-1.443031,53.337262],[-1.442136,53.337385],[-1.440872,53.336371],[-1.436736,53.337449],[-1.43391,53.337429],[-1.433612,53.337691],[-1.427792,53.33615],[-1.423489,53.335941],[-1.423096,53.335371],[-1.422402,53.335307],[-1.422269,53.335026],[-1.421183,53.335046],[-1.420866,53.334568],[-1.416115,53.337013],[-1.41451,53.338335],[-1.413851,53.337934],[-1.41259,53.338811],[-1.413026,53.339617],[-1.412113,53.340966],[-1.412384,53.341097],[-1.411034,53.341992],[-1.408747,53.341965],[-1.406786,53.340851],[-1.407565,53.340096],[-1.406396,53.339399],[-1.390698,53.335981]]]}}]}