{"type":"FeatureCollection","features":[{"type":"Feature","properties":{"slug":"north-tyneside","gss_code":"E08000022","name":"North Tyneside"},"geometry":{"type":"MultiPolygon","coordinates":[[[[-1.449619,55.071319],[-1.450394,55.071799],[-1.450246,55.072203],[-1.449233,55.072193],[-1.449619,55.071319]]],[[[-1.448484,55.071988],[-1.449474,55.07254],[-1.449078,55.072665],[-1.448484,55.071988]]],[[[-1.466646,55.07441],[-1.464072,55.074629],[-1.458906,55.073597],[-1.459013,55.07261],[-1.45792,55.071309],[-1.455933,55.070166],[-1.453245,55.069887],[-1.451472,55.070086],[-1.452135,55.068659],[-1.452031,55.066893],[-1.454274,55.065793],[-1.455042,55.064167],[-1.454938,55.062254],[-1.453564,55.060393],[-1.451864,55.055496],[-1.448464,55.050786],[-1.441557,55.044776],[-1.439531,55.044223],[-1.436545,55.042412],[-1.43179,55.04089],[-1.431428,55.040297],[-1.432327,55.038602],[-1.428517,55.037916],[-1.429194,55.037714],[-1.429231,55.037288],[-1.430643,55.037166],[-1.431848,55.035904],[-1.431402,55.035527],[-1.432457,55.03435],[-1.431544,55.033795],[-1.431745,55.03344],[-1.429784,55.033326],[-1.429987,55.033949],[-1.429652,55.033317],[-1.428557,55.033053],[-1.429332,55.031848],[-1.429333,55.030761],[-1.42717,55.026435],[-1.42393,55.02363],[-1.422408,55.022814],[-1.419863,55.022992],[-1.420088,55.020376],[-1.420714,55.019579],[-1.419584,55.018748],[-1.418484,55.018503],[-1.417188,55.01891],[-1.415394,55.018437],[-1.415851,55.016848],[-1.403973,55.014744],[-1.415243,55.016622],[-1.41737,55.016661],[-1.417205,55.015746],[-1.41628,55.015274],[-1.41677,55.014403],[-1.417672,55.014111],[-1.422282,55.013772],[-1.42585,55.014012],[-1.429738,55.013319],[-1.432328,55.010547],[-1.431852,55.009797],[-1.432628,55.009743],[-1.432728,55.009043],[-1.436063,55.00818],[-1.434959,55.00875],[-1.435038,55.009414],[-1.436691,55.008392],[-1.442642,55.006357],[-1.445245,55.002735],[-1.445464,55.001661],[-1.447569,55.002482],[-1.445537,55.001452],[-1.44585,55.001161],[-1.445473,55.000972],[-1.446336,54.997997],[-1.447496,54.997189],[-1.449515,54.996489],[-1.450777,54.996427],[-1.449631,54.996199],[-1.450425,54.995951],[-1.447424,54.995881],[-1.448716,54.993069],[-1.453246,54.989811],[-1.453574,54.98994],[-1.456506,54.988566],[-1.458576,54.988911],[-1.45869,54.988557],[-1.460789,54.988561],[-1.471814,54.989162],[-1.470708,54.989841],[-1.470566,54.990577],[-1.469659,54.99087],[-1.470274,54.991041],[-1.471372,54.990822],[-1.471409,54.990562],[-1.474624,54.990128],[-1.474407,54.989619],[-1.473541,54.989654],[-1.473344,54.988963],[-1.481977,54.988224],[-1.488951,54.988539],[-1.501781,54.988527],[-1.50189,54.989573],[-1.504778,54.992521],[-1.50762,54.993688],[-1.514513,54.995905],[-1.51775,54.996347],[-1.514634,54.995795],[-1.508745,54.993944],[-1.504808,54.992278],[-1.502521,54.988492],[-1.505176,54.988394],[-1.50551,54.988634],[-1.505816,54.988352],[-1.50797,54.988277],[-1.50844,54.988605],[-1.509334,54.988196],[-1.519516,54.987777],[-1.523777,54.9869],[-1.529622,54.984719],[-1.530449,54.986306],[-1.531285,54.986181],[-1.53089,54.984242],[-1.5337,54.98575],[-1.537898,54.982958],[-1.539986,54.983319],[-1.539788,54.984478],[-1.538833,54.985663],[-1.539027,54.986732],[-1.538385,54.987041],[-1.540443,54.989891],[-1.545782,54.989025],[-1.546976,54.992105],[-1.547917,54.992621],[-1.549338,54.990472],[-1.550206,54.990539],[-1.55229,54.989702],[-1.556358,54.993371],[-1.558634,54.992797],[-1.561251,54.991435],[-1.562981,54.992317],[-1.56059,54.995879],[-1.558932,55.000014],[-1.558504,55.005544],[-1.561606,55.006227],[-1.571981,55.003923],[-1.572618,55.006803],[-1.574701,55.006585],[-1.57444,55.005682],[-1.577136,55.005325],[-1.579214,55.009792],[-1.583921,55.008887],[-1.587965,55.008638],[-1.600266,55.009838],[-1.601132,55.011965],[-1.599063,55.017566],[-1.594163,55.023798],[-1.593853,55.023651],[-1.592464,55.024441],[-1.587777,55.025433],[-1.587383,55.025778],[-1.590727,55.030861],[-1.592104,55.034662],[-1.592638,55.03894],[-1.593736,55.038934],[-1.593962,55.03935],[-1.602153,55.039756],[-1.616589,55.041294],[-1.619462,55.040473],[-1.622396,55.038956],[-1.622933,55.03904],[-1.622431,55.040166],[-1.623672,55.04034],[-1.62384,55.039931],[-1.626069,55.040223],[-1.6262,55.041425],[-1.638508,55.041551],[-1.639713,55.044082],[-1.638335,55.045813],[-1.634231,55.047961],[-1.632209,55.048229],[-1.637059,55.061777],[-1.639689,55.063584],[-1.63939,55.064315],[-1.636271,55.065206],[-1.63396,55.065121],[-1.632902,55.065902],[-1.631274,55.065525],[-1.631069,55.065138],[-1.621363,55.066452],[-1.615035,55.06469],[-1.612753,55.06434],[-1.612256,55.064536],[-1.611875,55.064221],[-1.607481,55.064262],[-1.606914,55.064711],[-1.605858,55.06475],[-1.605621,55.065114],[-1.603814,55.065133],[-1.603662,55.064746],[-1.6013,55.065138],[-1.600718,55.064783],[-1.599994,55.064944],[-1.599141,55.064276],[-1.595639,55.063623],[-1.594935,55.064087],[-1.589861,55.064027],[-1.588525,55.06341],[-1.584275,55.062435],[-1.581431,55.063006],[-1.57854,55.063081],[-1.577166,55.05926],[-1.576854,55.056606],[-1.575989,55.056458],[-1.575964,55.05601],[-1.57508,55.05562],[-1.572346,55.055837],[-1.570649,55.055244],[-1.566497,55.054559],[-1.556297,55.054157],[-1.550577,55.056073],[-1.547548,55.056671],[-1.54513,55.057872],[-1.542862,55.058427],[-1.541915,55.059605],[-1.541047,55.059804],[-1.540691,55.061179],[-1.539881,55.061582],[-1.532393,55.054126],[-1.526162,55.05395],[-1.52617,55.054512],[-1.51993,55.054771],[-1.515085,55.054128],[-1.51534,55.055029],[-1.510274,55.055052],[-1.508825,55.048041],[-1.504726,55.049259],[-1.503701,55.049924],[-1.503204,55.049873],[-1.502932,55.050343],[-1.502164,55.050242],[-1.496237,55.052104],[-1.492938,55.053828],[-1.49298,55.0544],[-1.490553,55.054452],[-1.487767,55.053587],[-1.487372,55.055868],[-1.492297,55.066018],[-1.488461,55.065571],[-1.486642,55.066042],[-1.483629,55.06616],[-1.482272,55.066975],[-1.479644,55.067209],[-1.477474,55.070329],[-1.474264,55.071325],[-1.474137,55.072357],[-1.470717,55.074486],[-1.467372,55.074935],[-1.466646,55.07441]]]]}}]}