{"type":"FeatureCollection","features":[{"type":"Feature","properties":{"slug":"north-somerset","gss_code":"E06000024","name":"North Somerset"},"geometry":{"type":"MultiPolygon","coordinates":[[[[-3.109498,51.33841],[-3.110957,51.33858],[-3.111677,51.338208],[-3.113055,51.338561],[-3.11506,51.339616],[-3.113572,51.340481],[-3.108261,51.341392],[-3.106019,51.341429],[-3.103746,51.340688],[-3.103807,51.340246],[-3.103028,51.339474],[-3.104187,51.338812],[-3.109498,51.33841]]],[[[-2.727451,51.499671],[-2.726652,51.500457],[-2.72279,51.501596],[-2.718209,51.50138],[-2.716496,51.500605],[-2.717565,51.500327],[-2.712796,51.497666],[-2.711689,51.496477],[-2.705924,51.494805],[-2.70509,51.494232],[-2.704757,51.494532],[-2.704647,51.494295],[-2.703817,51.49432],[-2.703841,51.494084],[-2.701095,51.493217],[-2.701172,51.492661],[-2.700114,51.492651],[-2.69923,51.491806],[-2.69614,51.489947],[-2.695837,51.48929],[-2.694531,51.48897],[-2.694492,51.488601],[-2.693985,51.488639],[-2.69163,51.48681],[-2.69232,51.486151],[-2.691191,51.486521],[-2.687564,51.48377],[-2.684549,51.482204],[-2.684848,51.480462],[-2.684384,51.480453],[-2.683572,51.481758],[-2.680358,51.480355],[-2.676245,51.479677],[-2.673139,51.48025],[-2.67051,51.481182],[-2.668224,51.482449],[-2.667842,51.482303],[-2.668751,51.481244],[-2.667144,51.482112],[-2.667208,51.482983],[-2.665511,51.484031],[-2.664599,51.486086],[-2.663583,51.486709],[-2.662499,51.486757],[-2.661353,51.486378],[-2.652621,51.479203],[-2.651814,51.477509],[-2.651134,51.473658],[-2.650434,51.47352],[-2.648734,51.472047],[-2.646103,51.470504],[-2.641476,51.469069],[-2.637197,51.468232],[-2.634367,51.466802],[-2.631846,51.461566],[-2.631542,51.459967],[-2.632093,51.458692],[-2.631851,51.457737],[-2.628684,51.454889],[-2.627936,51.452628],[-2.625801,51.448755],[-2.626425,51.448351],[-2.627005,51.446668],[-2.62966,51.446136],[-2.633085,51.447236],[-2.635618,51.445302],[-2.635594,51.444924],[-2.636844,51.444268],[-2.636631,51.443216],[-2.637972,51.441977],[-2.638967,51.441869],[-2.639895,51.441358],[-2.640085,51.440441],[-2.634234,51.439277],[-2.630375,51.439611],[-2.630009,51.438486],[-2.630522,51.438225],[-2.629525,51.437372],[-2.633498,51.435808],[-2.633469,51.43027],[-2.634037,51.425842],[-2.637086,51.4232],[-2.636317,51.422143],[-2.634823,51.421561],[-2.634605,51.421049],[-2.632464,51.420346],[-2.630612,51.418707],[-2.632524,51.417566],[-2.631227,51.415952],[-2.628744,51.416001],[-2.629122,51.414719],[-2.629786,51.414722],[-2.631122,51.411664],[-2.632354,51.410316],[-2.630883,51.410112],[-2.631692,51.408499],[-2.633269,51.407474],[-2.635465,51.406976],[-2.634897,51.406008],[-2.633153,51.405284],[-2.633252,51.403442],[-2.630467,51.402111],[-2.629587,51.402295],[-2.627955,51.40186],[-2.627372,51.402515],[-2.625805,51.403154],[-2.625931,51.403818],[-2.623231,51.404126],[-2.622322,51.403706],[-2.621926,51.404317],[-2.61966,51.404383],[-2.619099,51.403913],[-2.619158,51.401943],[-2.617364,51.401751],[-2.617468,51.402397],[-2.614067,51.402348],[-2.61371,51.402696],[-2.612344,51.402266],[-2.612494,51.401345],[-2.611602,51.401173],[-2.608421,51.401358],[-2.60722,51.400979],[-2.606501,51.401394],[-2.604871,51.400442],[-2.604294,51.399376],[-2.602789,51.39882],[-2.600997,51.399531],[-2.600937,51.400222],[-2.597049,51.400155],[-2.597567,51.399011],[-2.595735,51.397929],[-2.594069,51.397692],[-2.593512,51.397982],[-2.592549,51.397255],[-2.591839,51.397673],[-2.59219,51.398194],[-2.590132,51.397545],[-2.58946,51.396898],[-2.589868,51.396691],[-2.587202,51.395425],[-2.587275,51.395149],[-2.590576,51.394257],[-2.592659,51.396042],[-2.593952,51.395641],[-2.591856,51.393869],[-2.594898,51.393483],[-2.597083,51.393594],[-2.597179,51.392808],[-2.599692,51.393147],[-2.599914,51.393682],[-2.603362,51.393954],[-2.603448,51.393453],[-2.604431,51.393113],[-2.604057,51.391895],[-2.604401,51.391699],[-2.60372,51.391012],[-2.604189,51.389988],[-2.603114,51.389552],[-2.602714,51.388976],[-2.603116,51.388824],[-2.605137,51.389403],[-2.605331,51.39007],[-2.607763,51.390793],[-2.608354,51.390502],[-2.607402,51.388991],[-2.609678,51.389002],[-2.610596,51.389528],[-2.611661,51.389622],[-2.612162,51.388627],[-2.614506,51.388729],[-2.614087,51.390098],[-2.614983,51.391316],[-2.617122,51.390437],[-2.618826,51.390438],[-2.620813,51.389724],[-2.620804,51.389375],[-2.622704,51.389409],[-2.623146,51.388372],[-2.621796,51.387951],[-2.622387,51.386559],[-2.62065,51.386065],[-2.61918,51.386164],[-2.615459,51.385542],[-2.615655,51.385385],[-2.613737,51.385415],[-2.613621,51.384112],[-2.612059,51.383728],[-2.61416,51.383699],[-2.615476,51.38326],[-2.614658,51.382176],[-2.613022,51.38252],[-2.61246,51.381765],[-2.613437,51.381617],[-2.613344,51.381327],[-2.614086,51.381217],[-2.613911,51.38099],[-2.61456,51.380708],[-2.615466,51.381113],[-2.615696,51.381949],[-2.616618,51.381851],[-2.617079,51.381058],[-2.618907,51.381476],[-2.619124,51.382601],[-2.618343,51.382188],[-2.61879,51.383797],[-2.619346,51.38381],[-2.619327,51.382903],[-2.620859,51.383664],[-2.621387,51.38359],[-2.621451,51.383862],[-2.622168,51.383962],[-2.62236,51.384902],[-2.623,51.385541],[-2.626953,51.387134],[-2.627631,51.386558],[-2.627458,51.385784],[-2.627005,51.385672],[-2.627274,51.384957],[-2.627851,51.384858],[-2.628369,51.385443],[-2.62966,51.385165],[-2.629048,51.384393],[-2.629749,51.384103],[-2.628928,51.383672],[-2.629118,51.383203],[-2.62862,51.382921],[-2.628906,51.382691],[-2.629194,51.382461],[-2.629925,51.38281],[-2.629563,51.383047],[-2.630632,51.383455],[-2.630206,51.383725],[-2.630849,51.384033],[-2.631793,51.383246],[-2.630292,51.382518],[-2.631136,51.381828],[-2.629549,51.38234],[-2.628184,51.382106],[-2.627327,51.38052],[-2.629932,51.380393],[-2.631235,51.380688],[-2.631648,51.379766],[-2.631114,51.378912],[-2.630619,51.378861],[-2.63116,51.377985],[-2.631465,51.377771],[-2.633822,51.378159],[-2.634757,51.377903],[-2.632365,51.377184],[-2.629795,51.375449],[-2.630023,51.375213],[-2.63216,51.374396],[-2.632292,51.374054],[-2.634057,51.375189],[-2.634036,51.375602],[-2.634558,51.374305],[-2.636492,51.374841],[-2.637669,51.374375],[-2.637959,51.373637],[-2.638626,51.373245],[-2.64015,51.373987],[-2.639403,51.374786],[-2.640159,51.374984],[-2.639608,51.37567],[-2.640225,51.375501],[-2.641239,51.374459],[-2.642522,51.375333],[-2.64296,51.374854],[-2.644405,51.375134],[-2.643371,51.374611],[-2.646311,51.373003],[-2.647791,51.371544],[-2.649214,51.36932],[-2.649881,51.368948],[-2.650527,51.365798],[-2.649609,51.362355],[-2.650174,51.360344],[-2.650157,51.357556],[-2.650127,51.355707],[-2.649531,51.354297],[-2.650553,51.353737],[-2.651489,51.352299],[-2.651329,51.350927],[-2.651868,51.350578],[-2.651884,51.346244],[-2.651178,51.345044],[-2.652527,51.343891],[-2.653777,51.343363],[-2.65444,51.343423],[-2.655166,51.342593],[-2.657227,51.342369],[-2.657904,51.341814],[-2.659402,51.341446],[-2.66103,51.341579],[-2.660423,51.34242],[-2.660617,51.343026],[-2.661141,51.343073],[-2.663401,51.342725],[-2.668591,51.343112],[-2.668992,51.342917],[-2.669743,51.343197],[-2.670865,51.340935],[-2.673053,51.341233],[-2.673536,51.343107],[-2.676569,51.34194],[-2.67697,51.345681],[-2.675478,51.345729],[-2.676458,51.343514],[-2.674239,51.343462],[-2.673146,51.345505],[-2.671231,51.345246],[-2.670997,51.346542],[-2.673686,51.347159],[-2.674074,51.346664],[-2.676627,51.347541],[-2.677166,51.348577],[-2.676422,51.34918],[-2.676477,51.349745],[-2.675615,51.349571],[-2.675627,51.350171],[-2.676415,51.351367],[-2.676832,51.351107],[-2.677299,51.35175],[-2.678029,51.353505],[-2.673131,51.353816],[-2.673493,51.354863],[-2.674325,51.35487],[-2.674667,51.355899],[-2.670914,51.356958],[-2.669531,51.356943],[-2.66848,51.358805],[-2.668725,51.360614],[-2.669417,51.361767],[-2.671751,51.361624],[-2.672371,51.361],[-2.67353,51.361543],[-2.676021,51.361911],[-2.677799,51.361509],[-2.677244,51.360577],[-2.679688,51.360085],[-2.680258,51.361617],[-2.680848,51.361988],[-2.680126,51.363031],[-2.680855,51.363986],[-2.680815,51.366289],[-2.682211,51.366538],[-2.681481,51.367324],[-2.682321,51.369504],[-2.685385,51.368749],[-2.686187,51.373085],[-2.686621,51.37453],[-2.687087,51.374656],[-2.686627,51.374744],[-2.687643,51.37731],[-2.689587,51.380148],[-2.694191,51.379837],[-2.693987,51.377897],[-2.695284,51.376128],[-2.694968,51.375446],[-2.695572,51.36957],[-2.695178,51.369406],[-2.694995,51.368444],[-2.696145,51.368415],[-2.6962,51.367783],[-2.696754,51.367444],[-2.69646,51.366642],[-2.695583,51.367119],[-2.69499,51.367078],[-2.694259,51.366052],[-2.69405,51.36484],[-2.694573,51.364602],[-2.694169,51.364049],[-2.696694,51.362437],[-2.695174,51.361941],[-2.696459,51.361386],[-2.695714,51.360066],[-2.694732,51.359986],[-2.694702,51.359509],[-2.693828,51.35902],[-2.694329,51.359055],[-2.693913,51.358387],[-2.693107,51.358263],[-2.693013,51.357169],[-2.69224,51.357029],[-2.692138,51.358048],[-2.690877,51.356847],[-2.691628,51.356944],[-2.69179,51.356212],[-2.689931,51.352862],[-2.690501,51.349528],[-2.691943,51.348888],[-2.694873,51.344378],[-2.699456,51.343148],[-2.701735,51.343987],[-2.704055,51.343524],[-2.704838,51.342409],[-2.704783,51.34181],[-2.705854,51.341816],[-2.707536,51.340758],[-2.707754,51.340372],[-2.707275,51.339964],[-2.707892,51.337803],[-2.705769,51.337737],[-2.703163,51.336752],[-2.701921,51.337014],[-2.701616,51.336513],[-2.699944,51.335676],[-2.698845,51.335827],[-2.698359,51.335495],[-2.697757,51.335562],[-2.69758,51.33516],[-2.694137,51.333404],[-2.692666,51.332189],[-2.689015,51.330868],[-2.687719,51.330776],[-2.687182,51.330358],[-2.693548,51.321944],[-2.69336,51.32166],[-2.695128,51.318523],[-2.694877,51.318076],[-2.696258,51.317505],[-2.697546,51.317987],[-2.696936,51.316107],[-2.699494,51.316536],[-2.699452,51.31683],[-2.703108,51.317061],[-2.708763,51.317171],[-2.716806,51.316751],[-2.720847,51.321489],[-2.721161,51.321474],[-2.721427,51.319443],[-2.725433,51.318307],[-2.728072,51.31718],[-2.729885,51.318056],[-2.733024,51.318876],[-2.732998,51.318413],[-2.733842,51.318199],[-2.73389,51.318529],[-2.736251,51.319225],[-2.735989,51.319614],[-2.739432,51.319805],[-2.74445,51.319254],[-2.747839,51.319726],[-2.74901,51.319091],[-2.752641,51.320033],[-2.753922,51.319725],[-2.754978,51.320517],[-2.755318,51.321292],[-2.754722,51.323032],[-2.754864,51.324491],[-2.75627,51.324567],[-2.756501,51.323934],[-2.761482,51.322112],[-2.765095,51.322451],[-2.768634,51.323709],[-2.772915,51.323406],[-2.778216,51.323521],[-2.785402,51.324155],[-2.786384,51.324743],[-2.789278,51.324625],[-2.791097,51.325113],[-2.795241,51.325292],[-2.79565,51.324884],[-2.797233,51.325838],[-2.797637,51.326691],[-2.798483,51.326932],[-2.799792,51.326135],[-2.80203,51.326525],[-2.806445,51.326107],[-2.810885,51.326689],[-2.812136,51.327141],[-2.814215,51.32709],[-2.818569,51.326381],[-2.818752,51.325193],[-2.81851,51.322769],[-2.819037,51.322701],[-2.818407,51.321304],[-2.818902,51.321272],[-2.818863,51.320726],[-2.81874,51.320318],[-2.818181,51.320335],[-2.817942,51.319024],[-2.812734,51.318299],[-2.811978,51.31727],[-2.810522,51.317144],[-2.81013,51.315521],[-2.807819,51.314836],[-2.807253,51.311726],[-2.810325,51.311314],[-2.812074,51.310698],[-2.812228,51.308991],[-2.810825,51.307366],[-2.809967,51.305594],[-2.810236,51.301424],[-2.820652,51.300841],[-2.821754,51.301105],[-2.853171,51.299455],[-2.856626,51.300112],[-2.864336,51.300139],[-2.867931,51.302217],[-2.877189,51.300104],[-2.879111,51.303013],[-2.880369,51.303853],[-2.88147,51.30349],[-2.882546,51.304849],[-2.884936,51.30666],[-2.886201,51.305929],[-2.886796,51.305052],[-2.888123,51.304902],[-2.893526,51.29505],[-2.897104,51.290615],[-2.91317,51.293648],[-2.914652,51.294238],[-2.917957,51.294638],[-2.919211,51.295733],[-2.924166,51.298431],[-2.925294,51.298552],[-2.92792,51.297985],[-2.931649,51.299093],[-2.933765,51.301939],[-2.936429,51.303014],[-2.937616,51.303043],[-2.939023,51.302591],[-2.950708,51.302725],[-2.952123,51.303233],[-2.953011,51.304264],[-2.953714,51.304497],[-2.960983,51.304847],[-2.962602,51.304611],[-2.963032,51.302663],[-2.962296,51.299938],[-2.96321,51.298709],[-2.964361,51.29785],[-2.970122,51.296089],[-2.973715,51.295705],[-2.977211,51.297384],[-2.981305,51.29758],[-2.983351,51.29829],[-2.988073,51.29852],[-2.990874,51.299433],[-2.99263,51.30038],[-2.993145,51.30102],[-2.992825,51.301176],[-2.994094,51.302883],[-2.99426,51.30625],[-2.993388,51.307172],[-2.992257,51.307613],[-2.989738,51.307982],[-2.988347,51.307739],[-2.987227,51.308238],[-2.986098,51.307765],[-2.987092,51.308415],[-2.988207,51.308154],[-2.989017,51.308345],[-2.987011,51.309667],[-2.985594,51.311611],[-2.984398,51.311872],[-2.985342,51.311883],[-2.985141,51.312775],[-2.985887,51.314579],[-2.98528,51.315228],[-2.986996,51.31687],[-2.985838,51.31828],[-2.986072,51.319474],[-2.985248,51.319218],[-2.986042,51.320538],[-2.985904,51.32103],[-2.985212,51.321359],[-2.985979,51.321176],[-2.986262,51.320748],[-2.985924,51.320082],[-2.986353,51.319528],[-2.986355,51.317909],[-2.987454,51.317025],[-2.98637,51.315466],[-2.986589,51.31514],[-2.988336,51.316036],[-2.988605,51.316512],[-2.990794,51.317385],[-2.99224,51.318958],[-2.992474,51.320661],[-2.992881,51.320896],[-2.992393,51.321656],[-2.991862,51.321795],[-2.988658,51.327832],[-2.986059,51.334534],[-2.982892,51.346731],[-2.982809,51.349637],[-2.983312,51.35067],[-2.984881,51.351574],[-2.98624,51.351889],[-2.987602,51.35175],[-2.98868,51.351253],[-2.988759,51.350843],[-2.990008,51.351082],[-2.99004,51.351771],[-2.988786,51.351743],[-2.988539,51.352001],[-2.988768,51.353206],[-2.992132,51.353565],[-2.993943,51.354073],[-2.993772,51.35453],[-2.994546,51.354799],[-2.994905,51.355603],[-2.994197,51.357046],[-2.992409,51.357643],[-2.99221,51.358161],[-2.991544,51.358449],[-2.988748,51.358931],[-2.987372,51.359509],[-2.986156,51.359475],[-2.984586,51.360255],[-2.980242,51.36098],[-2.979791,51.361334],[-2.978701,51.361109],[-2.974852,51.362049],[-2.971312,51.362438],[-2.970276,51.362719],[-2.969568,51.363366],[-2.969154,51.362998],[-2.966956,51.364],[-2.964593,51.372175],[-2.962196,51.375213],[-2.962482,51.382394],[-2.963705,51.383262],[-2.966885,51.383637],[-2.967395,51.384514],[-2.967162,51.385638],[-2.968905,51.386448],[-2.970282,51.387677],[-2.972285,51.387714],[-2.97295,51.388204],[-2.979165,51.388089],[-2.980824,51.388429],[-2.977683,51.388545],[-2.971929,51.389626],[-2.97211,51.390101],[-2.968137,51.391035],[-2.965034,51.392275],[-2.960633,51.392281],[-2.958691,51.392656],[-2.957867,51.392011],[-2.957092,51.392018],[-2.955894,51.392567],[-2.954392,51.392783],[-2.954002,51.393324],[-2.952948,51.39369],[-2.951602,51.393818],[-2.951464,51.39447],[-2.947937,51.395953],[-2.939762,51.398164],[-2.937272,51.398093],[-2.936721,51.396463],[-2.9375,51.395698],[-2.937128,51.395028],[-2.937623,51.394767],[-2.937521,51.39442],[-2.937991,51.394355],[-2.938046,51.392848],[-2.938865,51.392266],[-2.939386,51.391046],[-2.93893,51.391041],[-2.938696,51.39195],[-2.938203,51.392012],[-2.938131,51.392364],[-2.937443,51.392813],[-2.936386,51.392763],[-2.936021,51.39331],[-2.93525,51.39246],[-2.933814,51.392705],[-2.933916,51.391575],[-2.932693,51.391511],[-2.932573,51.390756],[-2.931217,51.389517],[-2.930842,51.38979],[-2.932058,51.390853],[-2.93219,51.391671],[-2.933363,51.39186],[-2.933384,51.393041],[-2.934947,51.392794],[-2.936003,51.393707],[-2.937026,51.393469],[-2.935093,51.395334],[-2.92935,51.394514],[-2.917313,51.395866],[-2.913935,51.395348],[-2.913858,51.394898],[-2.910251,51.394131],[-2.908385,51.392769],[-2.906862,51.392569],[-2.90545,51.391692],[-2.901311,51.391189],[-2.899895,51.39138],[-2.898463,51.390221],[-2.898319,51.38926],[-2.895248,51.387782],[-2.890699,51.387471],[-2.890407,51.387616],[-2.89106,51.387792],[-2.890423,51.388127],[-2.892659,51.387971],[-2.892847,51.388277],[-2.893059,51.388087],[-2.895464,51.388475],[-2.897312,51.389342],[-2.897742,51.390553],[-2.899301,51.392232],[-2.899006,51.392822],[-2.898141,51.393134],[-2.896587,51.392576],[-2.895828,51.392668],[-2.898305,51.393294],[-2.899325,51.392971],[-2.900022,51.392027],[-2.903766,51.392258],[-2.905421,51.393315],[-2.906859,51.393283],[-2.909497,51.394731],[-2.912454,51.395312],[-2.912958,51.395941],[-2.9096,51.398797],[-2.907004,51.399758],[-2.89583,51.406631],[-2.893901,51.408506],[-2.893932,51.409566],[-2.892842,51.410669],[-2.890842,51.412504],[-2.889153,51.413113],[-2.889355,51.413266],[-2.887963,51.414495],[-2.887291,51.414184],[-2.887324,51.413355],[-2.88669,51.414415],[-2.887339,51.415544],[-2.885084,51.419012],[-2.882817,51.425603],[-2.881789,51.426124],[-2.880323,51.427605],[-2.877292,51.428005],[-2.875558,51.42778],[-2.875672,51.428127],[-2.874466,51.428789],[-2.875788,51.429353],[-2.875313,51.429769],[-2.875739,51.429879],[-2.875822,51.430482],[-2.876143,51.429295],[-2.875418,51.42885],[-2.875978,51.428573],[-2.876665,51.43032],[-2.879234,51.431192],[-2.879163,51.431855],[-2.872249,51.434531],[-2.870129,51.435807],[-2.86671,51.436666],[-2.865943,51.437395],[-2.865789,51.438379],[-2.865052,51.438619],[-2.86509,51.439061],[-2.863604,51.439933],[-2.862246,51.440303],[-2.861798,51.440785],[-2.861991,51.441851],[-2.861557,51.442582],[-2.86202,51.442771],[-2.862076,51.443376],[-2.860121,51.445679],[-2.857275,51.448124],[-2.85383,51.450106],[-2.85207,51.451731],[-2.852079,51.45228],[-2.852772,51.452862],[-2.849074,51.455405],[-2.84338,51.458259],[-2.841751,51.458764],[-2.838543,51.460518],[-2.837372,51.461713],[-2.831806,51.464242],[-2.829874,51.465516],[-2.823646,51.467124],[-2.823538,51.467619],[-2.821422,51.469331],[-2.819299,51.470525],[-2.819459,51.47085],[-2.818623,51.471525],[-2.819123,51.471874],[-2.818716,51.471815],[-2.818153,51.472792],[-2.817226,51.473306],[-2.815688,51.474873],[-2.815215,51.474924],[-2.815284,51.475209],[-2.813832,51.475677],[-2.811834,51.477346],[-2.810255,51.477769],[-2.809365,51.479375],[-2.808145,51.479631],[-2.806082,51.48127],[-2.804625,51.481689],[-2.802949,51.482681],[-2.799866,51.485198],[-2.797139,51.486045],[-2.795344,51.485728],[-2.791237,51.486547],[-2.784138,51.487064],[-2.781772,51.488211],[-2.777891,51.489504],[-2.777639,51.490014],[-2.776416,51.490576],[-2.777031,51.490353],[-2.777905,51.490551],[-2.776818,51.490691],[-2.777255,51.490901],[-2.777,51.491146],[-2.776307,51.491352],[-2.776195,51.491145],[-2.7763,51.491407],[-2.77561,51.491618],[-2.775055,51.491539],[-2.775293,51.491197],[-2.774971,51.491404],[-2.774911,51.491185],[-2.774721,51.491599],[-2.774078,51.491531],[-2.774212,51.492033],[-2.772619,51.493715],[-2.772746,51.494172],[-2.773547,51.49434],[-2.773222,51.494671],[-2.758734,51.495121],[-2.756585,51.493908],[-2.755664,51.493755],[-2.757937,51.491819],[-2.756575,51.492569],[-2.754447,51.492348],[-2.753192,51.491623],[-2.752403,51.492482],[-2.752627,51.493027],[-2.745931,51.492824],[-2.736693,51.494054],[-2.735938,51.493998],[-2.735409,51.49355],[-2.735959,51.493009],[-2.735558,51.492381],[-2.73511,51.492624],[-2.732534,51.49247],[-2.732199,51.492883],[-2.732601,51.492536],[-2.735437,51.492915],[-2.734824,51.49385],[-2.735462,51.494334],[-2.734733,51.494317],[-2.7342,51.49393],[-2.734296,51.494256],[-2.73342,51.494072],[-2.733687,51.494491],[-2.732877,51.49528],[-2.732897,51.494728],[-2.732502,51.494677],[-2.732863,51.494772],[-2.732492,51.495602],[-2.731941,51.495932],[-2.731554,51.495466],[-2.731884,51.495931],[-2.730958,51.496469],[-2.730415,51.496009],[-2.73089,51.496517],[-2.728024,51.497663],[-2.7272,51.498605],[-2.727917,51.499107],[-2.727277,51.498966],[-2.726914,51.49927],[-2.73075,51.501799],[-2.730527,51.50224],[-2.729454,51.502488],[-2.730363,51.502199],[-2.730553,51.501811],[-2.727451,51.499671]]]]}}]}