{"type":"FeatureCollection","features":[{"type":"Feature","properties":{"slug":"north-warwickshire","gss_code":"E07000218","name":"North Warwickshire"},"geometry":{"type":"Polygon","coordinates":[[[-1.576864,52.67836],[-1.57031,52.679726],[-1.569911,52.678768],[-1.569106,52.679667],[-1.566475,52.677602],[-1.569158,52.676774],[-1.570428,52.675843],[-1.56604,52.674425],[-1.560021,52.671321],[-1.552807,52.668462],[-1.551771,52.667455],[-1.552182,52.666898],[-1.546098,52.659062],[-1.547289,52.655973],[-1.542422,52.653626],[-1.544661,52.651559],[-1.544958,52.650563],[-1.544292,52.649467],[-1.542794,52.648239],[-1.542804,52.64762],[-1.544287,52.64568],[-1.544823,52.644134],[-1.546993,52.64227],[-1.550631,52.641128],[-1.553307,52.640779],[-1.556047,52.638276],[-1.559014,52.637259],[-1.565695,52.63627],[-1.571,52.63612],[-1.57136,52.635131],[-1.571019,52.634038],[-1.56651,52.63235],[-1.56461,52.631242],[-1.565881,52.630325],[-1.566483,52.629253],[-1.566011,52.625968],[-1.567535,52.622584],[-1.566868,52.62062],[-1.56442,52.619941],[-1.561195,52.619807],[-1.560607,52.617075],[-1.5564,52.615191],[-1.554452,52.614762],[-1.554244,52.613517],[-1.55643,52.610672],[-1.557038,52.609246],[-1.557097,52.601323],[-1.560698,52.596119],[-1.558058,52.596165],[-1.55708,52.595773],[-1.557064,52.594992],[-1.556199,52.59407],[-1.552541,52.593718],[-1.550871,52.593047],[-1.550246,52.593085],[-1.55002,52.592641],[-1.549214,52.592913],[-1.546587,52.591384],[-1.546151,52.59058],[-1.544158,52.589674],[-1.542627,52.589432],[-1.537469,52.589566],[-1.537532,52.589054],[-1.536099,52.588038],[-1.535309,52.587943],[-1.534733,52.58718],[-1.531673,52.585745],[-1.531387,52.584746],[-1.532149,52.584433],[-1.531264,52.583384],[-1.528919,52.583315],[-1.527901,52.582711],[-1.527155,52.582738],[-1.527317,52.582382],[-1.525607,52.581264],[-1.525196,52.580376],[-1.525721,52.580141],[-1.525366,52.579636],[-1.526322,52.579257],[-1.525919,52.579014],[-1.52592,52.57766],[-1.525309,52.576698],[-1.526678,52.576631],[-1.526701,52.575314],[-1.525988,52.574081],[-1.522919,52.573522],[-1.52147,52.571827],[-1.521648,52.571248],[-1.523103,52.570614],[-1.522687,52.570427],[-1.464048,52.553093],[-1.459994,52.55159],[-1.462083,52.550508],[-1.464612,52.550257],[-1.473131,52.547465],[-1.479961,52.543916],[-1.480923,52.543772],[-1.4825,52.542969],[-1.485199,52.54092],[-1.486307,52.540911],[-1.486653,52.540389],[-1.48771,52.54132],[-1.490559,52.540664],[-1.493113,52.540473],[-1.495948,52.541424],[-1.497056,52.54238],[-1.498382,52.541421],[-1.498822,52.53969],[-1.50172,52.538719],[-1.503823,52.538693],[-1.511978,52.537502],[-1.517613,52.537476],[-1.52394,52.53609],[-1.527415,52.535719],[-1.531788,52.534275],[-1.533553,52.53434],[-1.535188,52.535079],[-1.538931,52.535562],[-1.540676,52.535248],[-1.541157,52.534008],[-1.542378,52.534624],[-1.54509,52.533824],[-1.549906,52.534363],[-1.553775,52.533495],[-1.554293,52.532711],[-1.55618,52.531606],[-1.554409,52.528014],[-1.551679,52.526771],[-1.55486,52.524887],[-1.556046,52.521704],[-1.55296,52.519666],[-1.554594,52.5174],[-1.55516,52.517371],[-1.553341,52.513397],[-1.55093,52.512804],[-1.549454,52.510821],[-1.547577,52.509976],[-1.5465,52.509861],[-1.546079,52.508103],[-1.542983,52.508417],[-1.541312,52.508202],[-1.542254,52.506099],[-1.536084,52.503762],[-1.532514,52.501348],[-1.531932,52.500599],[-1.531658,52.497893],[-1.530429,52.497168],[-1.529315,52.495911],[-1.523892,52.493645],[-1.521335,52.493427],[-1.523301,52.488305],[-1.517468,52.486267],[-1.515686,52.485126],[-1.51444,52.483172],[-1.514223,52.480201],[-1.51378,52.479846],[-1.513779,52.477981],[-1.514823,52.476267],[-1.521765,52.476111],[-1.531857,52.474596],[-1.538039,52.474275],[-1.541034,52.473815],[-1.545229,52.472601],[-1.539301,52.472146],[-1.539065,52.471766],[-1.537363,52.471367],[-1.537236,52.471071],[-1.535567,52.471332],[-1.535579,52.470988],[-1.53348,52.471009],[-1.532482,52.470564],[-1.53133,52.470948],[-1.530177,52.469906],[-1.533781,52.468442],[-1.536877,52.465904],[-1.539939,52.464802],[-1.545261,52.461457],[-1.547561,52.45959],[-1.54923,52.459301],[-1.551421,52.457044],[-1.553995,52.456855],[-1.554289,52.456445],[-1.558522,52.456666],[-1.561192,52.455223],[-1.562959,52.455981],[-1.568421,52.456089],[-1.574044,52.457924],[-1.577521,52.458438],[-1.578704,52.458151],[-1.585645,52.460171],[-1.589863,52.461912],[-1.589985,52.461103],[-1.593057,52.461572],[-1.594005,52.461461],[-1.594921,52.46069],[-1.596516,52.458446],[-1.595743,52.45759],[-1.59565,52.456592],[-1.594609,52.455992],[-1.596695,52.455656],[-1.598546,52.454332],[-1.600159,52.454819],[-1.602348,52.456466],[-1.603827,52.456699],[-1.606015,52.458241],[-1.610714,52.458603],[-1.612201,52.461094],[-1.614213,52.463],[-1.618318,52.464138],[-1.621729,52.463429],[-1.624452,52.463539],[-1.62688,52.462237],[-1.626651,52.461301],[-1.625784,52.460562],[-1.625944,52.459305],[-1.624662,52.45703],[-1.626919,52.456182],[-1.629715,52.453773],[-1.633155,52.452066],[-1.633596,52.45089],[-1.634716,52.450191],[-1.635053,52.448711],[-1.636309,52.448375],[-1.637541,52.44756],[-1.638421,52.445332],[-1.64159,52.443271],[-1.643257,52.443062],[-1.645251,52.442097],[-1.646996,52.442097],[-1.651136,52.440947],[-1.652793,52.440674],[-1.654675,52.440979],[-1.654868,52.440755],[-1.658319,52.441975],[-1.662287,52.444299],[-1.664888,52.442675],[-1.664543,52.440035],[-1.666586,52.435472],[-1.670743,52.436788],[-1.677154,52.436357],[-1.676596,52.437909],[-1.678145,52.438707],[-1.682033,52.439717],[-1.68355,52.440535],[-1.684418,52.441527],[-1.684209,52.442526],[-1.684697,52.442816],[-1.685346,52.445051],[-1.686479,52.446324],[-1.690023,52.448661],[-1.697448,52.45478],[-1.700408,52.458703],[-1.704128,52.460664],[-1.708517,52.46446],[-1.708516,52.465759],[-1.70906,52.466284],[-1.709858,52.46643],[-1.711158,52.474845],[-1.711657,52.474961],[-1.712684,52.476506],[-1.715273,52.478417],[-1.714802,52.478656],[-1.719029,52.480478],[-1.722527,52.48268],[-1.729988,52.488865],[-1.73308,52.491962],[-1.743079,52.506502],[-1.745169,52.508619],[-1.747556,52.510323],[-1.753519,52.512962],[-1.753934,52.51383],[-1.753257,52.514115],[-1.754091,52.515777],[-1.754922,52.515732],[-1.757077,52.517827],[-1.757039,52.518298],[-1.754319,52.518476],[-1.75381,52.521213],[-1.751341,52.520599],[-1.748776,52.520694],[-1.745823,52.52007],[-1.743868,52.520641],[-1.741637,52.52073],[-1.736229,52.522614],[-1.734826,52.523429],[-1.733785,52.523483],[-1.731825,52.52296],[-1.730916,52.523113],[-1.730289,52.523335],[-1.729585,52.524308],[-1.72885,52.524467],[-1.730418,52.525961],[-1.730821,52.525881],[-1.731571,52.527717],[-1.736916,52.529079],[-1.738823,52.528706],[-1.739755,52.52912],[-1.73867,52.529085],[-1.739422,52.531911],[-1.742347,52.531306],[-1.743527,52.532693],[-1.746853,52.531315],[-1.749086,52.531422],[-1.750412,52.533972],[-1.750915,52.536278],[-1.748361,52.536521],[-1.748993,52.541262],[-1.746428,52.541713],[-1.752106,52.543841],[-1.753577,52.545302],[-1.75576,52.554788],[-1.7564,52.55588],[-1.757813,52.555571],[-1.759953,52.555668],[-1.763424,52.556619],[-1.76534,52.556677],[-1.766293,52.557886],[-1.767731,52.558806],[-1.766919,52.559854],[-1.766914,52.561618],[-1.770152,52.563577],[-1.77423,52.564628],[-1.773908,52.565636],[-1.770341,52.567882],[-1.767902,52.568075],[-1.766792,52.568727],[-1.764529,52.569381],[-1.763563,52.570253],[-1.763577,52.570853],[-1.767017,52.571227],[-1.768199,52.572988],[-1.767724,52.573387],[-1.768078,52.574141],[-1.768884,52.574257],[-1.769688,52.574983],[-1.771283,52.575113],[-1.771933,52.574695],[-1.773373,52.574887],[-1.776649,52.574569],[-1.777999,52.575163],[-1.777948,52.575742],[-1.778833,52.575815],[-1.779151,52.576401],[-1.778684,52.57658],[-1.779495,52.578698],[-1.780268,52.578859],[-1.781359,52.58027],[-1.783608,52.581177],[-1.783849,52.581584],[-1.784836,52.581742],[-1.7868,52.583072],[-1.788283,52.58461],[-1.788461,52.586911],[-1.788002,52.587898],[-1.783923,52.589107],[-1.781014,52.591263],[-1.77665,52.592211],[-1.774042,52.592164],[-1.773052,52.591005],[-1.770547,52.589305],[-1.768328,52.589113],[-1.763186,52.590403],[-1.755678,52.591666],[-1.751309,52.593332],[-1.744743,52.593743],[-1.742288,52.594319],[-1.741154,52.594281],[-1.739191,52.593546],[-1.740352,52.590225],[-1.739011,52.589275],[-1.737515,52.588969],[-1.733506,52.589086],[-1.73314,52.58859],[-1.730161,52.588359],[-1.729261,52.587951],[-1.727529,52.588346],[-1.724285,52.588435],[-1.723105,52.587902],[-1.717718,52.589149],[-1.717486,52.588694],[-1.714193,52.588871],[-1.708007,52.58758],[-1.704654,52.587495],[-1.703823,52.587594],[-1.704085,52.588498],[-1.703197,52.588619],[-1.704162,52.589266],[-1.703041,52.590233],[-1.704141,52.590075],[-1.704021,52.590608],[-1.700316,52.590885],[-1.699258,52.5902],[-1.698648,52.590872],[-1.697532,52.591003],[-1.695873,52.590272],[-1.694595,52.590201],[-1.693891,52.589305],[-1.691498,52.589337],[-1.691356,52.58897],[-1.68984,52.589004],[-1.688629,52.588654],[-1.685658,52.589364],[-1.686061,52.592727],[-1.685786,52.593412],[-1.682855,52.593281],[-1.68272,52.59378],[-1.681432,52.593738],[-1.68032,52.593505],[-1.679223,52.592709],[-1.677665,52.593264],[-1.673646,52.592597],[-1.669066,52.592675],[-1.666664,52.59211],[-1.66564,52.592252],[-1.665298,52.594316],[-1.665708,52.595666],[-1.660781,52.59451],[-1.659874,52.595582],[-1.655099,52.595672],[-1.655509,52.596608],[-1.653008,52.597302],[-1.651578,52.598418],[-1.648864,52.598611],[-1.649137,52.600762],[-1.64518,52.603125],[-1.643777,52.603355],[-1.642913,52.605642],[-1.642193,52.606418],[-1.640978,52.606963],[-1.639777,52.608393],[-1.639087,52.610702],[-1.639841,52.614694],[-1.63905,52.615742],[-1.637063,52.617083],[-1.636015,52.619617],[-1.638679,52.620743],[-1.640156,52.62008],[-1.644118,52.620791],[-1.643086,52.623204],[-1.638181,52.625521],[-1.641945,52.63003],[-1.642422,52.63149],[-1.640188,52.634195],[-1.638217,52.637778],[-1.642538,52.640958],[-1.632994,52.643527],[-1.634603,52.64397],[-1.635989,52.64527],[-1.639387,52.647223],[-1.640306,52.648144],[-1.640692,52.649595],[-1.642711,52.651017],[-1.642123,52.652053],[-1.642905,52.654449],[-1.644987,52.657485],[-1.639372,52.658786],[-1.639197,52.659315],[-1.631252,52.662502],[-1.627977,52.663491],[-1.628144,52.663889],[-1.62588,52.665528],[-1.61982,52.668214],[-1.6156,52.668756],[-1.615544,52.67198],[-1.606083,52.673189],[-1.604265,52.673721],[-1.60393,52.674197],[-1.605065,52.676168],[-1.606205,52.677033],[-1.603911,52.677891],[-1.604283,52.678999],[-1.602104,52.679621],[-1.589645,52.687261],[-1.58446,52.685104],[-1.58143,52.682448],[-1.579427,52.679626],[-1.576864,52.67836]]]}}]}