{"type":"FeatureCollection","features":[{"type":"Feature","properties":{"slug":"north-yorkshire","gss_code":"E06000065","name":"North Yorkshire"},"geometry":{"type":"MultiPolygon","coordinates":[[[[-1.040859,53.695489],[-1.040924,53.695597],[-1.0409,53.695567],[-1.040859,53.695489]]],[[[-1.053984,53.697486],[-1.053986,53.69749],[-1.053986,53.697559],[-1.053984,53.697486]]],[[[-1.042982,53.697121],[-1.044999,53.698212],[-1.044538,53.698065],[-1.042982,53.697121]]],[[[-0.992803,53.875192],[-0.986421,53.877278],[-0.980928,53.87838],[-0.967673,53.88285],[-0.963553,53.88293],[-0.957494,53.884314],[-0.948025,53.884877],[-0.948284,53.886089],[-0.945302,53.886877],[-0.943981,53.888058],[-0.941401,53.887515],[-0.939396,53.887885],[-0.938449,53.887489],[-0.93787,53.885572],[-0.935488,53.88415],[-0.934421,53.882807],[-0.934939,53.880005],[-0.93263,53.879447],[-0.930544,53.879451],[-0.929727,53.881349],[-0.928472,53.882302],[-0.928123,53.882407],[-0.927738,53.882062],[-0.926774,53.882567],[-0.924742,53.880353],[-0.923403,53.88072],[-0.922644,53.879482],[-0.925106,53.877932],[-0.930434,53.876406],[-0.938004,53.875798],[-0.940588,53.874201],[-0.940824,53.87313],[-0.938633,53.8689],[-0.938921,53.867846],[-0.940751,53.866313],[-0.943898,53.86567],[-0.946004,53.864837],[-0.94737,53.863497],[-0.948123,53.861918],[-0.94806,53.861069],[-0.944933,53.857526],[-0.941997,53.854813],[-0.945275,53.852567],[-0.946315,53.851175],[-0.946353,53.850024],[-0.944994,53.848243],[-0.945627,53.84665],[-0.947025,53.844802],[-0.946542,53.842003],[-0.943499,53.835286],[-0.940271,53.83259],[-0.940558,53.823451],[-0.939084,53.822557],[-0.933209,53.820686],[-0.930262,53.820837],[-0.928929,53.820469],[-0.927267,53.819533],[-0.924222,53.816062],[-0.923333,53.816052],[-0.922347,53.817018],[-0.920525,53.816541],[-0.920086,53.815977],[-0.921773,53.814044],[-0.924845,53.81236],[-0.927281,53.81021],[-0.928098,53.809216],[-0.929552,53.80541],[-0.930429,53.804685],[-0.932886,53.803842],[-0.934499,53.801777],[-0.934232,53.801093],[-0.931071,53.798273],[-0.928546,53.79768],[-0.928047,53.797158],[-0.931176,53.791306],[-0.933495,53.789978],[-0.93411,53.788381],[-0.934279,53.784689],[-0.936686,53.779872],[-0.935434,53.776993],[-0.933279,53.774854],[-0.932535,53.774441],[-0.93032,53.774299],[-0.929438,53.773782],[-0.928354,53.770296],[-0.928306,53.765463],[-0.929924,53.763227],[-0.932093,53.76219],[-0.934266,53.761634],[-0.936332,53.759965],[-0.939746,53.758154],[-0.944565,53.756702],[-0.951579,53.753769],[-0.9567,53.752889],[-0.963989,53.75067],[-0.972671,53.750411],[-0.97311,53.750147],[-0.976129,53.750955],[-0.980032,53.752798],[-0.984975,53.75708],[-0.987598,53.7609],[-0.987386,53.761812],[-0.985427,53.763742],[-0.986183,53.765227],[-0.987674,53.765615],[-0.994645,53.765042],[-0.997748,53.765588],[-0.999066,53.766368],[-0.999455,53.768203],[-1.000044,53.7691],[-1.000938,53.769586],[-1.001686,53.769694],[-1.003184,53.769174],[-1.010821,53.764558],[-1.017962,53.762067],[-1.021045,53.760625],[-1.024139,53.760162],[-1.025855,53.760557],[-1.032414,53.764262],[-1.033281,53.765531],[-1.03018,53.769348],[-1.028402,53.770676],[-1.026886,53.77096],[-1.022739,53.770547],[-1.021576,53.770858],[-1.020763,53.772036],[-1.021335,53.77359],[-1.024049,53.776112],[-1.02678,53.777506],[-1.028196,53.777628],[-1.032703,53.777143],[-1.036494,53.77767],[-1.044747,53.77961],[-1.051128,53.781743],[-1.062388,53.784346],[-1.064412,53.785306],[-1.06583,53.786518],[-1.065868,53.787073],[-1.064548,53.787545],[-1.054536,53.788755],[-1.049959,53.788827],[-1.047659,53.789191],[-1.0467,53.789708],[-1.045794,53.790844],[-1.046229,53.792695],[-1.047745,53.796052],[-1.047547,53.803868],[-1.046217,53.806788],[-1.044807,53.808177],[-1.042509,53.809477],[-1.042264,53.810607],[-1.044192,53.81125],[-1.049203,53.811265],[-1.052726,53.811652],[-1.061405,53.813962],[-1.063651,53.815131],[-1.067133,53.817629],[-1.069838,53.818813],[-1.074368,53.819701],[-1.079382,53.819859],[-1.081561,53.820854],[-1.083863,53.822569],[-1.084126,53.82383],[-1.083657,53.824787],[-1.079397,53.828185],[-1.075295,53.832867],[-1.075606,53.832919],[-1.075259,53.834244],[-1.075542,53.835414],[-1.076373,53.836147],[-1.078703,53.836232],[-1.083605,53.83489],[-1.088473,53.83193],[-1.089532,53.832127],[-1.092898,53.834215],[-1.098721,53.836717],[-1.100025,53.837107],[-1.104805,53.837591],[-1.118141,53.836948],[-1.120316,53.836333],[-1.124011,53.833991],[-1.126258,53.83319],[-1.127742,53.833784],[-1.128674,53.834598],[-1.129251,53.835496],[-1.129781,53.83834],[-1.133636,53.842644],[-1.133474,53.843274],[-1.132743,53.84365],[-1.130701,53.84383],[-1.127073,53.843531],[-1.125679,53.843926],[-1.124157,53.84496],[-1.123554,53.845925],[-1.123904,53.848889],[-1.123561,53.849786],[-1.119596,53.852728],[-1.118077,53.854935],[-1.117862,53.856248],[-1.118463,53.857392],[-1.12183,53.858409],[-1.123895,53.859384],[-1.127239,53.86205],[-1.127715,53.863008],[-1.127065,53.864561],[-1.125816,53.86545],[-1.121719,53.866004],[-1.119325,53.866671],[-1.11706,53.867861],[-1.112343,53.87174],[-1.106357,53.875071],[-1.104544,53.875648],[-1.101498,53.875866],[-1.100437,53.87636],[-1.099791,53.877389],[-1.099721,53.880363],[-1.096385,53.882206],[-1.095613,53.88301],[-1.095326,53.884423],[-1.093634,53.884455],[-1.091169,53.885789],[-1.089994,53.88492],[-1.087453,53.884334],[-1.085817,53.882489],[-1.083722,53.882198],[-1.081048,53.882546],[-1.079224,53.883556],[-1.077552,53.883533],[-1.07744,53.882511],[-1.076306,53.882219],[-1.076181,53.881092],[-1.075101,53.881196],[-1.073247,53.879862],[-1.071261,53.8798],[-1.068551,53.879087],[-1.064987,53.874611],[-1.060998,53.875881],[-1.054703,53.876966],[-1.052779,53.877626],[-1.051437,53.878768],[-1.046903,53.880737],[-1.036065,53.883187],[-1.029401,53.885027],[-1.02708,53.886395],[-1.023748,53.886416],[-1.021543,53.888372],[-1.018208,53.888486],[-1.008186,53.889936],[-1.003036,53.886238],[-1.000156,53.883298],[-0.998904,53.881402],[-0.992803,53.875192]]],[[[-0.793939,54.558687],[-0.793878,54.558909],[-0.793381,54.559124],[-0.793939,54.558687]]],[[[-0.789734,54.558589],[-0.787835,54.558992],[-0.787619,54.558722],[-0.785629,54.558772],[-0.783747,54.559332],[-0.781566,54.557988],[-0.77897,54.557131],[-0.776248,54.556952],[-0.775546,54.557735],[-0.774488,54.557392],[-0.775388,54.55474],[-0.77425,54.55326],[-0.772613,54.55229],[-0.771639,54.552028],[-0.769591,54.552102],[-0.76784,54.551255],[-0.766914,54.549808],[-0.765189,54.548619],[-0.765264,54.548337],[-0.765836,54.548688],[-0.765884,54.548166],[-0.767628,54.547681],[-0.767228,54.546299],[-0.761871,54.543734],[-0.76031,54.543499],[-0.758236,54.543849],[-0.754478,54.543353],[-0.753669,54.543007],[-0.753314,54.542394],[-0.75108,54.54197],[-0.749726,54.540093],[-0.749218,54.537917],[-0.747819,54.537112],[-0.747,54.536151],[-0.746964,54.535601],[-0.747849,54.53494],[-0.74802,54.534256],[-0.7495,54.533465],[-0.749599,54.53301],[-0.748795,54.531362],[-0.744581,54.528584],[-0.741901,54.527853],[-0.737932,54.527497],[-0.734588,54.527498],[-0.73071,54.528109],[-0.728724,54.52979],[-0.726585,54.530573],[-0.721827,54.530229],[-0.718393,54.530914],[-0.716322,54.532225],[-0.716374,54.534314],[-0.715772,54.534328],[-0.714604,54.53356],[-0.713021,54.533689],[-0.709937,54.531791],[-0.708251,54.531665],[-0.705751,54.530431],[-0.705057,54.52965],[-0.705306,54.528711],[-0.703844,54.526617],[-0.70238,54.525974],[-0.700477,54.525941],[-0.699797,54.525554],[-0.697459,54.523232],[-0.697416,54.522675],[-0.694696,54.521689],[-0.693886,54.52058],[-0.692288,54.520198],[-0.688615,54.520984],[-0.687808,54.520458],[-0.682348,54.519734],[-0.681058,54.517939],[-0.678376,54.516153],[-0.678487,54.51475],[-0.677505,54.514038],[-0.677772,54.513723],[-0.676797,54.513701],[-0.67579,54.513154],[-0.673124,54.512835],[-0.672632,54.512514],[-0.672679,54.510949],[-0.673958,54.510178],[-0.674313,54.507173],[-0.675033,54.506041],[-0.672179,54.503979],[-0.674028,54.503346],[-0.671812,54.503603],[-0.669201,54.50174],[-0.670416,54.500771],[-0.669135,54.501689],[-0.654786,54.497512],[-0.644498,54.495789],[-0.639927,54.495575],[-0.63177,54.493733],[-0.625616,54.491746],[-0.614161,54.490894],[-0.613049,54.492631],[-0.613163,54.49302],[-0.612846,54.493098],[-0.61273,54.49273],[-0.614246,54.490518],[-0.613936,54.49034],[-0.614642,54.488671],[-0.614183,54.48752],[-0.613404,54.486894],[-0.613361,54.485656],[-0.61391,54.485498],[-0.613704,54.485297],[-0.612675,54.485571],[-0.612576,54.483973],[-0.611766,54.48371],[-0.612232,54.481998],[-0.61349,54.481051],[-0.613785,54.479843],[-0.614865,54.478563],[-0.61437,54.476424],[-0.614694,54.47528],[-0.615675,54.474477],[-0.620927,54.475212],[-0.623037,54.474705],[-0.623933,54.473355],[-0.623305,54.47298],[-0.623091,54.471637],[-0.623868,54.470714],[-0.626964,54.469574],[-0.632321,54.469061],[-0.633608,54.468241],[-0.632176,54.468899],[-0.628178,54.468977],[-0.625468,54.469382],[-0.623154,54.470621],[-0.622427,54.471372],[-0.62053,54.471065],[-0.62053,54.470599],[-0.620391,54.471116],[-0.622317,54.471628],[-0.622226,54.472637],[-0.62317,54.473734],[-0.622832,54.474376],[-0.620803,54.474839],[-0.618214,54.474208],[-0.617668,54.473698],[-0.615474,54.473824],[-0.614011,54.474809],[-0.613182,54.475974],[-0.61367,54.477678],[-0.61309,54.479951],[-0.61127,54.480981],[-0.607957,54.480486],[-0.609215,54.480779],[-0.608859,54.480876],[-0.611384,54.48116],[-0.609967,54.482887],[-0.609844,54.483622],[-0.611483,54.486482],[-0.612721,54.487069],[-0.612892,54.488196],[-0.613583,54.488198],[-0.612551,54.488446],[-0.612323,54.489157],[-0.613246,54.489657],[-0.610596,54.490012],[-0.609765,54.490587],[-0.611675,54.492028],[-0.611974,54.493056],[-0.611554,54.492284],[-0.609405,54.490566],[-0.606988,54.490297],[-0.605743,54.490472],[-0.600375,54.489105],[-0.59841,54.489423],[-0.596809,54.488518],[-0.594892,54.488628],[-0.592834,54.487661],[-0.588591,54.489283],[-0.588442,54.488993],[-0.58955,54.488602],[-0.58963,54.488292],[-0.588852,54.486692],[-0.588141,54.485693],[-0.585121,54.483865],[-0.583845,54.483347],[-0.580205,54.48306],[-0.579851,54.483339],[-0.578839,54.483342],[-0.577477,54.482613],[-0.572612,54.481162],[-0.570765,54.479885],[-0.568963,54.47977],[-0.568736,54.478889],[-0.56629,54.477689],[-0.564008,54.475942],[-0.562034,54.472981],[-0.561429,54.471063],[-0.559572,54.469891],[-0.559365,54.467961],[-0.557447,54.466776],[-0.556869,54.465042],[-0.554826,54.464705],[-0.55366,54.463561],[-0.550139,54.462005],[-0.549726,54.461224],[-0.547304,54.461299],[-0.545429,54.460517],[-0.544812,54.45983],[-0.542512,54.459419],[-0.540291,54.457996],[-0.538716,54.455914],[-0.537154,54.45472],[-0.533989,54.453725],[-0.534664,54.452892],[-0.5333,54.451337],[-0.530949,54.450227],[-0.528735,54.450164],[-0.526236,54.449458],[-0.525702,54.448427],[-0.523969,54.448161],[-0.521447,54.446924],[-0.520827,54.446193],[-0.521588,54.445439],[-0.521178,54.44403],[-0.522191,54.441232],[-0.523578,54.439957],[-0.526358,54.438422],[-0.531335,54.436613],[-0.531756,54.436087],[-0.531505,54.434739],[-0.532696,54.43353],[-0.531694,54.431968],[-0.532238,54.431826],[-0.53236,54.43127],[-0.531912,54.430408],[-0.532273,54.430239],[-0.53229,54.428615],[-0.531349,54.427093],[-0.530876,54.424994],[-0.529161,54.423518],[-0.529716,54.422883],[-0.528882,54.422691],[-0.525286,54.418359],[-0.522914,54.416224],[-0.517834,54.414216],[-0.513404,54.411571],[-0.50798,54.409904],[-0.504196,54.407618],[-0.50021,54.406828],[-0.49442,54.406744],[-0.492954,54.407592],[-0.491555,54.407927],[-0.490892,54.407605],[-0.490141,54.406456],[-0.48688,54.405062],[-0.484545,54.402862],[-0.482234,54.401725],[-0.478647,54.399033],[-0.477726,54.398745],[-0.476672,54.399163],[-0.475238,54.398885],[-0.473756,54.397822],[-0.47169,54.397],[-0.468766,54.393241],[-0.463215,54.388555],[-0.461095,54.384891],[-0.457724,54.381441],[-0.454607,54.375959],[-0.449812,54.372418],[-0.447051,54.367396],[-0.447333,54.365464],[-0.445932,54.363606],[-0.445826,54.362121],[-0.446234,54.360565],[-0.446853,54.360143],[-0.446259,54.358479],[-0.44473,54.357616],[-0.439929,54.356977],[-0.439185,54.356635],[-0.436035,54.352749],[-0.433262,54.350545],[-0.432809,54.348899],[-0.431338,54.346824],[-0.430968,54.345087],[-0.432781,54.340677],[-0.432625,54.340088],[-0.431142,54.339908],[-0.42855,54.340207],[-0.427371,54.339844],[-0.425498,54.339914],[-0.425823,54.339746],[-0.423359,54.339064],[-0.421629,54.33609],[-0.420997,54.33353],[-0.420451,54.333283],[-0.420751,54.332799],[-0.417081,54.331444],[-0.418193,54.330575],[-0.419625,54.328123],[-0.41945,54.327688],[-0.420988,54.326722],[-0.421661,54.325815],[-0.420872,54.324771],[-0.421197,54.323701],[-0.420693,54.322667],[-0.419455,54.321614],[-0.417172,54.320464],[-0.418828,54.319882],[-0.419074,54.318908],[-0.418646,54.318518],[-0.419189,54.317476],[-0.418056,54.314818],[-0.418605,54.314204],[-0.417709,54.312719],[-0.418117,54.312093],[-0.417554,54.31141],[-0.417633,54.310595],[-0.416979,54.309812],[-0.415812,54.309652],[-0.415845,54.309063],[-0.414846,54.308779],[-0.415378,54.308443],[-0.414099,54.307085],[-0.412364,54.306826],[-0.412171,54.306272],[-0.411341,54.305906],[-0.40995,54.306087],[-0.409555,54.305697],[-0.407703,54.305245],[-0.407513,54.304507],[-0.409815,54.302337],[-0.408958,54.301359],[-0.410315,54.300477],[-0.410375,54.299568],[-0.407486,54.293549],[-0.406302,54.292386],[-0.399937,54.288876],[-0.396654,54.288005],[-0.394917,54.288142],[-0.388888,54.290651],[-0.386637,54.290285],[-0.384694,54.28813],[-0.384351,54.285835],[-0.385891,54.28408],[-0.386182,54.283036],[-0.387087,54.282311],[-0.38938,54.281386],[-0.388646,54.282066],[-0.38689,54.282813],[-0.386385,54.283547],[-0.386943,54.283792],[-0.389761,54.282317],[-0.387295,54.283829],[-0.392211,54.283836],[-0.390184,54.282431],[-0.391476,54.282456],[-0.392684,54.283264],[-0.394155,54.282683],[-0.395735,54.281653],[-0.397146,54.279432],[-0.397673,54.277539],[-0.396676,54.274496],[-0.394578,54.272366],[-0.392561,54.271411],[-0.391396,54.269093],[-0.389256,54.268727],[-0.388472,54.266664],[-0.38383,54.263992],[-0.381439,54.263084],[-0.378455,54.262551],[-0.376487,54.262637],[-0.375513,54.261415],[-0.375763,54.260453],[-0.375279,54.259418],[-0.37154,54.256982],[-0.367808,54.253613],[-0.366284,54.254052],[-0.366044,54.253262],[-0.366277,54.252798],[-0.368289,54.252612],[-0.369263,54.251906],[-0.369947,54.250508],[-0.369655,54.249446],[-0.36554,54.245966],[-0.363055,54.244487],[-0.356604,54.242998],[-0.351047,54.240877],[-0.349037,54.240736],[-0.34657,54.24119],[-0.345401,54.24201],[-0.339208,54.24258],[-0.337585,54.241647],[-0.33785,54.241101],[-0.337253,54.239654],[-0.334603,54.238128],[-0.328347,54.236336],[-0.324299,54.235555],[-0.322304,54.234722],[-0.321332,54.234719],[-0.318777,54.233874],[-0.317497,54.232897],[-0.31516,54.23245],[-0.313175,54.230639],[-0.313503,54.229109],[-0.312902,54.228557],[-0.299162,54.22645],[-0.296737,54.225084],[-0.293647,54.225166],[-0.292182,54.224861],[-0.289827,54.223799],[-0.286418,54.223151],[-0.282507,54.221263],[-0.277435,54.220091],[-0.275929,54.219333],[-0.275047,54.219425],[-0.275054,54.21886],[-0.274415,54.219181],[-0.27322,54.218987],[-0.273119,54.218455],[-0.271026,54.218342],[-0.27089,54.218109],[-0.269033,54.218326],[-0.267687,54.217305],[-0.265424,54.216488],[-0.266185,54.216243],[-0.266644,54.216436],[-0.266269,54.216476],[-0.271003,54.216909],[-0.275372,54.217736],[-0.277482,54.217192],[-0.281053,54.214147],[-0.283388,54.21067],[-0.284345,54.207844],[-0.284504,54.205083],[-0.284958,54.204582],[-0.284728,54.203544],[-0.285449,54.202842],[-0.283137,54.195012],[-0.280544,54.190743],[-0.277271,54.186561],[-0.271533,54.181152],[-0.263394,54.175868],[-0.245364,54.166552],[-0.233821,54.162007],[-0.227195,54.159912],[-0.220694,54.158676],[-0.218719,54.157988],[-0.21625,54.157667],[-0.212576,54.157692],[-0.216928,54.148348],[-0.22141,54.142041],[-0.221309,54.138864],[-0.221691,54.137973],[-0.222685,54.137041],[-0.229066,54.135728],[-0.229843,54.134302],[-0.229747,54.13244],[-0.237225,54.137249],[-0.245204,54.137129],[-0.252097,54.1388],[-0.26542,54.140559],[-0.269069,54.138333],[-0.27278,54.139268],[-0.276451,54.139599],[-0.283117,54.139782],[-0.288222,54.139409],[-0.290566,54.139756],[-0.291563,54.138758],[-0.300008,54.136734],[-0.304083,54.13627],[-0.307661,54.137901],[-0.311673,54.142744],[-0.313765,54.146403],[-0.322653,54.145276],[-0.323298,54.147492],[-0.323101,54.149264],[-0.323842,54.150297],[-0.328807,54.149068],[-0.335282,54.149674],[-0.336947,54.149563],[-0.342492,54.148532],[-0.346397,54.146873],[-0.350753,54.149773],[-0.355276,54.149607],[-0.360038,54.15312],[-0.363946,54.153158],[-0.374927,54.154113],[-0.375007,54.156224],[-0.373317,54.156275],[-0.374526,54.162564],[-0.38071,54.170361],[-0.382869,54.171914],[-0.388,54.174551],[-0.390784,54.176531],[-0.396416,54.175272],[-0.403258,54.174723],[-0.404077,54.175849],[-0.408271,54.175835],[-0.408553,54.175365],[-0.411918,54.174747],[-0.418428,54.174025],[-0.418109,54.17122],[-0.422538,54.171265],[-0.422645,54.1701],[-0.424557,54.169575],[-0.422927,54.166315],[-0.433169,54.164073],[-0.433114,54.160623],[-0.430931,54.158151],[-0.431561,54.158063],[-0.431373,54.157651],[-0.432659,54.157521],[-0.427094,54.137443],[-0.430652,54.136641],[-0.438529,54.133111],[-0.443725,54.131688],[-0.452122,54.127987],[-0.45854,54.125974],[-0.453704,54.120707],[-0.453604,54.120111],[-0.454703,54.119969],[-0.454351,54.116763],[-0.459439,54.11533],[-0.45868,54.114033],[-0.468325,54.111251],[-0.465942,54.107633],[-0.489851,54.100885],[-0.494011,54.099185],[-0.496889,54.097232],[-0.502884,54.094095],[-0.513275,54.090291],[-0.519925,54.086987],[-0.524612,54.085475],[-0.525106,54.086552],[-0.526311,54.08738],[-0.527928,54.089339],[-0.534031,54.08718],[-0.535833,54.08767],[-0.541816,54.091528],[-0.545521,54.09106],[-0.550629,54.092684],[-0.556675,54.092714],[-0.563137,54.094],[-0.566466,54.090306],[-0.583959,54.088479],[-0.591005,54.087062],[-0.592291,54.086263],[-0.594105,54.084215],[-0.598748,54.082207],[-0.602738,54.079074],[-0.605857,54.077799],[-0.607985,54.074837],[-0.6097,54.07327],[-0.615523,54.070494],[-0.618457,54.06983],[-0.621516,54.069669],[-0.627749,54.070194],[-0.627463,54.068833],[-0.632197,54.068755],[-0.642923,54.066558],[-0.648113,54.066012],[-0.653676,54.064997],[-0.660317,54.0631],[-0.656494,54.061074],[-0.656231,54.061313],[-0.652431,54.059845],[-0.644654,54.055113],[-0.653654,54.045956],[-0.656299,54.045452],[-0.655738,54.044232],[-0.658018,54.043645],[-0.657974,54.042167],[-0.656318,54.04064],[-0.658929,54.038387],[-0.659484,54.03717],[-0.664261,54.037654],[-0.669731,54.037427],[-0.670617,54.037562],[-0.670573,54.037987],[-0.674247,54.038178],[-0.678502,54.03725],[-0.679869,54.036674],[-0.680475,54.035904],[-0.680244,54.034523],[-0.680694,54.033671],[-0.682604,54.034131],[-0.682674,54.033759],[-0.684335,54.032887],[-0.687301,54.030444],[-0.687753,54.028844],[-0.687219,54.026079],[-0.688226,54.025156],[-0.688484,54.024011],[-0.687509,54.023205],[-0.684146,54.022647],[-0.683824,54.020996],[-0.681802,54.01982],[-0.679112,54.019008],[-0.678416,54.018239],[-0.679418,54.015987],[-0.683072,54.012468],[-0.681592,54.011241],[-0.681798,54.010355],[-0.683681,54.008764],[-0.687955,54.008293],[-0.688242,54.008015],[-0.6986,54.007119],[-0.704902,54.006072],[-0.708664,54.008073],[-0.70937,54.00898],[-0.709645,54.010467],[-0.710746,54.011171],[-0.71329,54.011066],[-0.715061,54.010488],[-0.71806,54.010106],[-0.719262,54.010704],[-0.719698,54.012322],[-0.726197,54.012271],[-0.727838,54.012715],[-0.730489,54.012701],[-0.730592,54.02173],[-0.732272,54.026557],[-0.734257,54.030259],[-0.744651,54.027567],[-0.749437,54.026959],[-0.752608,54.026098],[-0.761565,54.025005],[-0.766343,54.023692],[-0.769706,54.023485],[-0.771651,54.023911],[-0.772273,54.023671],[-0.774883,54.024076],[-0.775092,54.023827],[-0.778837,54.023552],[-0.779959,54.02304],[-0.792969,54.020597],[-0.793971,54.019954],[-0.795547,54.01996],[-0.799248,54.019052],[-0.800301,54.019984],[-0.798988,54.024091],[-0.803254,54.023971],[-0.803322,54.023355],[-0.808476,54.022369],[-0.81567,54.021773],[-0.820366,54.020873],[-0.823515,54.02083],[-0.826993,54.021272],[-0.836541,54.021267],[-0.836553,54.02176],[-0.837002,54.021905],[-0.842403,54.021104],[-0.84303,54.021611],[-0.845344,54.020004],[-0.848618,54.018556],[-0.855723,54.017629],[-0.859721,54.016395],[-0.86349,54.017335],[-0.866642,54.01722],[-0.868093,54.016863],[-0.868799,54.017108],[-0.870396,54.016705],[-0.875083,54.017611],[-0.876329,54.017625],[-0.877946,54.01703],[-0.878427,54.0172],[-0.878761,54.016883],[-0.877243,54.014926],[-0.877669,54.013557],[-0.880511,54.011996],[-0.886702,54.010527],[-0.888555,54.009515],[-0.88992,54.007071],[-0.890879,54.003098],[-0.892473,54.001615],[-0.893535,53.999768],[-0.894885,53.999094],[-0.897417,53.998532],[-0.898812,53.998777],[-0.899209,53.999569],[-0.899959,53.999726],[-0.901345,53.998813],[-0.90386,53.998667],[-0.907491,53.997548],[-0.911897,53.995448],[-0.911856,53.99313],[-0.912877,53.992132],[-0.913694,53.992086],[-0.915247,53.993147],[-0.920615,53.991952],[-0.925295,53.991518],[-0.927778,53.990829],[-0.932572,53.990106],[-0.934076,53.989238],[-0.935747,53.989661],[-0.944362,53.989128],[-0.953453,53.986426],[-0.956577,53.985071],[-0.957686,53.983956],[-0.962242,53.984517],[-0.967045,53.985919],[-0.970081,53.984822],[-0.972208,53.984566],[-0.973411,53.984817],[-0.976242,53.982077],[-0.97677,53.982],[-0.979243,53.983041],[-0.980353,53.98233],[-0.984657,53.981548],[-0.991059,53.981924],[-0.994837,53.983064],[-0.995818,53.983981],[-0.994075,53.984443],[-0.994714,53.985326],[-0.992751,53.985845],[-0.990649,53.987602],[-0.988031,53.989012],[-0.98125,53.991154],[-0.983155,53.993307],[-0.978839,53.994525],[-0.979057,53.995971],[-0.971919,53.99671],[-0.972807,54.001875],[-0.973839,54.003686],[-0.975366,54.004732],[-0.980149,54.003244],[-0.979988,54.002845],[-0.984499,54.002231],[-0.984707,54.002547],[-0.98084,54.003949],[-0.97933,54.005357],[-0.979811,54.007482],[-0.982618,54.010078],[-0.976885,54.015762],[-0.979365,54.01742],[-0.971766,54.020391],[-0.966864,54.022967],[-0.970688,54.023084],[-0.970186,54.025896],[-0.971194,54.027641],[-0.973583,54.029369],[-0.975795,54.030103],[-0.982243,54.030904],[-0.981318,54.033826],[-0.98231,54.039482],[-0.984593,54.038828],[-0.985508,54.039593],[-0.988278,54.040639],[-0.989277,54.041708],[-0.990622,54.041912],[-0.992378,54.041711],[-0.993255,54.042228],[-0.99294,54.043745],[-0.99382,54.045536],[-0.994971,54.04617],[-0.99385,54.047253],[-0.996016,54.048146],[-0.996576,54.04905],[-0.998154,54.049326],[-0.998674,54.050378],[-0.999876,54.051017],[-1.000395,54.050917],[-1.000921,54.05151],[-1.00068,54.051976],[-1.002078,54.053757],[-1.001558,54.054756],[-1.002085,54.055263],[-1.00443,54.055567],[-1.006209,54.053853],[-1.007112,54.054184],[-1.008021,54.053274],[-1.012435,54.051308],[-1.014377,54.049322],[-1.024462,54.052036],[-1.028464,54.052764],[-1.047458,54.054442],[-1.059712,54.056883],[-1.058334,54.05245],[-1.058929,54.049684],[-1.058734,54.047845],[-1.062171,54.050138],[-1.071141,54.048821],[-1.08379,54.047605],[-1.089007,54.048099],[-1.091758,54.047322],[-1.09308,54.046176],[-1.094278,54.046626],[-1.096107,54.040455],[-1.097488,54.04112],[-1.098439,54.04094],[-1.099456,54.041549],[-1.101077,54.040964],[-1.099777,54.039414],[-1.099781,54.037689],[-1.106813,54.037408],[-1.11158,54.036006],[-1.114868,54.03581],[-1.115472,54.035233],[-1.115404,54.034559],[-1.11697,54.033519],[-1.120176,54.029026],[-1.127585,54.031031],[-1.140797,54.029859],[-1.140636,54.02779],[-1.14205,54.027207],[-1.143889,54.025665],[-1.144814,54.02551],[-1.145098,54.022898],[-1.142325,54.018967],[-1.147953,54.016101],[-1.148038,54.015624],[-1.145923,54.013311],[-1.143748,54.012655],[-1.142876,54.010788],[-1.1441,54.008222],[-1.147183,54.006634],[-1.148559,54.004846],[-1.149091,54.002947],[-1.148394,54.001665],[-1.147371,54.00162],[-1.146864,54.000582],[-1.145093,53.999926],[-1.143787,53.998792],[-1.142264,53.998535],[-1.141884,53.997974],[-1.14057,53.997361],[-1.140995,53.996019],[-1.1394,53.995226],[-1.139586,53.994057],[-1.138916,53.992623],[-1.136998,53.991083],[-1.139382,53.990786],[-1.14357,53.989545],[-1.147217,53.989015],[-1.150019,53.988896],[-1.151912,53.989178],[-1.158935,53.992858],[-1.161345,53.994644],[-1.167192,53.996313],[-1.171368,54.000567],[-1.172967,54.00151],[-1.17551,54.002197],[-1.176101,54.001767],[-1.17514,54.001639],[-1.175077,54.001388],[-1.17633,54.001489],[-1.175933,54.000814],[-1.177422,54.000386],[-1.177605,54.00063],[-1.178205,54.000509],[-1.177963,54.000265],[-1.178626,54.000057],[-1.178822,53.999165],[-1.179515,53.998861],[-1.180766,53.998991],[-1.182255,54.000527],[-1.183403,54.001028],[-1.184542,54.000957],[-1.18857,54.002483],[-1.189007,54.00238],[-1.188855,54.001923],[-1.189293,54.001647],[-1.190993,54.001275],[-1.191368,54.000572],[-1.191935,54.000519],[-1.191929,53.999924],[-1.190468,53.999077],[-1.190364,53.998636],[-1.189523,53.99844],[-1.189404,53.99802],[-1.186633,53.998162],[-1.185912,53.997877],[-1.185607,53.997244],[-1.184164,53.997027],[-1.183962,53.996506],[-1.183283,53.996216],[-1.183161,53.994856],[-1.181631,53.992684],[-1.180622,53.989817],[-1.182103,53.985345],[-1.185751,53.983789],[-1.18645,53.9844],[-1.187417,53.983986],[-1.192089,53.984202],[-1.195054,53.985302],[-1.197286,53.986795],[-1.197441,53.98832],[-1.200163,53.989009],[-1.202018,53.988275],[-1.202441,53.987055],[-1.203603,53.986666],[-1.205044,53.986891],[-1.207479,53.986583],[-1.211019,53.985464],[-1.213362,53.985247],[-1.216597,53.985613],[-1.21752,53.984345],[-1.217382,53.983266],[-1.219109,53.982791],[-1.221661,53.980397],[-1.222345,53.978887],[-1.222387,53.976515],[-1.223515,53.975505],[-1.223706,53.974829],[-1.221608,53.972668],[-1.221477,53.970475],[-1.220893,53.969167],[-1.219187,53.96722],[-1.217495,53.966016],[-1.219622,53.964001],[-1.219934,53.962675],[-1.21843,53.961206],[-1.21637,53.96006],[-1.212776,53.956461],[-1.211738,53.954195],[-1.209135,53.951684],[-1.207403,53.945488],[-1.206853,53.945524],[-1.205385,53.944086],[-1.204124,53.943408],[-1.203451,53.942107],[-1.203976,53.941272],[-1.203155,53.940564],[-1.20269,53.938921],[-1.201799,53.93829],[-1.199896,53.934547],[-1.19976,53.932928],[-1.200151,53.932387],[-1.197734,53.929327],[-1.197992,53.928659],[-1.200073,53.928466],[-1.200114,53.926473],[-1.199495,53.925351],[-1.19761,53.923887],[-1.196055,53.923505],[-1.195569,53.922414],[-1.191178,53.922635],[-1.186702,53.918367],[-1.185915,53.916011],[-1.179322,53.916883],[-1.177351,53.914298],[-1.176471,53.914018],[-1.170629,53.908813],[-1.164893,53.910591],[-1.162202,53.905555],[-1.161549,53.90265],[-1.160269,53.900606],[-1.159119,53.899516],[-1.154323,53.896676],[-1.154396,53.895929],[-1.150629,53.895245],[-1.149897,53.894668],[-1.150006,53.89364],[-1.146766,53.894611],[-1.143561,53.89249],[-1.141992,53.892934],[-1.141569,53.892644],[-1.138817,53.894178],[-1.136776,53.895926],[-1.134815,53.894744],[-1.134317,53.892564],[-1.133356,53.891056],[-1.129114,53.888983],[-1.125241,53.885608],[-1.124984,53.882676],[-1.121052,53.882649],[-1.118652,53.881416],[-1.117437,53.880361],[-1.115605,53.879684],[-1.111966,53.879062],[-1.10547,53.875773],[-1.112927,53.87185],[-1.116479,53.868733],[-1.119524,53.866984],[-1.121327,53.866358],[-1.12579,53.86584],[-1.127175,53.865129],[-1.128202,53.86332],[-1.127726,53.861949],[-1.123893,53.858932],[-1.11887,53.857121],[-1.118373,53.85604],[-1.118593,53.854926],[-1.120078,53.853022],[-1.124108,53.849863],[-1.124577,53.848606],[-1.124051,53.846512],[-1.125208,53.844715],[-1.126551,53.844037],[-1.128198,53.843894],[-1.129336,53.844094],[-1.129392,53.844758],[-1.130458,53.845288],[-1.132471,53.845689],[-1.133969,53.845507],[-1.135364,53.844592],[-1.135828,53.84321],[-1.138047,53.840102],[-1.138945,53.839745],[-1.141325,53.839472],[-1.14296,53.839916],[-1.141716,53.842041],[-1.141522,53.843247],[-1.142471,53.844796],[-1.144687,53.84654],[-1.144532,53.847652],[-1.143406,53.848947],[-1.14418,53.85001],[-1.149653,53.848986],[-1.151987,53.849031],[-1.155149,53.850144],[-1.156333,53.851268],[-1.157804,53.851768],[-1.1576,53.8515],[-1.160564,53.850333],[-1.162429,53.848253],[-1.164238,53.847365],[-1.165934,53.847016],[-1.167224,53.84757],[-1.17005,53.851499],[-1.17127,53.855571],[-1.173012,53.856171],[-1.177721,53.856269],[-1.179486,53.855722],[-1.181223,53.854739],[-1.182393,53.853872],[-1.182958,53.852603],[-1.182793,53.850411],[-1.183225,53.849935],[-1.185211,53.850176],[-1.191742,53.854271],[-1.19677,53.853835],[-1.197932,53.854154],[-1.198662,53.855004],[-1.200404,53.855379],[-1.201807,53.85429],[-1.204677,53.854322],[-1.206404,53.854731],[-1.204655,53.854119],[-1.201983,53.854079],[-1.201156,53.854306],[-1.200484,53.855134],[-1.199803,53.855112],[-1.197311,53.853716],[-1.195656,53.853598],[-1.191865,53.854057],[-1.185573,53.850088],[-1.18318,53.849661],[-1.182487,53.850096],[-1.182769,53.852047],[-1.182013,53.853624],[-1.179638,53.855405],[-1.177408,53.856122],[-1.172946,53.855963],[-1.171533,53.855381],[-1.170362,53.851445],[-1.167523,53.847446],[-1.166236,53.846821],[-1.164796,53.846933],[-1.162077,53.848022],[-1.160304,53.85029],[-1.157772,53.851306],[-1.156579,53.851132],[-1.155368,53.850012],[-1.151537,53.848827],[-1.148828,53.848895],[-1.144368,53.849779],[-1.143771,53.84895],[-1.144938,53.84755],[-1.145009,53.846546],[-1.142524,53.84444],[-1.141914,53.843298],[-1.142016,53.842134],[-1.143216,53.839724],[-1.141486,53.839207],[-1.137743,53.839763],[-1.134534,53.844972],[-1.132644,53.845485],[-1.129927,53.8448],[-1.129859,53.844299],[-1.132088,53.844303],[-1.13358,53.843909],[-1.134461,53.842687],[-1.130682,53.838527],[-1.129916,53.835301],[-1.128675,53.833349],[-1.126522,53.832724],[-1.125139,53.832855],[-1.120144,53.83577],[-1.117981,53.836516],[-1.104115,53.837096],[-1.10103,53.836888],[-1.098917,53.836352],[-1.092925,53.83357],[-1.089651,53.831504],[-1.088701,53.831369],[-1.08746,53.831748],[-1.084601,53.833879],[-1.082241,53.834825],[-1.078387,53.835813],[-1.076633,53.835628],[-1.076026,53.8346],[-1.076644,53.832524],[-1.080341,53.828111],[-1.084694,53.824489],[-1.084727,53.822824],[-1.085129,53.822641],[-1.083591,53.821349],[-1.079349,53.819334],[-1.074377,53.819239],[-1.069358,53.818048],[-1.067111,53.816921],[-1.062926,53.813948],[-1.054149,53.811384],[-1.051454,53.81094],[-1.04454,53.810696],[-1.043208,53.810235],[-1.043443,53.809713],[-1.045781,53.808218],[-1.046942,53.807035],[-1.048402,53.803595],[-1.048647,53.795854],[-1.046568,53.791334],[-1.047099,53.79006],[-1.049523,53.789381],[-1.054162,53.789321],[-1.066454,53.787877],[-1.067066,53.786755],[-1.06805,53.786175],[-1.06707,53.786589],[-1.064766,53.784887],[-1.062364,53.783894],[-1.057249,53.782443],[-1.049393,53.780771],[-1.045177,53.779178],[-1.037592,53.777324],[-1.03349,53.77668],[-1.027874,53.777091],[-1.026324,53.7768],[-1.024723,53.775901],[-1.022365,53.773727],[-1.021789,53.771675],[-1.022861,53.771082],[-1.025738,53.771588],[-1.027655,53.771495],[-1.029686,53.770826],[-1.030858,53.769836],[-1.033968,53.766096],[-1.034061,53.764745],[-1.032767,53.763534],[-1.027184,53.760352],[-1.024545,53.759522],[-1.021317,53.759878],[-1.011025,53.763603],[-1.002761,53.768197],[-1.001488,53.768599],[-1.00096,53.768352],[-1.000504,53.766642],[-0.999554,53.765635],[-0.995385,53.764447],[-0.988719,53.764613],[-0.986996,53.764223],[-0.988607,53.762105],[-0.988747,53.760947],[-0.986384,53.757342],[-0.982067,53.753242],[-0.97981,53.751762],[-0.977087,53.750535],[-0.974554,53.749694],[-0.967102,53.748126],[-0.965069,53.747369],[-0.963907,53.746525],[-0.962993,53.745081],[-0.962046,53.741117],[-0.963031,53.73713],[-0.961533,53.735663],[-0.958384,53.735099],[-0.955937,53.735412],[-0.952607,53.73536],[-0.94452,53.73247],[-0.936329,53.731339],[-0.930912,53.731138],[-0.924337,53.731354],[-0.916828,53.732402],[-0.911677,53.732343],[-0.911334,53.731524],[-0.912566,53.72889],[-0.912347,53.728157],[-0.910987,53.727161],[-0.908787,53.726686],[-0.906039,53.725381],[-0.903932,53.721191],[-0.903928,53.718628],[-0.904337,53.717969],[-0.905912,53.717183],[-0.907021,53.717195],[-0.910321,53.718517],[-0.91241,53.718902],[-0.923558,53.718878],[-0.935268,53.716433],[-0.9405,53.713573],[-0.944164,53.712709],[-0.949716,53.71307],[-0.954197,53.714855],[-0.957833,53.715008],[-0.9588,53.714516],[-0.959256,53.713658],[-0.958973,53.71101],[-0.959366,53.709923],[-0.961651,53.707656],[-0.960883,53.70672],[-0.958085,53.705074],[-0.961721,53.704274],[-0.96292,53.703565],[-0.96321,53.702726],[-0.962782,53.700971],[-0.963909,53.700677],[-0.966581,53.700803],[-0.9696,53.702281],[-0.969331,53.702811],[-0.967112,53.703527],[-0.966033,53.704602],[-0.966254,53.705959],[-0.967994,53.706993],[-0.974464,53.706324],[-0.980926,53.705167],[-0.982908,53.704267],[-0.983726,53.702566],[-0.982718,53.699142],[-0.981906,53.698303],[-0.980344,53.697511],[-0.980292,53.69712],[-0.985954,53.697804],[-0.994493,53.69763],[-0.99867,53.698967],[-1.001054,53.69909],[-1.003143,53.698633],[-1.004348,53.696629],[-1.005857,53.695746],[-1.006892,53.695547],[-1.01101,53.697067],[-1.016991,53.697952],[-1.021361,53.698249],[-1.034051,53.696635],[-1.036262,53.695731],[-1.037951,53.694347],[-1.038875,53.694073],[-1.040014,53.694589],[-1.040987,53.69624],[-1.045576,53.698709],[-1.048011,53.698685],[-1.052147,53.696939],[-1.053479,53.696999],[-1.053913,53.701593],[-1.058992,53.704803],[-1.061481,53.706929],[-1.063504,53.706801],[-1.067311,53.704649],[-1.068641,53.704288],[-1.06931,53.704596],[-1.071018,53.708288],[-1.071888,53.708996],[-1.075435,53.70926],[-1.079692,53.708128],[-1.0806,53.708307],[-1.081184,53.708945],[-1.08093,53.71107],[-1.084381,53.71495],[-1.08402,53.717332],[-1.084793,53.717414],[-1.090046,53.715453],[-1.092056,53.714458],[-1.093785,53.713044],[-1.094777,53.713174],[-1.095862,53.714129],[-1.094537,53.71584],[-1.094965,53.716229],[-1.097203,53.716068],[-1.101838,53.714581],[-1.103861,53.714664],[-1.104495,53.715009],[-1.104046,53.715529],[-1.100882,53.716653],[-1.09886,53.717841],[-1.098198,53.718795],[-1.098362,53.719373],[-1.099179,53.719549],[-1.103248,53.718754],[-1.104473,53.718805],[-1.107971,53.721389],[-1.108282,53.723016],[-1.109381,53.723362],[-1.111978,53.722899],[-1.11424,53.721253],[-1.114941,53.720009],[-1.116352,53.720046],[-1.117181,53.720853],[-1.116478,53.722428],[-1.116705,53.722889],[-1.118535,53.724279],[-1.120125,53.72677],[-1.12087,53.726666],[-1.120762,53.726135],[-1.117089,53.72272],[-1.117781,53.7208],[-1.1174,53.720077],[-1.115434,53.719332],[-1.114777,53.719357],[-1.113732,53.721063],[-1.112177,53.722439],[-1.11117,53.72284],[-1.109137,53.723006],[-1.108596,53.722686],[-1.108509,53.721312],[-1.104864,53.718647],[-1.103402,53.718389],[-1.098884,53.719094],[-1.098777,53.718739],[-1.100266,53.717256],[-1.104884,53.715367],[-1.104902,53.714724],[-1.104159,53.714453],[-1.101707,53.714349],[-1.097802,53.715643],[-1.095768,53.715961],[-1.095287,53.71556],[-1.09613,53.713971],[-1.09537,53.713177],[-1.094091,53.712763],[-1.093065,53.713036],[-1.09192,53.714169],[-1.089557,53.715381],[-1.084765,53.716931],[-1.084752,53.714595],[-1.08139,53.710993],[-1.081301,53.710147],[-1.081783,53.710101],[-1.081337,53.710026],[-1.081644,53.708972],[-1.081319,53.708273],[-1.079799,53.707843],[-1.075398,53.709015],[-1.072318,53.708804],[-1.0715,53.708206],[-1.069689,53.704358],[-1.068815,53.704014],[-1.069535,53.702804],[-1.074914,53.703943],[-1.075879,53.701357],[-1.078126,53.697725],[-1.07634,53.696809],[-1.085018,53.686959],[-1.080675,53.685229],[-1.08106,53.684526],[-1.087323,53.683262],[-1.093148,53.678211],[-1.09746,53.675306],[-1.100207,53.674371],[-1.101763,53.674374],[-1.103359,53.669499],[-1.091391,53.668625],[-1.087009,53.666603],[-1.088772,53.664477],[-1.085639,53.662393],[-1.08447,53.662039],[-1.082691,53.662044],[-1.078802,53.660458],[-1.075382,53.660566],[-1.074266,53.660111],[-1.073299,53.660285],[-1.07106,53.660022],[-1.07119,53.657905],[-1.067902,53.657276],[-1.063284,53.657481],[-1.061876,53.659214],[-1.06023,53.659269],[-1.059204,53.659121],[-1.059625,53.65839],[-1.057544,53.65763],[-1.051003,53.657557],[-1.048663,53.656057],[-1.050482,53.654949],[-1.051716,53.652534],[-1.053278,53.651537],[-1.066139,53.648855],[-1.070968,53.648871],[-1.082731,53.651608],[-1.084797,53.651724],[-1.087179,53.651252],[-1.090497,53.649845],[-1.095216,53.649947],[-1.101625,53.648528],[-1.113655,53.646899],[-1.115875,53.645761],[-1.116964,53.645826],[-1.119146,53.646793],[-1.121618,53.64675],[-1.123038,53.64604],[-1.124861,53.64395],[-1.125869,53.643631],[-1.127951,53.643601],[-1.12894,53.643017],[-1.128185,53.640107],[-1.126965,53.638481],[-1.129033,53.634669],[-1.130371,53.633908],[-1.133586,53.633447],[-1.134912,53.632698],[-1.13888,53.633462],[-1.14009,53.635657],[-1.143418,53.636337],[-1.1448,53.637214],[-1.145848,53.638606],[-1.14957,53.638692],[-1.15207,53.642697],[-1.153432,53.642707],[-1.15509,53.643198],[-1.158684,53.643462],[-1.161357,53.641761],[-1.163078,53.641856],[-1.165373,53.640834],[-1.167724,53.640796],[-1.170523,53.639311],[-1.172342,53.639449],[-1.174195,53.638257],[-1.179498,53.637945],[-1.189246,53.635917],[-1.191976,53.635998],[-1.193695,53.636391],[-1.194241,53.637854],[-1.196048,53.638956],[-1.197229,53.638969],[-1.197627,53.639751],[-1.198468,53.640253],[-1.204819,53.642272],[-1.205994,53.643192],[-1.206647,53.642803],[-1.208128,53.642723],[-1.209827,53.643164],[-1.210892,53.640956],[-1.215647,53.641983],[-1.216301,53.640015],[-1.217681,53.640204],[-1.218601,53.636617],[-1.219387,53.636687],[-1.219637,53.634489],[-1.219004,53.634412],[-1.218955,53.633318],[-1.218471,53.633175],[-1.21837,53.631401],[-1.217365,53.629104],[-1.217469,53.624224],[-1.218844,53.623565],[-1.221433,53.623482],[-1.226666,53.621965],[-1.227913,53.622162],[-1.232844,53.621112],[-1.238608,53.627437],[-1.238337,53.627608],[-1.24269,53.633579],[-1.242888,53.634616],[-1.243794,53.634453],[-1.245304,53.635338],[-1.250642,53.638798],[-1.253662,53.641199],[-1.254953,53.643331],[-1.25486,53.644473],[-1.255369,53.644796],[-1.255216,53.648963],[-1.254214,53.648482],[-1.253019,53.648813],[-1.252617,53.648737],[-1.252689,53.648407],[-1.251683,53.648401],[-1.250075,53.648823],[-1.248777,53.649631],[-1.25116,53.651629],[-1.24696,53.655615],[-1.247971,53.656231],[-1.252297,53.661773],[-1.252504,53.662446],[-1.251191,53.662585],[-1.252319,53.666656],[-1.251766,53.667979],[-1.250219,53.669388],[-1.24878,53.671621],[-1.247785,53.671844],[-1.247763,53.672165],[-1.24655,53.672264],[-1.246442,53.672964],[-1.245654,53.672853],[-1.245162,53.673359],[-1.243958,53.67325],[-1.242432,53.680484],[-1.244428,53.692469],[-1.235043,53.692735],[-1.199061,53.694895],[-1.199037,53.696933],[-1.199639,53.698685],[-1.198766,53.700715],[-1.201212,53.701838],[-1.203986,53.702121],[-1.215131,53.70549],[-1.214948,53.706023],[-1.215664,53.706131],[-1.215642,53.706945],[-1.218443,53.707096],[-1.218796,53.709311],[-1.217836,53.709545],[-1.217139,53.711249],[-1.219812,53.714419],[-1.221595,53.712877],[-1.224644,53.712348],[-1.224798,53.71179],[-1.223893,53.710652],[-1.225032,53.710034],[-1.226329,53.709868],[-1.227474,53.710046],[-1.227966,53.710506],[-1.227598,53.712939],[-1.228759,53.714578],[-1.229408,53.71489],[-1.238675,53.712396],[-1.242805,53.712317],[-1.247988,53.711725],[-1.252941,53.712829],[-1.254252,53.712694],[-1.256343,53.71177],[-1.257701,53.711852],[-1.263591,53.71405],[-1.268517,53.714909],[-1.269511,53.715784],[-1.269496,53.717887],[-1.270566,53.720134],[-1.270935,53.723294],[-1.271961,53.724924],[-1.273073,53.725669],[-1.276119,53.7259],[-1.277684,53.726516],[-1.279711,53.729303],[-1.283764,53.732012],[-1.28652,53.735265],[-1.289544,53.736853],[-1.292003,53.738747],[-1.293661,53.739328],[-1.296693,53.739635],[-1.299686,53.741607],[-1.301967,53.741672],[-1.302349,53.742496],[-1.303831,53.741895],[-1.307226,53.74274],[-1.310036,53.744538],[-1.311567,53.744559],[-1.315357,53.743681],[-1.312803,53.749547],[-1.312833,53.751179],[-1.312089,53.75218],[-1.312616,53.754163],[-1.312239,53.755889],[-1.308508,53.756495],[-1.307736,53.755144],[-1.305962,53.755256],[-1.305563,53.754736],[-1.3015,53.755735],[-1.298273,53.755614],[-1.297532,53.755838],[-1.294942,53.755463],[-1.294696,53.756278],[-1.296749,53.758954],[-1.292699,53.760148],[-1.292466,53.761488],[-1.291968,53.761415],[-1.292229,53.760525],[-1.290415,53.763079],[-1.290398,53.764268],[-1.291962,53.767195],[-1.296362,53.771863],[-1.298126,53.772806],[-1.306787,53.773044],[-1.303464,53.774928],[-1.312598,53.779298],[-1.311604,53.779699],[-1.31381,53.781556],[-1.313636,53.78609],[-1.311921,53.788136],[-1.311269,53.788028],[-1.311644,53.788678],[-1.312827,53.789364],[-1.311729,53.795447],[-1.313624,53.800881],[-1.314168,53.804858],[-1.313942,53.806828],[-1.314602,53.807783],[-1.314872,53.809557],[-1.313624,53.80966],[-1.312435,53.814376],[-1.307602,53.813632],[-1.307293,53.814513],[-1.305106,53.815051],[-1.303623,53.816536],[-1.307091,53.817618],[-1.310398,53.819918],[-1.309674,53.822895],[-1.314029,53.823154],[-1.315369,53.8236],[-1.322313,53.827454],[-1.328304,53.830132],[-1.332773,53.832791],[-1.336097,53.83359],[-1.334021,53.83381],[-1.334375,53.834435],[-1.33354,53.834531],[-1.333499,53.834816],[-1.331799,53.834849],[-1.331186,53.835115],[-1.331251,53.835478],[-1.32974,53.835825],[-1.32875,53.835488],[-1.32844,53.834988],[-1.325342,53.835058],[-1.325209,53.835346],[-1.326001,53.835893],[-1.325422,53.838135],[-1.326557,53.840423],[-1.327963,53.840704],[-1.328157,53.841295],[-1.332343,53.840959],[-1.338225,53.844244],[-1.342138,53.845173],[-1.34046,53.849104],[-1.338429,53.851744],[-1.34275,53.851518],[-1.347015,53.854192],[-1.349435,53.854987],[-1.35297,53.856751],[-1.349926,53.857635],[-1.341971,53.858957],[-1.331554,53.861535],[-1.323262,53.861673],[-1.318893,53.862287],[-1.315413,53.863342],[-1.312603,53.865317],[-1.311784,53.866875],[-1.314797,53.868672],[-1.318407,53.877474],[-1.317081,53.878484],[-1.319429,53.878643],[-1.319693,53.878958],[-1.31576,53.879491],[-1.315607,53.881682],[-1.320804,53.883788],[-1.319996,53.885398],[-1.32002,53.888528],[-1.317953,53.88875],[-1.317547,53.890146],[-1.31793,53.891849],[-1.316777,53.892026],[-1.317823,53.894084],[-1.317731,53.896349],[-1.318145,53.897544],[-1.322252,53.900427],[-1.321713,53.901617],[-1.321832,53.902876],[-1.321142,53.903457],[-1.317343,53.904364],[-1.313719,53.904712],[-1.313894,53.905027],[-1.311351,53.905835],[-1.30603,53.906459],[-1.302451,53.907456],[-1.300453,53.90752],[-1.300693,53.908674],[-1.301634,53.908751],[-1.301402,53.909531],[-1.301999,53.909745],[-1.301269,53.914396],[-1.300132,53.916914],[-1.300101,53.919095],[-1.297203,53.921638],[-1.298428,53.921975],[-1.300352,53.920598],[-1.301356,53.921032],[-1.300868,53.92237],[-1.305097,53.921196],[-1.307356,53.92115],[-1.305637,53.923095],[-1.305681,53.923604],[-1.303832,53.925101],[-1.296851,53.92643],[-1.294248,53.926564],[-1.294115,53.927031],[-1.296704,53.928587],[-1.300383,53.929377],[-1.302155,53.927388],[-1.303695,53.927027],[-1.305264,53.927101],[-1.306462,53.924196],[-1.308895,53.92404],[-1.308369,53.928501],[-1.306927,53.934422],[-1.308533,53.934329],[-1.312386,53.935286],[-1.315421,53.935072],[-1.320519,53.936057],[-1.320943,53.937047],[-1.322657,53.936572],[-1.32528,53.937876],[-1.329666,53.938073],[-1.331683,53.938749],[-1.332424,53.939735],[-1.335006,53.939462],[-1.336283,53.938476],[-1.337478,53.940095],[-1.339501,53.940783],[-1.342126,53.940519],[-1.344706,53.939499],[-1.343934,53.939923],[-1.342858,53.943272],[-1.341565,53.943942],[-1.33984,53.945564],[-1.340405,53.945888],[-1.342792,53.944943],[-1.348208,53.944957],[-1.352389,53.944248],[-1.354871,53.943655],[-1.35856,53.941701],[-1.361953,53.941484],[-1.366278,53.941902],[-1.37038,53.943043],[-1.3718,53.942827],[-1.373521,53.941764],[-1.373593,53.941342],[-1.374193,53.941533],[-1.374969,53.940967],[-1.381683,53.940487],[-1.386472,53.94319],[-1.389681,53.942816],[-1.390113,53.943017],[-1.391442,53.942836],[-1.391441,53.942504],[-1.396657,53.941894],[-1.397182,53.942535],[-1.399903,53.941422],[-1.399736,53.940174],[-1.400447,53.940097],[-1.400658,53.9375],[-1.402875,53.936507],[-1.40767,53.936174],[-1.407848,53.935652],[-1.409197,53.935466],[-1.40847,53.934951],[-1.410584,53.931324],[-1.410629,53.930155],[-1.408806,53.929616],[-1.40671,53.92785],[-1.412912,53.928232],[-1.418986,53.928087],[-1.427253,53.929339],[-1.430169,53.928722],[-1.433553,53.926355],[-1.433154,53.924911],[-1.431471,53.923243],[-1.432117,53.920826],[-1.431508,53.917124],[-1.430908,53.916245],[-1.431283,53.916091],[-1.430136,53.913821],[-1.4314,53.913272],[-1.432435,53.911202],[-1.434414,53.910177],[-1.436871,53.913596],[-1.438351,53.914028],[-1.440501,53.913865],[-1.443162,53.912686],[-1.445597,53.909542],[-1.448039,53.908638],[-1.450002,53.907343],[-1.451192,53.907053],[-1.457037,53.907309],[-1.460165,53.906878],[-1.463387,53.905921],[-1.465147,53.907048],[-1.464948,53.90881],[-1.465323,53.909396],[-1.467414,53.910757],[-1.470978,53.911349],[-1.473459,53.91123],[-1.475432,53.911574],[-1.481617,53.910763],[-1.486027,53.910912],[-1.489007,53.911819],[-1.49187,53.91446],[-1.494672,53.915337],[-1.500399,53.915077],[-1.504361,53.913491],[-1.506331,53.912177],[-1.509858,53.911401],[-1.516374,53.911782],[-1.522506,53.911143],[-1.526473,53.909809],[-1.528596,53.908699],[-1.532563,53.908971],[-1.535119,53.909963],[-1.537216,53.910291],[-1.543515,53.910018],[-1.545063,53.910119],[-1.548198,53.910959],[-1.549417,53.9107],[-1.549178,53.908764],[-1.550592,53.907012],[-1.550266,53.904052],[-1.551381,53.903059],[-1.552577,53.903008],[-1.555219,53.904456],[-1.557047,53.904872],[-1.559311,53.904904],[-1.561564,53.903933],[-1.562883,53.90393],[-1.566212,53.909978],[-1.567088,53.910628],[-1.568689,53.910912],[-1.573068,53.910237],[-1.580804,53.909655],[-1.584296,53.909022],[-1.585844,53.90655],[-1.586289,53.904764],[-1.58519,53.902614],[-1.585568,53.901585],[-1.586666,53.901303],[-1.593073,53.90201],[-1.599262,53.903955],[-1.601283,53.905512],[-1.60183,53.906635],[-1.601105,53.90809],[-1.598051,53.909106],[-1.598327,53.909471],[-1.599839,53.909722],[-1.607612,53.908867],[-1.612035,53.906185],[-1.620659,53.903387],[-1.623138,53.903552],[-1.627552,53.905259],[-1.631294,53.905147],[-1.637999,53.905513],[-1.640653,53.907072],[-1.642122,53.907432],[-1.645814,53.907158],[-1.648611,53.905898],[-1.652063,53.9057],[-1.653618,53.906873],[-1.654417,53.908332],[-1.653952,53.909328],[-1.652412,53.910387],[-1.652262,53.911012],[-1.653214,53.911752],[-1.655083,53.912484],[-1.662683,53.913153],[-1.665195,53.913105],[-1.66664,53.912883],[-1.669398,53.911496],[-1.670509,53.91126],[-1.680021,53.910332],[-1.684627,53.910588],[-1.684571,53.911986],[-1.688199,53.911742],[-1.689171,53.912646],[-1.687633,53.914384],[-1.68702,53.916389],[-1.690165,53.916719],[-1.690323,53.917406],[-1.696347,53.917138],[-1.696444,53.917605],[-1.696917,53.917686],[-1.697681,53.916823],[-1.698613,53.916795],[-1.700778,53.917382],[-1.702243,53.91845],[-1.703715,53.918677],[-1.704775,53.918199],[-1.707083,53.919131],[-1.706112,53.917071],[-1.708034,53.917004],[-1.708957,53.918035],[-1.712488,53.917558],[-1.713197,53.917944],[-1.716444,53.917613],[-1.716034,53.917156],[-1.717437,53.913572],[-1.717539,53.91178],[-1.718638,53.910386],[-1.71797,53.908531],[-1.720646,53.910089],[-1.721519,53.911577],[-1.722135,53.911858],[-1.723276,53.911756],[-1.725712,53.91053],[-1.727217,53.910167],[-1.729018,53.910322],[-1.733698,53.911891],[-1.738701,53.912899],[-1.742164,53.91458],[-1.745997,53.918539],[-1.746071,53.920904],[-1.745042,53.922378],[-1.745626,53.923004],[-1.749731,53.922603],[-1.754483,53.921104],[-1.755506,53.921042],[-1.757235,53.92141],[-1.762429,53.924109],[-1.765425,53.924723],[-1.767828,53.924011],[-1.768963,53.921567],[-1.77228,53.920887],[-1.775979,53.921488],[-1.779885,53.925373],[-1.781173,53.928213],[-1.782355,53.929443],[-1.785266,53.929702],[-1.794068,53.929236],[-1.798028,53.929715],[-1.798429,53.9301],[-1.797145,53.93034],[-1.796355,53.930899],[-1.796222,53.933584],[-1.797373,53.93422],[-1.797157,53.935565],[-1.797872,53.93624],[-1.797513,53.936495],[-1.799037,53.936762],[-1.802863,53.935957],[-1.803539,53.93793],[-1.805089,53.939023],[-1.806226,53.938666],[-1.811311,53.938779],[-1.815068,53.93835],[-1.817053,53.938584],[-1.820157,53.938054],[-1.823393,53.938351],[-1.824019,53.939041],[-1.82594,53.938249],[-1.8302,53.938017],[-1.830125,53.940383],[-1.835565,53.939483],[-1.838438,53.939677],[-1.841723,53.939377],[-1.845024,53.939884],[-1.847731,53.940801],[-1.847765,53.938568],[-1.848781,53.936023],[-1.842277,53.934257],[-1.838492,53.932683],[-1.837182,53.932448],[-1.836424,53.932153],[-1.836167,53.931411],[-1.839413,53.931253],[-1.843524,53.932984],[-1.847345,53.932556],[-1.850144,53.931354],[-1.852055,53.930982],[-1.854399,53.931429],[-1.855981,53.93223],[-1.859502,53.932475],[-1.861438,53.933161],[-1.862992,53.934423],[-1.862614,53.936959],[-1.861736,53.939032],[-1.862101,53.940549],[-1.863999,53.941181],[-1.86579,53.942246],[-1.872099,53.943884],[-1.874405,53.945296],[-1.876215,53.948677],[-1.876091,53.950842],[-1.877527,53.953115],[-1.878848,53.954248],[-1.879941,53.955902],[-1.879815,53.956806],[-1.87814,53.958992],[-1.878723,53.962392],[-1.879513,53.962839],[-1.882242,53.963137],[-1.885458,53.963017],[-1.88553,53.96194],[-1.886379,53.960894],[-1.887417,53.960151],[-1.889705,53.959275],[-1.890514,53.957343],[-1.893138,53.955384],[-1.895711,53.955078],[-1.898841,53.955391],[-1.903573,53.957236],[-1.903892,53.957473],[-1.9035,53.958275],[-1.906274,53.958378],[-1.908499,53.957558],[-1.91196,53.95695],[-1.912905,53.956534],[-1.913164,53.955992],[-1.916996,53.955516],[-1.919122,53.954917],[-1.920101,53.955658],[-1.92277,53.955634],[-1.92798,53.950459],[-1.93088,53.950269],[-1.934298,53.951942],[-1.941695,53.952478],[-1.9441,53.956126],[-1.950658,53.95667],[-1.949362,53.953012],[-1.958205,53.953953],[-1.966175,53.951561],[-1.965049,53.948235],[-1.963893,53.948039],[-1.963054,53.945796],[-1.962385,53.945321],[-1.962289,53.943208],[-1.968829,53.943934],[-1.969352,53.943899],[-1.96893,53.943432],[-1.970527,53.943333],[-1.969961,53.941889],[-1.967778,53.940401],[-1.963076,53.933404],[-1.968019,53.931825],[-1.965916,53.930426],[-1.965889,53.927887],[-1.967241,53.927522],[-1.970415,53.928437],[-1.970218,53.929084],[-1.971922,53.92998],[-1.976867,53.926418],[-1.974033,53.924124],[-1.961683,53.918354],[-1.959648,53.915542],[-1.957345,53.913625],[-1.956784,53.913744],[-1.953229,53.911712],[-1.953321,53.906578],[-1.952417,53.903528],[-1.964964,53.903367],[-1.968349,53.90382],[-1.974886,53.901179],[-1.976975,53.900924],[-1.979349,53.90118],[-1.978936,53.897939],[-1.979706,53.897292],[-1.98117,53.896993],[-1.980733,53.895178],[-1.981206,53.894074],[-1.978723,53.891072],[-1.977151,53.887783],[-1.97801,53.884175],[-1.975983,53.878947],[-1.97698,53.875601],[-1.978724,53.873806],[-1.980199,53.871115],[-1.982359,53.868862],[-1.987653,53.867737],[-1.995482,53.868679],[-1.999455,53.872065],[-2.013038,53.870519],[-2.013485,53.869738],[-2.021631,53.871497],[-2.031708,53.858594],[-2.038351,53.855222],[-2.045072,53.85125],[-2.04613,53.850141],[-2.06229,53.859081],[-2.063151,53.859255],[-2.064757,53.858878],[-2.066408,53.859634],[-2.068965,53.859731],[-2.071368,53.861098],[-2.074849,53.862367],[-2.075965,53.86361],[-2.075795,53.864215],[-2.076459,53.865301],[-2.076202,53.865985],[-2.076723,53.866836],[-2.081191,53.869971],[-2.084497,53.870072],[-2.086119,53.869658],[-2.08899,53.868192],[-2.089915,53.868182],[-2.090097,53.86846],[-2.088345,53.87006],[-2.084246,53.872225],[-2.082693,53.873699],[-2.081447,53.87568],[-2.082413,53.876617],[-2.082458,53.877554],[-2.083026,53.877941],[-2.083707,53.877933],[-2.086249,53.880748],[-2.09068,53.882811],[-2.090921,53.883423],[-2.093855,53.885088],[-2.095735,53.888156],[-2.103019,53.890941],[-2.103417,53.891893],[-2.113176,53.904612],[-2.107467,53.908043],[-2.109791,53.909093],[-2.111818,53.911933],[-2.114694,53.913753],[-2.113093,53.915439],[-2.116687,53.917286],[-2.118289,53.917654],[-2.121758,53.917331],[-2.124628,53.921923],[-2.12435,53.923201],[-2.127065,53.923667],[-2.130159,53.92348],[-2.130898,53.924605],[-2.132547,53.925546],[-2.131915,53.926009],[-2.132224,53.926509],[-2.137789,53.928043],[-2.138216,53.9277],[-2.139978,53.928325],[-2.140878,53.926435],[-2.141798,53.925675],[-2.144961,53.926514],[-2.149433,53.926028],[-2.149493,53.926479],[-2.148115,53.927826],[-2.151716,53.929484],[-2.155182,53.927567],[-2.156887,53.927022],[-2.157819,53.928271],[-2.159337,53.927915],[-2.159663,53.928646],[-2.162877,53.92727],[-2.163215,53.928494],[-2.163742,53.92886],[-2.163789,53.930289],[-2.161566,53.931907],[-2.164266,53.934704],[-2.171605,53.937659],[-2.174331,53.936715],[-2.175927,53.934269],[-2.179179,53.935479],[-2.182263,53.935411],[-2.184387,53.937134],[-2.185638,53.940454],[-2.185488,53.941887],[-2.183715,53.943703],[-2.183844,53.945217],[-2.183161,53.945631],[-2.181401,53.945578],[-2.179467,53.945986],[-2.180461,53.946657],[-2.180711,53.947996],[-2.183681,53.949337],[-2.183525,53.951437],[-2.186169,53.95356],[-2.187768,53.954183],[-2.188155,53.955208],[-2.191286,53.958079],[-2.193616,53.9614],[-2.195589,53.966344],[-2.196018,53.969576],[-2.200635,53.970126],[-2.200403,53.969675],[-2.201484,53.968811],[-2.201667,53.967846],[-2.203173,53.967791],[-2.206657,53.966401],[-2.207039,53.965186],[-2.209639,53.962899],[-2.212991,53.963364],[-2.212985,53.963775],[-2.214488,53.965107],[-2.220612,53.963554],[-2.225674,53.96112],[-2.225937,53.962798],[-2.225316,53.965034],[-2.225922,53.967277],[-2.227591,53.967458],[-2.228746,53.967059],[-2.229371,53.96734],[-2.229839,53.967692],[-2.229152,53.968534],[-2.229581,53.969381],[-2.230993,53.970812],[-2.232099,53.971216],[-2.22764,53.974956],[-2.223529,53.976207],[-2.221112,53.977902],[-2.22409,53.978702],[-2.227261,53.978462],[-2.228172,53.979992],[-2.230378,53.981559],[-2.232855,53.980973],[-2.233684,53.981167],[-2.233645,53.98177],[-2.234572,53.981856],[-2.234666,53.981431],[-2.236984,53.980965],[-2.238178,53.981184],[-2.239285,53.980852],[-2.241344,53.980829],[-2.241715,53.981108],[-2.24261,53.980698],[-2.243276,53.98117],[-2.243973,53.981195],[-2.245172,53.980689],[-2.245808,53.97928],[-2.246886,53.979184],[-2.247256,53.978815],[-2.284595,53.973789],[-2.286275,53.974767],[-2.287061,53.974475],[-2.292254,53.975006],[-2.29455,53.974467],[-2.295539,53.974595],[-2.295504,53.975206],[-2.298949,53.976546],[-2.298687,53.977543],[-2.296839,53.979277],[-2.296878,53.980583],[-2.300091,53.981453],[-2.30527,53.983858],[-2.304499,53.984585],[-2.309443,53.987464],[-2.310217,53.98776],[-2.310775,53.987525],[-2.311584,53.988167],[-2.31427,53.98862],[-2.31559,53.990336],[-2.317352,53.991097],[-2.318386,53.992093],[-2.319177,53.993821],[-2.325005,53.994058],[-2.326981,53.993797],[-2.333729,53.990433],[-2.334046,53.990882],[-2.335942,53.991656],[-2.338358,53.991232],[-2.339999,53.989477],[-2.345865,53.992395],[-2.352176,53.994612],[-2.35337,53.999914],[-2.353561,54.003638],[-2.352285,54.010553],[-2.350253,54.012183],[-2.347911,54.009969],[-2.342815,54.008797],[-2.340794,54.00749],[-2.339434,54.00883],[-2.339564,54.009321],[-2.34327,54.016016],[-2.343604,54.017327],[-2.345651,54.018195],[-2.349392,54.0177],[-2.35015,54.018622],[-2.357323,54.019117],[-2.357527,54.020226],[-2.356542,54.021472],[-2.357795,54.022476],[-2.35792,54.023333],[-2.359277,54.023428],[-2.360351,54.024318],[-2.359514,54.026393],[-2.361728,54.02723],[-2.361311,54.027999],[-2.361933,54.029245],[-2.359258,54.03175],[-2.362658,54.034446],[-2.361847,54.037949],[-2.364179,54.040093],[-2.361999,54.04067],[-2.374073,54.049089],[-2.384422,54.047613],[-2.387164,54.045219],[-2.38966,54.044247],[-2.394741,54.043317],[-2.397058,54.044217],[-2.400463,54.043493],[-2.403829,54.043477],[-2.405544,54.042566],[-2.406221,54.04278],[-2.407709,54.042385],[-2.414435,54.042034],[-2.418943,54.041373],[-2.422523,54.040572],[-2.425826,54.038095],[-2.432734,54.041593],[-2.440358,54.041841],[-2.442388,54.042271],[-2.445324,54.042158],[-2.450755,54.040657],[-2.456629,54.040173],[-2.458775,54.040496],[-2.464676,54.043202],[-2.46955,54.046212],[-2.470546,54.050855],[-2.469015,54.054881],[-2.46399,54.061084],[-2.465613,54.071731],[-2.464347,54.075279],[-2.470724,54.076564],[-2.480751,54.085379],[-2.486383,54.084852],[-2.488398,54.086725],[-2.491566,54.08732],[-2.492566,54.089876],[-2.494205,54.089804],[-2.506305,54.091475],[-2.508754,54.092422],[-2.50855,54.09423],[-2.509526,54.095425],[-2.517242,54.094968],[-2.520523,54.095543],[-2.52401,54.094622],[-2.525199,54.095335],[-2.52519,54.095983],[-2.52559,54.096029],[-2.525885,54.09844],[-2.526391,54.099177],[-2.524493,54.100315],[-2.524109,54.102129],[-2.524893,54.102329],[-2.526306,54.10195],[-2.527502,54.102602],[-2.530042,54.102709],[-2.531535,54.103281],[-2.534427,54.103424],[-2.536766,54.104099],[-2.538128,54.105675],[-2.536731,54.106486],[-2.536953,54.106876],[-2.536201,54.108626],[-2.536665,54.10907],[-2.53746,54.109115],[-2.538212,54.1099],[-2.539091,54.109921],[-2.541786,54.111866],[-2.542079,54.111738],[-2.543798,54.112629],[-2.543999,54.113239],[-2.544679,54.113221],[-2.54474,54.114023],[-2.545836,54.114367],[-2.546057,54.115171],[-2.545438,54.115694],[-2.545653,54.115978],[-2.544671,54.11655],[-2.544764,54.11713],[-2.553083,54.120543],[-2.556874,54.120609],[-2.559213,54.121086],[-2.560635,54.121718],[-2.560765,54.122373],[-2.563329,54.122706],[-2.562989,54.12442],[-2.563481,54.124678],[-2.563215,54.12538],[-2.564732,54.126905],[-2.56319,54.127896],[-2.562473,54.12916],[-2.561389,54.1299],[-2.562489,54.131736],[-2.562056,54.132836],[-2.562224,54.135184],[-2.563243,54.13516],[-2.563715,54.135457],[-2.563585,54.136161],[-2.562666,54.136509],[-2.56341,54.140406],[-2.56133,54.141964],[-2.560951,54.142842],[-2.558316,54.142907],[-2.557874,54.143364],[-2.558198,54.147421],[-2.557378,54.14998],[-2.561515,54.150531],[-2.560504,54.153052],[-2.557675,54.15349],[-2.552287,54.153657],[-2.547323,54.153319],[-2.544825,54.155717],[-2.543683,54.157595],[-2.541325,54.15772],[-2.536731,54.156513],[-2.533979,54.157693],[-2.533136,54.158558],[-2.532995,54.160856],[-2.531558,54.160945],[-2.530792,54.161526],[-2.529955,54.162648],[-2.530451,54.164033],[-2.528907,54.164238],[-2.530218,54.166517],[-2.529374,54.167096],[-2.529347,54.168598],[-2.528759,54.169484],[-2.527798,54.169682],[-2.526804,54.170389],[-2.523181,54.17128],[-2.52364,54.172417],[-2.522301,54.173912],[-2.518838,54.17589],[-2.518222,54.176649],[-2.515322,54.17796],[-2.511742,54.178822],[-2.47994,54.202329],[-2.479324,54.203373],[-2.47963,54.204627],[-2.47705,54.208897],[-2.475693,54.210299],[-2.47477,54.21375],[-2.473699,54.215282],[-2.469015,54.2189],[-2.465611,54.220717],[-2.463969,54.22211],[-2.460863,54.226716],[-2.441418,54.225739],[-2.437652,54.224204],[-2.435428,54.222877],[-2.433478,54.223262],[-2.431944,54.224195],[-2.429418,54.223567],[-2.426495,54.223711],[-2.424051,54.224449],[-2.41197,54.226687],[-2.410555,54.226369],[-2.409215,54.226625],[-2.407498,54.22591],[-2.40645,54.225929],[-2.405632,54.224915],[-2.403629,54.225583],[-2.401377,54.230423],[-2.40093,54.234043],[-2.39678,54.239381],[-2.385086,54.239149],[-2.373021,54.240099],[-2.372325,54.248235],[-2.362317,54.249753],[-2.360407,54.246649],[-2.35055,54.241367],[-2.348052,54.237807],[-2.342509,54.237467],[-2.337657,54.237599],[-2.335811,54.238064],[-2.33131,54.240601],[-2.328271,54.241886],[-2.325647,54.241438],[-2.325469,54.242801],[-2.322657,54.24546],[-2.323253,54.246995],[-2.322538,54.248149],[-2.322646,54.252914],[-2.322091,54.255021],[-2.319096,54.257156],[-2.32082,54.259933],[-2.318056,54.263589],[-2.318286,54.265899],[-2.316105,54.267847],[-2.315514,54.270285],[-2.319402,54.274471],[-2.321184,54.275123],[-2.321745,54.277346],[-2.323789,54.279316],[-2.325892,54.279693],[-2.324131,54.280179],[-2.321707,54.281733],[-2.321123,54.282229],[-2.321655,54.283135],[-2.319082,54.283825],[-2.317918,54.286712],[-2.317192,54.287166],[-2.319857,54.288968],[-2.324172,54.293605],[-2.32229,54.2952],[-2.32039,54.299044],[-2.320438,54.299994],[-2.324345,54.300776],[-2.324522,54.303184],[-2.321248,54.305406],[-2.320401,54.306771],[-2.323032,54.311083],[-2.321642,54.311309],[-2.320151,54.312085],[-2.318672,54.311291],[-2.317059,54.311993],[-2.314978,54.313586],[-2.309841,54.324315],[-2.312461,54.324916],[-2.313799,54.32568],[-2.314992,54.327124],[-2.318055,54.328097],[-2.320202,54.331751],[-2.32247,54.331531],[-2.328162,54.332153],[-2.334749,54.334945],[-2.33521,54.335847],[-2.334509,54.337882],[-2.335768,54.340435],[-2.340231,54.342706],[-2.347925,54.345144],[-2.348135,54.346777],[-2.353244,54.34842],[-2.357342,54.349351],[-2.359674,54.350267],[-2.361564,54.352431],[-2.367156,54.354933],[-2.367712,54.356071],[-2.366152,54.355037],[-2.363689,54.354766],[-2.360749,54.354948],[-2.356437,54.355931],[-2.355731,54.357208],[-2.352876,54.358329],[-2.344648,54.359629],[-2.342714,54.361651],[-2.338255,54.363832],[-2.334557,54.363817],[-2.333954,54.3645],[-2.332884,54.364555],[-2.329959,54.367126],[-2.32693,54.368123],[-2.326092,54.368096],[-2.324332,54.369173],[-2.32349,54.370535],[-2.322374,54.370881],[-2.320848,54.372337],[-2.320305,54.372446],[-2.320402,54.372967],[-2.318887,54.374364],[-2.318141,54.374621],[-2.317043,54.376311],[-2.29744,54.376899],[-2.292086,54.384169],[-2.293224,54.386807],[-2.295367,54.387138],[-2.294167,54.387316],[-2.292549,54.388327],[-2.291703,54.39063],[-2.292172,54.391509],[-2.296177,54.392749],[-2.298872,54.3948],[-2.301662,54.3962],[-2.305445,54.397086],[-2.30621,54.39901],[-2.305119,54.402037],[-2.307415,54.404305],[-2.305682,54.407585],[-2.306319,54.411261],[-2.307855,54.414286],[-2.308146,54.419794],[-2.307879,54.420823],[-2.305464,54.422622],[-2.303373,54.426277],[-2.299438,54.427044],[-2.29453,54.431272],[-2.291854,54.431463],[-2.292346,54.43267],[-2.291493,54.436061],[-2.292544,54.437506],[-2.292075,54.438497],[-2.292865,54.439307],[-2.284315,54.438439],[-2.280419,54.438942],[-2.274983,54.440656],[-2.271348,54.440916],[-2.270332,54.441905],[-2.265378,54.442926],[-2.267903,54.447234],[-2.267167,54.447184],[-2.262721,54.44866],[-2.259863,54.448521],[-2.256767,54.450165],[-2.253502,54.45054],[-2.249539,54.451943],[-2.247886,54.451492],[-2.246239,54.451782],[-2.244118,54.450068],[-2.23962,54.449687],[-2.238731,54.449878],[-2.238041,54.449146],[-2.237346,54.449285],[-2.235617,54.448231],[-2.19242,54.448606],[-2.189316,54.448978],[-2.186162,54.452035],[-2.183577,54.455821],[-2.182194,54.457296],[-2.179915,54.458463],[-2.177508,54.461626],[-2.170579,54.461141],[-2.171934,54.459467],[-2.170213,54.458199],[-2.167326,54.457704],[-2.164792,54.456523],[-2.159873,54.456511],[-2.159268,54.455483],[-2.155373,54.457008],[-2.150121,54.459963],[-2.14149,54.460928],[-2.138887,54.461653],[-2.136049,54.46145],[-2.126563,54.462101],[-2.12301,54.461521],[-2.116596,54.462263],[-2.114305,54.464194],[-2.108591,54.464375],[-2.104431,54.464911],[-2.094753,54.467298],[-2.086397,54.468393],[-2.081624,54.469874],[-2.075741,54.473137],[-2.071174,54.474264],[-2.069919,54.475664],[-2.067705,54.477051],[-2.063176,54.478881],[-2.063104,54.479612],[-2.061289,54.480558],[-2.059207,54.481155],[-2.053073,54.480714],[-2.050467,54.481405],[-2.048613,54.482592],[-2.043198,54.483599],[-2.04473,54.475186],[-2.036957,54.474295],[-2.029568,54.472955],[-2.014646,54.471557],[-1.996764,54.466903],[-1.98654,54.46156],[-1.986271,54.460329],[-1.985539,54.459925],[-1.980051,54.460215],[-1.976125,54.459729],[-1.971111,54.454814],[-1.971751,54.453965],[-1.97006,54.451522],[-1.960503,54.452163],[-1.958514,54.452988],[-1.956555,54.453248],[-1.955424,54.45386],[-1.953782,54.453461],[-1.953228,54.453698],[-1.95162,54.45344],[-1.949231,54.454269],[-1.946996,54.454306],[-1.942543,54.453395],[-1.934025,54.45732],[-1.928325,54.456493],[-1.913183,54.461995],[-1.89343,54.466898],[-1.88547,54.472902],[-1.877603,54.47805],[-1.867255,54.482117],[-1.85913,54.481858],[-1.858529,54.482786],[-1.860831,54.486378],[-1.860045,54.487047],[-1.859216,54.489083],[-1.859315,54.492639],[-1.85865,54.493508],[-1.857823,54.493391],[-1.857719,54.493659],[-1.858602,54.496646],[-1.85867,54.499028],[-1.857801,54.50354],[-1.855373,54.503514],[-1.852768,54.503987],[-1.850977,54.503566],[-1.848217,54.503663],[-1.845974,54.504716],[-1.844283,54.505105],[-1.839433,54.508437],[-1.836473,54.508022],[-1.832302,54.505173],[-1.831564,54.503651],[-1.831854,54.502648],[-1.827787,54.502929],[-1.827227,54.501363],[-1.826448,54.500669],[-1.824388,54.500154],[-1.82455,54.497896],[-1.822719,54.496363],[-1.822443,54.495178],[-1.820277,54.49427],[-1.817519,54.493639],[-1.813078,54.491411],[-1.802734,54.487837],[-1.801569,54.487677],[-1.792976,54.484492],[-1.79109,54.489429],[-1.789022,54.491793],[-1.790268,54.492895],[-1.786887,54.498891],[-1.787177,54.501039],[-1.785057,54.501386],[-1.785133,54.502802],[-1.783935,54.503376],[-1.783912,54.505035],[-1.782487,54.505804],[-1.782175,54.507013],[-1.777879,54.506405],[-1.776132,54.506729],[-1.77759,54.515683],[-1.77735,54.519377],[-1.776351,54.51911],[-1.776859,54.525361],[-1.781559,54.526834],[-1.780323,54.528817],[-1.779697,54.531873],[-1.773291,54.532824],[-1.769724,54.532845],[-1.767205,54.532286],[-1.764608,54.529828],[-1.761213,54.528952],[-1.754015,54.52865],[-1.751742,54.530173],[-1.751247,54.530155],[-1.750832,54.529631],[-1.747537,54.529291],[-1.743134,54.529761],[-1.739,54.528438],[-1.733091,54.527736],[-1.732559,54.529459],[-1.731366,54.530682],[-1.727305,54.530485],[-1.724799,54.535996],[-1.724478,54.537774],[-1.722831,54.539695],[-1.722852,54.540973],[-1.723885,54.541593],[-1.721311,54.542302],[-1.719419,54.542239],[-1.717879,54.540957],[-1.714666,54.53949],[-1.705214,54.536897],[-1.689531,54.535387],[-1.68363,54.53348],[-1.679294,54.533635],[-1.677412,54.534494],[-1.672212,54.535402],[-1.665277,54.53559],[-1.660641,54.5352],[-1.657937,54.534589],[-1.65558,54.532977],[-1.655035,54.53183],[-1.655097,54.530038],[-1.656918,54.528209],[-1.657034,54.526383],[-1.65633,54.525533],[-1.654675,54.52465],[-1.652973,54.524196],[-1.650519,54.524093],[-1.645317,54.524401],[-1.639399,54.525808],[-1.635989,54.525897],[-1.633774,54.525364],[-1.632137,54.523851],[-1.631724,54.522877],[-1.63268,54.520702],[-1.632931,54.518704],[-1.633662,54.517968],[-1.634988,54.517521],[-1.63901,54.517806],[-1.640253,54.517552],[-1.640498,54.517189],[-1.639163,54.516313],[-1.633444,54.514112],[-1.628247,54.513783],[-1.623871,54.514559],[-1.619532,54.515999],[-1.614296,54.519542],[-1.612107,54.519992],[-1.603955,54.519365],[-1.600623,54.517098],[-1.600448,54.516344],[-1.601064,54.514813],[-1.603687,54.512054],[-1.603581,54.511167],[-1.6027,54.510537],[-1.601098,54.510559],[-1.595656,54.512222],[-1.589715,54.512074],[-1.58359,54.513058],[-1.581069,54.512846],[-1.579527,54.511627],[-1.579564,54.51109],[-1.581305,54.509489],[-1.587513,54.506772],[-1.591357,54.505853],[-1.591948,54.505303],[-1.591623,54.504004],[-1.59076,54.503608],[-1.588866,54.503632],[-1.581128,54.505328],[-1.579215,54.505188],[-1.578745,54.503883],[-1.579995,54.500943],[-1.583437,54.498059],[-1.58298,54.497101],[-1.580305,54.496309],[-1.576999,54.494404],[-1.575006,54.492626],[-1.573304,54.49016],[-1.567774,54.488568],[-1.563038,54.486808],[-1.556663,54.485595],[-1.555195,54.484978],[-1.554443,54.483901],[-1.554099,54.479601],[-1.551129,54.4745],[-1.545673,54.471238],[-1.54275,54.471164],[-1.53272,54.469149],[-1.527403,54.469965],[-1.522417,54.470185],[-1.519694,54.471115],[-1.519358,54.472197],[-1.520547,54.473473],[-1.524474,54.474643],[-1.528597,54.474781],[-1.530151,54.475751],[-1.530273,54.477799],[-1.531293,54.480721],[-1.530613,54.48353],[-1.528837,54.484814],[-1.526409,54.485224],[-1.523671,54.484913],[-1.518075,54.485036],[-1.515939,54.484573],[-1.514132,54.483775],[-1.512935,54.482925],[-1.512001,54.481155],[-1.512204,54.48014],[-1.514373,54.477907],[-1.51431,54.476574],[-1.513128,54.475347],[-1.511341,54.475012],[-1.509742,54.475545],[-1.506869,54.478486],[-1.506231,54.481568],[-1.505247,54.48242],[-1.501355,54.48433],[-1.496894,54.485825],[-1.494314,54.486355],[-1.491522,54.486092],[-1.490484,54.484818],[-1.491319,54.483281],[-1.493239,54.481423],[-1.499348,54.478096],[-1.499588,54.477156],[-1.499052,54.475678],[-1.498354,54.474992],[-1.496679,54.474385],[-1.494613,54.474028],[-1.490714,54.473974],[-1.487026,54.472994],[-1.483931,54.473428],[-1.47909,54.475322],[-1.477625,54.475012],[-1.475373,54.473845],[-1.474589,54.472789],[-1.473963,54.467893],[-1.472887,54.466586],[-1.467981,54.463151],[-1.467619,54.462151],[-1.467844,54.460843],[-1.468853,54.459347],[-1.472206,54.457457],[-1.472052,54.4556],[-1.470727,54.454565],[-1.466989,54.453292],[-1.463731,54.451602],[-1.461732,54.45115],[-1.460358,54.451191],[-1.45711,54.452014],[-1.454725,54.453602],[-1.454772,54.454599],[-1.455904,54.456088],[-1.457472,54.457274],[-1.461305,54.459013],[-1.462746,54.461115],[-1.462529,54.462296],[-1.461801,54.463003],[-1.455303,54.464842],[-1.454265,54.465388],[-1.453913,54.466155],[-1.455078,54.46726],[-1.459414,54.468848],[-1.460114,54.471224],[-1.463304,54.47295],[-1.463853,54.473758],[-1.461497,54.478214],[-1.457597,54.481362],[-1.457809,54.482063],[-1.461344,54.484707],[-1.461827,54.485951],[-1.461251,54.487623],[-1.458408,54.491254],[-1.458474,54.492839],[-1.45957,54.494833],[-1.462241,54.496294],[-1.465685,54.496588],[-1.472917,54.496019],[-1.474594,54.496829],[-1.475559,54.498108],[-1.47519,54.499912],[-1.47419,54.500984],[-1.472839,54.501556],[-1.467353,54.502527],[-1.462114,54.504245],[-1.459984,54.50427],[-1.457798,54.503648],[-1.456504,54.50281],[-1.451898,54.497359],[-1.446511,54.494426],[-1.442892,54.490915],[-1.432251,54.486519],[-1.426986,54.485234],[-1.426583,54.484779],[-1.426832,54.483999],[-1.428156,54.482881],[-1.433204,54.480941],[-1.433115,54.480105],[-1.432118,54.479455],[-1.423139,54.47888],[-1.417887,54.477086],[-1.412786,54.477195],[-1.409974,54.478333],[-1.408332,54.481395],[-1.408113,54.484621],[-1.408851,54.48728],[-1.410189,54.489686],[-1.409347,54.491514],[-1.407089,54.49353],[-1.405059,54.49416],[-1.402374,54.494269],[-1.399215,54.492892],[-1.397942,54.491105],[-1.398399,54.487633],[-1.397274,54.486539],[-1.39505,54.48568],[-1.389861,54.486699],[-1.384572,54.486852],[-1.383065,54.487286],[-1.382246,54.487928],[-1.382102,54.48858],[-1.382969,54.491591],[-1.381011,54.494029],[-1.37975,54.492621],[-1.378406,54.492131],[-1.377504,54.491242],[-1.375761,54.490635],[-1.373731,54.48838],[-1.372703,54.488475],[-1.371976,54.488001],[-1.370299,54.486139],[-1.37193,54.48482],[-1.374384,54.484233],[-1.374215,54.483588],[-1.37478,54.482467],[-1.374941,54.479534],[-1.373848,54.474439],[-1.374343,54.474061],[-1.373439,54.473566],[-1.372562,54.472307],[-1.368953,54.469949],[-1.364417,54.465952],[-1.361824,54.467809],[-1.361264,54.468711],[-1.357336,54.471418],[-1.35649,54.472926],[-1.353045,54.472419],[-1.350917,54.473416],[-1.350002,54.473182],[-1.349807,54.472727],[-1.347831,54.472333],[-1.346347,54.472667],[-1.345357,54.472244],[-1.344915,54.472408],[-1.344731,54.47158],[-1.343826,54.471059],[-1.344681,54.470716],[-1.344109,54.470511],[-1.344904,54.470114],[-1.344127,54.469543],[-1.344788,54.46903],[-1.343927,54.468784],[-1.343752,54.468231],[-1.342699,54.46845],[-1.343109,54.468207],[-1.342509,54.468129],[-1.342795,54.467842],[-1.342309,54.467663],[-1.343248,54.467257],[-1.343935,54.466229],[-1.344722,54.466023],[-1.344118,54.465501],[-1.344035,54.4642],[-1.343629,54.464155],[-1.324131,54.470925],[-1.323517,54.471433],[-1.318341,54.472089],[-1.31704,54.472752],[-1.315529,54.475286],[-1.313116,54.477277],[-1.310959,54.477574],[-1.308823,54.476442],[-1.308474,54.476865],[-1.307304,54.477047],[-1.30686,54.477692],[-1.303278,54.478397],[-1.302169,54.478028],[-1.302331,54.47673],[-1.301546,54.47642],[-1.303147,54.475931],[-1.300431,54.475822],[-1.299091,54.476632],[-1.296949,54.479501],[-1.29616,54.479648],[-1.294595,54.479339],[-1.293544,54.47961],[-1.291591,54.483445],[-1.290393,54.483438],[-1.291049,54.482181],[-1.290748,54.481941],[-1.288611,54.481805],[-1.28671,54.482735],[-1.286658,54.483957],[-1.287701,54.484843],[-1.287826,54.486364],[-1.289361,54.487332],[-1.289592,54.487986],[-1.288492,54.487765],[-1.287732,54.487952],[-1.287212,54.487511],[-1.285347,54.487872],[-1.284206,54.489132],[-1.281093,54.490567],[-1.278985,54.490291],[-1.277699,54.489746],[-1.276721,54.490075],[-1.276268,54.490733],[-1.274403,54.49107],[-1.272827,54.490279],[-1.273104,54.489276],[-1.270955,54.489135],[-1.269299,54.488308],[-1.268023,54.488555],[-1.26713,54.488167],[-1.265637,54.488172],[-1.264239,54.487568],[-1.26019,54.487802],[-1.257403,54.487322],[-1.256666,54.491174],[-1.257225,54.493208],[-1.254777,54.495251],[-1.254312,54.495851],[-1.254553,54.496607],[-1.253329,54.497281],[-1.253262,54.497782],[-1.253718,54.498804],[-1.255177,54.499469],[-1.256675,54.501108],[-1.252487,54.5014],[-1.250458,54.501089],[-1.249285,54.501391],[-1.248526,54.501194],[-1.245677,54.502188],[-1.244702,54.501354],[-1.242321,54.501658],[-1.238513,54.506232],[-1.23438,54.506142],[-1.234866,54.510316],[-1.233405,54.510569],[-1.231728,54.511427],[-1.230442,54.511003],[-1.230605,54.511882],[-1.227612,54.511996],[-1.220136,54.510941],[-1.219065,54.510166],[-1.213845,54.510005],[-1.208453,54.508878],[-1.207289,54.508146],[-1.203786,54.506894],[-1.202146,54.506953],[-1.19668,54.506185],[-1.195485,54.506632],[-1.189725,54.506293],[-1.185094,54.507285],[-1.181163,54.505772],[-1.180011,54.506195],[-1.179379,54.505999],[-1.176143,54.504314],[-1.175549,54.504688],[-1.173864,54.504717],[-1.173471,54.504049],[-1.174209,54.503839],[-1.173908,54.503209],[-1.174392,54.502894],[-1.173541,54.502505],[-1.172727,54.502881],[-1.172309,54.502552],[-1.170653,54.502348],[-1.168972,54.503534],[-1.166977,54.503384],[-1.166638,54.503724],[-1.166033,54.503109],[-1.165369,54.503547],[-1.164193,54.503149],[-1.164073,54.503412],[-1.163113,54.503542],[-1.158296,54.502373],[-1.152667,54.501912],[-1.148059,54.501125],[-1.146693,54.501372],[-1.146197,54.502822],[-1.130852,54.500037],[-1.126654,54.498721],[-1.122811,54.49899],[-1.11838,54.498199],[-1.114324,54.498964],[-1.113201,54.500347],[-1.112266,54.500797],[-1.111637,54.502039],[-1.111783,54.504374],[-1.106187,54.505701],[-1.094737,54.506696],[-1.08734,54.503353],[-1.078198,54.503822],[-1.073813,54.502619],[-1.067927,54.500448],[-1.0648,54.498519],[-1.060024,54.500359],[-1.057674,54.498985],[-1.051008,54.496405],[-1.044506,54.495994],[-1.04211,54.495252],[-1.039486,54.495119],[-1.036851,54.494044],[-1.0238,54.502045],[-1.003401,54.503012],[-0.987386,54.500858],[-0.967829,54.497268],[-0.952952,54.488036],[-0.943987,54.488689],[-0.932611,54.491455],[-0.929035,54.491638],[-0.922947,54.491018],[-0.916366,54.492224],[-0.901416,54.494202],[-0.895786,54.495603],[-0.894218,54.496369],[-0.894213,54.496912],[-0.880825,54.497047],[-0.880645,54.496471],[-0.878187,54.495329],[-0.877173,54.494962],[-0.876337,54.495389],[-0.875781,54.491165],[-0.866979,54.489241],[-0.863494,54.489083],[-0.856262,54.487849],[-0.848531,54.487973],[-0.844139,54.48955],[-0.843942,54.491225],[-0.845059,54.492637],[-0.848615,54.495532],[-0.853321,54.502714],[-0.852347,54.505629],[-0.852327,54.510377],[-0.850206,54.511461],[-0.85129,54.513684],[-0.852235,54.51761],[-0.852184,54.51806],[-0.851191,54.518373],[-0.849948,54.519955],[-0.850649,54.523425],[-0.851429,54.524004],[-0.850407,54.524187],[-0.849928,54.524969],[-0.850701,54.526339],[-0.850074,54.526487],[-0.850145,54.527623],[-0.848647,54.530004],[-0.844596,54.53348],[-0.843902,54.534799],[-0.842153,54.53602],[-0.841623,54.537669],[-0.838666,54.5398],[-0.836545,54.542619],[-0.834844,54.543289],[-0.832587,54.545153],[-0.830898,54.545468],[-0.829551,54.546872],[-0.827868,54.547406],[-0.827081,54.548519],[-0.825106,54.549082],[-0.820399,54.549362],[-0.818921,54.550703],[-0.815676,54.552507],[-0.814734,54.551686],[-0.813066,54.552042],[-0.810528,54.551219],[-0.8096,54.551713],[-0.80812,54.551241],[-0.806465,54.551432],[-0.804925,54.550895],[-0.801847,54.551409],[-0.800419,54.551011],[-0.800581,54.551838],[-0.797252,54.554146],[-0.797384,54.554631],[-0.798506,54.555089],[-0.798787,54.555618],[-0.79555,54.554872],[-0.7961,54.556615],[-0.795487,54.557151],[-0.794264,54.557502],[-0.793967,54.558586],[-0.792207,54.559472],[-0.789734,54.558589]]],[[[-0.78796,54.559062],[-0.788336,54.559852],[-0.788978,54.559995],[-0.788285,54.560194],[-0.787606,54.559136],[-0.78796,54.559062]]]]}}]}