{"type":"FeatureCollection","features":[{"type":"Feature","properties":{"slug":"north-kesteven","gss_code":"E07000139","name":"North Kesteven"},"geometry":{"type":"Polygon","coordinates":[[[-0.612204,53.256095],[-0.611474,53.256424],[-0.601996,53.250433],[-0.597432,53.247263],[-0.595112,53.24517],[-0.572196,53.236447],[-0.572361,53.235454],[-0.570727,53.229612],[-0.575475,53.231636],[-0.578837,53.2306],[-0.592508,53.228705],[-0.595036,53.227851],[-0.596477,53.229353],[-0.603345,53.225178],[-0.606692,53.224163],[-0.608575,53.222453],[-0.610474,53.224101],[-0.615666,53.221911],[-0.615654,53.221214],[-0.616988,53.220883],[-0.616052,53.219285],[-0.622617,53.217598],[-0.620319,53.216719],[-0.617409,53.214326],[-0.617911,53.210625],[-0.619735,53.208056],[-0.61759,53.207337],[-0.614811,53.205213],[-0.615029,53.203547],[-0.613773,53.202705],[-0.608918,53.201881],[-0.60706,53.201926],[-0.600489,53.203576],[-0.588216,53.200572],[-0.58903,53.199904],[-0.58677,53.198644],[-0.584299,53.19903],[-0.583858,53.198567],[-0.583429,53.198646],[-0.582863,53.197049],[-0.580666,53.197584],[-0.577803,53.196085],[-0.578114,53.195789],[-0.574326,53.193914],[-0.57499,53.193403],[-0.574338,53.19305],[-0.57515,53.19239],[-0.574094,53.191849],[-0.574475,53.191583],[-0.564971,53.187161],[-0.558452,53.186471],[-0.552843,53.186326],[-0.549572,53.197103],[-0.54884,53.205863],[-0.544945,53.205474],[-0.544522,53.204535],[-0.543217,53.203985],[-0.540843,53.203688],[-0.539576,53.203953],[-0.539821,53.208314],[-0.538452,53.210061],[-0.535662,53.212286],[-0.533833,53.213221],[-0.53197,53.21409],[-0.528684,53.214761],[-0.530338,53.21738],[-0.526898,53.218311],[-0.526915,53.218741],[-0.522556,53.219471],[-0.513823,53.220211],[-0.513426,53.218104],[-0.508914,53.218208],[-0.505445,53.219928],[-0.501273,53.22106],[-0.502301,53.225796],[-0.495118,53.225259],[-0.488318,53.225294],[-0.480842,53.226163],[-0.47467,53.227264],[-0.462028,53.227258],[-0.451941,53.228509],[-0.445394,53.229659],[-0.43209,53.230462],[-0.4136,53.230164],[-0.40614,53.230648],[-0.399548,53.230533],[-0.380607,53.231854],[-0.37879,53.231216],[-0.373904,53.22773],[-0.370812,53.226231],[-0.36972,53.226408],[-0.366656,53.225417],[-0.364252,53.226037],[-0.361708,53.225711],[-0.36173,53.226684],[-0.359551,53.227197],[-0.35952,53.227661],[-0.35827,53.228192],[-0.357494,53.227514],[-0.353255,53.228004],[-0.352197,53.227855],[-0.351313,53.227321],[-0.350036,53.225388],[-0.348068,53.224058],[-0.346534,53.220361],[-0.346532,53.218643],[-0.347725,53.217036],[-0.346738,53.214654],[-0.342284,53.212347],[-0.336818,53.208468],[-0.337547,53.203744],[-0.337119,53.203002],[-0.335735,53.202353],[-0.330789,53.201634],[-0.325525,53.195571],[-0.325121,53.19062],[-0.318907,53.18462],[-0.309634,53.182024],[-0.298584,53.181678],[-0.295812,53.181196],[-0.294541,53.179876],[-0.291245,53.178936],[-0.290296,53.178891],[-0.28965,53.179366],[-0.285329,53.178035],[-0.284959,53.177345],[-0.282799,53.17696],[-0.283174,53.175835],[-0.281181,53.173901],[-0.279771,53.17429],[-0.278551,53.175069],[-0.275452,53.173336],[-0.274385,53.170651],[-0.2701,53.169358],[-0.268856,53.168425],[-0.26737,53.166077],[-0.265162,53.16433],[-0.264576,53.161894],[-0.261428,53.160035],[-0.260307,53.158013],[-0.257937,53.15743],[-0.256231,53.1565],[-0.25363,53.155919],[-0.252789,53.155194],[-0.251987,53.152317],[-0.246727,53.148079],[-0.239862,53.138597],[-0.238446,53.133736],[-0.23718,53.13287],[-0.234534,53.132025],[-0.233388,53.131345],[-0.226007,53.124605],[-0.225286,53.121808],[-0.226476,53.119957],[-0.226108,53.116047],[-0.223598,53.114436],[-0.223104,53.113371],[-0.223285,53.112577],[-0.224853,53.11146],[-0.224638,53.109284],[-0.22254,53.107258],[-0.219037,53.105054],[-0.220751,53.102587],[-0.220424,53.100547],[-0.219156,53.0978],[-0.219319,53.096251],[-0.217067,53.094175],[-0.214515,53.089622],[-0.207295,53.086426],[-0.205169,53.085893],[-0.201681,53.085755],[-0.200094,53.085366],[-0.197019,53.083807],[-0.195715,53.082135],[-0.19546,53.081415],[-0.198819,53.077521],[-0.19759,53.075059],[-0.19612,53.069557],[-0.198851,53.070355],[-0.204292,53.070243],[-0.206623,53.070576],[-0.21076,53.070154],[-0.211356,53.067519],[-0.214058,53.062385],[-0.21793,53.051648],[-0.220278,53.048009],[-0.21801,53.044715],[-0.218083,53.043493],[-0.220968,53.03942],[-0.219555,53.039073],[-0.223121,53.034848],[-0.222713,53.033906],[-0.223924,53.033179],[-0.224995,53.030048],[-0.224828,53.02903],[-0.224131,53.028726],[-0.223253,53.027504],[-0.221003,53.026551],[-0.220356,53.025869],[-0.219176,53.025685],[-0.218797,53.025137],[-0.216583,53.024061],[-0.215077,53.021517],[-0.21345,53.020678],[-0.213608,53.019988],[-0.214659,53.019209],[-0.214213,53.017358],[-0.213285,53.016361],[-0.209437,53.014644],[-0.207003,53.012325],[-0.206856,53.011193],[-0.203619,53.009198],[-0.203829,53.007843],[-0.202029,53.005998],[-0.201489,53.004106],[-0.199407,53.003281],[-0.193728,52.99787],[-0.189776,52.99646],[-0.196645,52.989015],[-0.198796,52.985606],[-0.198892,52.98431],[-0.198382,52.983807],[-0.19916,52.982973],[-0.198924,52.981777],[-0.199679,52.981204],[-0.201198,52.97746],[-0.21543,52.960862],[-0.224,52.956073],[-0.24657,52.929068],[-0.256496,52.905883],[-0.275413,52.909596],[-0.278858,52.910031],[-0.283716,52.910059],[-0.290546,52.91081],[-0.292877,52.910772],[-0.310385,52.915012],[-0.314432,52.916402],[-0.32283,52.91753],[-0.339261,52.91695],[-0.341828,52.916535],[-0.357893,52.915651],[-0.357523,52.911868],[-0.358551,52.911664],[-0.358145,52.909979],[-0.358942,52.90991],[-0.359022,52.908453],[-0.360706,52.903822],[-0.360825,52.901939],[-0.366068,52.901164],[-0.365824,52.897931],[-0.371487,52.897724],[-0.375068,52.898461],[-0.382546,52.898417],[-0.383458,52.89865],[-0.391297,52.897253],[-0.391283,52.896518],[-0.398719,52.89442],[-0.410406,52.891867],[-0.41433,52.891272],[-0.42712,52.890434],[-0.427874,52.888663],[-0.430754,52.888848],[-0.437341,52.886996],[-0.440739,52.892639],[-0.44237,52.894432],[-0.441887,52.894823],[-0.443549,52.896278],[-0.44416,52.898991],[-0.445332,52.900572],[-0.447591,52.900501],[-0.454668,52.9014],[-0.469756,52.901188],[-0.47182,52.904193],[-0.472064,52.905435],[-0.477136,52.905448],[-0.476926,52.905615],[-0.479884,52.906422],[-0.481786,52.907998],[-0.483479,52.910864],[-0.486646,52.911788],[-0.488244,52.913171],[-0.489009,52.913239],[-0.492437,52.917777],[-0.493975,52.920738],[-0.48761,52.920582],[-0.487905,52.921911],[-0.48828,52.92191],[-0.488362,52.924042],[-0.487563,52.925174],[-0.486286,52.924962],[-0.485997,52.926089],[-0.486866,52.928053],[-0.481657,52.92802],[-0.481582,52.929827],[-0.479849,52.929771],[-0.479498,52.930882],[-0.479881,52.932685],[-0.48094,52.932349],[-0.481532,52.933922],[-0.483386,52.933769],[-0.483724,52.937699],[-0.482719,52.937679],[-0.482866,52.939384],[-0.487179,52.939512],[-0.487908,52.943916],[-0.489146,52.946515],[-0.489672,52.946931],[-0.494135,52.948333],[-0.494276,52.951723],[-0.49286,52.951982],[-0.493828,52.953575],[-0.494595,52.954063],[-0.502104,52.951042],[-0.508042,52.949311],[-0.507641,52.947757],[-0.510006,52.947573],[-0.511311,52.950556],[-0.512184,52.951651],[-0.512615,52.951594],[-0.515212,52.957521],[-0.517846,52.960288],[-0.52115,52.959099],[-0.522501,52.959901],[-0.523788,52.958448],[-0.524734,52.958721],[-0.526712,52.955735],[-0.529901,52.956287],[-0.533811,52.955119],[-0.540502,52.954356],[-0.545025,52.954679],[-0.550002,52.95417],[-0.554099,52.954431],[-0.54308,52.971643],[-0.540388,52.967334],[-0.526173,52.969387],[-0.528458,52.971206],[-0.531059,52.975752],[-0.526748,52.97695],[-0.526842,52.980829],[-0.526057,52.982124],[-0.528305,52.9837],[-0.52557,52.985314],[-0.52677,52.986448],[-0.523518,52.988186],[-0.526091,52.989654],[-0.531942,52.989817],[-0.522814,53.049642],[-0.53565,53.049755],[-0.565632,53.049298],[-0.573596,53.049619],[-0.574187,53.049258],[-0.574093,53.046995],[-0.579837,53.04711],[-0.580255,53.046135],[-0.584527,53.046246],[-0.584939,53.045677],[-0.589411,53.046604],[-0.589355,53.047598],[-0.591325,53.047785],[-0.592076,53.047334],[-0.593351,53.047435],[-0.593344,53.048065],[-0.596495,53.048156],[-0.597654,53.049399],[-0.601775,53.049562],[-0.601757,53.051112],[-0.603793,53.051151],[-0.604142,53.052154],[-0.637345,53.054679],[-0.637085,53.053806],[-0.637417,53.05334],[-0.635954,53.052655],[-0.636009,53.052351],[-0.644142,53.052905],[-0.644288,53.052581],[-0.648632,53.053175],[-0.648208,53.053756],[-0.661997,53.054996],[-0.661404,53.05711],[-0.66738,53.057496],[-0.667334,53.057771],[-0.670143,53.057852],[-0.670445,53.05813],[-0.675791,53.058272],[-0.680938,53.058001],[-0.681454,53.058906],[-0.684841,53.058805],[-0.687511,53.058954],[-0.687946,53.059214],[-0.690265,53.059049],[-0.689381,53.05933],[-0.689889,53.059763],[-0.692743,53.059386],[-0.693089,53.059023],[-0.695225,53.059112],[-0.695197,53.057823],[-0.693698,53.057483],[-0.6937,53.056504],[-0.69829,53.053311],[-0.69936,53.053005],[-0.702455,53.052985],[-0.702706,53.051975],[-0.706397,53.05219],[-0.713924,53.057044],[-0.715509,53.058846],[-0.716204,53.059059],[-0.713668,53.06032],[-0.71294,53.061083],[-0.713188,53.061962],[-0.713849,53.062328],[-0.714073,53.06368],[-0.715218,53.063796],[-0.71594,53.064406],[-0.715059,53.065393],[-0.714408,53.065315],[-0.71408,53.065597],[-0.713487,53.065354],[-0.713467,53.066047],[-0.712097,53.065863],[-0.711044,53.066222],[-0.70783,53.065397],[-0.705698,53.065415],[-0.704264,53.06505],[-0.704276,53.064358],[-0.702762,53.064292],[-0.701539,53.063663],[-0.700498,53.063834],[-0.698478,53.065065],[-0.697045,53.065071],[-0.695161,53.066211],[-0.6953,53.067044],[-0.697587,53.066037],[-0.698806,53.067746],[-0.698386,53.070941],[-0.697433,53.071684],[-0.698066,53.072241],[-0.697715,53.072789],[-0.698569,53.073576],[-0.697945,53.074682],[-0.698755,53.074681],[-0.698482,53.075468],[-0.702761,53.076654],[-0.707477,53.07873],[-0.710358,53.079378],[-0.708159,53.082427],[-0.706149,53.083378],[-0.709601,53.085233],[-0.709417,53.085982],[-0.715391,53.086512],[-0.715393,53.087196],[-0.724383,53.092589],[-0.728975,53.096146],[-0.729618,53.097902],[-0.725479,53.100749],[-0.721251,53.104268],[-0.718371,53.110352],[-0.716755,53.116185],[-0.716883,53.119444],[-0.71856,53.119569],[-0.720837,53.120887],[-0.727258,53.122043],[-0.728155,53.123213],[-0.731092,53.124003],[-0.731106,53.126373],[-0.732015,53.126706],[-0.732407,53.127802],[-0.728084,53.130385],[-0.724,53.133419],[-0.718935,53.135765],[-0.715375,53.136883],[-0.717156,53.138945],[-0.718673,53.142011],[-0.721048,53.14429],[-0.721209,53.148183],[-0.722063,53.149739],[-0.722122,53.151939],[-0.723232,53.155104],[-0.716028,53.170412],[-0.718722,53.174938],[-0.71866,53.177079],[-0.71816,53.177288],[-0.725903,53.178465],[-0.729712,53.178247],[-0.730266,53.180095],[-0.737728,53.179305],[-0.75222,53.181054],[-0.764138,53.181544],[-0.762547,53.185752],[-0.762168,53.188239],[-0.753766,53.188156],[-0.742485,53.198438],[-0.730569,53.210756],[-0.724413,53.209648],[-0.723759,53.210103],[-0.722252,53.2098],[-0.722459,53.209428],[-0.720312,53.209322],[-0.714753,53.207608],[-0.709011,53.212291],[-0.708259,53.212231],[-0.697616,53.220237],[-0.686875,53.219967],[-0.686683,53.219631],[-0.675872,53.217644],[-0.676182,53.218225],[-0.674976,53.220376],[-0.674735,53.222599],[-0.673146,53.223775],[-0.672973,53.224465],[-0.671478,53.225928],[-0.67102,53.22735],[-0.671307,53.228042],[-0.670182,53.228526],[-0.670143,53.229304],[-0.669061,53.229999],[-0.668919,53.231164],[-0.666509,53.233451],[-0.666406,53.235316],[-0.667153,53.236506],[-0.667114,53.238805],[-0.666577,53.239702],[-0.665517,53.2407],[-0.653617,53.242316],[-0.653068,53.242745],[-0.648444,53.243474],[-0.646437,53.247236],[-0.648377,53.253168],[-0.638439,53.254212],[-0.631515,53.255288],[-0.631792,53.256402],[-0.622348,53.258006],[-0.620901,53.25704],[-0.619466,53.256592],[-0.612204,53.256095]]]}}]}