{"type":"FeatureCollection","features":[{"type":"Feature","properties":{"slug":"northumberland","gss_code":"E06000057","name":"Northumberland"},"geometry":{"type":"MultiPolygon","coordinates":[[[[-1.536578,55.334942],[-1.537203,55.335021],[-1.536793,55.333693],[-1.53766,55.333002],[-1.540351,55.333547],[-1.540759,55.334764],[-1.540214,55.33642],[-1.539764,55.336751],[-1.537881,55.336804],[-1.536989,55.335974],[-1.536578,55.334942]]],[[[-1.617649,55.385198],[-1.61904,55.385032],[-1.618453,55.385375],[-1.619205,55.385285],[-1.618897,55.385514],[-1.620223,55.38634],[-1.619875,55.386621],[-1.617649,55.385198]]],[[[-1.64499,55.582821],[-1.644123,55.582979],[-1.644544,55.582413],[-1.644884,55.582649],[-1.644543,55.582324],[-1.644955,55.582504],[-1.645675,55.582251],[-1.644997,55.582761],[-1.648066,55.584161],[-1.64499,55.582821]]],[[[-1.642453,55.615764],[-1.644518,55.616321],[-1.645181,55.617261],[-1.643679,55.617123],[-1.64198,55.616388],[-1.642453,55.615764]]],[[[-1.647336,55.616851],[-1.645974,55.616866],[-1.645983,55.616075],[-1.648326,55.616068],[-1.649742,55.616615],[-1.6499,55.61726],[-1.648734,55.61785],[-1.648183,55.617754],[-1.647336,55.616851]]],[[[-1.654094,55.617042],[-1.654451,55.61685],[-1.652168,55.61609],[-1.653878,55.615198],[-1.655397,55.615021],[-1.658629,55.617109],[-1.656285,55.617547],[-1.655824,55.617379],[-1.656135,55.617792],[-1.655641,55.618396],[-1.655008,55.617383],[-1.654094,55.617042]]],[[[-1.650126,55.619527],[-1.651139,55.620276],[-1.651934,55.62033],[-1.651253,55.620869],[-1.649981,55.620307],[-1.650126,55.619527]]],[[[-1.673923,55.62882],[-1.675232,55.629033],[-1.6755,55.629662],[-1.674959,55.62976],[-1.673923,55.62882]]],[[[-1.6237,55.631461],[-1.622536,55.631634],[-1.622052,55.631285],[-1.623157,55.629767],[-1.624563,55.629675],[-1.624055,55.629035],[-1.625202,55.629339],[-1.624862,55.630562],[-1.626085,55.631857],[-1.625555,55.632309],[-1.6237,55.631461]]],[[[-1.626888,55.63458],[-1.625306,55.634714],[-1.623186,55.63368],[-1.621812,55.633499],[-1.621019,55.633057],[-1.619938,55.633152],[-1.619572,55.632793],[-1.620569,55.632503],[-1.622564,55.632767],[-1.623541,55.632505],[-1.625937,55.633485],[-1.625613,55.633899],[-1.626171,55.63367],[-1.627464,55.634007],[-1.62795,55.63515],[-1.626888,55.63458]]],[[[-1.625405,55.63636],[-1.624746,55.63686],[-1.624148,55.636618],[-1.625405,55.63636]]],[[[-1.626683,55.636956],[-1.629202,55.637322],[-1.628973,55.637834],[-1.626996,55.637739],[-1.626683,55.636956]]],[[[-1.62236,55.638848],[-1.622951,55.639142],[-1.620912,55.640041],[-1.61991,55.64014],[-1.619017,55.639691],[-1.619753,55.639029],[-1.62236,55.638848]]],[[[-1.629203,55.638368],[-1.631019,55.639192],[-1.630935,55.639925],[-1.630041,55.639938],[-1.63078,55.640368],[-1.628691,55.640203],[-1.628272,55.638556],[-1.629203,55.638368]]],[[[-1.607366,55.641095],[-1.608531,55.641438],[-1.609977,55.642481],[-1.607289,55.641399],[-1.607366,55.641095]]],[[[-1.609763,55.643523],[-1.611441,55.64397],[-1.610895,55.643955],[-1.609763,55.643523]]],[[[-1.606463,55.643697],[-1.608289,55.643717],[-1.609821,55.643143],[-1.610528,55.643361],[-1.609345,55.643577],[-1.610022,55.643922],[-1.609171,55.644027],[-1.609652,55.644504],[-1.608595,55.644697],[-1.607968,55.644532],[-1.60792,55.644193],[-1.607128,55.644171],[-1.606463,55.643697]]],[[[-1.610155,55.645705],[-1.610838,55.646049],[-1.612274,55.645882],[-1.61151,55.646342],[-1.610565,55.646361],[-1.610155,55.645705]]],[[[-1.613217,55.64585],[-1.613201,55.646516],[-1.612505,55.645884],[-1.613217,55.64585]]],[[[-1.868332,55.672616],[-1.870555,55.672815],[-1.871265,55.673664],[-1.870227,55.673315],[-1.8686,55.673284],[-1.868332,55.672616]]],[[[-1.844705,55.692449],[-1.844144,55.693056],[-1.842772,55.693221],[-1.836484,55.691644],[-1.827775,55.688542],[-1.817859,55.686805],[-1.809269,55.686806],[-1.807893,55.687563],[-1.805882,55.687744],[-1.801428,55.689463],[-1.800575,55.689535],[-1.800526,55.688344],[-1.797593,55.687232],[-1.795276,55.687898],[-1.793388,55.68801],[-1.791856,55.689285],[-1.79214,55.686269],[-1.79086,55.68566],[-1.787999,55.685026],[-1.784523,55.684788],[-1.783727,55.684984],[-1.783489,55.685514],[-1.781259,55.686277],[-1.779709,55.686052],[-1.778973,55.68516],[-1.779124,55.68369],[-1.78005,55.682482],[-1.779749,55.680516],[-1.780597,55.677921],[-1.781727,55.676797],[-1.78082,55.675521],[-1.781286,55.674498],[-1.780501,55.671634],[-1.778366,55.668357],[-1.778426,55.667709],[-1.780102,55.667682],[-1.782717,55.668742],[-1.787949,55.668467],[-1.79147,55.669775],[-1.792444,55.670437],[-1.793579,55.670555],[-1.79542,55.669966],[-1.796284,55.669182],[-1.796306,55.668469],[-1.794074,55.66831],[-1.794816,55.668332],[-1.794789,55.668049],[-1.800363,55.667853],[-1.802653,55.66827],[-1.806828,55.671753],[-1.807081,55.673839],[-1.805194,55.675552],[-1.805783,55.677149],[-1.807584,55.678957],[-1.809967,55.680369],[-1.813259,55.681092],[-1.815478,55.682157],[-1.81674,55.681899],[-1.81698,55.682277],[-1.825017,55.682616],[-1.824467,55.682344],[-1.826439,55.682997],[-1.827412,55.682675],[-1.828904,55.683241],[-1.829275,55.682679],[-1.830122,55.682763],[-1.830787,55.68331],[-1.831995,55.683244],[-1.832283,55.682675],[-1.833819,55.682383],[-1.833724,55.681956],[-1.834895,55.682204],[-1.836315,55.681971],[-1.836542,55.680695],[-1.838088,55.680717],[-1.838869,55.679244],[-1.839853,55.678914],[-1.838903,55.678074],[-1.840693,55.678214],[-1.841616,55.677967],[-1.843145,55.678441],[-1.843481,55.678032],[-1.844211,55.677918],[-1.84375,55.677846],[-1.843825,55.677538],[-1.844808,55.677338],[-1.84575,55.67741],[-1.847551,55.678487],[-1.849355,55.678812],[-1.851858,55.680218],[-1.854281,55.680155],[-1.856147,55.68134],[-1.857538,55.683801],[-1.857815,55.691649],[-1.859041,55.692964],[-1.862151,55.694753],[-1.865093,55.695364],[-1.865196,55.696559],[-1.864537,55.697368],[-1.863339,55.697897],[-1.857601,55.697715],[-1.850826,55.696632],[-1.843125,55.693904],[-1.845136,55.693723],[-1.846331,55.693177],[-1.846247,55.692761],[-1.844705,55.692449]]],[[[-2.119082,55.741541],[-2.119284,55.742366],[-2.119167,55.742609],[-2.118349,55.741242],[-2.119082,55.741541]]],[[[-2.107182,55.754228],[-2.108438,55.755174],[-2.108929,55.756906],[-2.107241,55.754994],[-2.107182,55.754228]]],[[[-2.072088,55.760916],[-2.066499,55.7611],[-2.064209,55.760256],[-2.071351,55.760627],[-2.07376,55.761223],[-2.072088,55.760916]]],[[[-2.075574,55.76081],[-2.079281,55.761315],[-2.077618,55.761541],[-2.075983,55.761172],[-2.075574,55.76081]]],[[[-2.028399,55.768253],[-2.021544,55.770618],[-2.017688,55.771465],[-2.015077,55.771692],[-2.013801,55.771413],[-2.011009,55.769496],[-2.010076,55.76717],[-2.007662,55.766054],[-2.00715,55.764865],[-2.008039,55.765933],[-2.009492,55.765633],[-2.008808,55.764587],[-2.007799,55.764398],[-2.007545,55.764758],[-2.007094,55.764679],[-2.006627,55.763719],[-2.003807,55.761838],[-2.00175,55.760964],[-2.001089,55.761077],[-2.000975,55.761499],[-2.000294,55.760814],[-1.998534,55.760692],[-1.996541,55.760827],[-1.993926,55.76171],[-1.992454,55.761256],[-1.988769,55.755708],[-1.983308,55.750956],[-1.980232,55.749599],[-1.979269,55.748431],[-1.975969,55.746139],[-1.973963,55.745552],[-1.971811,55.741785],[-1.970211,55.740892],[-1.966402,55.739848],[-1.963293,55.738305],[-1.962306,55.736747],[-1.961737,55.734435],[-1.960753,55.733214],[-1.956347,55.731256],[-1.954819,55.729954],[-1.951876,55.728895],[-1.949636,55.727424],[-1.946571,55.726458],[-1.946417,55.725398],[-1.94404,55.7242],[-1.944177,55.723775],[-1.941673,55.722223],[-1.941434,55.721684],[-1.936851,55.719278],[-1.928657,55.715584],[-1.917272,55.711663],[-1.912864,55.709832],[-1.911776,55.709161],[-1.912267,55.708493],[-1.911655,55.707717],[-1.911945,55.70853],[-1.911476,55.708716],[-1.904061,55.707407],[-1.892881,55.704257],[-1.87959,55.701006],[-1.875923,55.699562],[-1.875079,55.69891],[-1.876114,55.698537],[-1.880808,55.698482],[-1.880691,55.697956],[-1.877681,55.697099],[-1.873431,55.696969],[-1.872107,55.69796],[-1.871108,55.69811],[-1.870443,55.697841],[-1.869333,55.696801],[-1.869396,55.696049],[-1.871219,55.695786],[-1.872937,55.694543],[-1.875421,55.694142],[-1.876182,55.693206],[-1.877819,55.693038],[-1.876355,55.690235],[-1.877298,55.688747],[-1.876689,55.687967],[-1.877216,55.687459],[-1.876536,55.687843],[-1.875524,55.686924],[-1.874413,55.685051],[-1.874934,55.684734],[-1.874511,55.684789],[-1.874159,55.683932],[-1.875117,55.684021],[-1.875531,55.684518],[-1.87537,55.684088],[-1.87668,55.68443],[-1.876498,55.684661],[-1.876962,55.684795],[-1.876946,55.685152],[-1.877304,55.685658],[-1.877728,55.685473],[-1.877045,55.685166],[-1.877039,55.684713],[-1.877888,55.684767],[-1.876867,55.684496],[-1.879036,55.684669],[-1.878363,55.684762],[-1.878986,55.684802],[-1.877891,55.686465],[-1.878512,55.686273],[-1.878535,55.687007],[-1.878632,55.686266],[-1.878222,55.686131],[-1.878654,55.686126],[-1.879241,55.684637],[-1.881094,55.68491],[-1.88254,55.68463],[-1.882857,55.68537],[-1.882836,55.684583],[-1.885574,55.684784],[-1.883683,55.684482],[-1.88437,55.684272],[-1.881017,55.684715],[-1.876467,55.683927],[-1.873212,55.68288],[-1.872102,55.680954],[-1.87263,55.67968],[-1.872304,55.679005],[-1.87289,55.678497],[-1.872003,55.678271],[-1.872723,55.678015],[-1.87123,55.676307],[-1.871471,55.67633],[-1.872773,55.676217],[-1.873008,55.675957],[-1.871514,55.676291],[-1.871127,55.676076],[-1.872403,55.676034],[-1.873013,55.675651],[-1.872397,55.675995],[-1.870904,55.676054],[-1.871095,55.675616],[-1.872589,55.675168],[-1.870635,55.675707],[-1.868858,55.673344],[-1.870397,55.673523],[-1.869983,55.673758],[-1.870717,55.673534],[-1.872056,55.674655],[-1.871689,55.673796],[-1.870683,55.672693],[-1.869033,55.672628],[-1.869659,55.672568],[-1.869045,55.672541],[-1.869594,55.672065],[-1.866683,55.669992],[-1.865644,55.667692],[-1.866332,55.667733],[-1.865625,55.667617],[-1.86489,55.666435],[-1.869154,55.666452],[-1.867221,55.666202],[-1.866913,55.665879],[-1.867888,55.666035],[-1.867235,55.665736],[-1.868011,55.665585],[-1.869631,55.666444],[-1.868654,55.666775],[-1.869762,55.666501],[-1.870101,55.667165],[-1.869972,55.666533],[-1.869357,55.66602],[-1.870458,55.665905],[-1.870946,55.66577],[-1.871716,55.666214],[-1.871464,55.665891],[-1.870844,55.665739],[-1.869056,55.665957],[-1.868035,55.665441],[-1.869379,55.664868],[-1.868965,55.664754],[-1.868554,55.665215],[-1.867186,55.665391],[-1.866781,55.665734],[-1.865818,55.665747],[-1.865979,55.665456],[-1.866601,55.665559],[-1.866232,55.665407],[-1.866645,55.665197],[-1.865113,55.66509],[-1.865303,55.665706],[-1.864606,55.665527],[-1.864976,55.665256],[-1.863976,55.665282],[-1.864096,55.664922],[-1.864723,55.664973],[-1.864723,55.664481],[-1.863774,55.664457],[-1.863863,55.663682],[-1.862401,55.663993],[-1.862786,55.663843],[-1.862412,55.663479],[-1.863427,55.662892],[-1.861763,55.66195],[-1.860306,55.660175],[-1.860303,55.659338],[-1.858152,55.658088],[-1.857123,55.656215],[-1.852986,55.653521],[-1.848738,55.653037],[-1.846108,55.651442],[-1.844059,55.648575],[-1.84098,55.645589],[-1.842107,55.644341],[-1.842954,55.644125],[-1.843784,55.644631],[-1.844884,55.645109],[-1.846504,55.646678],[-1.844884,55.645055],[-1.843484,55.644324],[-1.841693,55.643583],[-1.841477,55.643021],[-1.836371,55.641615],[-1.83077,55.638564],[-1.827627,55.638301],[-1.818254,55.636508],[-1.815725,55.635017],[-1.815185,55.635065],[-1.81483,55.634536],[-1.814396,55.634695],[-1.814446,55.634422],[-1.812577,55.633905],[-1.810031,55.634083],[-1.80606,55.635013],[-1.804934,55.635782],[-1.802139,55.636667],[-1.800564,55.637664],[-1.799514,55.640725],[-1.798367,55.642254],[-1.796916,55.643294],[-1.793756,55.648185],[-1.793516,55.648329],[-1.793404,55.648013],[-1.793138,55.647946],[-1.79261,55.647994],[-1.792345,55.647664],[-1.79261,55.648028],[-1.793421,55.648115],[-1.792569,55.648811],[-1.792111,55.648376],[-1.79148,55.650213],[-1.791193,55.650084],[-1.790826,55.650585],[-1.790486,55.650217],[-1.790124,55.650612],[-1.789933,55.653276],[-1.791525,55.656361],[-1.792115,55.656655],[-1.792888,55.656365],[-1.793568,55.656535],[-1.7951,55.65748],[-1.795148,55.657993],[-1.794494,55.658458],[-1.79502,55.659177],[-1.788022,55.656514],[-1.785301,55.650269],[-1.781974,55.644945],[-1.778736,55.641423],[-1.774953,55.638092],[-1.767838,55.63276],[-1.760637,55.629071],[-1.757699,55.627164],[-1.755508,55.625017],[-1.754518,55.623397],[-1.754832,55.61951],[-1.755789,55.618316],[-1.756412,55.619404],[-1.758064,55.620615],[-1.762479,55.620671],[-1.765903,55.620297],[-1.768862,55.619394],[-1.770026,55.618712],[-1.770224,55.618189],[-1.770705,55.618151],[-1.770325,55.617159],[-1.771433,55.617033],[-1.771152,55.617533],[-1.771694,55.61698],[-1.772567,55.616804],[-1.772526,55.616452],[-1.774135,55.61681],[-1.776565,55.616441],[-1.778226,55.616904],[-1.781734,55.61657],[-1.785829,55.61709],[-1.785024,55.616408],[-1.786224,55.616007],[-1.783952,55.616296],[-1.782994,55.615552],[-1.778816,55.61488],[-1.778162,55.614565],[-1.778136,55.613553],[-1.776954,55.613036],[-1.777452,55.612895],[-1.776989,55.612462],[-1.774817,55.612089],[-1.775001,55.611648],[-1.775733,55.611849],[-1.775537,55.611277],[-1.774636,55.610885],[-1.773203,55.609272],[-1.771894,55.608713],[-1.77115,55.607097],[-1.769767,55.606275],[-1.769101,55.605095],[-1.770377,55.603408],[-1.769651,55.60324],[-1.769496,55.603533],[-1.768841,55.603033],[-1.768093,55.603534],[-1.768063,55.60426],[-1.764219,55.604537],[-1.758976,55.608209],[-1.758525,55.609043],[-1.759264,55.61027],[-1.75907,55.610804],[-1.758323,55.611525],[-1.756388,55.612393],[-1.756324,55.61322],[-1.749159,55.614263],[-1.747943,55.61536],[-1.748147,55.615621],[-1.74736,55.615593],[-1.746218,55.616311],[-1.746497,55.618504],[-1.74544,55.61896],[-1.743575,55.619186],[-1.740683,55.618816],[-1.736126,55.617432],[-1.734877,55.617444],[-1.732659,55.616882],[-1.729914,55.617617],[-1.728921,55.617078],[-1.727922,55.617603],[-1.725465,55.616571],[-1.722617,55.616792],[-1.722392,55.616556],[-1.723629,55.616593],[-1.72305,55.616315],[-1.722111,55.616462],[-1.722611,55.616221],[-1.722281,55.616193],[-1.72261,55.615595],[-1.720808,55.614769],[-1.719391,55.61344],[-1.716792,55.612423],[-1.704417,55.609835],[-1.694845,55.607189],[-1.691964,55.606119],[-1.687841,55.601381],[-1.68533,55.600717],[-1.683012,55.599296],[-1.679882,55.598132],[-1.677449,55.595718],[-1.677606,55.595192],[-1.67722,55.595288],[-1.67381,55.59404],[-1.66857,55.589752],[-1.666337,55.587159],[-1.664709,55.586012],[-1.661077,55.585319],[-1.654558,55.583126],[-1.652959,55.583068],[-1.648941,55.583861],[-1.648972,55.583629],[-1.651227,55.583284],[-1.65085,55.583101],[-1.651431,55.583233],[-1.652842,55.582864],[-1.651056,55.582592],[-1.651527,55.582426],[-1.650641,55.581926],[-1.648914,55.582157],[-1.647075,55.581747],[-1.645276,55.582164],[-1.646078,55.581588],[-1.645263,55.580399],[-1.644528,55.580204],[-1.643671,55.579267],[-1.639599,55.578405],[-1.63927,55.577836],[-1.640156,55.5775],[-1.639652,55.576738],[-1.641233,55.576274],[-1.643941,55.576193],[-1.64768,55.572653],[-1.650156,55.572525],[-1.652219,55.571796],[-1.652154,55.571352],[-1.652099,55.571785],[-1.65006,55.57244],[-1.647694,55.57246],[-1.646189,55.574011],[-1.645551,55.574145],[-1.644613,55.570889],[-1.642045,55.568523],[-1.640211,55.566152],[-1.637961,55.565063],[-1.635466,55.563141],[-1.634858,55.563127],[-1.6346,55.561605],[-1.633189,55.559614],[-1.632007,55.559284],[-1.630026,55.557648],[-1.626562,55.557701],[-1.628214,55.556411],[-1.628188,55.5544],[-1.626743,55.553603],[-1.625117,55.553919],[-1.625182,55.553052],[-1.623481,55.552257],[-1.622744,55.551499],[-1.618839,55.552207],[-1.619777,55.551611],[-1.625704,55.550002],[-1.626451,55.550199],[-1.627074,55.549954],[-1.626589,55.550238],[-1.625727,55.550089],[-1.625584,55.550413],[-1.62644,55.550327],[-1.625753,55.55045],[-1.625635,55.550771],[-1.626236,55.551236],[-1.627562,55.551553],[-1.630921,55.55101],[-1.632359,55.550279],[-1.63444,55.548053],[-1.635994,55.54321],[-1.637256,55.541406],[-1.637474,55.540254],[-1.639412,55.539633],[-1.639343,55.538354],[-1.641202,55.537967],[-1.64189,55.537452],[-1.638468,55.538125],[-1.638207,55.539672],[-1.636538,55.539269],[-1.633132,55.53394],[-1.630263,55.531074],[-1.626198,55.527846],[-1.62374,55.526668],[-1.618445,55.526432],[-1.620259,55.524622],[-1.620068,55.523731],[-1.618988,55.522566],[-1.617158,55.52196],[-1.616329,55.52229],[-1.615008,55.521805],[-1.610656,55.521778],[-1.610763,55.520207],[-1.613707,55.518294],[-1.614511,55.518213],[-1.614396,55.517818],[-1.617845,55.515381],[-1.618356,55.514545],[-1.617724,55.512984],[-1.613442,55.509823],[-1.613794,55.507831],[-1.616554,55.504477],[-1.616902,55.502513],[-1.615164,55.499166],[-1.612874,55.49678],[-1.610875,55.495401],[-1.608168,55.494462],[-1.602198,55.494464],[-1.598752,55.492287],[-1.595495,55.491276],[-1.593975,55.491353],[-1.592059,55.492431],[-1.591184,55.492411],[-1.592008,55.491395],[-1.592331,55.489949],[-1.593038,55.489742],[-1.59176,55.489451],[-1.591655,55.485201],[-1.592033,55.485489],[-1.592883,55.485281],[-1.593957,55.484272],[-1.593968,55.482882],[-1.592684,55.481264],[-1.592125,55.479417],[-1.59227,55.477235],[-1.592814,55.476998],[-1.592382,55.477023],[-1.592871,55.474975],[-1.592389,55.474576],[-1.592927,55.473464],[-1.592463,55.473299],[-1.593076,55.473441],[-1.593453,55.473086],[-1.592626,55.472575],[-1.591929,55.472635],[-1.591903,55.473146],[-1.591278,55.471365],[-1.592161,55.470184],[-1.591401,55.468259],[-1.591847,55.467985],[-1.591226,55.46791],[-1.591669,55.467668],[-1.591383,55.467476],[-1.590413,55.467595],[-1.590215,55.46556],[-1.590565,55.465371],[-1.58944,55.464328],[-1.588651,55.461936],[-1.589159,55.461372],[-1.591025,55.461407],[-1.591379,55.460345],[-1.590938,55.460009],[-1.591569,55.459973],[-1.593175,55.458175],[-1.593112,55.45721],[-1.591812,55.455434],[-1.592367,55.454991],[-1.592268,55.454517],[-1.589909,55.453676],[-1.588361,55.452689],[-1.588254,55.451543],[-1.587164,55.450414],[-1.587702,55.449581],[-1.586441,55.449365],[-1.587507,55.448089],[-1.587166,55.44761],[-1.58654,55.447731],[-1.586358,55.446596],[-1.586958,55.446819],[-1.587734,55.446341],[-1.587261,55.445814],[-1.588527,55.445759],[-1.589523,55.44463],[-1.589497,55.443788],[-1.590324,55.442539],[-1.591847,55.442271],[-1.593365,55.440349],[-1.591067,55.438836],[-1.591244,55.437504],[-1.588023,55.436013],[-1.587329,55.434235],[-1.584757,55.4334],[-1.582905,55.43324],[-1.582166,55.433456],[-1.582051,55.432982],[-1.580799,55.432563],[-1.578998,55.432441],[-1.578329,55.43291],[-1.578418,55.432259],[-1.576859,55.43277],[-1.575698,55.431865],[-1.575382,55.430913],[-1.575712,55.430211],[-1.577547,55.428861],[-1.578339,55.426778],[-1.580362,55.424458],[-1.580069,55.420989],[-1.581882,55.41805],[-1.581759,55.4157],[-1.579946,55.413032],[-1.578731,55.409825],[-1.578811,55.408909],[-1.58039,55.406713],[-1.582913,55.405921],[-1.585435,55.406381],[-1.588109,55.405811],[-1.592601,55.402766],[-1.594033,55.400599],[-1.594173,55.398389],[-1.595556,55.396923],[-1.596762,55.394394],[-1.601902,55.391927],[-1.607973,55.386982],[-1.612011,55.384923],[-1.616187,55.386757],[-1.616041,55.387291],[-1.615599,55.386959],[-1.615459,55.387361],[-1.616294,55.388011],[-1.616909,55.388218],[-1.616257,55.387541],[-1.617272,55.386996],[-1.617621,55.387568],[-1.618098,55.387506],[-1.617592,55.388017],[-1.61931,55.388051],[-1.619585,55.387692],[-1.61975,55.388057],[-1.620298,55.387934],[-1.621268,55.388356],[-1.620398,55.388634],[-1.618449,55.388603],[-1.617415,55.38922],[-1.616933,55.390953],[-1.617244,55.391995],[-1.618842,55.393437],[-1.618464,55.394814],[-1.616533,55.395166],[-1.61498,55.394699],[-1.613884,55.394724],[-1.613653,55.394307],[-1.614078,55.393799],[-1.614943,55.393648],[-1.614393,55.393657],[-1.613935,55.393839],[-1.613499,55.394379],[-1.613665,55.394777],[-1.613221,55.394914],[-1.611336,55.394204],[-1.610038,55.394295],[-1.608809,55.395296],[-1.609256,55.395992],[-1.611819,55.397829],[-1.618452,55.399721],[-1.619756,55.399623],[-1.622132,55.398318],[-1.625285,55.397759],[-1.622648,55.397987],[-1.619576,55.39943],[-1.618235,55.39949],[-1.611508,55.397473],[-1.609708,55.395582],[-1.609922,55.394794],[-1.610814,55.394506],[-1.612285,55.395188],[-1.614021,55.395111],[-1.614039,55.395428],[-1.614976,55.395729],[-1.615674,55.395666],[-1.614168,55.395094],[-1.616259,55.39562],[-1.618761,55.395204],[-1.619517,55.394591],[-1.619631,55.39368],[-1.619046,55.391059],[-1.618541,55.391252],[-1.617873,55.390938],[-1.618049,55.39045],[-1.618475,55.390822],[-1.618932,55.390763],[-1.618725,55.389998],[-1.619638,55.389384],[-1.619594,55.389818],[-1.623305,55.391633],[-1.621477,55.390563],[-1.623294,55.389997],[-1.622461,55.390146],[-1.622585,55.389771],[-1.623724,55.389664],[-1.622947,55.389496],[-1.62312,55.388732],[-1.622345,55.387594],[-1.620517,55.386804],[-1.620632,55.385967],[-1.618857,55.384171],[-1.618078,55.383886],[-1.618583,55.384865],[-1.617613,55.385127],[-1.617428,55.38458],[-1.616237,55.384335],[-1.61475,55.383519],[-1.614806,55.383073],[-1.616405,55.38272],[-1.616491,55.383032],[-1.617583,55.383271],[-1.617366,55.382906],[-1.616616,55.382983],[-1.616578,55.382608],[-1.614641,55.382901],[-1.615201,55.382529],[-1.615921,55.382536],[-1.615336,55.382459],[-1.616055,55.38223],[-1.615441,55.38233],[-1.615626,55.381988],[-1.616507,55.381936],[-1.615659,55.381811],[-1.615844,55.381287],[-1.614322,55.381314],[-1.615064,55.381052],[-1.615282,55.380513],[-1.614406,55.380607],[-1.614748,55.380183],[-1.614233,55.379972],[-1.613893,55.380348],[-1.61334,55.379855],[-1.613599,55.379629],[-1.613141,55.379512],[-1.61328,55.379938],[-1.613755,55.380438],[-1.613039,55.380339],[-1.613093,55.380072],[-1.612781,55.380528],[-1.613176,55.380388],[-1.614431,55.381002],[-1.613893,55.380935],[-1.613695,55.381338],[-1.614191,55.38173],[-1.613354,55.381857],[-1.614354,55.381749],[-1.614453,55.381962],[-1.614842,55.381561],[-1.615292,55.381664],[-1.614785,55.381759],[-1.615285,55.381951],[-1.614341,55.382457],[-1.613985,55.384293],[-1.610654,55.384677],[-1.609166,55.384256],[-1.60779,55.38098],[-1.606138,55.373867],[-1.60419,55.36794],[-1.602623,55.36497],[-1.600838,55.36388],[-1.600261,55.364002],[-1.600447,55.363358],[-1.601495,55.363242],[-1.601275,55.360933],[-1.599775,55.358293],[-1.595048,55.352128],[-1.588026,55.34544],[-1.579973,55.339612],[-1.576673,55.33991],[-1.570798,55.339787],[-1.580827,55.339259],[-1.581286,55.338856],[-1.581026,55.337613],[-1.582167,55.338314],[-1.584002,55.338802],[-1.584899,55.339561],[-1.585875,55.339679],[-1.586669,55.340313],[-1.589146,55.341078],[-1.590998,55.341198],[-1.594902,55.344022],[-1.594154,55.344096],[-1.594792,55.344092],[-1.595262,55.344477],[-1.594259,55.344537],[-1.595203,55.344602],[-1.595065,55.344869],[-1.595605,55.345076],[-1.595432,55.346375],[-1.596281,55.346499],[-1.596605,55.347413],[-1.596035,55.347617],[-1.596874,55.348561],[-1.596614,55.347507],[-1.597617,55.348383],[-1.597433,55.349796],[-1.596997,55.349847],[-1.596857,55.349535],[-1.596459,55.349788],[-1.597483,55.349975],[-1.597412,55.350717],[-1.597891,55.348273],[-1.596508,55.34649],[-1.595258,55.342872],[-1.59425,55.342284],[-1.594103,55.342468],[-1.594107,55.342138],[-1.591966,55.340826],[-1.591779,55.340452],[-1.592489,55.339774],[-1.59849,55.342319],[-1.602263,55.343232],[-1.603427,55.343997],[-1.604292,55.344135],[-1.602783,55.343304],[-1.607995,55.344615],[-1.607348,55.348097],[-1.608106,55.34919],[-1.609822,55.349919],[-1.612611,55.349851],[-1.614212,55.349176],[-1.614587,55.348489],[-1.613428,55.345509],[-1.614737,55.344639],[-1.616532,55.344207],[-1.619348,55.344856],[-1.620368,55.346382],[-1.622451,55.347814],[-1.627179,55.348681],[-1.626554,55.348392],[-1.626703,55.348166],[-1.624525,55.3481],[-1.622799,55.347667],[-1.620989,55.346529],[-1.61965,55.344716],[-1.617568,55.343947],[-1.616471,55.343951],[-1.614366,55.344428],[-1.613027,55.345293],[-1.613601,55.34909],[-1.612665,55.349485],[-1.610096,55.34947],[-1.608549,55.348597],[-1.608052,55.347869],[-1.609347,55.345069],[-1.60887,55.344224],[-1.599386,55.341619],[-1.593465,55.338724],[-1.586979,55.336926],[-1.584848,55.337031],[-1.586933,55.336852],[-1.586851,55.336069],[-1.583252,55.335483],[-1.582669,55.336233],[-1.581783,55.33656],[-1.580259,55.336329],[-1.579905,55.335811],[-1.579695,55.336209],[-1.580057,55.336253],[-1.576156,55.337273],[-1.574658,55.336594],[-1.573357,55.33648],[-1.572064,55.33742],[-1.572148,55.338809],[-1.571078,55.338896],[-1.57209,55.338621],[-1.571902,55.337286],[-1.570268,55.336884],[-1.570713,55.335851],[-1.570184,55.335222],[-1.567531,55.334435],[-1.567361,55.33368],[-1.566436,55.333088],[-1.563694,55.332352],[-1.563152,55.331124],[-1.560954,55.328579],[-1.551755,55.324014],[-1.549278,55.321965],[-1.549402,55.31994],[-1.550737,55.315976],[-1.54993,55.312268],[-1.550152,55.311361],[-1.55216,55.310166],[-1.555929,55.308852],[-1.558091,55.307049],[-1.561375,55.30167],[-1.563423,55.299081],[-1.567807,55.294888],[-1.569927,55.291553],[-1.571176,55.286024],[-1.570276,55.275527],[-1.566517,55.265305],[-1.563436,55.259138],[-1.55977,55.253729],[-1.55296,55.2458],[-1.545974,55.23971],[-1.54398,55.238684],[-1.541442,55.238032],[-1.538208,55.235737],[-1.536564,55.234853],[-1.535578,55.234687],[-1.530247,55.229909],[-1.528345,55.22881],[-1.526465,55.228633],[-1.526682,55.228197],[-1.52518,55.226932],[-1.527462,55.226432],[-1.528258,55.22555],[-1.528794,55.222069],[-1.527694,55.220157],[-1.52783,55.217428],[-1.526394,55.214403],[-1.523204,55.209957],[-1.520897,55.207376],[-1.519386,55.206827],[-1.516749,55.204961],[-1.517048,55.203935],[-1.516033,55.202862],[-1.510397,55.198788],[-1.508003,55.198556],[-1.507938,55.198227],[-1.507316,55.198559],[-1.50642,55.198371],[-1.506209,55.198033],[-1.506022,55.1983],[-1.504905,55.197941],[-1.504545,55.198108],[-1.504377,55.197543],[-1.503932,55.197661],[-1.50408,55.198135],[-1.502361,55.196963],[-1.502036,55.196241],[-1.503156,55.196286],[-1.505141,55.194295],[-1.505356,55.192491],[-1.503448,55.188887],[-1.502161,55.187962],[-1.502155,55.187461],[-1.500919,55.186324],[-1.498996,55.185805],[-1.498959,55.185423],[-1.501414,55.185371],[-1.502544,55.184444],[-1.503709,55.184526],[-1.504075,55.184884],[-1.504758,55.184425],[-1.506047,55.185129],[-1.508217,55.185216],[-1.510104,55.184596],[-1.511815,55.183571],[-1.512806,55.181583],[-1.514744,55.179293],[-1.51401,55.177632],[-1.514632,55.1757],[-1.513197,55.175108],[-1.513196,55.174801],[-1.514417,55.174936],[-1.514632,55.174671],[-1.513901,55.174236],[-1.515167,55.174121],[-1.515177,55.173607],[-1.516981,55.172192],[-1.521035,55.17027],[-1.521347,55.168745],[-1.524039,55.165365],[-1.525157,55.162639],[-1.528034,55.161862],[-1.529278,55.162221],[-1.527353,55.16261],[-1.527498,55.163044],[-1.532117,55.163301],[-1.54029,55.162036],[-1.540269,55.161611],[-1.540004,55.161167],[-1.536783,55.161109],[-1.53335,55.161607],[-1.530254,55.161407],[-1.529518,55.161808],[-1.526141,55.159971],[-1.524672,55.157938],[-1.520985,55.149365],[-1.516041,55.143292],[-1.506347,55.134072],[-1.498665,55.129606],[-1.497398,55.12759],[-1.492481,55.122131],[-1.488682,55.118636],[-1.486842,55.116597],[-1.488729,55.118575],[-1.48899,55.118245],[-1.488782,55.118611],[-1.49177,55.121246],[-1.498527,55.12848],[-1.501821,55.129956],[-1.504117,55.13056],[-1.507406,55.133452],[-1.509574,55.134065],[-1.511292,55.135123],[-1.513275,55.135212],[-1.513935,55.135734],[-1.515595,55.136181],[-1.517728,55.13848],[-1.517449,55.138659],[-1.518213,55.139593],[-1.517422,55.140211],[-1.519266,55.14263],[-1.522275,55.141875],[-1.52002,55.138826],[-1.522575,55.141766],[-1.521904,55.140587],[-1.523022,55.141234],[-1.524266,55.141323],[-1.530202,55.139839],[-1.531709,55.139158],[-1.533252,55.139063],[-1.534562,55.139354],[-1.535315,55.140127],[-1.537197,55.140733],[-1.541107,55.143223],[-1.542772,55.143264],[-1.543471,55.143655],[-1.543802,55.143132],[-1.546249,55.142351],[-1.550204,55.14367],[-1.551289,55.143586],[-1.55194,55.143014],[-1.552139,55.144338],[-1.553482,55.145197],[-1.556023,55.145946],[-1.556249,55.146365],[-1.557282,55.146541],[-1.557498,55.146867],[-1.55824,55.146852],[-1.558139,55.146321],[-1.559033,55.146668],[-1.559548,55.146331],[-1.553675,55.144948],[-1.552587,55.144306],[-1.552118,55.142868],[-1.549669,55.142781],[-1.549941,55.142162],[-1.54893,55.142526],[-1.545997,55.141558],[-1.543493,55.142338],[-1.541794,55.14234],[-1.540529,55.141744],[-1.538131,55.13977],[-1.538534,55.139389],[-1.539794,55.139171],[-1.537238,55.139409],[-1.535857,55.138342],[-1.534239,55.138265],[-1.533943,55.137596],[-1.540785,55.136199],[-1.543659,55.136149],[-1.545557,55.13501],[-1.548622,55.135829],[-1.554352,55.134207],[-1.558333,55.134584],[-1.563962,55.134324],[-1.567015,55.133498],[-1.568766,55.13082],[-1.567558,55.131577],[-1.567309,55.132847],[-1.566761,55.133311],[-1.564522,55.133893],[-1.559389,55.133917],[-1.558026,55.133567],[-1.556839,55.133772],[-1.551953,55.133294],[-1.548316,55.13452],[-1.544681,55.133799],[-1.542365,55.133927],[-1.542118,55.133328],[-1.543985,55.132246],[-1.5419,55.13305],[-1.541374,55.134126],[-1.537898,55.134664],[-1.537172,55.134414],[-1.52871,55.136465],[-1.528468,55.136923],[-1.527659,55.137182],[-1.526817,55.136455],[-1.519739,55.135784],[-1.517811,55.13531],[-1.516681,55.134474],[-1.511493,55.132478],[-1.511543,55.132204],[-1.510672,55.132108],[-1.51115,55.132109],[-1.510274,55.131497],[-1.500383,55.127918],[-1.497375,55.125145],[-1.49677,55.123815],[-1.497501,55.121807],[-1.496692,55.122925],[-1.49698,55.122257],[-1.49858,55.120392],[-1.497705,55.117765],[-1.495868,55.118503],[-1.496591,55.119903],[-1.495594,55.118272],[-1.494077,55.119202],[-1.494177,55.120111],[-1.494271,55.120249],[-1.492927,55.119214],[-1.493971,55.118621],[-1.491085,55.116499],[-1.493885,55.118297],[-1.494174,55.118224],[-1.495621,55.117376],[-1.497029,55.115999],[-1.497799,55.114978],[-1.498477,55.11265],[-1.497774,55.108142],[-1.494604,55.10241],[-1.488893,55.09536],[-1.485953,55.092675],[-1.478711,55.087147],[-1.476131,55.085672],[-1.47452,55.085447],[-1.473403,55.08442],[-1.47658,55.084312],[-1.477317,55.083875],[-1.477532,55.082515],[-1.479052,55.079876],[-1.478151,55.078435],[-1.477302,55.077942],[-1.47501,55.077731],[-1.477452,55.078088],[-1.478251,55.078655],[-1.478924,55.079926],[-1.476383,55.083917],[-1.475577,55.084183],[-1.472994,55.084102],[-1.472605,55.084445],[-1.474224,55.085307],[-1.474435,55.085824],[-1.473457,55.085387],[-1.47121,55.085431],[-1.470049,55.084854],[-1.472184,55.084498],[-1.469888,55.084593],[-1.469949,55.083719],[-1.470789,55.082856],[-1.469263,55.080095],[-1.468441,55.079634],[-1.463884,55.07963],[-1.463634,55.076812],[-1.461801,55.074324],[-1.464072,55.074629],[-1.466646,55.07441],[-1.467372,55.074935],[-1.470717,55.074486],[-1.474137,55.072357],[-1.474264,55.071325],[-1.477474,55.070329],[-1.479644,55.067209],[-1.482272,55.066975],[-1.483629,55.06616],[-1.486642,55.066042],[-1.488461,55.065571],[-1.492297,55.066018],[-1.487372,55.055868],[-1.487767,55.053587],[-1.490553,55.054452],[-1.49298,55.0544],[-1.492938,55.053828],[-1.496237,55.052104],[-1.502164,55.050242],[-1.502932,55.050343],[-1.503204,55.049873],[-1.503701,55.049924],[-1.504726,55.049259],[-1.508825,55.048041],[-1.510274,55.055052],[-1.51534,55.055029],[-1.515085,55.054128],[-1.51993,55.054771],[-1.52617,55.054512],[-1.526162,55.05395],[-1.532393,55.054126],[-1.539881,55.061582],[-1.540691,55.061179],[-1.541047,55.059804],[-1.541915,55.059605],[-1.542862,55.058427],[-1.54513,55.057872],[-1.547548,55.056671],[-1.550577,55.056073],[-1.556297,55.054157],[-1.566497,55.054559],[-1.570649,55.055244],[-1.572346,55.055837],[-1.57508,55.05562],[-1.575964,55.05601],[-1.575989,55.056458],[-1.576854,55.056606],[-1.577166,55.05926],[-1.57854,55.063081],[-1.581431,55.063006],[-1.584275,55.062435],[-1.588525,55.06341],[-1.589861,55.064027],[-1.594935,55.064087],[-1.595639,55.063623],[-1.599141,55.064276],[-1.599994,55.064944],[-1.600718,55.064783],[-1.6013,55.065138],[-1.603662,55.064746],[-1.603814,55.065133],[-1.605621,55.065114],[-1.605858,55.06475],[-1.606914,55.064711],[-1.607481,55.064262],[-1.611875,55.064221],[-1.612256,55.064536],[-1.612753,55.06434],[-1.615035,55.06469],[-1.621363,55.066452],[-1.631069,55.065138],[-1.631274,55.065525],[-1.632902,55.065902],[-1.63396,55.065121],[-1.636271,55.065206],[-1.637894,55.064769],[-1.639757,55.069166],[-1.641806,55.070751],[-1.645574,55.076831],[-1.647681,55.079389],[-1.661847,55.078412],[-1.679717,55.075042],[-1.685834,55.073488],[-1.69104,55.072719],[-1.690564,55.070418],[-1.691296,55.0697],[-1.696723,55.070532],[-1.696819,55.070845],[-1.700939,55.071218],[-1.701015,55.070866],[-1.70458,55.070929],[-1.704716,55.068609],[-1.704068,55.065847],[-1.713774,55.065463],[-1.710574,55.052788],[-1.698028,55.052395],[-1.696873,55.051225],[-1.695567,55.050646],[-1.694681,55.049455],[-1.695095,55.048646],[-1.693982,55.046109],[-1.694461,55.045622],[-1.694316,55.044333],[-1.695127,55.043372],[-1.695026,55.042909],[-1.700211,55.043626],[-1.700793,55.042906],[-1.703721,55.042303],[-1.708654,55.042261],[-1.70862,55.04135],[-1.711578,55.041239],[-1.711159,55.039489],[-1.716944,55.038626],[-1.714448,55.034024],[-1.721607,55.034072],[-1.721622,55.03364],[-1.726929,55.033165],[-1.728694,55.032227],[-1.731902,55.031689],[-1.732329,55.029998],[-1.735102,55.029558],[-1.739321,55.029595],[-1.739179,55.028376],[-1.737982,55.026983],[-1.739288,55.026834],[-1.740091,55.025508],[-1.739699,55.025212],[-1.740033,55.024581],[-1.742678,55.024079],[-1.750245,55.024021],[-1.751058,55.015614],[-1.756344,55.015944],[-1.756911,55.010375],[-1.756563,55.003263],[-1.757744,55.002939],[-1.759563,55.003019],[-1.773842,55.004139],[-1.773661,55.002747],[-1.774174,55.002703],[-1.773576,54.996158],[-1.775021,54.994976],[-1.775685,54.98963],[-1.774265,54.988392],[-1.772621,54.987613],[-1.769681,54.981373],[-1.774064,54.981816],[-1.782483,54.984445],[-1.785013,54.984715],[-1.784892,54.984256],[-1.788515,54.984267],[-1.792755,54.9833],[-1.7963,54.981686],[-1.79933,54.979819],[-1.802669,54.978762],[-1.803712,54.978118],[-1.812807,54.976286],[-1.813044,54.9747],[-1.811948,54.974117],[-1.812387,54.974116],[-1.812461,54.973506],[-1.813043,54.973544],[-1.813213,54.973224],[-1.812937,54.972877],[-1.81212,54.973041],[-1.811663,54.97274],[-1.812559,54.972011],[-1.812347,54.971079],[-1.813801,54.970967],[-1.813398,54.970296],[-1.814254,54.96976],[-1.813946,54.969329],[-1.815968,54.968851],[-1.81504,54.967927],[-1.815448,54.967302],[-1.816749,54.967193],[-1.817349,54.96757],[-1.817684,54.966842],[-1.818557,54.966299],[-1.819024,54.966392],[-1.81899,54.966155],[-1.821638,54.966229],[-1.822009,54.965638],[-1.821267,54.964874],[-1.822518,54.96482],[-1.822457,54.963832],[-1.823269,54.962819],[-1.824427,54.962441],[-1.824485,54.961433],[-1.823924,54.961515],[-1.824094,54.961011],[-1.82355,54.960994],[-1.82277,54.960357],[-1.823644,54.959874],[-1.822857,54.959491],[-1.824079,54.959209],[-1.82299,54.957729],[-1.823463,54.957305],[-1.822533,54.956496],[-1.822923,54.955747],[-1.824362,54.955131],[-1.825294,54.955691],[-1.827156,54.955256],[-1.828757,54.955395],[-1.831257,54.954751],[-1.832895,54.953312],[-1.833655,54.953297],[-1.83333,54.952011],[-1.833669,54.951716],[-1.833315,54.951523],[-1.833774,54.951243],[-1.832045,54.949742],[-1.832201,54.949134],[-1.831168,54.947795],[-1.830245,54.947491],[-1.830441,54.947232],[-1.829746,54.947066],[-1.829607,54.946696],[-1.830031,54.946327],[-1.829782,54.945827],[-1.8312,54.944857],[-1.831017,54.944309],[-1.829392,54.943599],[-1.827076,54.941669],[-1.825151,54.940956],[-1.824477,54.939392],[-1.825691,54.937589],[-1.827165,54.936569],[-1.826523,54.93419],[-1.825626,54.933668],[-1.827288,54.931213],[-1.826957,54.9307],[-1.827096,54.930202],[-1.833497,54.9305],[-1.841149,54.929725],[-1.841604,54.927991],[-1.842602,54.927815],[-1.843997,54.927045],[-1.844366,54.925902],[-1.84674,54.922715],[-1.848532,54.920936],[-1.851893,54.918751],[-1.852087,54.918519],[-1.851423,54.918407],[-1.851952,54.91745],[-1.852721,54.917414],[-1.850667,54.915816],[-1.850445,54.915202],[-1.8489,54.914478],[-1.844988,54.914214],[-1.842379,54.913331],[-1.837546,54.91266],[-1.83758,54.912383],[-1.836365,54.912077],[-1.834379,54.912009],[-1.833969,54.911569],[-1.831189,54.910622],[-1.826637,54.910093],[-1.826796,54.909607],[-1.824925,54.908816],[-1.824357,54.908063],[-1.823604,54.908016],[-1.822071,54.906096],[-1.820637,54.905771],[-1.821498,54.905433],[-1.825255,54.905793],[-1.827697,54.905494],[-1.830512,54.901599],[-1.834687,54.899026],[-1.839119,54.897314],[-1.843564,54.897242],[-1.845449,54.896903],[-1.845875,54.896075],[-1.844506,54.892698],[-1.845638,54.891044],[-1.847475,54.889782],[-1.848621,54.889767],[-1.854029,54.891319],[-1.854437,54.891185],[-1.855079,54.890291],[-1.85516,54.889042],[-1.851344,54.886331],[-1.850964,54.884689],[-1.852346,54.884255],[-1.852957,54.883541],[-1.853053,54.883267],[-1.85227,54.883089],[-1.853265,54.880205],[-1.857766,54.879353],[-1.860049,54.878034],[-1.859909,54.87271],[-1.860829,54.871145],[-1.859779,54.869205],[-1.861278,54.866431],[-1.864938,54.864386],[-1.866454,54.86407],[-1.869671,54.861558],[-1.869725,54.860304],[-1.870559,54.859556],[-1.868724,54.857677],[-1.867413,54.856907],[-1.866601,54.855386],[-1.866901,54.85388],[-1.869472,54.852822],[-1.869459,54.85188],[-1.87041,54.850673],[-1.877016,54.84811],[-1.87798,54.847146],[-1.881472,54.846579],[-1.881856,54.846816],[-1.883013,54.846435],[-1.884821,54.845609],[-1.887068,54.843728],[-1.890092,54.843986],[-1.89401,54.843667],[-1.895219,54.844674],[-1.89449,54.845044],[-1.894966,54.845511],[-1.895998,54.845835],[-1.897393,54.845748],[-1.898367,54.845162],[-1.898222,54.8441],[-1.899353,54.84292],[-1.9044,54.842171],[-1.905052,54.841569],[-1.906037,54.841449],[-1.907153,54.840311],[-1.908739,54.839493],[-1.910059,54.839359],[-1.913051,54.839811],[-1.914109,54.83948],[-1.915012,54.83836],[-1.91482,54.837922],[-1.911309,54.837471],[-1.911013,54.83661],[-1.911679,54.836033],[-1.913682,54.835769],[-1.913037,54.834833],[-1.913559,54.834031],[-1.915872,54.83405],[-1.917701,54.834939],[-1.917,54.836761],[-1.920051,54.837427],[-1.920869,54.838],[-1.918366,54.83938],[-1.918113,54.840751],[-1.919852,54.840942],[-1.923967,54.840163],[-1.927134,54.841166],[-1.927304,54.841732],[-1.925593,54.842156],[-1.920987,54.842452],[-1.92063,54.844083],[-1.921757,54.84567],[-1.921376,54.848442],[-1.921861,54.849266],[-1.922707,54.849883],[-1.924557,54.849126],[-1.926423,54.848877],[-1.92909,54.850334],[-1.929504,54.850107],[-1.93184,54.850845],[-1.932055,54.851532],[-1.930668,54.851792],[-1.930859,54.852738],[-1.931289,54.853454],[-1.932185,54.853471],[-1.932615,54.854161],[-1.935108,54.853873],[-1.933014,54.85271],[-1.93336,54.852526],[-1.937655,54.85183],[-1.939738,54.851863],[-1.940632,54.852937],[-1.944347,54.852267],[-1.947432,54.85351],[-1.949306,54.852979],[-1.952401,54.854207],[-1.952951,54.854846],[-1.953841,54.855154],[-1.959412,54.856158],[-1.962775,54.857781],[-1.964202,54.859439],[-1.967833,54.859473],[-1.969214,54.859747],[-1.970821,54.860566],[-1.972465,54.860243],[-1.97279,54.861092],[-1.974508,54.861677],[-1.974766,54.862064],[-1.9732,54.86244],[-1.972226,54.862013],[-1.970693,54.863489],[-1.973456,54.865282],[-1.977772,54.866707],[-1.980236,54.868183],[-1.982788,54.868618],[-1.986447,54.868255],[-1.988199,54.869373],[-1.991495,54.870154],[-1.99286,54.869904],[-1.993324,54.870147],[-1.995362,54.870039],[-1.996721,54.86955],[-1.99759,54.869819],[-2.000038,54.869295],[-2.000967,54.869668],[-2.00143,54.869442],[-2.001419,54.868563],[-2.001938,54.86834],[-2.004236,54.86811],[-2.006001,54.868556],[-2.008302,54.867813],[-2.008922,54.867218],[-2.011713,54.866737],[-2.012382,54.865569],[-2.011938,54.865162],[-2.012075,54.864474],[-2.014177,54.863957],[-2.014458,54.863449],[-2.01683,54.862562],[-2.019031,54.862405],[-2.022017,54.85976],[-2.02248,54.858707],[-2.023365,54.858591],[-2.025429,54.859002],[-2.026407,54.858684],[-2.027353,54.857903],[-2.027514,54.856369],[-2.028809,54.855482],[-2.030222,54.8548],[-2.033046,54.854177],[-2.036061,54.852735],[-2.035971,54.851161],[-2.038227,54.849725],[-2.039655,54.848241],[-2.041467,54.848041],[-2.043479,54.84825],[-2.045275,54.847797],[-2.047718,54.847885],[-2.049637,54.847517],[-2.052925,54.847433],[-2.054866,54.847024],[-2.057249,54.846019],[-2.059252,54.845814],[-2.061526,54.844618],[-2.06436,54.844319],[-2.065071,54.843932],[-2.066009,54.84417],[-2.066753,54.844866],[-2.068045,54.844777],[-2.067955,54.844126],[-2.06851,54.843485],[-2.070097,54.843036],[-2.074226,54.840737],[-2.07635,54.840262],[-2.077403,54.839538],[-2.078682,54.839196],[-2.079385,54.839524],[-2.081233,54.839258],[-2.082575,54.838169],[-2.087251,54.837905],[-2.088522,54.837099],[-2.090447,54.837701],[-2.092157,54.837516],[-2.093563,54.836865],[-2.097451,54.83678],[-2.099019,54.8374],[-2.099882,54.837117],[-2.100889,54.837393],[-2.101778,54.837982],[-2.103045,54.840016],[-2.103816,54.840209],[-2.104889,54.839914],[-2.108669,54.840698],[-2.111521,54.840036],[-2.113968,54.840334],[-2.116353,54.841222],[-2.118298,54.840883],[-2.119825,54.841326],[-2.120766,54.840813],[-2.122119,54.841361],[-2.122937,54.841134],[-2.124949,54.84166],[-2.128645,54.841849],[-2.129153,54.842499],[-2.131007,54.842704],[-2.13368,54.842128],[-2.134817,54.842852],[-2.139789,54.841871],[-2.139087,54.838407],[-2.13974,54.834481],[-2.14147,54.8332],[-2.141831,54.831869],[-2.143442,54.830089],[-2.14313,54.826959],[-2.151291,54.822815],[-2.157161,54.820477],[-2.160869,54.818533],[-2.164265,54.815828],[-2.16635,54.813889],[-2.16947,54.80361],[-2.171675,54.804036],[-2.173852,54.806027],[-2.177416,54.806821],[-2.182297,54.807171],[-2.186831,54.80625],[-2.198601,54.806736],[-2.19931,54.805717],[-2.198624,54.804555],[-2.201521,54.799927],[-2.203797,54.797799],[-2.206858,54.793958],[-2.209402,54.792243],[-2.212438,54.78813],[-2.214462,54.786667],[-2.215057,54.783853],[-2.218907,54.782377],[-2.219537,54.782997],[-2.226698,54.782951],[-2.234064,54.784165],[-2.235521,54.786797],[-2.248663,54.78796],[-2.250973,54.789433],[-2.250433,54.789873],[-2.25072,54.790132],[-2.251294,54.789776],[-2.256283,54.791193],[-2.260583,54.791533],[-2.260211,54.792582],[-2.263176,54.79251],[-2.266912,54.794744],[-2.268726,54.794567],[-2.272198,54.795751],[-2.277089,54.796249],[-2.280671,54.797979],[-2.282678,54.798252],[-2.285979,54.796873],[-2.286081,54.79623],[-2.290095,54.795935],[-2.292986,54.793166],[-2.29554,54.793582],[-2.29877,54.793001],[-2.300555,54.793329],[-2.302549,54.792335],[-2.302958,54.79254],[-2.305152,54.792212],[-2.305873,54.791782],[-2.307939,54.79213],[-2.308801,54.790879],[-2.31209,54.791015],[-2.314811,54.792575],[-2.318447,54.793189],[-2.323284,54.795009],[-2.323388,54.79675],[-2.327376,54.802996],[-2.327385,54.805332],[-2.328175,54.804847],[-2.328728,54.805321],[-2.329696,54.804881],[-2.331622,54.804642],[-2.334,54.804922],[-2.336555,54.806371],[-2.338328,54.806793],[-2.341678,54.806898],[-2.343609,54.806209],[-2.345531,54.806295],[-2.348429,54.807079],[-2.348569,54.808347],[-2.35165,54.810592],[-2.352609,54.810704],[-2.355788,54.813903],[-2.359926,54.816693],[-2.369831,54.820967],[-2.369145,54.821844],[-2.370327,54.822488],[-2.370161,54.823321],[-2.370877,54.824553],[-2.371352,54.825062],[-2.373999,54.826037],[-2.37267,54.82738],[-2.380926,54.830095],[-2.381539,54.830071],[-2.382326,54.830656],[-2.389604,54.831949],[-2.391832,54.833436],[-2.392726,54.834515],[-2.398298,54.844165],[-2.401623,54.851484],[-2.411658,54.856454],[-2.414743,54.850677],[-2.417095,54.849132],[-2.417547,54.847703],[-2.419886,54.845821],[-2.420532,54.844538],[-2.422676,54.84287],[-2.427615,54.841164],[-2.428453,54.84114],[-2.43001,54.840176],[-2.433687,54.839641],[-2.436175,54.838789],[-2.438273,54.837871],[-2.438527,54.837021],[-2.440398,54.836786],[-2.440803,54.836204],[-2.441732,54.836073],[-2.441904,54.835645],[-2.443255,54.835798],[-2.444819,54.835123],[-2.446971,54.835101],[-2.449006,54.834242],[-2.450464,54.832706],[-2.452239,54.832013],[-2.453891,54.832097],[-2.455953,54.831476],[-2.456751,54.831776],[-2.457986,54.833214],[-2.460602,54.834172],[-2.461148,54.833854],[-2.461239,54.832899],[-2.463309,54.831729],[-2.463175,54.830551],[-2.465075,54.82965],[-2.468771,54.826107],[-2.473349,54.823765],[-2.474146,54.822464],[-2.475915,54.821833],[-2.476275,54.820902],[-2.4779,54.820407],[-2.478947,54.81921],[-2.481474,54.818012],[-2.48196,54.816969],[-2.486149,54.815075],[-2.487767,54.814932],[-2.48816,54.814409],[-2.495357,54.810342],[-2.496533,54.809997],[-2.502148,54.810597],[-2.50355,54.810138],[-2.507662,54.809718],[-2.510983,54.808709],[-2.514975,54.808639],[-2.51557,54.808298],[-2.519473,54.807847],[-2.521254,54.807406],[-2.521502,54.806896],[-2.522645,54.806623],[-2.523441,54.806045],[-2.530652,54.805999],[-2.536217,54.807671],[-2.543265,54.812124],[-2.558307,54.816725],[-2.567849,54.823575],[-2.57259,54.831442],[-2.577952,54.836454],[-2.582671,54.845867],[-2.581783,54.84789],[-2.573352,54.853546],[-2.575841,54.856665],[-2.577431,54.859574],[-2.581199,54.864236],[-2.58363,54.865594],[-2.588596,54.869536],[-2.590372,54.872913],[-2.590247,54.873784],[-2.593164,54.875272],[-2.598961,54.879862],[-2.605454,54.884306],[-2.60455,54.88545],[-2.59719,54.886975],[-2.596063,54.887624],[-2.594386,54.887739],[-2.592532,54.888961],[-2.59117,54.888999],[-2.588166,54.891125],[-2.585073,54.892207],[-2.581907,54.894213],[-2.579693,54.894864],[-2.576414,54.896717],[-2.574804,54.898421],[-2.574862,54.899745],[-2.567565,54.909003],[-2.566604,54.913696],[-2.566221,54.919238],[-2.55984,54.920115],[-2.558097,54.921298],[-2.557192,54.921521],[-2.558598,54.922196],[-2.558978,54.9231],[-2.560073,54.923633],[-2.560255,54.923884],[-2.559406,54.924431],[-2.55359,54.924619],[-2.551656,54.925565],[-2.547614,54.926219],[-2.546249,54.927156],[-2.545273,54.929172],[-2.546083,54.930505],[-2.546834,54.930753],[-2.548296,54.929832],[-2.550368,54.929978],[-2.550837,54.929346],[-2.551543,54.929535],[-2.551211,54.930813],[-2.55199,54.932074],[-2.55441,54.933556],[-2.560191,54.934096],[-2.563442,54.937443],[-2.564937,54.940327],[-2.567649,54.940856],[-2.571285,54.94837],[-2.568427,54.958291],[-2.571434,54.960017],[-2.578421,54.960811],[-2.586529,54.963063],[-2.58884,54.962905],[-2.595569,54.963481],[-2.596867,54.96467],[-2.596738,54.96509],[-2.597839,54.964884],[-2.598799,54.965261],[-2.598111,54.965867],[-2.598215,54.966521],[-2.599085,54.966854],[-2.598884,54.967764],[-2.599976,54.968706],[-2.599805,54.969089],[-2.601429,54.97134],[-2.600345,54.973662],[-2.594243,54.973635],[-2.591592,54.974151],[-2.590231,54.976476],[-2.590609,54.97745],[-2.589966,54.977701],[-2.588468,54.979711],[-2.588571,54.980187],[-2.58663,54.982034],[-2.585772,54.982393],[-2.581936,54.982277],[-2.581464,54.98202],[-2.580436,54.982473],[-2.58033,54.982839],[-2.579237,54.982893],[-2.579441,54.983259],[-2.578559,54.983415],[-2.576979,54.984696],[-2.575785,54.984923],[-2.573311,54.987638],[-2.572852,54.989308],[-2.573501,54.989718],[-2.57303,54.990339],[-2.574434,54.991667],[-2.572862,54.992872],[-2.571969,54.99561],[-2.570481,54.996945],[-2.570471,54.998736],[-2.568615,54.999934],[-2.569095,55.001237],[-2.567714,55.002747],[-2.568432,55.003457],[-2.570198,55.003933],[-2.572943,55.003277],[-2.574181,55.0037],[-2.573499,55.004767],[-2.570806,55.005849],[-2.570242,55.006506],[-2.570803,55.007062],[-2.572643,55.006347],[-2.573653,55.006726],[-2.573468,55.007285],[-2.571868,55.008389],[-2.573975,55.009631],[-2.574811,55.011173],[-2.571781,55.014233],[-2.573187,55.016115],[-2.571399,55.017051],[-2.567898,55.017253],[-2.568175,55.018349],[-2.565042,55.020111],[-2.560933,55.020403],[-2.558753,55.020891],[-2.5576,55.020325],[-2.557995,55.019777],[-2.556981,55.019656],[-2.555829,55.019892],[-2.554749,55.020896],[-2.552619,55.021042],[-2.55043,55.022225],[-2.546688,55.023566],[-2.545901,55.024351],[-2.54637,55.025243],[-2.545774,55.026132],[-2.544483,55.026805],[-2.540898,55.027317],[-2.539572,55.028877],[-2.534061,55.028265],[-2.533256,55.028688],[-2.532988,55.029947],[-2.531975,55.030372],[-2.529186,55.028962],[-2.527622,55.0291],[-2.527077,55.030264],[-2.527709,55.032276],[-2.526912,55.03294],[-2.525911,55.032363],[-2.524498,55.032933],[-2.521659,55.032517],[-2.519105,55.03282],[-2.517608,55.033429],[-2.515792,55.033593],[-2.516241,55.03466],[-2.512562,55.033794],[-2.511879,55.034553],[-2.510764,55.034884],[-2.510992,55.035902],[-2.510168,55.036347],[-2.50863,55.036005],[-2.508923,55.03442],[-2.504478,55.033191],[-2.503691,55.033636],[-2.503825,55.034267],[-2.505762,55.034832],[-2.506547,55.035595],[-2.505666,55.036748],[-2.503044,55.037088],[-2.497072,55.036881],[-2.493439,55.037167],[-2.48305,55.040019],[-2.482343,55.041491],[-2.482956,55.043701],[-2.484894,55.045157],[-2.488122,55.046218],[-2.4872,55.04728],[-2.487566,55.047864],[-2.494342,55.050715],[-2.493147,55.052117],[-2.490846,55.053377],[-2.491194,55.054205],[-2.490752,55.054526],[-2.491965,55.054961],[-2.492185,55.054204],[-2.49407,55.05316],[-2.495446,55.053332],[-2.495484,55.053882],[-2.494853,55.054463],[-2.497305,55.056305],[-2.497826,55.056625],[-2.499751,55.056147],[-2.502021,55.057726],[-2.501891,55.059849],[-2.502659,55.060486],[-2.502667,55.060997],[-2.502265,55.061276],[-2.500552,55.061221],[-2.500028,55.062116],[-2.501321,55.062466],[-2.503509,55.062079],[-2.503985,55.06243],[-2.503474,55.063143],[-2.500748,55.064289],[-2.497882,55.064735],[-2.49759,55.065658],[-2.493798,55.065959],[-2.4922,55.068154],[-2.493263,55.069062],[-2.493353,55.070866],[-2.494035,55.071663],[-2.499236,55.073499],[-2.501049,55.074601],[-2.501234,55.075225],[-2.499479,55.076775],[-2.497053,55.077417],[-2.496312,55.080309],[-2.494733,55.081822],[-2.493516,55.082221],[-2.491105,55.082272],[-2.490123,55.080776],[-2.486639,55.081102],[-2.486084,55.081585],[-2.486341,55.083046],[-2.488173,55.083584],[-2.490897,55.083751],[-2.4897,55.084146],[-2.490699,55.085859],[-2.491888,55.086307],[-2.493343,55.086163],[-2.49533,55.086469],[-2.494874,55.087379],[-2.495193,55.087705],[-2.495736,55.086668],[-2.498292,55.087301],[-2.49905,55.0878],[-2.500629,55.090191],[-2.502251,55.090719],[-2.503707,55.09075],[-2.504885,55.090382],[-2.506013,55.089361],[-2.506935,55.08915],[-2.50896,55.08972],[-2.511567,55.088867],[-2.513207,55.089208],[-2.516468,55.089115],[-2.51697,55.088618],[-2.51677,55.086051],[-2.518095,55.084957],[-2.524951,55.085482],[-2.526389,55.083962],[-2.526929,55.084247],[-2.527173,55.085072],[-2.53047,55.085187],[-2.532257,55.082761],[-2.53686,55.082944],[-2.540168,55.084302],[-2.544028,55.083386],[-2.545766,55.083778],[-2.546813,55.082977],[-2.548662,55.082686],[-2.550456,55.0817],[-2.549786,55.081499],[-2.548597,55.081876],[-2.549054,55.081219],[-2.550838,55.080881],[-2.551729,55.081316],[-2.552654,55.081256],[-2.553132,55.081856],[-2.55427,55.082235],[-2.553816,55.082624],[-2.555189,55.082761],[-2.556972,55.082123],[-2.555716,55.081573],[-2.556947,55.081039],[-2.558792,55.083781],[-2.560817,55.083971],[-2.562136,55.083462],[-2.562793,55.084376],[-2.561614,55.085388],[-2.559842,55.085183],[-2.559135,55.085388],[-2.560484,55.0863],[-2.558902,55.087396],[-2.559071,55.087719],[-2.559686,55.087902],[-2.561214,55.087523],[-2.560396,55.088411],[-2.558914,55.088054],[-2.558295,55.08881],[-2.559645,55.089252],[-2.561033,55.088744],[-2.560751,55.08944],[-2.56118,55.090304],[-2.563396,55.091265],[-2.563986,55.091893],[-2.565391,55.091641],[-2.566706,55.091966],[-2.567155,55.092735],[-2.566782,55.093703],[-2.568306,55.093961],[-2.568975,55.094394],[-2.568426,55.096261],[-2.570201,55.097233],[-2.572459,55.09763],[-2.576678,55.095852],[-2.577771,55.095996],[-2.577435,55.096742],[-2.579409,55.096135],[-2.579302,55.096647],[-2.580664,55.096687],[-2.5819,55.097278],[-2.583499,55.096996],[-2.58399,55.097173],[-2.582819,55.098085],[-2.583326,55.099025],[-2.582674,55.099433],[-2.582635,55.100516],[-2.583337,55.101684],[-2.585419,55.102736],[-2.585493,55.103082],[-2.586917,55.102903],[-2.587512,55.103119],[-2.587559,55.103516],[-2.588607,55.103565],[-2.589341,55.103959],[-2.590436,55.103704],[-2.592088,55.104242],[-2.592481,55.105154],[-2.593559,55.10512],[-2.592295,55.106052],[-2.592434,55.106303],[-2.593158,55.106222],[-2.592903,55.106965],[-2.594325,55.107619],[-2.593777,55.108236],[-2.594081,55.10908],[-2.593279,55.110047],[-2.594264,55.110855],[-2.593436,55.112833],[-2.594834,55.114069],[-2.599613,55.115681],[-2.600471,55.117162],[-2.600399,55.118913],[-2.600985,55.119675],[-2.601594,55.122609],[-2.600926,55.123788],[-2.598903,55.124576],[-2.602732,55.124696],[-2.606154,55.126147],[-2.610239,55.126355],[-2.610765,55.126708],[-2.61564,55.127495],[-2.621273,55.129216],[-2.624351,55.128968],[-2.62569,55.127543],[-2.632639,55.127757],[-2.635711,55.129614],[-2.64537,55.131055],[-2.647125,55.131062],[-2.648617,55.132394],[-2.65545,55.135694],[-2.656939,55.136132],[-2.659774,55.142108],[-2.659325,55.142976],[-2.659905,55.144288],[-2.661625,55.146365],[-2.662591,55.146991],[-2.666389,55.147464],[-2.668578,55.147311],[-2.671267,55.150535],[-2.672532,55.150855],[-2.673265,55.151781],[-2.67489,55.155471],[-2.677324,55.155488],[-2.677768,55.156581],[-2.676078,55.157896],[-2.676097,55.15841],[-2.683254,55.16663],[-2.682923,55.167494],[-2.679919,55.16886],[-2.679547,55.16965],[-2.677358,55.171248],[-2.677692,55.171724],[-2.676443,55.173035],[-2.67427,55.173709],[-2.674555,55.175891],[-2.677378,55.177721],[-2.689789,55.188983],[-2.68927,55.188897],[-2.687394,55.189649],[-2.687414,55.190089],[-2.686149,55.19079],[-2.6856,55.192554],[-2.684765,55.192879],[-2.686249,55.194041],[-2.685108,55.195556],[-2.68378,55.195777],[-2.683789,55.196225],[-2.682319,55.196813],[-2.681585,55.197861],[-2.68125,55.198602],[-2.682674,55.199727],[-2.683331,55.20189],[-2.668842,55.219682],[-2.666815,55.22158],[-2.659991,55.219884],[-2.64807,55.219867],[-2.64321,55.221061],[-2.641294,55.22114],[-2.638967,55.222682],[-2.631414,55.223698],[-2.634657,55.225465],[-2.635806,55.229766],[-2.634909,55.230413],[-2.634928,55.231117],[-2.634215,55.2311],[-2.634029,55.231359],[-2.634679,55.231684],[-2.634,55.232176],[-2.633246,55.23434],[-2.633552,55.235569],[-2.633172,55.236192],[-2.632211,55.236644],[-2.632531,55.237298],[-2.631919,55.237617],[-2.631526,55.238584],[-2.632974,55.239857],[-2.631418,55.240031],[-2.631304,55.241927],[-2.630063,55.244109],[-2.630229,55.244791],[-2.626141,55.245667],[-2.625629,55.246045],[-2.624662,55.246014],[-2.624232,55.246387],[-2.622154,55.246166],[-2.620201,55.247215],[-2.617839,55.247202],[-2.617667,55.246843],[-2.616943,55.246921],[-2.614836,55.24563],[-2.611451,55.247134],[-2.612013,55.247687],[-2.615344,55.248264],[-2.617622,55.248309],[-2.620623,55.249116],[-2.624088,55.249495],[-2.627653,55.250573],[-2.629497,55.251317],[-2.632386,55.253363],[-2.634765,55.254541],[-2.638119,55.255906],[-2.640417,55.256463],[-2.64435,55.258218],[-2.646771,55.260044],[-2.640973,55.260986],[-2.640712,55.260717],[-2.639043,55.261128],[-2.635386,55.261142],[-2.626656,55.262221],[-2.62684,55.263316],[-2.626307,55.264542],[-2.628191,55.267933],[-2.623281,55.269761],[-2.623333,55.271964],[-2.622489,55.272377],[-2.622137,55.273087],[-2.620292,55.273763],[-2.61842,55.274989],[-2.617023,55.277126],[-2.613709,55.278347],[-2.613377,55.279255],[-2.611013,55.280926],[-2.609238,55.283248],[-2.605196,55.285374],[-2.602478,55.285571],[-2.598491,55.287109],[-2.594199,55.289851],[-2.590291,55.291406],[-2.578647,55.294412],[-2.57578,55.29609],[-2.573363,55.296884],[-2.573704,55.300786],[-2.570752,55.301408],[-2.566347,55.30332],[-2.565211,55.305937],[-2.563304,55.307631],[-2.560095,55.30875],[-2.559666,55.309846],[-2.558413,55.310451],[-2.557094,55.311713],[-2.557271,55.313293],[-2.559181,55.315138],[-2.559427,55.317227],[-2.559041,55.317835],[-2.550425,55.315786],[-2.548728,55.317245],[-2.5443,55.318263],[-2.543105,55.319592],[-2.536554,55.320953],[-2.530769,55.322709],[-2.525109,55.321809],[-2.52027,55.323047],[-2.517698,55.324665],[-2.516322,55.326831],[-2.513712,55.329625],[-2.509259,55.331647],[-2.506886,55.333955],[-2.504356,55.335345],[-2.501988,55.3372],[-2.502253,55.34022],[-2.498809,55.342102],[-2.496177,55.346515],[-2.495021,55.347491],[-2.488519,55.351834],[-2.481366,55.353668],[-2.475186,55.354768],[-2.473439,55.354735],[-2.471316,55.353788],[-2.467538,55.352758],[-2.463313,55.353624],[-2.461224,55.353209],[-2.457054,55.35461],[-2.45668,55.355281],[-2.45179,55.35648],[-2.444406,55.359183],[-2.440355,55.359139],[-2.439297,55.359453],[-2.436904,55.358305],[-2.429231,55.356435],[-2.426367,55.358138],[-2.42435,55.358592],[-2.421875,55.358617],[-2.419883,55.359034],[-2.414997,55.358922],[-2.412366,55.357771],[-2.411287,55.358066],[-2.408667,55.35743],[-2.402184,55.354406],[-2.400856,55.353487],[-2.39957,55.35075],[-2.400062,55.348695],[-2.399521,55.348274],[-2.392978,55.347447],[-2.38479,55.348303],[-2.381129,55.349141],[-2.378912,55.349169],[-2.378961,55.350533],[-2.374959,55.353784],[-2.372798,55.355069],[-2.369886,55.355705],[-2.365456,55.357621],[-2.364199,55.358761],[-2.361542,55.359102],[-2.358389,55.359987],[-2.354944,55.362537],[-2.351369,55.363195],[-2.347148,55.364611],[-2.345048,55.364561],[-2.34209,55.365222],[-2.340102,55.36609],[-2.338927,55.36714],[-2.337477,55.367281],[-2.338458,55.367807],[-2.338973,55.368828],[-2.343329,55.370721],[-2.346233,55.373061],[-2.33724,55.376734],[-2.336476,55.377901],[-2.3323,55.380038],[-2.330577,55.380464],[-2.330021,55.381242],[-2.332541,55.381955],[-2.334741,55.383155],[-2.334863,55.385569],[-2.335831,55.386159],[-2.33494,55.390011],[-2.335512,55.392565],[-2.34337,55.397415],[-2.344725,55.399449],[-2.343192,55.400345],[-2.341898,55.400407],[-2.340304,55.401243],[-2.337667,55.401192],[-2.336438,55.401887],[-2.334052,55.402103],[-2.33353,55.402425],[-2.332999,55.404322],[-2.335629,55.408208],[-2.333822,55.408761],[-2.332366,55.409911],[-2.330724,55.409677],[-2.329101,55.408521],[-2.32735,55.407965],[-2.322848,55.40761],[-2.320695,55.408196],[-2.319695,55.407562],[-2.315957,55.407327],[-2.313254,55.406789],[-2.312545,55.409855],[-2.310189,55.410167],[-2.306687,55.411248],[-2.304252,55.412725],[-2.301785,55.413661],[-2.30095,55.413613],[-2.295935,55.414922],[-2.293804,55.418519],[-2.294513,55.420465],[-2.28385,55.422887],[-2.281773,55.424909],[-2.27871,55.4262],[-2.277966,55.426397],[-2.273893,55.425981],[-2.271738,55.428786],[-2.270647,55.429593],[-2.268295,55.430003],[-2.264472,55.428771],[-2.262243,55.428558],[-2.260611,55.432934],[-2.258592,55.432185],[-2.253762,55.431897],[-2.242544,55.432146],[-2.236635,55.430962],[-2.233813,55.429239],[-2.231282,55.428429],[-2.229956,55.430577],[-2.228201,55.430351],[-2.223352,55.431333],[-2.223082,55.432235],[-2.221136,55.433142],[-2.205624,55.437539],[-2.203793,55.43857],[-2.201741,55.440685],[-2.198346,55.442132],[-2.19422,55.445258],[-2.1933,55.447214],[-2.193529,55.449799],[-2.192265,55.452551],[-2.190035,55.454308],[-2.188426,55.456439],[-2.189637,55.461166],[-2.184414,55.464085],[-2.166536,55.467468],[-2.165521,55.468382],[-2.168495,55.469062],[-2.173724,55.472271],[-2.189471,55.473961],[-2.195492,55.475321],[-2.200944,55.475016],[-2.201592,55.475516],[-2.203373,55.478604],[-2.205375,55.480175],[-2.206355,55.48156],[-2.206063,55.482888],[-2.202233,55.488243],[-2.202649,55.489541],[-2.205294,55.491493],[-2.207031,55.494071],[-2.208804,55.494677],[-2.208761,55.495727],[-2.211941,55.499424],[-2.216921,55.502816],[-2.219453,55.505733],[-2.220582,55.506315],[-2.22654,55.507098],[-2.227994,55.508005],[-2.228846,55.509519],[-2.226628,55.519514],[-2.224283,55.522788],[-2.227602,55.528408],[-2.233217,55.529613],[-2.233824,55.540828],[-2.232963,55.541779],[-2.233223,55.543145],[-2.232415,55.543716],[-2.232249,55.54483],[-2.234093,55.546559],[-2.235173,55.548335],[-2.240769,55.552684],[-2.240307,55.555627],[-2.244052,55.556818],[-2.247854,55.556731],[-2.253076,55.561391],[-2.257505,55.562567],[-2.259867,55.563693],[-2.259805,55.565058],[-2.264618,55.566919],[-2.270055,55.570109],[-2.276479,55.575689],[-2.280148,55.57732],[-2.285432,55.57772],[-2.288536,55.58005],[-2.292392,55.585799],[-2.290373,55.589609],[-2.288114,55.591538],[-2.287848,55.592865],[-2.288607,55.594942],[-2.285936,55.596544],[-2.288136,55.598144],[-2.28851,55.59798],[-2.288954,55.598363],[-2.287752,55.601048],[-2.290321,55.602838],[-2.289232,55.603774],[-2.292269,55.604622],[-2.293885,55.604555],[-2.295504,55.608334],[-2.295135,55.608622],[-2.305949,55.612084],[-2.307286,55.611104],[-2.316094,55.620458],[-2.308935,55.62248],[-2.308626,55.628876],[-2.31084,55.628913],[-2.314999,55.627884],[-2.315895,55.62825],[-2.318339,55.628108],[-2.319816,55.627722],[-2.321614,55.6262],[-2.324311,55.626166],[-2.32815,55.627409],[-2.329805,55.629145],[-2.332162,55.629764],[-2.335247,55.632021],[-2.336012,55.632055],[-2.335109,55.633239],[-2.335047,55.634491],[-2.333254,55.634571],[-2.327767,55.636042],[-2.326252,55.637021],[-2.325595,55.638328],[-2.326027,55.639866],[-2.325583,55.642131],[-2.324702,55.643167],[-2.322589,55.643558],[-2.319368,55.643147],[-2.316034,55.643238],[-2.314773,55.643585],[-2.31315,55.644765],[-2.310337,55.646062],[-2.30579,55.647044],[-2.29895,55.647126],[-2.29287,55.645304],[-2.28918,55.643381],[-2.282972,55.642922],[-2.273091,55.6427],[-2.25981,55.644574],[-2.256017,55.644526],[-2.251449,55.643218],[-2.252335,55.642641],[-2.249767,55.641564],[-2.248625,55.639981],[-2.245726,55.639519],[-2.242791,55.639692],[-2.24242,55.640049],[-2.237193,55.640274],[-2.234799,55.640812],[-2.232557,55.642521],[-2.231588,55.643834],[-2.231918,55.645145],[-2.235378,55.646405],[-2.240224,55.646969],[-2.242494,55.647685],[-2.247829,55.650592],[-2.248474,55.651543],[-2.248174,55.652353],[-2.246424,55.653014],[-2.244445,55.653263],[-2.237004,55.656308],[-2.233921,55.65813],[-2.232145,55.661021],[-2.229978,55.662439],[-2.226923,55.663124],[-2.220896,55.663472],[-2.218453,55.66426],[-2.217525,55.665292],[-2.217041,55.666871],[-2.217966,55.669643],[-2.219572,55.672229],[-2.219725,55.673743],[-2.218659,55.675907],[-2.209197,55.680858],[-2.207606,55.684396],[-2.204971,55.686361],[-2.204105,55.686763],[-2.198925,55.687679],[-2.197805,55.688327],[-2.195313,55.69091],[-2.19217,55.695573],[-2.191196,55.696318],[-2.189815,55.695974],[-2.189184,55.696508],[-2.188235,55.696705],[-2.186751,55.698439],[-2.186907,55.699139],[-2.186408,55.699807],[-2.184055,55.701593],[-2.180598,55.703274],[-2.170577,55.704912],[-2.167231,55.706035],[-2.166565,55.706944],[-2.166998,55.707826],[-2.1725,55.710803],[-2.175747,55.714373],[-2.177054,55.71652],[-2.176997,55.718375],[-2.173537,55.720698],[-2.168856,55.722241],[-2.161582,55.722898],[-2.158813,55.722839],[-2.156141,55.722218],[-2.153576,55.722196],[-2.151751,55.722506],[-2.150506,55.723199],[-2.14915,55.724588],[-2.14775,55.727197],[-2.148067,55.729505],[-2.149858,55.733236],[-2.149884,55.73482],[-2.148745,55.736487],[-2.146052,55.738442],[-2.143265,55.739585],[-2.138383,55.740474],[-2.13655,55.740384],[-2.136618,55.740104],[-2.131805,55.739314],[-2.130559,55.738575],[-2.12535,55.737058],[-2.119485,55.737628],[-2.117307,55.738426],[-2.116664,55.739313],[-2.116717,55.740772],[-2.118011,55.742767],[-2.117626,55.744518],[-2.116124,55.746559],[-2.113667,55.748154],[-2.107666,55.747282],[-2.106688,55.747544],[-2.106012,55.748159],[-2.10512,55.75122],[-2.107211,55.755079],[-2.108799,55.757396],[-2.108504,55.758355],[-2.107279,55.759448],[-2.106292,55.760048],[-2.102455,55.761291],[-2.097903,55.762074],[-2.092111,55.762154],[-2.075305,55.759939],[-2.065675,55.759309],[-2.055429,55.757221],[-2.053185,55.757569],[-2.047789,55.757718],[-2.040756,55.759071],[-2.038213,55.760097],[-2.034005,55.764369],[-2.033567,55.766465],[-2.031643,55.769761],[-2.029529,55.770687],[-2.023082,55.771742],[-2.029386,55.768878],[-2.028399,55.768253]]],[[[-2.024123,55.801877],[-2.020583,55.798746],[-2.019017,55.796753],[-2.016704,55.79539],[-2.016353,55.794012],[-2.01382,55.793061],[-2.013026,55.793159],[-2.013812,55.792552],[-2.013287,55.792252],[-2.013649,55.791973],[-2.01296,55.791773],[-2.013668,55.791547],[-2.012625,55.791583],[-2.010805,55.79064],[-2.009577,55.790864],[-2.008455,55.790624],[-2.00634,55.789344],[-2.006301,55.788808],[-2.004984,55.787446],[-2.004132,55.787504],[-2.002352,55.786921],[-2.000867,55.786188],[-2.001082,55.78577],[-1.999942,55.785965],[-2.000105,55.785224],[-1.999469,55.784774],[-1.999721,55.782961],[-2.001356,55.782481],[-1.99944,55.780566],[-1.994714,55.779669],[-1.996347,55.778545],[-1.995817,55.778187],[-1.996244,55.778455],[-1.996858,55.778182],[-1.99744,55.776745],[-1.996205,55.775496],[-1.993041,55.773749],[-1.993643,55.772148],[-1.99098,55.768005],[-1.991149,55.766323],[-1.991625,55.766349],[-1.991245,55.765877],[-1.98415,55.764768],[-1.991327,55.765791],[-1.992737,55.767594],[-1.997045,55.767268],[-1.997228,55.766917],[-1.997395,55.767196],[-1.998246,55.76714],[-2.001715,55.765581],[-2.004242,55.765481],[-2.005158,55.767246],[-2.004916,55.76754],[-2.011181,55.77254],[-2.014681,55.774513],[-2.018041,55.774625],[-2.02331,55.773874],[-2.027181,55.772437],[-2.033969,55.771315],[-2.038204,55.769377],[-2.038386,55.768876],[-2.038894,55.76919],[-2.038392,55.768849],[-2.038203,55.769354],[-2.036052,55.770192],[-2.036358,55.765853],[-2.037968,55.762284],[-2.038994,55.761292],[-2.040755,55.760584],[-2.044885,55.760069],[-2.044169,55.759955],[-2.044789,55.759824],[-2.049738,55.761563],[-2.053334,55.761287],[-2.058845,55.762023],[-2.062262,55.762009],[-2.064816,55.763445],[-2.065036,55.763223],[-2.062379,55.76187],[-2.058701,55.761724],[-2.053629,55.761021],[-2.049343,55.761177],[-2.045623,55.759175],[-2.054722,55.758243],[-2.066609,55.761224],[-2.071335,55.760988],[-2.085745,55.762745],[-2.086132,55.765331],[-2.085512,55.765972],[-2.085726,55.768059],[-2.087394,55.770801],[-2.087512,55.772179],[-2.086557,55.774955],[-2.086824,55.778099],[-2.085852,55.782573],[-2.086268,55.784085],[-2.088242,55.785589],[-2.088552,55.786766],[-2.088281,55.790213],[-2.086123,55.793045],[-2.084571,55.792876],[-2.081972,55.793887],[-2.079311,55.793707],[-2.076974,55.794117],[-2.072528,55.797075],[-2.067097,55.798514],[-2.067154,55.800247],[-2.06495,55.801836],[-2.062242,55.802733],[-2.060042,55.802577],[-2.055938,55.802924],[-2.052637,55.802511],[-2.045613,55.805323],[-2.041855,55.807282],[-2.042211,55.807512],[-2.041734,55.80781],[-2.034417,55.811115],[-2.031895,55.809634],[-2.029683,55.807402],[-2.031758,55.805446],[-2.03114,55.804184],[-2.028387,55.803003],[-2.025851,55.802683],[-2.024123,55.801877]]]]}}]}