{"type":"FeatureCollection","features":[{"type":"Feature","properties":{"slug":"north-east-lincolnshire","gss_code":"E06000012","name":"North East Lincolnshire"},"geometry":{"type":"Polygon","coordinates":[[[-0.187385,53.630667],[-0.175226,53.625269],[-0.175154,53.624239],[-0.174395,53.624439],[-0.171039,53.62349],[-0.165082,53.621358],[-0.16367,53.619798],[-0.162195,53.619862],[-0.16128,53.619103],[-0.152795,53.615415],[-0.151956,53.614505],[-0.143433,53.608824],[-0.142343,53.608781],[-0.141683,53.608073],[-0.138234,53.607196],[-0.13716,53.606642],[-0.134174,53.604479],[-0.130627,53.600577],[-0.130226,53.600389],[-0.128673,53.600651],[-0.111528,53.590027],[-0.099519,53.584227],[-0.095212,53.582919],[-0.094527,53.581623],[-0.093275,53.581051],[-0.092618,53.581378],[-0.092113,53.581101],[-0.091372,53.581373],[-0.088822,53.58127],[-0.083305,53.580329],[-0.081206,53.579128],[-0.080006,53.577353],[-0.079273,53.576956],[-0.072234,53.583804],[-0.071041,53.584],[-0.070663,53.583203],[-0.067514,53.583608],[-0.066888,53.583249],[-0.06683,53.582687],[-0.065542,53.582657],[-0.065547,53.5828],[-0.064107,53.583739],[-0.06542,53.582792],[-0.063289,53.582789],[-0.061215,53.582195],[-0.044408,53.572001],[-0.042611,53.57049],[-0.036257,53.56756],[-0.034306,53.567362],[-0.029922,53.564309],[-0.027745,53.561899],[-0.022199,53.556816],[-0.022009,53.556208],[-0.015038,53.551509],[-0.014234,53.551254],[-0.013027,53.551708],[-0.012829,53.55135],[-0.012347,53.551967],[-0.012307,53.551165],[-0.011733,53.551503],[-0.012084,53.550902],[-0.011555,53.551304],[-0.011395,53.551115],[-0.011842,53.550802],[-0.011411,53.550798],[-0.011527,53.550536],[-0.01043,53.550826],[-0.010944,53.550426],[-0.010402,53.550359],[-0.010194,53.550681],[-0.010095,53.550355],[-0.009823,53.550452],[-0.010361,53.549999],[-0.010022,53.549637],[-0.009541,53.550187],[-0.009457,53.549488],[-0.008437,53.550085],[-0.009002,53.549347],[-0.008457,53.549394],[-0.00824,53.549977],[-0.008153,53.549511],[-0.007964,53.549729],[-0.007256,53.549514],[-0.0045,53.547861],[-0.004065,53.547333],[-0.003432,53.547058],[-0.00352,53.54672],[-0.003377,53.547092],[-0.003984,53.54735],[-0.004647,53.548472],[-0.007924,53.551456],[-0.009199,53.554882],[-0.009049,53.555601],[-0.008448,53.555612],[-0.005459,53.552751],[0.000709,53.545579],[0.003385,53.543278],[0.002886,53.54226],[0.003791,53.540728],[0.003326,53.540342],[0.002599,53.540309],[-0.000842,53.542538],[0.000178,53.541539],[0.00214,53.540599],[0.001003,53.540837],[0.002373,53.540265],[0.001618,53.539811],[0.001507,53.540076],[0.001257,53.53961],[0.001475,53.539432],[0.002355,53.540023],[0.002923,53.5398],[0.002349,53.539698],[0.002315,53.539633],[0.002378,53.539569],[0.003574,53.538851],[0.002357,53.53964],[0.003257,53.539552],[0.002603,53.540098],[0.004481,53.540415],[0.00724,53.537649],[0.008815,53.534841],[0.013247,53.530564],[0.016886,53.528411],[0.016872,53.528001],[0.016035,53.527593],[0.017619,53.525512],[0.012453,53.523372],[0.011501,53.522466],[0.011945,53.522071],[0.009474,53.520958],[0.007619,53.520736],[0.005366,53.519675],[-0.007435,53.516798],[-0.013511,53.516625],[-0.014579,53.515405],[-0.01743,53.515067],[-0.019548,53.517975],[-0.022474,53.517553],[-0.023968,53.51671],[-0.024792,53.517095],[-0.027364,53.517011],[-0.028639,53.517338],[-0.032785,53.5165],[-0.033253,53.516162],[-0.033106,53.515389],[-0.035439,53.514215],[-0.037931,53.51393],[-0.0396,53.513117],[-0.041635,53.516228],[-0.042369,53.51629],[-0.043861,53.518394],[-0.046614,53.520099],[-0.048915,53.519476],[-0.049885,53.519508],[-0.050434,53.519852],[-0.054914,53.51984],[-0.056115,53.519575],[-0.056644,53.519928],[-0.057704,53.51959],[-0.058038,53.519976],[-0.060545,53.519749],[-0.065045,53.51874],[-0.067096,53.516838],[-0.067626,53.51596],[-0.067485,53.514115],[-0.068415,53.513317],[-0.068672,53.511399],[-0.072985,53.498532],[-0.073394,53.495305],[-0.075262,53.489336],[-0.079066,53.48942],[-0.078249,53.488978],[-0.079907,53.488822],[-0.081905,53.487773],[-0.082695,53.488184],[-0.087367,53.485899],[-0.089819,53.485301],[-0.092908,53.486026],[-0.095488,53.485989],[-0.0922,53.482852],[-0.093682,53.482211],[-0.093235,53.481519],[-0.094127,53.481266],[-0.092714,53.47965],[-0.091096,53.478779],[-0.091287,53.478353],[-0.089804,53.477682],[-0.107821,53.469863],[-0.102922,53.465656],[-0.094983,53.461362],[-0.085828,53.455542],[-0.082978,53.452768],[-0.082209,53.451151],[-0.086947,53.449643],[-0.089752,53.447105],[-0.091714,53.447005],[-0.11057,53.440021],[-0.112079,53.43795],[-0.120344,53.433565],[-0.120778,53.435665],[-0.122786,53.437346],[-0.12765,53.435768],[-0.131845,53.435926],[-0.133115,53.437252],[-0.134025,53.439032],[-0.134248,53.440738],[-0.137918,53.439961],[-0.139026,53.441496],[-0.1445,53.440903],[-0.147204,53.444134],[-0.14867,53.446808],[-0.149228,53.4467],[-0.15024,53.448984],[-0.150677,53.448941],[-0.152549,53.452241],[-0.151966,53.452374],[-0.154614,53.455732],[-0.155058,53.457214],[-0.156463,53.457456],[-0.156968,53.459146],[-0.158508,53.461584],[-0.156642,53.461118],[-0.156056,53.461733],[-0.15721,53.462929],[-0.15368,53.465678],[-0.158044,53.465122],[-0.159226,53.466856],[-0.159471,53.468018],[-0.166381,53.466833],[-0.166972,53.467659],[-0.168738,53.467415],[-0.172377,53.467655],[-0.175138,53.46792],[-0.175434,53.468384],[-0.17698,53.46803],[-0.177522,53.46867],[-0.181805,53.468649],[-0.181955,53.469338],[-0.183276,53.469377],[-0.18229,53.471683],[-0.182504,53.476125],[-0.185162,53.477183],[-0.184432,53.479332],[-0.187812,53.48042],[-0.186926,53.482038],[-0.18731,53.482611],[-0.188588,53.482951],[-0.188947,53.483754],[-0.188565,53.484538],[-0.189351,53.484784],[-0.191112,53.483918],[-0.194334,53.483778],[-0.196929,53.485166],[-0.19956,53.485644],[-0.202397,53.486647],[-0.210605,53.486288],[-0.20823,53.491935],[-0.207544,53.49497],[-0.20647,53.496767],[-0.205552,53.496732],[-0.205266,53.497046],[-0.205985,53.501122],[-0.207509,53.502931],[-0.205477,53.50477],[-0.204293,53.506495],[-0.204086,53.511767],[-0.204624,53.511756],[-0.205322,53.51416],[-0.206742,53.515573],[-0.206855,53.516714],[-0.210035,53.520672],[-0.211394,53.52167],[-0.212709,53.524514],[-0.212495,53.524864],[-0.213243,53.525309],[-0.212859,53.525536],[-0.213624,53.526359],[-0.213622,53.527484],[-0.212644,53.528181],[-0.212368,53.529352],[-0.21098,53.530494],[-0.21059,53.531706],[-0.215373,53.532375],[-0.219883,53.532606],[-0.216766,53.536008],[-0.216256,53.536058],[-0.214225,53.538946],[-0.212144,53.541055],[-0.209197,53.54319],[-0.208495,53.544436],[-0.20457,53.547907],[-0.202062,53.549549],[-0.202718,53.549882],[-0.194871,53.557514],[-0.192069,53.559701],[-0.192363,53.559916],[-0.189884,53.561012],[-0.190518,53.561882],[-0.189229,53.562249],[-0.189748,53.562722],[-0.187529,53.563613],[-0.191692,53.568465],[-0.195185,53.571619],[-0.198496,53.570117],[-0.200197,53.570926],[-0.200789,53.570394],[-0.202941,53.571456],[-0.203904,53.571291],[-0.20464,53.571615],[-0.206301,53.570235],[-0.207516,53.57084],[-0.209453,53.56962],[-0.210327,53.569809],[-0.21071,53.569451],[-0.213266,53.570092],[-0.217486,53.568452],[-0.219868,53.56945],[-0.222559,53.568017],[-0.225103,53.570275],[-0.223972,53.572177],[-0.228339,53.573497],[-0.227155,53.574751],[-0.228139,53.57535],[-0.227245,53.576136],[-0.228642,53.576869],[-0.229282,53.577421],[-0.228986,53.577597],[-0.231477,53.579582],[-0.230842,53.579869],[-0.231349,53.581093],[-0.232647,53.582193],[-0.232417,53.58246],[-0.233642,53.582675],[-0.233398,53.58289],[-0.234895,53.584666],[-0.235235,53.58557],[-0.234424,53.585989],[-0.234669,53.58625],[-0.236045,53.585994],[-0.236878,53.586202],[-0.236456,53.586457],[-0.239164,53.588162],[-0.24085,53.586646],[-0.24207,53.587047],[-0.243327,53.585775],[-0.247185,53.58684],[-0.250477,53.584474],[-0.251396,53.584653],[-0.25208,53.585006],[-0.249044,53.5869],[-0.251149,53.588283],[-0.250573,53.589098],[-0.250796,53.589453],[-0.249956,53.589883],[-0.25064,53.590289],[-0.25017,53.590511],[-0.250429,53.590727],[-0.249479,53.591145],[-0.249821,53.591254],[-0.248871,53.591979],[-0.249578,53.592547],[-0.248535,53.593007],[-0.248902,53.593225],[-0.248476,53.593664],[-0.249725,53.594006],[-0.250721,53.593835],[-0.254473,53.592488],[-0.25936,53.59697],[-0.261586,53.595726],[-0.268296,53.599407],[-0.269812,53.598618],[-0.275232,53.602328],[-0.278604,53.603493],[-0.283039,53.604497],[-0.282954,53.605201],[-0.281194,53.606263],[-0.285477,53.609283],[-0.287078,53.6118],[-0.290418,53.610632],[-0.292115,53.613267],[-0.288571,53.613889],[-0.285007,53.615885],[-0.282432,53.616476],[-0.282622,53.616863],[-0.280087,53.617389],[-0.279242,53.617189],[-0.274054,53.617439],[-0.27161,53.617904],[-0.267365,53.617958],[-0.263846,53.619349],[-0.261969,53.61973],[-0.261084,53.620334],[-0.253929,53.621471],[-0.252992,53.62229],[-0.250958,53.622993],[-0.243257,53.623328],[-0.241068,53.62379],[-0.241004,53.62329],[-0.240066,53.623379],[-0.237964,53.623667],[-0.238326,53.624402],[-0.237604,53.624657],[-0.235998,53.624577],[-0.233485,53.623848],[-0.232617,53.624003],[-0.222161,53.629135],[-0.220397,53.630365],[-0.214207,53.632988],[-0.203039,53.638748],[-0.201918,53.639068],[-0.200729,53.63997],[-0.200394,53.639403],[-0.202212,53.6381],[-0.201843,53.637116],[-0.188133,53.630979],[-0.188059,53.630549],[-0.187385,53.630667]]]}}]}