{"type":"FeatureCollection","features":[{"type":"Feature","properties":{"slug":"norwich","gss_code":"E07000148","name":"Norwich"},"geometry":{"type":"MultiPolygon","coordinates":[[[[1.540596,52.555997],[1.540293,52.55611],[1.539853,52.556665],[1.540596,52.555997]]],[[[1.538833,52.556758],[1.53882,52.556824],[1.539109,52.556566],[1.54037,52.555437],[1.538833,52.556758]]],[[[1.528857,52.559066],[1.528761,52.559084],[1.529056,52.559125],[1.528857,52.559066]]],[[[1.538035,52.560104],[1.536303,52.561673],[1.536819,52.561488],[1.538035,52.560104]]],[[[1.530684,52.559604],[1.533386,52.561925],[1.530893,52.559666],[1.530684,52.559604]]],[[[1.535178,52.562076],[1.534908,52.562128],[1.535,52.56214],[1.535178,52.562076]]],[[[1.537451,52.56141],[1.536225,52.562242],[1.536394,52.562204],[1.537451,52.56141]]],[[[1.522093,52.562204],[1.521803,52.562396],[1.521376,52.56294],[1.522093,52.562204]]],[[[1.535011,52.562514],[1.534431,52.562592],[1.534563,52.562614],[1.535011,52.562514]]],[[[1.520848,52.563613],[1.520757,52.56373],[1.520766,52.565223],[1.520848,52.563613]]],[[[1.520951,52.56549],[1.521492,52.566274],[1.523582,52.568019],[1.520951,52.56549]]],[[[1.498515,52.570706],[1.498128,52.570725],[1.497718,52.570906],[1.498515,52.570706]]],[[[1.523734,52.568679],[1.523815,52.570237],[1.523846,52.570187],[1.523734,52.568679]]],[[[1.50031,52.571165],[1.500303,52.571166],[1.500689,52.571268],[1.50031,52.571165]]],[[[1.496462,52.571462],[1.495683,52.571807],[1.494423,52.572994],[1.496462,52.571462]]],[[[1.500837,52.570673],[1.508344,52.572808],[1.506219,52.572073],[1.500837,52.570673]]],[[[1.492273,52.575007],[1.491968,52.575469],[1.494307,52.573191],[1.492273,52.575007]]],[[[1.491762,52.57578],[1.491701,52.575871],[1.491546,52.577236],[1.491762,52.57578]]],[[[1.489866,52.579861],[1.48819,52.580797],[1.488161,52.580869],[1.489866,52.579861]]],[[[1.488098,52.581028],[1.487867,52.581604],[1.488209,52.583187],[1.488098,52.581028]]],[[[1.487105,52.582055],[1.487452,52.584171],[1.487604,52.583832],[1.487105,52.582055]]],[[[1.488214,52.584923],[1.488074,52.585093],[1.488234,52.584926],[1.488214,52.584923]]],[[[1.475099,52.585786],[1.475036,52.585793],[1.475099,52.585791],[1.476448,52.58586],[1.475099,52.585786]]],[[[1.468989,52.586408],[1.468762,52.586424],[1.468757,52.586427],[1.468989,52.586408]]],[[[1.468747,52.586432],[1.46732,52.587114],[1.468069,52.586945],[1.468747,52.586432]]],[[[1.487171,52.584799],[1.485147,52.586601],[1.487026,52.585122],[1.487171,52.584799]]],[[[1.478058,52.585981],[1.480353,52.58673],[1.481223,52.586855],[1.478058,52.585981]]],[[[1.467677,52.587921],[1.467395,52.58808],[1.467394,52.588109],[1.467677,52.587921]]],[[[1.48129,52.587543],[1.483631,52.587859],[1.48348,52.587758],[1.48129,52.587543]]],[[[1.486521,52.586554],[1.484079,52.587919],[1.484684,52.587779],[1.486521,52.586554]]],[[[1.466252,52.588611],[1.466242,52.590407],[1.466405,52.590126],[1.466252,52.588611]]],[[[1.466136,52.59059],[1.462909,52.593109],[1.466029,52.590773],[1.466136,52.59059]]],[[[1.457106,52.593374],[1.455421,52.593484],[1.457329,52.593398],[1.457106,52.593374]]],[[[1.46186,52.593595],[1.461143,52.593767],[1.461149,52.593767],[1.46186,52.593595]]],[[[1.456885,52.593927],[1.456867,52.593932],[1.461141,52.594524],[1.461372,52.594471],[1.456885,52.593927]]],[[[1.453015,52.595043],[1.45272,52.595352],[1.452706,52.595426],[1.453015,52.595043]]],[[[1.451586,52.602312],[1.451021,52.602541],[1.451119,52.602522],[1.451586,52.602312]]],[[[1.387548,52.604631],[1.387541,52.604631],[1.386771,52.604756],[1.387548,52.604631]]],[[[1.389737,52.60456],[1.387823,52.604622],[1.389759,52.604703],[1.389737,52.60456]]],[[[1.389981,52.604551],[1.389893,52.604709],[1.391317,52.604768],[1.389981,52.604551]]],[[[1.444607,52.604347],[1.444246,52.604451],[1.444153,52.604513],[1.444607,52.604347]]],[[[1.381918,52.606142],[1.381474,52.606355],[1.381474,52.606358],[1.381918,52.606142]]],[[[1.395155,52.606158],[1.395179,52.606172],[1.395921,52.606463],[1.395155,52.606158]]],[[[1.443642,52.604857],[1.442544,52.605595],[1.442579,52.605859],[1.443642,52.604857]]],[[[1.442227,52.605902],[1.439211,52.609036],[1.442515,52.60592],[1.442227,52.605902]]],[[[1.435835,52.611201],[1.435528,52.611292],[1.435585,52.611334],[1.435835,52.611201]]],[[[1.4376,52.60929],[1.433147,52.611532],[1.437439,52.609447],[1.4376,52.60929]]],[[[1.43523,52.61139],[1.435111,52.611587],[1.435309,52.611481],[1.43523,52.61139]]],[[[1.315072,52.615107],[1.315099,52.615133],[1.315927,52.615097],[1.315072,52.615107]]],[[[1.434518,52.611711],[1.434629,52.611843],[1.434757,52.611775],[1.434518,52.611711]]],[[[1.434185,52.611923],[1.433581,52.612401],[1.434354,52.61199],[1.434185,52.611923]]],[[[1.31836,52.615069],[1.32014,52.615889],[1.318649,52.615066],[1.31836,52.615069]]],[[[1.432934,52.611681],[1.432292,52.612777],[1.432405,52.612931],[1.432934,52.611681]]],[[[1.320427,52.616048],[1.320479,52.616136],[1.320444,52.616057],[1.320427,52.616048]]],[[[1.402149,52.613432],[1.403203,52.614021],[1.40326,52.614026],[1.402149,52.613432]]],[[[1.406128,52.613765],[1.406123,52.613767],[1.406998,52.61395],[1.406128,52.613765]]],[[[1.404007,52.614081],[1.403956,52.614083],[1.404004,52.614083],[1.404007,52.614081]]],[[[1.407726,52.61353],[1.408039,52.614054],[1.407787,52.613547],[1.407726,52.61353]]],[[[1.401139,52.613488],[1.402448,52.614452],[1.402974,52.614587],[1.401139,52.613488]]],[[[1.37627,52.614634],[1.376192,52.614808],[1.376126,52.615371],[1.37627,52.614634]]],[[[1.404749,52.61451],[1.404663,52.614558],[1.404667,52.614558],[1.404749,52.61451]]],[[[1.407097,52.614067],[1.407293,52.614906],[1.407393,52.614415],[1.407097,52.614067]]],[[[1.321139,52.617662],[1.320698,52.618455],[1.321388,52.618238],[1.321139,52.617662]]],[[[1.37601,52.616359],[1.375988,52.616547],[1.376232,52.617224],[1.37601,52.616359]]],[[[1.432985,52.613722],[1.433258,52.614095],[1.435805,52.616007],[1.432985,52.613722]]],[[[1.43547,52.614814],[1.437155,52.616423],[1.437123,52.616353],[1.43547,52.614814]]],[[[1.428999,52.617806],[1.428685,52.617925],[1.429052,52.617811],[1.428999,52.617806]]],[[[1.437453,52.617079],[1.437598,52.617734],[1.43768,52.617578],[1.437453,52.617079]]],[[[1.430119,52.617907],[1.430726,52.618021],[1.43063,52.617952],[1.430119,52.617907]]],[[[1.376356,52.618779],[1.376132,52.619767],[1.376324,52.619448],[1.376356,52.618779]]],[[[1.409423,52.619109],[1.410043,52.619586],[1.410364,52.619727],[1.409423,52.619109]]],[[[1.375794,52.620329],[1.373201,52.620984],[1.375707,52.620473],[1.375794,52.620329]]],[[[1.350767,52.621346],[1.350764,52.621347],[1.353416,52.621864],[1.350767,52.621346]]],[[[1.433036,52.61956],[1.433083,52.619595],[1.433337,52.619612],[1.433036,52.61956]]],[[[1.436008,52.618733],[1.434228,52.619671],[1.434234,52.619672],[1.436008,52.618733]]],[[[1.324924,52.622596],[1.324968,52.622639],[1.326085,52.622991],[1.324924,52.622596]]],[[[1.434713,52.620048],[1.434688,52.620057],[1.434697,52.620057],[1.434713,52.620048]]],[[[1.349626,52.62166],[1.349243,52.622796],[1.349294,52.622757],[1.349626,52.62166]]],[[[1.348711,52.621803],[1.348245,52.623032],[1.348626,52.622681],[1.348711,52.621803]]],[[[1.413608,52.621155],[1.415432,52.621422],[1.415741,52.621392],[1.413608,52.621155]]],[[[1.347924,52.623329],[1.347719,52.623386],[1.347877,52.623372],[1.347924,52.623329]]],[[[1.344445,52.623706],[1.343607,52.624087],[1.343571,52.62414],[1.344445,52.623706]]],[[[1.345141,52.624029],[1.344601,52.624128],[1.345147,52.624084],[1.345141,52.624029]]],[[[1.423239,52.621369],[1.421945,52.621922],[1.42195,52.621923],[1.423239,52.621369]]],[[[1.360846,52.622887],[1.364441,52.623942],[1.36452,52.623942],[1.360846,52.622887]]],[[[1.366531,52.623946],[1.367239,52.623947],[1.367375,52.623924],[1.366531,52.623946]]],[[[1.420577,52.622272],[1.420862,52.622436],[1.42199,52.622339],[1.420577,52.622272]]],[[[1.370322,52.623683],[1.369785,52.62391],[1.370125,52.623823],[1.370322,52.623683]]],[[[1.360663,52.623325],[1.363577,52.624197],[1.364133,52.624231],[1.360663,52.623325]]],[[[1.368135,52.624333],[1.367815,52.624385],[1.367822,52.624414],[1.368135,52.624333]]],[[[1.3441,52.624562],[1.343309,52.625248],[1.34356,52.625135],[1.3441,52.624562]]],[[[1.342731,52.625509],[1.341883,52.625782],[1.342168,52.625763],[1.342731,52.625509]]],[[[1.336767,52.626122],[1.332193,52.626255],[1.333686,52.626326],[1.336767,52.626122]]],[[[1.296232,52.67746],[1.296991,52.67745],[1.297124,52.67708],[1.30014,52.676812],[1.299638,52.674268],[1.296685,52.674367],[1.294821,52.673616],[1.294423,52.673047],[1.29524,52.672911],[1.292066,52.671665],[1.293025,52.671481],[1.292105,52.66865],[1.2937,52.66851],[1.293853,52.666615],[1.292028,52.662962],[1.291706,52.66134],[1.292549,52.661293],[1.29304,52.660764],[1.292403,52.660187],[1.292601,52.654928],[1.29443,52.65428],[1.294032,52.653957],[1.295515,52.653326],[1.299758,52.652734],[1.29998,52.65329],[1.307141,52.652272],[1.307251,52.652774],[1.309126,52.652999],[1.314105,52.649419],[1.322977,52.645024],[1.340572,52.649708],[1.342244,52.641319],[1.329865,52.637584],[1.328768,52.630614],[1.328357,52.629736],[1.327227,52.62889],[1.326547,52.627013],[1.322525,52.625916],[1.325281,52.623188],[1.322564,52.621522],[1.320882,52.622692],[1.322391,52.621501],[1.321907,52.621119],[1.314487,52.619955],[1.310602,52.620218],[1.306214,52.621477],[1.304527,52.622735],[1.303339,52.6257],[1.305416,52.627267],[1.307751,52.63028],[1.309142,52.633519],[1.308425,52.634452],[1.304838,52.634396],[1.302465,52.635416],[1.295219,52.63195],[1.293718,52.632147],[1.292201,52.631732],[1.290851,52.631804],[1.289397,52.632542],[1.288574,52.633459],[1.288033,52.633286],[1.290514,52.631739],[1.291835,52.631546],[1.296307,52.632],[1.297211,52.632795],[1.298544,52.633123],[1.302514,52.635253],[1.303905,52.634424],[1.305326,52.634051],[1.308432,52.634242],[1.308889,52.633136],[1.30765,52.630583],[1.307105,52.630357],[1.307131,52.629834],[1.304947,52.627218],[1.302887,52.626162],[1.304232,52.622633],[1.306364,52.621114],[1.308705,52.620351],[1.31247,52.619776],[1.319631,52.620332],[1.319853,52.619249],[1.320238,52.619229],[1.320976,52.617536],[1.320295,52.616236],[1.318419,52.615194],[1.314826,52.615264],[1.312149,52.613304],[1.312425,52.612957],[1.313293,52.613492],[1.31293,52.61316],[1.311098,52.612387],[1.308148,52.609621],[1.306679,52.608948],[1.305203,52.608948],[1.302414,52.607986],[1.30217,52.606969],[1.299723,52.605561],[1.299767,52.604935],[1.298352,52.60566],[1.298091,52.605538],[1.297363,52.603845],[1.292572,52.601274],[1.291723,52.599913],[1.289084,52.598725],[1.287062,52.596518],[1.283516,52.595245],[1.281565,52.595292],[1.280498,52.59576],[1.280691,52.596347],[1.279751,52.596645],[1.279563,52.597112],[1.278168,52.59715],[1.276707,52.598492],[1.274453,52.598951],[1.274826,52.599842],[1.274263,52.600341],[1.272819,52.60035],[1.272764,52.600775],[1.268823,52.601774],[1.268428,52.601442],[1.266968,52.60142],[1.264677,52.600311],[1.263813,52.600248],[1.262474,52.597829],[1.260609,52.597601],[1.257786,52.598147],[1.255695,52.599868],[1.255861,52.600389],[1.255028,52.600698],[1.254891,52.601909],[1.252963,52.604047],[1.25104,52.605289],[1.250891,52.606154],[1.248633,52.606739],[1.247703,52.606599],[1.246044,52.607177],[1.245476,52.608091],[1.243614,52.608582],[1.241658,52.610039],[1.242482,52.610765],[1.242166,52.611226],[1.243111,52.612312],[1.243271,52.61317],[1.243967,52.613308],[1.244572,52.61445],[1.243582,52.614871],[1.243779,52.615325],[1.243264,52.615785],[1.243685,52.616198],[1.243563,52.617154],[1.241245,52.617777],[1.235034,52.616752],[1.234296,52.61708],[1.233377,52.616968],[1.231889,52.617683],[1.23079,52.619117],[1.230607,52.620224],[1.228567,52.621615],[1.228737,52.623684],[1.231853,52.627703],[1.232612,52.627815],[1.232762,52.628105],[1.231571,52.628975],[1.23085,52.629939],[1.231092,52.630178],[1.230316,52.630419],[1.230565,52.630927],[1.227354,52.632214],[1.225274,52.63209],[1.225292,52.631343],[1.223396,52.630184],[1.223341,52.628035],[1.221632,52.627811],[1.218509,52.626698],[1.218449,52.626422],[1.219488,52.626224],[1.219388,52.626018],[1.218273,52.625651],[1.216372,52.625608],[1.215515,52.626338],[1.212809,52.627333],[1.213134,52.628547],[1.212483,52.629134],[1.213351,52.629576],[1.214432,52.631507],[1.214126,52.634334],[1.21146,52.636369],[1.209836,52.637154],[1.210019,52.637734],[1.20805,52.638957],[1.206344,52.638308],[1.206151,52.639509],[1.205084,52.639483],[1.20389,52.644704],[1.205043,52.645102],[1.209158,52.645241],[1.211172,52.644803],[1.211493,52.645367],[1.223588,52.643667],[1.235437,52.640938],[1.238436,52.643737],[1.241336,52.645458],[1.243691,52.646434],[1.251166,52.64825],[1.253325,52.649161],[1.253316,52.64959],[1.27942,52.657217],[1.284225,52.657656],[1.284994,52.660174],[1.280472,52.660621],[1.280796,52.661916],[1.278628,52.662096],[1.277914,52.662839],[1.277073,52.665987],[1.272978,52.666767],[1.272225,52.666646],[1.26929,52.670932],[1.266285,52.673043],[1.262869,52.677392],[1.283033,52.677315],[1.292302,52.684912],[1.295232,52.682467],[1.295356,52.681584],[1.296058,52.681364],[1.295307,52.678703],[1.296041,52.678167],[1.296232,52.67746]]]]}}]}