{"type":"FeatureCollection","features":[{"type":"Feature","properties":{"slug":"nottingham","gss_code":"E06000018","name":"Nottingham"},"geometry":{"type":"Polygon","coordinates":[[[-1.184482,53.014446],[-1.170871,53.013978],[-1.167681,53.014325],[-1.166613,53.0102],[-1.165288,53.010422],[-1.162229,53.011651],[-1.162103,53.010673],[-1.157929,53.010621],[-1.158445,53.009671],[-1.154564,53.009567],[-1.154113,53.009073],[-1.154253,53.008253],[-1.151536,53.007657],[-1.150738,53.008371],[-1.147509,53.007286],[-1.146396,53.008248],[-1.143528,53.00651],[-1.147316,53.002796],[-1.147799,53.001243],[-1.1497,53.000243],[-1.149872,52.999301],[-1.153656,52.997185],[-1.152384,52.99664],[-1.149077,52.997677],[-1.148203,52.997242],[-1.145979,52.998365],[-1.141143,52.996537],[-1.140489,52.994802],[-1.138255,52.994844],[-1.140038,52.992592],[-1.14017,52.989538],[-1.142489,52.986288],[-1.13982,52.985947],[-1.136201,52.986523],[-1.132817,52.986515],[-1.126395,52.984792],[-1.123725,52.983466],[-1.122786,52.983467],[-1.125669,52.981607],[-1.125274,52.981483],[-1.125838,52.980611],[-1.121321,52.974908],[-1.120514,52.974525],[-1.119751,52.969369],[-1.120107,52.967825],[-1.114642,52.964624],[-1.112238,52.965309],[-1.110282,52.9643],[-1.104058,52.964083],[-1.103886,52.962124],[-1.102074,52.962494],[-1.101495,52.958938],[-1.096938,52.958038],[-1.09458,52.956724],[-1.096876,52.955521],[-1.092162,52.954836],[-1.092037,52.954535],[-1.092851,52.954405],[-1.091873,52.953164],[-1.089729,52.952544],[-1.088107,52.951583],[-1.086115,52.94857],[-1.090067,52.94712],[-1.095331,52.944436],[-1.097594,52.94259],[-1.099677,52.941975],[-1.10394,52.942344],[-1.109161,52.944466],[-1.111957,52.944584],[-1.118032,52.943105],[-1.121388,52.942715],[-1.126245,52.943406],[-1.1316,52.942858],[-1.135194,52.94015],[-1.137675,52.937195],[-1.139372,52.93298],[-1.140061,52.932494],[-1.142365,52.931927],[-1.145402,52.932005],[-1.147863,52.932882],[-1.150352,52.935841],[-1.152289,52.937026],[-1.154159,52.934198],[-1.15631,52.927257],[-1.15881,52.912815],[-1.158974,52.90985],[-1.159994,52.909727],[-1.158621,52.905557],[-1.158564,52.900036],[-1.162562,52.900339],[-1.163391,52.899596],[-1.164108,52.899783],[-1.164253,52.899291],[-1.165926,52.899094],[-1.166883,52.898631],[-1.167082,52.898132],[-1.168788,52.897845],[-1.170281,52.896756],[-1.1702,52.896258],[-1.171129,52.895496],[-1.17089,52.894934],[-1.171971,52.89336],[-1.173831,52.892193],[-1.173648,52.891567],[-1.174956,52.88961],[-1.176088,52.889519],[-1.176936,52.889018],[-1.178834,52.889829],[-1.178235,52.891295],[-1.192107,52.895065],[-1.19123,52.896636],[-1.195456,52.897859],[-1.195884,52.897247],[-1.198922,52.897758],[-1.202813,52.899163],[-1.204309,52.900131],[-1.205005,52.900106],[-1.211302,52.902612],[-1.213233,52.900744],[-1.216573,52.900165],[-1.217499,52.900651],[-1.214149,52.903308],[-1.21392,52.904415],[-1.214423,52.90462],[-1.213825,52.905645],[-1.213356,52.91018],[-1.212079,52.911485],[-1.210505,52.91227],[-1.208297,52.912648],[-1.205709,52.912442],[-1.199009,52.909479],[-1.197564,52.909963],[-1.191127,52.91363],[-1.187532,52.914788],[-1.182301,52.917336],[-1.19742,52.929121],[-1.196631,52.929649],[-1.198996,52.93123],[-1.200465,52.930254],[-1.202639,52.932022],[-1.205108,52.933397],[-1.20605,52.932767],[-1.20889,52.933999],[-1.209347,52.933308],[-1.215292,52.933992],[-1.214715,52.936084],[-1.216222,52.937189],[-1.218084,52.940593],[-1.22103,52.940805],[-1.222791,52.941406],[-1.224259,52.942464],[-1.22634,52.942419],[-1.226897,52.941083],[-1.231401,52.942274],[-1.234281,52.942078],[-1.234193,52.943536],[-1.235658,52.945284],[-1.23787,52.945758],[-1.241841,52.947671],[-1.244719,52.949523],[-1.245071,52.950393],[-1.245791,52.95094],[-1.246827,52.953105],[-1.245723,52.955908],[-1.243351,52.959468],[-1.242952,52.960805],[-1.24329,52.960914],[-1.241921,52.962151],[-1.240995,52.962417],[-1.240762,52.963051],[-1.239542,52.964014],[-1.239167,52.965398],[-1.237824,52.966465],[-1.231979,52.967643],[-1.235075,52.971476],[-1.236799,52.971502],[-1.237114,52.971884],[-1.239818,52.976501],[-1.239854,52.977603],[-1.240865,52.978044],[-1.242608,52.977827],[-1.243757,52.978803],[-1.244888,52.981186],[-1.246506,52.98311],[-1.246839,52.984543],[-1.245461,52.98522],[-1.242131,52.983588],[-1.239381,52.982654],[-1.235058,52.982546],[-1.226079,52.981174],[-1.224863,52.982247],[-1.223696,52.981682],[-1.222764,52.982251],[-1.22201,52.983325],[-1.224093,52.984162],[-1.222529,52.986027],[-1.217937,52.983984],[-1.215052,52.983144],[-1.213875,52.983719],[-1.213163,52.984744],[-1.210526,52.986163],[-1.205489,52.987121],[-1.205294,52.987391],[-1.203612,52.987024],[-1.203408,52.987541],[-1.209206,52.989092],[-1.212364,52.990422],[-1.219115,52.991444],[-1.217809,52.994205],[-1.213921,52.997385],[-1.216402,53.000426],[-1.220436,53.003393],[-1.220043,53.005299],[-1.218634,53.006505],[-1.221092,53.007439],[-1.222879,53.007423],[-1.225191,53.008137],[-1.224651,53.008733],[-1.22229,53.008479],[-1.213083,53.012698],[-1.211025,53.015208],[-1.210037,53.018117],[-1.20648,53.018726],[-1.203099,53.018332],[-1.200757,53.017774],[-1.199954,53.016852],[-1.198192,53.016073],[-1.195245,53.015478],[-1.18911,53.017437],[-1.188224,53.018032],[-1.185984,53.017402],[-1.184525,53.016386],[-1.184034,53.017607],[-1.183207,53.017939],[-1.182746,53.018569],[-1.183156,53.016761],[-1.184482,53.014446]]]}}]}