{"type":"FeatureCollection","features":[{"type":"Feature","properties":{"slug":"nuneaton-and-bedworth","gss_code":"E07000219","name":"Nuneaton and Bedworth"},"geometry":{"type":"Polygon","coordinates":[[[-1.427181,52.540311],[-1.426976,52.540646],[-1.418958,52.537768],[-1.418337,52.536498],[-1.417376,52.536089],[-1.417344,52.534455],[-1.418371,52.53405],[-1.418485,52.533447],[-1.419741,52.533362],[-1.420164,52.532745],[-1.420701,52.532882],[-1.420944,52.53244],[-1.422666,52.53157],[-1.422573,52.530456],[-1.42138,52.529611],[-1.42162,52.528966],[-1.421261,52.528662],[-1.422158,52.527957],[-1.421464,52.527465],[-1.422021,52.526594],[-1.423314,52.526406],[-1.424401,52.524783],[-1.424955,52.521799],[-1.424609,52.52075],[-1.425649,52.519668],[-1.425401,52.519007],[-1.426896,52.518288],[-1.426836,52.517471],[-1.428868,52.516191],[-1.427952,52.515134],[-1.426958,52.515201],[-1.424142,52.514446],[-1.423331,52.514803],[-1.423046,52.514606],[-1.42143,52.515664],[-1.419409,52.516442],[-1.414487,52.516732],[-1.407546,52.515337],[-1.405462,52.513134],[-1.407386,52.510986],[-1.406678,52.509656],[-1.406923,52.50883],[-1.405413,52.506857],[-1.405796,52.505765],[-1.407506,52.50372],[-1.403887,52.502381],[-1.404646,52.501708],[-1.402812,52.500835],[-1.405704,52.497057],[-1.406868,52.493657],[-1.407646,52.493655],[-1.407658,52.492199],[-1.408392,52.492137],[-1.409716,52.491266],[-1.409661,52.490207],[-1.411774,52.488639],[-1.410604,52.486238],[-1.40884,52.486434],[-1.408453,52.485197],[-1.405876,52.484846],[-1.406075,52.483337],[-1.404791,52.483101],[-1.405703,52.480682],[-1.406199,52.480347],[-1.404629,52.47828],[-1.405023,52.476391],[-1.406946,52.476484],[-1.40856,52.473802],[-1.410411,52.466566],[-1.417001,52.464536],[-1.421055,52.464507],[-1.421253,52.463226],[-1.428128,52.467107],[-1.437622,52.468047],[-1.449361,52.460821],[-1.450148,52.46038],[-1.45064,52.460623],[-1.451424,52.460163],[-1.459053,52.455158],[-1.459776,52.455598],[-1.460325,52.455232],[-1.460571,52.455797],[-1.461333,52.455779],[-1.462014,52.457842],[-1.463867,52.4583],[-1.464235,52.45807],[-1.466354,52.458523],[-1.472858,52.456416],[-1.477351,52.457002],[-1.478931,52.456827],[-1.479096,52.457105],[-1.483127,52.458116],[-1.484554,52.457212],[-1.485022,52.457721],[-1.486818,52.45765],[-1.48679,52.458227],[-1.488207,52.458519],[-1.489364,52.458421],[-1.489649,52.457999],[-1.491986,52.458602],[-1.492789,52.45845],[-1.492015,52.457499],[-1.491922,52.456621],[-1.49142,52.456524],[-1.491707,52.455012],[-1.492906,52.454884],[-1.492603,52.454585],[-1.494825,52.452983],[-1.494326,52.45269],[-1.495573,52.451932],[-1.496005,52.452119],[-1.498825,52.450977],[-1.502972,52.450764],[-1.505014,52.450068],[-1.519769,52.4534],[-1.519122,52.45516],[-1.517633,52.456817],[-1.522093,52.456327],[-1.525956,52.456366],[-1.529677,52.457088],[-1.534938,52.459514],[-1.537015,52.462426],[-1.539939,52.464802],[-1.536877,52.465904],[-1.533781,52.468442],[-1.530177,52.469906],[-1.530251,52.47019],[-1.53133,52.470948],[-1.532482,52.470564],[-1.53348,52.471009],[-1.535579,52.470988],[-1.535567,52.471332],[-1.537236,52.471071],[-1.537363,52.471367],[-1.539065,52.471766],[-1.539301,52.472146],[-1.545229,52.472601],[-1.541034,52.473815],[-1.538039,52.474275],[-1.531857,52.474596],[-1.521765,52.476111],[-1.514823,52.476267],[-1.513779,52.477981],[-1.51378,52.479846],[-1.514223,52.480201],[-1.51444,52.483172],[-1.515686,52.485126],[-1.517468,52.486267],[-1.523301,52.488305],[-1.521335,52.493427],[-1.523892,52.493645],[-1.529315,52.495911],[-1.530429,52.497168],[-1.531658,52.497893],[-1.531932,52.500599],[-1.532514,52.501348],[-1.536084,52.503762],[-1.542254,52.506099],[-1.541312,52.508202],[-1.542983,52.508417],[-1.546079,52.508103],[-1.5465,52.509861],[-1.547577,52.509976],[-1.549454,52.510821],[-1.55093,52.512804],[-1.553341,52.513397],[-1.55516,52.517371],[-1.554594,52.5174],[-1.55296,52.519666],[-1.556046,52.521704],[-1.55486,52.524887],[-1.551679,52.526771],[-1.554409,52.528014],[-1.55618,52.531606],[-1.554293,52.532711],[-1.553775,52.533495],[-1.549906,52.534363],[-1.54509,52.533824],[-1.542378,52.534624],[-1.541157,52.534008],[-1.540676,52.535248],[-1.538931,52.535562],[-1.535188,52.535079],[-1.533553,52.53434],[-1.531788,52.534275],[-1.527415,52.535719],[-1.52394,52.53609],[-1.517613,52.537476],[-1.511978,52.537502],[-1.503823,52.538693],[-1.50172,52.538719],[-1.498822,52.53969],[-1.498382,52.541421],[-1.497056,52.54238],[-1.495948,52.541424],[-1.493113,52.540473],[-1.490559,52.540664],[-1.48771,52.54132],[-1.486653,52.540389],[-1.486307,52.540911],[-1.485199,52.54092],[-1.4825,52.542969],[-1.480923,52.543772],[-1.479961,52.543916],[-1.473131,52.547465],[-1.464612,52.550257],[-1.462083,52.550508],[-1.459221,52.551978],[-1.427181,52.540311]]]}}]}