{"type":"FeatureCollection","features":[{"type":"Feature","properties":{"slug":"oadby-and-wigston","gss_code":"E07000135","name":"Oadby and Wigston"},"geometry":{"type":"Polygon","coordinates":[[[-1.069145,52.613261],[-1.069523,52.612663],[-1.06696,52.612187],[-1.062281,52.61012],[-1.058968,52.609047],[-1.061614,52.606019],[-1.062479,52.604247],[-1.059763,52.603951],[-1.059896,52.603249],[-1.057654,52.60325],[-1.052443,52.601568],[-1.044744,52.600078],[-1.041358,52.59801],[-1.049855,52.591344],[-1.058372,52.585376],[-1.06511,52.579902],[-1.066484,52.579419],[-1.067363,52.579802],[-1.069062,52.578252],[-1.069272,52.578405],[-1.07094,52.577306],[-1.070662,52.577188],[-1.071067,52.576803],[-1.073323,52.575991],[-1.075422,52.574663],[-1.074802,52.573995],[-1.076271,52.572775],[-1.073859,52.571549],[-1.076876,52.570273],[-1.076046,52.569363],[-1.076763,52.569047],[-1.076314,52.568057],[-1.077265,52.567854],[-1.076952,52.566311],[-1.077699,52.566425],[-1.078963,52.566021],[-1.077976,52.563696],[-1.079602,52.563114],[-1.082894,52.556579],[-1.083848,52.556399],[-1.084035,52.556692],[-1.084897,52.556208],[-1.085504,52.556262],[-1.085927,52.556622],[-1.084998,52.556827],[-1.085551,52.557354],[-1.08501,52.557902],[-1.085605,52.558274],[-1.08586,52.557953],[-1.086189,52.559219],[-1.086826,52.558967],[-1.087402,52.559273],[-1.088644,52.559203],[-1.088608,52.559655],[-1.089809,52.559875],[-1.091146,52.560918],[-1.091952,52.560583],[-1.092653,52.561054],[-1.092245,52.561539],[-1.094266,52.561195],[-1.093992,52.561736],[-1.094749,52.561868],[-1.094394,52.562514],[-1.09469,52.562949],[-1.094321,52.563104],[-1.093986,52.562691],[-1.093777,52.563222],[-1.094444,52.563353],[-1.094375,52.563701],[-1.09559,52.564543],[-1.095374,52.564764],[-1.094853,52.564524],[-1.09579,52.565553],[-1.096454,52.565003],[-1.096997,52.565549],[-1.100823,52.565551],[-1.101844,52.565525],[-1.102957,52.564992],[-1.103369,52.565182],[-1.103191,52.565591],[-1.103618,52.565651],[-1.104118,52.565087],[-1.105189,52.564985],[-1.105543,52.565097],[-1.105318,52.565624],[-1.106003,52.565656],[-1.106389,52.565268],[-1.106172,52.564621],[-1.107143,52.564311],[-1.109937,52.565789],[-1.113212,52.566031],[-1.114008,52.56541],[-1.114556,52.566021],[-1.11527,52.565976],[-1.115168,52.566383],[-1.115596,52.566379],[-1.115793,52.565911],[-1.116596,52.566163],[-1.116597,52.567037],[-1.120404,52.566468],[-1.120618,52.56678],[-1.121453,52.566845],[-1.121156,52.567178],[-1.121607,52.567628],[-1.122425,52.568025],[-1.123003,52.567835],[-1.123514,52.568402],[-1.122445,52.568432],[-1.123018,52.568812],[-1.124372,52.568737],[-1.124328,52.567413],[-1.125137,52.566919],[-1.124614,52.56628],[-1.125058,52.566277],[-1.125372,52.565511],[-1.124806,52.565383],[-1.124798,52.564994],[-1.126089,52.563239],[-1.126622,52.563227],[-1.126632,52.56199],[-1.130179,52.562248],[-1.129397,52.563811],[-1.133669,52.564137],[-1.133523,52.56588],[-1.134388,52.565783],[-1.132359,52.569782],[-1.133055,52.572774],[-1.132847,52.573613],[-1.134603,52.573597],[-1.13499,52.574176],[-1.136984,52.574022],[-1.136586,52.575106],[-1.140717,52.576383],[-1.139721,52.577969],[-1.140961,52.581551],[-1.143593,52.581281],[-1.143235,52.584591],[-1.143585,52.585214],[-1.144512,52.585548],[-1.143594,52.586465],[-1.143619,52.588025],[-1.14086,52.587694],[-1.141265,52.590003],[-1.136067,52.589425],[-1.130852,52.589963],[-1.12967,52.591531],[-1.128022,52.590989],[-1.127748,52.591365],[-1.126606,52.591055],[-1.126441,52.592924],[-1.126798,52.595644],[-1.121927,52.595823],[-1.120786,52.595525],[-1.120171,52.597544],[-1.11794,52.597016],[-1.112886,52.596951],[-1.109852,52.597365],[-1.10944,52.596386],[-1.108785,52.596378],[-1.107443,52.595655],[-1.103651,52.595912],[-1.10479,52.59639],[-1.103902,52.597991],[-1.101922,52.59931],[-1.101627,52.602242],[-1.100206,52.602446],[-1.099943,52.603491],[-1.09882,52.603263],[-1.096974,52.606274],[-1.093593,52.608688],[-1.093381,52.610287],[-1.094847,52.610266],[-1.098304,52.611088],[-1.097101,52.613744],[-1.096634,52.616379],[-1.093233,52.616166],[-1.086225,52.615022],[-1.083914,52.615063],[-1.084009,52.615924],[-1.082173,52.615712],[-1.082424,52.614934],[-1.077021,52.61434],[-1.07433,52.613442],[-1.07154,52.617507],[-1.07049,52.618067],[-1.066659,52.617034],[-1.068001,52.615369],[-1.070037,52.614752],[-1.070956,52.613905],[-1.069145,52.613261]]]}}]}