{"type":"FeatureCollection","features":[{"type":"Feature","properties":{"slug":"oldham","gss_code":"E08000004","name":"Oldham"},"geometry":{"type":"Polygon","coordinates":[[[-2.023036,53.615839],[-2.018652,53.61597],[-2.014773,53.615349],[-2.009471,53.61678],[-2.008536,53.614811],[-2.007674,53.614376],[-2.007514,53.612535],[-1.999607,53.607943],[-1.995874,53.605115],[-1.994764,53.603388],[-1.990715,53.599476],[-1.981646,53.589338],[-1.978244,53.586788],[-1.971162,53.584156],[-1.966864,53.580017],[-1.956581,53.577571],[-1.953689,53.576031],[-1.953707,53.575686],[-1.950934,53.573637],[-1.95032,53.574165],[-1.9464,53.571506],[-1.944595,53.568686],[-1.942726,53.561641],[-1.928702,53.555585],[-1.924449,53.552554],[-1.921579,53.553],[-1.91937,53.550879],[-1.912885,53.551644],[-1.909621,53.538391],[-1.911891,53.538033],[-1.914253,53.536708],[-1.915776,53.532947],[-1.91739,53.532197],[-1.922445,53.530815],[-1.922605,53.526335],[-1.923477,53.522958],[-1.926781,53.520949],[-1.922694,53.518376],[-1.921862,53.517177],[-1.916766,53.514496],[-1.917499,53.513078],[-1.921973,53.509955],[-1.9244,53.509573],[-1.926076,53.508663],[-1.928778,53.508089],[-1.935501,53.505787],[-1.938248,53.506403],[-1.942428,53.50661],[-1.946889,53.504546],[-1.951333,53.504199],[-1.955673,53.504456],[-1.957419,53.505344],[-1.959474,53.505907],[-1.961259,53.507281],[-1.963386,53.509827],[-1.96673,53.510379],[-1.973056,53.512442],[-1.97782,53.514433],[-1.986953,53.516704],[-1.988824,53.518386],[-1.991477,53.519845],[-1.996927,53.522065],[-2.003033,53.520212],[-2.009133,53.519127],[-2.016815,53.521202],[-2.018776,53.521434],[-2.01753,53.523725],[-2.018093,53.524831],[-2.020318,53.526001],[-2.023156,53.528397],[-2.024708,53.528533],[-2.026799,53.529426],[-2.032453,53.530257],[-2.034485,53.529398],[-2.034973,53.530325],[-2.036058,53.530372],[-2.038283,53.529895],[-2.038463,53.529047],[-2.039616,53.529213],[-2.039872,53.530007],[-2.044467,53.529877],[-2.051116,53.530432],[-2.054917,53.531393],[-2.056936,53.530677],[-2.057301,53.529267],[-2.05626,53.529294],[-2.053284,53.526828],[-2.053115,53.525579],[-2.054453,53.523822],[-2.054148,53.522269],[-2.056205,53.522183],[-2.058394,53.522964],[-2.061866,53.522311],[-2.063442,53.521232],[-2.06421,53.52126],[-2.06473,53.522817],[-2.070697,53.521736],[-2.071142,53.521302],[-2.074831,53.521242],[-2.075165,53.520661],[-2.077205,53.520274],[-2.078367,53.520631],[-2.093258,53.520617],[-2.092939,53.519528],[-2.093648,53.518819],[-2.093425,53.51812],[-2.09544,53.517643],[-2.094939,53.516924],[-2.095174,53.515854],[-2.097325,53.514786],[-2.098262,53.513886],[-2.099029,53.514005],[-2.09965,53.513255],[-2.099461,53.512472],[-2.099963,53.511726],[-2.102356,53.510996],[-2.103311,53.509671],[-2.110789,53.508332],[-2.118225,53.505749],[-2.119685,53.505727],[-2.120693,53.501262],[-2.121515,53.500782],[-2.123317,53.500667],[-2.124447,53.499659],[-2.127536,53.498498],[-2.13139,53.498283],[-2.135204,53.495271],[-2.136125,53.491928],[-2.138139,53.491799],[-2.140939,53.491128],[-2.145429,53.491973],[-2.146978,53.493799],[-2.148413,53.492909],[-2.151079,53.493154],[-2.151518,53.492863],[-2.154083,53.492846],[-2.154675,53.493456],[-2.155712,53.493513],[-2.157706,53.494384],[-2.158324,53.49355],[-2.159137,53.493227],[-2.161998,53.493354],[-2.16303,53.492849],[-2.163933,53.492944],[-2.163588,53.493688],[-2.164019,53.494707],[-2.163237,53.496033],[-2.163412,53.496779],[-2.162831,53.496745],[-2.162915,53.496981],[-2.161644,53.49742],[-2.161865,53.498326],[-2.164376,53.499521],[-2.165931,53.498983],[-2.168537,53.500999],[-2.172602,53.50244],[-2.17087,53.503145],[-2.175513,53.50265],[-2.177748,53.504982],[-2.176553,53.505225],[-2.176779,53.505502],[-2.177898,53.505452],[-2.17871,53.50585],[-2.178266,53.506768],[-2.176744,53.507009],[-2.17563,53.507589],[-2.175646,53.508072],[-2.174255,53.509033],[-2.174443,53.50969],[-2.174067,53.509471],[-2.173555,53.509813],[-2.174307,53.510133],[-2.173876,53.510044],[-2.17357,53.510396],[-2.174081,53.510571],[-2.173279,53.511857],[-2.173476,53.512279],[-2.173072,53.512318],[-2.173026,53.512002],[-2.17263,53.512394],[-2.171575,53.512562],[-2.171422,53.513167],[-2.168605,53.513577],[-2.167084,53.513377],[-2.164399,53.513594],[-2.163019,53.512908],[-2.160417,53.513053],[-2.16083,53.513345],[-2.160228,53.513667],[-2.160393,53.513981],[-2.158886,53.514551],[-2.158166,53.515396],[-2.156457,53.516294],[-2.156236,53.515809],[-2.154761,53.518033],[-2.15628,53.518846],[-2.159188,53.522127],[-2.164791,53.520166],[-2.169147,53.523585],[-2.170501,53.523957],[-2.170219,53.527746],[-2.172137,53.527806],[-2.172116,53.527115],[-2.186014,53.529059],[-2.179818,53.53466],[-2.178014,53.537341],[-2.175546,53.538386],[-2.175039,53.539786],[-2.171328,53.543803],[-2.170718,53.543804],[-2.170742,53.544538],[-2.16944,53.546159],[-2.169941,53.551383],[-2.171757,53.551362],[-2.172254,53.552678],[-2.171993,53.558232],[-2.168716,53.558832],[-2.168148,53.560185],[-2.1659,53.561255],[-2.163606,53.563293],[-2.159502,53.564549],[-2.157791,53.564287],[-2.157237,53.564842],[-2.15093,53.567124],[-2.151851,53.574239],[-2.152486,53.574537],[-2.152477,53.576032],[-2.152095,53.576264],[-2.152434,53.579016],[-2.156586,53.582287],[-2.146755,53.583747],[-2.136717,53.583084],[-2.125845,53.586498],[-2.124055,53.589053],[-2.122913,53.589055],[-2.122486,53.58953],[-2.123172,53.589858],[-2.118354,53.592625],[-2.112713,53.592772],[-2.111766,53.597116],[-2.112571,53.598893],[-2.110638,53.599709],[-2.108616,53.599032],[-2.107337,53.599377],[-2.106854,53.59852],[-2.105608,53.59764],[-2.101578,53.597357],[-2.099868,53.59776],[-2.099394,53.597096],[-2.097663,53.596086],[-2.094315,53.596359],[-2.092698,53.596945],[-2.092464,53.596661],[-2.09072,53.5974],[-2.08966,53.597218],[-2.089085,53.596418],[-2.088224,53.596681],[-2.087157,53.595705],[-2.085476,53.595461],[-2.083937,53.594421],[-2.081069,53.59529],[-2.069882,53.594993],[-2.070035,53.594728],[-2.067679,53.593538],[-2.067318,53.592409],[-2.059882,53.592487],[-2.055096,53.594609],[-2.055953,53.597162],[-2.056762,53.597107],[-2.056881,53.5974],[-2.055515,53.597499],[-2.053896,53.598387],[-2.048531,53.599772],[-2.042327,53.600433],[-2.035827,53.602932],[-2.035528,53.603371],[-2.036591,53.604009],[-2.03554,53.60465],[-2.034828,53.604424],[-2.031346,53.610225],[-2.032801,53.611896],[-2.032649,53.615126],[-2.030165,53.617672],[-2.02999,53.62052],[-2.029372,53.621703],[-2.026816,53.624167],[-2.026172,53.62242],[-2.02644,53.620805],[-2.024586,53.617395],[-2.023036,53.615839]]]}}]}