{"type":"FeatureCollection","features":[{"type":"Feature","properties":{"slug":"pendle","gss_code":"E07000122","name":"Pendle"},"geometry":{"type":"Polygon","coordinates":[[[-2.181401,53.945578],[-2.183161,53.945631],[-2.183844,53.945217],[-2.183715,53.943703],[-2.185488,53.941887],[-2.185638,53.940454],[-2.184387,53.937134],[-2.182263,53.935411],[-2.179179,53.935479],[-2.175927,53.934269],[-2.174331,53.936715],[-2.171605,53.937659],[-2.164266,53.934704],[-2.161566,53.931907],[-2.163789,53.930289],[-2.163742,53.92886],[-2.163215,53.928494],[-2.162877,53.92727],[-2.159663,53.928646],[-2.159337,53.927915],[-2.157819,53.928271],[-2.156887,53.927022],[-2.155182,53.927567],[-2.151716,53.929484],[-2.148115,53.927826],[-2.149493,53.926479],[-2.149433,53.926028],[-2.144961,53.926514],[-2.141798,53.925675],[-2.140878,53.926435],[-2.139978,53.928325],[-2.138216,53.9277],[-2.137789,53.928043],[-2.132224,53.926509],[-2.131915,53.926009],[-2.132547,53.925546],[-2.130898,53.924605],[-2.130159,53.92348],[-2.127065,53.923667],[-2.12435,53.923201],[-2.124628,53.921923],[-2.121758,53.917331],[-2.118289,53.917654],[-2.116687,53.917286],[-2.113093,53.915439],[-2.114694,53.913753],[-2.111818,53.911933],[-2.109791,53.909093],[-2.107467,53.908043],[-2.113176,53.904612],[-2.103417,53.891893],[-2.103019,53.890941],[-2.095735,53.888156],[-2.093855,53.885088],[-2.090921,53.883423],[-2.09068,53.882811],[-2.086249,53.880748],[-2.083707,53.877933],[-2.083026,53.877941],[-2.082458,53.877554],[-2.082413,53.876617],[-2.081447,53.87568],[-2.082693,53.873699],[-2.084246,53.872225],[-2.088345,53.87006],[-2.090097,53.86846],[-2.089915,53.868182],[-2.08899,53.868192],[-2.086119,53.869658],[-2.084497,53.870072],[-2.081191,53.869971],[-2.076723,53.866836],[-2.076202,53.865985],[-2.076459,53.865301],[-2.075795,53.864215],[-2.075965,53.86361],[-2.074849,53.862367],[-2.071368,53.861098],[-2.068965,53.859731],[-2.066408,53.859634],[-2.064757,53.858878],[-2.063151,53.859255],[-2.06229,53.859081],[-2.04613,53.850141],[-2.045075,53.838896],[-2.046925,53.82951],[-2.061222,53.82562],[-2.084979,53.818521],[-2.091736,53.814237],[-2.097025,53.812202],[-2.102295,53.809488],[-2.112279,53.805708],[-2.128623,53.819796],[-2.13347,53.817359],[-2.135346,53.815958],[-2.142114,53.820447],[-2.144108,53.820013],[-2.148547,53.819768],[-2.14995,53.820733],[-2.150433,53.822981],[-2.15202,53.823707],[-2.154275,53.823153],[-2.159087,53.823319],[-2.16449,53.822543],[-2.167303,53.82247],[-2.167883,53.822784],[-2.169678,53.822667],[-2.170386,53.822996],[-2.171215,53.822783],[-2.172169,53.823292],[-2.174977,53.822942],[-2.17542,53.822636],[-2.175812,53.822877],[-2.176592,53.822647],[-2.179058,53.822869],[-2.181414,53.822212],[-2.182094,53.822614],[-2.182818,53.82221],[-2.18817,53.822561],[-2.192637,53.823326],[-2.195222,53.825068],[-2.19693,53.825196],[-2.196262,53.824039],[-2.195499,53.823618],[-2.194828,53.821972],[-2.195758,53.821535],[-2.197356,53.819609],[-2.204289,53.814693],[-2.20743,53.811437],[-2.206966,53.813301],[-2.210113,53.814203],[-2.210622,53.813668],[-2.212958,53.814032],[-2.22397,53.81785],[-2.224173,53.816391],[-2.226384,53.816076],[-2.228608,53.815023],[-2.233181,53.814628],[-2.235405,53.813791],[-2.250674,53.81161],[-2.261069,53.807767],[-2.260959,53.808496],[-2.262085,53.809633],[-2.266496,53.810054],[-2.266969,53.811844],[-2.268547,53.813188],[-2.268195,53.814062],[-2.268731,53.814703],[-2.269805,53.815004],[-2.273019,53.81413],[-2.275349,53.812762],[-2.27682,53.812591],[-2.279077,53.8104],[-2.279327,53.809004],[-2.279984,53.808186],[-2.281445,53.80796],[-2.282669,53.807364],[-2.285405,53.807716],[-2.288336,53.808684],[-2.288184,53.808909],[-2.290612,53.809306],[-2.293275,53.808955],[-2.294694,53.808439],[-2.295485,53.808772],[-2.297783,53.811609],[-2.297097,53.811944],[-2.296762,53.812929],[-2.297293,53.813188],[-2.296442,53.813811],[-2.297059,53.814304],[-2.298381,53.815036],[-2.29922,53.814105],[-2.302058,53.813544],[-2.303047,53.814513],[-2.302964,53.817906],[-2.303663,53.818339],[-2.303951,53.819513],[-2.303185,53.820056],[-2.302092,53.820225],[-2.301965,53.821079],[-2.306106,53.819445],[-2.308567,53.81802],[-2.309259,53.817008],[-2.309842,53.814426],[-2.311363,53.812925],[-2.312951,53.812192],[-2.314705,53.813805],[-2.316038,53.813547],[-2.317845,53.817057],[-2.316914,53.817272],[-2.317465,53.818278],[-2.317171,53.81932],[-2.315999,53.820259],[-2.316191,53.820692],[-2.315443,53.820838],[-2.316415,53.822792],[-2.314569,53.823156],[-2.317124,53.827828],[-2.313218,53.828724],[-2.30804,53.82888],[-2.305854,53.829543],[-2.307233,53.830477],[-2.305876,53.831304],[-2.302168,53.832287],[-2.302421,53.833196],[-2.301911,53.834067],[-2.302573,53.836395],[-2.308561,53.836291],[-2.308878,53.838419],[-2.318818,53.839207],[-2.319092,53.839472],[-2.322942,53.837984],[-2.327032,53.839402],[-2.328503,53.840745],[-2.330432,53.840711],[-2.331635,53.841535],[-2.332706,53.840768],[-2.333623,53.840597],[-2.333076,53.841526],[-2.331743,53.842526],[-2.331254,53.842219],[-2.329294,53.842047],[-2.325216,53.842202],[-2.327069,53.844192],[-2.326461,53.845106],[-2.317928,53.846922],[-2.318534,53.850047],[-2.320829,53.850836],[-2.325173,53.85112],[-2.322134,53.851884],[-2.316996,53.851942],[-2.314221,53.854331],[-2.31591,53.854605],[-2.317862,53.855536],[-2.318068,53.856077],[-2.31752,53.857124],[-2.319502,53.858285],[-2.320221,53.860016],[-2.319046,53.861617],[-2.317585,53.862206],[-2.314606,53.864274],[-2.312378,53.865157],[-2.307956,53.868891],[-2.305093,53.870674],[-2.297262,53.872089],[-2.295947,53.872684],[-2.285841,53.873972],[-2.277672,53.877812],[-2.273696,53.878978],[-2.272867,53.878612],[-2.270191,53.875845],[-2.265688,53.875818],[-2.26354,53.876417],[-2.263513,53.87668],[-2.258773,53.877863],[-2.258549,53.880272],[-2.259305,53.881453],[-2.259196,53.882034],[-2.253499,53.883135],[-2.252596,53.883959],[-2.248903,53.885587],[-2.248605,53.885371],[-2.24771,53.885528],[-2.24194,53.886834],[-2.238455,53.886841],[-2.237106,53.887325],[-2.234533,53.887207],[-2.231948,53.888625],[-2.228833,53.888939],[-2.226544,53.889651],[-2.224066,53.890938],[-2.222923,53.893125],[-2.223164,53.894034],[-2.22297,53.896364],[-2.224773,53.897442],[-2.227373,53.897757],[-2.226941,53.898696],[-2.229392,53.90197],[-2.235163,53.90816],[-2.237578,53.915413],[-2.240787,53.91926],[-2.243738,53.923948],[-2.24443,53.926502],[-2.244614,53.930777],[-2.245841,53.933263],[-2.242803,53.934678],[-2.242366,53.935199],[-2.240475,53.93572],[-2.239493,53.936577],[-2.238057,53.936664],[-2.234861,53.937871],[-2.234039,53.938532],[-2.229917,53.939311],[-2.228715,53.941041],[-2.225222,53.941808],[-2.226179,53.94276],[-2.225704,53.942867],[-2.225539,53.94365],[-2.224948,53.943713],[-2.224872,53.943217],[-2.224001,53.943132],[-2.224175,53.942683],[-2.222777,53.942753],[-2.221944,53.943407],[-2.220545,53.943499],[-2.219847,53.943202],[-2.218155,53.943543],[-2.217267,53.9424],[-2.215429,53.941564],[-2.21487,53.942188],[-2.209733,53.943424],[-2.206921,53.945082],[-2.203889,53.945885],[-2.202391,53.946723],[-2.198847,53.94773],[-2.194482,53.948507],[-2.189943,53.949875],[-2.186806,53.95097],[-2.184464,53.952211],[-2.183525,53.951437],[-2.183681,53.949337],[-2.180711,53.947996],[-2.180461,53.946657],[-2.179467,53.945986],[-2.181401,53.945578]]]}}]}