{"type":"FeatureCollection","features":[{"type":"Feature","properties":{"slug":"peterborough","gss_code":"E06000031","name":"Peterborough"},"geometry":{"type":"Polygon","coordinates":[[[-0.039532,52.666936],[-0.032103,52.665361],[-0.025047,52.632369],[-0.01625,52.598387],[-0.012836,52.594346],[-0.024146,52.592317],[-0.027861,52.591976],[-0.081275,52.583668],[-0.083391,52.582817],[-0.086189,52.582881],[-0.119684,52.577508],[-0.120711,52.577594],[-0.121183,52.577255],[-0.166014,52.569573],[-0.176967,52.569808],[-0.18698,52.568507],[-0.181696,52.566503],[-0.189879,52.565443],[-0.189188,52.562936],[-0.187635,52.560448],[-0.195056,52.554452],[-0.197873,52.550806],[-0.191031,52.550339],[-0.190618,52.547667],[-0.185628,52.544937],[-0.186631,52.54271],[-0.18785,52.541863],[-0.195701,52.54486],[-0.200398,52.545216],[-0.201493,52.543592],[-0.202756,52.542554],[-0.20522,52.542896],[-0.208517,52.542321],[-0.212358,52.5423],[-0.214144,52.541791],[-0.216475,52.540341],[-0.217664,52.537923],[-0.219668,52.5399],[-0.219464,52.540296],[-0.223032,52.541013],[-0.222746,52.542082],[-0.223124,52.542441],[-0.22865,52.542867],[-0.228675,52.543666],[-0.234798,52.543667],[-0.235583,52.542493],[-0.234984,52.541157],[-0.234989,52.539707],[-0.235513,52.53885],[-0.236647,52.538258],[-0.234731,52.536992],[-0.235143,52.536543],[-0.234439,52.536313],[-0.235101,52.536077],[-0.23172,52.534531],[-0.237275,52.530434],[-0.238254,52.529078],[-0.240474,52.529294],[-0.240468,52.529678],[-0.243074,52.529642],[-0.242446,52.524722],[-0.243206,52.524448],[-0.24478,52.522999],[-0.246715,52.523769],[-0.252914,52.522286],[-0.255881,52.521096],[-0.256796,52.522606],[-0.263206,52.521923],[-0.269295,52.520825],[-0.269447,52.52039],[-0.27032,52.520463],[-0.270486,52.518628],[-0.274047,52.518964],[-0.274346,52.517108],[-0.271008,52.516785],[-0.271117,52.516387],[-0.271713,52.516441],[-0.272509,52.515733],[-0.271963,52.515326],[-0.270829,52.515606],[-0.272962,52.512783],[-0.275517,52.511085],[-0.27961,52.509294],[-0.282351,52.507176],[-0.284638,52.506113],[-0.285304,52.506784],[-0.285761,52.506563],[-0.287809,52.508751],[-0.29329,52.506889],[-0.294117,52.511628],[-0.296297,52.51432],[-0.305106,52.521469],[-0.314428,52.530109],[-0.317596,52.533476],[-0.317823,52.534349],[-0.320684,52.535785],[-0.332736,52.546545],[-0.325925,52.548649],[-0.326737,52.54963],[-0.326677,52.550792],[-0.323677,52.551518],[-0.325458,52.552889],[-0.326843,52.552348],[-0.327244,52.552912],[-0.332362,52.552401],[-0.335996,52.553602],[-0.337315,52.553648],[-0.34063,52.555651],[-0.340632,52.557165],[-0.341154,52.558017],[-0.343948,52.560806],[-0.345208,52.561232],[-0.346066,52.562771],[-0.348478,52.56437],[-0.356837,52.565],[-0.361163,52.564343],[-0.362916,52.563331],[-0.367384,52.562765],[-0.369641,52.563096],[-0.370806,52.564152],[-0.372741,52.564677],[-0.373132,52.566321],[-0.375743,52.56628],[-0.379125,52.567199],[-0.380571,52.567078],[-0.380595,52.567432],[-0.381291,52.567684],[-0.382636,52.567224],[-0.383899,52.567476],[-0.384008,52.566907],[-0.385304,52.567148],[-0.388375,52.568858],[-0.389596,52.571575],[-0.388926,52.572792],[-0.389318,52.572919],[-0.389238,52.573448],[-0.387688,52.574469],[-0.387851,52.575061],[-0.389384,52.576238],[-0.389884,52.577483],[-0.391375,52.578524],[-0.393022,52.580871],[-0.39684,52.582998],[-0.398683,52.583296],[-0.401342,52.583056],[-0.40387,52.583234],[-0.40888,52.582658],[-0.413682,52.581097],[-0.414704,52.580287],[-0.414767,52.579376],[-0.415381,52.578743],[-0.418177,52.579734],[-0.419982,52.581355],[-0.424633,52.581493],[-0.425028,52.582413],[-0.447693,52.578684],[-0.461005,52.576025],[-0.471145,52.574627],[-0.475387,52.574371],[-0.478815,52.573645],[-0.481455,52.576304],[-0.480736,52.576956],[-0.478834,52.577439],[-0.485332,52.579981],[-0.489423,52.580554],[-0.49236,52.581672],[-0.497651,52.586851],[-0.494541,52.588673],[-0.49415,52.589703],[-0.490707,52.590534],[-0.488629,52.596909],[-0.485849,52.598931],[-0.485329,52.600155],[-0.48544,52.60218],[-0.481024,52.602787],[-0.479637,52.61445],[-0.47722,52.614677],[-0.473729,52.614433],[-0.474791,52.61691],[-0.470961,52.617953],[-0.472095,52.621285],[-0.471063,52.621364],[-0.47096,52.623768],[-0.473503,52.628234],[-0.475311,52.628901],[-0.47676,52.630564],[-0.485153,52.632836],[-0.486108,52.634422],[-0.488059,52.632505],[-0.488824,52.632831],[-0.488934,52.633452],[-0.490805,52.63537],[-0.491114,52.636368],[-0.492196,52.636873],[-0.493904,52.64007],[-0.494689,52.640265],[-0.491485,52.6415],[-0.49185,52.642017],[-0.490772,52.642288],[-0.489207,52.643454],[-0.4884,52.643735],[-0.4861,52.643527],[-0.485137,52.644443],[-0.485617,52.645155],[-0.48432,52.646129],[-0.48345,52.645427],[-0.475245,52.645058],[-0.475961,52.645451],[-0.476001,52.645964],[-0.475167,52.646134],[-0.474514,52.646685],[-0.475831,52.648715],[-0.467636,52.649899],[-0.45897,52.650225],[-0.456047,52.650009],[-0.453115,52.649272],[-0.452832,52.654275],[-0.45143,52.653934],[-0.450478,52.654125],[-0.448605,52.652943],[-0.445572,52.652963],[-0.443135,52.652707],[-0.442391,52.652227],[-0.440871,52.652296],[-0.440371,52.651491],[-0.438638,52.650815],[-0.437442,52.649866],[-0.436342,52.649852],[-0.436118,52.650327],[-0.435183,52.650211],[-0.432074,52.648297],[-0.430222,52.648995],[-0.428197,52.649106],[-0.427337,52.648598],[-0.426644,52.648813],[-0.425422,52.648548],[-0.425448,52.647838],[-0.42499,52.647484],[-0.424187,52.647842],[-0.423743,52.647572],[-0.423274,52.64808],[-0.420744,52.646852],[-0.419603,52.647056],[-0.419142,52.646783],[-0.417206,52.646812],[-0.41669,52.647581],[-0.414621,52.648244],[-0.413039,52.648386],[-0.410425,52.647781],[-0.405695,52.648056],[-0.404654,52.648655],[-0.403378,52.648727],[-0.401162,52.6496],[-0.399997,52.649638],[-0.396686,52.652383],[-0.395964,52.652567],[-0.395712,52.653337],[-0.393124,52.65413],[-0.391473,52.653747],[-0.391209,52.654004],[-0.389032,52.653958],[-0.387482,52.654481],[-0.386996,52.654372],[-0.387005,52.654834],[-0.386025,52.655024],[-0.384617,52.654454],[-0.384605,52.655286],[-0.383801,52.655476],[-0.383408,52.655201],[-0.383614,52.655767],[-0.382517,52.656132],[-0.380285,52.655595],[-0.378947,52.656183],[-0.377271,52.655727],[-0.376562,52.656989],[-0.375749,52.65716],[-0.37549,52.657924],[-0.374909,52.657943],[-0.373968,52.65707],[-0.373977,52.657656],[-0.373056,52.657448],[-0.371229,52.658414],[-0.370612,52.658291],[-0.3696,52.659268],[-0.367754,52.659574],[-0.367421,52.660059],[-0.366331,52.660134],[-0.365627,52.659825],[-0.363768,52.660337],[-0.360954,52.659565],[-0.35934,52.660064],[-0.356795,52.65952],[-0.356824,52.659939],[-0.356309,52.659986],[-0.356343,52.660466],[-0.355598,52.660884],[-0.355062,52.660616],[-0.354154,52.661194],[-0.352535,52.661464],[-0.352635,52.661785],[-0.350901,52.661462],[-0.350077,52.66167],[-0.350592,52.66205],[-0.350022,52.662111],[-0.350008,52.662791],[-0.349459,52.663155],[-0.346554,52.663143],[-0.346316,52.663566],[-0.344832,52.664174],[-0.344339,52.665456],[-0.343112,52.665133],[-0.343216,52.665767],[-0.342597,52.665958],[-0.34232,52.665523],[-0.340894,52.665507],[-0.339892,52.666143],[-0.339665,52.667184],[-0.338765,52.667202],[-0.337537,52.668243],[-0.336244,52.668639],[-0.337091,52.670488],[-0.336044,52.671535],[-0.337357,52.672384],[-0.336138,52.672681],[-0.336246,52.674116],[-0.335037,52.674866],[-0.333114,52.674837],[-0.331516,52.674341],[-0.331695,52.67379],[-0.330677,52.673913],[-0.330237,52.673476],[-0.32755,52.674212],[-0.326292,52.673885],[-0.325467,52.674296],[-0.32411,52.674379],[-0.320737,52.673671],[-0.319517,52.674307],[-0.320021,52.674749],[-0.320518,52.674295],[-0.32103,52.674504],[-0.321173,52.675021],[-0.320524,52.675104],[-0.309972,52.673478],[-0.297309,52.670601],[-0.294554,52.669346],[-0.293396,52.669457],[-0.291664,52.670373],[-0.289502,52.670345],[-0.28842,52.669782],[-0.286849,52.66803],[-0.282261,52.667171],[-0.279083,52.666004],[-0.278876,52.664621],[-0.277788,52.663301],[-0.276207,52.662652],[-0.276023,52.661873],[-0.274879,52.660704],[-0.273075,52.659479],[-0.270336,52.659442],[-0.269736,52.657592],[-0.269997,52.657288],[-0.268961,52.65635],[-0.267483,52.655854],[-0.266197,52.654702],[-0.263794,52.653897],[-0.263577,52.652507],[-0.261238,52.651484],[-0.260244,52.651444],[-0.258933,52.651931],[-0.258665,52.651645],[-0.255567,52.653658],[-0.238893,52.660583],[-0.238306,52.660219],[-0.230239,52.663631],[-0.224008,52.665662],[-0.217917,52.667123],[-0.212501,52.666679],[-0.209654,52.66699],[-0.206038,52.668073],[-0.205519,52.666832],[-0.203074,52.665105],[-0.200591,52.66144],[-0.199818,52.660864],[-0.196478,52.6555],[-0.195566,52.655375],[-0.192868,52.652439],[-0.190418,52.65247],[-0.18002,52.660561],[-0.141062,52.651507],[-0.140134,52.653474],[-0.140253,52.654272],[-0.139502,52.654862],[-0.13684,52.655207],[-0.137017,52.65554],[-0.133024,52.656958],[-0.12982,52.659212],[-0.126535,52.659995],[-0.117415,52.664764],[-0.11551,52.666477],[-0.112995,52.667976],[-0.102196,52.672206],[-0.099435,52.670392],[-0.096682,52.67006],[-0.094322,52.668179],[-0.091467,52.66696],[-0.090431,52.666685],[-0.087837,52.66678],[-0.080315,52.670546],[-0.074611,52.672074],[-0.072008,52.672072],[-0.069672,52.671406],[-0.066973,52.672034],[-0.065445,52.671996],[-0.063785,52.675224],[-0.05949,52.674687],[-0.039532,52.666936]]]}}]}