{"type":"FeatureCollection","features":[{"type":"Feature","properties":{"slug":"portsmouth","gss_code":"E06000044","name":"Portsmouth"},"geometry":{"type":"MultiPolygon","coordinates":[[[[-1.072279,50.74991],[-1.072694,50.750076],[-1.072488,50.750353],[-1.072018,50.750212],[-1.072279,50.74991]]],[[[-1.098845,50.770339],[-1.099234,50.770486],[-1.099014,50.770689],[-1.098662,50.770536],[-1.098845,50.770339]]],[[[-1.096341,50.813692],[-1.096951,50.814035],[-1.101475,50.813592],[-1.101164,50.814767],[-1.100173,50.81554],[-1.099683,50.818058],[-1.09871,50.819817],[-1.096496,50.820639],[-1.095525,50.820427],[-1.094284,50.819246],[-1.09261,50.815111],[-1.093851,50.815028],[-1.096379,50.814149],[-1.096341,50.813692]]],[[[-1.118947,50.835587],[-1.118047,50.835932],[-1.112941,50.836177],[-1.117593,50.83589],[-1.11891,50.835502],[-1.12221,50.835677],[-1.118947,50.835587]]],[[[-1.048623,50.832407],[-1.049069,50.833156],[-1.047581,50.831762],[-1.044887,50.83088],[-1.044585,50.831721],[-1.044187,50.831646],[-1.044622,50.826273],[-1.042175,50.825806],[-1.041272,50.824282],[-1.041934,50.823718],[-1.0412,50.822605],[-1.043024,50.818728],[-1.04235,50.816945],[-1.042441,50.813896],[-1.040693,50.811676],[-1.040513,50.810715],[-1.042205,50.807011],[-1.041859,50.804309],[-1.038169,50.795961],[-1.038715,50.795902],[-1.038355,50.795013],[-1.039415,50.794632],[-1.038342,50.794915],[-1.038363,50.794601],[-1.040221,50.79377],[-1.042467,50.791846],[-1.042886,50.790747],[-1.044248,50.790596],[-1.044061,50.790166],[-1.043786,50.789751],[-1.041753,50.78959],[-1.04104,50.789788],[-1.040913,50.790153],[-1.039794,50.790097],[-1.034577,50.79228],[-1.037143,50.791141],[-1.036625,50.790646],[-1.035686,50.790428],[-1.033339,50.791483],[-1.03427,50.792193],[-1.032587,50.791952],[-1.031627,50.79217],[-1.030385,50.793304],[-1.030312,50.795659],[-1.030721,50.796268],[-1.031696,50.796668],[-1.030212,50.796462],[-1.029299,50.794015],[-1.029517,50.7916],[-1.028863,50.78936],[-1.030438,50.787365],[-1.032026,50.78682],[-1.050267,50.783612],[-1.062265,50.780914],[-1.078695,50.778405],[-1.085312,50.778049],[-1.088085,50.777605],[-1.089542,50.777826],[-1.092475,50.779192],[-1.093965,50.780681],[-1.100741,50.785215],[-1.102215,50.786721],[-1.108924,50.790438],[-1.109707,50.791663],[-1.109324,50.792647],[-1.108639,50.792916],[-1.107968,50.79182],[-1.107805,50.792374],[-1.106561,50.792376],[-1.105867,50.791927],[-1.106101,50.791496],[-1.107551,50.791333],[-1.10693,50.790332],[-1.106393,50.790942],[-1.105671,50.791112],[-1.105263,50.792273],[-1.10683,50.792781],[-1.106116,50.792928],[-1.107932,50.793221],[-1.108365,50.793939],[-1.108148,50.794279],[-1.107163,50.794496],[-1.108181,50.795422],[-1.107313,50.795644],[-1.106233,50.79686],[-1.106889,50.796838],[-1.105875,50.797051],[-1.106636,50.797953],[-1.107401,50.798162],[-1.107519,50.798635],[-1.107951,50.798593],[-1.108307,50.799061],[-1.107125,50.799691],[-1.107309,50.799982],[-1.111244,50.798549],[-1.111695,50.800471],[-1.110788,50.800685],[-1.109664,50.799477],[-1.109368,50.799584],[-1.110818,50.801122],[-1.111734,50.800934],[-1.11108,50.801128],[-1.111736,50.801448],[-1.111136,50.801884],[-1.111725,50.801896],[-1.111759,50.802518],[-1.111074,50.802566],[-1.111439,50.802858],[-1.11103,50.803411],[-1.110594,50.803456],[-1.111382,50.803693],[-1.111023,50.804279],[-1.111576,50.804285],[-1.111521,50.806902],[-1.107733,50.80692],[-1.106398,50.806204],[-1.106686,50.80598],[-1.10777,50.806529],[-1.10797,50.80638],[-1.107905,50.804],[-1.106186,50.803963],[-1.106177,50.805965],[-1.103715,50.805729],[-1.103896,50.807314],[-1.10575,50.807368],[-1.105357,50.807925],[-1.106464,50.808059],[-1.106412,50.808394],[-1.105343,50.808418],[-1.105337,50.808714],[-1.106216,50.808853],[-1.104003,50.810469],[-1.094685,50.808845],[-1.094088,50.8085],[-1.091321,50.80904],[-1.090516,50.811641],[-1.090933,50.811799],[-1.091998,50.811201],[-1.092976,50.811317],[-1.095252,50.810822],[-1.094376,50.811182],[-1.094471,50.811398],[-1.096862,50.811288],[-1.094521,50.811586],[-1.09464,50.81224],[-1.091144,50.814732],[-1.091248,50.815566],[-1.091735,50.815905],[-1.091062,50.815963],[-1.090809,50.816782],[-1.089837,50.817156],[-1.090842,50.816852],[-1.090983,50.817038],[-1.092457,50.819365],[-1.093861,50.823111],[-1.095034,50.823223],[-1.09689,50.822834],[-1.097479,50.82308],[-1.099577,50.824856],[-1.100223,50.826687],[-1.099085,50.827303],[-1.099599,50.826965],[-1.0983,50.826722],[-1.094777,50.827042],[-1.093283,50.82802],[-1.094027,50.829041],[-1.092979,50.829054],[-1.091935,50.828334],[-1.091958,50.827727],[-1.090938,50.827081],[-1.090323,50.82788],[-1.089419,50.827634],[-1.089969,50.826395],[-1.088664,50.826535],[-1.088454,50.826976],[-1.088291,50.826688],[-1.086141,50.826025],[-1.086051,50.82501],[-1.084469,50.82482],[-1.083922,50.825423],[-1.083298,50.8278],[-1.083378,50.828834],[-1.083838,50.829159],[-1.083489,50.830096],[-1.081229,50.830949],[-1.080351,50.832114],[-1.078852,50.832966],[-1.078387,50.836108],[-1.076284,50.836904],[-1.071461,50.836687],[-1.071163,50.836373],[-1.06142,50.835573],[-1.058103,50.83483],[-1.054807,50.833441],[-1.052181,50.832774],[-1.048623,50.832407]]],[[[-1.125063,50.836367],[-1.12798,50.837418],[-1.12221,50.835677],[-1.125063,50.836367]]],[[[-1.130058,50.838045],[-1.132044,50.838259],[-1.130617,50.838214],[-1.130058,50.838045]]],[[[-1.141385,50.838592],[-1.142007,50.838698],[-1.141326,50.838599],[-1.138883,50.838721],[-1.141385,50.838592]]],[[[-1.135541,50.839068],[-1.135164,50.839303],[-1.135083,50.839276],[-1.135541,50.839068]]],[[[-1.171551,50.840169],[-1.172019,50.840363],[-1.171335,50.840295],[-1.171551,50.840169]]],[[[-1.143716,50.838988],[-1.144025,50.83904],[-1.146026,50.840223],[-1.143716,50.838988]]],[[[-1.146027,50.840502],[-1.146577,50.841009],[-1.146364,50.840895],[-1.146027,50.840502]]],[[[-1.151917,50.841091],[-1.1526,50.841165],[-1.151895,50.841096],[-1.151917,50.841091]]],[[[-1.112238,50.837817],[-1.112661,50.83683],[-1.112288,50.837857],[-1.114203,50.840324],[-1.114494,50.840238],[-1.11457,50.840938],[-1.112238,50.837817]]],[[[-1.114778,50.840384],[-1.114498,50.840236],[-1.114683,50.840181],[-1.115514,50.84129],[-1.116007,50.841233],[-1.11554,50.841332],[-1.114778,50.840384]]],[[[-1.11596,50.841993],[-1.116485,50.842528],[-1.115685,50.841953],[-1.116057,50.841227],[-1.11596,50.841993]]],[[[-1.153837,50.844807],[-1.152908,50.843609],[-1.153176,50.843309],[-1.154575,50.842893],[-1.154548,50.843212],[-1.153248,50.843548],[-1.154021,50.844733],[-1.156325,50.844586],[-1.15464,50.845058],[-1.153837,50.844807]]],[[[-1.156529,50.844552],[-1.160516,50.844776],[-1.163051,50.843631],[-1.163322,50.8432],[-1.16287,50.841675],[-1.163516,50.841342],[-1.167956,50.840235],[-1.170987,50.839957],[-1.170498,50.840143],[-1.170584,50.84042],[-1.167968,50.840268],[-1.164676,50.841202],[-1.164753,50.841444],[-1.163698,50.841342],[-1.163172,50.841722],[-1.16411,50.843174],[-1.160035,50.845207],[-1.156529,50.844552]]],[[[-1.075528,50.856378],[-1.071403,50.85653],[-1.070983,50.8587],[-1.067839,50.858183],[-1.066186,50.858474],[-1.065629,50.858358],[-1.065188,50.857635],[-1.062129,50.857638],[-1.062186,50.855452],[-1.054347,50.855087],[-1.054082,50.85653],[-1.052248,50.856514],[-1.052128,50.856185],[-1.05099,50.855809],[-1.050527,50.856215],[-1.049879,50.855842],[-1.049767,50.85527],[-1.046796,50.855056],[-1.046971,50.853926],[-1.037544,50.852944],[-1.023105,50.852773],[-1.022629,50.852073],[-1.022541,50.850424],[-1.024566,50.849841],[-1.023816,50.847931],[-1.02514,50.847729],[-1.024842,50.84597],[-1.023463,50.846034],[-1.022612,50.842792],[-1.021763,50.842616],[-1.021693,50.842059],[-1.02239,50.841767],[-1.020644,50.839197],[-1.022352,50.83628],[-1.022178,50.835107],[-1.023667,50.833171],[-1.024235,50.833004],[-1.024586,50.831672],[-1.02299,50.830353],[-1.024559,50.827058],[-1.024092,50.826377],[-1.027514,50.826813],[-1.027906,50.827627],[-1.028422,50.827795],[-1.029159,50.82772],[-1.029234,50.827385],[-1.03012,50.827385],[-1.031656,50.82878],[-1.034891,50.829359],[-1.036311,50.835426],[-1.038734,50.834634],[-1.041154,50.834467],[-1.043406,50.833772],[-1.044083,50.832169],[-1.044375,50.832474],[-1.043939,50.833838],[-1.044426,50.834057],[-1.051937,50.833473],[-1.061781,50.835955],[-1.071029,50.836902],[-1.074262,50.836946],[-1.074704,50.837256],[-1.078407,50.837271],[-1.080411,50.836674],[-1.081688,50.835861],[-1.087219,50.830675],[-1.087886,50.829819],[-1.087975,50.828648],[-1.089183,50.828575],[-1.089779,50.828992],[-1.088025,50.831366],[-1.08846,50.831523],[-1.089462,50.830715],[-1.094716,50.831264],[-1.099288,50.83449],[-1.106307,50.837894],[-1.106006,50.838359],[-1.106391,50.839124],[-1.106052,50.839154],[-1.106099,50.83967],[-1.103669,50.843795],[-1.103354,50.843784],[-1.103609,50.843907],[-1.102525,50.845827],[-1.10299,50.846219],[-1.105605,50.846788],[-1.113769,50.846795],[-1.114721,50.845501],[-1.115381,50.84562],[-1.115618,50.845388],[-1.115307,50.845124],[-1.114715,50.845394],[-1.112527,50.844668],[-1.11229,50.844304],[-1.113905,50.844922],[-1.114097,50.844709],[-1.112407,50.844177],[-1.112321,50.843683],[-1.111804,50.843498],[-1.112031,50.843244],[-1.11263,50.843451],[-1.112972,50.843148],[-1.114631,50.843917],[-1.116573,50.843844],[-1.116998,50.843051],[-1.118132,50.844206],[-1.117644,50.844444],[-1.117616,50.851449],[-1.116636,50.851486],[-1.116813,50.854472],[-1.115863,50.854725],[-1.115783,50.858274],[-1.11301,50.858335],[-1.099882,50.857153],[-1.099154,50.858861],[-1.094062,50.8593],[-1.084231,50.857225],[-1.075528,50.856378]]]]}}]}