{"type":"FeatureCollection","features":[{"type":"Feature","properties":{"slug":"preston","gss_code":"E07000123","name":"Preston"},"geometry":{"type":"MultiPolygon","coordinates":[[[[-2.794157,53.752615],[-2.790732,53.7545],[-2.789836,53.756294],[-2.789512,53.755948],[-2.79005,53.755854],[-2.789406,53.755796],[-2.788429,53.753064],[-2.793819,53.75183],[-2.794157,53.752615]]],[[[-2.726634,53.757387],[-2.721172,53.756209],[-2.718892,53.754871],[-2.718309,53.753479],[-2.720027,53.75551],[-2.720921,53.755998],[-2.72153,53.755617],[-2.722761,53.756332],[-2.72511,53.756913],[-2.729486,53.757476],[-2.733238,53.757603],[-2.752447,53.756874],[-2.757063,53.755694],[-2.757311,53.756363],[-2.752424,53.757033],[-2.744511,53.757545],[-2.732644,53.757808],[-2.726634,53.757387]]],[[[-2.795551,53.762075],[-2.795685,53.762128],[-2.795574,53.762208],[-2.795551,53.762075]]],[[[-2.653377,53.895869],[-2.652095,53.89609],[-2.651575,53.895531],[-2.646986,53.894774],[-2.646796,53.894296],[-2.645607,53.894576],[-2.645253,53.893259],[-2.64461,53.892716],[-2.638054,53.891129],[-2.635931,53.890269],[-2.634747,53.888422],[-2.636691,53.885553],[-2.636845,53.884536],[-2.635529,53.882827],[-2.629815,53.881899],[-2.625312,53.880316],[-2.626234,53.878509],[-2.626157,53.877618],[-2.625043,53.876216],[-2.627531,53.874433],[-2.626896,53.873821],[-2.627078,53.872878],[-2.626545,53.87241],[-2.625872,53.870197],[-2.626276,53.867979],[-2.625096,53.867023],[-2.627376,53.864949],[-2.628287,53.863377],[-2.629983,53.862205],[-2.628864,53.860805],[-2.629335,53.860003],[-2.628625,53.859723],[-2.628954,53.85931],[-2.628584,53.858699],[-2.627694,53.85841],[-2.627073,53.857753],[-2.626447,53.857865],[-2.624439,53.857254],[-2.623123,53.856354],[-2.620254,53.856415],[-2.620923,53.855958],[-2.62063,53.855475],[-2.619473,53.855529],[-2.619406,53.854706],[-2.618297,53.85414],[-2.618003,53.853462],[-2.616196,53.852026],[-2.61629,53.851717],[-2.615045,53.851562],[-2.614384,53.851109],[-2.616615,53.850643],[-2.617898,53.849335],[-2.619874,53.84873],[-2.620856,53.848887],[-2.62326,53.846719],[-2.620464,53.845546],[-2.607898,53.838772],[-2.610314,53.835007],[-2.610226,53.828749],[-2.610723,53.827788],[-2.610377,53.826994],[-2.611358,53.825927],[-2.611417,53.825298],[-2.613174,53.823609],[-2.615082,53.822571],[-2.615091,53.821173],[-2.615748,53.820745],[-2.615919,53.819949],[-2.616879,53.819418],[-2.617519,53.819486],[-2.617788,53.819089],[-2.61833,53.819177],[-2.619608,53.818186],[-2.620327,53.818111],[-2.621397,53.817236],[-2.624714,53.815565],[-2.622379,53.813802],[-2.620011,53.810382],[-2.616892,53.808888],[-2.615657,53.807888],[-2.61413,53.805886],[-2.612623,53.804913],[-2.6123,53.803896],[-2.61022,53.804658],[-2.608298,53.804216],[-2.602912,53.800637],[-2.601009,53.79898],[-2.601164,53.798701],[-2.598862,53.797424],[-2.597252,53.797339],[-2.595757,53.796712],[-2.595487,53.796158],[-2.596961,53.795653],[-2.59808,53.794721],[-2.601782,53.789683],[-2.601569,53.786889],[-2.599263,53.782221],[-2.599488,53.781471],[-2.605606,53.779063],[-2.608683,53.778584],[-2.611809,53.778646],[-2.619801,53.779643],[-2.625198,53.78179],[-2.630372,53.782765],[-2.633707,53.782535],[-2.63457,53.782023],[-2.635228,53.780946],[-2.634995,53.780159],[-2.633867,53.779508],[-2.627531,53.777354],[-2.62252,53.774372],[-2.621421,53.772644],[-2.622219,53.770757],[-2.626557,53.767828],[-2.630611,53.766653],[-2.63543,53.765717],[-2.641797,53.765881],[-2.643433,53.76555],[-2.644015,53.764632],[-2.643851,53.761237],[-2.644334,53.760564],[-2.645293,53.76012],[-2.646639,53.759966],[-2.651835,53.761014],[-2.654622,53.761025],[-2.656568,53.760558],[-2.658411,53.758873],[-2.659191,53.756992],[-2.659133,53.753952],[-2.659592,53.75288],[-2.661293,53.750626],[-2.665349,53.748854],[-2.6691,53.748825],[-2.673626,53.750202],[-2.677814,53.753045],[-2.677725,53.753359],[-2.679457,53.753216],[-2.681395,53.752449],[-2.683664,53.750593],[-2.685509,53.749601],[-2.688608,53.749235],[-2.691602,53.750015],[-2.695542,53.752269],[-2.696706,53.752318],[-2.702453,53.75167],[-2.706498,53.750259],[-2.709385,53.748401],[-2.711167,53.74839],[-2.715073,53.749779],[-2.716382,53.751464],[-2.717818,53.755565],[-2.719278,53.756709],[-2.730357,53.758556],[-2.751141,53.757954],[-2.750131,53.758545],[-2.756745,53.757905],[-2.764288,53.7564],[-2.773897,53.755014],[-2.777712,53.75479],[-2.778136,53.754503],[-2.782921,53.754165],[-2.78789,53.753268],[-2.789105,53.756108],[-2.78777,53.756119],[-2.786983,53.756459],[-2.786478,53.756285],[-2.786839,53.756484],[-2.786158,53.756543],[-2.784702,53.756334],[-2.786248,53.756584],[-2.789007,53.756276],[-2.788891,53.756924],[-2.787356,53.756832],[-2.784702,53.757336],[-2.783394,53.7569],[-2.784405,53.757423],[-2.785132,53.757479],[-2.787496,53.756891],[-2.788816,53.757037],[-2.789527,53.756573],[-2.790202,53.756874],[-2.790567,53.757797],[-2.790059,53.757848],[-2.790051,53.758363],[-2.788997,53.758616],[-2.78501,53.758606],[-2.782866,53.758056],[-2.782265,53.75729],[-2.782482,53.757882],[-2.783144,53.758212],[-2.785042,53.758633],[-2.78739,53.758694],[-2.7888,53.758672],[-2.790122,53.758391],[-2.79036,53.757919],[-2.791258,53.759359],[-2.789555,53.759443],[-2.791372,53.759448],[-2.792419,53.76084],[-2.794085,53.760963],[-2.794175,53.76158],[-2.795306,53.762098],[-2.793783,53.763658],[-2.791716,53.764019],[-2.789868,53.765554],[-2.788887,53.765405],[-2.789295,53.765699],[-2.787665,53.76528],[-2.787616,53.765556],[-2.788949,53.765779],[-2.79009,53.765766],[-2.791872,53.764159],[-2.793685,53.7638],[-2.794985,53.762654],[-2.795305,53.763125],[-2.796149,53.76338],[-2.796698,53.764347],[-2.79912,53.765729],[-2.798632,53.767048],[-2.797933,53.767368],[-2.798664,53.77042],[-2.798194,53.771539],[-2.791146,53.780757],[-2.785067,53.784264],[-2.780491,53.787714],[-2.782206,53.78996],[-2.783162,53.789996],[-2.811499,53.807928],[-2.815266,53.808193],[-2.819652,53.815402],[-2.822095,53.818039],[-2.825994,53.819987],[-2.810274,53.824288],[-2.808885,53.82419],[-2.805076,53.825048],[-2.802937,53.825916],[-2.801937,53.825848],[-2.801995,53.824885],[-2.799956,53.824856],[-2.798568,53.824364],[-2.797636,53.824679],[-2.797785,53.825077],[-2.798709,53.825448],[-2.798547,53.826199],[-2.79644,53.827919],[-2.797091,53.828586],[-2.799669,53.829094],[-2.800987,53.831694],[-2.800257,53.831931],[-2.8002,53.833089],[-2.797674,53.833348],[-2.794203,53.834457],[-2.793344,53.836563],[-2.791218,53.83388],[-2.78718,53.832118],[-2.783968,53.833472],[-2.781824,53.833351],[-2.780993,53.834168],[-2.782261,53.835468],[-2.78043,53.836784],[-2.773712,53.839096],[-2.774304,53.839857],[-2.77079,53.840372],[-2.766501,53.833764],[-2.761475,53.827526],[-2.758452,53.825972],[-2.756425,53.825841],[-2.754883,53.824343],[-2.754214,53.824263],[-2.753633,53.823706],[-2.751728,53.823896],[-2.750975,53.823421],[-2.749973,53.823468],[-2.749401,53.823172],[-2.743026,53.822931],[-2.736169,53.823434],[-2.736521,53.824962],[-2.736104,53.825311],[-2.738069,53.830512],[-2.740366,53.841533],[-2.74121,53.841789],[-2.741805,53.84253],[-2.742051,53.844619],[-2.742602,53.844646],[-2.743534,53.84651],[-2.746716,53.849588],[-2.746663,53.850825],[-2.745841,53.851116],[-2.743756,53.850791],[-2.74344,53.850471],[-2.742363,53.850631],[-2.740328,53.850197],[-2.738269,53.850591],[-2.737907,53.850938],[-2.734036,53.850764],[-2.731423,53.851546],[-2.729046,53.851269],[-2.726078,53.849759],[-2.725986,53.849429],[-2.720024,53.850112],[-2.717778,53.851397],[-2.716747,53.851537],[-2.715053,53.853099],[-2.713986,53.853433],[-2.709817,53.853642],[-2.711923,53.856392],[-2.710939,53.857617],[-2.707775,53.859773],[-2.707298,53.86118],[-2.705724,53.861421],[-2.705813,53.862427],[-2.704475,53.863193],[-2.703261,53.864959],[-2.70393,53.866415],[-2.70608,53.869021],[-2.705179,53.869209],[-2.704385,53.870451],[-2.699801,53.871544],[-2.697238,53.872506],[-2.694341,53.872956],[-2.693181,53.873928],[-2.690628,53.874374],[-2.690583,53.877407],[-2.689905,53.877815],[-2.690526,53.878086],[-2.690664,53.878936],[-2.688406,53.879799],[-2.687171,53.881785],[-2.687248,53.882265],[-2.689202,53.883185],[-2.687667,53.884414],[-2.689309,53.885502],[-2.689433,53.887854],[-2.687394,53.88869],[-2.687184,53.889832],[-2.685842,53.890891],[-2.682993,53.891266],[-2.680927,53.892521],[-2.678594,53.89182],[-2.672188,53.89209],[-2.670736,53.891651],[-2.670008,53.891749],[-2.668039,53.892489],[-2.665657,53.894255],[-2.664141,53.894104],[-2.662457,53.895099],[-2.65801,53.894596],[-2.657218,53.896152],[-2.653377,53.895869]]]]}}]}