{"type":"FeatureCollection","features":[{"type":"Feature","properties":{"slug":"reading","gss_code":"E06000038","name":"Reading"},"geometry":{"type":"Polygon","coordinates":[[[-0.953568,51.488438],[-0.949772,51.486454],[-0.949117,51.486977],[-0.947033,51.486062],[-0.947944,51.48527],[-0.946035,51.483442],[-0.945491,51.483593],[-0.944501,51.481953],[-0.945527,51.481681],[-0.944921,51.479182],[-0.941137,51.474978],[-0.947323,51.472942],[-0.94653,51.471517],[-0.949222,51.470132],[-0.947182,51.466653],[-0.949246,51.46614],[-0.94888,51.465512],[-0.949441,51.464931],[-0.951561,51.465702],[-0.955184,51.465334],[-0.954806,51.464555],[-0.954363,51.464526],[-0.954393,51.462631],[-0.954546,51.462201],[-0.955162,51.462192],[-0.955453,51.461257],[-0.949168,51.459513],[-0.950019,51.457839],[-0.949483,51.457531],[-0.945837,51.457065],[-0.941656,51.45574],[-0.937612,51.453854],[-0.935069,51.451981],[-0.931462,51.447538],[-0.92856,51.445098],[-0.930717,51.442226],[-0.932335,51.440979],[-0.933914,51.441905],[-0.934812,51.443002],[-0.937391,51.444419],[-0.941788,51.445975],[-0.945215,51.44617],[-0.944695,51.445217],[-0.944627,51.442906],[-0.946304,51.442326],[-0.946622,51.441043],[-0.947887,51.44109],[-0.948135,51.439288],[-0.946414,51.439164],[-0.946399,51.438142],[-0.943707,51.438439],[-0.943955,51.430077],[-0.943434,51.429292],[-0.946208,51.427099],[-0.949146,51.423808],[-0.951213,51.423159],[-0.957151,51.419858],[-0.956918,51.419477],[-0.960289,51.415081],[-0.959879,51.414276],[-0.962127,51.413938],[-0.961926,51.412345],[-0.971116,51.410079],[-0.97379,51.409754],[-0.973877,51.411521],[-0.973453,51.411522],[-0.973767,51.412592],[-0.978655,51.412469],[-0.979351,51.412515],[-0.979739,51.412879],[-0.980163,51.414182],[-0.979812,51.414504],[-0.981162,51.417412],[-0.983371,51.418842],[-0.98137,51.420628],[-0.98447,51.421326],[-0.984793,51.421967],[-0.987818,51.420738],[-0.99152,51.420444],[-0.993211,51.419422],[-0.996283,51.419596],[-0.996499,51.421475],[-0.998708,51.424828],[-0.999512,51.424863],[-1.001343,51.425659],[-1.000722,51.429794],[-1.001997,51.431579],[-1.003817,51.432624],[-1.003717,51.433895],[-1.006415,51.433905],[-1.007088,51.434432],[-1.006959,51.434081],[-1.007824,51.433796],[-1.00848,51.434074],[-1.007861,51.434428],[-1.008099,51.435085],[-1.009714,51.4342],[-1.010278,51.434609],[-1.011402,51.434302],[-1.01192,51.434654],[-1.013019,51.43456],[-1.013559,51.43554],[-1.015812,51.435348],[-1.019563,51.435819],[-1.021622,51.435709],[-1.021855,51.440517],[-1.02345,51.444318],[-1.026561,51.443978],[-1.025982,51.445185],[-1.026717,51.445907],[-1.03011,51.447284],[-1.030234,51.449433],[-1.033983,51.452728],[-1.038079,51.452786],[-1.046792,51.450172],[-1.049185,51.451411],[-1.0492,51.453729],[-1.04799,51.453774],[-1.047076,51.454846],[-1.047869,51.455255],[-1.046721,51.456213],[-1.052975,51.46037],[-1.049775,51.462101],[-1.048454,51.462434],[-1.047885,51.464631],[-1.044316,51.465275],[-1.04421,51.467035],[-1.043858,51.46738],[-1.043465,51.46721],[-1.043006,51.468251],[-1.04328,51.468446],[-1.042458,51.469048],[-1.042719,51.469433],[-1.041471,51.470313],[-1.040417,51.470541],[-1.040236,51.470986],[-1.038994,51.471532],[-1.038446,51.472314],[-1.036693,51.473393],[-1.035919,51.47442],[-1.036788,51.47506],[-1.036557,51.475227],[-1.026594,51.470724],[-1.021772,51.467996],[-1.018205,51.466585],[-1.013564,51.466292],[-1.011207,51.467162],[-1.0075,51.46783],[-1.007296,51.468211],[-1.007856,51.469581],[-1.007938,51.471572],[-1.006814,51.471395],[-1.007099,51.471982],[-1.006739,51.472308],[-1.005962,51.472593],[-1.004837,51.472434],[-1.004806,51.472721],[-1.006929,51.473422],[-1.003807,51.473313],[-1.003265,51.474433],[-1.002442,51.474254],[-1.000803,51.474621],[-0.999816,51.475232],[-0.998181,51.47755],[-0.998711,51.480299],[-0.999676,51.480315],[-1.000425,51.479895],[-1.000619,51.480839],[-1.000007,51.480857],[-0.999976,51.481464],[-0.998051,51.481721],[-0.997833,51.482377],[-0.998349,51.483281],[-0.997527,51.48347],[-0.998399,51.484305],[-0.993837,51.485191],[-0.994331,51.485973],[-0.993375,51.486296],[-0.991489,51.485208],[-0.989029,51.485732],[-0.986936,51.48574],[-0.984121,51.484963],[-0.98191,51.485068],[-0.979905,51.485675],[-0.978559,51.485581],[-0.978622,51.487311],[-0.97928,51.487526],[-0.977775,51.488353],[-0.975967,51.488345],[-0.975359,51.487407],[-0.974318,51.486724],[-0.971598,51.487628],[-0.969918,51.489313],[-0.970254,51.490501],[-0.969537,51.490764],[-0.969201,51.490172],[-0.967478,51.490845],[-0.967227,51.490615],[-0.966014,51.490917],[-0.964565,51.491438],[-0.964996,51.492056],[-0.961805,51.493092],[-0.957487,51.493081],[-0.956647,51.49207],[-0.95547,51.491391],[-0.955999,51.491045],[-0.953568,51.488438]]]}}]}