{"type":"FeatureCollection","features":[{"type":"Feature","properties":{"slug":"redbridge","gss_code":"E09000026","name":"Redbridge"},"geometry":{"type":"Polygon","coordinates":[[[0.037478,51.618326],[0.037545,51.6179],[0.040215,51.616411],[0.040014,51.616097],[0.040788,51.615729],[0.042187,51.616512],[0.044138,51.617051],[0.047861,51.617411],[0.053098,51.618423],[0.053673,51.618279],[0.054451,51.61761],[0.054165,51.616681],[0.053268,51.616343],[0.051905,51.616898],[0.050155,51.616417],[0.048496,51.615032],[0.048566,51.61385],[0.047956,51.613303],[0.048243,51.613118],[0.048866,51.613577],[0.062623,51.60704],[0.06396,51.607242],[0.065967,51.606321],[0.072812,51.604682],[0.076698,51.606309],[0.079369,51.607038],[0.084444,51.60634],[0.087142,51.604415],[0.088837,51.60486],[0.089189,51.605415],[0.092545,51.606193],[0.091735,51.60741],[0.091941,51.60823],[0.092638,51.609421],[0.093913,51.609839],[0.094204,51.610669],[0.094653,51.610791],[0.093571,51.61252],[0.092285,51.613574],[0.098068,51.615422],[0.10019,51.61273],[0.103415,51.613454],[0.103838,51.612551],[0.109632,51.613962],[0.11671,51.616922],[0.118607,51.615367],[0.119307,51.615369],[0.124199,51.617506],[0.126098,51.619643],[0.128839,51.620668],[0.129189,51.621404],[0.135811,51.623547],[0.138184,51.623545],[0.144374,51.616805],[0.145513,51.614535],[0.147541,51.612223],[0.148702,51.608698],[0.148618,51.60444],[0.14951,51.602904],[0.148206,51.598968],[0.1466,51.599436],[0.137595,51.593894],[0.129574,51.590046],[0.131022,51.587524],[0.126387,51.586725],[0.127259,51.583926],[0.127662,51.583879],[0.128093,51.582833],[0.127759,51.581636],[0.132555,51.581307],[0.133567,51.579954],[0.130824,51.579365],[0.131643,51.577085],[0.129191,51.576312],[0.129444,51.573944],[0.1301,51.573064],[0.13091,51.573342],[0.131579,51.571824],[0.129907,51.571538],[0.130026,51.57073],[0.130423,51.57067],[0.130459,51.570282],[0.129324,51.566525],[0.12768,51.566161],[0.125029,51.564341],[0.119051,51.563052],[0.118878,51.562733],[0.119746,51.562507],[0.117487,51.55918],[0.120492,51.558573],[0.118901,51.557371],[0.117085,51.557418],[0.117085,51.556912],[0.113273,51.557267],[0.112737,51.556525],[0.114743,51.555318],[0.112354,51.553502],[0.111947,51.552669],[0.108419,51.552696],[0.108319,51.552157],[0.107456,51.552002],[0.104316,51.549842],[0.099769,51.548427],[0.09352,51.545858],[0.092268,51.548637],[0.092608,51.54965],[0.091704,51.54911],[0.091537,51.548303],[0.085892,51.547344],[0.08166,51.545585],[0.081513,51.54517],[0.07796,51.544052],[0.077494,51.544574],[0.077033,51.54438],[0.07681,51.544585],[0.075549,51.544011],[0.071957,51.543811],[0.07181,51.543562],[0.069711,51.544066],[0.069665,51.546447],[0.068981,51.548976],[0.069459,51.550384],[0.068606,51.551378],[0.067984,51.554299],[0.066011,51.556794],[0.063263,51.558253],[0.061934,51.558121],[0.060955,51.558476],[0.058061,51.560752],[0.057396,51.56085],[0.060725,51.558425],[0.06188,51.557996],[0.064065,51.557818],[0.065871,51.556721],[0.067576,51.554658],[0.068327,51.551427],[0.069246,51.550293],[0.068716,51.549019],[0.069422,51.546328],[0.069344,51.544154],[0.068362,51.54439],[0.068713,51.547464],[0.067785,51.553267],[0.06693,51.553282],[0.066607,51.554719],[0.063643,51.557276],[0.060151,51.556407],[0.058705,51.557216],[0.058257,51.557877],[0.057197,51.558004],[0.056961,51.55867],[0.056315,51.558587],[0.055662,51.559353],[0.054442,51.559627],[0.054098,51.560841],[0.05156,51.562172],[0.050345,51.564022],[0.042029,51.561492],[0.042937,51.558361],[0.04434,51.557591],[0.046273,51.55483],[0.03543,51.555258],[0.032269,51.55459],[0.025518,51.554044],[0.025375,51.555545],[0.023794,51.555524],[0.023385,51.556788],[0.022713,51.556701],[0.022581,51.556094],[0.020474,51.556128],[0.017141,51.558841],[0.01482,51.559426],[0.014309,51.563508],[0.014465,51.565616],[0.017578,51.565664],[0.018859,51.566326],[0.018998,51.566976],[0.017683,51.570014],[0.019131,51.569855],[0.018921,51.572322],[0.018055,51.572037],[0.016487,51.572887],[0.017413,51.574486],[0.017506,51.577388],[0.015351,51.581643],[0.015704,51.581837],[0.015332,51.582475],[0.015541,51.583347],[0.013414,51.583784],[0.012096,51.592691],[0.012966,51.599123],[0.019145,51.60779],[0.019579,51.607611],[0.019281,51.608246],[0.021425,51.611092],[0.02125,51.612307],[0.016274,51.616857],[0.008694,51.61907],[0.014538,51.618893],[0.014728,51.619761],[0.014271,51.620277],[0.015906,51.620949],[0.016229,51.621775],[0.017053,51.621987],[0.017058,51.622356],[0.017711,51.622343],[0.018845,51.623256],[0.018492,51.623505],[0.019066,51.623669],[0.018782,51.624092],[0.01912,51.625045],[0.020088,51.626429],[0.019939,51.627006],[0.02058,51.627335],[0.020996,51.628918],[0.021819,51.628833],[0.024588,51.627518],[0.026834,51.625907],[0.029076,51.625117],[0.028937,51.624677],[0.030727,51.623636],[0.030524,51.623292],[0.031503,51.623093],[0.037478,51.618326]]]}}]}