{"type":"FeatureCollection","features":[{"type":"Feature","properties":{"slug":"redcar-and-cleveland","gss_code":"E06000003","name":"Redcar and Cleveland"},"geometry":{"type":"MultiPolygon","coordinates":[[[[-1.200374,54.576979],[-1.201743,54.577567],[-1.200981,54.577633],[-1.200374,54.576979]]],[[[-1.15097,54.631955],[-1.151298,54.632227],[-1.15057,54.633488],[-1.151294,54.634584],[-1.150944,54.635214],[-1.149636,54.635018],[-1.149409,54.634682],[-1.150301,54.632207],[-1.15097,54.631955]]],[[[-1.131548,54.636548],[-1.126986,54.634986],[-1.120386,54.63112],[-1.112781,54.627709],[-1.101178,54.623974],[-1.088824,54.621135],[-1.083442,54.620654],[-1.074113,54.621377],[-1.071263,54.621227],[-1.065139,54.619352],[-1.063125,54.619108],[-1.063145,54.618896],[-1.053957,54.616861],[-1.051253,54.615883],[-1.043243,54.609757],[-1.039533,54.60735],[-1.022877,54.600332],[-1.001799,54.593585],[-0.984425,54.589435],[-0.969453,54.586159],[-0.961062,54.584901],[-0.956471,54.58527],[-0.954109,54.586037],[-0.950082,54.586603],[-0.942992,54.589078],[-0.938367,54.588982],[-0.936742,54.588574],[-0.934302,54.587337],[-0.926656,54.586771],[-0.920088,54.58478],[-0.917441,54.582824],[-0.917113,54.581488],[-0.912572,54.579754],[-0.908758,54.577127],[-0.904955,54.575041],[-0.901484,54.573868],[-0.900287,54.5752],[-0.900896,54.574044],[-0.897963,54.571282],[-0.897504,54.572332],[-0.896667,54.571757],[-0.897159,54.571764],[-0.896727,54.571374],[-0.895531,54.57113],[-0.884239,54.57148],[-0.880748,54.570334],[-0.878375,54.56993],[-0.872478,54.569499],[-0.86922,54.570179],[-0.867553,54.570939],[-0.865965,54.570933],[-0.863266,54.571548],[-0.853434,54.57178],[-0.846819,54.570273],[-0.84488,54.570364],[-0.84213,54.56963],[-0.841028,54.568599],[-0.834704,54.56736],[-0.834003,54.566792],[-0.829812,54.565822],[-0.826175,54.562861],[-0.824154,54.561907],[-0.817937,54.561175],[-0.812085,54.559475],[-0.810251,54.559371],[-0.80893,54.558597],[-0.80621,54.558951],[-0.803789,54.558653],[-0.802368,54.559062],[-0.801945,54.558786],[-0.800514,54.559722],[-0.799447,54.559838],[-0.796865,54.558941],[-0.792836,54.560607],[-0.79174,54.560739],[-0.791103,54.560312],[-0.788625,54.560787],[-0.791069,54.560304],[-0.790679,54.559627],[-0.792819,54.559564],[-0.793878,54.558909],[-0.794251,54.558443],[-0.793967,54.558586],[-0.794264,54.557502],[-0.795487,54.557151],[-0.7961,54.556615],[-0.79555,54.554872],[-0.798787,54.555618],[-0.798506,54.555089],[-0.797384,54.554631],[-0.797252,54.554146],[-0.800581,54.551838],[-0.800419,54.551011],[-0.801847,54.551409],[-0.804925,54.550895],[-0.806465,54.551432],[-0.80812,54.551241],[-0.8096,54.551713],[-0.810528,54.551219],[-0.813066,54.552042],[-0.814734,54.551686],[-0.815676,54.552507],[-0.818921,54.550703],[-0.820399,54.549362],[-0.825106,54.549082],[-0.827081,54.548519],[-0.827868,54.547406],[-0.829551,54.546872],[-0.830898,54.545468],[-0.832587,54.545153],[-0.834844,54.543289],[-0.836545,54.542619],[-0.838666,54.5398],[-0.841623,54.537669],[-0.842153,54.53602],[-0.843902,54.534799],[-0.844596,54.53348],[-0.848647,54.530004],[-0.850145,54.527623],[-0.850074,54.526487],[-0.850701,54.526339],[-0.849928,54.524969],[-0.850407,54.524187],[-0.851429,54.524004],[-0.850649,54.523425],[-0.849948,54.519955],[-0.851191,54.518373],[-0.852184,54.51806],[-0.852235,54.51761],[-0.85129,54.513684],[-0.850206,54.511461],[-0.852327,54.510377],[-0.852347,54.505629],[-0.853321,54.502714],[-0.848615,54.495532],[-0.845059,54.492637],[-0.843942,54.491225],[-0.844139,54.48955],[-0.848531,54.487973],[-0.856262,54.487849],[-0.863494,54.489083],[-0.866979,54.489241],[-0.875781,54.491165],[-0.876337,54.495389],[-0.877173,54.494962],[-0.878187,54.495329],[-0.880645,54.496471],[-0.880825,54.497047],[-0.894213,54.496912],[-0.894218,54.496369],[-0.895786,54.495603],[-0.901416,54.494202],[-0.916366,54.492224],[-0.922947,54.491018],[-0.929035,54.491638],[-0.932611,54.491455],[-0.943987,54.488689],[-0.952952,54.488036],[-0.967829,54.497268],[-0.987386,54.500858],[-1.003401,54.503012],[-1.0238,54.502045],[-1.036851,54.494044],[-1.039486,54.495119],[-1.04211,54.495252],[-1.044506,54.495994],[-1.051008,54.496405],[-1.057674,54.498985],[-1.060024,54.500359],[-1.0648,54.498519],[-1.067927,54.500448],[-1.073813,54.502619],[-1.078198,54.503822],[-1.08734,54.503353],[-1.094737,54.506696],[-1.106187,54.505701],[-1.111783,54.504374],[-1.111637,54.502039],[-1.112266,54.500797],[-1.113201,54.500347],[-1.114324,54.498964],[-1.11838,54.498199],[-1.122811,54.49899],[-1.126654,54.498721],[-1.130852,54.500037],[-1.146197,54.502822],[-1.146262,54.503112],[-1.144077,54.503819],[-1.142862,54.504802],[-1.141119,54.507767],[-1.139468,54.509267],[-1.137369,54.514995],[-1.139959,54.515808],[-1.142499,54.515957],[-1.147329,54.515264],[-1.148245,54.514401],[-1.15322,54.516129],[-1.155949,54.516291],[-1.15974,54.515837],[-1.16154,54.518471],[-1.161818,54.520197],[-1.164994,54.521943],[-1.162553,54.523546],[-1.161567,54.52506],[-1.164362,54.525676],[-1.167804,54.526965],[-1.180807,54.533522],[-1.191433,54.539318],[-1.198808,54.544247],[-1.198764,54.544565],[-1.195683,54.545204],[-1.190684,54.547903],[-1.185951,54.549099],[-1.179193,54.550213],[-1.176826,54.551576],[-1.173554,54.552839],[-1.166663,54.554053],[-1.168881,54.55644],[-1.170729,54.557416],[-1.172293,54.559302],[-1.175865,54.561223],[-1.175829,54.5638],[-1.176467,54.564977],[-1.176429,54.566531],[-1.177745,54.568474],[-1.183554,54.569222],[-1.184851,54.569795],[-1.186571,54.572659],[-1.190309,54.574876],[-1.194241,54.574353],[-1.200287,54.576941],[-1.200948,54.577693],[-1.198687,54.578053],[-1.194335,54.579865],[-1.197515,54.582104],[-1.197092,54.582293],[-1.196155,54.581858],[-1.195734,54.582211],[-1.19608,54.582695],[-1.191726,54.585387],[-1.190374,54.585723],[-1.186623,54.588462],[-1.185516,54.58913],[-1.185091,54.588986],[-1.185095,54.589388],[-1.184452,54.589367],[-1.184449,54.589773],[-1.183803,54.590136],[-1.183342,54.589934],[-1.183438,54.590393],[-1.182846,54.590197],[-1.183048,54.590595],[-1.182481,54.590966],[-1.182183,54.590722],[-1.181284,54.591144],[-1.169465,54.598854],[-1.16773,54.599566],[-1.163776,54.602062],[-1.163252,54.60189],[-1.163457,54.602295],[-1.160216,54.604163],[-1.160189,54.6045],[-1.151707,54.599501],[-1.148053,54.598653],[-1.146747,54.599082],[-1.146958,54.599492],[-1.149323,54.600469],[-1.149611,54.600333],[-1.157534,54.605417],[-1.156214,54.606367],[-1.156482,54.606732],[-1.154193,54.608896],[-1.153236,54.609001],[-1.151748,54.611779],[-1.149576,54.612452],[-1.149756,54.613006],[-1.151776,54.614531],[-1.150559,54.614389],[-1.132662,54.608227],[-1.1351,54.609299],[-1.132358,54.608508],[-1.132657,54.609012],[-1.135369,54.609539],[-1.150841,54.615136],[-1.150766,54.620487],[-1.151892,54.621942],[-1.152443,54.621999],[-1.152223,54.62165],[-1.152508,54.621987],[-1.153349,54.625485],[-1.153359,54.626148],[-1.152975,54.626232],[-1.153236,54.626824],[-1.152577,54.626747],[-1.151988,54.627858],[-1.152727,54.628117],[-1.153401,54.627411],[-1.154092,54.627394],[-1.15341,54.626909],[-1.154582,54.627546],[-1.153289,54.628404],[-1.154104,54.628918],[-1.153979,54.629198],[-1.15226,54.629553],[-1.151398,54.62884],[-1.149623,54.628255],[-1.144679,54.627608],[-1.143255,54.628002],[-1.139807,54.628124],[-1.137665,54.629176],[-1.13615,54.630461],[-1.136279,54.63166],[-1.137544,54.632269],[-1.138282,54.633516],[-1.140094,54.634449],[-1.139846,54.635132],[-1.141077,54.635175],[-1.140167,54.636074],[-1.140733,54.63658],[-1.140934,54.635833],[-1.141095,54.637095],[-1.1402,54.638256],[-1.14131,54.6383],[-1.14206,54.637841],[-1.14269,54.63697],[-1.142396,54.636516],[-1.143135,54.636905],[-1.142882,54.637702],[-1.140549,54.639625],[-1.140093,54.644054],[-1.139043,54.644894],[-1.138297,54.646774],[-1.137533,54.647498],[-1.137193,54.647496],[-1.137245,54.647124],[-1.138121,54.644419],[-1.135346,54.643864],[-1.134565,54.643274],[-1.134853,54.642959],[-1.135911,54.642881],[-1.136417,54.642083],[-1.136135,54.640223],[-1.134832,54.638594],[-1.131548,54.636548]]]]}}]}