{"type":"FeatureCollection","features":[{"type":"Feature","properties":{"slug":"redditch","gss_code":"E07000236","name":"Redditch"},"geometry":{"type":"Polygon","coordinates":[[[-1.922065,52.322477],[-1.91415,52.323075],[-1.912153,52.32297],[-1.909388,52.323515],[-1.908784,52.320473],[-1.899005,52.321783],[-1.898968,52.322067],[-1.897545,52.321547],[-1.895025,52.321849],[-1.893028,52.321353],[-1.891869,52.321426],[-1.890956,52.320504],[-1.890007,52.318242],[-1.880983,52.310934],[-1.878598,52.308389],[-1.877529,52.306375],[-1.876289,52.305496],[-1.875207,52.305482],[-1.875229,52.30426],[-1.875996,52.304247],[-1.877696,52.300599],[-1.879451,52.29968],[-1.879379,52.299273],[-1.880201,52.299061],[-1.880509,52.297648],[-1.881423,52.296923],[-1.882621,52.294687],[-1.883195,52.294674],[-1.883696,52.294107],[-1.884393,52.291903],[-1.885865,52.291746],[-1.886545,52.290949],[-1.885589,52.290563],[-1.886808,52.288351],[-1.886148,52.287597],[-1.8864,52.286785],[-1.887198,52.286438],[-1.891385,52.285923],[-1.893419,52.283735],[-1.89513,52.282815],[-1.895499,52.28272],[-1.896679,52.283694],[-1.901032,52.28339],[-1.900654,52.28227],[-1.90358,52.280719],[-1.902855,52.280133],[-1.90317,52.279746],[-1.911661,52.276997],[-1.91438,52.275445],[-1.915977,52.275034],[-1.92113,52.27648],[-1.926025,52.2761],[-1.927655,52.275439],[-1.929253,52.275503],[-1.934267,52.276945],[-1.935422,52.276933],[-1.937403,52.276127],[-1.938687,52.270498],[-1.938074,52.268863],[-1.936213,52.266597],[-1.93521,52.266806],[-1.935134,52.266216],[-1.935837,52.265996],[-1.935749,52.264507],[-1.934387,52.264594],[-1.934765,52.262912],[-1.936415,52.262757],[-1.935814,52.261518],[-1.936573,52.260409],[-1.934114,52.259988],[-1.935415,52.256863],[-1.93421,52.256775],[-1.934779,52.256033],[-1.934411,52.254493],[-1.935328,52.254507],[-1.934611,52.252018],[-1.935961,52.252201],[-1.935862,52.251915],[-1.939097,52.251742],[-1.939338,52.252008],[-1.93951,52.251526],[-1.942221,52.25175],[-1.946054,52.251183],[-1.946056,52.250778],[-1.946668,52.250715],[-1.946388,52.250052],[-1.947278,52.24907],[-1.947425,52.24829],[-1.949774,52.248101],[-1.951646,52.247145],[-1.951262,52.245085],[-1.952474,52.24411],[-1.952824,52.24419],[-1.952995,52.243682],[-1.95503,52.244069],[-1.957606,52.24282],[-1.957881,52.241693],[-1.958578,52.241621],[-1.958629,52.240039],[-1.959606,52.240685],[-1.961411,52.24076],[-1.962739,52.240461],[-1.963135,52.239832],[-1.964984,52.240035],[-1.966229,52.23901],[-1.967622,52.237036],[-1.97294,52.237558],[-1.975073,52.236772],[-1.981604,52.238218],[-1.982413,52.238683],[-1.983522,52.237681],[-1.985242,52.237961],[-1.986285,52.237623],[-1.987096,52.238068],[-1.990372,52.23842],[-1.991323,52.239474],[-1.994022,52.239861],[-1.993081,52.236294],[-1.993508,52.235589],[-1.994656,52.235271],[-1.9974,52.235773],[-1.997487,52.236189],[-2.005853,52.235589],[-2.006424,52.23627],[-2.007957,52.236671],[-2.00907,52.236504],[-2.009518,52.236101],[-2.01308,52.236827],[-2.014474,52.236697],[-2.014415,52.237102],[-2.015124,52.237485],[-2.0157,52.236983],[-2.016739,52.237275],[-2.018864,52.240508],[-2.01891,52.241472],[-2.017886,52.243666],[-2.017275,52.247075],[-2.015413,52.252372],[-2.013725,52.253235],[-2.013327,52.254311],[-2.01311,52.255403],[-2.013764,52.25647],[-2.012985,52.257765],[-2.013333,52.257633],[-2.011355,52.26008],[-2.011241,52.262627],[-2.01124,52.262885],[-2.012091,52.26304],[-2.012234,52.264425],[-2.013231,52.264258],[-2.013986,52.26568],[-2.013239,52.266128],[-2.015389,52.267251],[-2.01553,52.270002],[-2.012158,52.270524],[-2.011544,52.27088],[-2.009796,52.270905],[-2.007162,52.270253],[-2.00583,52.270593],[-2.004208,52.272022],[-2.003198,52.273632],[-2.007044,52.275386],[-2.006657,52.275688],[-2.005404,52.275677],[-2.002492,52.276805],[-2.003909,52.278605],[-1.997953,52.283598],[-1.999175,52.285634],[-2.002018,52.288139],[-1.994862,52.290515],[-1.992797,52.290613],[-1.990895,52.29205],[-1.988427,52.289902],[-1.984151,52.2921],[-1.985181,52.293393],[-1.983715,52.295027],[-1.984047,52.295397],[-1.983413,52.298756],[-1.984839,52.298963],[-1.984983,52.300093],[-1.981597,52.299332],[-1.980602,52.300232],[-1.979108,52.300898],[-1.976492,52.30371],[-1.979873,52.306064],[-1.982006,52.308306],[-1.980631,52.309211],[-1.977424,52.309843],[-1.973974,52.308422],[-1.968686,52.312965],[-1.969603,52.315026],[-1.960717,52.314699],[-1.960202,52.315083],[-1.960512,52.315661],[-1.95994,52.315933],[-1.959918,52.31639],[-1.958348,52.317547],[-1.9586,52.318217],[-1.957871,52.318313],[-1.956986,52.317641],[-1.955767,52.318983],[-1.955012,52.320962],[-1.952586,52.319866],[-1.950008,52.321979],[-1.944873,52.321517],[-1.943009,52.320931],[-1.94095,52.323237],[-1.93931,52.323759],[-1.93309,52.324212],[-1.926325,52.323707],[-1.922065,52.322477]]]}}]}