{"type":"FeatureCollection","features":[{"type":"Feature","properties":{"slug":"reigate-and-banstead","gss_code":"E07000211","name":"Reigate and Banstead"},"geometry":{"type":"Polygon","coordinates":[[[-0.196267,51.343039],[-0.196047,51.34333],[-0.193229,51.342626],[-0.187459,51.340812],[-0.17502,51.33381],[-0.174666,51.333168],[-0.174139,51.333212],[-0.172855,51.330013],[-0.169894,51.330246],[-0.170066,51.329474],[-0.163077,51.330264],[-0.162291,51.328889],[-0.163971,51.328583],[-0.163982,51.328188],[-0.164362,51.328126],[-0.163567,51.326213],[-0.164187,51.326041],[-0.1606,51.323241],[-0.158635,51.323976],[-0.156524,51.321485],[-0.16188,51.319626],[-0.161177,51.317523],[-0.160481,51.316873],[-0.159581,51.317105],[-0.159314,51.315956],[-0.15717,51.31339],[-0.15833,51.310985],[-0.156228,51.310421],[-0.154315,51.310318],[-0.157163,51.306709],[-0.154509,51.306449],[-0.155023,51.305791],[-0.157735,51.304428],[-0.156684,51.303589],[-0.155318,51.301274],[-0.153361,51.301678],[-0.149815,51.300204],[-0.149496,51.300701],[-0.148452,51.300704],[-0.145625,51.299828],[-0.144852,51.300713],[-0.144423,51.300541],[-0.143578,51.301245],[-0.142839,51.300025],[-0.140865,51.299576],[-0.137213,51.300742],[-0.136167,51.298279],[-0.134356,51.298376],[-0.131041,51.295476],[-0.13133,51.294625],[-0.130288,51.292889],[-0.126335,51.289664],[-0.126049,51.288403],[-0.124302,51.28679],[-0.127336,51.286438],[-0.126797,51.284917],[-0.130985,51.284815],[-0.130138,51.281732],[-0.130401,51.279547],[-0.131494,51.276833],[-0.130249,51.274359],[-0.129986,51.272557],[-0.132023,51.269683],[-0.132037,51.26902],[-0.129674,51.266525],[-0.130094,51.265605],[-0.128635,51.264147],[-0.126825,51.2641],[-0.126802,51.261737],[-0.127608,51.261652],[-0.129624,51.259891],[-0.131522,51.256559],[-0.131793,51.25417],[-0.135135,51.254717],[-0.139447,51.253338],[-0.142949,51.253323],[-0.144199,51.251807],[-0.145738,51.251214],[-0.144898,51.250229],[-0.144373,51.247927],[-0.142734,51.245786],[-0.143076,51.243876],[-0.145288,51.241592],[-0.145328,51.24059],[-0.146023,51.239566],[-0.145307,51.237297],[-0.148067,51.234176],[-0.149434,51.234594],[-0.150388,51.235997],[-0.151393,51.234937],[-0.152192,51.23504],[-0.153007,51.234378],[-0.155047,51.230726],[-0.153357,51.227136],[-0.152488,51.226771],[-0.152947,51.226324],[-0.149484,51.221916],[-0.147442,51.219945],[-0.145241,51.216216],[-0.144766,51.216232],[-0.144539,51.213574],[-0.145593,51.210728],[-0.143745,51.210744],[-0.135868,51.212074],[-0.135654,51.210527],[-0.136747,51.20754],[-0.137321,51.206595],[-0.13775,51.206609],[-0.137904,51.203991],[-0.137024,51.200569],[-0.137776,51.195971],[-0.139366,51.192986],[-0.141555,51.191473],[-0.141602,51.190672],[-0.142955,51.190392],[-0.143508,51.186535],[-0.141491,51.186443],[-0.140324,51.185969],[-0.141667,51.184852],[-0.139419,51.182546],[-0.136695,51.181204],[-0.135885,51.179312],[-0.136367,51.177932],[-0.135131,51.177359],[-0.134909,51.176498],[-0.12898,51.174791],[-0.127719,51.16504],[-0.128234,51.162842],[-0.135796,51.160741],[-0.140359,51.160416],[-0.140462,51.160047],[-0.146232,51.160278],[-0.153143,51.159844],[-0.154514,51.16004],[-0.156422,51.159597],[-0.160892,51.159769],[-0.163496,51.16027],[-0.166954,51.161537],[-0.176706,51.16685],[-0.177357,51.168928],[-0.176597,51.169763],[-0.176755,51.170198],[-0.179016,51.170958],[-0.179173,51.171896],[-0.180183,51.172545],[-0.182006,51.172403],[-0.182899,51.173248],[-0.182743,51.174492],[-0.183316,51.174929],[-0.18664,51.17522],[-0.186276,51.175729],[-0.18739,51.176456],[-0.187512,51.177467],[-0.188783,51.177868],[-0.188833,51.178335],[-0.189849,51.178293],[-0.18984,51.178843],[-0.18801,51.179828],[-0.187696,51.180323],[-0.189658,51.181071],[-0.189819,51.181414],[-0.191447,51.181287],[-0.19263,51.180732],[-0.195919,51.180766],[-0.198597,51.181385],[-0.199627,51.181106],[-0.200592,51.180634],[-0.200734,51.180115],[-0.19957,51.17901],[-0.198077,51.17637],[-0.196922,51.175355],[-0.19793,51.174534],[-0.201877,51.173638],[-0.202589,51.174238],[-0.206877,51.172563],[-0.210762,51.172388],[-0.211093,51.172947],[-0.212749,51.173617],[-0.213915,51.174684],[-0.214478,51.174336],[-0.218035,51.173987],[-0.21997,51.176266],[-0.221003,51.1759],[-0.221729,51.175022],[-0.22376,51.174873],[-0.225467,51.177057],[-0.227875,51.178185],[-0.229027,51.179239],[-0.228942,51.18026],[-0.234622,51.181235],[-0.236683,51.182655],[-0.236188,51.183418],[-0.237245,51.184424],[-0.239172,51.184035],[-0.239126,51.183424],[-0.241635,51.183296],[-0.243085,51.182798],[-0.243427,51.18419],[-0.245159,51.186733],[-0.245013,51.188079],[-0.244612,51.1883],[-0.243798,51.18811],[-0.243434,51.188772],[-0.243007,51.188801],[-0.243247,51.189202],[-0.242906,51.189472],[-0.241639,51.18946],[-0.241375,51.18906],[-0.239808,51.189269],[-0.239647,51.188969],[-0.238155,51.189361],[-0.237901,51.188539],[-0.23852,51.188629],[-0.237969,51.18733],[-0.238469,51.187124],[-0.237022,51.186877],[-0.236821,51.186437],[-0.23632,51.186879],[-0.236508,51.187255],[-0.23517,51.187126],[-0.234341,51.187798],[-0.233447,51.186617],[-0.228469,51.187452],[-0.227277,51.189225],[-0.227165,51.191579],[-0.221816,51.191868],[-0.221706,51.191369],[-0.220905,51.190828],[-0.218936,51.190937],[-0.218066,51.191614],[-0.21556,51.192281],[-0.215819,51.192912],[-0.212821,51.193319],[-0.214861,51.195003],[-0.215968,51.196802],[-0.215766,51.198097],[-0.214658,51.199473],[-0.21764,51.200792],[-0.218568,51.201853],[-0.219439,51.201999],[-0.219677,51.201242],[-0.220724,51.200978],[-0.220098,51.200647],[-0.220767,51.200233],[-0.22004,51.199767],[-0.220484,51.199495],[-0.21995,51.199095],[-0.220507,51.198909],[-0.220734,51.198295],[-0.22157,51.1983],[-0.221177,51.197758],[-0.221706,51.197291],[-0.221205,51.197278],[-0.220989,51.196085],[-0.223585,51.195958],[-0.224143,51.1992],[-0.225116,51.201285],[-0.224777,51.202118],[-0.223419,51.202009],[-0.223145,51.203843],[-0.22628,51.204144],[-0.226554,51.205807],[-0.228288,51.206977],[-0.229549,51.206948],[-0.231556,51.204772],[-0.232672,51.204316],[-0.234758,51.206086],[-0.234869,51.20627],[-0.230724,51.207253],[-0.233552,51.209035],[-0.232428,51.20972],[-0.230397,51.210177],[-0.228633,51.209824],[-0.226458,51.210739],[-0.225098,51.212311],[-0.225972,51.213178],[-0.227334,51.213476],[-0.227289,51.213962],[-0.228669,51.213545],[-0.229949,51.213712],[-0.23151,51.213232],[-0.233013,51.2134],[-0.234872,51.214569],[-0.233794,51.215288],[-0.234375,51.21582],[-0.233811,51.216203],[-0.234176,51.217731],[-0.234578,51.218249],[-0.235279,51.218306],[-0.23465,51.21903],[-0.235641,51.219203],[-0.236069,51.219874],[-0.234851,51.221009],[-0.236094,51.221754],[-0.235421,51.222356],[-0.2376,51.222796],[-0.239155,51.223526],[-0.240226,51.223382],[-0.240945,51.2239],[-0.242684,51.22341],[-0.243063,51.224167],[-0.242536,51.224496],[-0.242986,51.224763],[-0.244348,51.22469],[-0.244356,51.22412],[-0.244818,51.224152],[-0.245036,51.224555],[-0.245736,51.224439],[-0.246972,51.223419],[-0.247656,51.224346],[-0.249165,51.22424],[-0.249171,51.225371],[-0.249978,51.225473],[-0.250265,51.225882],[-0.250085,51.22676],[-0.250758,51.227142],[-0.249354,51.227832],[-0.250283,51.228536],[-0.248802,51.229142],[-0.249924,51.231097],[-0.24893,51.232299],[-0.247858,51.232616],[-0.247519,51.233307],[-0.246863,51.233586],[-0.24719,51.234209],[-0.24598,51.234839],[-0.244873,51.236306],[-0.239463,51.237267],[-0.237712,51.236984],[-0.233906,51.23797],[-0.230701,51.240096],[-0.231773,51.242229],[-0.229965,51.245087],[-0.229251,51.24517],[-0.229714,51.24732],[-0.229324,51.247722],[-0.228159,51.24735],[-0.226482,51.24749],[-0.226314,51.248903],[-0.226542,51.249221],[-0.231545,51.250066],[-0.231523,51.250835],[-0.227853,51.251425],[-0.227954,51.252837],[-0.227216,51.253207],[-0.227354,51.253492],[-0.225974,51.253809],[-0.226757,51.255914],[-0.232012,51.258117],[-0.240686,51.260647],[-0.240913,51.259863],[-0.243486,51.260154],[-0.243945,51.26009],[-0.243747,51.259508],[-0.247637,51.259136],[-0.248697,51.259493],[-0.248879,51.260233],[-0.250865,51.260619],[-0.253348,51.260548],[-0.25457,51.259011],[-0.258407,51.257745],[-0.259225,51.257982],[-0.260835,51.25783],[-0.261422,51.259428],[-0.264122,51.260994],[-0.265744,51.261387],[-0.266474,51.262757],[-0.265775,51.265745],[-0.266874,51.268645],[-0.266125,51.273151],[-0.267055,51.274406],[-0.266243,51.278639],[-0.267324,51.281535],[-0.268873,51.284112],[-0.26948,51.286547],[-0.270247,51.287365],[-0.270215,51.289077],[-0.272234,51.29233],[-0.269849,51.294101],[-0.267456,51.297581],[-0.264399,51.299545],[-0.260454,51.299248],[-0.253525,51.299419],[-0.253283,51.299204],[-0.251601,51.299625],[-0.249894,51.29866],[-0.247069,51.297995],[-0.247245,51.298721],[-0.246379,51.302232],[-0.24322,51.306909],[-0.244087,51.309405],[-0.242672,51.310008],[-0.24292,51.310323],[-0.241002,51.309783],[-0.240662,51.31058],[-0.241405,51.311584],[-0.244055,51.311356],[-0.244368,51.312996],[-0.24364,51.31438],[-0.241252,51.316146],[-0.240959,51.317135],[-0.242932,51.321286],[-0.236583,51.325914],[-0.23417,51.327174],[-0.220842,51.329802],[-0.216085,51.329799],[-0.21423,51.330253],[-0.211968,51.333326],[-0.213054,51.335554],[-0.202055,51.34014],[-0.201199,51.339884],[-0.199557,51.341884],[-0.198558,51.342299],[-0.197319,51.343595],[-0.196541,51.343446],[-0.19669,51.343158],[-0.196267,51.343039]]]}}]}