{"type":"FeatureCollection","features":[{"type":"Feature","properties":{"slug":"ribble-valley","gss_code":"E07000124","name":"Ribble Valley"},"geometry":{"type":"Polygon","coordinates":[[[-2.361999,54.04067],[-2.364179,54.040093],[-2.361847,54.037949],[-2.362658,54.034446],[-2.359258,54.03175],[-2.361933,54.029245],[-2.361311,54.027999],[-2.361728,54.02723],[-2.359514,54.026393],[-2.360351,54.024318],[-2.359277,54.023428],[-2.35792,54.023333],[-2.357795,54.022476],[-2.356542,54.021472],[-2.357527,54.020226],[-2.357323,54.019117],[-2.35015,54.018622],[-2.349392,54.0177],[-2.345651,54.018195],[-2.343604,54.017327],[-2.34327,54.016016],[-2.339564,54.009321],[-2.339434,54.00883],[-2.340794,54.00749],[-2.342815,54.008797],[-2.347911,54.009969],[-2.350253,54.012183],[-2.352285,54.010553],[-2.353561,54.003638],[-2.35337,53.999914],[-2.352176,53.994612],[-2.345865,53.992395],[-2.339999,53.989477],[-2.338358,53.991232],[-2.335942,53.991656],[-2.334046,53.990882],[-2.333729,53.990433],[-2.326981,53.993797],[-2.325005,53.994058],[-2.319177,53.993821],[-2.318386,53.992093],[-2.317352,53.991097],[-2.31559,53.990336],[-2.31427,53.98862],[-2.311584,53.988167],[-2.310775,53.987525],[-2.310217,53.98776],[-2.309443,53.987464],[-2.304499,53.984585],[-2.30527,53.983858],[-2.300091,53.981453],[-2.296878,53.980583],[-2.296839,53.979277],[-2.298687,53.977543],[-2.298949,53.976546],[-2.295504,53.975206],[-2.295539,53.974595],[-2.29455,53.974467],[-2.292254,53.975006],[-2.287061,53.974475],[-2.286275,53.974767],[-2.284595,53.973789],[-2.247256,53.978815],[-2.246886,53.979184],[-2.245808,53.97928],[-2.245172,53.980689],[-2.243973,53.981195],[-2.243276,53.98117],[-2.24261,53.980698],[-2.241715,53.981108],[-2.241344,53.980829],[-2.239285,53.980852],[-2.238178,53.981184],[-2.236984,53.980965],[-2.234666,53.981431],[-2.234572,53.981856],[-2.233645,53.98177],[-2.233684,53.981167],[-2.232855,53.980973],[-2.230378,53.981559],[-2.228172,53.979992],[-2.227261,53.978462],[-2.22409,53.978702],[-2.221112,53.977902],[-2.223529,53.976207],[-2.22764,53.974956],[-2.232099,53.971216],[-2.230993,53.970812],[-2.229581,53.969381],[-2.229152,53.968534],[-2.229839,53.967692],[-2.229371,53.96734],[-2.228746,53.967059],[-2.227591,53.967458],[-2.225922,53.967277],[-2.225316,53.965034],[-2.225937,53.962798],[-2.225674,53.96112],[-2.220612,53.963554],[-2.214488,53.965107],[-2.212985,53.963775],[-2.212991,53.963364],[-2.209639,53.962899],[-2.207039,53.965186],[-2.206657,53.966401],[-2.203173,53.967791],[-2.201667,53.967846],[-2.201484,53.968811],[-2.200403,53.969675],[-2.200635,53.970126],[-2.196018,53.969576],[-2.195589,53.966344],[-2.193616,53.9614],[-2.191286,53.958079],[-2.188155,53.955208],[-2.187768,53.954183],[-2.186169,53.95356],[-2.184464,53.952211],[-2.186806,53.95097],[-2.189943,53.949875],[-2.194482,53.948507],[-2.198847,53.94773],[-2.202391,53.946723],[-2.203889,53.945885],[-2.206921,53.945082],[-2.209733,53.943424],[-2.21487,53.942188],[-2.215429,53.941564],[-2.217267,53.9424],[-2.218155,53.943543],[-2.219847,53.943202],[-2.220545,53.943499],[-2.221944,53.943407],[-2.222777,53.942753],[-2.224175,53.942683],[-2.224001,53.943132],[-2.224872,53.943217],[-2.224948,53.943713],[-2.225539,53.94365],[-2.225704,53.942867],[-2.226179,53.94276],[-2.225222,53.941808],[-2.228715,53.941041],[-2.229917,53.939311],[-2.234039,53.938532],[-2.234861,53.937871],[-2.238057,53.936664],[-2.239493,53.936577],[-2.240475,53.93572],[-2.242366,53.935199],[-2.242803,53.934678],[-2.245841,53.933263],[-2.244614,53.930777],[-2.24443,53.926502],[-2.243738,53.923948],[-2.240787,53.91926],[-2.237578,53.915413],[-2.235163,53.90816],[-2.229392,53.90197],[-2.226941,53.898696],[-2.227373,53.897757],[-2.224773,53.897442],[-2.22297,53.896364],[-2.223164,53.894034],[-2.222923,53.893125],[-2.224066,53.890938],[-2.226544,53.889651],[-2.228833,53.888939],[-2.231948,53.888625],[-2.234533,53.887207],[-2.237106,53.887325],[-2.238455,53.886841],[-2.24194,53.886834],[-2.24771,53.885528],[-2.248605,53.885371],[-2.248903,53.885587],[-2.252596,53.883959],[-2.253499,53.883135],[-2.259196,53.882034],[-2.259305,53.881453],[-2.258549,53.880272],[-2.258773,53.877863],[-2.263513,53.87668],[-2.26354,53.876417],[-2.265688,53.875818],[-2.270191,53.875845],[-2.272867,53.878612],[-2.273696,53.878978],[-2.277672,53.877812],[-2.285841,53.873972],[-2.295947,53.872684],[-2.297262,53.872089],[-2.305093,53.870674],[-2.307956,53.868891],[-2.312378,53.865157],[-2.314606,53.864274],[-2.317585,53.862206],[-2.319046,53.861617],[-2.320221,53.860016],[-2.319502,53.858285],[-2.31752,53.857124],[-2.318068,53.856077],[-2.317862,53.855536],[-2.31591,53.854605],[-2.314221,53.854331],[-2.316996,53.851942],[-2.322134,53.851884],[-2.325173,53.85112],[-2.320829,53.850836],[-2.318534,53.850047],[-2.317928,53.846922],[-2.326461,53.845106],[-2.327069,53.844192],[-2.325216,53.842202],[-2.329294,53.842047],[-2.331254,53.842219],[-2.331743,53.842526],[-2.333076,53.841526],[-2.333623,53.840597],[-2.332706,53.840768],[-2.331635,53.841535],[-2.330432,53.840711],[-2.328503,53.840745],[-2.327032,53.839402],[-2.322942,53.837984],[-2.319092,53.839472],[-2.318818,53.839207],[-2.308878,53.838419],[-2.308561,53.836291],[-2.302573,53.836395],[-2.301911,53.834067],[-2.302421,53.833196],[-2.302168,53.832287],[-2.305876,53.831304],[-2.307233,53.830477],[-2.305854,53.829543],[-2.30804,53.82888],[-2.313218,53.828724],[-2.317124,53.827828],[-2.314569,53.823156],[-2.316415,53.822792],[-2.315443,53.820838],[-2.316191,53.820692],[-2.315999,53.820259],[-2.317171,53.81932],[-2.317465,53.818278],[-2.316914,53.817272],[-2.317845,53.817057],[-2.316038,53.813547],[-2.314705,53.813805],[-2.313205,53.812465],[-2.315045,53.81169],[-2.315601,53.812647],[-2.31748,53.81218],[-2.317626,53.811872],[-2.318908,53.811726],[-2.319688,53.810635],[-2.320924,53.810695],[-2.321786,53.810234],[-2.323109,53.810105],[-2.325648,53.807779],[-2.325928,53.806512],[-2.327032,53.806462],[-2.328833,53.807045],[-2.329063,53.806688],[-2.329762,53.806639],[-2.332137,53.804123],[-2.332044,53.8033],[-2.332991,53.802823],[-2.334691,53.801067],[-2.33506,53.799724],[-2.334664,53.799036],[-2.335476,53.797885],[-2.335244,53.79728],[-2.336116,53.796572],[-2.336222,53.795447],[-2.338586,53.794988],[-2.340631,53.79517],[-2.342306,53.794827],[-2.343156,53.794435],[-2.343686,53.793374],[-2.344558,53.793282],[-2.348287,53.79441],[-2.356789,53.798456],[-2.357611,53.798194],[-2.358165,53.797417],[-2.359298,53.797062],[-2.358683,53.796367],[-2.358883,53.795299],[-2.357463,53.79481],[-2.356427,53.792991],[-2.357795,53.792889],[-2.359139,53.793244],[-2.359618,53.794335],[-2.360849,53.794669],[-2.362271,53.794579],[-2.363552,53.793493],[-2.365153,53.793059],[-2.369838,53.794139],[-2.371148,53.794982],[-2.37149,53.795715],[-2.369274,53.797619],[-2.369067,53.799314],[-2.369932,53.801391],[-2.371097,53.80153],[-2.374735,53.800662],[-2.377123,53.80084],[-2.378607,53.800515],[-2.379159,53.801078],[-2.378722,53.802376],[-2.379455,53.802726],[-2.389725,53.802397],[-2.393074,53.803238],[-2.397074,53.803008],[-2.398904,53.803539],[-2.397827,53.806082],[-2.398988,53.807853],[-2.399386,53.809848],[-2.398706,53.810522],[-2.395193,53.812228],[-2.393404,53.814326],[-2.393913,53.815171],[-2.396737,53.816619],[-2.398709,53.815787],[-2.399969,53.815823],[-2.401305,53.813923],[-2.407153,53.813317],[-2.423358,53.802811],[-2.433615,53.798493],[-2.440064,53.795223],[-2.444354,53.791052],[-2.447597,53.788971],[-2.447478,53.78748],[-2.44966,53.786837],[-2.454424,53.783736],[-2.459359,53.781544],[-2.462009,53.780926],[-2.463592,53.781029],[-2.464908,53.78068],[-2.467047,53.781483],[-2.469716,53.781791],[-2.473707,53.779899],[-2.477087,53.781048],[-2.477003,53.780468],[-2.477954,53.779943],[-2.478885,53.777666],[-2.480183,53.775957],[-2.480826,53.773992],[-2.484342,53.772795],[-2.485183,53.773051],[-2.486694,53.772794],[-2.498995,53.76862],[-2.50199,53.768898],[-2.504691,53.769717],[-2.50859,53.769433],[-2.509675,53.769068],[-2.511208,53.766687],[-2.514836,53.766204],[-2.515511,53.765613],[-2.515223,53.765255],[-2.515597,53.764715],[-2.518696,53.763915],[-2.51981,53.762357],[-2.520771,53.762203],[-2.52325,53.760409],[-2.524204,53.76044],[-2.525745,53.759666],[-2.528731,53.759493],[-2.528908,53.759865],[-2.529837,53.759907],[-2.531498,53.759584],[-2.532476,53.758739],[-2.536345,53.759046],[-2.536463,53.759515],[-2.538485,53.759933],[-2.539025,53.759605],[-2.53957,53.759925],[-2.544819,53.759155],[-2.545685,53.759393],[-2.546371,53.758813],[-2.547638,53.758777],[-2.549209,53.758061],[-2.549942,53.757497],[-2.549746,53.757155],[-2.551262,53.756366],[-2.552378,53.757515],[-2.553981,53.757721],[-2.557485,53.757295],[-2.558507,53.756686],[-2.560433,53.756201],[-2.561352,53.756288],[-2.561348,53.756843],[-2.562192,53.756697],[-2.563664,53.757231],[-2.564517,53.757872],[-2.563939,53.760752],[-2.56427,53.761989],[-2.55922,53.763578],[-2.552087,53.766673],[-2.54826,53.767663],[-2.545577,53.769139],[-2.547615,53.771364],[-2.547505,53.775871],[-2.555612,53.777404],[-2.562287,53.77681],[-2.566838,53.777208],[-2.574708,53.77509],[-2.577439,53.774958],[-2.580862,53.775544],[-2.582617,53.779986],[-2.584143,53.781117],[-2.585296,53.782718],[-2.585654,53.78224],[-2.587091,53.782183],[-2.588026,53.781755],[-2.588107,53.780821],[-2.589145,53.781105],[-2.589139,53.78069],[-2.591792,53.779517],[-2.592298,53.779581],[-2.592947,53.779017],[-2.594544,53.780464],[-2.59603,53.780594],[-2.596611,53.780958],[-2.598966,53.781082],[-2.599488,53.781471],[-2.599263,53.782221],[-2.601569,53.786889],[-2.601782,53.789683],[-2.59808,53.794721],[-2.596961,53.795653],[-2.595487,53.796158],[-2.595757,53.796712],[-2.597252,53.797339],[-2.598862,53.797424],[-2.601164,53.798701],[-2.601009,53.79898],[-2.602912,53.800637],[-2.608298,53.804216],[-2.61022,53.804658],[-2.6123,53.803896],[-2.612623,53.804913],[-2.61413,53.805886],[-2.615657,53.807888],[-2.616892,53.808888],[-2.620011,53.810382],[-2.622379,53.813802],[-2.624714,53.815565],[-2.621397,53.817236],[-2.620327,53.818111],[-2.619608,53.818186],[-2.61833,53.819177],[-2.617788,53.819089],[-2.617519,53.819486],[-2.616879,53.819418],[-2.615919,53.819949],[-2.615748,53.820745],[-2.615091,53.821173],[-2.615082,53.822571],[-2.613174,53.823609],[-2.611417,53.825298],[-2.611358,53.825927],[-2.610377,53.826994],[-2.610723,53.827788],[-2.610226,53.828749],[-2.610314,53.835007],[-2.607898,53.838772],[-2.620464,53.845546],[-2.62326,53.846719],[-2.620856,53.848887],[-2.619874,53.84873],[-2.617898,53.849335],[-2.616615,53.850643],[-2.614384,53.851109],[-2.615045,53.851562],[-2.61629,53.851717],[-2.616196,53.852026],[-2.618003,53.853462],[-2.618297,53.85414],[-2.619406,53.854706],[-2.619473,53.855529],[-2.62063,53.855475],[-2.620923,53.855958],[-2.620254,53.856415],[-2.623123,53.856354],[-2.624439,53.857254],[-2.626447,53.857865],[-2.627073,53.857753],[-2.627694,53.85841],[-2.628584,53.858699],[-2.628954,53.85931],[-2.628625,53.859723],[-2.629335,53.860003],[-2.628864,53.860805],[-2.629983,53.862205],[-2.628287,53.863377],[-2.627376,53.864949],[-2.625096,53.867023],[-2.626276,53.867979],[-2.625872,53.870197],[-2.626545,53.87241],[-2.627078,53.872878],[-2.626896,53.873821],[-2.627531,53.874433],[-2.625043,53.876216],[-2.626157,53.877618],[-2.626234,53.878509],[-2.625312,53.880316],[-2.629815,53.881899],[-2.635529,53.882827],[-2.636845,53.884536],[-2.636691,53.885553],[-2.634747,53.888422],[-2.635931,53.890269],[-2.638054,53.891129],[-2.64461,53.892716],[-2.645253,53.893259],[-2.645212,53.893764],[-2.64391,53.894621],[-2.642311,53.89507],[-2.640964,53.894734],[-2.637953,53.894634],[-2.635946,53.893638],[-2.633321,53.893082],[-2.629917,53.893262],[-2.628736,53.893887],[-2.625183,53.894626],[-2.623456,53.895791],[-2.622454,53.896018],[-2.616644,53.899797],[-2.613464,53.908271],[-2.615,53.912357],[-2.618714,53.916432],[-2.618569,53.916909],[-2.614397,53.919501],[-2.616539,53.923577],[-2.619375,53.927214],[-2.622575,53.929715],[-2.629648,53.930735],[-2.627244,53.934755],[-2.626437,53.938564],[-2.631189,53.940621],[-2.633957,53.942552],[-2.641143,53.945053],[-2.648217,53.948922],[-2.649699,53.949907],[-2.650832,53.952255],[-2.646162,53.955298],[-2.644643,53.956898],[-2.643043,53.957588],[-2.637525,53.958459],[-2.630405,53.95771],[-2.623652,53.95496],[-2.620205,53.952813],[-2.616902,53.952212],[-2.615079,53.953377],[-2.613738,53.955763],[-2.611124,53.956851],[-2.606577,53.956706],[-2.602919,53.957087],[-2.593812,53.959373],[-2.588847,53.960216],[-2.581643,53.964769],[-2.579306,53.967482],[-2.578351,53.971246],[-2.577424,53.972011],[-2.574109,53.972996],[-2.566734,53.973467],[-2.557526,53.974912],[-2.561055,53.976129],[-2.565803,53.979018],[-2.569295,53.981821],[-2.57219,53.983556],[-2.573825,53.985174],[-2.573968,53.986156],[-2.572242,53.986817],[-2.570917,53.98782],[-2.571315,53.989406],[-2.574326,53.991728],[-2.577229,53.993005],[-2.57742,53.994416],[-2.580653,54.000118],[-2.580492,54.001483],[-2.578947,54.004785],[-2.579588,54.006478],[-2.57926,54.007581],[-2.574775,54.012939],[-2.572186,54.014623],[-2.568111,54.015049],[-2.566951,54.014827],[-2.564308,54.015264],[-2.556891,54.015459],[-2.549195,54.013673],[-2.547106,54.014077],[-2.545859,54.014874],[-2.544145,54.019691],[-2.538727,54.022652],[-2.531985,54.023849],[-2.52731,54.026245],[-2.521851,54.022494],[-2.518679,54.021245],[-2.512881,54.022367],[-2.504208,54.020543],[-2.502681,54.020399],[-2.501419,54.020754],[-2.497755,54.02203],[-2.498936,54.023999],[-2.500493,54.024873],[-2.499187,54.025064],[-2.497761,54.025819],[-2.49789,54.027393],[-2.495594,54.02893],[-2.49289,54.032137],[-2.492834,54.034144],[-2.49399,54.036545],[-2.492291,54.040015],[-2.486658,54.042555],[-2.46955,54.046212],[-2.464676,54.043202],[-2.458775,54.040496],[-2.456629,54.040173],[-2.450755,54.040657],[-2.445324,54.042158],[-2.442388,54.042271],[-2.440358,54.041841],[-2.432734,54.041593],[-2.425826,54.038095],[-2.422523,54.040572],[-2.418943,54.041373],[-2.414435,54.042034],[-2.407709,54.042385],[-2.406221,54.04278],[-2.405544,54.042566],[-2.403829,54.043477],[-2.400463,54.043493],[-2.397058,54.044217],[-2.394741,54.043317],[-2.38966,54.044247],[-2.387164,54.045219],[-2.384422,54.047613],[-2.374073,54.049089],[-2.361999,54.04067]]]}}]}