{"type":"FeatureCollection","features":[{"type":"Feature","properties":{"slug":"richmond-upon-thames","gss_code":"E09000027","name":"Richmond upon Thames"},"geometry":{"type":"MultiPolygon","coordinates":[[[[-0.330668,51.438894],[-0.331482,51.43935],[-0.331186,51.439565],[-0.330668,51.438894]]],[[[-0.325056,51.444779],[-0.325488,51.445036],[-0.325138,51.444752],[-0.328068,51.443966],[-0.327172,51.444945],[-0.325787,51.445723],[-0.320908,51.446133],[-0.325056,51.444779]]],[[[-0.30845,51.457788],[-0.309919,51.458521],[-0.308738,51.458164],[-0.30845,51.457788]]],[[[-0.326886,51.461252],[-0.326861,51.461292],[-0.326877,51.461248],[-0.326886,51.461252]]],[[[-0.297419,51.484568],[-0.296409,51.485612],[-0.294794,51.485983],[-0.297419,51.484568]]],[[[-0.29453,51.48609],[-0.291881,51.48703],[-0.289888,51.487175],[-0.29453,51.48609]]],[[[-0.222919,51.471839],[-0.223713,51.471591],[-0.223408,51.471496],[-0.223617,51.470742],[-0.226954,51.471401],[-0.231194,51.472824],[-0.232733,51.472511],[-0.233483,51.467999],[-0.232874,51.466634],[-0.233627,51.466089],[-0.23329,51.463972],[-0.244246,51.465261],[-0.252951,51.465224],[-0.255947,51.463073],[-0.257958,51.460379],[-0.2568,51.459822],[-0.258467,51.457043],[-0.259111,51.454953],[-0.24729,51.449196],[-0.241599,51.443118],[-0.242722,51.441911],[-0.256186,51.436652],[-0.256319,51.436345],[-0.264549,51.43291],[-0.270905,51.429559],[-0.280399,51.421891],[-0.28656,51.420185],[-0.290616,51.42899],[-0.293009,51.428941],[-0.293394,51.426504],[-0.294792,51.426444],[-0.294721,51.426998],[-0.295431,51.427037],[-0.295484,51.427662],[-0.297677,51.428677],[-0.301594,51.431435],[-0.30208,51.43116],[-0.301754,51.430391],[-0.305918,51.431361],[-0.306411,51.430157],[-0.306882,51.43015],[-0.308543,51.430781],[-0.308068,51.431073],[-0.309758,51.432139],[-0.310651,51.43221],[-0.312904,51.430256],[-0.31443,51.428249],[-0.311054,51.426763],[-0.308362,51.425009],[-0.306707,51.423046],[-0.305931,51.421262],[-0.308253,51.415314],[-0.309049,51.409166],[-0.308734,51.402259],[-0.309499,51.400144],[-0.312108,51.398139],[-0.31293,51.397059],[-0.317698,51.393667],[-0.319833,51.392593],[-0.32586,51.39144],[-0.327587,51.391745],[-0.328672,51.392309],[-0.332288,51.395995],[-0.336711,51.399222],[-0.338993,51.401875],[-0.340531,51.403087],[-0.343719,51.403897],[-0.346874,51.405847],[-0.349199,51.406621],[-0.355109,51.409807],[-0.355357,51.410752],[-0.359139,51.411903],[-0.361238,51.412041],[-0.36474,51.411592],[-0.37386,51.408493],[-0.379428,51.407834],[-0.38335,51.408538],[-0.383777,51.410119],[-0.389177,51.41032],[-0.38965,51.410693],[-0.390292,51.414338],[-0.386123,51.414281],[-0.386594,51.415022],[-0.386762,51.417654],[-0.387694,51.419328],[-0.386642,51.420081],[-0.392912,51.423277],[-0.391019,51.423146],[-0.385431,51.420629],[-0.384082,51.422692],[-0.388387,51.427997],[-0.387103,51.428176],[-0.387935,51.428624],[-0.387726,51.428888],[-0.38315,51.432238],[-0.376093,51.435506],[-0.377872,51.43628],[-0.377761,51.436819],[-0.366823,51.441623],[-0.373078,51.443669],[-0.373881,51.443034],[-0.375927,51.443087],[-0.377126,51.44246],[-0.378205,51.442484],[-0.379546,51.443104],[-0.379748,51.444322],[-0.382905,51.445095],[-0.386223,51.446712],[-0.386257,51.448124],[-0.387787,51.449371],[-0.38449,51.449895],[-0.383751,51.449506],[-0.375258,51.456271],[-0.373024,51.457473],[-0.372688,51.456998],[-0.37244,51.457235],[-0.368435,51.456863],[-0.367837,51.457425],[-0.365032,51.457806],[-0.362636,51.457683],[-0.359855,51.458202],[-0.355813,51.458381],[-0.353487,51.45818],[-0.352811,51.456864],[-0.348569,51.456765],[-0.346024,51.45726],[-0.345289,51.457859],[-0.342735,51.458072],[-0.341707,51.459017],[-0.340111,51.459241],[-0.340645,51.457269],[-0.338953,51.455881],[-0.338549,51.456099],[-0.337737,51.455475],[-0.337513,51.454767],[-0.336982,51.454648],[-0.336273,51.455679],[-0.333028,51.455378],[-0.3314,51.457357],[-0.330374,51.457934],[-0.328455,51.457999],[-0.326934,51.457011],[-0.325588,51.458081],[-0.326513,51.459302],[-0.326331,51.460815],[-0.326821,51.461324],[-0.326378,51.462065],[-0.323686,51.465117],[-0.321736,51.465363],[-0.318963,51.462661],[-0.313996,51.459713],[-0.311417,51.45883],[-0.311567,51.45855],[-0.311259,51.458767],[-0.30891,51.45755],[-0.307533,51.457213],[-0.308036,51.456668],[-0.307263,51.457003],[-0.305947,51.456156],[-0.303892,51.45329],[-0.304351,51.451621],[-0.305634,51.450441],[-0.308855,51.448677],[-0.315745,51.446906],[-0.315804,51.446658],[-0.318897,51.44643],[-0.3215,51.446861],[-0.32515,51.446533],[-0.327187,51.445643],[-0.330369,51.44296],[-0.331632,51.441264],[-0.331208,51.439741],[-0.331845,51.439172],[-0.330576,51.438468],[-0.329067,51.436663],[-0.328455,51.433907],[-0.327222,51.432426],[-0.324794,51.430852],[-0.322332,51.429889],[-0.318486,51.429094],[-0.318319,51.429543],[-0.31907,51.430012],[-0.323354,51.430867],[-0.325853,51.432323],[-0.32566,51.432572],[-0.326953,51.433385],[-0.327595,51.434383],[-0.32802,51.436695],[-0.329075,51.438047],[-0.328506,51.438002],[-0.329146,51.438188],[-0.330084,51.43966],[-0.330078,51.441592],[-0.329139,51.442685],[-0.327791,51.443444],[-0.321711,51.445367],[-0.317058,51.44576],[-0.312986,51.446491],[-0.309565,51.447271],[-0.305756,51.448599],[-0.30282,51.451307],[-0.302612,51.452232],[-0.302802,51.453398],[-0.305037,51.456456],[-0.307993,51.458808],[-0.31388,51.460725],[-0.316931,51.46247],[-0.319771,51.464672],[-0.319212,51.46844],[-0.31858,51.470206],[-0.317716,51.471005],[-0.314596,51.471794],[-0.306804,51.474934],[-0.302583,51.479248],[-0.295262,51.484826],[-0.290003,51.48634],[-0.287292,51.4865],[-0.284433,51.485902],[-0.280387,51.483776],[-0.277941,51.482056],[-0.273985,51.475649],[-0.272441,51.473969],[-0.270488,51.472695],[-0.267825,51.47123],[-0.264027,51.470216],[-0.258553,51.47043],[-0.255678,51.47117],[-0.253378,51.47223],[-0.251477,51.473629],[-0.249655,51.476084],[-0.249218,51.479216],[-0.249378,51.482065],[-0.2484,51.483834],[-0.241079,51.488282],[-0.238996,51.48886],[-0.235636,51.488999],[-0.231315,51.48788],[-0.228018,51.485118],[-0.226837,51.480967],[-0.226623,51.476185],[-0.224871,51.473684],[-0.222919,51.471839]]]]}}]}