{"type":"FeatureCollection","features":[{"type":"Feature","properties":{"slug":"rochford","gss_code":"E07000075","name":"Rochford"},"geometry":{"type":"MultiPolygon","coordinates":[[[[0.833739,51.569121],[0.834209,51.569116],[0.834357,51.567068],[0.834842,51.566571],[0.837799,51.565285],[0.839057,51.56228],[0.840283,51.56087],[0.835024,51.56073],[0.834602,51.560397],[0.831408,51.56023],[0.830506,51.560822],[0.829598,51.562794],[0.82578,51.564467],[0.825239,51.566132],[0.825639,51.56648],[0.825047,51.566409],[0.824439,51.56793],[0.824965,51.567873],[0.825005,51.567316],[0.825868,51.566518],[0.827613,51.56652],[0.826887,51.567308],[0.825735,51.567355],[0.826416,51.568259],[0.827291,51.568294],[0.82661,51.568617],[0.828105,51.569429],[0.828704,51.569452],[0.828918,51.569953],[0.828154,51.569918],[0.82579,51.568587],[0.824955,51.56845],[0.824676,51.568759],[0.827229,51.569936],[0.828924,51.572258],[0.831336,51.573269],[0.832185,51.574282],[0.833765,51.572593],[0.833739,51.569121]]],[[[0.747011,51.577585],[0.745735,51.577677],[0.745605,51.578023],[0.745144,51.578477],[0.746124,51.578767],[0.746284,51.578495],[0.747435,51.578369],[0.746862,51.578031],[0.747011,51.577585]]],[[[0.749697,51.57824],[0.749821,51.578526],[0.74952,51.57813],[0.749345,51.578623],[0.749632,51.578582],[0.751018,51.579065],[0.750972,51.578591],[0.749697,51.57824]]],[[[0.749697,51.578646],[0.749664,51.578955],[0.749091,51.578699],[0.749391,51.578117],[0.748335,51.578062],[0.748721,51.578389],[0.74856,51.57851],[0.748827,51.578602],[0.748665,51.578791],[0.749361,51.578916],[0.749332,51.579297],[0.750649,51.579154],[0.749697,51.578646]]],[[[0.741954,51.580324],[0.741583,51.58074],[0.742106,51.580815],[0.742087,51.580507],[0.742404,51.580425],[0.741954,51.580324]]],[[[0.743026,51.580509],[0.742116,51.58055],[0.742995,51.580951],[0.74299,51.580673],[0.743026,51.580509]]],[[[0.745648,51.580954],[0.744768,51.581207],[0.745421,51.580989],[0.743117,51.580518],[0.743189,51.580578],[0.743163,51.580644],[0.743016,51.580734],[0.744703,51.581444],[0.745648,51.580954]]],[[[0.747458,51.581333],[0.745235,51.581397],[0.745171,51.581637],[0.746263,51.582106],[0.746366,51.581752],[0.747458,51.581333]]],[[[0.835817,51.588303],[0.835059,51.588047],[0.834497,51.588349],[0.834931,51.587799],[0.83616,51.587952],[0.837491,51.585177],[0.836702,51.583412],[0.834009,51.58164],[0.834238,51.581404],[0.83184,51.578478],[0.831322,51.578642],[0.831524,51.578117],[0.830414,51.576507],[0.829767,51.57414],[0.826885,51.57256],[0.826174,51.570583],[0.825646,51.570346],[0.825146,51.570887],[0.824982,51.570109],[0.824422,51.57004],[0.824524,51.570605],[0.823745,51.569586],[0.824209,51.569972],[0.824976,51.56993],[0.823524,51.569325],[0.823279,51.568388],[0.824116,51.565839],[0.823648,51.564996],[0.82295,51.564882],[0.820696,51.565453],[0.82002,51.566423],[0.82108,51.56645],[0.819705,51.566684],[0.818381,51.567641],[0.818982,51.568304],[0.819507,51.567412],[0.819454,51.568926],[0.818953,51.568547],[0.819496,51.569628],[0.818176,51.571854],[0.819245,51.573036],[0.818321,51.573362],[0.818771,51.573118],[0.818649,51.572617],[0.817909,51.572584],[0.817586,51.572263],[0.815818,51.573376],[0.815575,51.576938],[0.814353,51.577891],[0.810691,51.578373],[0.809381,51.579116],[0.809567,51.581119],[0.808066,51.585627],[0.809596,51.587694],[0.812189,51.590131],[0.81834,51.594114],[0.822763,51.595597],[0.826798,51.596006],[0.830144,51.595966],[0.836353,51.594903],[0.834709,51.591971],[0.834745,51.590286],[0.835817,51.588303]]],[[[0.865267,51.597632],[0.86316,51.596321],[0.860513,51.595769],[0.856166,51.595701],[0.857474,51.597061],[0.860497,51.597825],[0.86071,51.598397],[0.857872,51.598154],[0.857765,51.598431],[0.858527,51.598947],[0.861366,51.599006],[0.861987,51.599685],[0.86287,51.59981],[0.86341,51.600758],[0.865084,51.601373],[0.866149,51.601347],[0.866155,51.599717],[0.865267,51.597632]]],[[[0.865761,51.602484],[0.863442,51.602694],[0.862085,51.603144],[0.860157,51.604692],[0.860927,51.605099],[0.861521,51.607551],[0.864215,51.607689],[0.865761,51.602484]]],[[[0.563914,51.616395],[0.563822,51.616874],[0.563937,51.616628],[0.563914,51.616395]]],[[[0.849598,51.609561],[0.848132,51.610278],[0.847651,51.611134],[0.850527,51.610635],[0.852229,51.609647],[0.849598,51.609561]]],[[[0.563478,51.617612],[0.562562,51.617832],[0.562834,51.61825],[0.563478,51.617612]]],[[[0.563908,51.621412],[0.565047,51.62158],[0.564501,51.62119],[0.564238,51.620543],[0.563908,51.621412]]],[[[0.566466,51.622572],[0.566482,51.622588],[0.566511,51.622582],[0.566466,51.622572]]],[[[0.821891,51.617114],[0.821493,51.617233],[0.821077,51.618299],[0.822101,51.618658],[0.825442,51.618415],[0.821891,51.617114]]],[[[0.820913,51.618237],[0.820067,51.618843],[0.821896,51.618607],[0.821043,51.618355],[0.820913,51.618237]]],[[[0.649298,51.623578],[0.649997,51.623943],[0.651309,51.624014],[0.649298,51.623578]]],[[[0.648823,51.623345],[0.648196,51.623546],[0.648239,51.624695],[0.649111,51.623628],[0.648823,51.623345]]],[[[0.648514,51.624731],[0.648265,51.625445],[0.648983,51.625647],[0.648514,51.624731]]],[[[0.644119,51.624867],[0.643329,51.625813],[0.644062,51.625808],[0.644119,51.624867]]],[[[0.644269,51.62545],[0.647712,51.625578],[0.647697,51.625103],[0.644179,51.624924],[0.644177,51.625851],[0.647085,51.625982],[0.647464,51.625593],[0.644269,51.62545]]],[[[0.649188,51.623628],[0.648534,51.624577],[0.649237,51.62559],[0.650321,51.625967],[0.65164,51.625069],[0.651338,51.624156],[0.65008,51.624016],[0.649188,51.623628]]],[[[0.651651,51.624268],[0.651675,51.625121],[0.650649,51.62603],[0.651798,51.625682],[0.651651,51.624268]]],[[[0.952831,51.619558],[0.954176,51.619709],[0.954604,51.619445],[0.954316,51.619359],[0.954757,51.619427],[0.95425,51.618551],[0.954903,51.618615],[0.954149,51.618031],[0.95496,51.618594],[0.954569,51.618804],[0.95479,51.619485],[0.955268,51.618966],[0.955205,51.619431],[0.956031,51.619037],[0.955411,51.619496],[0.954569,51.619692],[0.958392,51.619825],[0.957064,51.616894],[0.95371,51.613059],[0.953119,51.61313],[0.953072,51.612811],[0.952031,51.612514],[0.950813,51.610758],[0.949719,51.610735],[0.950383,51.610551],[0.949312,51.609521],[0.949175,51.608627],[0.947668,51.608368],[0.946672,51.60652],[0.94596,51.606252],[0.945854,51.60651],[0.943455,51.604035],[0.942088,51.603609],[0.942039,51.603015],[0.94121,51.602957],[0.941043,51.602251],[0.939852,51.601777],[0.939938,51.601445],[0.936999,51.59917],[0.936822,51.598616],[0.932815,51.595947],[0.932811,51.595457],[0.932343,51.595409],[0.931871,51.594808],[0.930522,51.594243],[0.930257,51.593721],[0.929159,51.5934],[0.929294,51.592825],[0.928249,51.592771],[0.926609,51.591612],[0.926682,51.591315],[0.925768,51.591281],[0.918388,51.586368],[0.910948,51.582445],[0.910793,51.582112],[0.904588,51.579338],[0.90435,51.578601],[0.90304,51.578538],[0.901186,51.577461],[0.899222,51.576818],[0.89921,51.576359],[0.897153,51.575051],[0.897473,51.574873],[0.896641,51.575168],[0.894862,51.574519],[0.89383,51.573569],[0.894144,51.573158],[0.892799,51.573539],[0.892758,51.573202],[0.89077,51.572496],[0.889133,51.57127],[0.887183,51.570624],[0.886302,51.569742],[0.884549,51.569651],[0.883478,51.569113],[0.881386,51.56869],[0.88039,51.567895],[0.879248,51.568365],[0.880428,51.567549],[0.878433,51.566754],[0.877248,51.566923],[0.87716,51.567689],[0.877083,51.566972],[0.873883,51.567768],[0.873689,51.568249],[0.87374,51.567718],[0.876614,51.567052],[0.877444,51.566669],[0.87733,51.566277],[0.876488,51.566035],[0.876049,51.566269],[0.876535,51.565873],[0.874203,51.564645],[0.872703,51.565149],[0.873015,51.565718],[0.872655,51.565118],[0.873808,51.56452],[0.871818,51.563905],[0.87139,51.563327],[0.868762,51.565294],[0.868691,51.564873],[0.869516,51.564643],[0.869754,51.564437],[0.86925,51.564525],[0.871334,51.563219],[0.870916,51.562249],[0.867698,51.560176],[0.863549,51.55875],[0.862735,51.559565],[0.863512,51.558726],[0.863999,51.55878],[0.863737,51.558396],[0.862088,51.557828],[0.86072,51.557774],[0.860836,51.557506],[0.860263,51.557269],[0.859212,51.557755],[0.859838,51.557407],[0.859108,51.556987],[0.858524,51.557163],[0.858446,51.556859],[0.856519,51.556537],[0.85711,51.556978],[0.855867,51.556661],[0.855027,51.557371],[0.854356,51.556906],[0.853555,51.556924],[0.852735,51.557422],[0.842187,51.560668],[0.840227,51.561592],[0.838907,51.563697],[0.838838,51.56521],[0.83584,51.566897],[0.835292,51.572464],[0.832822,51.575747],[0.836277,51.580282],[0.837533,51.57814],[0.838844,51.578712],[0.837951,51.580404],[0.838684,51.5815],[0.840442,51.581168],[0.841814,51.58129],[0.843825,51.582497],[0.845313,51.582191],[0.846313,51.581624],[0.846534,51.580955],[0.846057,51.580784],[0.845967,51.580279],[0.845174,51.580219],[0.845781,51.58002],[0.845949,51.579514],[0.846551,51.580556],[0.84615,51.578932],[0.847685,51.577707],[0.849114,51.577189],[0.857305,51.576412],[0.858262,51.574486],[0.857146,51.575006],[0.858481,51.573803],[0.858061,51.573416],[0.858523,51.573641],[0.860462,51.572162],[0.862374,51.571361],[0.862855,51.571248],[0.86343,51.571889],[0.859504,51.573804],[0.858436,51.576933],[0.857742,51.577325],[0.856458,51.577655],[0.853645,51.577454],[0.848389,51.578335],[0.848709,51.578668],[0.848022,51.578651],[0.847971,51.579403],[0.847609,51.579501],[0.847938,51.581026],[0.846335,51.582717],[0.843622,51.583291],[0.840987,51.582061],[0.84009,51.581981],[0.840755,51.584753],[0.83971,51.587802],[0.838128,51.589302],[0.837677,51.592615],[0.837975,51.59362],[0.838783,51.594257],[0.840295,51.594421],[0.845111,51.593716],[0.848702,51.592797],[0.849485,51.592985],[0.85268,51.592608],[0.85915,51.592515],[0.862808,51.593442],[0.866848,51.595203],[0.870216,51.597748],[0.869738,51.59811],[0.87122,51.601769],[0.87122,51.604341],[0.870732,51.604469],[0.871267,51.604744],[0.871179,51.606323],[0.871879,51.608915],[0.871446,51.609354],[0.872288,51.610719],[0.871658,51.610861],[0.871591,51.611314],[0.873622,51.613729],[0.878655,51.615714],[0.882107,51.616117],[0.889911,51.615622],[0.89317,51.615177],[0.895688,51.614466],[0.898283,51.614894],[0.898995,51.614081],[0.900315,51.613652],[0.903083,51.614083],[0.904503,51.615166],[0.906615,51.614693],[0.909129,51.614656],[0.912893,51.615341],[0.915185,51.616453],[0.918183,51.615869],[0.92292,51.617268],[0.929273,51.616476],[0.932912,51.618407],[0.938827,51.619947],[0.945512,51.620568],[0.952831,51.619558]]],[[[0.648387,51.625623],[0.648597,51.628188],[0.650191,51.628506],[0.650436,51.626207],[0.648387,51.625623]]],[[[0.647687,51.625625],[0.645799,51.627516],[0.645911,51.627799],[0.647804,51.627833],[0.645911,51.627952],[0.645861,51.628211],[0.645261,51.629098],[0.646306,51.629618],[0.647965,51.62962],[0.648138,51.626655],[0.64774,51.626629],[0.647687,51.625625]]],[[[0.651114,51.62881],[0.653969,51.629856],[0.654671,51.629449],[0.652821,51.628819],[0.651114,51.62881]]],[[[0.650412,51.628742],[0.648648,51.628522],[0.648639,51.629802],[0.649,51.630227],[0.648679,51.630215],[0.649301,51.630384],[0.650499,51.630282],[0.650412,51.628742]]],[[[0.646578,51.63065],[0.647041,51.631432],[0.647112,51.630912],[0.647825,51.630638],[0.646578,51.63065]]],[[[0.648225,51.630912],[0.647167,51.631151],[0.647738,51.632346],[0.648355,51.632442],[0.648225,51.630912]]],[[[0.650799,51.630743],[0.650612,51.632968],[0.651223,51.632533],[0.650799,51.630743]]],[[[0.6489,51.630518],[0.648692,51.632915],[0.650514,51.632758],[0.650524,51.630539],[0.6489,51.630518]]],[[[0.654966,51.629528],[0.653934,51.629896],[0.650914,51.628862],[0.65097,51.630382],[0.653011,51.630464],[0.650953,51.630523],[0.651305,51.63256],[0.650817,51.633028],[0.652988,51.633563],[0.65568,51.632142],[0.655343,51.631332],[0.655999,51.631106],[0.655207,51.630537],[0.655417,51.630052],[0.655178,51.629971],[0.654966,51.629528]]],[[[0.657875,51.632781],[0.658058,51.631066],[0.658003,51.630817],[0.657485,51.63085],[0.656253,51.630512],[0.65589,51.630306],[0.655618,51.630005],[0.655326,51.630526],[0.656112,51.631073],[0.65545,51.631416],[0.655877,51.632124],[0.654156,51.633243],[0.654801,51.633938],[0.656393,51.633903],[0.657875,51.632781]]],[[[0.653791,51.633328],[0.652973,51.633719],[0.649393,51.632972],[0.648603,51.633313],[0.648662,51.634272],[0.648957,51.634392],[0.649171,51.63484],[0.650376,51.63544],[0.650535,51.635129],[0.650737,51.635059],[0.654964,51.634463],[0.653791,51.633328]]],[[[0.655484,51.635076],[0.654658,51.634986],[0.654971,51.634484],[0.650608,51.63512],[0.650402,51.635465],[0.649892,51.635282],[0.649176,51.634873],[0.648921,51.634391],[0.6485,51.634285],[0.648362,51.632575],[0.647625,51.632428],[0.647237,51.633012],[0.647615,51.632157],[0.647099,51.631545],[0.647453,51.632329],[0.646994,51.63352],[0.648171,51.634694],[0.648739,51.634468],[0.649697,51.635364],[0.651333,51.635911],[0.655336,51.635375],[0.655484,51.635076]]],[[[0.778688,51.62945],[0.780415,51.626977],[0.782652,51.625248],[0.78284,51.624736],[0.783213,51.624852],[0.784389,51.624284],[0.783396,51.623594],[0.783671,51.623516],[0.782689,51.622485],[0.782005,51.620293],[0.782287,51.620119],[0.781704,51.619992],[0.781406,51.619445],[0.78042,51.619275],[0.778275,51.61973],[0.777953,51.619266],[0.778825,51.619388],[0.777054,51.618125],[0.778685,51.619201],[0.779343,51.618979],[0.778714,51.61888],[0.778989,51.61865],[0.779658,51.618939],[0.779948,51.61872],[0.779064,51.617808],[0.780007,51.618507],[0.780088,51.618921],[0.781247,51.61904],[0.781365,51.618298],[0.781883,51.619184],[0.782272,51.618509],[0.781994,51.619252],[0.782876,51.619841],[0.783122,51.619679],[0.783035,51.621895],[0.784186,51.623269],[0.785013,51.623583],[0.786312,51.623195],[0.792472,51.622993],[0.794423,51.621975],[0.795084,51.622161],[0.799646,51.621651],[0.806725,51.622429],[0.804792,51.622031],[0.810224,51.621583],[0.807091,51.622375],[0.807842,51.622435],[0.810492,51.621676],[0.811239,51.621319],[0.811287,51.62093],[0.811463,51.621243],[0.812477,51.620744],[0.813037,51.620812],[0.812841,51.620334],[0.8132,51.620694],[0.813218,51.620449],[0.813611,51.62066],[0.81586,51.620414],[0.817562,51.619498],[0.817063,51.619462],[0.816002,51.620249],[0.814849,51.620468],[0.8138,51.620201],[0.814021,51.61963],[0.816969,51.617972],[0.821601,51.616206],[0.821661,51.616474],[0.820739,51.616996],[0.820906,51.617853],[0.819941,51.618234],[0.819436,51.619084],[0.818506,51.61948],[0.81952,51.619224],[0.820178,51.618398],[0.821187,51.617916],[0.82125,51.617075],[0.821661,51.616806],[0.826982,51.618871],[0.82183,51.616421],[0.822358,51.616027],[0.82506,51.615454],[0.82539,51.616058],[0.82555,51.615485],[0.825695,51.616019],[0.82692,51.617276],[0.825751,51.615748],[0.825758,51.615346],[0.83389,51.614743],[0.841677,51.615436],[0.840034,51.616532],[0.835129,51.618234],[0.842186,51.61719],[0.842346,51.616721],[0.842774,51.617073],[0.846887,51.616788],[0.846251,51.616436],[0.848504,51.616169],[0.84572,51.616223],[0.841601,51.615108],[0.845944,51.613859],[0.857666,51.61186],[0.859823,51.611217],[0.862765,51.609439],[0.864747,51.613218],[0.864852,51.614818],[0.859872,51.615592],[0.863476,51.615479],[0.86492,51.614975],[0.865038,51.615203],[0.863793,51.615475],[0.86544,51.615431],[0.865142,51.613663],[0.863486,51.609971],[0.863896,51.608792],[0.862669,51.608747],[0.862347,51.609245],[0.860817,51.609612],[0.855892,51.609734],[0.853755,51.610374],[0.853033,51.61119],[0.851109,51.611582],[0.846624,51.611826],[0.845193,51.612857],[0.842994,51.613474],[0.843085,51.613129],[0.844596,51.612649],[0.846321,51.610323],[0.846023,51.609778],[0.84676,51.609014],[0.848375,51.608255],[0.850878,51.607707],[0.854019,51.608166],[0.857805,51.607577],[0.857581,51.606443],[0.858177,51.606042],[0.858924,51.603642],[0.85973,51.603463],[0.85984,51.602905],[0.861053,51.602319],[0.861016,51.601516],[0.859302,51.600298],[0.857983,51.601054],[0.857191,51.601072],[0.856212,51.599432],[0.854037,51.598943],[0.852975,51.598214],[0.852657,51.596919],[0.85315,51.596511],[0.854392,51.59632],[0.85402,51.595832],[0.836292,51.598031],[0.820427,51.598914],[0.818722,51.600197],[0.818644,51.601579],[0.817702,51.603351],[0.819602,51.603762],[0.817608,51.603493],[0.816355,51.604553],[0.816639,51.605127],[0.81612,51.604689],[0.814199,51.605762],[0.813838,51.60553],[0.810792,51.606419],[0.808242,51.608185],[0.808541,51.608409],[0.807909,51.608328],[0.806069,51.608987],[0.80621,51.609288],[0.805787,51.609059],[0.805072,51.609291],[0.801564,51.610917],[0.800923,51.611506],[0.801368,51.611353],[0.801739,51.61135],[0.802039,51.611557],[0.800991,51.611606],[0.800604,51.612502],[0.801119,51.612626],[0.800884,51.61315],[0.802081,51.613118],[0.800719,51.613202],[0.800769,51.612599],[0.800093,51.613767],[0.799151,51.614334],[0.799655,51.614427],[0.798645,51.614461],[0.79897,51.614771],[0.798247,51.614554],[0.798397,51.615005],[0.797661,51.614501],[0.796535,51.615135],[0.796983,51.615809],[0.797806,51.615202],[0.797384,51.614914],[0.797885,51.615088],[0.79794,51.615151],[0.797208,51.61588],[0.795846,51.616116],[0.796599,51.615823],[0.796424,51.615583],[0.795211,51.615992],[0.793568,51.615578],[0.792764,51.61578],[0.793686,51.615523],[0.795195,51.615872],[0.796103,51.615599],[0.796289,51.615048],[0.797228,51.614439],[0.796179,51.614156],[0.795295,51.614614],[0.795823,51.61412],[0.793086,51.613855],[0.793346,51.614174],[0.791836,51.613543],[0.791334,51.614415],[0.791626,51.613504],[0.79056,51.613389],[0.78983,51.613946],[0.790343,51.613366],[0.789082,51.613336],[0.788073,51.6134],[0.787773,51.61431],[0.787842,51.613428],[0.786229,51.613575],[0.786832,51.614194],[0.786018,51.613844],[0.786331,51.613314],[0.785041,51.613686],[0.784597,51.614828],[0.784301,51.61455],[0.784038,51.615009],[0.783769,51.616124],[0.784167,51.616214],[0.783449,51.616641],[0.78373,51.616865],[0.783399,51.616715],[0.781932,51.617589],[0.782474,51.617912],[0.783672,51.617361],[0.782491,51.617961],[0.782274,51.617926],[0.781616,51.617515],[0.783311,51.616678],[0.782661,51.616434],[0.783519,51.616441],[0.783717,51.615169],[0.784678,51.613688],[0.783724,51.613889],[0.782904,51.614747],[0.783665,51.613915],[0.781958,51.614662],[0.78343,51.613939],[0.782173,51.613757],[0.782476,51.613512],[0.783609,51.613886],[0.783866,51.6137],[0.783365,51.613604],[0.784097,51.613682],[0.785092,51.613292],[0.783833,51.612572],[0.782597,51.612349],[0.781673,51.611512],[0.780902,51.611989],[0.781176,51.61153],[0.780089,51.611754],[0.779252,51.611573],[0.778361,51.611989],[0.779104,51.611494],[0.778249,51.611163],[0.777083,51.609953],[0.775786,51.610673],[0.777143,51.609188],[0.779129,51.610015],[0.777399,51.609412],[0.778339,51.611002],[0.778693,51.610635],[0.778571,51.611158],[0.779062,51.611012],[0.779031,51.611264],[0.779652,51.611483],[0.779813,51.61128],[0.780072,51.611588],[0.780986,51.611341],[0.781202,51.610987],[0.781108,51.611285],[0.782,51.611284],[0.782796,51.612168],[0.783653,51.612315],[0.783601,51.61195],[0.78389,51.612331],[0.785798,51.612977],[0.786074,51.612421],[0.786329,51.612859],[0.788071,51.612779],[0.788962,51.612415],[0.798426,51.613679],[0.799129,51.613297],[0.799416,51.612519],[0.799369,51.612027],[0.798795,51.61235],[0.798863,51.611692],[0.799471,51.61183],[0.799556,51.61155],[0.798916,51.611581],[0.798959,51.610403],[0.799616,51.611238],[0.801292,51.609952],[0.80045,51.609554],[0.801751,51.60964],[0.804312,51.608444],[0.806902,51.607763],[0.809049,51.605761],[0.813224,51.60458],[0.815173,51.603619],[0.816184,51.6024],[0.817102,51.599425],[0.819074,51.597596],[0.816359,51.596748],[0.813701,51.595357],[0.812263,51.594954],[0.811496,51.594287],[0.810995,51.594299],[0.8112,51.594034],[0.810559,51.593998],[0.80957,51.592948],[0.803776,51.589112],[0.799507,51.58724],[0.796393,51.586392],[0.7931,51.587012],[0.794024,51.587476],[0.793509,51.587527],[0.793461,51.587818],[0.794318,51.587902],[0.794218,51.588221],[0.792831,51.588198],[0.79334,51.587469],[0.792314,51.587475],[0.79305,51.587254],[0.792397,51.586938],[0.788032,51.587799],[0.784899,51.587506],[0.783778,51.587938],[0.781849,51.586519],[0.780282,51.586229],[0.780474,51.585854],[0.779867,51.585456],[0.779964,51.58606],[0.778155,51.584922],[0.775017,51.584504],[0.773028,51.583587],[0.770432,51.5841],[0.769275,51.584564],[0.770126,51.584531],[0.76923,51.584751],[0.769102,51.584401],[0.767266,51.583981],[0.767158,51.583701],[0.767732,51.583572],[0.76434,51.58323],[0.763439,51.583455],[0.763936,51.583806],[0.763366,51.583771],[0.763151,51.583404],[0.762355,51.583826],[0.76254,51.584111],[0.763077,51.584028],[0.762423,51.584154],[0.762254,51.583789],[0.761692,51.584166],[0.760026,51.586001],[0.760238,51.586362],[0.759729,51.586613],[0.759931,51.586193],[0.759229,51.586175],[0.759397,51.587053],[0.758787,51.586527],[0.758951,51.5863],[0.758427,51.586199],[0.756349,51.58689],[0.756414,51.587316],[0.755905,51.587025],[0.755613,51.587631],[0.755101,51.587543],[0.75427,51.588188],[0.750977,51.586405],[0.754765,51.585152],[0.759774,51.584682],[0.759972,51.583304],[0.76055,51.582626],[0.760353,51.581484],[0.759066,51.581267],[0.758314,51.580556],[0.756488,51.58049],[0.753531,51.581045],[0.752851,51.580805],[0.75133,51.581221],[0.751514,51.580983],[0.749717,51.58118],[0.749673,51.5817],[0.749361,51.581208],[0.747817,51.581364],[0.747788,51.581781],[0.746903,51.582131],[0.747717,51.581727],[0.747646,51.581334],[0.746465,51.58176],[0.746577,51.582227],[0.746493,51.581897],[0.746275,51.582205],[0.745831,51.582215],[0.744826,51.581678],[0.745116,51.581466],[0.744735,51.581641],[0.741421,51.580854],[0.741717,51.580364],[0.739334,51.579659],[0.738443,51.579916],[0.735399,51.579276],[0.735071,51.579767],[0.735171,51.57923],[0.734558,51.579108],[0.734315,51.579465],[0.73469,51.579344],[0.734914,51.579349],[0.734934,51.579486],[0.734484,51.57945],[0.73405,51.580011],[0.734154,51.579716],[0.733705,51.579823],[0.734271,51.579519],[0.733809,51.579353],[0.734269,51.579396],[0.733764,51.579248],[0.734341,51.579176],[0.733879,51.578966],[0.731561,51.578989],[0.731182,51.579408],[0.73144,51.578849],[0.730343,51.579157],[0.730362,51.578811],[0.729169,51.578579],[0.729041,51.578991],[0.728159,51.578711],[0.724069,51.580072],[0.721854,51.579834],[0.721657,51.578915],[0.722802,51.579699],[0.7243,51.579443],[0.724192,51.579148],[0.722266,51.578942],[0.724233,51.579028],[0.725266,51.578734],[0.725684,51.578414],[0.725301,51.578129],[0.72621,51.578062],[0.725932,51.577446],[0.724247,51.576436],[0.72111,51.576067],[0.719451,51.574944],[0.71717,51.574843],[0.716324,51.574096],[0.714262,51.573611],[0.713539,51.572648],[0.714252,51.573548],[0.716405,51.574065],[0.71728,51.574784],[0.718994,51.574518],[0.720299,51.574983],[0.720954,51.575733],[0.724455,51.575763],[0.726309,51.576238],[0.727055,51.576816],[0.728223,51.576919],[0.730006,51.57644],[0.733436,51.576637],[0.739318,51.577812],[0.744246,51.577953],[0.745138,51.577707],[0.7454,51.577966],[0.744371,51.578085],[0.744666,51.578337],[0.745491,51.578008],[0.745436,51.57762],[0.746877,51.57751],[0.747111,51.577587],[0.747532,51.578366],[0.745966,51.578864],[0.745647,51.578821],[0.747829,51.579442],[0.748999,51.57935],[0.749282,51.578928],[0.748634,51.578849],[0.748464,51.578502],[0.748644,51.578394],[0.747952,51.577957],[0.747522,51.578179],[0.747253,51.577571],[0.747836,51.577494],[0.747342,51.577678],[0.747494,51.577919],[0.748394,51.577911],[0.747947,51.577493],[0.749983,51.577168],[0.750759,51.577738],[0.751932,51.577796],[0.751281,51.578505],[0.752007,51.578824],[0.754812,51.578734],[0.754883,51.578283],[0.755041,51.57868],[0.757729,51.578588],[0.759769,51.578905],[0.759327,51.578308],[0.759542,51.577997],[0.758217,51.578504],[0.758022,51.578335],[0.759219,51.57795],[0.758761,51.577976],[0.758435,51.577212],[0.758725,51.577448],[0.758859,51.577105],[0.759568,51.577322],[0.759896,51.577911],[0.758971,51.577668],[0.759765,51.578008],[0.759583,51.578284],[0.760254,51.578334],[0.760283,51.577854],[0.760887,51.578007],[0.75993,51.577706],[0.760056,51.577157],[0.759842,51.577316],[0.757957,51.576707],[0.760967,51.576332],[0.760757,51.577516],[0.76272,51.577722],[0.760521,51.578625],[0.764861,51.580554],[0.767803,51.580542],[0.770605,51.579701],[0.771353,51.581084],[0.772804,51.580919],[0.775017,51.581392],[0.777889,51.582523],[0.779016,51.582204],[0.782784,51.58349],[0.785171,51.584786],[0.787899,51.584898],[0.790715,51.584165],[0.793963,51.583897],[0.79438,51.583511],[0.796033,51.583821],[0.795442,51.583529],[0.798834,51.584301],[0.800141,51.58425],[0.800345,51.584565],[0.805899,51.586075],[0.80746,51.581307],[0.806692,51.579656],[0.802094,51.578121],[0.79925,51.577684],[0.798321,51.578023],[0.798247,51.577711],[0.796905,51.577528],[0.797333,51.577792],[0.793422,51.576392],[0.793687,51.576119],[0.79478,51.57683],[0.793656,51.575058],[0.795247,51.572692],[0.794691,51.572354],[0.795387,51.572614],[0.795928,51.572423],[0.798592,51.570406],[0.799028,51.569695],[0.7981,51.569023],[0.798122,51.568648],[0.798553,51.568611],[0.799102,51.569674],[0.79868,51.57043],[0.800515,51.570271],[0.801158,51.568873],[0.797353,51.567747],[0.796672,51.567257],[0.79456,51.567024],[0.78961,51.567343],[0.789337,51.56702],[0.789416,51.567353],[0.789271,51.567097],[0.786904,51.567605],[0.785778,51.56662],[0.787049,51.567258],[0.789228,51.566995],[0.789035,51.566751],[0.789395,51.566727],[0.790136,51.567099],[0.790678,51.56706],[0.79055,51.56675],[0.79083,51.567018],[0.79376,51.566896],[0.794678,51.566607],[0.794894,51.565549],[0.794948,51.566219],[0.795692,51.565988],[0.794835,51.566484],[0.795077,51.56686],[0.79689,51.566776],[0.79913,51.567833],[0.801678,51.568528],[0.801753,51.568272],[0.802322,51.56828],[0.801977,51.569404],[0.803147,51.569036],[0.804827,51.569161],[0.804209,51.569577],[0.802957,51.569161],[0.801643,51.569829],[0.801021,51.57072],[0.798903,51.57095],[0.798501,51.571505],[0.798774,51.571766],[0.801288,51.572065],[0.802484,51.572004],[0.807118,51.569435],[0.806817,51.568821],[0.806197,51.568645],[0.807512,51.567593],[0.807009,51.567384],[0.805754,51.567978],[0.804551,51.567986],[0.804615,51.567688],[0.803813,51.567204],[0.804671,51.567047],[0.805714,51.56761],[0.806947,51.567011],[0.808298,51.567131],[0.80797,51.567923],[0.807112,51.568149],[0.808329,51.568908],[0.80842,51.568386],[0.809984,51.569827],[0.80482,51.571558],[0.804465,51.571907],[0.804919,51.571708],[0.804859,51.572102],[0.804363,51.571966],[0.803994,51.572233],[0.804458,51.572667],[0.803765,51.572452],[0.800651,51.572896],[0.79946,51.572523],[0.798138,51.572712],[0.796685,51.573337],[0.795642,51.574601],[0.79581,51.575387],[0.796731,51.576004],[0.803789,51.577204],[0.808115,51.578715],[0.81026,51.57772],[0.812515,51.577138],[0.812877,51.577358],[0.812737,51.577129],[0.813658,51.576985],[0.814416,51.576392],[0.814465,51.575075],[0.813413,51.574823],[0.814473,51.574903],[0.81395,51.574402],[0.813782,51.574766],[0.813426,51.574734],[0.812874,51.573871],[0.81417,51.573858],[0.814879,51.572597],[0.816575,51.571872],[0.818001,51.569648],[0.817193,51.568134],[0.817511,51.566666],[0.81865,51.566448],[0.819624,51.565178],[0.821023,51.564396],[0.819799,51.564039],[0.818268,51.564082],[0.81767,51.563116],[0.818197,51.562541],[0.817597,51.562162],[0.817754,51.561916],[0.819222,51.561784],[0.820777,51.563313],[0.822712,51.563208],[0.824704,51.563533],[0.827503,51.562831],[0.829031,51.56199],[0.829787,51.559444],[0.829038,51.558909],[0.829652,51.558379],[0.830594,51.559495],[0.829652,51.560352],[0.83208,51.559533],[0.833849,51.559707],[0.834264,51.559135],[0.834193,51.559737],[0.838492,51.560319],[0.838262,51.560097],[0.841244,51.55998],[0.850523,51.556574],[0.850816,51.555925],[0.850508,51.554711],[0.85011,51.554638],[0.850986,51.553873],[0.848766,51.551558],[0.844231,51.549384],[0.842948,51.549479],[0.840952,51.548852],[0.840158,51.548264],[0.838891,51.54813],[0.838969,51.547738],[0.838093,51.547517],[0.837824,51.547091],[0.837149,51.54734],[0.837261,51.54682],[0.836166,51.54667],[0.834404,51.545801],[0.834076,51.545973],[0.834227,51.545653],[0.83368,51.54524],[0.832356,51.545413],[0.832471,51.54513],[0.831841,51.545143],[0.831357,51.544682],[0.829583,51.544629],[0.829101,51.544105],[0.820834,51.540863],[0.819168,51.542207],[0.814869,51.543732],[0.810868,51.540132],[0.807959,51.540955],[0.798427,51.541678],[0.794376,51.542339],[0.788991,51.542444],[0.787657,51.545164],[0.787471,51.546932],[0.786804,51.546935],[0.78669,51.552943],[0.769861,51.551783],[0.769555,51.552396],[0.76116,51.552965],[0.761029,51.553294],[0.757687,51.554127],[0.753154,51.554867],[0.753382,51.557522],[0.751583,51.557993],[0.752093,51.558362],[0.749072,51.559361],[0.741747,51.559898],[0.741077,51.559243],[0.739026,51.55935],[0.737573,51.559487],[0.737379,51.560022],[0.735364,51.560137],[0.730538,51.559443],[0.730471,51.5605],[0.72284,51.56041],[0.718392,51.560946],[0.719056,51.562675],[0.715806,51.562806],[0.715812,51.563171],[0.70794,51.564288],[0.708587,51.566435],[0.707234,51.566666],[0.70566,51.567495],[0.704178,51.566762],[0.687167,51.568213],[0.685035,51.568899],[0.683788,51.568604],[0.680764,51.569512],[0.675419,51.570145],[0.675334,51.572868],[0.667833,51.572208],[0.667717,51.572694],[0.66295,51.572446],[0.660119,51.573102],[0.651309,51.573497],[0.646581,51.574298],[0.638951,51.576801],[0.637818,51.576313],[0.635679,51.57447],[0.634646,51.574941],[0.632077,51.570529],[0.612939,51.575473],[0.591648,51.577856],[0.588989,51.578777],[0.588379,51.579499],[0.586893,51.579999],[0.582691,51.582954],[0.570102,51.587683],[0.565919,51.588245],[0.565448,51.58865],[0.562298,51.589356],[0.562744,51.590886],[0.563742,51.591586],[0.565567,51.593858],[0.549035,51.596578],[0.549785,51.598181],[0.549349,51.602337],[0.550502,51.603308],[0.551545,51.608848],[0.553641,51.609023],[0.556646,51.608395],[0.558249,51.610645],[0.561622,51.612476],[0.561828,51.614415],[0.563727,51.614513],[0.563606,51.612514],[0.564509,51.611924],[0.563736,51.612589],[0.564102,51.616678],[0.563671,51.617595],[0.562987,51.618398],[0.564243,51.619807],[0.564675,51.621176],[0.565649,51.621628],[0.566475,51.622516],[0.568167,51.622044],[0.570159,51.622105],[0.570182,51.622372],[0.570647,51.622161],[0.571483,51.622541],[0.574507,51.622956],[0.575242,51.62384],[0.577124,51.624177],[0.578145,51.624798],[0.580267,51.624405],[0.581239,51.623837],[0.583298,51.623867],[0.584754,51.623099],[0.584946,51.622416],[0.584906,51.623118],[0.586963,51.623184],[0.586574,51.622605],[0.587638,51.623625],[0.586652,51.625049],[0.586949,51.62626],[0.588871,51.627803],[0.589254,51.628571],[0.588121,51.630344],[0.592442,51.630468],[0.595794,51.63135],[0.59624,51.630297],[0.595962,51.630395],[0.595977,51.63008],[0.597479,51.629611],[0.602598,51.629517],[0.607944,51.628584],[0.61136,51.629022],[0.613269,51.629815],[0.617402,51.630773],[0.622482,51.631262],[0.630067,51.631476],[0.631757,51.631174],[0.637673,51.631647],[0.638504,51.63131],[0.63624,51.630919],[0.635852,51.630586],[0.635056,51.631197],[0.63591,51.630273],[0.636245,51.630784],[0.638231,51.631],[0.637691,51.630543],[0.638248,51.630679],[0.638079,51.629853],[0.638594,51.630666],[0.638874,51.630284],[0.638749,51.62987],[0.638087,51.629497],[0.638874,51.629865],[0.638946,51.630252],[0.638304,51.631062],[0.639143,51.631415],[0.641223,51.63016],[0.64311,51.629726],[0.642147,51.629604],[0.642048,51.62923],[0.640007,51.629582],[0.639872,51.629583],[0.639593,51.629124],[0.63812,51.629364],[0.639658,51.6291],[0.63995,51.629569],[0.640923,51.629313],[0.640038,51.629422],[0.639904,51.629109],[0.642047,51.629154],[0.64222,51.629533],[0.643122,51.629456],[0.64457,51.630028],[0.644804,51.629329],[0.645861,51.62965],[0.645035,51.629489],[0.645183,51.629994],[0.647753,51.629883],[0.646574,51.629773],[0.644759,51.629179],[0.645692,51.628338],[0.64568,51.627528],[0.646549,51.626619],[0.644168,51.626475],[0.646608,51.626562],[0.64709,51.626019],[0.643343,51.62585],[0.643027,51.62631],[0.643436,51.625322],[0.643948,51.624811],[0.64776,51.625062],[0.648141,51.626491],[0.648179,51.623458],[0.648869,51.623273],[0.651693,51.623512],[0.651869,51.625737],[0.650525,51.626128],[0.650254,51.628136],[0.65061,51.628517],[0.653573,51.628876],[0.655065,51.629529],[0.655171,51.629925],[0.655693,51.629953],[0.657381,51.630796],[0.657872,51.63074],[0.657792,51.63051],[0.658557,51.629887],[0.657691,51.629926],[0.657532,51.628885],[0.655412,51.628558],[0.657842,51.628568],[0.65778,51.629903],[0.658444,51.629782],[0.658692,51.629893],[0.657919,51.630579],[0.658179,51.630851],[0.658119,51.632719],[0.656495,51.634085],[0.655215,51.634106],[0.65592,51.634889],[0.656741,51.635198],[0.658548,51.634545],[0.66163,51.634002],[0.666896,51.63434],[0.668786,51.633898],[0.66883,51.63349],[0.669385,51.633319],[0.669783,51.633737],[0.671673,51.634016],[0.675822,51.633776],[0.68081,51.634221],[0.688534,51.634382],[0.707273,51.633543],[0.711352,51.633661],[0.718275,51.634727],[0.71864,51.634449],[0.720775,51.635665],[0.72199,51.635715],[0.722622,51.635234],[0.725916,51.634744],[0.730859,51.631821],[0.730109,51.630709],[0.733066,51.630329],[0.737089,51.630301],[0.738894,51.630895],[0.739538,51.630606],[0.751771,51.631502],[0.756207,51.633084],[0.759922,51.635415],[0.760569,51.636444],[0.763957,51.636824],[0.767724,51.635602],[0.770659,51.634317],[0.770752,51.634017],[0.775091,51.632452],[0.778688,51.62945]]],[[[0.748897,51.577907],[0.751023,51.578424],[0.751356,51.577887],[0.750628,51.577814],[0.750137,51.577427],[0.74824,51.57759],[0.748634,51.577714],[0.748394,51.577911],[0.748897,51.577907]]]]}}]}