{"type":"FeatureCollection","features":[{"type":"Feature","properties":{"slug":"rochdale","gss_code":"E08000005","name":"Rochdale"},"geometry":{"type":"Polygon","coordinates":[[[-2.126718,53.676881],[-2.126225,53.675618],[-2.124968,53.675156],[-2.125387,53.674838],[-2.118085,53.671245],[-2.114105,53.671119],[-2.097022,53.672622],[-2.096071,53.671522],[-2.09289,53.670161],[-2.090297,53.670927],[-2.089786,53.670707],[-2.086432,53.670958],[-2.086119,53.671919],[-2.085203,53.672163],[-2.0844,53.672888],[-2.08373,53.676047],[-2.08409,53.677631],[-2.083078,53.678104],[-2.080452,53.678342],[-2.077421,53.6774],[-2.073346,53.677512],[-2.071741,53.678208],[-2.071326,53.678859],[-2.061826,53.682817],[-2.060523,53.682687],[-2.056224,53.683141],[-2.055545,53.682663],[-2.051242,53.683692],[-2.048902,53.680227],[-2.053495,53.677892],[-2.054858,53.675663],[-2.054392,53.673032],[-2.052202,53.669448],[-2.049619,53.66878],[-2.048524,53.667689],[-2.044835,53.665469],[-2.037095,53.662343],[-2.037429,53.661921],[-2.036517,53.661088],[-2.035709,53.659328],[-2.035694,53.657618],[-2.036586,53.655313],[-2.039609,53.651937],[-2.03954,53.65106],[-2.040527,53.650918],[-2.039679,53.648983],[-2.040706,53.648378],[-2.041577,53.645418],[-2.04158,53.642487],[-2.041143,53.640845],[-2.036927,53.638198],[-2.029997,53.636169],[-2.029029,53.634224],[-2.029746,53.630837],[-2.030887,53.62924],[-2.030062,53.627778],[-2.026816,53.624167],[-2.029372,53.621703],[-2.02999,53.62052],[-2.030165,53.617672],[-2.032649,53.615126],[-2.032801,53.611896],[-2.031346,53.610225],[-2.034828,53.604424],[-2.03554,53.60465],[-2.036591,53.604009],[-2.035528,53.603371],[-2.035827,53.602932],[-2.042327,53.600433],[-2.048531,53.599772],[-2.053896,53.598387],[-2.055515,53.597499],[-2.056881,53.5974],[-2.056762,53.597107],[-2.055953,53.597162],[-2.055096,53.594609],[-2.059882,53.592487],[-2.067318,53.592409],[-2.067679,53.593538],[-2.070035,53.594728],[-2.069882,53.594993],[-2.081069,53.59529],[-2.083937,53.594421],[-2.085476,53.595461],[-2.087157,53.595705],[-2.088224,53.596681],[-2.089085,53.596418],[-2.08966,53.597218],[-2.09072,53.5974],[-2.092464,53.596661],[-2.092698,53.596945],[-2.094315,53.596359],[-2.097663,53.596086],[-2.099394,53.597096],[-2.099868,53.59776],[-2.101578,53.597357],[-2.105608,53.59764],[-2.106854,53.59852],[-2.107337,53.599377],[-2.108616,53.599032],[-2.110638,53.599709],[-2.112571,53.598893],[-2.111766,53.597116],[-2.112713,53.592772],[-2.118354,53.592625],[-2.123172,53.589858],[-2.122486,53.58953],[-2.122913,53.589055],[-2.124055,53.589053],[-2.125845,53.586498],[-2.136717,53.583084],[-2.146755,53.583747],[-2.156586,53.582287],[-2.152434,53.579016],[-2.152095,53.576264],[-2.152477,53.576032],[-2.152486,53.574537],[-2.151851,53.574239],[-2.15093,53.567124],[-2.157237,53.564842],[-2.157791,53.564287],[-2.159502,53.564549],[-2.163606,53.563293],[-2.1659,53.561255],[-2.168148,53.560185],[-2.168716,53.558832],[-2.171993,53.558232],[-2.172254,53.552678],[-2.171757,53.551362],[-2.169941,53.551383],[-2.16944,53.546159],[-2.170742,53.544538],[-2.170718,53.543804],[-2.171328,53.543803],[-2.175039,53.539786],[-2.175546,53.538386],[-2.178014,53.537341],[-2.179818,53.53466],[-2.186014,53.529059],[-2.193877,53.53164],[-2.200583,53.53176],[-2.204509,53.532498],[-2.205812,53.533085],[-2.206771,53.534213],[-2.206928,53.535801],[-2.20565,53.536898],[-2.207124,53.538195],[-2.207545,53.538481],[-2.208536,53.538443],[-2.210921,53.540768],[-2.213065,53.542158],[-2.217694,53.542415],[-2.21781,53.543464],[-2.218725,53.543907],[-2.21946,53.54384],[-2.219706,53.543286],[-2.220783,53.542676],[-2.22776,53.541581],[-2.228862,53.540692],[-2.233513,53.540165],[-2.234131,53.539195],[-2.23723,53.538861],[-2.23632,53.54068],[-2.234364,53.541728],[-2.234165,53.543364],[-2.235639,53.547396],[-2.236263,53.551086],[-2.237411,53.553661],[-2.241721,53.557152],[-2.236542,53.559228],[-2.237812,53.560126],[-2.238396,53.560183],[-2.239056,53.560911],[-2.24087,53.561183],[-2.240861,53.561567],[-2.241536,53.561305],[-2.241688,53.561584],[-2.242624,53.561545],[-2.244234,53.562046],[-2.246491,53.561578],[-2.247172,53.56188],[-2.248094,53.563187],[-2.247164,53.563427],[-2.245861,53.565483],[-2.243291,53.567797],[-2.245524,53.568603],[-2.245126,53.570264],[-2.244025,53.570159],[-2.243305,53.571704],[-2.246691,53.573684],[-2.250322,53.576599],[-2.250679,53.578435],[-2.25449,53.580862],[-2.254581,53.582466],[-2.25512,53.582933],[-2.25924,53.58527],[-2.261063,53.584747],[-2.265496,53.585603],[-2.267611,53.584448],[-2.26799,53.58368],[-2.267793,53.582294],[-2.268485,53.580792],[-2.269094,53.580337],[-2.271052,53.579975],[-2.272182,53.579423],[-2.273598,53.579304],[-2.277636,53.580117],[-2.277632,53.580893],[-2.278741,53.581524],[-2.278953,53.582085],[-2.280392,53.582095],[-2.28072,53.58273],[-2.281439,53.582743],[-2.282444,53.584124],[-2.282438,53.586723],[-2.281854,53.586947],[-2.280115,53.585852],[-2.278582,53.585463],[-2.277989,53.585987],[-2.278057,53.587328],[-2.278794,53.588489],[-2.27864,53.58925],[-2.27664,53.591515],[-2.275465,53.591543],[-2.271986,53.590239],[-2.270133,53.589161],[-2.269318,53.589994],[-2.269977,53.591962],[-2.266292,53.591388],[-2.265515,53.591616],[-2.264961,53.592363],[-2.263983,53.592518],[-2.259222,53.592182],[-2.258382,53.593715],[-2.258256,53.595025],[-2.25555,53.597127],[-2.252864,53.597972],[-2.250473,53.599133],[-2.247617,53.599404],[-2.245567,53.599131],[-2.245059,53.601109],[-2.246452,53.601861],[-2.248165,53.602135],[-2.249112,53.602766],[-2.248968,53.603391],[-2.250465,53.604915],[-2.251003,53.607213],[-2.255725,53.606122],[-2.259405,53.606071],[-2.261807,53.606594],[-2.263977,53.607793],[-2.264411,53.607642],[-2.266618,53.609154],[-2.271766,53.614478],[-2.269051,53.616145],[-2.266855,53.615596],[-2.267264,53.614777],[-2.266473,53.6145],[-2.260553,53.616213],[-2.260585,53.616681],[-2.257995,53.616454],[-2.259274,53.619317],[-2.258412,53.619838],[-2.257154,53.619957],[-2.256791,53.620442],[-2.259946,53.620626],[-2.259621,53.621681],[-2.260533,53.622005],[-2.260124,53.622262],[-2.260486,53.624265],[-2.262927,53.624961],[-2.262477,53.626425],[-2.26374,53.629817],[-2.265547,53.639416],[-2.267662,53.640955],[-2.267243,53.641267],[-2.267137,53.642673],[-2.269602,53.644043],[-2.269038,53.645525],[-2.269925,53.646057],[-2.267029,53.648305],[-2.266364,53.649168],[-2.266626,53.649642],[-2.265775,53.650419],[-2.262842,53.65179],[-2.261358,53.654168],[-2.260641,53.654218],[-2.259968,53.654958],[-2.257324,53.65521],[-2.253529,53.656446],[-2.252276,53.657892],[-2.247522,53.661166],[-2.245865,53.663442],[-2.236632,53.666924],[-2.23308,53.668847],[-2.225824,53.670768],[-2.224813,53.669887],[-2.223638,53.669854],[-2.222486,53.669219],[-2.220129,53.668875],[-2.217729,53.668981],[-2.216098,53.66723],[-2.215228,53.667124],[-2.215508,53.666186],[-2.21477,53.66524],[-2.207108,53.660767],[-2.207899,53.659454],[-2.206852,53.657053],[-2.203576,53.655926],[-2.204443,53.656102],[-2.205247,53.654362],[-2.197738,53.652068],[-2.196563,53.650687],[-2.195418,53.650626],[-2.190375,53.649186],[-2.189629,53.64799],[-2.184374,53.6484],[-2.182366,53.648263],[-2.182609,53.647524],[-2.181534,53.647045],[-2.181043,53.645709],[-2.182751,53.645611],[-2.183527,53.64519],[-2.182624,53.644357],[-2.182706,53.642975],[-2.181848,53.641859],[-2.180924,53.641431],[-2.180468,53.64055],[-2.181834,53.64035],[-2.185396,53.638224],[-2.175684,53.639483],[-2.174103,53.639299],[-2.173976,53.639707],[-2.161353,53.641374],[-2.160599,53.648296],[-2.16391,53.652403],[-2.163939,53.654766],[-2.155029,53.664248],[-2.153452,53.668884],[-2.148602,53.674499],[-2.147952,53.678569],[-2.148138,53.68201],[-2.146328,53.682232],[-2.144641,53.67948],[-2.143536,53.678498],[-2.142258,53.678006],[-2.141092,53.678973],[-2.139715,53.682809],[-2.137919,53.683884],[-2.135986,53.684477],[-2.134127,53.685734],[-2.132854,53.684397],[-2.129863,53.683103],[-2.127678,53.681557],[-2.126879,53.6796],[-2.126718,53.676881]]]}}]}