{"type":"FeatureCollection","features":[{"type":"Feature","properties":{"slug":"rossendale","gss_code":"E07000125","name":"Rossendale"},"geometry":{"type":"Polygon","coordinates":[[[-2.242426,53.749087],[-2.241712,53.749639],[-2.242398,53.749075],[-2.239868,53.747273],[-2.235125,53.742193],[-2.233036,53.739264],[-2.232555,53.73761],[-2.22538,53.738557],[-2.217674,53.738285],[-2.20492,53.733906],[-2.20339,53.732385],[-2.196635,53.732897],[-2.192171,53.731918],[-2.191997,53.732166],[-2.189036,53.731707],[-2.185395,53.730741],[-2.179502,53.727932],[-2.173291,53.72301],[-2.169735,53.719418],[-2.171341,53.718837],[-2.171131,53.71808],[-2.171998,53.717165],[-2.169276,53.715736],[-2.166832,53.713513],[-2.165757,53.710197],[-2.163326,53.708386],[-2.162287,53.705955],[-2.162047,53.704366],[-2.162605,53.6992],[-2.161147,53.69764],[-2.150887,53.694696],[-2.145255,53.692295],[-2.147272,53.688855],[-2.148177,53.68612],[-2.146328,53.682232],[-2.148138,53.68201],[-2.147952,53.678569],[-2.148602,53.674499],[-2.153452,53.668884],[-2.155029,53.664248],[-2.163939,53.654766],[-2.16391,53.652403],[-2.160599,53.648296],[-2.161353,53.641374],[-2.173976,53.639707],[-2.174103,53.639299],[-2.175684,53.639483],[-2.185396,53.638224],[-2.181834,53.64035],[-2.180468,53.64055],[-2.180924,53.641431],[-2.181848,53.641859],[-2.182706,53.642975],[-2.182624,53.644357],[-2.183527,53.64519],[-2.182751,53.645611],[-2.181043,53.645709],[-2.181534,53.647045],[-2.182609,53.647524],[-2.182366,53.648263],[-2.184374,53.6484],[-2.189629,53.64799],[-2.190375,53.649186],[-2.195418,53.650626],[-2.196563,53.650687],[-2.197738,53.652068],[-2.205247,53.654362],[-2.204443,53.656102],[-2.203576,53.655926],[-2.206852,53.657053],[-2.207899,53.659454],[-2.207108,53.660767],[-2.21477,53.66524],[-2.215508,53.666186],[-2.215228,53.667124],[-2.216098,53.66723],[-2.217729,53.668981],[-2.220129,53.668875],[-2.222486,53.669219],[-2.223638,53.669854],[-2.224813,53.669887],[-2.225824,53.670768],[-2.23308,53.668847],[-2.236632,53.666924],[-2.245865,53.663442],[-2.247522,53.661166],[-2.252276,53.657892],[-2.253529,53.656446],[-2.257324,53.65521],[-2.259968,53.654958],[-2.260641,53.654218],[-2.261358,53.654168],[-2.262842,53.65179],[-2.265775,53.650419],[-2.266626,53.649642],[-2.266364,53.649168],[-2.267029,53.648305],[-2.269925,53.646057],[-2.269038,53.645525],[-2.269602,53.644043],[-2.267137,53.642673],[-2.267243,53.641267],[-2.267662,53.640955],[-2.265547,53.639416],[-2.26374,53.629817],[-2.262477,53.626425],[-2.262927,53.624961],[-2.260486,53.624265],[-2.260124,53.622262],[-2.260533,53.622005],[-2.259621,53.621681],[-2.259946,53.620626],[-2.256791,53.620442],[-2.257154,53.619957],[-2.258412,53.619838],[-2.259274,53.619317],[-2.257995,53.616454],[-2.260585,53.616681],[-2.260553,53.616213],[-2.266473,53.6145],[-2.267264,53.614777],[-2.266855,53.615596],[-2.269051,53.616145],[-2.271766,53.614478],[-2.272551,53.618512],[-2.275808,53.61885],[-2.276017,53.618237],[-2.277692,53.618695],[-2.278247,53.620317],[-2.280727,53.620926],[-2.282853,53.620263],[-2.283165,53.620776],[-2.282423,53.621762],[-2.282458,53.623106],[-2.284496,53.625375],[-2.283512,53.626994],[-2.284867,53.628108],[-2.285908,53.630776],[-2.286979,53.631924],[-2.28886,53.632898],[-2.288786,53.633656],[-2.289946,53.635235],[-2.291251,53.636295],[-2.292376,53.638041],[-2.295124,53.640091],[-2.295767,53.64145],[-2.29758,53.648334],[-2.297338,53.65019],[-2.297701,53.651768],[-2.297161,53.652607],[-2.295568,53.653046],[-2.295574,53.654921],[-2.296416,53.654978],[-2.295504,53.655622],[-2.293863,53.656127],[-2.294293,53.657232],[-2.293792,53.65793],[-2.295892,53.662635],[-2.295796,53.664391],[-2.299006,53.666709],[-2.300211,53.667045],[-2.304038,53.664458],[-2.303893,53.663893],[-2.30603,53.663042],[-2.307026,53.66195],[-2.306972,53.66141],[-2.308396,53.660723],[-2.309948,53.660494],[-2.310666,53.659971],[-2.311766,53.659824],[-2.311978,53.659137],[-2.313553,53.658642],[-2.313425,53.657726],[-2.315647,53.655749],[-2.315583,53.655055],[-2.316726,53.655278],[-2.316664,53.654915],[-2.318475,53.655219],[-2.320092,53.655604],[-2.320433,53.656007],[-2.325303,53.655413],[-2.326591,53.655584],[-2.333402,53.655187],[-2.353339,53.658483],[-2.3554,53.659454],[-2.35557,53.664507],[-2.361607,53.665071],[-2.371236,53.667081],[-2.374059,53.671389],[-2.375935,53.675642],[-2.375707,53.681837],[-2.374424,53.687254],[-2.380893,53.688582],[-2.384795,53.688241],[-2.391206,53.688564],[-2.398348,53.69156],[-2.400287,53.692595],[-2.401342,53.695087],[-2.403053,53.696418],[-2.402873,53.696943],[-2.405338,53.698908],[-2.408607,53.70314],[-2.410998,53.705176],[-2.408347,53.705278],[-2.395755,53.709631],[-2.382899,53.711214],[-2.369731,53.714068],[-2.3608,53.716498],[-2.355282,53.722205],[-2.353297,53.722273],[-2.350131,53.721843],[-2.349877,53.722468],[-2.344235,53.722485],[-2.342838,53.723251],[-2.342252,53.724336],[-2.342818,53.725982],[-2.339506,53.727626],[-2.338192,53.729775],[-2.336762,53.728319],[-2.334555,53.729282],[-2.335793,53.730393],[-2.331801,53.731338],[-2.331146,53.732479],[-2.329562,53.732194],[-2.327364,53.734217],[-2.325853,53.734354],[-2.325988,53.735173],[-2.32786,53.735332],[-2.326257,53.737795],[-2.323807,53.737719],[-2.324473,53.74267],[-2.325611,53.743215],[-2.326148,53.747336],[-2.314109,53.747039],[-2.303299,53.748671],[-2.302994,53.748405],[-2.301479,53.748886],[-2.299171,53.750764],[-2.295272,53.75199],[-2.293304,53.749796],[-2.287519,53.746712],[-2.286844,53.745256],[-2.287191,53.744851],[-2.285267,53.743708],[-2.283731,53.744589],[-2.281631,53.745055],[-2.27829,53.743447],[-2.275222,53.743751],[-2.271323,53.742286],[-2.268597,53.742281],[-2.267012,53.742643],[-2.265649,53.744025],[-2.263292,53.745318],[-2.262821,53.746261],[-2.264242,53.747429],[-2.266797,53.748097],[-2.262714,53.748938],[-2.26175,53.748488],[-2.259344,53.749554],[-2.257453,53.749858],[-2.257138,53.750165],[-2.257901,53.750664],[-2.256054,53.752232],[-2.255876,53.752831],[-2.253919,53.753567],[-2.251697,53.755045],[-2.248881,53.752857],[-2.245111,53.750942],[-2.242426,53.749087]]]}}]}