{"type":"FeatureCollection","features":[{"type":"Feature","properties":{"slug":"rotherham","gss_code":"E08000018","name":"Rotherham"},"geometry":{"type":"Polygon","coordinates":[[[-1.360148,53.512968],[-1.350284,53.513978],[-1.345049,53.513997],[-1.34118,53.514796],[-1.334585,53.514383],[-1.33033,53.514665],[-1.326011,53.512329],[-1.324651,53.513094],[-1.322418,53.513147],[-1.320638,53.513957],[-1.319776,53.513848],[-1.318468,53.513099],[-1.315279,53.512878],[-1.312443,53.513794],[-1.312596,53.513249],[-1.311048,53.511818],[-1.313488,53.503028],[-1.313229,53.501989],[-1.310058,53.497933],[-1.299311,53.493076],[-1.29495,53.49193],[-1.291543,53.491691],[-1.291626,53.491297],[-1.289064,53.491041],[-1.289225,53.490418],[-1.291014,53.490593],[-1.292676,53.489747],[-1.292245,53.488644],[-1.293935,53.487714],[-1.292789,53.486463],[-1.29319,53.485755],[-1.299677,53.4846],[-1.301382,53.483368],[-1.300766,53.482548],[-1.299617,53.483095],[-1.298691,53.483129],[-1.298524,53.481666],[-1.296015,53.480574],[-1.29709,53.479096],[-1.29653,53.478129],[-1.296694,53.477346],[-1.298768,53.476198],[-1.29849,53.475587],[-1.297012,53.475167],[-1.294998,53.476582],[-1.281522,53.479615],[-1.282144,53.47891],[-1.280877,53.478411],[-1.279267,53.479533],[-1.280167,53.480212],[-1.276281,53.48194],[-1.27535,53.482842],[-1.274031,53.482635],[-1.273093,53.483646],[-1.273591,53.483948],[-1.269817,53.485846],[-1.269305,53.485447],[-1.268105,53.485395],[-1.26363,53.483629],[-1.261247,53.483284],[-1.256494,53.480966],[-1.255308,53.480793],[-1.254687,53.481213],[-1.254242,53.480993],[-1.249926,53.476824],[-1.250007,53.476327],[-1.25175,53.474221],[-1.255247,53.472136],[-1.255033,53.471509],[-1.257509,53.468745],[-1.257559,53.467038],[-1.25911,53.465191],[-1.259321,53.464148],[-1.258493,53.4598],[-1.25881,53.459516],[-1.258052,53.458988],[-1.257138,53.459001],[-1.256377,53.457198],[-1.253092,53.455838],[-1.252125,53.454638],[-1.252368,53.454377],[-1.256939,53.456075],[-1.258063,53.455783],[-1.258213,53.455469],[-1.256732,53.452205],[-1.255663,53.451578],[-1.254818,53.450309],[-1.251809,53.448693],[-1.253115,53.446015],[-1.253806,53.445362],[-1.253411,53.444157],[-1.25373,53.443001],[-1.25198,53.441476],[-1.250679,53.441542],[-1.250759,53.440772],[-1.237521,53.441158],[-1.240203,53.434523],[-1.238099,53.432755],[-1.232766,53.43352],[-1.22332,53.433644],[-1.221363,53.434072],[-1.220324,53.434641],[-1.216513,53.435036],[-1.209773,53.432251],[-1.206854,53.4317],[-1.199654,53.43184],[-1.19734,53.431555],[-1.195628,53.432932],[-1.196462,53.43532],[-1.195129,53.437135],[-1.192886,53.436343],[-1.193,53.43565],[-1.185836,53.435268],[-1.185806,53.433775],[-1.182233,53.433898],[-1.174249,53.4354],[-1.170003,53.435229],[-1.168703,53.434269],[-1.166724,53.431155],[-1.16487,53.429951],[-1.162854,53.427956],[-1.160493,53.424352],[-1.158169,53.424234],[-1.152535,53.424974],[-1.145853,53.426341],[-1.14082,53.425254],[-1.136757,53.425142],[-1.13602,53.424483],[-1.135654,53.424128],[-1.136128,53.423667],[-1.143764,53.417958],[-1.144889,53.416011],[-1.145946,53.412325],[-1.135977,53.410876],[-1.13377,53.409886],[-1.133398,53.408743],[-1.123802,53.40987],[-1.122096,53.410353],[-1.121042,53.410098],[-1.118922,53.410236],[-1.118046,53.410942],[-1.11614,53.410174],[-1.115692,53.409589],[-1.116271,53.408531],[-1.115141,53.401861],[-1.115918,53.398019],[-1.115579,53.397186],[-1.11947,53.398046],[-1.122811,53.398312],[-1.129207,53.393596],[-1.131512,53.393936],[-1.133208,53.392408],[-1.1329,53.392292],[-1.133278,53.391378],[-1.133493,53.391481],[-1.134693,53.389771],[-1.131311,53.389556],[-1.130935,53.38823],[-1.130947,53.385557],[-1.132445,53.383981],[-1.133047,53.381595],[-1.1305,53.378887],[-1.130995,53.377984],[-1.129996,53.377566],[-1.130537,53.375571],[-1.131901,53.375616],[-1.131958,53.374899],[-1.13366,53.374867],[-1.134194,53.374166],[-1.134137,53.373226],[-1.138219,53.372252],[-1.14074,53.372023],[-1.140456,53.371264],[-1.141403,53.37071],[-1.142804,53.371268],[-1.144916,53.371251],[-1.146033,53.369041],[-1.144215,53.36827],[-1.144225,53.367379],[-1.145662,53.366609],[-1.145876,53.36585],[-1.14644,53.365733],[-1.146417,53.363953],[-1.145178,53.363383],[-1.140554,53.36406],[-1.140116,53.362623],[-1.138976,53.361389],[-1.139237,53.35986],[-1.13854,53.355908],[-1.144952,53.355332],[-1.14528,53.35486],[-1.149101,53.354352],[-1.151693,53.354485],[-1.161949,53.357909],[-1.162623,53.356736],[-1.161617,53.355698],[-1.16242,53.35161],[-1.161821,53.350889],[-1.159868,53.34997],[-1.160103,53.348942],[-1.158149,53.347703],[-1.156877,53.345863],[-1.156843,53.344969],[-1.15267,53.344685],[-1.149565,53.345309],[-1.148179,53.345211],[-1.144907,53.345695],[-1.141552,53.346797],[-1.140286,53.346528],[-1.13936,53.344729],[-1.138718,53.341383],[-1.140909,53.340966],[-1.145416,53.340729],[-1.148621,53.338507],[-1.159385,53.333509],[-1.160512,53.33233],[-1.160867,53.331116],[-1.163882,53.329277],[-1.165872,53.329112],[-1.168904,53.328241],[-1.169777,53.327411],[-1.171075,53.32723],[-1.171478,53.326524],[-1.172189,53.326923],[-1.17248,53.32655],[-1.173458,53.326388],[-1.17388,53.325742],[-1.175111,53.325677],[-1.175309,53.324511],[-1.174052,53.323591],[-1.171983,53.322816],[-1.174704,53.322648],[-1.174238,53.321807],[-1.174482,53.321391],[-1.180415,53.321046],[-1.18661,53.319594],[-1.190323,53.319932],[-1.190113,53.319496],[-1.191535,53.319223],[-1.191523,53.318961],[-1.192416,53.31899],[-1.194373,53.314866],[-1.197204,53.314673],[-1.203027,53.307227],[-1.202108,53.306057],[-1.203239,53.304223],[-1.205708,53.30429],[-1.209808,53.30532],[-1.212501,53.305451],[-1.218736,53.304053],[-1.219878,53.304078],[-1.221819,53.305196],[-1.23044,53.308558],[-1.232305,53.308277],[-1.237197,53.306114],[-1.238735,53.304452],[-1.241549,53.302467],[-1.24333,53.301649],[-1.244944,53.301693],[-1.246166,53.302416],[-1.247882,53.302689],[-1.251033,53.301891],[-1.254294,53.301755],[-1.255015,53.30239],[-1.258176,53.303413],[-1.261314,53.303942],[-1.264147,53.305399],[-1.267813,53.305818],[-1.269448,53.307858],[-1.26964,53.309096],[-1.271549,53.309311],[-1.273598,53.31044],[-1.274109,53.310525],[-1.276429,53.309213],[-1.282011,53.309463],[-1.285307,53.311611],[-1.293665,53.313982],[-1.295678,53.315037],[-1.294735,53.315271],[-1.295687,53.319709],[-1.295159,53.321792],[-1.293947,53.322784],[-1.290109,53.323141],[-1.290344,53.32371],[-1.289311,53.324414],[-1.288589,53.326228],[-1.291231,53.327976],[-1.291767,53.327898],[-1.291822,53.3282],[-1.293231,53.328682],[-1.292829,53.328786],[-1.29318,53.328982],[-1.294667,53.329479],[-1.295376,53.330364],[-1.295735,53.330132],[-1.297097,53.330652],[-1.297392,53.331427],[-1.299072,53.332533],[-1.302209,53.332526],[-1.305973,53.33377],[-1.312299,53.334165],[-1.311502,53.332114],[-1.308789,53.332171],[-1.30925,53.331737],[-1.310508,53.331906],[-1.311322,53.330874],[-1.311439,53.330252],[-1.310537,53.329354],[-1.313006,53.329362],[-1.313678,53.327321],[-1.314958,53.326521],[-1.315512,53.326457],[-1.315612,53.326787],[-1.321613,53.3255],[-1.322298,53.327527],[-1.324756,53.327091],[-1.324823,53.333536],[-1.325568,53.336956],[-1.325986,53.34128],[-1.328636,53.348897],[-1.330435,53.348851],[-1.331166,53.349275],[-1.330589,53.351011],[-1.332076,53.352415],[-1.335398,53.351915],[-1.337752,53.35352],[-1.340346,53.358496],[-1.345161,53.361204],[-1.346309,53.362441],[-1.351962,53.366513],[-1.361081,53.366592],[-1.363742,53.370161],[-1.366436,53.372568],[-1.379865,53.381077],[-1.385648,53.382915],[-1.39118,53.383319],[-1.389949,53.386068],[-1.388349,53.387373],[-1.386272,53.388514],[-1.381826,53.39019],[-1.380566,53.391041],[-1.379835,53.390957],[-1.379082,53.391852],[-1.377505,53.392137],[-1.376247,53.392826],[-1.375922,53.394365],[-1.379187,53.396811],[-1.376991,53.398314],[-1.377441,53.399231],[-1.381764,53.401043],[-1.383037,53.403467],[-1.38177,53.403919],[-1.382069,53.405098],[-1.382949,53.405486],[-1.384629,53.407284],[-1.386387,53.410293],[-1.387105,53.410969],[-1.389957,53.412267],[-1.390669,53.41316],[-1.391672,53.415289],[-1.389187,53.417797],[-1.389383,53.418615],[-1.392659,53.418378],[-1.39353,53.420003],[-1.384417,53.420542],[-1.382331,53.421039],[-1.382333,53.421531],[-1.379664,53.422401],[-1.380439,53.424169],[-1.381635,53.424917],[-1.381719,53.425446],[-1.381723,53.425208],[-1.387302,53.425124],[-1.396217,53.423859],[-1.396344,53.424363],[-1.396866,53.424354],[-1.397291,53.424818],[-1.403898,53.422771],[-1.408504,53.420349],[-1.409721,53.421493],[-1.409945,53.422757],[-1.411436,53.423338],[-1.412271,53.424665],[-1.415766,53.427226],[-1.415808,53.427711],[-1.416392,53.42792],[-1.418083,53.429855],[-1.433337,53.438284],[-1.436547,53.440531],[-1.440316,53.444119],[-1.442929,53.447278],[-1.444248,53.450801],[-1.444261,53.454523],[-1.443714,53.455648],[-1.444931,53.457116],[-1.445253,53.458641],[-1.45679,53.473565],[-1.451758,53.476243],[-1.450445,53.477394],[-1.450777,53.482237],[-1.452207,53.484929],[-1.443905,53.488286],[-1.442021,53.490583],[-1.440933,53.491108],[-1.435609,53.488445],[-1.43301,53.487961],[-1.427965,53.485854],[-1.426068,53.487401],[-1.425537,53.488677],[-1.424343,53.489569],[-1.422777,53.49027],[-1.422111,53.489796],[-1.419917,53.489838],[-1.419817,53.491266],[-1.419178,53.491086],[-1.417071,53.492214],[-1.415178,53.492512],[-1.415554,53.493227],[-1.416853,53.493606],[-1.416487,53.494434],[-1.411737,53.496214],[-1.410811,53.496908],[-1.409701,53.498479],[-1.412154,53.499236],[-1.408629,53.503323],[-1.408067,53.503255],[-1.407201,53.503998],[-1.405543,53.504395],[-1.405582,53.504846],[-1.396311,53.505301],[-1.396994,53.505698],[-1.380788,53.513957],[-1.37905,53.514526],[-1.378132,53.514201],[-1.370575,53.514733],[-1.369306,53.514394],[-1.368882,53.515223],[-1.360148,53.512968]]]}}]}