{"type":"FeatureCollection","features":[{"type":"Feature","properties":{"slug":"rother","gss_code":"E07000064","name":"Rother"},"geometry":{"type":"Polygon","coordinates":[[[0.40027,51.082408],[0.402676,51.081892],[0.406649,51.079703],[0.405068,51.077919],[0.405564,51.077229],[0.405436,51.075433],[0.400658,51.07269],[0.400913,51.071181],[0.405817,51.069504],[0.406606,51.068903],[0.409005,51.069393],[0.409228,51.068234],[0.411082,51.067095],[0.411311,51.065887],[0.414128,51.065485],[0.415895,51.066611],[0.41698,51.067893],[0.417778,51.067893],[0.416262,51.06529],[0.416246,51.06389],[0.418267,51.062627],[0.421054,51.062844],[0.422016,51.063665],[0.422685,51.062851],[0.425257,51.062988],[0.425573,51.064067],[0.426546,51.063007],[0.428293,51.063119],[0.428581,51.062288],[0.430951,51.061999],[0.432553,51.06103],[0.438334,51.059735],[0.439937,51.058913],[0.440762,51.057882],[0.442675,51.057582],[0.44274,51.058042],[0.444276,51.0584],[0.447147,51.057966],[0.44799,51.056583],[0.4496,51.056709],[0.451681,51.056378],[0.453655,51.056928],[0.457311,51.055259],[0.463267,51.054787],[0.463058,51.054097],[0.463811,51.052342],[0.466399,51.050799],[0.468393,51.050544],[0.471401,51.049078],[0.471177,51.048796],[0.471902,51.046973],[0.47111,51.045742],[0.46609,51.042737],[0.466335,51.042124],[0.467316,51.041765],[0.467671,51.040958],[0.468363,51.040619],[0.466914,51.037851],[0.467258,51.037755],[0.466934,51.036725],[0.466433,51.036816],[0.466308,51.036396],[0.466686,51.036027],[0.466426,51.03428],[0.466836,51.034208],[0.467399,51.032994],[0.468069,51.032893],[0.467982,51.032636],[0.469549,51.032487],[0.469458,51.031906],[0.470368,51.031946],[0.471476,51.030755],[0.472319,51.030436],[0.473391,51.030475],[0.476438,51.029521],[0.477146,51.029774],[0.477485,51.029568],[0.47727,51.02921],[0.47788,51.029299],[0.478071,51.029043],[0.478275,51.029388],[0.478797,51.029119],[0.480575,51.029603],[0.480871,51.029413],[0.480967,51.029784],[0.482001,51.030005],[0.48276,51.030606],[0.48533,51.030932],[0.487668,51.03065],[0.488843,51.030883],[0.489796,51.030571],[0.492631,51.031175],[0.496539,51.030562],[0.496729,51.029921],[0.497477,51.029972],[0.498728,51.029274],[0.498581,51.029079],[0.499445,51.029177],[0.502228,51.02804],[0.504647,51.027945],[0.506959,51.026412],[0.508435,51.024127],[0.510906,51.02349],[0.513499,51.023499],[0.514079,51.022952],[0.515568,51.022531],[0.519964,51.022498],[0.52287,51.023161],[0.525988,51.02277],[0.526209,51.022432],[0.526989,51.022529],[0.526693,51.022182],[0.527974,51.021532],[0.531374,51.021531],[0.534343,51.022015],[0.534805,51.02167],[0.536415,51.021907],[0.537569,51.021639],[0.537696,51.020873],[0.538584,51.020711],[0.539337,51.019929],[0.53903,51.019449],[0.539903,51.018507],[0.539756,51.017902],[0.540983,51.016902],[0.540704,51.014196],[0.54125,51.013278],[0.54129,51.01185],[0.542107,51.01091],[0.545325,51.010352],[0.547739,51.009121],[0.549535,51.009052],[0.552059,51.008201],[0.55502,51.008224],[0.556932,51.007939],[0.558839,51.007208],[0.561819,51.00778],[0.563697,51.007406],[0.564791,51.006727],[0.566779,51.004315],[0.570801,51.003482],[0.572001,51.003448],[0.573148,51.00448],[0.575558,51.005219],[0.577887,51.004525],[0.579522,51.004428],[0.581787,51.00524],[0.585025,51.005747],[0.586932,51.008573],[0.59194,51.009872],[0.594235,51.010014],[0.597071,51.008916],[0.600068,51.009469],[0.602286,51.010239],[0.603611,51.011879],[0.609337,51.012363],[0.611731,51.012093],[0.615152,51.013605],[0.615923,51.014846],[0.61848,51.0152],[0.620572,51.015987],[0.622437,51.015681],[0.624094,51.016008],[0.62509,51.016393],[0.626094,51.017439],[0.627577,51.017838],[0.62928,51.017774],[0.630382,51.017366],[0.633636,51.014015],[0.636052,51.012216],[0.637163,51.011877],[0.639286,51.012021],[0.643835,51.014546],[0.645693,51.015188],[0.645807,51.016278],[0.64677,51.016856],[0.649597,51.01521],[0.65209,51.015189],[0.654718,51.014691],[0.656398,51.015213],[0.658193,51.0174],[0.661379,51.017774],[0.664902,51.016051],[0.670969,51.011331],[0.671756,51.008987],[0.672943,51.008136],[0.675501,51.004348],[0.676956,51.003299],[0.680944,51.001475],[0.682156,51.000565],[0.689473,50.999307],[0.69922,50.99849],[0.701227,50.997322],[0.702075,50.995971],[0.706771,50.993602],[0.705784,50.995104],[0.708515,50.997741],[0.711255,50.998472],[0.721142,50.999462],[0.725407,50.999214],[0.731346,51.000395],[0.731467,50.99997],[0.737759,51.000823],[0.741094,51.000644],[0.748087,50.998392],[0.750114,50.997293],[0.750943,50.99759],[0.751333,50.997243],[0.757427,50.995443],[0.772844,50.992732],[0.775726,50.991998],[0.776015,50.991656],[0.778616,50.990818],[0.779539,50.987495],[0.781054,50.986499],[0.777027,50.984855],[0.779013,50.982394],[0.779939,50.982323],[0.781703,50.982886],[0.778835,50.979843],[0.777785,50.979441],[0.778451,50.978348],[0.777085,50.977337],[0.777135,50.975428],[0.778663,50.976583],[0.782968,50.977419],[0.783849,50.977084],[0.784328,50.97723],[0.785456,50.975233],[0.789542,50.971418],[0.789495,50.970971],[0.790393,50.969992],[0.801978,50.958283],[0.805549,50.954981],[0.813463,50.949011],[0.812942,50.942],[0.814666,50.942398],[0.81673,50.942285],[0.818549,50.943098],[0.819385,50.944298],[0.818474,50.94512],[0.819068,50.945455],[0.821295,50.945722],[0.822904,50.944758],[0.824811,50.945451],[0.826427,50.945268],[0.827899,50.945872],[0.829869,50.945665],[0.833318,50.9495],[0.834367,50.9499],[0.835652,50.949655],[0.835735,50.950116],[0.836962,50.950456],[0.838738,50.952393],[0.838869,50.954296],[0.841102,50.954704],[0.841031,50.955278],[0.840002,50.955747],[0.839762,50.956212],[0.841401,50.957609],[0.844275,50.957352],[0.844977,50.955856],[0.84642,50.955],[0.846918,50.953567],[0.846302,50.952528],[0.845717,50.952286],[0.846113,50.951854],[0.848037,50.951732],[0.849065,50.951261],[0.851148,50.951304],[0.85253,50.951568],[0.855968,50.953129],[0.860973,50.941831],[0.859629,50.93968],[0.864116,50.93513],[0.867891,50.933262],[0.866013,50.931151],[0.865096,50.92926],[0.855232,50.923888],[0.839061,50.92633],[0.831841,50.926898],[0.812395,50.930246],[0.808606,50.930499],[0.793382,50.932986],[0.786962,50.933222],[0.778517,50.932062],[0.774366,50.931895],[0.772009,50.93125],[0.765451,50.938273],[0.764505,50.939726],[0.764799,50.939857],[0.764405,50.939715],[0.761108,50.94134],[0.763449,50.940788],[0.762209,50.941358],[0.753353,50.942965],[0.74892,50.945562],[0.749502,50.94604],[0.749904,50.945632],[0.749652,50.946098],[0.749383,50.946041],[0.749027,50.945844],[0.749275,50.946524],[0.749837,50.946288],[0.749925,50.946498],[0.750522,50.946236],[0.749778,50.946636],[0.749723,50.946377],[0.749171,50.946627],[0.748512,50.945785],[0.744428,50.947063],[0.745025,50.947605],[0.744751,50.947456],[0.744517,50.947835],[0.74491,50.948003],[0.744453,50.947996],[0.744276,50.948861],[0.743636,50.948644],[0.744144,50.948542],[0.744616,50.947575],[0.744266,50.947113],[0.742148,50.947782],[0.741352,50.94842],[0.74084,50.950231],[0.737975,50.951519],[0.738046,50.952004],[0.739581,50.953023],[0.738953,50.957114],[0.741542,50.958624],[0.743133,50.961423],[0.746964,50.962494],[0.748353,50.963852],[0.748967,50.965246],[0.748535,50.96496],[0.747883,50.966356],[0.747953,50.967191],[0.750488,50.969055],[0.750227,50.969711],[0.747637,50.967674],[0.747419,50.966375],[0.748163,50.964976],[0.747219,50.963099],[0.746336,50.962587],[0.743106,50.961788],[0.742233,50.961201],[0.741881,50.96041],[0.741535,50.96039],[0.741822,50.960154],[0.741103,50.958765],[0.739242,50.957881],[0.738378,50.956919],[0.738991,50.95317],[0.737641,50.952127],[0.737477,50.951475],[0.739368,50.950188],[0.737817,50.94972],[0.736903,50.948614],[0.735321,50.947681],[0.731636,50.947083],[0.731213,50.947564],[0.731258,50.948492],[0.728262,50.949745],[0.730809,50.948407],[0.731093,50.947079],[0.731633,50.946754],[0.731431,50.946167],[0.732509,50.947006],[0.735068,50.947209],[0.737077,50.948273],[0.73833,50.949563],[0.739328,50.949773],[0.740055,50.949294],[0.740205,50.947845],[0.742044,50.947119],[0.741902,50.946917],[0.742216,50.947069],[0.743045,50.946731],[0.74306,50.946373],[0.743159,50.946664],[0.743907,50.946409],[0.743899,50.946025],[0.744006,50.945985],[0.7444,50.945885],[0.743983,50.946058],[0.744112,50.946333],[0.745395,50.945939],[0.745754,50.945528],[0.747984,50.945092],[0.748467,50.944828],[0.7483,50.944591],[0.748699,50.944766],[0.752643,50.942357],[0.751317,50.941089],[0.752889,50.942148],[0.760738,50.940691],[0.760642,50.940302],[0.761713,50.940287],[0.763398,50.939519],[0.763758,50.938508],[0.764564,50.938513],[0.766605,50.935956],[0.764754,50.937774],[0.765116,50.937245],[0.764527,50.937284],[0.764219,50.93694],[0.765287,50.937189],[0.764833,50.936565],[0.765423,50.936961],[0.766501,50.935727],[0.766371,50.935497],[0.765843,50.935749],[0.766525,50.935384],[0.766923,50.935572],[0.767797,50.934806],[0.767684,50.934552],[0.767221,50.934798],[0.767888,50.933986],[0.768443,50.933989],[0.768819,50.933427],[0.768502,50.933137],[0.769005,50.932768],[0.768772,50.933199],[0.769092,50.933203],[0.771471,50.930487],[0.772441,50.929884],[0.772847,50.928848],[0.774028,50.928118],[0.774906,50.927336],[0.774,50.928001],[0.771973,50.927667],[0.761604,50.925544],[0.752337,50.923224],[0.742841,50.91853],[0.73525,50.915833],[0.729731,50.913419],[0.726897,50.911577],[0.720157,50.908469],[0.709815,50.901982],[0.697537,50.894767],[0.694664,50.89353],[0.685785,50.888166],[0.683561,50.886272],[0.682226,50.885762],[0.679723,50.881836],[0.679,50.881178],[0.677196,50.880526],[0.677095,50.880132],[0.67306,50.878151],[0.672616,50.877059],[0.670518,50.875589],[0.67062,50.874853],[0.670079,50.873964],[0.666023,50.87204],[0.664293,50.871698],[0.660027,50.870111],[0.658536,50.869915],[0.656447,50.871657],[0.655854,50.872781],[0.647154,50.871145],[0.646368,50.871318],[0.643305,50.872888],[0.642691,50.874404],[0.640327,50.87449],[0.64039,50.876369],[0.639503,50.876024],[0.639318,50.876323],[0.638667,50.876179],[0.63858,50.8773],[0.636266,50.876901],[0.635779,50.877454],[0.63337,50.877304],[0.627527,50.879942],[0.626518,50.880988],[0.6235,50.881716],[0.622777,50.882459],[0.623717,50.883143],[0.623131,50.883428],[0.620898,50.884184],[0.618976,50.884084],[0.617622,50.884775],[0.615289,50.885328],[0.61406,50.884904],[0.613807,50.883703],[0.611199,50.881756],[0.613097,50.880758],[0.606001,50.878638],[0.603722,50.878566],[0.599933,50.882849],[0.599006,50.88345],[0.599185,50.883902],[0.597742,50.884602],[0.596099,50.884708],[0.595579,50.883587],[0.594253,50.883676],[0.594372,50.88439],[0.591483,50.883947],[0.589867,50.88273],[0.589604,50.882909],[0.589106,50.882593],[0.588168,50.883537],[0.588588,50.884026],[0.58762,50.8845],[0.58696,50.884569],[0.586485,50.88419],[0.581868,50.884737],[0.581159,50.884083],[0.581202,50.883617],[0.573095,50.885819],[0.568426,50.887621],[0.56827,50.888437],[0.56087,50.888878],[0.561222,50.890756],[0.558741,50.889914],[0.557393,50.890424],[0.559134,50.891416],[0.556313,50.894083],[0.555135,50.894026],[0.555144,50.893555],[0.55373,50.892968],[0.552087,50.892783],[0.552023,50.892394],[0.546273,50.892102],[0.540381,50.893457],[0.53695,50.894825],[0.535612,50.89357],[0.533579,50.892934],[0.532757,50.892125],[0.531496,50.893275],[0.529357,50.892369],[0.528949,50.890181],[0.524276,50.883143],[0.522732,50.882896],[0.522842,50.882118],[0.524432,50.880882],[0.524291,50.879848],[0.522712,50.878129],[0.520876,50.877739],[0.519897,50.877188],[0.519905,50.87595],[0.520533,50.874828],[0.520066,50.873826],[0.520144,50.87225],[0.521409,50.870293],[0.520898,50.870096],[0.521782,50.869186],[0.520988,50.868149],[0.521168,50.866923],[0.518624,50.864891],[0.519776,50.862643],[0.518112,50.862261],[0.51783,50.860767],[0.521012,50.859321],[0.521722,50.85855],[0.521326,50.857763],[0.520481,50.857267],[0.521693,50.856951],[0.521009,50.854499],[0.520303,50.854359],[0.52011,50.852553],[0.521189,50.851744],[0.51219,50.848981],[0.512127,50.84984],[0.510593,50.85001],[0.508573,50.85087],[0.507089,50.849518],[0.507681,50.849073],[0.507569,50.848322],[0.50627,50.847398],[0.505662,50.847366],[0.505931,50.845472],[0.504124,50.844806],[0.505228,50.84431],[0.50449,50.843705],[0.498296,50.841242],[0.486231,50.839317],[0.483317,50.838643],[0.481064,50.837652],[0.419323,50.831309],[0.412951,50.830144],[0.397507,50.825887],[0.389826,50.824081],[0.377491,50.820353],[0.377185,50.82071],[0.377907,50.822341],[0.377534,50.823671],[0.37612,50.82585],[0.37534,50.828586],[0.372534,50.831641],[0.373744,50.83225],[0.375147,50.83178],[0.375601,50.83263],[0.376583,50.833113],[0.377289,50.833018],[0.3768,50.834145],[0.377025,50.836431],[0.376364,50.836641],[0.376088,50.836438],[0.374655,50.83713],[0.373857,50.838094],[0.37457,50.838878],[0.374738,50.839872],[0.375771,50.840901],[0.377056,50.841399],[0.378038,50.842379],[0.379533,50.842474],[0.380561,50.842922],[0.380968,50.842676],[0.381931,50.843321],[0.384103,50.842946],[0.386263,50.843923],[0.390015,50.844397],[0.393968,50.846013],[0.39453,50.846654],[0.398861,50.848298],[0.398569,50.848814],[0.401706,50.849747],[0.401703,50.850367],[0.405833,50.850469],[0.408088,50.850908],[0.407981,50.852315],[0.412015,50.855758],[0.413978,50.856178],[0.415466,50.856069],[0.417439,50.856588],[0.419437,50.857628],[0.42073,50.85848],[0.421687,50.859606],[0.421146,50.860094],[0.424181,50.862875],[0.425893,50.863119],[0.426758,50.864095],[0.429774,50.864996],[0.431535,50.866144],[0.435143,50.866558],[0.44063,50.867968],[0.441197,50.86783],[0.441423,50.868381],[0.443717,50.87008],[0.444675,50.869661],[0.447598,50.872518],[0.45016,50.873763],[0.446708,50.873456],[0.445276,50.874542],[0.445734,50.874918],[0.445339,50.876063],[0.446498,50.877749],[0.449085,50.878951],[0.444566,50.881697],[0.44421,50.882397],[0.44117,50.88447],[0.441168,50.885212],[0.439773,50.887239],[0.439553,50.889288],[0.437764,50.889877],[0.434417,50.889806],[0.43298,50.891086],[0.430948,50.891292],[0.429616,50.891825],[0.429781,50.892294],[0.431178,50.89301],[0.435075,50.892862],[0.435845,50.893583],[0.433907,50.894243],[0.430361,50.894342],[0.428641,50.895055],[0.427273,50.894683],[0.423019,50.89494],[0.422656,50.893232],[0.419942,50.893025],[0.420088,50.894746],[0.417104,50.896039],[0.416357,50.896851],[0.41227,50.896419],[0.409702,50.895111],[0.408489,50.895027],[0.405511,50.893869],[0.402585,50.893709],[0.398703,50.892041],[0.395885,50.89143],[0.394653,50.890878],[0.392423,50.889041],[0.389823,50.887793],[0.38869,50.887768],[0.385483,50.886899],[0.384754,50.887122],[0.380671,50.885327],[0.380543,50.88474],[0.379237,50.883604],[0.37442,50.883047],[0.372654,50.884232],[0.371001,50.886384],[0.371244,50.886737],[0.370126,50.887063],[0.369779,50.887678],[0.368286,50.887637],[0.366714,50.889103],[0.367194,50.889991],[0.368652,50.891054],[0.369566,50.89258],[0.371118,50.893575],[0.372151,50.896185],[0.374303,50.898393],[0.372535,50.899799],[0.370117,50.900431],[0.370455,50.901122],[0.368175,50.901939],[0.368629,50.903847],[0.368058,50.903999],[0.367301,50.901997],[0.364624,50.902947],[0.364116,50.902333],[0.362971,50.903438],[0.361945,50.903796],[0.362487,50.904359],[0.361043,50.90519],[0.360673,50.906049],[0.361047,50.908414],[0.359105,50.911254],[0.358229,50.913483],[0.360326,50.913739],[0.361557,50.913468],[0.36378,50.91393],[0.363895,50.914364],[0.36354,50.914433],[0.364151,50.914929],[0.364062,50.916096],[0.36468,50.916519],[0.363637,50.917055],[0.361805,50.917344],[0.359955,50.917118],[0.357762,50.917303],[0.35859,50.921942],[0.358994,50.92233],[0.363058,50.923183],[0.363783,50.923831],[0.36381,50.924084],[0.363218,50.923888],[0.362511,50.924098],[0.362495,50.925821],[0.366598,50.930607],[0.366801,50.932947],[0.364773,50.934151],[0.36226,50.934803],[0.360881,50.935997],[0.356634,50.935266],[0.355862,50.935431],[0.354663,50.935959],[0.353502,50.93765],[0.35145,50.938676],[0.34765,50.93827],[0.34269,50.939441],[0.341321,50.941432],[0.342472,50.942243],[0.343212,50.942354],[0.343517,50.94433],[0.341004,50.946603],[0.337635,50.947845],[0.338173,50.950356],[0.338814,50.950715],[0.335933,50.953044],[0.337768,50.953783],[0.341549,50.95708],[0.344011,50.957346],[0.343584,50.959147],[0.341611,50.960606],[0.338513,50.960642],[0.334998,50.961188],[0.327267,50.960918],[0.325647,50.961531],[0.324025,50.962921],[0.323546,50.96388],[0.324988,50.964419],[0.325826,50.966076],[0.326483,50.966544],[0.327663,50.970488],[0.330152,50.97305],[0.330272,50.974874],[0.328903,50.978157],[0.329033,50.97987],[0.328204,50.981193],[0.327024,50.984911],[0.324299,50.986143],[0.32386,50.986896],[0.323012,50.987088],[0.323146,50.9882],[0.323612,50.988632],[0.323193,50.989433],[0.323599,50.990416],[0.322358,50.992802],[0.323341,50.994563],[0.324735,50.995731],[0.321586,50.996684],[0.324651,50.998097],[0.323472,50.998904],[0.323432,50.999528],[0.322605,51.000097],[0.325932,51.00141],[0.327859,51.003089],[0.328913,51.003439],[0.329375,51.00396],[0.330086,51.004026],[0.330217,51.005877],[0.330701,51.00602],[0.330849,51.006507],[0.330414,51.006762],[0.329983,51.010457],[0.328762,51.011442],[0.328695,51.012032],[0.328262,51.012101],[0.328659,51.012882],[0.331161,51.013883],[0.333397,51.013718],[0.333573,51.014443],[0.333997,51.014087],[0.336236,51.013982],[0.341743,51.015591],[0.343602,51.015324],[0.344346,51.015707],[0.344672,51.015469],[0.346084,51.016338],[0.347248,51.016347],[0.347695,51.017071],[0.34858,51.016949],[0.348867,51.01734],[0.349387,51.017001],[0.349484,51.017517],[0.351608,51.017584],[0.352913,51.0172],[0.35395,51.017487],[0.353924,51.017896],[0.351894,51.018333],[0.351714,51.020106],[0.351422,51.020447],[0.350266,51.020401],[0.349948,51.021168],[0.349555,51.021195],[0.349728,51.021657],[0.34902,51.021569],[0.348872,51.022022],[0.347645,51.021836],[0.347719,51.022116],[0.3469,51.022536],[0.348154,51.02297],[0.347716,51.023391],[0.347186,51.023358],[0.3466,51.0241],[0.347167,51.024174],[0.34686,51.024564],[0.347415,51.025478],[0.346928,51.025817],[0.34755,51.026557],[0.350338,51.028141],[0.352688,51.030046],[0.353269,51.030068],[0.355494,51.031853],[0.355572,51.033003],[0.35496,51.033873],[0.356115,51.036431],[0.355272,51.036829],[0.354861,51.041207],[0.35569,51.042806],[0.357952,51.044622],[0.358311,51.046057],[0.356848,51.051007],[0.357012,51.057121],[0.356709,51.057867],[0.358953,51.05948],[0.361528,51.062433],[0.361353,51.065277],[0.363044,51.066978],[0.364972,51.067661],[0.367292,51.06779],[0.367635,51.06826],[0.370712,51.069787],[0.371647,51.069852],[0.373625,51.070726],[0.373898,51.071212],[0.374673,51.071316],[0.375259,51.071896],[0.375041,51.072125],[0.376106,51.072508],[0.378125,51.072796],[0.378412,51.072493],[0.379471,51.072799],[0.379898,51.072261],[0.380422,51.072666],[0.381518,51.072764],[0.382012,51.072353],[0.382636,51.072772],[0.384243,51.072591],[0.384948,51.073029],[0.38526,51.072706],[0.386498,51.072487],[0.38756,51.072826],[0.388132,51.072419],[0.389795,51.073015],[0.390037,51.072697],[0.39074,51.072903],[0.390909,51.072551],[0.391326,51.072769],[0.391111,51.073081],[0.392224,51.072904],[0.392345,51.073376],[0.392823,51.073165],[0.394052,51.07356],[0.393607,51.073671],[0.39396,51.073827],[0.395772,51.073913],[0.392253,51.077367],[0.395182,51.080407],[0.397944,51.082548],[0.396496,51.083132],[0.39765,51.083645],[0.40027,51.082408]]]}}]}