{"type":"FeatureCollection","features":[{"type":"Feature","properties":{"slug":"rugby","gss_code":"E07000220","name":"Rugby"},"geometry":{"type":"Polygon","coordinates":[[[-1.37325,52.519127],[-1.373542,52.518078],[-1.368236,52.517226],[-1.368153,52.516453],[-1.365275,52.515725],[-1.364955,52.515942],[-1.34179,52.507368],[-1.338442,52.505777],[-1.307827,52.49454],[-1.305948,52.493395],[-1.293593,52.484261],[-1.257831,52.453893],[-1.242918,52.43968],[-1.241574,52.439756],[-1.240743,52.440135],[-1.224386,52.423006],[-1.201633,52.396734],[-1.20265,52.396622],[-1.172126,52.361301],[-1.174693,52.360545],[-1.175019,52.356251],[-1.178193,52.355113],[-1.179234,52.354377],[-1.183818,52.354626],[-1.184242,52.353668],[-1.186616,52.354272],[-1.187833,52.353064],[-1.18827,52.3532],[-1.189001,52.352417],[-1.191426,52.351708],[-1.192018,52.351063],[-1.192602,52.351456],[-1.192425,52.351754],[-1.195635,52.353083],[-1.196963,52.352745],[-1.19822,52.352932],[-1.199744,52.352613],[-1.200064,52.35227],[-1.202267,52.352355],[-1.202479,52.351828],[-1.203447,52.351799],[-1.204205,52.35127],[-1.20623,52.350836],[-1.206379,52.350462],[-1.208144,52.349961],[-1.208176,52.349574],[-1.209313,52.34954],[-1.209461,52.349123],[-1.210699,52.349073],[-1.210818,52.348778],[-1.21138,52.349123],[-1.212599,52.349139],[-1.212903,52.349694],[-1.213669,52.349915],[-1.214197,52.349638],[-1.214645,52.349963],[-1.216539,52.349884],[-1.217058,52.349572],[-1.22132,52.349587],[-1.221438,52.349255],[-1.223724,52.348641],[-1.223523,52.348212],[-1.224382,52.347832],[-1.223925,52.347529],[-1.225666,52.346678],[-1.227597,52.346519],[-1.229761,52.347084],[-1.230205,52.346732],[-1.230407,52.347037],[-1.231105,52.346688],[-1.231497,52.346859],[-1.233711,52.346437],[-1.238255,52.343877],[-1.239286,52.343951],[-1.239592,52.343275],[-1.240858,52.343017],[-1.241333,52.342609],[-1.242659,52.342568],[-1.243546,52.341993],[-1.245831,52.341758],[-1.248577,52.340978],[-1.249142,52.340647],[-1.249255,52.339937],[-1.250744,52.339154],[-1.252983,52.338854],[-1.253277,52.338296],[-1.255034,52.338313],[-1.258069,52.33727],[-1.262287,52.334193],[-1.263091,52.33291],[-1.262453,52.33219],[-1.264197,52.330647],[-1.264422,52.329078],[-1.265267,52.328377],[-1.260893,52.327864],[-1.257279,52.325515],[-1.255128,52.324731],[-1.254361,52.324777],[-1.253396,52.32405],[-1.252364,52.324073],[-1.25198,52.323617],[-1.251348,52.323705],[-1.250725,52.323117],[-1.250045,52.323405],[-1.248784,52.323237],[-1.247636,52.321956],[-1.246433,52.321988],[-1.246384,52.321612],[-1.244749,52.321501],[-1.243662,52.321917],[-1.242545,52.321685],[-1.242108,52.321904],[-1.237035,52.32032],[-1.235122,52.32056],[-1.234217,52.320161],[-1.231159,52.320035],[-1.225885,52.31898],[-1.225881,52.318771],[-1.223659,52.318642],[-1.216364,52.317113],[-1.215652,52.316644],[-1.215206,52.31697],[-1.212992,52.315723],[-1.212013,52.316081],[-1.209234,52.315204],[-1.209251,52.314673],[-1.210405,52.313754],[-1.212317,52.310686],[-1.215558,52.308829],[-1.217159,52.307209],[-1.217537,52.305984],[-1.220906,52.305852],[-1.220902,52.303357],[-1.223882,52.302755],[-1.224794,52.301489],[-1.226415,52.30062],[-1.226491,52.298185],[-1.228956,52.297957],[-1.228859,52.295171],[-1.231831,52.294278],[-1.233783,52.290328],[-1.232452,52.289803],[-1.231684,52.290226],[-1.231587,52.289828],[-1.230759,52.289612],[-1.231722,52.289171],[-1.230973,52.289125],[-1.230929,52.288796],[-1.230427,52.289089],[-1.230222,52.288816],[-1.229563,52.289289],[-1.229679,52.288879],[-1.228678,52.288685],[-1.228174,52.288973],[-1.227576,52.288639],[-1.227786,52.289225],[-1.227441,52.289255],[-1.225335,52.288159],[-1.224079,52.28684],[-1.223606,52.28689],[-1.223508,52.28664],[-1.224176,52.286557],[-1.224139,52.286254],[-1.22352,52.286239],[-1.223845,52.285454],[-1.222817,52.284664],[-1.22242,52.284703],[-1.222836,52.283403],[-1.222543,52.282239],[-1.22337,52.281673],[-1.222879,52.281015],[-1.223513,52.280805],[-1.222297,52.280524],[-1.221173,52.279406],[-1.221773,52.278706],[-1.220651,52.277763],[-1.221565,52.277445],[-1.221691,52.276451],[-1.220024,52.276053],[-1.219958,52.275756],[-1.220594,52.275582],[-1.220883,52.275036],[-1.220475,52.274752],[-1.220866,52.274035],[-1.220147,52.273973],[-1.220961,52.273555],[-1.21974,52.273471],[-1.220132,52.27298],[-1.218734,52.272227],[-1.219563,52.272166],[-1.218774,52.271123],[-1.219336,52.270361],[-1.218559,52.270179],[-1.218693,52.269669],[-1.217675,52.269308],[-1.217869,52.269005],[-1.217005,52.268812],[-1.216983,52.268336],[-1.21765,52.268249],[-1.216559,52.2667],[-1.21565,52.266401],[-1.216057,52.266229],[-1.215835,52.265741],[-1.216547,52.265353],[-1.216002,52.265116],[-1.21583,52.264464],[-1.216326,52.264268],[-1.215842,52.263949],[-1.217252,52.262982],[-1.217063,52.26265],[-1.218353,52.262117],[-1.217855,52.261801],[-1.219209,52.261329],[-1.219778,52.261553],[-1.220586,52.26065],[-1.221663,52.260622],[-1.221843,52.260304],[-1.223746,52.259963],[-1.223526,52.259724],[-1.224347,52.259213],[-1.22364,52.259018],[-1.224668,52.258029],[-1.225402,52.258352],[-1.225819,52.258159],[-1.226575,52.257658],[-1.226358,52.256885],[-1.227042,52.257065],[-1.228011,52.255865],[-1.230104,52.25541],[-1.230064,52.254807],[-1.231137,52.255136],[-1.231039,52.25483],[-1.232144,52.254761],[-1.231461,52.254501],[-1.232403,52.254086],[-1.23233,52.253498],[-1.232771,52.253568],[-1.232999,52.253259],[-1.239213,52.252734],[-1.245034,52.252973],[-1.247551,52.253396],[-1.251308,52.255036],[-1.253618,52.25565],[-1.259505,52.256449],[-1.259604,52.257199],[-1.264974,52.259242],[-1.267322,52.260683],[-1.271348,52.261416],[-1.272927,52.262511],[-1.272466,52.263075],[-1.276452,52.265197],[-1.276455,52.266592],[-1.273585,52.266794],[-1.275465,52.267913],[-1.2815,52.270055],[-1.287803,52.273626],[-1.287992,52.271079],[-1.289754,52.270482],[-1.290239,52.269119],[-1.292491,52.267038],[-1.293339,52.265404],[-1.29573,52.264433],[-1.298151,52.26459],[-1.299479,52.264252],[-1.305469,52.260137],[-1.30622,52.258888],[-1.308289,52.257823],[-1.30889,52.257831],[-1.309015,52.257473],[-1.311629,52.259921],[-1.309429,52.260719],[-1.312544,52.262822],[-1.313333,52.262792],[-1.314735,52.265544],[-1.315734,52.265699],[-1.31574,52.267017],[-1.321394,52.266675],[-1.32187,52.26737],[-1.322725,52.267739],[-1.324785,52.268007],[-1.328145,52.269419],[-1.333833,52.271172],[-1.335192,52.27124],[-1.3357,52.271823],[-1.338469,52.273152],[-1.341025,52.274852],[-1.3465,52.276285],[-1.346561,52.277448],[-1.354806,52.279138],[-1.355174,52.280432],[-1.357019,52.280145],[-1.356996,52.280558],[-1.360667,52.28098],[-1.359257,52.282923],[-1.362351,52.283413],[-1.362519,52.285167],[-1.363965,52.286441],[-1.364562,52.287994],[-1.366364,52.288053],[-1.366223,52.288593],[-1.368229,52.289163],[-1.36781,52.289659],[-1.370532,52.291383],[-1.375661,52.293627],[-1.379104,52.294524],[-1.378947,52.294787],[-1.38312,52.297112],[-1.389761,52.300288],[-1.389269,52.3009],[-1.392234,52.301766],[-1.398304,52.302451],[-1.405751,52.303951],[-1.408492,52.304174],[-1.40902,52.302899],[-1.414793,52.303131],[-1.419408,52.303754],[-1.419233,52.304931],[-1.418643,52.305382],[-1.419443,52.305857],[-1.419502,52.306872],[-1.419019,52.307038],[-1.420859,52.308106],[-1.420513,52.308665],[-1.421132,52.309084],[-1.418962,52.311693],[-1.419908,52.312266],[-1.418727,52.313232],[-1.416434,52.313575],[-1.415533,52.313435],[-1.415647,52.312516],[-1.413524,52.312261],[-1.412731,52.311822],[-1.412526,52.312424],[-1.410396,52.313254],[-1.410375,52.313604],[-1.411294,52.313793],[-1.410793,52.314205],[-1.410186,52.31405],[-1.410333,52.314752],[-1.409,52.314883],[-1.409045,52.31536],[-1.406635,52.315291],[-1.406078,52.316618],[-1.406991,52.319192],[-1.407852,52.319426],[-1.408014,52.320071],[-1.40926,52.320763],[-1.412712,52.320948],[-1.412803,52.320664],[-1.413509,52.320608],[-1.416168,52.322112],[-1.416242,52.323984],[-1.417063,52.325073],[-1.416702,52.325552],[-1.418098,52.326333],[-1.419056,52.326345],[-1.420169,52.326836],[-1.421521,52.326385],[-1.423138,52.326563],[-1.424234,52.326215],[-1.425031,52.326648],[-1.427506,52.325751],[-1.427486,52.326096],[-1.428581,52.326827],[-1.431683,52.326845],[-1.435976,52.328417],[-1.439473,52.331523],[-1.440329,52.332742],[-1.441867,52.333471],[-1.441799,52.334656],[-1.443169,52.336727],[-1.442908,52.338217],[-1.444124,52.341045],[-1.446566,52.340274],[-1.44773,52.340343],[-1.447958,52.340638],[-1.446018,52.343547],[-1.443643,52.345536],[-1.445777,52.345876],[-1.450356,52.345527],[-1.45433,52.346101],[-1.456199,52.346777],[-1.456502,52.349256],[-1.45528,52.349886],[-1.452362,52.352457],[-1.449395,52.353509],[-1.448051,52.353677],[-1.4512,52.357048],[-1.455085,52.35684],[-1.461513,52.358914],[-1.464001,52.357987],[-1.464914,52.358078],[-1.464987,52.359935],[-1.464059,52.360564],[-1.463577,52.359866],[-1.462957,52.359978],[-1.463196,52.360566],[-1.462293,52.360798],[-1.462224,52.361448],[-1.46142,52.361527],[-1.460445,52.363132],[-1.462357,52.363663],[-1.461945,52.364316],[-1.462819,52.36489],[-1.462426,52.365339],[-1.463019,52.366614],[-1.464983,52.367138],[-1.46479,52.367858],[-1.46385,52.368718],[-1.462799,52.369284],[-1.461254,52.36951],[-1.460373,52.370439],[-1.462512,52.372448],[-1.464055,52.372789],[-1.46375,52.373771],[-1.462084,52.374083],[-1.460448,52.374824],[-1.462924,52.376403],[-1.46146,52.377449],[-1.463131,52.37967],[-1.459265,52.381568],[-1.450896,52.383763],[-1.444964,52.386377],[-1.435819,52.392265],[-1.432658,52.395039],[-1.430876,52.398124],[-1.431032,52.400275],[-1.432644,52.402713],[-1.437246,52.407917],[-1.437997,52.409758],[-1.437836,52.41055],[-1.434782,52.412584],[-1.432398,52.415692],[-1.42443,52.430708],[-1.423938,52.432908],[-1.424146,52.434],[-1.425208,52.434797],[-1.428785,52.435779],[-1.42993,52.436793],[-1.431694,52.43679],[-1.431865,52.437526],[-1.440093,52.439686],[-1.439817,52.440274],[-1.446655,52.442602],[-1.445015,52.446427],[-1.44434,52.446395],[-1.443645,52.44679],[-1.444374,52.447092],[-1.443647,52.447422],[-1.445474,52.448298],[-1.446053,52.447546],[-1.452165,52.449658],[-1.460399,52.453632],[-1.458746,52.454751],[-1.459053,52.455158],[-1.451424,52.460163],[-1.45064,52.460623],[-1.450148,52.46038],[-1.449361,52.460821],[-1.437622,52.468047],[-1.428128,52.467107],[-1.421253,52.463226],[-1.421055,52.464507],[-1.417001,52.464536],[-1.410411,52.466566],[-1.40856,52.473802],[-1.406946,52.476484],[-1.405023,52.476391],[-1.404629,52.47828],[-1.406199,52.480347],[-1.405703,52.480682],[-1.404791,52.483101],[-1.406075,52.483337],[-1.405876,52.484846],[-1.408453,52.485197],[-1.40884,52.486434],[-1.410604,52.486238],[-1.411774,52.488639],[-1.409661,52.490207],[-1.409716,52.491266],[-1.408392,52.492137],[-1.407658,52.492199],[-1.407646,52.493655],[-1.406868,52.493657],[-1.405704,52.497057],[-1.402812,52.500835],[-1.404646,52.501708],[-1.403887,52.502381],[-1.407506,52.50372],[-1.405796,52.505765],[-1.405413,52.506857],[-1.406923,52.50883],[-1.406678,52.509656],[-1.407386,52.510986],[-1.405462,52.513134],[-1.407546,52.515337],[-1.414487,52.516732],[-1.419409,52.516442],[-1.42143,52.515664],[-1.423046,52.514606],[-1.423331,52.514803],[-1.424142,52.514446],[-1.426958,52.515201],[-1.427952,52.515134],[-1.428868,52.516191],[-1.426836,52.517471],[-1.426896,52.518288],[-1.425401,52.519007],[-1.425649,52.519668],[-1.424609,52.52075],[-1.424955,52.521799],[-1.424401,52.524783],[-1.423314,52.526406],[-1.422021,52.526594],[-1.421464,52.527465],[-1.422158,52.527957],[-1.421261,52.528662],[-1.42162,52.528966],[-1.42138,52.529611],[-1.422573,52.530456],[-1.422666,52.53157],[-1.420944,52.53244],[-1.420701,52.532882],[-1.420164,52.532745],[-1.419741,52.533362],[-1.418485,52.533447],[-1.418371,52.53405],[-1.417344,52.534455],[-1.416058,52.534483],[-1.37325,52.519127]]]}}]}