{"type":"FeatureCollection","features":[{"type":"Feature","properties":{"slug":"runnymede","gss_code":"E07000212","name":"Runnymede"},"geometry":{"type":"Polygon","coordinates":[[[-0.555569,51.441478],[-0.554052,51.441515],[-0.552861,51.442889],[-0.551818,51.4435],[-0.550448,51.443468],[-0.54836,51.441921],[-0.537599,51.438778],[-0.534661,51.437365],[-0.527582,51.435692],[-0.522778,51.435304],[-0.518867,51.434445],[-0.511216,51.430625],[-0.510266,51.429345],[-0.509735,51.426763],[-0.509821,51.424476],[-0.512875,51.419002],[-0.512596,51.417377],[-0.511218,51.416888],[-0.506371,51.417311],[-0.502681,51.415886],[-0.501736,51.415044],[-0.501657,51.414397],[-0.503737,51.411396],[-0.503244,51.410803],[-0.500879,51.410604],[-0.500272,51.41092],[-0.500021,51.411388],[-0.5008,51.413276],[-0.499772,51.414079],[-0.498115,51.414076],[-0.494568,51.412916],[-0.493203,51.411887],[-0.492517,51.410308],[-0.493087,51.405946],[-0.491169,51.403251],[-0.491947,51.40047],[-0.491763,51.399494],[-0.491082,51.398738],[-0.487863,51.396755],[-0.486893,51.395526],[-0.486389,51.393058],[-0.486876,51.392087],[-0.486423,51.388881],[-0.485104,51.387071],[-0.483754,51.386544],[-0.481841,51.386773],[-0.480637,51.387591],[-0.478667,51.390089],[-0.477736,51.390375],[-0.476476,51.390114],[-0.47226,51.387653],[-0.470136,51.385882],[-0.469832,51.384952],[-0.47102,51.382551],[-0.469954,51.381892],[-0.464776,51.381834],[-0.462509,51.382328],[-0.461774,51.382136],[-0.461308,51.381584],[-0.461682,51.38063],[-0.463501,51.37909],[-0.462796,51.378435],[-0.461464,51.378584],[-0.460733,51.379328],[-0.457991,51.380567],[-0.458049,51.379809],[-0.459016,51.379255],[-0.46014,51.379113],[-0.461641,51.376913],[-0.465009,51.376239],[-0.467623,51.37462],[-0.467488,51.373639],[-0.466385,51.372819],[-0.465571,51.370932],[-0.466156,51.370476],[-0.466845,51.370737],[-0.468248,51.370145],[-0.470021,51.367293],[-0.46765,51.366019],[-0.467557,51.365686],[-0.469292,51.365808],[-0.471495,51.364381],[-0.472082,51.365033],[-0.47373,51.365253],[-0.473984,51.364961],[-0.473045,51.364808],[-0.472372,51.363869],[-0.472819,51.363561],[-0.473301,51.364062],[-0.475468,51.364113],[-0.474173,51.362918],[-0.474854,51.363065],[-0.476136,51.361816],[-0.475817,51.360615],[-0.475133,51.36029],[-0.476087,51.359547],[-0.475551,51.359146],[-0.474557,51.359053],[-0.474207,51.358029],[-0.473486,51.358193],[-0.472192,51.357826],[-0.470081,51.358086],[-0.469927,51.357851],[-0.470679,51.357634],[-0.470677,51.357284],[-0.470108,51.357119],[-0.468434,51.357542],[-0.466971,51.356575],[-0.472491,51.353776],[-0.474818,51.352076],[-0.47841,51.350786],[-0.481186,51.349384],[-0.481921,51.349555],[-0.486462,51.347328],[-0.515625,51.338858],[-0.517797,51.341018],[-0.518292,51.340697],[-0.51933,51.341704],[-0.517904,51.342575],[-0.518844,51.343773],[-0.520202,51.343179],[-0.520767,51.344952],[-0.523125,51.34382],[-0.524196,51.345101],[-0.530359,51.345561],[-0.533445,51.346559],[-0.534441,51.347682],[-0.535,51.347364],[-0.535861,51.347394],[-0.535831,51.346889],[-0.53779,51.346434],[-0.541164,51.347254],[-0.54195,51.347183],[-0.542202,51.347456],[-0.543705,51.347142],[-0.544903,51.347864],[-0.546173,51.347598],[-0.548549,51.348021],[-0.548492,51.349164],[-0.551238,51.353271],[-0.550025,51.354264],[-0.550785,51.35654],[-0.555234,51.361936],[-0.560355,51.362015],[-0.569625,51.360337],[-0.571285,51.362374],[-0.572889,51.365511],[-0.5731,51.368102],[-0.574018,51.370838],[-0.579301,51.372174],[-0.587484,51.375048],[-0.594416,51.376526],[-0.59806,51.38628],[-0.603049,51.387251],[-0.604246,51.388095],[-0.605991,51.388372],[-0.607247,51.389677],[-0.608946,51.389841],[-0.616499,51.392408],[-0.618495,51.392388],[-0.619635,51.392824],[-0.61542,51.396376],[-0.615584,51.396739],[-0.616586,51.397014],[-0.615608,51.397648],[-0.615017,51.397039],[-0.614521,51.397394],[-0.615792,51.3987],[-0.616475,51.398288],[-0.617212,51.398759],[-0.6181,51.398643],[-0.618369,51.399026],[-0.614384,51.403093],[-0.611296,51.408709],[-0.606683,51.414111],[-0.605155,51.41736],[-0.605125,51.431312],[-0.594188,51.439309],[-0.593933,51.440474],[-0.594557,51.440919],[-0.594222,51.441545],[-0.593008,51.441819],[-0.591167,51.441138],[-0.590508,51.44121],[-0.58848,51.442342],[-0.585378,51.442366],[-0.584503,51.443657],[-0.579676,51.444747],[-0.57169,51.450992],[-0.56782,51.45008],[-0.564945,51.448038],[-0.563142,51.445751],[-0.559714,51.444528],[-0.556773,51.442049],[-0.555569,51.441478]]]}}]}