{"type":"FeatureCollection","features":[{"type":"Feature","properties":{"slug":"rushcliffe","gss_code":"E07000176","name":"Rushcliffe"},"geometry":{"type":"Polygon","coordinates":[[[-0.87978,53.006353],[-0.876255,53.006997],[-0.872449,53.007137],[-0.868633,53.007967],[-0.864553,53.011344],[-0.86088,53.010119],[-0.860831,53.009825],[-0.859506,53.009388],[-0.855078,53.006674],[-0.851599,53.008524],[-0.850596,53.008524],[-0.848965,53.009657],[-0.847268,53.008872],[-0.843632,53.008177],[-0.835759,53.005696],[-0.833354,53.007724],[-0.829913,53.006548],[-0.828903,53.003191],[-0.825049,53.002253],[-0.822313,53.000394],[-0.822198,52.999968],[-0.823046,52.999467],[-0.823484,52.997221],[-0.822365,52.992624],[-0.820595,52.989667],[-0.820372,52.987752],[-0.818147,52.986625],[-0.815158,52.985661],[-0.822079,52.976914],[-0.825447,52.973333],[-0.826134,52.973511],[-0.828279,52.972218],[-0.830476,52.971624],[-0.83159,52.97057],[-0.836072,52.967921],[-0.822373,52.962474],[-0.820022,52.960464],[-0.832856,52.9496],[-0.830881,52.948586],[-0.833909,52.945881],[-0.828057,52.944545],[-0.822567,52.944087],[-0.824361,52.94179],[-0.827425,52.94174],[-0.834926,52.939388],[-0.836219,52.938098],[-0.835331,52.9378],[-0.836778,52.935792],[-0.841333,52.931109],[-0.840597,52.930364],[-0.842406,52.928517],[-0.841384,52.928375],[-0.848227,52.923588],[-0.852982,52.921096],[-0.854156,52.920899],[-0.857504,52.918883],[-0.858259,52.917498],[-0.860485,52.915817],[-0.862893,52.913114],[-0.863748,52.911325],[-0.860441,52.909834],[-0.861399,52.909087],[-0.861256,52.908626],[-0.857634,52.905642],[-0.860243,52.90402],[-0.869504,52.900264],[-0.873008,52.898171],[-0.87432,52.898218],[-0.875013,52.897503],[-0.875469,52.89758],[-0.878625,52.895677],[-0.886671,52.892039],[-0.894536,52.889789],[-0.899018,52.887928],[-0.899243,52.888125],[-0.903868,52.88642],[-0.906547,52.885232],[-0.906038,52.884678],[-0.90646,52.884499],[-0.909173,52.883689],[-0.912011,52.883597],[-0.911809,52.882222],[-0.914345,52.882405],[-0.914776,52.880692],[-0.915651,52.879597],[-0.916548,52.879585],[-0.916775,52.878876],[-0.92042,52.879672],[-0.920678,52.879202],[-0.925941,52.878852],[-0.927914,52.878347],[-0.930416,52.87899],[-0.931604,52.878023],[-0.933727,52.877181],[-0.933745,52.876644],[-0.940564,52.87683],[-0.93999,52.875102],[-0.938906,52.874064],[-0.936064,52.871811],[-0.932717,52.870063],[-0.928121,52.866083],[-0.934231,52.8641],[-0.93541,52.863208],[-0.938463,52.861963],[-0.940827,52.861564],[-0.941221,52.860925],[-0.940964,52.86063],[-0.941471,52.860398],[-0.94065,52.860405],[-0.940624,52.859801],[-0.939519,52.859547],[-0.939341,52.859018],[-0.938687,52.858997],[-0.939447,52.85804],[-0.939217,52.856828],[-0.939916,52.857033],[-0.940108,52.856823],[-0.939399,52.856059],[-0.94055,52.856053],[-0.940126,52.855319],[-0.940924,52.855143],[-0.940595,52.854555],[-0.941196,52.85488],[-0.941887,52.854547],[-0.941217,52.853973],[-0.942339,52.854014],[-0.942399,52.853563],[-0.94338,52.853678],[-0.943377,52.853142],[-0.944051,52.853091],[-0.944218,52.852621],[-0.94498,52.852671],[-0.94545,52.852124],[-0.946009,52.852557],[-0.946308,52.852275],[-0.947005,52.852334],[-0.947884,52.85138],[-0.948295,52.851512],[-0.948092,52.851751],[-0.949061,52.851996],[-0.949239,52.851463],[-0.950232,52.851726],[-0.950306,52.851412],[-0.951022,52.851343],[-0.9506,52.851114],[-0.950738,52.85072],[-0.951324,52.850929],[-0.951731,52.850544],[-0.952831,52.85044],[-0.95467,52.849031],[-0.954455,52.848651],[-0.955195,52.848074],[-0.954986,52.847691],[-0.956194,52.847099],[-0.955743,52.846865],[-0.955882,52.846366],[-0.956743,52.846591],[-0.957437,52.846367],[-0.957751,52.845288],[-0.959242,52.845211],[-0.958939,52.844791],[-0.959734,52.844557],[-0.959435,52.843863],[-0.960375,52.843953],[-0.960864,52.843359],[-0.970613,52.844985],[-0.970475,52.844768],[-0.971514,52.844281],[-0.972318,52.843236],[-0.973073,52.84314],[-0.977075,52.840738],[-0.977364,52.83664],[-0.973915,52.834324],[-0.974435,52.833104],[-0.974924,52.833012],[-0.975308,52.831395],[-0.975359,52.830651],[-0.974778,52.829939],[-0.975514,52.829704],[-0.975051,52.829228],[-0.975895,52.828962],[-0.975724,52.828315],[-0.977167,52.828127],[-0.977377,52.826563],[-0.978053,52.825519],[-0.977788,52.825012],[-0.978137,52.824541],[-0.980086,52.823934],[-0.97993,52.823631],[-0.981446,52.822198],[-0.981314,52.821689],[-0.981916,52.821597],[-0.981923,52.821227],[-0.983491,52.82037],[-0.987668,52.819423],[-0.989004,52.81825],[-0.991534,52.819759],[-0.993809,52.820672],[-0.995493,52.820931],[-0.995683,52.821272],[-0.998579,52.820567],[-1.001678,52.820424],[-1.010181,52.821733],[-1.015549,52.82153],[-1.019207,52.821745],[-1.019629,52.822162],[-1.021488,52.822074],[-1.023506,52.821158],[-1.025586,52.819453],[-1.027852,52.820152],[-1.02799,52.819625],[-1.029919,52.818106],[-1.03483,52.816905],[-1.036507,52.816272],[-1.036395,52.815901],[-1.037467,52.816369],[-1.039929,52.816198],[-1.04219,52.81455],[-1.043577,52.814631],[-1.044707,52.814201],[-1.046004,52.814317],[-1.047269,52.81398],[-1.048876,52.81408],[-1.049643,52.813835],[-1.049766,52.813448],[-1.050515,52.813724],[-1.050337,52.814008],[-1.051768,52.813903],[-1.052581,52.815007],[-1.055128,52.81536],[-1.054987,52.815662],[-1.058554,52.81647],[-1.059205,52.81725],[-1.061756,52.815983],[-1.062204,52.816496],[-1.071738,52.814011],[-1.07214,52.814157],[-1.072073,52.814609],[-1.071392,52.814991],[-1.072004,52.815331],[-1.070961,52.81622],[-1.071534,52.816981],[-1.070564,52.816962],[-1.071115,52.817381],[-1.070183,52.817874],[-1.070566,52.818867],[-1.069892,52.81917],[-1.070429,52.819322],[-1.069714,52.819599],[-1.070108,52.819761],[-1.070065,52.820376],[-1.068839,52.820622],[-1.068812,52.821236],[-1.069646,52.82151],[-1.069462,52.822222],[-1.070362,52.822342],[-1.070774,52.822923],[-1.073371,52.823462],[-1.073699,52.823964],[-1.073242,52.82415],[-1.074435,52.824727],[-1.077058,52.824019],[-1.078705,52.824248],[-1.080757,52.823477],[-1.083747,52.822911],[-1.087872,52.821054],[-1.091485,52.82008],[-1.094191,52.821969],[-1.102041,52.820203],[-1.111552,52.820012],[-1.119163,52.819151],[-1.119959,52.818819],[-1.120067,52.817912],[-1.121513,52.817421],[-1.120598,52.814306],[-1.121248,52.812366],[-1.123053,52.810946],[-1.125725,52.810182],[-1.127416,52.808326],[-1.128827,52.807683],[-1.130893,52.805827],[-1.132988,52.80539],[-1.137275,52.805677],[-1.143964,52.803877],[-1.145002,52.80397],[-1.147461,52.805034],[-1.149924,52.80488],[-1.154074,52.806294],[-1.163048,52.806232],[-1.163276,52.806522],[-1.170595,52.804296],[-1.170472,52.803735],[-1.172102,52.803046],[-1.175168,52.803181],[-1.176677,52.802633],[-1.178403,52.801602],[-1.180217,52.799171],[-1.182474,52.798318],[-1.182828,52.797899],[-1.185696,52.797978],[-1.185768,52.797683],[-1.186704,52.797609],[-1.188908,52.796544],[-1.189183,52.795861],[-1.19141,52.794828],[-1.190998,52.794206],[-1.191484,52.793957],[-1.191159,52.793376],[-1.191579,52.792763],[-1.194242,52.791003],[-1.197985,52.789463],[-1.198698,52.790378],[-1.19778,52.790317],[-1.197403,52.790782],[-1.199001,52.790594],[-1.199703,52.79098],[-1.200004,52.79193],[-1.198649,52.792135],[-1.198484,52.793052],[-1.200289,52.793788],[-1.206279,52.793539],[-1.206808,52.793716],[-1.206923,52.794236],[-1.211671,52.794962],[-1.215346,52.794849],[-1.216732,52.793599],[-1.217127,52.793405],[-1.217554,52.793783],[-1.218403,52.793742],[-1.218234,52.793265],[-1.221039,52.791978],[-1.222069,52.791767],[-1.222784,52.792154],[-1.224635,52.792304],[-1.225886,52.791678],[-1.226506,52.792489],[-1.229262,52.793283],[-1.230836,52.796228],[-1.231894,52.796932],[-1.231969,52.797763],[-1.231144,52.798622],[-1.231786,52.800551],[-1.2385,52.803919],[-1.239836,52.804134],[-1.241512,52.805296],[-1.243808,52.805245],[-1.245302,52.806138],[-1.248999,52.805692],[-1.250668,52.805109],[-1.251863,52.805469],[-1.253851,52.804316],[-1.255285,52.804098],[-1.25997,52.807112],[-1.261945,52.810447],[-1.263377,52.81504],[-1.260018,52.818983],[-1.260943,52.820163],[-1.262051,52.820554],[-1.265087,52.820632],[-1.268945,52.823062],[-1.270885,52.823749],[-1.271252,52.824479],[-1.270889,52.828308],[-1.271353,52.831583],[-1.272151,52.832514],[-1.273983,52.833599],[-1.274363,52.83613],[-1.272331,52.83695],[-1.269336,52.836643],[-1.266934,52.83747],[-1.266813,52.838188],[-1.267572,52.838879],[-1.270662,52.839473],[-1.270514,52.839979],[-1.269072,52.840334],[-1.266398,52.842227],[-1.266212,52.842753],[-1.267771,52.845171],[-1.268632,52.845667],[-1.270841,52.84617],[-1.271093,52.847539],[-1.272227,52.848792],[-1.272212,52.849482],[-1.271152,52.851032],[-1.270632,52.85404],[-1.268023,52.856256],[-1.266666,52.856264],[-1.265077,52.856909],[-1.264572,52.85819],[-1.265105,52.858912],[-1.267127,52.859821],[-1.267896,52.85976],[-1.269042,52.858961],[-1.270831,52.858895],[-1.273914,52.859539],[-1.275283,52.86038],[-1.272755,52.862183],[-1.272661,52.86289],[-1.271527,52.864006],[-1.271578,52.865267],[-1.269504,52.866544],[-1.269656,52.867206],[-1.27124,52.867661],[-1.271534,52.868194],[-1.270783,52.869212],[-1.270147,52.871773],[-1.267889,52.873369],[-1.266104,52.873312],[-1.259909,52.875072],[-1.255828,52.878127],[-1.253611,52.879286],[-1.250251,52.879542],[-1.244826,52.878763],[-1.242616,52.879139],[-1.240055,52.880109],[-1.238448,52.881807],[-1.238985,52.883524],[-1.240688,52.884934],[-1.245238,52.887012],[-1.246245,52.888234],[-1.246399,52.889138],[-1.245857,52.890316],[-1.243859,52.89152],[-1.241282,52.892439],[-1.241249,52.892113],[-1.235919,52.892393],[-1.233457,52.89292],[-1.230815,52.894052],[-1.230252,52.894707],[-1.227747,52.89556],[-1.222547,52.89531],[-1.220493,52.895564],[-1.21922,52.896909],[-1.220798,52.900423],[-1.220164,52.902358],[-1.214843,52.903733],[-1.21392,52.904415],[-1.214149,52.903308],[-1.217499,52.900651],[-1.216573,52.900165],[-1.213233,52.900744],[-1.211302,52.902612],[-1.205005,52.900106],[-1.204309,52.900131],[-1.202813,52.899163],[-1.198922,52.897758],[-1.195884,52.897247],[-1.195456,52.897859],[-1.19123,52.896636],[-1.192107,52.895065],[-1.178235,52.891295],[-1.178834,52.889829],[-1.176936,52.889018],[-1.176088,52.889519],[-1.174956,52.88961],[-1.173648,52.891567],[-1.173831,52.892193],[-1.171971,52.89336],[-1.17089,52.894934],[-1.171129,52.895496],[-1.1702,52.896258],[-1.170281,52.896756],[-1.168788,52.897845],[-1.167082,52.898132],[-1.166883,52.898631],[-1.165926,52.899094],[-1.164253,52.899291],[-1.164108,52.899783],[-1.163391,52.899596],[-1.162562,52.900339],[-1.158564,52.900036],[-1.158621,52.905557],[-1.159994,52.909727],[-1.158974,52.90985],[-1.15881,52.912815],[-1.15631,52.927257],[-1.154159,52.934198],[-1.152289,52.937026],[-1.150352,52.935841],[-1.147863,52.932882],[-1.145402,52.932005],[-1.142365,52.931927],[-1.140061,52.932494],[-1.139372,52.93298],[-1.137675,52.937195],[-1.135194,52.94015],[-1.131591,52.942861],[-1.126245,52.943406],[-1.121388,52.942715],[-1.118032,52.943105],[-1.111957,52.944584],[-1.109161,52.944466],[-1.10394,52.942344],[-1.099677,52.941975],[-1.097594,52.94259],[-1.095331,52.944436],[-1.090067,52.94712],[-1.086115,52.94857],[-1.084791,52.948181],[-1.083153,52.948608],[-1.079897,52.951163],[-1.078258,52.95306],[-1.075102,52.95546],[-1.07383,52.955856],[-1.071805,52.955807],[-1.0679,52.954628],[-1.065666,52.952757],[-1.064621,52.951128],[-1.062352,52.950315],[-1.054425,52.951013],[-1.051158,52.952169],[-1.048281,52.952625],[-1.046965,52.952521],[-1.042918,52.951307],[-1.041557,52.951262],[-1.037228,52.95645],[-1.033794,52.958355],[-1.033078,52.959189],[-1.032911,52.962237],[-1.033487,52.964533],[-1.032623,52.966998],[-1.033598,52.969047],[-1.036452,52.971813],[-1.038158,52.981566],[-1.037563,52.983584],[-1.035963,52.984828],[-1.034009,52.985725],[-1.031092,52.986025],[-1.026159,52.985859],[-1.023927,52.985138],[-1.022642,52.984277],[-1.021131,52.981931],[-1.020021,52.980966],[-1.018389,52.98035],[-1.016553,52.980244],[-1.013254,52.981113],[-1.007086,52.985457],[-1.004475,52.986106],[-0.997724,52.986017],[-0.992071,52.9866],[-0.977897,52.985714],[-0.975962,52.986326],[-0.971875,52.988813],[-0.970439,52.990124],[-0.966447,52.996657],[-0.960786,53.003998],[-0.957397,53.005912],[-0.954762,53.008317],[-0.95203,53.009618],[-0.94976,53.010374],[-0.944431,53.011248],[-0.93802,53.014115],[-0.929216,53.02075],[-0.924793,53.02702],[-0.92244,53.029237],[-0.919393,53.03102],[-0.917418,53.031568],[-0.915116,53.033496],[-0.91012,53.035928],[-0.910075,53.035088],[-0.909274,53.034134],[-0.910149,53.033202],[-0.910428,53.032081],[-0.909901,53.030152],[-0.905768,53.027245],[-0.903934,53.025476],[-0.896957,53.016624],[-0.895422,53.015536],[-0.884297,53.011257],[-0.881944,53.009171],[-0.87978,53.006353]]]}}]}