{"type":"FeatureCollection","features":[{"type":"Feature","properties":{"slug":"rushmoor","gss_code":"E07000092","name":"Rushmoor"},"geometry":{"type":"Polygon","coordinates":[[[-0.764209,51.317593],[-0.76387,51.318224],[-0.762903,51.318731],[-0.763051,51.318353],[-0.762311,51.317465],[-0.761333,51.317344],[-0.761071,51.316944],[-0.759249,51.317162],[-0.758512,51.316769],[-0.758291,51.315926],[-0.756448,51.314667],[-0.756411,51.314021],[-0.755584,51.313509],[-0.754432,51.313491],[-0.753573,51.312795],[-0.752138,51.312439],[-0.751268,51.312561],[-0.749624,51.311447],[-0.748639,51.31163],[-0.747969,51.31134],[-0.748124,51.311071],[-0.747364,51.310433],[-0.746389,51.310618],[-0.746155,51.310001],[-0.744167,51.309295],[-0.744424,51.308233],[-0.743683,51.307861],[-0.74359,51.307456],[-0.744698,51.306905],[-0.743621,51.306544],[-0.74357,51.305715],[-0.742321,51.305538],[-0.742421,51.305027],[-0.741733,51.304749],[-0.741606,51.303688],[-0.740287,51.302343],[-0.740484,51.301923],[-0.739393,51.301355],[-0.739223,51.299915],[-0.738836,51.299751],[-0.739811,51.298658],[-0.739654,51.297287],[-0.738946,51.297032],[-0.739974,51.296127],[-0.739307,51.295125],[-0.739347,51.294026],[-0.738471,51.293647],[-0.738238,51.292897],[-0.736688,51.292424],[-0.737231,51.289674],[-0.736089,51.288353],[-0.736363,51.287526],[-0.735622,51.286254],[-0.735985,51.285945],[-0.734254,51.284376],[-0.733761,51.284434],[-0.73328,51.284034],[-0.733873,51.283791],[-0.733393,51.283401],[-0.733836,51.282806],[-0.73326,51.282411],[-0.733349,51.281791],[-0.732293,51.281337],[-0.731213,51.281362],[-0.731565,51.280601],[-0.73107,51.280347],[-0.731735,51.280239],[-0.731596,51.279885],[-0.73294,51.279168],[-0.732825,51.278165],[-0.73348,51.27779],[-0.733383,51.277357],[-0.732944,51.277357],[-0.73307,51.276761],[-0.732313,51.276451],[-0.732217,51.275659],[-0.731405,51.274948],[-0.731552,51.27448],[-0.730414,51.273461],[-0.731154,51.272436],[-0.730358,51.271507],[-0.730138,51.269973],[-0.730901,51.268518],[-0.731486,51.268304],[-0.731633,51.266791],[-0.731246,51.265979],[-0.731562,51.264276],[-0.732669,51.263628],[-0.732582,51.262727],[-0.731991,51.262134],[-0.733231,51.261161],[-0.733705,51.260127],[-0.732437,51.25766],[-0.730399,51.257378],[-0.730287,51.256942],[-0.729396,51.256421],[-0.729557,51.255722],[-0.730535,51.255354],[-0.731155,51.253474],[-0.730695,51.251956],[-0.732814,51.250882],[-0.734464,51.25059],[-0.736104,51.248746],[-0.734682,51.246585],[-0.735203,51.245588],[-0.736528,51.245091],[-0.737387,51.242406],[-0.738498,51.241118],[-0.738183,51.240125],[-0.736527,51.238961],[-0.7359,51.238863],[-0.735786,51.23768],[-0.738848,51.235498],[-0.739189,51.233481],[-0.741758,51.231334],[-0.743846,51.230615],[-0.74554,51.230456],[-0.750255,51.231012],[-0.7521,51.23199],[-0.759662,51.234038],[-0.761176,51.234893],[-0.769724,51.236433],[-0.771411,51.23812],[-0.771475,51.238997],[-0.775905,51.241935],[-0.778057,51.242149],[-0.781933,51.241667],[-0.784424,51.242005],[-0.786901,51.241865],[-0.790231,51.242416],[-0.793047,51.241617],[-0.797411,51.239546],[-0.80174,51.239039],[-0.803458,51.241511],[-0.80475,51.245065],[-0.806475,51.253434],[-0.806129,51.258111],[-0.8044,51.261457],[-0.804749,51.270354],[-0.803417,51.272226],[-0.805179,51.274388],[-0.806404,51.275088],[-0.807524,51.275292],[-0.807199,51.275696],[-0.790292,51.282196],[-0.792102,51.283307],[-0.796835,51.284029],[-0.797909,51.284544],[-0.797994,51.284995],[-0.79598,51.286826],[-0.797505,51.287925],[-0.800099,51.288902],[-0.800997,51.290636],[-0.800777,51.291619],[-0.802359,51.292046],[-0.802928,51.292974],[-0.802989,51.293255],[-0.801634,51.29335],[-0.801599,51.294568],[-0.799469,51.2954],[-0.798451,51.296215],[-0.799933,51.296943],[-0.799506,51.297611],[-0.796874,51.297664],[-0.797287,51.299411],[-0.796655,51.299448],[-0.797323,51.303811],[-0.796569,51.304667],[-0.793175,51.303619],[-0.791398,51.303534],[-0.789116,51.306728],[-0.793038,51.308076],[-0.791545,51.309533],[-0.778651,51.317486],[-0.777328,51.316515],[-0.773296,51.31678],[-0.77119,51.317619],[-0.768407,51.318236],[-0.767806,51.320084],[-0.766276,51.319839],[-0.766487,51.319244],[-0.7649,51.318494],[-0.764209,51.317593]]]}}]}