{"type":"FeatureCollection","features":[{"type":"Feature","properties":{"slug":"rutland","gss_code":"E06000017","name":"Rutland"},"geometry":{"type":"Polygon","coordinates":[[[-0.605444,52.750493],[-0.59771,52.750993],[-0.59391,52.7519],[-0.589566,52.753775],[-0.583447,52.753877],[-0.580509,52.752878],[-0.572636,52.753109],[-0.571499,52.750498],[-0.57145,52.747874],[-0.569507,52.747532],[-0.569011,52.746618],[-0.566111,52.744988],[-0.560034,52.745472],[-0.553262,52.742542],[-0.547953,52.741039],[-0.544714,52.739612],[-0.539974,52.738402],[-0.538812,52.734055],[-0.540315,52.728773],[-0.542822,52.726052],[-0.542434,52.723281],[-0.538748,52.72311],[-0.533045,52.721583],[-0.525003,52.720977],[-0.519186,52.721014],[-0.516493,52.720253],[-0.512641,52.71968],[-0.510655,52.718919],[-0.511004,52.717713],[-0.509861,52.715354],[-0.506961,52.715956],[-0.505721,52.713605],[-0.504537,52.713349],[-0.502471,52.712152],[-0.499843,52.712112],[-0.495743,52.710806],[-0.494531,52.709653],[-0.493242,52.710284],[-0.489595,52.711057],[-0.48308,52.710658],[-0.480217,52.710971],[-0.470281,52.709775],[-0.467897,52.709782],[-0.465546,52.710289],[-0.463644,52.708494],[-0.460875,52.708108],[-0.459464,52.708406],[-0.457084,52.709682],[-0.453229,52.70927],[-0.451092,52.70958],[-0.450533,52.708034],[-0.443958,52.708025],[-0.444722,52.706173],[-0.435741,52.707038],[-0.433498,52.705848],[-0.430443,52.705422],[-0.429726,52.703289],[-0.428697,52.702662],[-0.428366,52.701243],[-0.428921,52.698065],[-0.430544,52.693928],[-0.430368,52.692908],[-0.430856,52.692007],[-0.432521,52.69073],[-0.432213,52.68803],[-0.433177,52.685483],[-0.434366,52.685684],[-0.434888,52.684733],[-0.434055,52.683705],[-0.438468,52.682955],[-0.440237,52.681764],[-0.441328,52.680491],[-0.446352,52.678614],[-0.449316,52.675282],[-0.451305,52.673947],[-0.454171,52.672692],[-0.456191,52.670393],[-0.459485,52.669563],[-0.45945,52.669101],[-0.466069,52.668863],[-0.473666,52.667535],[-0.476379,52.667377],[-0.476561,52.667061],[-0.48041,52.666568],[-0.481595,52.666045],[-0.481456,52.665836],[-0.490268,52.664422],[-0.490609,52.665033],[-0.494712,52.664632],[-0.493866,52.660717],[-0.496867,52.660419],[-0.50198,52.660686],[-0.504567,52.660403],[-0.505294,52.660934],[-0.506379,52.660423],[-0.506674,52.659526],[-0.519017,52.666526],[-0.519879,52.666238],[-0.52063,52.666503],[-0.521828,52.665785],[-0.521829,52.665387],[-0.523586,52.665234],[-0.514077,52.656787],[-0.511845,52.656341],[-0.512024,52.65495],[-0.512741,52.655023],[-0.512551,52.654758],[-0.507429,52.648907],[-0.506461,52.648199],[-0.505124,52.648287],[-0.504374,52.647981],[-0.503875,52.646801],[-0.504846,52.646672],[-0.5044,52.64624],[-0.499333,52.642511],[-0.495026,52.640236],[-0.497007,52.640087],[-0.499258,52.639298],[-0.502263,52.640492],[-0.503385,52.640042],[-0.504143,52.64013],[-0.507225,52.641164],[-0.50902,52.642401],[-0.509634,52.642482],[-0.509542,52.643121],[-0.510476,52.642969],[-0.510614,52.643391],[-0.511331,52.643173],[-0.511969,52.643591],[-0.512714,52.642799],[-0.513478,52.64263],[-0.514697,52.6431],[-0.515723,52.642056],[-0.517203,52.642442],[-0.518349,52.641731],[-0.520082,52.641444],[-0.521078,52.640699],[-0.520729,52.640092],[-0.521433,52.639535],[-0.52083,52.638881],[-0.520754,52.637505],[-0.523631,52.634887],[-0.528852,52.631994],[-0.530893,52.632098],[-0.533512,52.631446],[-0.533844,52.630543],[-0.534984,52.630454],[-0.535639,52.629353],[-0.534086,52.628847],[-0.534687,52.628609],[-0.534553,52.628111],[-0.535638,52.627084],[-0.537314,52.626173],[-0.536948,52.627383],[-0.537422,52.627846],[-0.538114,52.627924],[-0.53851,52.627028],[-0.540261,52.625966],[-0.541158,52.62462],[-0.539118,52.623144],[-0.538063,52.621124],[-0.539554,52.619728],[-0.538885,52.618795],[-0.539057,52.617876],[-0.540633,52.617527],[-0.541541,52.616644],[-0.543024,52.61604],[-0.542936,52.614973],[-0.543781,52.614721],[-0.54462,52.615067],[-0.544933,52.614594],[-0.550131,52.612251],[-0.550055,52.611635],[-0.549331,52.611218],[-0.54847,52.609906],[-0.548476,52.60822],[-0.547655,52.607632],[-0.547559,52.606956],[-0.549599,52.6057],[-0.550219,52.604848],[-0.551232,52.604476],[-0.552139,52.602186],[-0.552938,52.601412],[-0.552425,52.600032],[-0.550548,52.599339],[-0.549372,52.599301],[-0.548937,52.598961],[-0.549308,52.5986],[-0.549032,52.598348],[-0.546149,52.597269],[-0.544427,52.596124],[-0.543612,52.596169],[-0.542978,52.595735],[-0.542647,52.594829],[-0.544176,52.592866],[-0.545174,52.593499],[-0.546718,52.592588],[-0.547217,52.593282],[-0.554071,52.594655],[-0.558081,52.594509],[-0.55994,52.593647],[-0.5617,52.592219],[-0.56053,52.591272],[-0.561044,52.591052],[-0.560642,52.588944],[-0.561624,52.587075],[-0.562518,52.586275],[-0.564475,52.585934],[-0.565282,52.586388],[-0.567769,52.586322],[-0.568565,52.585706],[-0.569943,52.58609],[-0.571904,52.585803],[-0.575568,52.586454],[-0.577004,52.587172],[-0.576509,52.587545],[-0.576782,52.587892],[-0.577956,52.587898],[-0.578767,52.588834],[-0.57846,52.589282],[-0.579001,52.589627],[-0.577861,52.590407],[-0.579184,52.590445],[-0.578976,52.591082],[-0.578316,52.591265],[-0.577955,52.591813],[-0.577549,52.593308],[-0.579162,52.595494],[-0.581479,52.595883],[-0.582807,52.595175],[-0.583757,52.595052],[-0.584387,52.593886],[-0.584515,52.593435],[-0.58407,52.593216],[-0.582752,52.593247],[-0.584184,52.589853],[-0.585406,52.588431],[-0.588743,52.586793],[-0.592009,52.587269],[-0.594286,52.588354],[-0.596888,52.588383],[-0.597758,52.58876],[-0.599915,52.588853],[-0.602969,52.588652],[-0.603849,52.587762],[-0.605178,52.587556],[-0.605025,52.587021],[-0.605474,52.586527],[-0.607426,52.585884],[-0.607476,52.585343],[-0.608503,52.584758],[-0.610777,52.584238],[-0.61188,52.584476],[-0.612726,52.583948],[-0.614012,52.584122],[-0.617174,52.583376],[-0.616504,52.582313],[-0.617819,52.58216],[-0.617585,52.581489],[-0.618908,52.581365],[-0.620033,52.579741],[-0.622037,52.579793],[-0.624835,52.57917],[-0.625502,52.578885],[-0.625158,52.578602],[-0.626027,52.578074],[-0.62781,52.578232],[-0.628393,52.577495],[-0.627769,52.577181],[-0.628103,52.576547],[-0.629564,52.576542],[-0.630582,52.576117],[-0.631294,52.576534],[-0.632508,52.57634],[-0.633017,52.575588],[-0.633977,52.575336],[-0.63292,52.575262],[-0.633452,52.574713],[-0.633012,52.574279],[-0.633582,52.574189],[-0.633426,52.573677],[-0.636273,52.572736],[-0.637848,52.571812],[-0.63895,52.571512],[-0.64062,52.571711],[-0.641655,52.572938],[-0.642233,52.573003],[-0.642993,52.573674],[-0.643712,52.573409],[-0.644923,52.573884],[-0.646896,52.573773],[-0.647309,52.5733],[-0.64674,52.573187],[-0.646697,52.572577],[-0.647732,52.572438],[-0.64746,52.572144],[-0.647956,52.571175],[-0.649346,52.570582],[-0.651587,52.570074],[-0.654513,52.570366],[-0.658616,52.568402],[-0.660913,52.568946],[-0.661931,52.567729],[-0.663043,52.567256],[-0.663202,52.566576],[-0.664115,52.56679],[-0.666277,52.566353],[-0.668539,52.565372],[-0.668941,52.564762],[-0.669591,52.56458],[-0.669862,52.563806],[-0.670359,52.564257],[-0.671287,52.564106],[-0.671881,52.563001],[-0.670764,52.563272],[-0.670469,52.562577],[-0.671547,52.562598],[-0.67138,52.562068],[-0.67186,52.562173],[-0.672101,52.561829],[-0.673309,52.56149],[-0.673083,52.561099],[-0.67383,52.560812],[-0.673577,52.560343],[-0.672644,52.560413],[-0.672663,52.559031],[-0.673106,52.558886],[-0.674319,52.559345],[-0.674864,52.558638],[-0.677563,52.558292],[-0.682306,52.553596],[-0.679734,52.553437],[-0.681829,52.551667],[-0.683599,52.552358],[-0.685977,52.549558],[-0.684755,52.548978],[-0.68587,52.548637],[-0.686376,52.547866],[-0.687201,52.547855],[-0.687618,52.547],[-0.688489,52.546763],[-0.688448,52.546137],[-0.689608,52.546333],[-0.691983,52.545544],[-0.692555,52.546869],[-0.69361,52.546456],[-0.693172,52.545898],[-0.693965,52.545366],[-0.696622,52.546327],[-0.697833,52.545702],[-0.698028,52.545307],[-0.696752,52.54421],[-0.697714,52.543857],[-0.697481,52.542955],[-0.696397,52.542357],[-0.699237,52.542261],[-0.698271,52.54098],[-0.696237,52.540097],[-0.696178,52.539738],[-0.69704,52.539816],[-0.697951,52.539365],[-0.696691,52.538971],[-0.69643,52.538546],[-0.697159,52.538329],[-0.698671,52.538656],[-0.699188,52.537734],[-0.700276,52.537607],[-0.700582,52.537902],[-0.70113,52.537677],[-0.701207,52.53727],[-0.700544,52.537346],[-0.700596,52.536829],[-0.699981,52.536753],[-0.700578,52.536394],[-0.700275,52.535741],[-0.699626,52.535687],[-0.700679,52.534472],[-0.701733,52.534574],[-0.701439,52.533552],[-0.702881,52.533183],[-0.702817,52.532251],[-0.703742,52.532197],[-0.704864,52.531654],[-0.704654,52.531127],[-0.705707,52.531242],[-0.705505,52.530935],[-0.706098,52.530636],[-0.706348,52.531213],[-0.70763,52.530843],[-0.707596,52.530528],[-0.706737,52.530161],[-0.708895,52.529814],[-0.708908,52.529279],[-0.708209,52.529188],[-0.708353,52.528747],[-0.707832,52.528568],[-0.707987,52.527913],[-0.70956,52.527738],[-0.710022,52.526581],[-0.711917,52.526046],[-0.711915,52.525702],[-0.714049,52.524737],[-0.716928,52.525888],[-0.717832,52.525501],[-0.719165,52.525743],[-0.719811,52.526181],[-0.721108,52.52588],[-0.721798,52.526646],[-0.722707,52.526794],[-0.724735,52.530584],[-0.725567,52.531171],[-0.727635,52.531754],[-0.729027,52.532912],[-0.729952,52.53298],[-0.729848,52.533491],[-0.729018,52.533827],[-0.729807,52.534491],[-0.728541,52.535821],[-0.730505,52.536453],[-0.73082,52.536241],[-0.731294,52.536777],[-0.732046,52.536653],[-0.732608,52.536049],[-0.733358,52.536472],[-0.735821,52.536785],[-0.735947,52.537146],[-0.737175,52.537231],[-0.738013,52.538667],[-0.739692,52.539412],[-0.742206,52.539486],[-0.742505,52.540122],[-0.741631,52.540751],[-0.743396,52.541153],[-0.743724,52.543093],[-0.742368,52.543381],[-0.742992,52.543893],[-0.742667,52.544435],[-0.742093,52.544493],[-0.741921,52.544105],[-0.741535,52.544979],[-0.740823,52.544559],[-0.740718,52.545898],[-0.740272,52.545607],[-0.740037,52.545877],[-0.740424,52.546396],[-0.738937,52.547499],[-0.739389,52.548388],[-0.738864,52.548883],[-0.739573,52.54887],[-0.739433,52.549425],[-0.740153,52.549301],[-0.739554,52.549847],[-0.740899,52.550244],[-0.74112,52.550729],[-0.740764,52.550774],[-0.740723,52.551354],[-0.741162,52.551373],[-0.741083,52.551815],[-0.742396,52.551782],[-0.743452,52.553331],[-0.744918,52.554324],[-0.745087,52.555383],[-0.746457,52.556905],[-0.747141,52.557055],[-0.747278,52.557946],[-0.749966,52.559246],[-0.749684,52.559566],[-0.750088,52.560389],[-0.751737,52.56177],[-0.751508,52.562158],[-0.752294,52.562999],[-0.753537,52.5638],[-0.754282,52.563637],[-0.754601,52.564361],[-0.755747,52.564564],[-0.755721,52.565117],[-0.759894,52.564906],[-0.760028,52.566895],[-0.761427,52.568103],[-0.761088,52.568921],[-0.76179,52.569106],[-0.762272,52.568825],[-0.762538,52.569263],[-0.761993,52.569741],[-0.763445,52.569869],[-0.763829,52.570397],[-0.762476,52.571605],[-0.763007,52.572129],[-0.762502,52.574462],[-0.763153,52.576024],[-0.76295,52.576799],[-0.763693,52.577396],[-0.763404,52.578771],[-0.763854,52.579181],[-0.764543,52.579092],[-0.764752,52.579563],[-0.764336,52.579901],[-0.765197,52.580672],[-0.764791,52.581195],[-0.765949,52.581746],[-0.765288,52.582505],[-0.76581,52.58233],[-0.767071,52.582843],[-0.76763,52.582593],[-0.767355,52.582294],[-0.768044,52.582183],[-0.768931,52.582902],[-0.769581,52.58283],[-0.769679,52.583205],[-0.771357,52.583374],[-0.770593,52.58372],[-0.771227,52.584391],[-0.773912,52.584366],[-0.77433,52.585095],[-0.773858,52.585491],[-0.774418,52.585469],[-0.774705,52.586093],[-0.77563,52.586147],[-0.776113,52.586519],[-0.775177,52.587013],[-0.775569,52.58749],[-0.776781,52.58713],[-0.777034,52.587466],[-0.776269,52.587686],[-0.775971,52.588156],[-0.776571,52.588086],[-0.777107,52.588559],[-0.77747,52.589065],[-0.776985,52.589191],[-0.777188,52.589486],[-0.778435,52.589829],[-0.778085,52.589453],[-0.778888,52.589284],[-0.779105,52.590214],[-0.780565,52.590106],[-0.78079,52.59071],[-0.782329,52.591163],[-0.782365,52.592206],[-0.783731,52.59245],[-0.783622,52.593325],[-0.78475,52.593091],[-0.784646,52.593645],[-0.78431,52.593569],[-0.783958,52.593964],[-0.787053,52.596248],[-0.787593,52.596106],[-0.788247,52.596427],[-0.790005,52.596029],[-0.789845,52.596792],[-0.791235,52.596818],[-0.791558,52.596554],[-0.792435,52.597614],[-0.793048,52.597561],[-0.793653,52.596818],[-0.795328,52.596504],[-0.796224,52.59691],[-0.797066,52.596569],[-0.79847,52.597125],[-0.800685,52.597013],[-0.801294,52.597327],[-0.802365,52.596428],[-0.803455,52.596362],[-0.804139,52.595766],[-0.804552,52.596332],[-0.805285,52.596042],[-0.807584,52.596375],[-0.807812,52.595994],[-0.808612,52.595844],[-0.809339,52.596212],[-0.809543,52.595272],[-0.810098,52.59484],[-0.81183,52.595342],[-0.811385,52.594692],[-0.812111,52.594965],[-0.812055,52.594121],[-0.812968,52.594508],[-0.814349,52.594084],[-0.815962,52.594129],[-0.816695,52.59357],[-0.817441,52.595553],[-0.819222,52.595723],[-0.819226,52.596214],[-0.819853,52.596349],[-0.819677,52.596763],[-0.82095,52.596455],[-0.818983,52.600111],[-0.818545,52.602887],[-0.818826,52.604594],[-0.820003,52.605963],[-0.819984,52.607312],[-0.818827,52.610657],[-0.817453,52.611797],[-0.81478,52.611963],[-0.811321,52.614098],[-0.810822,52.614912],[-0.809527,52.615673],[-0.809842,52.617014],[-0.808931,52.619813],[-0.807924,52.620405],[-0.806017,52.620456],[-0.805825,52.620688],[-0.805636,52.621795],[-0.806864,52.623054],[-0.810999,52.625996],[-0.809852,52.627321],[-0.809923,52.629441],[-0.808793,52.630354],[-0.805142,52.631729],[-0.804464,52.632272],[-0.804437,52.634883],[-0.802017,52.637775],[-0.801752,52.63884],[-0.80413,52.640439],[-0.807984,52.639223],[-0.809901,52.640303],[-0.808748,52.64204],[-0.809708,52.644296],[-0.808424,52.64591],[-0.80876,52.646121],[-0.80766,52.646572],[-0.807157,52.647691],[-0.805328,52.647661],[-0.804333,52.649455],[-0.801187,52.652367],[-0.798718,52.657177],[-0.798066,52.657634],[-0.797335,52.657692],[-0.796599,52.657268],[-0.794773,52.656949],[-0.79385,52.659175],[-0.7929,52.65968],[-0.793866,52.660115],[-0.794519,52.660889],[-0.794116,52.662361],[-0.793593,52.663376],[-0.791124,52.66516],[-0.79014,52.667185],[-0.784536,52.667299],[-0.783365,52.667878],[-0.782195,52.66914],[-0.782116,52.670476],[-0.784235,52.675083],[-0.784386,52.676564],[-0.78391,52.677049],[-0.784207,52.677149],[-0.783893,52.682108],[-0.785081,52.68475],[-0.786799,52.687065],[-0.785581,52.692315],[-0.786037,52.694751],[-0.790127,52.694425],[-0.793257,52.696251],[-0.795877,52.696906],[-0.796394,52.699977],[-0.796074,52.701319],[-0.795533,52.701565],[-0.796684,52.70403],[-0.79714,52.703857],[-0.797511,52.704087],[-0.799498,52.703506],[-0.799298,52.703318],[-0.802428,52.703265],[-0.803368,52.704649],[-0.800234,52.707798],[-0.813166,52.712296],[-0.813213,52.713471],[-0.814573,52.713496],[-0.815187,52.714973],[-0.821753,52.715675],[-0.821208,52.715989],[-0.821591,52.716624],[-0.820969,52.716787],[-0.821471,52.716946],[-0.821281,52.717374],[-0.819605,52.717679],[-0.819275,52.717995],[-0.81987,52.718472],[-0.818327,52.719366],[-0.818599,52.719585],[-0.817737,52.721562],[-0.818363,52.721678],[-0.818545,52.722235],[-0.818095,52.722368],[-0.818409,52.722638],[-0.817959,52.722718],[-0.816592,52.724663],[-0.817399,52.725107],[-0.815172,52.725805],[-0.813715,52.72748],[-0.813573,52.728964],[-0.812906,52.729476],[-0.810138,52.730031],[-0.805631,52.731623],[-0.803285,52.733969],[-0.802211,52.735639],[-0.801258,52.736005],[-0.801191,52.736743],[-0.800207,52.736552],[-0.799976,52.736999],[-0.799018,52.736759],[-0.799017,52.737167],[-0.798327,52.736778],[-0.797409,52.736832],[-0.797533,52.737102],[-0.796892,52.737318],[-0.796543,52.736808],[-0.79563,52.737013],[-0.795291,52.738007],[-0.794245,52.73798],[-0.793254,52.739491],[-0.791743,52.739568],[-0.791848,52.74019],[-0.790995,52.740185],[-0.791276,52.739884],[-0.789575,52.740223],[-0.789143,52.740024],[-0.787179,52.740931],[-0.783589,52.740388],[-0.782352,52.740378],[-0.782361,52.740701],[-0.7815,52.740602],[-0.781519,52.740867],[-0.780673,52.740575],[-0.780369,52.741037],[-0.780011,52.740999],[-0.779744,52.741799],[-0.778162,52.742477],[-0.776484,52.743934],[-0.775543,52.743536],[-0.77484,52.744047],[-0.773734,52.744188],[-0.773624,52.743915],[-0.772715,52.743797],[-0.771412,52.744187],[-0.771291,52.743643],[-0.770212,52.743628],[-0.770411,52.742913],[-0.768597,52.743363],[-0.768603,52.743679],[-0.767654,52.743682],[-0.767827,52.742991],[-0.766747,52.7422],[-0.766911,52.741755],[-0.76532,52.741373],[-0.764125,52.74054],[-0.764271,52.740078],[-0.76481,52.73998],[-0.764726,52.739194],[-0.763566,52.739084],[-0.762708,52.738312],[-0.761568,52.738115],[-0.761596,52.738823],[-0.760023,52.738652],[-0.760011,52.738966],[-0.759126,52.739162],[-0.759157,52.73958],[-0.757978,52.739736],[-0.757658,52.739053],[-0.756678,52.738531],[-0.756149,52.738639],[-0.756346,52.739004],[-0.75584,52.739233],[-0.755611,52.738741],[-0.754857,52.738958],[-0.754268,52.738683],[-0.753997,52.738463],[-0.754621,52.73774],[-0.753319,52.736575],[-0.751515,52.736736],[-0.745141,52.738409],[-0.74314,52.738339],[-0.733908,52.739711],[-0.729066,52.739377],[-0.72888,52.740038],[-0.72021,52.740962],[-0.720364,52.74163],[-0.719522,52.741502],[-0.717702,52.741976],[-0.718197,52.744798],[-0.707544,52.745594],[-0.70428,52.74616],[-0.701708,52.746063],[-0.699938,52.746613],[-0.696157,52.746529],[-0.696967,52.74922],[-0.690041,52.752004],[-0.684351,52.75311],[-0.684077,52.754869],[-0.684429,52.75648],[-0.674515,52.757956],[-0.674086,52.756943],[-0.671554,52.756798],[-0.671321,52.756411],[-0.669534,52.756642],[-0.6649,52.756478],[-0.663681,52.756801],[-0.662595,52.755493],[-0.656929,52.756673],[-0.645078,52.757274],[-0.639571,52.757173],[-0.628148,52.757974],[-0.627738,52.757987],[-0.627687,52.757694],[-0.62305,52.758953],[-0.615495,52.759329],[-0.611773,52.759824],[-0.608594,52.759713],[-0.605444,52.750493]]]}}]}