{"type":"FeatureCollection","features":[{"type":"Feature","properties":{"slug":"salford","gss_code":"E08000006","name":"Salford"},"geometry":{"type":"Polygon","coordinates":[[[-2.421438,53.540733],[-2.421441,53.540997],[-2.412896,53.538854],[-2.408773,53.538309],[-2.402295,53.538474],[-2.402288,53.538719],[-2.399836,53.538547],[-2.396136,53.537663],[-2.39366,53.536515],[-2.389891,53.533453],[-2.385381,53.531525],[-2.370455,53.528833],[-2.368594,53.528202],[-2.368066,53.529206],[-2.354388,53.526241],[-2.350774,53.529663],[-2.353536,53.53022],[-2.353423,53.530633],[-2.352952,53.530596],[-2.352757,53.531257],[-2.353249,53.531314],[-2.352757,53.532328],[-2.354652,53.53275],[-2.353869,53.533914],[-2.352684,53.533691],[-2.352126,53.534226],[-2.353765,53.53472],[-2.353696,53.535057],[-2.352184,53.535087],[-2.351423,53.535751],[-2.348633,53.535665],[-2.347984,53.536052],[-2.348833,53.536716],[-2.348609,53.537242],[-2.345928,53.537453],[-2.34189,53.536418],[-2.335207,53.531347],[-2.32836,53.529583],[-2.324517,53.527268],[-2.319459,53.527005],[-2.312267,53.527531],[-2.310473,53.527187],[-2.302864,53.521875],[-2.302071,53.520397],[-2.302597,53.517727],[-2.30226,53.517087],[-2.297697,53.515655],[-2.295981,53.515763],[-2.294354,53.515411],[-2.291742,53.514015],[-2.290796,53.512021],[-2.289521,53.512767],[-2.285099,53.513574],[-2.282531,53.515242],[-2.280542,53.515859],[-2.274468,53.516419],[-2.271574,53.517495],[-2.270716,53.517316],[-2.259015,53.51842],[-2.258565,53.518025],[-2.256966,53.517946],[-2.250234,53.516304],[-2.246915,53.514324],[-2.245227,53.512157],[-2.246473,53.51159],[-2.246574,53.510885],[-2.248081,53.509421],[-2.249213,53.509531],[-2.250327,53.508049],[-2.248539,53.507754],[-2.248856,53.507128],[-2.245766,53.506469],[-2.245336,53.504911],[-2.246566,53.503851],[-2.247076,53.502391],[-2.251533,53.5039],[-2.252674,53.503141],[-2.252372,53.50286],[-2.254954,53.500371],[-2.254293,53.499597],[-2.255423,53.499119],[-2.254019,53.497685],[-2.254856,53.497343],[-2.252504,53.495323],[-2.253482,53.493471],[-2.251628,53.492975],[-2.250676,53.492152],[-2.250488,53.490085],[-2.249107,53.489316],[-2.248645,53.488241],[-2.24526,53.486737],[-2.245638,53.48514],[-2.248938,53.483207],[-2.255787,53.480613],[-2.260113,53.477839],[-2.262678,53.476733],[-2.264056,53.473638],[-2.26532,53.472729],[-2.2708,53.470699],[-2.278502,53.465673],[-2.281259,53.464862],[-2.28381,53.465312],[-2.300447,53.471377],[-2.316348,53.478696],[-2.319203,53.479651],[-2.324008,53.480362],[-2.329467,53.479995],[-2.352177,53.474725],[-2.362121,53.471699],[-2.377122,53.46652],[-2.37995,53.465243],[-2.386213,53.463384],[-2.393253,53.460156],[-2.397772,53.457501],[-2.401024,53.455126],[-2.405494,53.451086],[-2.407457,53.448802],[-2.409565,53.445735],[-2.410751,53.442116],[-2.412793,53.439664],[-2.413208,53.4385],[-2.413988,53.438078],[-2.413519,53.437532],[-2.417278,53.43157],[-2.419286,53.42956],[-2.422387,53.427339],[-2.426824,53.425101],[-2.449378,53.415891],[-2.449362,53.416755],[-2.450751,53.417386],[-2.451275,53.418674],[-2.449188,53.420535],[-2.448994,53.422875],[-2.450315,53.42408],[-2.451544,53.426709],[-2.454068,53.428276],[-2.455129,53.429984],[-2.45926,53.433159],[-2.461724,53.436369],[-2.46332,53.437016],[-2.466339,53.437036],[-2.470799,53.43891],[-2.474102,53.439383],[-2.478153,53.443417],[-2.478264,53.444318],[-2.476043,53.44746],[-2.475987,53.448238],[-2.478774,53.450047],[-2.482826,53.453868],[-2.486106,53.455191],[-2.486894,53.458141],[-2.488043,53.459022],[-2.489608,53.459581],[-2.489714,53.460282],[-2.488042,53.460774],[-2.486616,53.460436],[-2.483524,53.460703],[-2.482777,53.461279],[-2.480883,53.461893],[-2.479159,53.461779],[-2.476758,53.462443],[-2.465143,53.462252],[-2.434469,53.465044],[-2.438547,53.482084],[-2.436732,53.484691],[-2.436433,53.486696],[-2.435637,53.487208],[-2.435671,53.488338],[-2.436253,53.490486],[-2.438267,53.491837],[-2.438507,53.492402],[-2.436237,53.493753],[-2.43359,53.497142],[-2.431622,53.498032],[-2.433073,53.499653],[-2.433106,53.500971],[-2.430195,53.50183],[-2.430431,53.504696],[-2.426915,53.505654],[-2.420506,53.50679],[-2.422262,53.50755],[-2.421369,53.508317],[-2.422289,53.509117],[-2.418714,53.510364],[-2.419456,53.512157],[-2.415348,53.512045],[-2.415757,53.513478],[-2.414539,53.514893],[-2.418272,53.51812],[-2.421637,53.519928],[-2.427197,53.52156],[-2.454113,53.526222],[-2.451097,53.528605],[-2.448128,53.528107],[-2.447808,53.52937],[-2.444607,53.530925],[-2.444359,53.531541],[-2.443109,53.532351],[-2.442467,53.53367],[-2.442009,53.533655],[-2.441476,53.534355],[-2.441249,53.535162],[-2.441963,53.53614],[-2.440981,53.538698],[-2.438101,53.540038],[-2.437147,53.542253],[-2.42965,53.541291],[-2.425436,53.541212],[-2.421438,53.540733]]]}}]}