{"type":"FeatureCollection","features":[{"type":"Feature","properties":{"slug":"sefton","gss_code":"E08000014","name":"Sefton"},"geometry":{"type":"MultiPolygon","coordinates":[[[[-2.949793,53.691037],[-2.951428,53.690554],[-2.952505,53.691362],[-2.950303,53.691549],[-2.949793,53.691037]]],[[[-2.956448,53.694813],[-2.957214,53.695881],[-2.955921,53.695946],[-2.954984,53.695396],[-2.953808,53.693594],[-2.955166,53.695749],[-2.954828,53.695864],[-2.954512,53.69526],[-2.954109,53.695369],[-2.950471,53.691718],[-2.952924,53.691574],[-2.954063,53.692477],[-2.955295,53.692321],[-2.956314,53.692563],[-2.955435,53.692253],[-2.95746,53.69103],[-2.958582,53.692109],[-2.959972,53.692538],[-2.959281,53.692858],[-2.960124,53.69264],[-2.962301,53.693805],[-2.962683,53.694948],[-2.962488,53.695709],[-2.960982,53.695734],[-2.960842,53.695228],[-2.960501,53.695873],[-2.959181,53.69578],[-2.95899,53.695368],[-2.959057,53.695983],[-2.957912,53.69562],[-2.958016,53.696181],[-2.956448,53.694813]]],[[[-2.955224,53.696489],[-2.954429,53.695691],[-2.954748,53.695982],[-2.957216,53.695967],[-2.957783,53.696272],[-2.957753,53.696938],[-2.955224,53.696489]]],[[[-2.956991,53.697416],[-2.956231,53.6975],[-2.955461,53.696726],[-2.956369,53.696702],[-2.95825,53.69746],[-2.958261,53.697981],[-2.956991,53.697416]]],[[[-2.964836,53.695061],[-2.965524,53.695006],[-2.96556,53.695235],[-2.967076,53.694971],[-2.964954,53.694912],[-2.96458,53.693467],[-2.965077,53.693311],[-2.965499,53.693595],[-2.965468,53.693218],[-2.966622,53.693024],[-2.969795,53.693016],[-2.971565,53.692274],[-2.968846,53.692912],[-2.967111,53.692885],[-2.96668,53.692574],[-2.964761,53.693093],[-2.962764,53.692835],[-2.961384,53.692095],[-2.962194,53.691747],[-2.964193,53.692275],[-2.964431,53.691905],[-2.963881,53.691711],[-2.964002,53.691364],[-2.966658,53.690365],[-2.963977,53.691257],[-2.963715,53.691704],[-2.964289,53.691964],[-2.964074,53.692177],[-2.96403,53.691935],[-2.962688,53.69186],[-2.962184,53.691667],[-2.961671,53.68975],[-2.962138,53.689165],[-2.961585,53.689532],[-2.962124,53.691479],[-2.961499,53.691843],[-2.959984,53.691788],[-2.958743,53.690863],[-2.959291,53.690711],[-2.959586,53.689609],[-2.960709,53.688945],[-2.960015,53.688623],[-2.960641,53.688972],[-2.959515,53.689621],[-2.959148,53.690675],[-2.957373,53.690085],[-2.957912,53.689783],[-2.957667,53.688902],[-2.958505,53.687248],[-2.959967,53.6865],[-2.960734,53.685816],[-2.959901,53.686465],[-2.959481,53.686099],[-2.959701,53.686464],[-2.958393,53.687301],[-2.957506,53.688975],[-2.957716,53.689855],[-2.956353,53.690253],[-2.955869,53.68988],[-2.956198,53.688608],[-2.955774,53.689599],[-2.955804,53.689902],[-2.956145,53.690264],[-2.954902,53.691765],[-2.953617,53.691542],[-2.954185,53.691092],[-2.953441,53.691435],[-2.95194,53.690674],[-2.951822,53.690291],[-2.952176,53.690263],[-2.953329,53.689563],[-2.954157,53.688658],[-2.954074,53.688282],[-2.953424,53.688076],[-2.954309,53.688099],[-2.954562,53.687457],[-2.955497,53.687095],[-2.957347,53.686101],[-2.95459,53.68741],[-2.954637,53.687082],[-2.954309,53.688071],[-2.953355,53.688053],[-2.954049,53.688334],[-2.954046,53.688711],[-2.952097,53.6902],[-2.951109,53.688671],[-2.951252,53.686382],[-2.952665,53.68557],[-2.953615,53.684309],[-2.954076,53.684746],[-2.954669,53.684484],[-2.955886,53.684832],[-2.956123,53.684739],[-2.956364,53.684441],[-2.956178,53.683982],[-2.957495,53.683286],[-2.956123,53.683969],[-2.956224,53.684608],[-2.955864,53.684804],[-2.95451,53.684402],[-2.954066,53.684645],[-2.953683,53.684171],[-2.953971,53.683252],[-2.954453,53.683217],[-2.953964,53.683149],[-2.954409,53.682334],[-2.952673,53.680696],[-2.946654,53.678684],[-2.944916,53.678767],[-2.944466,53.679061],[-2.946646,53.678839],[-2.952024,53.680527],[-2.953845,53.682197],[-2.953422,53.684082],[-2.95244,53.685486],[-2.950986,53.686257],[-2.950788,53.68753],[-2.950238,53.687412],[-2.949329,53.687984],[-2.950765,53.687621],[-2.951274,53.690426],[-2.950351,53.690687],[-2.949889,53.690109],[-2.950203,53.689661],[-2.949779,53.690085],[-2.94823,53.688968],[-2.950405,53.690799],[-2.949711,53.690955],[-2.946786,53.688018],[-2.949157,53.686866],[-2.952494,53.682279],[-2.952096,53.681513],[-2.947801,53.679236],[-2.946589,53.67898],[-2.944308,53.67913],[-2.945107,53.678566],[-2.94422,53.677763],[-2.943748,53.676303],[-2.943972,53.67297],[-2.947438,53.667349],[-2.944958,53.666163],[-2.941985,53.663152],[-2.940143,53.658611],[-2.941371,53.657871],[-2.942354,53.65629],[-2.948161,53.653758],[-2.949967,53.652335],[-2.958777,53.642517],[-2.957912,53.640799],[-2.962339,53.637322],[-2.966511,53.631865],[-2.967769,53.631064],[-2.981823,53.622205],[-2.992923,53.627283],[-2.992506,53.627604],[-2.993721,53.628271],[-2.997334,53.626886],[-3.000733,53.624978],[-3.000397,53.624259],[-3.001752,53.623492],[-3.001764,53.62249],[-3.005368,53.620433],[-3.006835,53.616976],[-3.008081,53.616675],[-3.008935,53.61591],[-3.011347,53.614916],[-3.011886,53.613944],[-3.011782,53.612952],[-3.014099,53.611277],[-3.020025,53.608962],[-3.020628,53.607144],[-3.021816,53.606247],[-3.024683,53.605269],[-3.026002,53.603858],[-3.028078,53.603082],[-3.030109,53.600744],[-3.030241,53.599459],[-3.030888,53.598765],[-3.032148,53.59853],[-3.031976,53.597418],[-3.032372,53.596943],[-3.031044,53.596317],[-3.030986,53.595735],[-3.031421,53.593305],[-3.03197,53.59296],[-3.032645,53.590791],[-3.032279,53.590215],[-3.032801,53.589477],[-3.032372,53.589299],[-3.033694,53.588067],[-3.035986,53.587218],[-3.035423,53.586795],[-3.033023,53.586591],[-3.033342,53.58512],[-3.031555,53.584912],[-3.031323,53.585502],[-3.029548,53.585323],[-3.029551,53.584681],[-3.020709,53.583675],[-3.02158,53.574016],[-3.022893,53.573632],[-3.02262,53.569598],[-3.032175,53.568997],[-3.039754,53.565703],[-3.040589,53.565003],[-3.040987,53.562472],[-3.039279,53.559186],[-3.040163,53.556149],[-3.038699,53.553155],[-3.038809,53.551905],[-3.040619,53.548829],[-3.045725,53.543445],[-3.046699,53.542958],[-3.045002,53.54276],[-3.044162,53.542167],[-3.044625,53.540826],[-3.04377,53.540369],[-3.043039,53.540464],[-3.041442,53.541694],[-3.040034,53.541518],[-3.03871,53.540142],[-3.038649,53.539434],[-3.039252,53.538689],[-3.038692,53.53832],[-3.03693,53.538497],[-3.035465,53.539145],[-3.034249,53.537972],[-3.031922,53.537277],[-3.030948,53.538305],[-3.029118,53.539037],[-3.028171,53.539049],[-3.027105,53.538021],[-3.024969,53.539035],[-3.023925,53.537984],[-3.019431,53.536476],[-3.018618,53.535507],[-3.016436,53.535854],[-3.015487,53.534859],[-3.013899,53.534653],[-3.013752,53.53238],[-3.012068,53.531911],[-3.010898,53.532544],[-3.010248,53.531949],[-3.009191,53.531713],[-3.009331,53.530543],[-3.008212,53.529415],[-3.005643,53.529052],[-3.004568,53.529211],[-3.001233,53.528329],[-3.000846,53.527324],[-2.999549,53.526547],[-2.996594,53.525931],[-2.996264,53.525141],[-2.994965,53.524998],[-2.994615,53.523914],[-2.992855,53.524001],[-2.991523,53.522992],[-2.990323,53.52278],[-2.989595,53.521647],[-2.984485,53.521306],[-2.983443,53.520724],[-2.982532,53.519546],[-2.980584,53.518793],[-2.976981,53.516341],[-2.976182,53.515334],[-2.972943,53.515446],[-2.972453,53.51605],[-2.971183,53.516302],[-2.968143,53.517907],[-2.964143,53.518606],[-2.96417,53.519661],[-2.962997,53.522903],[-2.963323,53.524935],[-2.966994,53.527518],[-2.970533,53.534067],[-2.97293,53.536049],[-2.972895,53.53713],[-2.974478,53.539565],[-2.976444,53.540645],[-2.978435,53.542775],[-2.978391,53.544225],[-2.977278,53.546227],[-2.973226,53.547882],[-2.971527,53.54796],[-2.971336,53.547652],[-2.970293,53.547496],[-2.970182,53.547066],[-2.965817,53.547816],[-2.964287,53.547028],[-2.963597,53.547023],[-2.963216,53.546373],[-2.960468,53.545939],[-2.959787,53.545569],[-2.955024,53.546028],[-2.95093,53.544225],[-2.94786,53.544316],[-2.945389,53.542714],[-2.944746,53.541223],[-2.941979,53.540998],[-2.941424,53.540347],[-2.941541,53.539707],[-2.941236,53.539899],[-2.939624,53.539016],[-2.939102,53.539147],[-2.938717,53.538523],[-2.937892,53.538862],[-2.937628,53.538557],[-2.936746,53.538719],[-2.936054,53.538417],[-2.936384,53.537085],[-2.935378,53.53716],[-2.934749,53.536686],[-2.935288,53.536584],[-2.93522,53.536047],[-2.934604,53.535859],[-2.93455,53.535067],[-2.933584,53.534437],[-2.933787,53.533415],[-2.933067,53.532448],[-2.932661,53.532472],[-2.931233,53.531247],[-2.930492,53.531284],[-2.929192,53.530572],[-2.928097,53.530506],[-2.926936,53.530011],[-2.925873,53.528791],[-2.925615,53.52691],[-2.923009,53.52522],[-2.921814,53.525467],[-2.919059,53.524379],[-2.916986,53.523974],[-2.917138,53.5235],[-2.916743,53.523258],[-2.915882,53.523987],[-2.914474,53.523308],[-2.914297,53.523578],[-2.913215,53.523573],[-2.912072,53.52313],[-2.91135,53.523212],[-2.911569,53.522766],[-2.907714,53.522414],[-2.906131,53.52167],[-2.901418,53.521611],[-2.899233,53.52203],[-2.898516,53.521555],[-2.897822,53.522118],[-2.897366,53.521649],[-2.896706,53.521978],[-2.896453,53.521498],[-2.895962,53.521829],[-2.895022,53.521318],[-2.892524,53.522007],[-2.891211,53.522162],[-2.890368,53.521871],[-2.889632,53.522242],[-2.886305,53.521012],[-2.881688,53.520523],[-2.881232,53.519989],[-2.884011,53.519507],[-2.884765,53.518933],[-2.887794,53.514587],[-2.892211,53.511166],[-2.887963,53.503846],[-2.889648,53.502866],[-2.892363,53.503216],[-2.893802,53.502964],[-2.897697,53.501428],[-2.89842,53.500815],[-2.898688,53.499371],[-2.896385,53.496701],[-2.89675,53.495422],[-2.899175,53.493861],[-2.899607,53.491683],[-2.903867,53.491674],[-2.905249,53.491976],[-2.910015,53.487518],[-2.912325,53.483644],[-2.914268,53.482534],[-2.919559,53.482073],[-2.917161,53.480137],[-2.916843,53.479261],[-2.917919,53.478352],[-2.919081,53.478068],[-2.918962,53.476892],[-2.922615,53.474983],[-2.927624,53.473343],[-2.928123,53.473423],[-2.927186,53.473973],[-2.933358,53.473145],[-2.933397,53.473861],[-2.939835,53.473613],[-2.939829,53.473327],[-2.946124,53.472961],[-2.947159,53.472131],[-2.94788,53.47304],[-2.955447,53.472404],[-2.956307,53.472993],[-2.958078,53.468754],[-2.958609,53.468789],[-2.959302,53.467665],[-2.960137,53.467659],[-2.960179,53.468001],[-2.961918,53.46831],[-2.967282,53.467763],[-2.96978,53.466025],[-2.969552,53.465746],[-2.973823,53.462757],[-2.973407,53.460151],[-2.971649,53.456238],[-2.971585,53.452264],[-2.973024,53.449723],[-2.973731,53.449714],[-2.973394,53.447449],[-2.974859,53.447402],[-2.974972,53.446507],[-2.976263,53.445285],[-2.974915,53.443324],[-2.977608,53.442846],[-2.979087,53.443334],[-2.97983,53.442542],[-2.990455,53.440588],[-2.991054,53.440213],[-2.991662,53.440735],[-2.992694,53.440318],[-2.993992,53.441526],[-3.000215,53.4404],[-2.999976,53.439992],[-3.00509,53.438981],[-3.005448,53.439161],[-3.007546,53.438368],[-3.008752,53.438382],[-3.008744,53.43919],[-3.009579,53.439101],[-3.009841,53.440224],[-3.01133,53.442371],[-3.017199,53.449593],[-3.017973,53.449404],[-3.018442,53.450079],[-3.018719,53.449899],[-3.028743,53.455509],[-3.041414,53.4655],[-3.041161,53.466275],[-3.038057,53.467761],[-3.037703,53.468251],[-3.041768,53.474478],[-3.04319,53.475627],[-3.045596,53.478719],[-3.046029,53.478597],[-3.051547,53.48594],[-3.055881,53.490279],[-3.061827,53.502898],[-3.062809,53.504679],[-3.063737,53.505469],[-3.062543,53.507252],[-3.063412,53.510507],[-3.063207,53.511016],[-3.065246,53.516003],[-3.063896,53.516846],[-3.063689,53.518014],[-3.06315,53.518436],[-3.06433,53.519776],[-3.064151,53.520715],[-3.06603,53.52245],[-3.065721,53.523504],[-3.063141,53.523838],[-3.06347,53.525451],[-3.06206,53.528993],[-3.06418,53.531357],[-3.064519,53.531212],[-3.062458,53.529054],[-3.063171,53.526477],[-3.063741,53.525488],[-3.063476,53.523911],[-3.066355,53.523623],[-3.067,53.524248],[-3.067067,53.523973],[-3.068574,53.523793],[-3.066728,53.523717],[-3.066741,53.523364],[-3.067352,53.52317],[-3.066653,53.523152],[-3.067187,53.522877],[-3.066733,53.522514],[-3.069345,53.522182],[-3.068052,53.521949],[-3.067243,53.520496],[-3.068297,53.520544],[-3.067663,53.520081],[-3.068286,53.520168],[-3.068317,53.5199],[-3.070106,53.519798],[-3.07276,53.520451],[-3.076452,53.522362],[-3.078182,53.522524],[-3.077308,53.522776],[-3.080277,53.524002],[-3.08379,53.525106],[-3.085249,53.525209],[-3.086558,53.526009],[-3.089977,53.529281],[-3.093976,53.531622],[-3.095812,53.531814],[-3.096744,53.53226],[-3.097085,53.53339],[-3.098127,53.534374],[-3.098134,53.535585],[-3.099409,53.536417],[-3.100804,53.536182],[-3.101311,53.536385],[-3.102898,53.538897],[-3.102999,53.541866],[-3.10395,53.542858],[-3.103995,53.546015],[-3.10479,53.546934],[-3.10438,53.553707],[-3.102356,53.561172],[-3.095572,53.573885],[-3.090466,53.580209],[-3.085411,53.587405],[-3.078138,53.596134],[-3.074782,53.598836],[-3.068607,53.607273],[-3.067918,53.606723],[-3.060927,53.617328],[-3.059943,53.618121],[-3.058791,53.621114],[-3.057992,53.621608],[-3.057448,53.621106],[-3.053865,53.626101],[-3.051066,53.627831],[-3.047373,53.629258],[-3.046309,53.630309],[-3.046845,53.630469],[-3.045867,53.631853],[-3.045515,53.631918],[-3.045503,53.631472],[-3.045211,53.631732],[-3.045236,53.632263],[-3.044242,53.632799],[-3.042952,53.634576],[-3.042502,53.634599],[-3.042621,53.63489],[-3.040908,53.636349],[-3.040042,53.637799],[-3.039596,53.637642],[-3.039199,53.63864],[-3.038097,53.639422],[-3.037489,53.640476],[-3.036172,53.640677],[-3.036035,53.641429],[-3.03473,53.642132],[-3.034645,53.642685],[-3.032763,53.643892],[-3.032318,53.644656],[-3.031978,53.64447],[-3.031396,53.645779],[-3.031098,53.645662],[-3.030408,53.64614],[-3.030466,53.646962],[-3.028473,53.648263],[-3.027072,53.648742],[-3.026453,53.650133],[-3.026127,53.650251],[-3.025876,53.649879],[-3.02612,53.649444],[-3.025193,53.649754],[-3.02447,53.650446],[-3.023231,53.650742],[-3.022184,53.651445],[-3.02139,53.652518],[-3.019844,53.652846],[-3.017791,53.654173],[-3.014492,53.658483],[-3.011206,53.660402],[-3.010713,53.660217],[-3.008136,53.662916],[-3.005663,53.664692],[-3.004666,53.666358],[-3.004032,53.668962],[-3.003198,53.6701],[-3.003508,53.671876],[-3.006305,53.671382],[-3.008703,53.669288],[-3.01029,53.666996],[-3.011067,53.667076],[-3.014061,53.67],[-3.0156,53.67292],[-3.015781,53.675746],[-3.015213,53.677584],[-3.014069,53.679149],[-3.013128,53.679364],[-3.01076,53.678768],[-3.007986,53.678944],[-3.005248,53.677426],[-3.002337,53.676951],[-3.000898,53.677246],[-2.999821,53.678022],[-3.000264,53.678506],[-3.001981,53.678833],[-2.997493,53.678795],[-2.997904,53.67918],[-2.997353,53.679701],[-2.994173,53.680423],[-2.98974,53.682656],[-2.987939,53.684644],[-2.985753,53.68246],[-2.985232,53.682315],[-2.985087,53.681679],[-2.985147,53.68236],[-2.983213,53.682487],[-2.982254,53.682966],[-2.983484,53.682564],[-2.985703,53.682595],[-2.98722,53.684636],[-2.986425,53.685317],[-2.985241,53.685697],[-2.985093,53.686146],[-2.985694,53.686403],[-2.988269,53.686129],[-2.988104,53.688139],[-2.986473,53.689631],[-2.984777,53.689742],[-2.982817,53.689323],[-2.981215,53.688279],[-2.981116,53.68712],[-2.980915,53.686945],[-2.97955,53.686399],[-2.978265,53.686196],[-2.977644,53.685741],[-2.978244,53.686277],[-2.980088,53.686649],[-2.98097,53.687189],[-2.980961,53.687478],[-2.97965,53.687347],[-2.977838,53.687669],[-2.980713,53.687571],[-2.980993,53.688343],[-2.982019,53.689426],[-2.977395,53.690024],[-2.979458,53.690107],[-2.977834,53.69292],[-2.977205,53.696484],[-2.975493,53.697127],[-2.969394,53.698323],[-2.96531,53.698225],[-2.964443,53.69741],[-2.9651,53.695989],[-2.964836,53.695061]]]]}}]}