{"type":"FeatureCollection","features":[{"type":"Feature","properties":{"slug":"sevenoaks","gss_code":"E07000111","name":"Sevenoaks"},"geometry":{"type":"Polygon","coordinates":[[[0.211401,51.404954],[0.213529,51.404849],[0.212738,51.402749],[0.206858,51.402414],[0.207191,51.400006],[0.20695,51.397219],[0.207532,51.396844],[0.20891,51.397044],[0.212124,51.396588],[0.21284,51.396763],[0.213868,51.39608],[0.215813,51.396174],[0.219343,51.395571],[0.223655,51.395665],[0.227512,51.395166],[0.232699,51.395893],[0.233483,51.396353],[0.235634,51.39666],[0.238314,51.396306],[0.23888,51.397075],[0.240546,51.397616],[0.240183,51.398373],[0.241034,51.399571],[0.240206,51.401143],[0.241895,51.401003],[0.243322,51.403231],[0.244602,51.40397],[0.245644,51.405425],[0.245512,51.406493],[0.246087,51.406504],[0.246154,51.407034],[0.245745,51.407712],[0.258049,51.407818],[0.269127,51.407419],[0.272196,51.406743],[0.272762,51.407571],[0.274055,51.407086],[0.274894,51.407457],[0.277607,51.406924],[0.278507,51.404522],[0.279785,51.402859],[0.277488,51.401584],[0.284044,51.399618],[0.293269,51.397976],[0.325595,51.388905],[0.332008,51.387323],[0.336679,51.386544],[0.33602,51.38538],[0.334532,51.384293],[0.333691,51.383142],[0.333839,51.38088],[0.33272,51.378515],[0.332406,51.375781],[0.33181,51.374693],[0.332144,51.372896],[0.331447,51.371279],[0.332677,51.368293],[0.335148,51.369657],[0.336692,51.369762],[0.335259,51.365068],[0.335569,51.360635],[0.337054,51.360008],[0.338892,51.356458],[0.34162,51.354539],[0.34229,51.348354],[0.340641,51.343644],[0.341503,51.343518],[0.341535,51.341284],[0.34079,51.339744],[0.344719,51.338658],[0.343664,51.332593],[0.341604,51.329216],[0.337331,51.329781],[0.334699,51.331099],[0.329623,51.332381],[0.328314,51.333061],[0.327972,51.333598],[0.321882,51.336615],[0.31744,51.337814],[0.316614,51.338745],[0.314033,51.339787],[0.312485,51.340977],[0.30689,51.343126],[0.307489,51.346243],[0.308679,51.348552],[0.308073,51.349131],[0.304675,51.350806],[0.296322,51.351877],[0.293998,51.349194],[0.291532,51.345368],[0.290443,51.345096],[0.288465,51.345257],[0.285766,51.344995],[0.285192,51.341874],[0.285383,51.340054],[0.288345,51.339575],[0.28846,51.337288],[0.288347,51.335811],[0.2868,51.334112],[0.284796,51.32979],[0.285012,51.327068],[0.284475,51.324898],[0.281626,51.323331],[0.280675,51.321765],[0.278564,51.320573],[0.277054,51.31873],[0.276456,51.319169],[0.275285,51.317895],[0.272414,51.317411],[0.267518,51.315529],[0.268156,51.315226],[0.267899,51.314132],[0.265144,51.313637],[0.265836,51.311778],[0.26499,51.3118],[0.264371,51.308576],[0.263706,51.3071],[0.263026,51.306758],[0.263028,51.305894],[0.263686,51.305303],[0.263298,51.303563],[0.265348,51.301552],[0.264666,51.29706],[0.258453,51.297292],[0.259844,51.29512],[0.261017,51.294923],[0.260161,51.293012],[0.261206,51.291509],[0.261357,51.289142],[0.258575,51.285878],[0.258024,51.283798],[0.258278,51.281246],[0.257751,51.279558],[0.2564,51.278533],[0.255171,51.276411],[0.258244,51.27487],[0.259439,51.273863],[0.260485,51.272309],[0.260507,51.27021],[0.263146,51.2692],[0.264898,51.267725],[0.265253,51.26543],[0.264657,51.261972],[0.265164,51.260066],[0.264595,51.256999],[0.263841,51.255786],[0.262278,51.255364],[0.261286,51.25445],[0.259155,51.254948],[0.254478,51.254561],[0.252508,51.254621],[0.249814,51.25531],[0.247332,51.255294],[0.246455,51.25188],[0.249021,51.249287],[0.250445,51.247021],[0.250377,51.245655],[0.24911,51.242905],[0.247707,51.242323],[0.247338,51.240005],[0.248158,51.239192],[0.248089,51.238534],[0.247013,51.237686],[0.241182,51.236976],[0.230963,51.23223],[0.229456,51.233365],[0.225439,51.238948],[0.224429,51.240754],[0.224945,51.243552],[0.223943,51.243921],[0.223086,51.244972],[0.218993,51.243357],[0.215947,51.241082],[0.214098,51.239087],[0.210641,51.237024],[0.208122,51.235851],[0.200542,51.233759],[0.200941,51.231489],[0.203065,51.229447],[0.203447,51.22829],[0.204308,51.227688],[0.206511,51.227117],[0.208774,51.225711],[0.209281,51.225832],[0.21234,51.224598],[0.211657,51.223745],[0.212249,51.222852],[0.211426,51.221874],[0.207321,51.221843],[0.201946,51.220553],[0.201463,51.21824],[0.202376,51.217226],[0.204283,51.216176],[0.204867,51.214045],[0.207136,51.211986],[0.207917,51.210589],[0.20891,51.210342],[0.211156,51.20889],[0.212556,51.20884],[0.214155,51.20815],[0.215349,51.207333],[0.215736,51.207832],[0.217052,51.20773],[0.217839,51.206703],[0.217655,51.20616],[0.21824,51.205864],[0.218864,51.205999],[0.219304,51.205702],[0.222337,51.206555],[0.223732,51.206633],[0.225354,51.207307],[0.226312,51.205271],[0.226479,51.203387],[0.228479,51.201686],[0.231574,51.201461],[0.235357,51.202313],[0.236369,51.202193],[0.237788,51.200941],[0.238768,51.200619],[0.238284,51.199788],[0.240035,51.198719],[0.240544,51.199017],[0.240888,51.198675],[0.241287,51.198884],[0.241822,51.198622],[0.243225,51.199443],[0.245375,51.199776],[0.247514,51.200663],[0.248354,51.201587],[0.249552,51.201835],[0.250073,51.201744],[0.250811,51.200577],[0.250983,51.198444],[0.250589,51.198398],[0.250374,51.197776],[0.248163,51.197729],[0.248312,51.197003],[0.247222,51.196366],[0.248004,51.195317],[0.247349,51.19507],[0.245815,51.195333],[0.2461,51.194838],[0.247113,51.194542],[0.246765,51.194249],[0.244697,51.194219],[0.245393,51.191907],[0.239767,51.193026],[0.239456,51.19205],[0.23601,51.192265],[0.234941,51.192936],[0.231901,51.193354],[0.231227,51.191969],[0.228974,51.192015],[0.229541,51.191224],[0.228722,51.190654],[0.229114,51.188821],[0.228823,51.185954],[0.226963,51.184106],[0.219269,51.179991],[0.216303,51.179139],[0.218092,51.177509],[0.21221,51.175447],[0.20738,51.175363],[0.205378,51.172671],[0.203456,51.17123],[0.202852,51.171256],[0.202179,51.172609],[0.200702,51.172665],[0.200501,51.173331],[0.199374,51.173282],[0.198855,51.174463],[0.197693,51.17524],[0.19478,51.173825],[0.19266,51.172174],[0.190971,51.171378],[0.190641,51.167962],[0.195712,51.164987],[0.196011,51.164329],[0.199012,51.161745],[0.201475,51.160144],[0.202586,51.161614],[0.203146,51.161732],[0.205461,51.160872],[0.205212,51.159906],[0.205617,51.1598],[0.205658,51.158684],[0.207525,51.15869],[0.208672,51.15917],[0.210324,51.156621],[0.213123,51.154982],[0.215385,51.154346],[0.212134,51.15163],[0.20595,51.151129],[0.203511,51.149534],[0.200261,51.145989],[0.196431,51.146423],[0.194765,51.144882],[0.193587,51.142451],[0.193019,51.140353],[0.193459,51.139435],[0.191105,51.139549],[0.188992,51.138691],[0.187448,51.136387],[0.1831,51.1349],[0.180407,51.131805],[0.175846,51.133721],[0.17432,51.132922],[0.169997,51.132173],[0.167881,51.132147],[0.167299,51.133543],[0.164436,51.132761],[0.162374,51.135839],[0.160718,51.137329],[0.160914,51.137961],[0.159711,51.138869],[0.162311,51.139678],[0.160967,51.140635],[0.160123,51.140531],[0.159892,51.141038],[0.158937,51.14101],[0.158495,51.140661],[0.158046,51.141034],[0.157188,51.14071],[0.156596,51.140902],[0.156643,51.141294],[0.155779,51.141301],[0.155451,51.141972],[0.152996,51.142159],[0.153051,51.142453],[0.151894,51.142874],[0.150722,51.142933],[0.150194,51.142536],[0.149771,51.142992],[0.149456,51.142699],[0.149198,51.14302],[0.148445,51.14274],[0.148105,51.143159],[0.14457,51.143251],[0.144874,51.143731],[0.144538,51.144024],[0.143174,51.144314],[0.142571,51.145001],[0.141276,51.145244],[0.141377,51.14583],[0.139488,51.146282],[0.139597,51.146715],[0.137357,51.146725],[0.136926,51.146446],[0.136016,51.147014],[0.134686,51.14686],[0.133117,51.147279],[0.132793,51.14685],[0.130876,51.146872],[0.130601,51.147163],[0.128571,51.147454],[0.125933,51.146946],[0.125156,51.147193],[0.122168,51.146952],[0.121944,51.147206],[0.120059,51.146422],[0.118705,51.146672],[0.117811,51.146185],[0.115347,51.145894],[0.114642,51.145585],[0.114614,51.145186],[0.111766,51.144625],[0.109669,51.144312],[0.108846,51.144369],[0.108631,51.14467],[0.107528,51.144545],[0.107495,51.144196],[0.10548,51.144076],[0.105258,51.14356],[0.104389,51.143461],[0.104287,51.142959],[0.103284,51.142559],[0.100278,51.142629],[0.099507,51.142121],[0.098217,51.142478],[0.097817,51.142172],[0.096006,51.142323],[0.095878,51.142053],[0.093951,51.141802],[0.093846,51.141523],[0.092557,51.141671],[0.090648,51.141171],[0.090236,51.141467],[0.08884,51.140995],[0.088317,51.141292],[0.087871,51.140935],[0.087079,51.14149],[0.086026,51.141675],[0.085909,51.14208],[0.08452,51.141609],[0.084048,51.141896],[0.083575,51.141488],[0.083297,51.141709],[0.081677,51.141058],[0.080961,51.141127],[0.080407,51.140625],[0.078188,51.139946],[0.070555,51.139685],[0.068145,51.140673],[0.0667,51.140532],[0.065458,51.140729],[0.065553,51.141054],[0.064216,51.140886],[0.064032,51.141152],[0.063284,51.141119],[0.062476,51.14176],[0.058764,51.14083],[0.0584,51.14136],[0.055847,51.142469],[0.052697,51.14216],[0.050017,51.14265],[0.049891,51.143912],[0.050918,51.144701],[0.051852,51.144925],[0.053076,51.147462],[0.05425,51.148315],[0.054805,51.149529],[0.054683,51.150434],[0.052414,51.150746],[0.051223,51.151684],[0.050841,51.153515],[0.051434,51.154375],[0.051494,51.157245],[0.048901,51.158817],[0.047514,51.161243],[0.048624,51.164418],[0.046945,51.16487],[0.046392,51.166206],[0.047087,51.167718],[0.046684,51.168448],[0.047029,51.168926],[0.046251,51.169193],[0.046562,51.171468],[0.046176,51.171831],[0.046694,51.173478],[0.047289,51.174063],[0.048231,51.174331],[0.048697,51.175591],[0.050499,51.176282],[0.050904,51.17718],[0.051778,51.177755],[0.051685,51.178697],[0.0526,51.180624],[0.052287,51.181227],[0.049811,51.182905],[0.049437,51.185017],[0.048914,51.184879],[0.04736,51.18556],[0.047359,51.186336],[0.046257,51.187341],[0.046859,51.187783],[0.046255,51.187844],[0.045167,51.188615],[0.047325,51.189999],[0.047823,51.191742],[0.046966,51.191685],[0.046017,51.192159],[0.044545,51.191853],[0.044051,51.192622],[0.042775,51.192991],[0.042514,51.193605],[0.042065,51.193709],[0.042534,51.194048],[0.0414,51.195841],[0.04042,51.196663],[0.040678,51.197611],[0.040445,51.197883],[0.039682,51.197822],[0.039324,51.19846],[0.038697,51.198463],[0.038387,51.198833],[0.038309,51.199765],[0.039158,51.200873],[0.035794,51.204214],[0.036697,51.205181],[0.03729,51.20706],[0.036198,51.207956],[0.036379,51.208165],[0.03539,51.208486],[0.033772,51.210554],[0.033988,51.210881],[0.033588,51.211324],[0.034595,51.21166],[0.034051,51.21174],[0.034024,51.212031],[0.034721,51.213482],[0.033599,51.214338],[0.03628,51.216582],[0.041149,51.216624],[0.04145,51.218251],[0.043167,51.220162],[0.042951,51.221794],[0.042314,51.222577],[0.042834,51.22461],[0.043685,51.225827],[0.042302,51.227377],[0.043039,51.229083],[0.043864,51.229783],[0.043809,51.230887],[0.045136,51.231947],[0.046059,51.233319],[0.048033,51.233756],[0.05286,51.236527],[0.05393,51.238143],[0.053557,51.239325],[0.055393,51.240558],[0.056239,51.243176],[0.057365,51.244062],[0.058243,51.247778],[0.05705,51.251291],[0.055131,51.25238],[0.053844,51.254078],[0.054266,51.256586],[0.053252,51.258165],[0.051942,51.262683],[0.04968,51.265694],[0.04961,51.268032],[0.048032,51.270121],[0.045396,51.27666],[0.045361,51.277922],[0.046926,51.281066],[0.048171,51.285653],[0.04674,51.288592],[0.04478,51.290736],[0.042695,51.292063],[0.042396,51.292673],[0.044767,51.293087],[0.045732,51.294004],[0.048496,51.293722],[0.05079,51.293987],[0.05439,51.292089],[0.05605,51.292395],[0.05851,51.289354],[0.067563,51.290383],[0.073368,51.291605],[0.08158,51.291835],[0.085693,51.293084],[0.089262,51.296086],[0.091185,51.296827],[0.089396,51.297764],[0.086211,51.300174],[0.085433,51.302519],[0.082816,51.305634],[0.084878,51.306045],[0.084086,51.308049],[0.084748,51.308346],[0.083572,51.310528],[0.085071,51.312599],[0.085642,51.314785],[0.085029,51.316023],[0.086822,51.317193],[0.087785,51.318312],[0.092777,51.319811],[0.09618,51.321293],[0.100176,51.324072],[0.100792,51.325586],[0.103241,51.325996],[0.104902,51.327413],[0.107238,51.327524],[0.109759,51.326684],[0.110154,51.328036],[0.114211,51.327398],[0.115744,51.329507],[0.116642,51.330004],[0.117336,51.329499],[0.1179,51.329647],[0.117892,51.330621],[0.120246,51.332137],[0.121684,51.333636],[0.120011,51.33474],[0.118299,51.338405],[0.119014,51.338684],[0.118471,51.339982],[0.117283,51.339781],[0.116681,51.341303],[0.117232,51.343164],[0.117587,51.343129],[0.118456,51.344148],[0.122239,51.344658],[0.125213,51.345868],[0.131669,51.345194],[0.131777,51.345507],[0.136958,51.344175],[0.137109,51.344801],[0.1362,51.345937],[0.137197,51.345872],[0.138268,51.347085],[0.139441,51.346983],[0.139493,51.3473],[0.138714,51.347525],[0.141287,51.349779],[0.140984,51.350146],[0.14262,51.350735],[0.142876,51.352659],[0.14314,51.353049],[0.143631,51.353018],[0.144046,51.354862],[0.145114,51.355764],[0.145895,51.358225],[0.144848,51.358435],[0.145389,51.360337],[0.144563,51.360691],[0.144501,51.361061],[0.145391,51.362503],[0.145049,51.362851],[0.148348,51.366372],[0.14728,51.367014],[0.148877,51.368124],[0.149438,51.369163],[0.151025,51.368322],[0.15162,51.368379],[0.152058,51.369694],[0.150127,51.370157],[0.151206,51.372187],[0.150834,51.372921],[0.1496,51.373583],[0.151736,51.375436],[0.152537,51.37523],[0.153236,51.378036],[0.15219,51.378336],[0.152353,51.37869],[0.150975,51.379085],[0.151133,51.379896],[0.149613,51.38009],[0.149609,51.38109],[0.150373,51.381093],[0.150466,51.383447],[0.149787,51.383671],[0.1498,51.38487],[0.149992,51.385841],[0.150459,51.386018],[0.148902,51.387572],[0.149417,51.387855],[0.148654,51.388668],[0.149836,51.390872],[0.147534,51.392156],[0.147741,51.392801],[0.158274,51.39224],[0.162384,51.39249],[0.15898,51.395821],[0.157729,51.398147],[0.157361,51.400783],[0.156435,51.402494],[0.155514,51.403575],[0.154967,51.403659],[0.155249,51.403971],[0.152822,51.406273],[0.1511,51.406642],[0.148692,51.408131],[0.149312,51.409141],[0.151595,51.408677],[0.156096,51.408738],[0.159382,51.408369],[0.159887,51.40827],[0.159693,51.407845],[0.161454,51.407156],[0.163488,51.406804],[0.163933,51.408414],[0.165615,51.40824],[0.166358,51.410754],[0.16493,51.410994],[0.178078,51.415513],[0.182609,51.415794],[0.199759,51.417976],[0.200779,51.415741],[0.203245,51.413791],[0.205305,51.413206],[0.204992,51.412246],[0.205845,51.409683],[0.211018,51.407453],[0.211401,51.404954]]]}}]}