{"type":"FeatureCollection","features":[{"type":"Feature","properties":{"slug":"shropshire","gss_code":"E06000051","name":"Shropshire"},"geometry":{"type":"Polygon","coordinates":[[[-2.379876,52.998045],[-2.377921,52.998246],[-2.376496,52.99769],[-2.376419,52.996805],[-2.377284,52.995646],[-2.376475,52.995368],[-2.376251,52.9945],[-2.376698,52.993676],[-2.378621,52.992951],[-2.378817,52.991992],[-2.379845,52.991676],[-2.379807,52.991066],[-2.376621,52.988294],[-2.375983,52.98653],[-2.375077,52.986243],[-2.373507,52.983568],[-2.371536,52.982953],[-2.370269,52.982162],[-2.368731,52.979359],[-2.370737,52.977466],[-2.373622,52.976452],[-2.374605,52.975541],[-2.376439,52.97482],[-2.379067,52.975215],[-2.379718,52.976065],[-2.381808,52.971509],[-2.382832,52.970658],[-2.379131,52.969276],[-2.379104,52.96785],[-2.377142,52.964935],[-2.377555,52.964415],[-2.379003,52.963906],[-2.380901,52.96228],[-2.38258,52.961685],[-2.38475,52.959822],[-2.386275,52.954366],[-2.386164,52.953273],[-2.387337,52.952678],[-2.391711,52.952099],[-2.391734,52.951646],[-2.392458,52.951564],[-2.392433,52.951169],[-2.393023,52.951304],[-2.393743,52.950552],[-2.398103,52.957739],[-2.399154,52.960651],[-2.40034,52.960628],[-2.400389,52.960924],[-2.402895,52.961254],[-2.40281,52.961654],[-2.406637,52.962411],[-2.409323,52.96255],[-2.40959,52.962028],[-2.410615,52.962351],[-2.410862,52.961113],[-2.412917,52.961771],[-2.413859,52.960823],[-2.410436,52.959256],[-2.408181,52.958844],[-2.407134,52.957908],[-2.407492,52.957378],[-2.406987,52.956691],[-2.407203,52.956222],[-2.405324,52.953208],[-2.405576,52.950568],[-2.404634,52.949067],[-2.404861,52.948305],[-2.405438,52.948379],[-2.405319,52.948088],[-2.405907,52.947959],[-2.405503,52.947318],[-2.407466,52.947422],[-2.408762,52.946355],[-2.410223,52.947151],[-2.413609,52.94662],[-2.415006,52.94706],[-2.414029,52.947677],[-2.414628,52.948005],[-2.414136,52.948201],[-2.415167,52.94828],[-2.41496,52.948725],[-2.41625,52.948483],[-2.416833,52.948758],[-2.4167,52.949115],[-2.418181,52.94892],[-2.418259,52.949317],[-2.41897,52.949389],[-2.41894,52.949597],[-2.420637,52.948861],[-2.425151,52.950013],[-2.427726,52.948769],[-2.427541,52.948487],[-2.428537,52.947716],[-2.428356,52.94712],[-2.429311,52.946698],[-2.429391,52.946335],[-2.430498,52.946032],[-2.43132,52.946192],[-2.431455,52.945828],[-2.433869,52.944515],[-2.434676,52.944498],[-2.435125,52.944008],[-2.436723,52.94387],[-2.437719,52.942619],[-2.437256,52.941777],[-2.437994,52.941631],[-2.439744,52.940044],[-2.439692,52.939317],[-2.440354,52.939014],[-2.440874,52.937072],[-2.44359,52.934202],[-2.444045,52.932825],[-2.445387,52.932193],[-2.44591,52.930506],[-2.445399,52.930295],[-2.446762,52.929229],[-2.446946,52.928606],[-2.44818,52.928085],[-2.448923,52.928374],[-2.450581,52.927557],[-2.450266,52.925868],[-2.450643,52.925122],[-2.451943,52.925245],[-2.453444,52.925921],[-2.455885,52.925699],[-2.456219,52.924438],[-2.456841,52.924374],[-2.456176,52.923764],[-2.456525,52.923241],[-2.456186,52.922989],[-2.456809,52.922967],[-2.456769,52.922326],[-2.457438,52.921884],[-2.457551,52.921473],[-2.456906,52.921054],[-2.457316,52.920966],[-2.457605,52.92021],[-2.456509,52.919939],[-2.456816,52.919089],[-2.455996,52.91876],[-2.456782,52.917889],[-2.455579,52.916616],[-2.45593,52.916148],[-2.455687,52.915568],[-2.456766,52.914116],[-2.457473,52.914154],[-2.457227,52.914683],[-2.458154,52.91441],[-2.458352,52.913566],[-2.459545,52.913367],[-2.459288,52.913023],[-2.459854,52.912701],[-2.459464,52.912462],[-2.460012,52.912142],[-2.459451,52.911567],[-2.460157,52.911744],[-2.460855,52.909384],[-2.462198,52.908873],[-2.462432,52.908573],[-2.462042,52.908395],[-2.463414,52.907802],[-2.463921,52.908048],[-2.466053,52.907067],[-2.467139,52.907086],[-2.468784,52.906316],[-2.470782,52.905878],[-2.469685,52.903804],[-2.468063,52.896932],[-2.465263,52.892315],[-2.462011,52.888765],[-2.461489,52.888771],[-2.457272,52.886311],[-2.456224,52.885262],[-2.456162,52.884263],[-2.457645,52.880899],[-2.457335,52.879953],[-2.457629,52.879101],[-2.455775,52.879516],[-2.454783,52.878035],[-2.454866,52.877465],[-2.451468,52.878198],[-2.449072,52.874904],[-2.446097,52.874003],[-2.445464,52.873999],[-2.444861,52.874859],[-2.44202,52.880668],[-2.440412,52.881227],[-2.438349,52.881266],[-2.435608,52.881833],[-2.431547,52.881713],[-2.428038,52.88225],[-2.425851,52.882002],[-2.423897,52.883804],[-2.420334,52.885277],[-2.419307,52.886773],[-2.416576,52.885856],[-2.415897,52.885073],[-2.41481,52.884944],[-2.411858,52.88789],[-2.407443,52.88759],[-2.405409,52.888219],[-2.40508,52.887843],[-2.404738,52.888095],[-2.40308,52.887946],[-2.400554,52.888831],[-2.398982,52.888714],[-2.396032,52.88955],[-2.394921,52.889347],[-2.393994,52.888592],[-2.392235,52.888617],[-2.390473,52.889067],[-2.388921,52.888987],[-2.386603,52.888574],[-2.385555,52.887988],[-2.384914,52.888636],[-2.385269,52.88934],[-2.384428,52.89036],[-2.382636,52.891112],[-2.380266,52.891082],[-2.378938,52.891721],[-2.375387,52.89144],[-2.377551,52.887713],[-2.376865,52.8845],[-2.379172,52.883428],[-2.378919,52.88165],[-2.379418,52.880907],[-2.381114,52.880154],[-2.38256,52.876485],[-2.38245,52.875765],[-2.380551,52.873254],[-2.381156,52.867063],[-2.382223,52.865756],[-2.388495,52.862234],[-2.388201,52.861221],[-2.386739,52.859972],[-2.389333,52.857224],[-2.388371,52.855785],[-2.389725,52.854549],[-2.389779,52.851807],[-2.391433,52.849926],[-2.39276,52.846911],[-2.392528,52.845621],[-2.393191,52.842404],[-2.394268,52.841042],[-2.393521,52.838697],[-2.394068,52.837913],[-2.393756,52.83662],[-2.394502,52.835577],[-2.395594,52.834962],[-2.395734,52.834421],[-2.39709,52.833854],[-2.400874,52.833731],[-2.403608,52.834854],[-2.407656,52.834605],[-2.409344,52.83359],[-2.409704,52.832567],[-2.412718,52.831047],[-2.413782,52.829608],[-2.415337,52.82914],[-2.415542,52.827711],[-2.416966,52.826456],[-2.418443,52.826447],[-2.420094,52.825745],[-2.422391,52.825393],[-2.423245,52.824719],[-2.424008,52.824633],[-2.423804,52.823968],[-2.426038,52.823212],[-2.426359,52.824485],[-2.425754,52.825859],[-2.426508,52.825929],[-2.426737,52.823537],[-2.426324,52.822527],[-2.427432,52.822869],[-2.428224,52.825066],[-2.428086,52.82747],[-2.42727,52.827943],[-2.427577,52.828378],[-2.430209,52.828154],[-2.432661,52.827054],[-2.434882,52.824638],[-2.436502,52.823615],[-2.438664,52.824297],[-2.440473,52.820772],[-2.446462,52.821812],[-2.462707,52.821928],[-2.469108,52.823082],[-2.470254,52.821749],[-2.471702,52.821659],[-2.472985,52.820524],[-2.470773,52.819256],[-2.468633,52.811545],[-2.466411,52.808697],[-2.461637,52.803759],[-2.461178,52.803864],[-2.461399,52.800167],[-2.457746,52.79853],[-2.458931,52.797247],[-2.458333,52.797212],[-2.459371,52.796795],[-2.459135,52.796505],[-2.460925,52.795939],[-2.460476,52.795616],[-2.461364,52.795472],[-2.46136,52.795002],[-2.463198,52.79447],[-2.462971,52.793999],[-2.46347,52.792746],[-2.462892,52.792057],[-2.461752,52.791536],[-2.459563,52.79119],[-2.458203,52.790046],[-2.458773,52.789829],[-2.458267,52.788111],[-2.457458,52.787636],[-2.456838,52.786417],[-2.457426,52.78564],[-2.456958,52.784356],[-2.456269,52.78412],[-2.457605,52.783406],[-2.460291,52.783444],[-2.460658,52.783929],[-2.461839,52.783887],[-2.462917,52.784461],[-2.467515,52.783648],[-2.470951,52.784289],[-2.472565,52.782636],[-2.473462,52.78245],[-2.473508,52.781815],[-2.472203,52.780907],[-2.472524,52.780485],[-2.47327,52.780444],[-2.475556,52.781203],[-2.476357,52.780962],[-2.479817,52.782216],[-2.482618,52.780691],[-2.485421,52.780254],[-2.488212,52.780612],[-2.488411,52.781535],[-2.487121,52.782449],[-2.488063,52.782861],[-2.48965,52.782938],[-2.489402,52.783292],[-2.489938,52.783951],[-2.486913,52.785379],[-2.484401,52.787805],[-2.478728,52.797868],[-2.477121,52.799379],[-2.478478,52.801528],[-2.483581,52.800017],[-2.486768,52.799836],[-2.488373,52.800425],[-2.488874,52.800915],[-2.488573,52.802065],[-2.486507,52.805246],[-2.490002,52.804516],[-2.490263,52.802251],[-2.492367,52.802371],[-2.498771,52.800799],[-2.499214,52.800243],[-2.501174,52.799255],[-2.501588,52.797305],[-2.502948,52.796613],[-2.507308,52.796733],[-2.509946,52.798405],[-2.511751,52.798515],[-2.514989,52.795846],[-2.516178,52.795534],[-2.516767,52.795867],[-2.518006,52.795859],[-2.521098,52.79899],[-2.521948,52.798909],[-2.522249,52.798038],[-2.523245,52.79762],[-2.522707,52.796857],[-2.523154,52.796553],[-2.524281,52.796618],[-2.524424,52.79567],[-2.525645,52.79498],[-2.525384,52.793472],[-2.526382,52.792565],[-2.527116,52.790597],[-2.526429,52.790271],[-2.526753,52.789938],[-2.528225,52.790019],[-2.527272,52.789209],[-2.528857,52.788981],[-2.528615,52.788602],[-2.529213,52.788373],[-2.529573,52.786953],[-2.530157,52.786942],[-2.530785,52.786301],[-2.53238,52.785627],[-2.533484,52.786164],[-2.533806,52.786708],[-2.534726,52.785879],[-2.536309,52.785889],[-2.537421,52.785059],[-2.538284,52.785279],[-2.538845,52.786012],[-2.537712,52.787943],[-2.538133,52.788023],[-2.538194,52.788759],[-2.53722,52.789265],[-2.53742,52.789907],[-2.535863,52.790764],[-2.535824,52.791341],[-2.534903,52.791618],[-2.534573,52.792265],[-2.534207,52.792204],[-2.533392,52.793485],[-2.533699,52.794],[-2.535437,52.79489],[-2.536194,52.794905],[-2.537481,52.794052],[-2.539997,52.793861],[-2.542336,52.795827],[-2.54378,52.79637],[-2.544061,52.797127],[-2.547302,52.797397],[-2.548374,52.799753],[-2.548152,52.80021],[-2.548527,52.800178],[-2.549265,52.800886],[-2.549088,52.801137],[-2.55098,52.801334],[-2.551076,52.801873],[-2.551594,52.801935],[-2.551357,52.802299],[-2.552962,52.802916],[-2.554907,52.802096],[-2.554588,52.801929],[-2.555007,52.80079],[-2.556031,52.800546],[-2.556994,52.80073],[-2.55822,52.80017],[-2.559396,52.799104],[-2.561378,52.798967],[-2.562729,52.79944],[-2.565782,52.799689],[-2.567931,52.801937],[-2.568547,52.801963],[-2.570608,52.803027],[-2.571061,52.804469],[-2.569417,52.805013],[-2.569675,52.805147],[-2.573878,52.806264],[-2.576989,52.806373],[-2.57718,52.80538],[-2.581216,52.806016],[-2.582774,52.805598],[-2.58672,52.80256],[-2.588247,52.80209],[-2.589676,52.801185],[-2.590694,52.799559],[-2.59262,52.799206],[-2.591903,52.79841],[-2.595338,52.7976],[-2.598134,52.797996],[-2.5938,52.795672],[-2.59275,52.793599],[-2.593512,52.791777],[-2.594373,52.791009],[-2.593748,52.790184],[-2.593363,52.788266],[-2.594227,52.784228],[-2.592704,52.781696],[-2.589887,52.779526],[-2.59032,52.778112],[-2.591299,52.778083],[-2.592267,52.776819],[-2.598931,52.778399],[-2.603026,52.77708],[-2.606401,52.777831],[-2.615324,52.775237],[-2.617804,52.775352],[-2.619451,52.77628],[-2.621008,52.776466],[-2.622539,52.773293],[-2.625503,52.771996],[-2.62626,52.769388],[-2.627458,52.768614],[-2.629252,52.76608],[-2.628665,52.765225],[-2.628531,52.762905],[-2.632466,52.760484],[-2.632323,52.759575],[-2.635252,52.759003],[-2.636719,52.761872],[-2.635811,52.762561],[-2.636521,52.763871],[-2.637538,52.764239],[-2.637276,52.764896],[-2.637921,52.765134],[-2.638991,52.764714],[-2.640487,52.765095],[-2.641184,52.766551],[-2.643064,52.767076],[-2.649412,52.764865],[-2.648891,52.763896],[-2.65441,52.762518],[-2.65659,52.761246],[-2.658264,52.762311],[-2.663515,52.760403],[-2.662441,52.758254],[-2.661032,52.757455],[-2.661563,52.756713],[-2.660954,52.756433],[-2.662129,52.75534],[-2.661656,52.754708],[-2.663726,52.752706],[-2.66191,52.750573],[-2.663362,52.74997],[-2.664727,52.751202],[-2.665649,52.751503],[-2.667362,52.750198],[-2.66551,52.745918],[-2.663873,52.745318],[-2.664128,52.744688],[-2.663586,52.7441],[-2.662697,52.743806],[-2.659631,52.743807],[-2.659375,52.743519],[-2.660611,52.742125],[-2.66152,52.741808],[-2.662714,52.740501],[-2.663711,52.74006],[-2.664414,52.738079],[-2.66395,52.736157],[-2.661046,52.734522],[-2.660089,52.731643],[-2.658809,52.731667],[-2.658025,52.730661],[-2.65414,52.730675],[-2.644652,52.729277],[-2.641566,52.727579],[-2.636029,52.72654],[-2.631328,52.726686],[-2.627957,52.724848],[-2.627257,52.722798],[-2.627646,52.721441],[-2.626987,52.721558],[-2.626189,52.720595],[-2.624284,52.719503],[-2.623401,52.719567],[-2.623216,52.720102],[-2.621871,52.720866],[-2.619917,52.721312],[-2.618918,52.721878],[-2.615122,52.718954],[-2.613435,52.719534],[-2.60998,52.71942],[-2.607467,52.72004],[-2.606233,52.719543],[-2.60466,52.719446],[-2.60461,52.719152],[-2.603269,52.719167],[-2.601965,52.719687],[-2.598935,52.718373],[-2.59742,52.718251],[-2.597727,52.717334],[-2.597062,52.715362],[-2.596422,52.715397],[-2.596939,52.714472],[-2.597843,52.713927],[-2.599504,52.714113],[-2.600898,52.713743],[-2.602075,52.713012],[-2.602253,52.712339],[-2.604951,52.709733],[-2.603975,52.708906],[-2.60413,52.708442],[-2.605991,52.707578],[-2.605422,52.70678],[-2.609206,52.705689],[-2.610883,52.704723],[-2.613942,52.704384],[-2.619329,52.704479],[-2.624273,52.703438],[-2.623489,52.703014],[-2.62338,52.700697],[-2.622596,52.699024],[-2.620203,52.698017],[-2.616875,52.69835],[-2.613226,52.697072],[-2.611566,52.69612],[-2.610452,52.694987],[-2.609125,52.694475],[-2.608391,52.693286],[-2.608327,52.691798],[-2.603258,52.689318],[-2.597756,52.689968],[-2.596601,52.690592],[-2.594763,52.687817],[-2.591492,52.685967],[-2.588567,52.683751],[-2.586761,52.684147],[-2.582755,52.682031],[-2.581922,52.682138],[-2.578969,52.681042],[-2.57714,52.680721],[-2.576967,52.680093],[-2.576322,52.679728],[-2.575226,52.68006],[-2.574447,52.679161],[-2.568228,52.677041],[-2.562718,52.674183],[-2.555647,52.671098],[-2.549413,52.666288],[-2.55161,52.664856],[-2.552961,52.664846],[-2.553739,52.664482],[-2.554785,52.662681],[-2.554219,52.661553],[-2.554211,52.659954],[-2.547129,52.658112],[-2.545431,52.65837],[-2.546298,52.656497],[-2.548337,52.655256],[-2.548385,52.654634],[-2.546776,52.654418],[-2.546256,52.653618],[-2.544977,52.65283],[-2.541675,52.652671],[-2.535054,52.650568],[-2.530053,52.649482],[-2.527097,52.647153],[-2.523805,52.646263],[-2.519169,52.643516],[-2.517829,52.643222],[-2.516664,52.642037],[-2.51491,52.641072],[-2.512736,52.640662],[-2.51013,52.638407],[-2.510818,52.636576],[-2.509966,52.636061],[-2.510182,52.635726],[-2.508337,52.634794],[-2.505789,52.632494],[-2.500838,52.629675],[-2.501774,52.629019],[-2.496208,52.629038],[-2.492061,52.628109],[-2.489369,52.626332],[-2.486453,52.625134],[-2.486147,52.624618],[-2.486464,52.623872],[-2.483619,52.625097],[-2.481464,52.624857],[-2.481844,52.623504],[-2.480278,52.624018],[-2.478957,52.624006],[-2.478651,52.623421],[-2.476159,52.622976],[-2.475118,52.623121],[-2.474434,52.623806],[-2.472439,52.623585],[-2.472234,52.624032],[-2.472302,52.6219],[-2.470835,52.622525],[-2.46968,52.622454],[-2.46635,52.624108],[-2.464621,52.623792],[-2.457744,52.620538],[-2.45491,52.618599],[-2.450589,52.616852],[-2.444228,52.615031],[-2.443788,52.615281],[-2.442454,52.61521],[-2.441925,52.615676],[-2.4381,52.614568],[-2.437677,52.615355],[-2.435769,52.615552],[-2.434047,52.618216],[-2.43706,52.61935],[-2.435592,52.622261],[-2.436635,52.627094],[-2.428699,52.629701],[-2.424064,52.632143],[-2.42066,52.633394],[-2.418295,52.633775],[-2.419494,52.635833],[-2.418918,52.639428],[-2.418228,52.639423],[-2.418466,52.639902],[-2.417026,52.644159],[-2.416391,52.644897],[-2.418754,52.645797],[-2.419924,52.647567],[-2.417579,52.650348],[-2.419029,52.662892],[-2.409939,52.671647],[-2.407796,52.679588],[-2.406889,52.681164],[-2.405438,52.681603],[-2.403422,52.682762],[-2.401964,52.682496],[-2.401211,52.684535],[-2.402325,52.686674],[-2.401392,52.689362],[-2.402833,52.689837],[-2.403548,52.69044],[-2.405243,52.694868],[-2.401525,52.69495],[-2.403592,52.698802],[-2.403578,52.701378],[-2.40242,52.703064],[-2.402501,52.703905],[-2.401032,52.704633],[-2.392759,52.711489],[-2.393105,52.713542],[-2.392759,52.71432],[-2.387151,52.717706],[-2.385191,52.720081],[-2.382597,52.722078],[-2.381006,52.724332],[-2.380494,52.726904],[-2.379496,52.728634],[-2.379666,52.729629],[-2.378863,52.730634],[-2.379487,52.732044],[-2.37907,52.735358],[-2.37681,52.739328],[-2.375066,52.74086],[-2.371101,52.740295],[-2.368887,52.7405],[-2.368924,52.740022],[-2.370171,52.739056],[-2.371921,52.73854],[-2.368481,52.73526],[-2.367367,52.733193],[-2.362911,52.73372],[-2.358058,52.73128],[-2.352641,52.730867],[-2.344248,52.731127],[-2.336425,52.733075],[-2.335492,52.73064],[-2.335818,52.730312],[-2.333569,52.730606],[-2.330024,52.729499],[-2.328657,52.730362],[-2.325155,52.731247],[-2.323123,52.731243],[-2.321435,52.730538],[-2.319651,52.730621],[-2.319012,52.731342],[-2.317345,52.731857],[-2.315637,52.73294],[-2.314821,52.732398],[-2.314876,52.731554],[-2.315778,52.730576],[-2.316453,52.728218],[-2.314679,52.724555],[-2.308604,52.720746],[-2.317058,52.713312],[-2.319006,52.711036],[-2.321845,52.709046],[-2.323633,52.706145],[-2.324834,52.705336],[-2.32333,52.70248],[-2.322974,52.700793],[-2.320656,52.697808],[-2.319908,52.695398],[-2.313579,52.695409],[-2.313206,52.693704],[-2.307995,52.693332],[-2.307695,52.690568],[-2.304184,52.685878],[-2.303879,52.684191],[-2.30304,52.682953],[-2.29571,52.683267],[-2.292062,52.682182],[-2.287178,52.681245],[-2.280563,52.681545],[-2.277579,52.680995],[-2.273551,52.679754],[-2.266212,52.681526],[-2.264203,52.682684],[-2.263111,52.682913],[-2.261457,52.682882],[-2.257438,52.681876],[-2.253873,52.681681],[-2.251849,52.681706],[-2.250775,52.682097],[-2.249961,52.682908],[-2.247696,52.683043],[-2.24661,52.681071],[-2.244685,52.680992],[-2.243705,52.679933],[-2.244221,52.678052],[-2.243845,52.675916],[-2.242544,52.673115],[-2.240224,52.671624],[-2.240343,52.668966],[-2.239487,52.666814],[-2.239773,52.664941],[-2.238715,52.663701],[-2.238917,52.661905],[-2.247824,52.656989],[-2.247687,52.65666],[-2.234709,52.655854],[-2.235579,52.652632],[-2.237386,52.651033],[-2.236537,52.650548],[-2.235484,52.648498],[-2.232894,52.647694],[-2.234767,52.643233],[-2.235557,52.639855],[-2.236478,52.63873],[-2.236887,52.636067],[-2.238803,52.634051],[-2.242373,52.632505],[-2.243676,52.63105],[-2.243773,52.629924],[-2.246,52.628271],[-2.246681,52.62662],[-2.247793,52.625456],[-2.248912,52.622856],[-2.250118,52.621857],[-2.250111,52.620933],[-2.250901,52.619835],[-2.250511,52.618256],[-2.252057,52.61695],[-2.253151,52.614007],[-2.255566,52.611014],[-2.255804,52.609983],[-2.257322,52.609553],[-2.257318,52.609796],[-2.263235,52.610686],[-2.268001,52.610232],[-2.270859,52.609648],[-2.273584,52.607905],[-2.279305,52.605814],[-2.283387,52.606002],[-2.290656,52.607795],[-2.297781,52.607044],[-2.309601,52.607401],[-2.311004,52.611063],[-2.313462,52.614055],[-2.315752,52.614686],[-2.321062,52.614726],[-2.321077,52.614292],[-2.322034,52.614076],[-2.323799,52.612953],[-2.323351,52.611957],[-2.323628,52.61014],[-2.32416,52.609613],[-2.32401,52.602696],[-2.325458,52.6],[-2.324849,52.598905],[-2.323349,52.597717],[-2.322024,52.593636],[-2.318003,52.593466],[-2.308546,52.591094],[-2.306988,52.591441],[-2.302341,52.593364],[-2.300293,52.593027],[-2.298838,52.591918],[-2.299951,52.591244],[-2.300684,52.590232],[-2.299947,52.589329],[-2.30013,52.58881],[-2.296055,52.588314],[-2.294883,52.587855],[-2.294958,52.587374],[-2.294098,52.587269],[-2.294373,52.586177],[-2.29491,52.586175],[-2.295056,52.584628],[-2.294421,52.584953],[-2.289501,52.585584],[-2.281052,52.584296],[-2.278929,52.583547],[-2.278118,52.583017],[-2.278121,52.581795],[-2.273991,52.579809],[-2.272809,52.578605],[-2.272187,52.578676],[-2.271951,52.577291],[-2.270287,52.575569],[-2.262926,52.570429],[-2.261938,52.56906],[-2.262141,52.56854],[-2.26338,52.568016],[-2.26177,52.566355],[-2.261786,52.563824],[-2.260836,52.563158],[-2.265583,52.562083],[-2.267212,52.561491],[-2.268706,52.560468],[-2.26995,52.560246],[-2.271665,52.558712],[-2.274214,52.557406],[-2.278589,52.554388],[-2.279045,52.553192],[-2.282477,52.553396],[-2.282108,52.552711],[-2.281409,52.552523],[-2.276506,52.552028],[-2.26793,52.550151],[-2.26573,52.549313],[-2.26254,52.546707],[-2.260509,52.544381],[-2.256419,52.541731],[-2.260789,52.539518],[-2.264228,52.537008],[-2.269215,52.530689],[-2.263297,52.527532],[-2.261135,52.526818],[-2.261123,52.523914],[-2.27066,52.51995],[-2.273227,52.519199],[-2.281417,52.515537],[-2.286253,52.514162],[-2.288301,52.512895],[-2.29139,52.51168],[-2.293243,52.509987],[-2.293067,52.50951],[-2.296087,52.506808],[-2.296294,52.505654],[-2.298421,52.503286],[-2.30188,52.501287],[-2.306415,52.499754],[-2.307784,52.498368],[-2.307695,52.495149],[-2.308667,52.494496],[-2.312749,52.489209],[-2.311664,52.486709],[-2.31041,52.486192],[-2.309078,52.483211],[-2.307247,52.482489],[-2.306277,52.482732],[-2.302271,52.48026],[-2.29563,52.473892],[-2.294986,52.472061],[-2.295513,52.471692],[-2.294684,52.47073],[-2.294834,52.46951],[-2.29209,52.466697],[-2.291341,52.465508],[-2.291227,52.464032],[-2.289691,52.462721],[-2.289374,52.46139],[-2.288385,52.461048],[-2.288899,52.460641],[-2.289061,52.459325],[-2.290731,52.458496],[-2.291023,52.456728],[-2.287382,52.455317],[-2.293777,52.451218],[-2.295936,52.450557],[-2.30097,52.447963],[-2.303328,52.44753],[-2.304111,52.446442],[-2.306185,52.445946],[-2.30697,52.444967],[-2.306813,52.443898],[-2.309597,52.441827],[-2.310169,52.440854],[-2.310143,52.437883],[-2.31175,52.437531],[-2.321551,52.436219],[-2.325186,52.437497],[-2.325925,52.438315],[-2.329115,52.437447],[-2.333119,52.435355],[-2.333821,52.435883],[-2.335369,52.435958],[-2.337068,52.436644],[-2.338776,52.435826],[-2.340617,52.437044],[-2.342742,52.437593],[-2.343938,52.438805],[-2.345109,52.439333],[-2.350781,52.438306],[-2.352776,52.438697],[-2.355352,52.439821],[-2.363528,52.439426],[-2.363297,52.437158],[-2.364156,52.431939],[-2.362733,52.425768],[-2.363852,52.425965],[-2.363932,52.424547],[-2.366581,52.42303],[-2.366352,52.422273],[-2.365272,52.421714],[-2.366012,52.419203],[-2.364673,52.417799],[-2.366561,52.416491],[-2.367736,52.414272],[-2.367556,52.413162],[-2.366715,52.412095],[-2.367291,52.410453],[-2.365947,52.409149],[-2.366036,52.407842],[-2.368822,52.404181],[-2.372957,52.401934],[-2.369936,52.401464],[-2.364141,52.39915],[-2.357376,52.398252],[-2.356567,52.397574],[-2.351284,52.39583],[-2.347482,52.393712],[-2.346064,52.393857],[-2.343365,52.393091],[-2.342158,52.39319],[-2.333756,52.388502],[-2.334208,52.386944],[-2.335554,52.385337],[-2.337236,52.38552],[-2.338593,52.385096],[-2.339545,52.384405],[-2.34207,52.384832],[-2.342455,52.385541],[-2.343524,52.385941],[-2.346576,52.385997],[-2.349229,52.385552],[-2.350146,52.385725],[-2.350637,52.387728],[-2.352633,52.388937],[-2.354533,52.388908],[-2.355823,52.388175],[-2.360033,52.386775],[-2.361263,52.387009],[-2.363052,52.388153],[-2.367352,52.388063],[-2.370047,52.38669],[-2.370846,52.3866],[-2.371668,52.385854],[-2.372477,52.385835],[-2.372834,52.385281],[-2.374485,52.384742],[-2.374962,52.38498],[-2.375639,52.384732],[-2.377911,52.383151],[-2.382643,52.384136],[-2.387442,52.384488],[-2.389297,52.383214],[-2.38885,52.382683],[-2.38918,52.382102],[-2.390673,52.381528],[-2.39204,52.382598],[-2.392462,52.383718],[-2.393594,52.384371],[-2.401295,52.38259],[-2.402344,52.383058],[-2.402875,52.38276],[-2.405579,52.383134],[-2.406839,52.383956],[-2.407425,52.385267],[-2.407223,52.386125],[-2.408378,52.386927],[-2.410474,52.387153],[-2.41097,52.386425],[-2.410775,52.385738],[-2.411734,52.384417],[-2.411462,52.384115],[-2.412299,52.383742],[-2.413265,52.382104],[-2.413908,52.381951],[-2.414151,52.381348],[-2.414832,52.381024],[-2.414708,52.380319],[-2.415157,52.379812],[-2.414707,52.379595],[-2.415145,52.378986],[-2.414767,52.378784],[-2.415068,52.378509],[-2.414753,52.377851],[-2.413406,52.376753],[-2.413076,52.376809],[-2.412964,52.376099],[-2.411648,52.37553],[-2.410309,52.374142],[-2.410661,52.373591],[-2.409608,52.372528],[-2.410459,52.371019],[-2.409884,52.370625],[-2.411343,52.369556],[-2.412053,52.369568],[-2.41331,52.368669],[-2.414696,52.368248],[-2.416161,52.368547],[-2.418141,52.368024],[-2.420252,52.368079],[-2.421885,52.367345],[-2.422847,52.366241],[-2.424478,52.366342],[-2.426042,52.365822],[-2.428772,52.366752],[-2.431276,52.367191],[-2.435458,52.366266],[-2.440619,52.366979],[-2.445505,52.367111],[-2.446529,52.367429],[-2.446988,52.367185],[-2.449111,52.367666],[-2.451565,52.367538],[-2.454944,52.367934],[-2.456236,52.367414],[-2.45755,52.36785],[-2.458234,52.367781],[-2.45836,52.367227],[-2.46084,52.367574],[-2.462773,52.36701],[-2.463443,52.366531],[-2.464045,52.365101],[-2.467793,52.364559],[-2.469058,52.364772],[-2.469831,52.365498],[-2.46912,52.366022],[-2.469285,52.366313],[-2.470876,52.366359],[-2.47277,52.36596],[-2.473642,52.366291],[-2.473995,52.367158],[-2.474749,52.36718],[-2.47625,52.365455],[-2.473395,52.362811],[-2.473439,52.361987],[-2.474535,52.361563],[-2.473912,52.361039],[-2.474041,52.360714],[-2.475696,52.359748],[-2.477919,52.360116],[-2.478373,52.360808],[-2.47912,52.36008],[-2.479997,52.360282],[-2.482773,52.36005],[-2.483892,52.360563],[-2.486771,52.358866],[-2.486109,52.358338],[-2.485161,52.356256],[-2.488383,52.355402],[-2.487723,52.354312],[-2.486639,52.353788],[-2.48588,52.353834],[-2.483792,52.353184],[-2.483481,52.352194],[-2.481792,52.35112],[-2.481631,52.349518],[-2.482843,52.348924],[-2.483416,52.347637],[-2.482942,52.347543],[-2.483295,52.346597],[-2.483801,52.346427],[-2.484354,52.34456],[-2.482103,52.341624],[-2.479658,52.340211],[-2.478221,52.338422],[-2.478382,52.337938],[-2.48107,52.335856],[-2.481012,52.334413],[-2.480112,52.333828],[-2.479858,52.332597],[-2.481408,52.331693],[-2.481796,52.331078],[-2.48238,52.33152],[-2.482877,52.331411],[-2.482792,52.331174],[-2.488051,52.330629],[-2.490195,52.329456],[-2.491064,52.329322],[-2.494373,52.329314],[-2.494729,52.329692],[-2.495236,52.329682],[-2.49622,52.329298],[-2.497913,52.329393],[-2.49804,52.329077],[-2.502945,52.329],[-2.503774,52.328466],[-2.505734,52.328073],[-2.506999,52.328279],[-2.507835,52.329053],[-2.509981,52.32951],[-2.513205,52.329214],[-2.513911,52.330771],[-2.513096,52.331202],[-2.512592,52.33232],[-2.511728,52.332002],[-2.510628,52.332553],[-2.509074,52.332438],[-2.50841,52.333257],[-2.50862,52.334751],[-2.511343,52.336256],[-2.512129,52.33711],[-2.513497,52.337734],[-2.516391,52.337984],[-2.517782,52.338622],[-2.521907,52.341848],[-2.523964,52.341852],[-2.524992,52.3424],[-2.525465,52.34211],[-2.526816,52.342491],[-2.529715,52.342635],[-2.531467,52.343379],[-2.5337,52.343676],[-2.534145,52.344104],[-2.53561,52.344317],[-2.53915,52.344139],[-2.538994,52.343144],[-2.540965,52.341933],[-2.546811,52.339891],[-2.547162,52.339288],[-2.548501,52.33858],[-2.549326,52.337205],[-2.551219,52.337086],[-2.554313,52.334734],[-2.555505,52.334369],[-2.557009,52.335043],[-2.559355,52.334292],[-2.560603,52.333456],[-2.562219,52.333108],[-2.562357,52.331872],[-2.561681,52.331417],[-2.56087,52.329834],[-2.561905,52.327218],[-2.56122,52.325951],[-2.561616,52.32516],[-2.562645,52.324569],[-2.562701,52.323701],[-2.563948,52.32289],[-2.56395,52.322437],[-2.562777,52.321429],[-2.56338,52.32057],[-2.564153,52.320279],[-2.563992,52.319401],[-2.564736,52.318857],[-2.563928,52.317495],[-2.562766,52.317224],[-2.562286,52.31653],[-2.562381,52.315684],[-2.561941,52.315386],[-2.562277,52.314477],[-2.563467,52.31389],[-2.563488,52.313425],[-2.561921,52.312471],[-2.562492,52.312329],[-2.562575,52.31109],[-2.563756,52.311436],[-2.564699,52.31249],[-2.566439,52.313175],[-2.567911,52.314478],[-2.570421,52.315101],[-2.574123,52.31754],[-2.574897,52.317573],[-2.57641,52.316762],[-2.578203,52.316914],[-2.579949,52.316519],[-2.582425,52.315069],[-2.5845,52.313172],[-2.587239,52.313524],[-2.589803,52.313192],[-2.595089,52.313886],[-2.600525,52.310198],[-2.602792,52.309375],[-2.605812,52.307639],[-2.610001,52.306281],[-2.613029,52.306633],[-2.614639,52.307645],[-2.616056,52.307983],[-2.617302,52.307824],[-2.618095,52.306947],[-2.618966,52.307402],[-2.620932,52.307051],[-2.621844,52.307884],[-2.622865,52.308153],[-2.622866,52.310146],[-2.623923,52.309984],[-2.624903,52.311069],[-2.625688,52.311375],[-2.625394,52.312238],[-2.62805,52.31338],[-2.626726,52.314662],[-2.625579,52.315017],[-2.626295,52.316043],[-2.625567,52.316939],[-2.626116,52.317572],[-2.62455,52.318328],[-2.623506,52.319561],[-2.623587,52.319893],[-2.623868,52.319691],[-2.62444,52.319893],[-2.623828,52.320549],[-2.623933,52.321388],[-2.62497,52.321491],[-2.624747,52.321128],[-2.625277,52.321071],[-2.625821,52.321482],[-2.626463,52.321208],[-2.626994,52.321505],[-2.62718,52.320987],[-2.627957,52.321062],[-2.627888,52.320717],[-2.629274,52.320684],[-2.629507,52.320966],[-2.630691,52.321074],[-2.630183,52.3215],[-2.630939,52.32211],[-2.630602,52.322671],[-2.631831,52.32313],[-2.631287,52.323488],[-2.632178,52.32376],[-2.632065,52.324149],[-2.633542,52.324564],[-2.635025,52.324208],[-2.636842,52.324484],[-2.636952,52.326026],[-2.63644,52.326356],[-2.636928,52.327177],[-2.636249,52.328382],[-2.638126,52.328377],[-2.638851,52.32809],[-2.641009,52.328622],[-2.641826,52.329642],[-2.640853,52.329951],[-2.641022,52.330442],[-2.641644,52.33056],[-2.640959,52.330875],[-2.641523,52.331302],[-2.640726,52.331499],[-2.640655,52.332261],[-2.641504,52.333057],[-2.643586,52.333852],[-2.645745,52.333302],[-2.646183,52.332507],[-2.646824,52.332618],[-2.647725,52.331688],[-2.648348,52.332041],[-2.649601,52.331795],[-2.649481,52.332406],[-2.6513,52.33216],[-2.651762,52.332494],[-2.65314,52.332597],[-2.653266,52.333045],[-2.655691,52.333175],[-2.658191,52.334246],[-2.659347,52.334296],[-2.659887,52.33479],[-2.659781,52.335256],[-2.65907,52.335283],[-2.656781,52.337068],[-2.656122,52.337167],[-2.656008,52.337829],[-2.658532,52.338555],[-2.658265,52.338923],[-2.659624,52.339249],[-2.659433,52.339681],[-2.660316,52.341326],[-2.661169,52.340911],[-2.662297,52.340948],[-2.662747,52.341527],[-2.665132,52.342284],[-2.667004,52.342254],[-2.667955,52.341674],[-2.669604,52.341525],[-2.670206,52.339741],[-2.673497,52.337705],[-2.674378,52.335925],[-2.676014,52.334711],[-2.675658,52.334541],[-2.676224,52.333017],[-2.678533,52.329517],[-2.685275,52.324406],[-2.686068,52.319512],[-2.689286,52.316202],[-2.688125,52.314927],[-2.687236,52.314684],[-2.686223,52.314794],[-2.684387,52.315614],[-2.679945,52.3152],[-2.681026,52.313512],[-2.680356,52.313101],[-2.679811,52.312023],[-2.680347,52.312074],[-2.680646,52.311531],[-2.681464,52.311221],[-2.684531,52.311289],[-2.688498,52.310473],[-2.689044,52.310736],[-2.691599,52.310527],[-2.692479,52.310062],[-2.692911,52.310305],[-2.702949,52.31001],[-2.706331,52.310279],[-2.709321,52.309385],[-2.709127,52.309132],[-2.710597,52.30873],[-2.71085,52.308909],[-2.712394,52.308137],[-2.714137,52.308832],[-2.715504,52.310725],[-2.719241,52.312584],[-2.71981,52.316691],[-2.721568,52.317334],[-2.722095,52.318049],[-2.72479,52.319863],[-2.72581,52.320217],[-2.728167,52.320333],[-2.731141,52.320116],[-2.731088,52.31962],[-2.737223,52.319481],[-2.738075,52.320285],[-2.73798,52.321317],[-2.738605,52.32204],[-2.740358,52.32269],[-2.741804,52.322828],[-2.743224,52.323625],[-2.74391,52.325067],[-2.745209,52.325761],[-2.746091,52.324946],[-2.746626,52.325271],[-2.745532,52.326332],[-2.745988,52.326656],[-2.750524,52.327393],[-2.751493,52.326935],[-2.752676,52.327503],[-2.753385,52.327377],[-2.755716,52.328692],[-2.756012,52.32953],[-2.756424,52.328811],[-2.758574,52.329277],[-2.764932,52.332946],[-2.767005,52.336157],[-2.758512,52.334481],[-2.756955,52.336168],[-2.755667,52.336566],[-2.753349,52.336015],[-2.752994,52.335319],[-2.752083,52.335081],[-2.748448,52.334905],[-2.748291,52.335921],[-2.74652,52.336506],[-2.745612,52.337527],[-2.745568,52.338676],[-2.744181,52.338788],[-2.743226,52.339722],[-2.740978,52.340887],[-2.739973,52.340929],[-2.737941,52.342735],[-2.73809,52.344829],[-2.73912,52.345303],[-2.739202,52.346057],[-2.739841,52.346638],[-2.738697,52.347549],[-2.741266,52.349713],[-2.738901,52.349618],[-2.738615,52.35085],[-2.736106,52.352242],[-2.735667,52.353168],[-2.733712,52.354194],[-2.73274,52.355515],[-2.735899,52.356091],[-2.738255,52.356063],[-2.741678,52.356796],[-2.742566,52.357476],[-2.743093,52.35913],[-2.742692,52.359353],[-2.748645,52.359038],[-2.749373,52.359313],[-2.752086,52.359269],[-2.758905,52.358795],[-2.759599,52.359216],[-2.761464,52.359464],[-2.76685,52.359498],[-2.770186,52.358784],[-2.776773,52.358424],[-2.778539,52.358055],[-2.781831,52.358214],[-2.78304,52.358663],[-2.786118,52.35754],[-2.788868,52.357982],[-2.790906,52.357843],[-2.79242,52.356864],[-2.795399,52.359265],[-2.795624,52.360439],[-2.795444,52.361242],[-2.793662,52.362716],[-2.793602,52.363736],[-2.792126,52.36511],[-2.793683,52.367939],[-2.793395,52.368415],[-2.794228,52.371024],[-2.793652,52.37218],[-2.792803,52.372589],[-2.792112,52.374534],[-2.792701,52.375427],[-2.793651,52.374335],[-2.79693,52.3736],[-2.79865,52.37266],[-2.801126,52.373912],[-2.803471,52.374262],[-2.807389,52.375968],[-2.806995,52.377786],[-2.808005,52.378227],[-2.809214,52.37968],[-2.809076,52.383877],[-2.807496,52.385192],[-2.805438,52.386102],[-2.805433,52.388252],[-2.807654,52.388651],[-2.810379,52.387968],[-2.812309,52.389038],[-2.813936,52.389237],[-2.814587,52.390025],[-2.815732,52.390444],[-2.817284,52.390525],[-2.818223,52.39123],[-2.823254,52.39135],[-2.826202,52.39108],[-2.832463,52.391948],[-2.840742,52.392349],[-2.849781,52.395094],[-2.854984,52.395493],[-2.861235,52.391158],[-2.863743,52.388702],[-2.874329,52.386569],[-2.874649,52.386969],[-2.877736,52.386274],[-2.879551,52.386271],[-2.879665,52.386731],[-2.883786,52.386889],[-2.885592,52.38581],[-2.888416,52.38517],[-2.888724,52.383969],[-2.887827,52.382939],[-2.8879,52.381662],[-2.887128,52.381495],[-2.886854,52.381104],[-2.887284,52.380059],[-2.887799,52.380205],[-2.887924,52.379979],[-2.886627,52.379492],[-2.88694,52.378782],[-2.886468,52.378513],[-2.887564,52.377848],[-2.888204,52.378067],[-2.888434,52.377453],[-2.889284,52.377656],[-2.889189,52.376875],[-2.890388,52.376416],[-2.890447,52.376064],[-2.89256,52.376059],[-2.892726,52.375637],[-2.891126,52.375602],[-2.891039,52.374879],[-2.891133,52.374609],[-2.892931,52.374394],[-2.893036,52.374091],[-2.895234,52.374512],[-2.892808,52.379157],[-2.892927,52.379574],[-2.894437,52.380099],[-2.896816,52.379659],[-2.897905,52.379826],[-2.898212,52.38152],[-2.899159,52.381574],[-2.902365,52.38287],[-2.903361,52.384242],[-2.904072,52.384296],[-2.905342,52.385037],[-2.905412,52.385777],[-2.913288,52.386252],[-2.915983,52.385811],[-2.917685,52.386288],[-2.919556,52.384541],[-2.916253,52.383774],[-2.915521,52.382873],[-2.914456,52.382319],[-2.914113,52.382455],[-2.914007,52.382133],[-2.91538,52.381015],[-2.9164,52.380897],[-2.919731,52.378382],[-2.920361,52.376909],[-2.922123,52.377012],[-2.922498,52.376469],[-2.922311,52.375147],[-2.916775,52.374423],[-2.914693,52.373816],[-2.913515,52.372514],[-2.910346,52.372124],[-2.90849,52.370186],[-2.907275,52.369875],[-2.90605,52.370227],[-2.903119,52.370056],[-2.902113,52.369612],[-2.900805,52.36727],[-2.902382,52.367081],[-2.903082,52.367573],[-2.904713,52.367736],[-2.905024,52.368191],[-2.906168,52.368042],[-2.907153,52.368344],[-2.910647,52.368062],[-2.911705,52.368596],[-2.914491,52.368516],[-2.915184,52.368847],[-2.917464,52.367759],[-2.918646,52.368156],[-2.919969,52.367838],[-2.920409,52.368155],[-2.924079,52.367126],[-2.926143,52.366995],[-2.928093,52.366099],[-2.928365,52.365238],[-2.928895,52.365073],[-2.930553,52.362811],[-2.931155,52.362879],[-2.933928,52.361738],[-2.934646,52.362206],[-2.936251,52.362252],[-2.93669,52.361967],[-2.936667,52.362234],[-2.938274,52.361529],[-2.938137,52.361059],[-2.938889,52.361058],[-2.93536,52.358735],[-2.934649,52.35769],[-2.931894,52.35629],[-2.930656,52.354993],[-2.930817,52.353876],[-2.931387,52.353292],[-2.934243,52.354083],[-2.934556,52.353113],[-2.936171,52.352935],[-2.93563,52.351438],[-2.933149,52.350052],[-2.944368,52.349999],[-2.947483,52.349247],[-2.948909,52.349409],[-2.952912,52.34878],[-2.953864,52.349256],[-2.957552,52.349692],[-2.959019,52.3491],[-2.960357,52.34924],[-2.960703,52.349694],[-2.961123,52.349618],[-2.961629,52.350618],[-2.963389,52.351427],[-2.968889,52.351923],[-2.97053,52.351357],[-2.971703,52.352363],[-2.972653,52.354155],[-2.974503,52.354701],[-2.976426,52.353927],[-2.978371,52.35387],[-2.978931,52.352767],[-2.979909,52.352346],[-2.980602,52.352603],[-2.981937,52.352134],[-2.982813,52.353282],[-2.983435,52.353303],[-2.985343,52.351099],[-2.985925,52.350878],[-2.987475,52.351407],[-2.989425,52.35069],[-2.990866,52.351673],[-2.99241,52.351538],[-2.992534,52.350865],[-2.993453,52.350659],[-2.995478,52.351718],[-2.998212,52.351926],[-3.000005,52.35172],[-3.00339,52.350989],[-3.002725,52.349946],[-3.004244,52.349218],[-3.005848,52.349056],[-3.010224,52.349548],[-3.010463,52.34917],[-3.013226,52.348259],[-3.021805,52.346538],[-3.026476,52.346829],[-3.0319,52.345667],[-3.035985,52.345296],[-3.036831,52.3448],[-3.041326,52.344339],[-3.046554,52.346535],[-3.049351,52.346926],[-3.052037,52.347734],[-3.057627,52.347612],[-3.059929,52.348009],[-3.065214,52.350066],[-3.0653,52.353344],[-3.069366,52.354504],[-3.069452,52.354953],[-3.070558,52.355024],[-3.070544,52.355977],[-3.072098,52.356283],[-3.07215,52.356666],[-3.074188,52.357416],[-3.077082,52.358167],[-3.077518,52.358664],[-3.078694,52.358525],[-3.083459,52.359487],[-3.08534,52.360728],[-3.087054,52.360992],[-3.091741,52.362503],[-3.094026,52.363961],[-3.094101,52.364581],[-3.095054,52.36488],[-3.095232,52.365574],[-3.097589,52.366841],[-3.09761,52.367958],[-3.099004,52.368493],[-3.099755,52.367869],[-3.100759,52.3678],[-3.102213,52.37056],[-3.101688,52.371122],[-3.10306,52.372261],[-3.103878,52.37364],[-3.10563,52.373917],[-3.106201,52.374519],[-3.107273,52.374673],[-3.110607,52.377193],[-3.118708,52.37764],[-3.120213,52.377481],[-3.122464,52.379069],[-3.126154,52.380541],[-3.127109,52.381403],[-3.127972,52.383417],[-3.129112,52.383779],[-3.129541,52.384503],[-3.130533,52.384503],[-3.133621,52.385383],[-3.134645,52.385159],[-3.141247,52.386871],[-3.147712,52.387379],[-3.1491,52.388138],[-3.150094,52.388116],[-3.15223,52.387366],[-3.154447,52.387715],[-3.155683,52.389649],[-3.15677,52.389799],[-3.158238,52.391546],[-3.160808,52.391367],[-3.16153,52.392156],[-3.161985,52.393751],[-3.160314,52.395124],[-3.160424,52.396116],[-3.159209,52.398053],[-3.15996,52.398596],[-3.160582,52.399929],[-3.164499,52.400681],[-3.165069,52.40168],[-3.166916,52.402489],[-3.170142,52.403005],[-3.171639,52.403979],[-3.171258,52.404247],[-3.171723,52.404652],[-3.171574,52.405416],[-3.172747,52.405747],[-3.173015,52.406588],[-3.177196,52.408369],[-3.178852,52.409445],[-3.186379,52.411738],[-3.187351,52.411618],[-3.188418,52.412207],[-3.188036,52.413017],[-3.1902,52.413512],[-3.191678,52.414386],[-3.194619,52.414507],[-3.195914,52.414944],[-3.197973,52.415815],[-3.199001,52.41696],[-3.206495,52.418127],[-3.207525,52.418739],[-3.208567,52.418704],[-3.210101,52.419195],[-3.211625,52.4193],[-3.211719,52.418988],[-3.213721,52.419738],[-3.214046,52.420461],[-3.215199,52.42028],[-3.219542,52.421247],[-3.219238,52.422034],[-3.220003,52.423281],[-3.220797,52.423679],[-3.220523,52.424075],[-3.220872,52.425026],[-3.222279,52.426775],[-3.223906,52.427453],[-3.225507,52.429187],[-3.230668,52.430507],[-3.230823,52.431888],[-3.23019,52.432159],[-3.230376,52.433485],[-3.22953,52.434044],[-3.230214,52.434724],[-3.230137,52.435276],[-3.228835,52.436547],[-3.229681,52.438209],[-3.228346,52.439522],[-3.230722,52.439964],[-3.231634,52.439749],[-3.232527,52.439997],[-3.233257,52.439688],[-3.233608,52.440663],[-3.234842,52.441326],[-3.235553,52.442511],[-3.234874,52.443215],[-3.235241,52.443611],[-3.23506,52.444953],[-3.234295,52.44478],[-3.233475,52.446125],[-3.233904,52.446575],[-3.233539,52.447125],[-3.234264,52.448575],[-3.233198,52.451484],[-3.231681,52.452939],[-3.231958,52.453051],[-3.230874,52.453228],[-3.230294,52.453758],[-3.227741,52.454577],[-3.227896,52.454919],[-3.226732,52.455193],[-3.226937,52.455346],[-3.225547,52.455872],[-3.225699,52.456088],[-3.225087,52.456093],[-3.224785,52.456505],[-3.222988,52.457151],[-3.222672,52.457862],[-3.221722,52.458135],[-3.220697,52.45917],[-3.219611,52.459568],[-3.219683,52.460038],[-3.218314,52.460888],[-3.217602,52.462393],[-3.216881,52.462712],[-3.215887,52.465552],[-3.213671,52.466375],[-3.211977,52.468164],[-3.211244,52.468247],[-3.208165,52.469955],[-3.206169,52.470303],[-3.204001,52.471332],[-3.202002,52.472805],[-3.196851,52.474612],[-3.19724,52.475989],[-3.19443,52.476403],[-3.180592,52.473836],[-3.178699,52.474414],[-3.171016,52.478728],[-3.157756,52.485083],[-3.148291,52.487421],[-3.144925,52.488794],[-3.142552,52.490848],[-3.140386,52.491667],[-3.128258,52.492074],[-3.124873,52.492837],[-3.120768,52.494486],[-3.117839,52.494746],[-3.117176,52.49591],[-3.11489,52.497004],[-3.113547,52.498248],[-3.111547,52.498851],[-3.108124,52.499301],[-3.098541,52.499749],[-3.093662,52.499054],[-3.089957,52.499182],[-3.085521,52.498536],[-3.080285,52.498781],[-3.075765,52.499405],[-3.053908,52.49992],[-3.046364,52.499062],[-3.044662,52.499279],[-3.044269,52.500142],[-3.040261,52.500177],[-3.040394,52.500644],[-3.029202,52.501268],[-3.029722,52.502279],[-3.030523,52.502559],[-3.030775,52.50307],[-3.033478,52.5038],[-3.034576,52.505017],[-3.034279,52.506374],[-3.032111,52.509284],[-3.032183,52.509757],[-3.036364,52.511423],[-3.035967,52.512867],[-3.036711,52.513277],[-3.035386,52.514857],[-3.034351,52.515148],[-3.033472,52.517322],[-3.032671,52.5176],[-3.032014,52.519117],[-3.031679,52.519454],[-3.030796,52.519522],[-3.032379,52.523731],[-3.030821,52.523844],[-3.03043,52.523192],[-3.029233,52.523513],[-3.02879,52.523997],[-3.027805,52.523645],[-3.02604,52.523866],[-3.024374,52.523569],[-3.024477,52.523095],[-3.023114,52.523038],[-3.023013,52.522634],[-3.022373,52.522674],[-3.022353,52.5224],[-3.022164,52.52272],[-3.021406,52.522571],[-3.020325,52.523152],[-3.01973,52.523142],[-3.018983,52.522706],[-3.016635,52.522284],[-3.016113,52.521785],[-3.01396,52.521751],[-3.013105,52.522131],[-3.012388,52.521958],[-3.011988,52.521308],[-3.011291,52.521375],[-3.010629,52.520061],[-3.006775,52.520593],[-3.006278,52.520383],[-3.006428,52.519719],[-3.005731,52.519964],[-3.003874,52.519833],[-3.00374,52.521419],[-3.001474,52.522535],[-3.000905,52.524111],[-3.001127,52.524643],[-3.002317,52.525015],[-3.00211,52.525899],[-3.005075,52.529461],[-3.004209,52.529562],[-3.003395,52.530953],[-3.001828,52.531986],[-3.002279,52.532328],[-3.003759,52.532392],[-3.003877,52.533575],[-3.003203,52.533999],[-3.00269,52.535283],[-3.002961,52.535872],[-3.002027,52.53663],[-3.001656,52.538531],[-2.999967,52.540419],[-2.999782,52.542134],[-2.998837,52.543387],[-2.998202,52.54534],[-2.998372,52.546375],[-2.997711,52.547375],[-2.997765,52.548066],[-2.996239,52.549314],[-2.995642,52.550698],[-2.994722,52.551301],[-2.994307,52.553048],[-2.996503,52.553235],[-2.997767,52.553952],[-2.998458,52.553977],[-2.998665,52.554453],[-2.99972,52.554669],[-2.999375,52.555586],[-2.998018,52.556471],[-2.997909,52.55806],[-2.998641,52.558195],[-2.998655,52.558644],[-2.999445,52.558981],[-2.999465,52.559679],[-2.99847,52.561412],[-2.998846,52.562048],[-2.998547,52.562526],[-2.998089,52.562535],[-2.997604,52.563844],[-2.998541,52.564522],[-2.998578,52.565243],[-3.00016,52.565644],[-3.000916,52.567432],[-3.000566,52.567981],[-3.001626,52.568874],[-3.002394,52.568843],[-3.003141,52.5693],[-3.002946,52.570092],[-3.006484,52.57384],[-3.008011,52.574373],[-3.009818,52.574462],[-3.01444,52.575497],[-3.016844,52.575165],[-3.01862,52.574501],[-3.020451,52.574614],[-3.020945,52.574186],[-3.022833,52.574073],[-3.028336,52.572878],[-3.036451,52.571804],[-3.0394,52.570315],[-3.041267,52.568923],[-3.043878,52.568128],[-3.043869,52.567375],[-3.04478,52.566811],[-3.0456,52.565598],[-3.045117,52.565522],[-3.045383,52.565166],[-3.046481,52.564696],[-3.046648,52.56359],[-3.047284,52.563699],[-3.048839,52.563012],[-3.049754,52.563116],[-3.049915,52.560692],[-3.051998,52.559586],[-3.053807,52.559304],[-3.053543,52.558989],[-3.054071,52.558825],[-3.057004,52.558591],[-3.05807,52.557892],[-3.059816,52.555561],[-3.060547,52.555319],[-3.062592,52.555968],[-3.062907,52.556438],[-3.065004,52.556829],[-3.069238,52.554971],[-3.070961,52.555278],[-3.070759,52.554488],[-3.071306,52.554023],[-3.074569,52.553725],[-3.080672,52.551884],[-3.087276,52.551332],[-3.0861,52.54874],[-3.090557,52.548563],[-3.090637,52.547942],[-3.092311,52.54783],[-3.092197,52.547329],[-3.092966,52.547234],[-3.093943,52.544902],[-3.09056,52.542748],[-3.087919,52.54257],[-3.086266,52.541914],[-3.083515,52.541471],[-3.083198,52.539601],[-3.080751,52.539144],[-3.081331,52.538731],[-3.081336,52.538059],[-3.082035,52.537937],[-3.081924,52.537245],[-3.08255,52.53723],[-3.082618,52.536224],[-3.083756,52.535516],[-3.084332,52.535641],[-3.084599,52.535],[-3.084942,52.5353],[-3.08537,52.535185],[-3.085412,52.534503],[-3.086776,52.534605],[-3.086823,52.534357],[-3.088774,52.533671],[-3.090162,52.533887],[-3.091118,52.5332],[-3.092112,52.533324],[-3.09322,52.532962],[-3.09428,52.533343],[-3.09465,52.532871],[-3.095305,52.53274],[-3.095226,52.532377],[-3.096123,52.532134],[-3.096957,52.532646],[-3.097927,52.532628],[-3.100148,52.530769],[-3.102994,52.530822],[-3.103093,52.530398],[-3.103801,52.530674],[-3.10395,52.530331],[-3.104561,52.530618],[-3.10582,52.530275],[-3.106941,52.530362],[-3.106878,52.530129],[-3.107341,52.530151],[-3.107171,52.529644],[-3.10844,52.529757],[-3.108683,52.529167],[-3.110252,52.529469],[-3.110932,52.52892],[-3.111599,52.529065],[-3.112102,52.528794],[-3.113107,52.529336],[-3.113473,52.528781],[-3.113999,52.529064],[-3.11545,52.528951],[-3.115676,52.528644],[-3.116522,52.528907],[-3.116989,52.528461],[-3.117859,52.528754],[-3.118853,52.528126],[-3.119809,52.528136],[-3.119867,52.528465],[-3.122554,52.527799],[-3.126052,52.528271],[-3.126408,52.528709],[-3.126867,52.528383],[-3.128867,52.528152],[-3.129611,52.527434],[-3.131492,52.527014],[-3.131935,52.527456],[-3.133081,52.527474],[-3.134936,52.528421],[-3.135135,52.530526],[-3.136418,52.531597],[-3.137161,52.533394],[-3.137169,52.533937],[-3.135481,52.534925],[-3.132988,52.535289],[-3.132566,52.535842],[-3.13008,52.53673],[-3.128035,52.536154],[-3.126114,52.536622],[-3.125815,52.536998],[-3.121464,52.537448],[-3.118777,52.538546],[-3.116974,52.538385],[-3.116385,52.539197],[-3.116721,52.539888],[-3.115388,52.539778],[-3.113918,52.540613],[-3.113299,52.540391],[-3.113186,52.540757],[-3.112552,52.540697],[-3.111495,52.541364],[-3.117208,52.551518],[-3.126151,52.563845],[-3.12736,52.56605],[-3.128369,52.566203],[-3.128988,52.567337],[-3.130447,52.567562],[-3.131537,52.568131],[-3.134527,52.571957],[-3.137708,52.573834],[-3.138129,52.576305],[-3.137771,52.577628],[-3.138271,52.578272],[-3.138586,52.582932],[-3.136283,52.582773],[-3.135107,52.583216],[-3.134978,52.583675],[-3.136313,52.584255],[-3.137435,52.58392],[-3.139358,52.585123],[-3.139501,52.58572],[-3.139221,52.586044],[-3.136028,52.586071],[-3.135931,52.585706],[-3.134442,52.58492],[-3.133814,52.585128],[-3.133761,52.585592],[-3.13312,52.585497],[-3.133072,52.585822],[-3.131617,52.58579],[-3.13108,52.586131],[-3.130441,52.585844],[-3.129087,52.586538],[-3.128485,52.586299],[-3.127935,52.586494],[-3.127152,52.586008],[-3.126006,52.587012],[-3.125504,52.586767],[-3.125005,52.587253],[-3.125216,52.587601],[-3.124515,52.587242],[-3.123938,52.587613],[-3.123223,52.587128],[-3.122143,52.587636],[-3.121653,52.587003],[-3.120985,52.586972],[-3.120899,52.586627],[-3.120389,52.586781],[-3.119236,52.585837],[-3.117414,52.585763],[-3.116848,52.586136],[-3.117338,52.586376],[-3.117175,52.586822],[-3.116606,52.586854],[-3.116886,52.587279],[-3.115736,52.587412],[-3.115401,52.588269],[-3.114797,52.588204],[-3.113809,52.588748],[-3.113576,52.589866],[-3.113217,52.589971],[-3.11368,52.590614],[-3.113113,52.59088],[-3.112351,52.590716],[-3.111574,52.591199],[-3.110976,52.590514],[-3.110103,52.590999],[-3.109803,52.590246],[-3.105534,52.594916],[-3.102057,52.594915],[-3.101703,52.595331],[-3.102068,52.595782],[-3.101303,52.595761],[-3.100976,52.596404],[-3.101627,52.596733],[-3.100186,52.597126],[-3.100421,52.597634],[-3.099533,52.597548],[-3.099201,52.597956],[-3.098264,52.597919],[-3.096881,52.598894],[-3.095669,52.59903],[-3.095358,52.598501],[-3.094633,52.598981],[-3.094763,52.598519],[-3.094058,52.597994],[-3.092502,52.598844],[-3.089558,52.599506],[-3.089727,52.601597],[-3.089285,52.603332],[-3.091234,52.605628],[-3.090808,52.605784],[-3.09161,52.607099],[-3.093623,52.609339],[-3.08814,52.612141],[-3.088116,52.61277],[-3.086276,52.613951],[-3.082601,52.615633],[-3.082042,52.616347],[-3.082449,52.616892],[-3.083092,52.616912],[-3.082677,52.618228],[-3.083341,52.618556],[-3.081638,52.621496],[-3.079617,52.623395],[-3.072058,52.626095],[-3.074947,52.627035],[-3.073334,52.627849],[-3.073187,52.628963],[-3.072287,52.628723],[-3.069886,52.629158],[-3.067823,52.630536],[-3.064556,52.629985],[-3.061654,52.630252],[-3.059809,52.630755],[-3.063731,52.63416],[-3.068021,52.636041],[-3.069576,52.637496],[-3.072422,52.637395],[-3.074242,52.638735],[-3.076321,52.63941],[-3.079358,52.639706],[-3.081277,52.639372],[-3.083566,52.641293],[-3.081713,52.641183],[-3.077189,52.643205],[-3.073371,52.644163],[-3.069591,52.645844],[-3.067637,52.64549],[-3.061721,52.645411],[-3.061902,52.645712],[-3.060526,52.645824],[-3.059681,52.64685],[-3.058151,52.647445],[-3.05628,52.647545],[-3.055066,52.647195],[-3.051124,52.64737],[-3.051528,52.648068],[-3.051318,52.649423],[-3.052239,52.65111],[-3.050886,52.652686],[-3.050869,52.653412],[-3.049791,52.654689],[-3.049257,52.654437],[-3.047243,52.654446],[-3.046939,52.654989],[-3.045759,52.655245],[-3.044932,52.655969],[-3.045423,52.656745],[-3.047636,52.657038],[-3.048641,52.657573],[-3.048646,52.660182],[-3.049399,52.661157],[-3.048899,52.661879],[-3.04911,52.662344],[-3.04865,52.663126],[-3.046767,52.664247],[-3.046156,52.665102],[-3.044826,52.665545],[-3.043996,52.66628],[-3.043033,52.66751],[-3.04332,52.667965],[-3.042825,52.668599],[-3.042636,52.670715],[-3.043077,52.672113],[-3.03858,52.675373],[-3.041909,52.675766],[-3.045657,52.675464],[-3.042577,52.679375],[-3.042692,52.680895],[-3.042082,52.681497],[-3.043315,52.683928],[-3.042673,52.686819],[-3.043259,52.687103],[-3.043492,52.687939],[-3.046638,52.690083],[-3.047048,52.691266],[-3.041356,52.692744],[-3.04042,52.692346],[-3.038945,52.692362],[-3.037776,52.692897],[-3.036024,52.69254],[-3.034224,52.693441],[-3.033523,52.694217],[-3.032986,52.696017],[-3.032119,52.6966],[-3.031959,52.698402],[-3.032468,52.698828],[-3.032123,52.69989],[-3.030654,52.700611],[-3.030191,52.701989],[-3.029377,52.702693],[-3.027245,52.702896],[-3.026262,52.703354],[-3.025613,52.703736],[-3.025393,52.705159],[-3.022486,52.706668],[-3.022988,52.707581],[-3.022859,52.708206],[-3.022208,52.708635],[-3.02175,52.710634],[-3.023558,52.712054],[-3.025374,52.714741],[-3.025338,52.716512],[-3.02368,52.718468],[-3.02355,52.719749],[-3.02215,52.719888],[-3.020432,52.72115],[-3.020305,52.721724],[-3.021477,52.724245],[-3.020357,52.725102],[-3.01904,52.725334],[-3.019512,52.724875],[-3.018872,52.72433],[-3.018121,52.722211],[-3.01838,52.721266],[-3.011559,52.720629],[-3.008367,52.722119],[-3.005434,52.7205],[-3.003049,52.720908],[-3.000555,52.720275],[-2.997574,52.720856],[-2.996864,52.721769],[-2.996254,52.721902],[-2.993012,52.722058],[-2.990767,52.722555],[-2.989206,52.722634],[-2.987401,52.722282],[-2.985742,52.722525],[-2.984935,52.722852],[-2.984684,52.723477],[-2.982158,52.72576],[-2.977592,52.726592],[-2.977491,52.725671],[-2.97612,52.724607],[-2.975408,52.722565],[-2.975795,52.721865],[-2.975417,52.721649],[-2.977134,52.720422],[-2.976823,52.720018],[-2.97741,52.719667],[-2.976821,52.718922],[-2.977228,52.71878],[-2.977252,52.717017],[-2.978103,52.715357],[-2.96741,52.714282],[-2.9656,52.714408],[-2.962923,52.715479],[-2.961549,52.715674],[-2.9611,52.716387],[-2.961433,52.718734],[-2.962072,52.718937],[-2.962343,52.719886],[-2.9611,52.7207],[-2.961815,52.723258],[-2.961555,52.723683],[-2.962037,52.723802],[-2.961793,52.724157],[-2.96222,52.72464],[-2.961658,52.724848],[-2.961722,52.725565],[-2.966698,52.725646],[-2.966742,52.727025],[-2.9655,52.72832],[-2.96559,52.728898],[-2.966633,52.729123],[-2.965066,52.732268],[-2.969049,52.731972],[-2.969709,52.7329],[-2.969428,52.733362],[-2.970758,52.734839],[-2.970507,52.735031],[-2.971214,52.7351],[-2.971122,52.735478],[-2.971828,52.735551],[-2.971679,52.735089],[-2.973653,52.735735],[-2.977095,52.734374],[-2.981483,52.733564],[-2.987068,52.733368],[-2.99103,52.733718],[-2.994011,52.735531],[-2.996562,52.73611],[-2.997383,52.738355],[-2.996801,52.738952],[-2.995981,52.739097],[-2.995027,52.739037],[-2.99354,52.738376],[-2.992537,52.73858],[-2.992319,52.739397],[-2.993047,52.739973],[-2.993106,52.740582],[-2.990583,52.742195],[-2.990815,52.742972],[-2.991993,52.743756],[-2.994894,52.744427],[-2.99767,52.743936],[-2.999795,52.744737],[-3.002408,52.746324],[-3.004676,52.746701],[-3.00562,52.747693],[-3.008115,52.747746],[-3.008075,52.748933],[-3.009769,52.750347],[-3.013615,52.749649],[-3.014537,52.748513],[-3.015383,52.748134],[-3.016642,52.748531],[-3.01797,52.750618],[-3.02113,52.751556],[-3.021891,52.752379],[-3.020375,52.753007],[-3.017204,52.753381],[-3.015374,52.752895],[-3.014359,52.752994],[-3.014519,52.754125],[-3.013309,52.755597],[-3.013023,52.756742],[-3.01082,52.75846],[-3.011271,52.760141],[-3.01062,52.761645],[-3.010867,52.76214],[-3.012348,52.762931],[-3.013107,52.764405],[-3.016461,52.766216],[-3.017192,52.767641],[-3.018731,52.767499],[-3.019714,52.766257],[-3.02151,52.765586],[-3.022047,52.764449],[-3.022786,52.764117],[-3.026212,52.764983],[-3.026462,52.765431],[-3.02574,52.766749],[-3.026786,52.767046],[-3.028684,52.765863],[-3.030922,52.766206],[-3.03302,52.765886],[-3.033564,52.764217],[-3.035532,52.764049],[-3.036855,52.764611],[-3.036917,52.765312],[-3.034864,52.766203],[-3.03319,52.76651],[-3.032634,52.76725],[-3.035298,52.767637],[-3.036166,52.768446],[-3.036129,52.769012],[-3.037551,52.769177],[-3.038128,52.770044],[-3.038985,52.770395],[-3.03958,52.770211],[-3.040339,52.769112],[-3.043519,52.769493],[-3.044509,52.769303],[-3.045261,52.76884],[-3.045923,52.767347],[-3.046627,52.767033],[-3.047582,52.767248],[-3.049765,52.769465],[-3.050515,52.76938],[-3.051702,52.768533],[-3.05254,52.768588],[-3.053163,52.769353],[-3.052693,52.770447],[-3.050676,52.770983],[-3.04968,52.771654],[-3.047653,52.771973],[-3.047791,52.772636],[-3.050089,52.772311],[-3.053907,52.773564],[-3.057926,52.773685],[-3.0585,52.773523],[-3.058253,52.772927],[-3.059003,52.772078],[-3.058933,52.771286],[-3.061317,52.770732],[-3.061169,52.769311],[-3.06261,52.769075],[-3.063549,52.769197],[-3.064115,52.769648],[-3.06285,52.771184],[-3.063849,52.771202],[-3.064871,52.771657],[-3.066796,52.773785],[-3.069556,52.774222],[-3.07066,52.772766],[-3.070806,52.772046],[-3.070357,52.771618],[-3.071575,52.770163],[-3.072699,52.769656],[-3.074246,52.769617],[-3.079516,52.771514],[-3.079959,52.772949],[-3.0791,52.773505],[-3.077858,52.773756],[-3.080512,52.77606],[-3.080649,52.777441],[-3.083933,52.777882],[-3.085242,52.777323],[-3.08882,52.777539],[-3.08778,52.779847],[-3.091694,52.786752],[-3.091178,52.787458],[-3.089022,52.788129],[-3.085738,52.790304],[-3.085587,52.793362],[-3.086632,52.795593],[-3.089037,52.795918],[-3.090012,52.796339],[-3.090958,52.796031],[-3.093462,52.793686],[-3.096463,52.792425],[-3.097731,52.791374],[-3.102391,52.792612],[-3.104548,52.792697],[-3.105373,52.79309],[-3.106101,52.792955],[-3.108466,52.791417],[-3.108442,52.79111],[-3.107527,52.790717],[-3.107271,52.789696],[-3.109708,52.788231],[-3.109313,52.787371],[-3.109748,52.786687],[-3.112189,52.785766],[-3.112977,52.786545],[-3.113762,52.786549],[-3.115926,52.785401],[-3.116171,52.784265],[-3.117204,52.783681],[-3.118287,52.783582],[-3.119533,52.785519],[-3.11891,52.787224],[-3.12253,52.787575],[-3.125789,52.786956],[-3.127128,52.787399],[-3.13129,52.787561],[-3.142454,52.790327],[-3.143637,52.789903],[-3.144552,52.788509],[-3.146275,52.789268],[-3.14677,52.791246],[-3.147998,52.792091],[-3.153382,52.793237],[-3.158425,52.793488],[-3.161083,52.796049],[-3.161915,52.799253],[-3.161331,52.799629],[-3.159139,52.799688],[-3.15713,52.800489],[-3.154121,52.802521],[-3.154564,52.80351],[-3.153567,52.803671],[-3.15319,52.806369],[-3.154301,52.807488],[-3.155315,52.807547],[-3.156266,52.808015],[-3.158322,52.807228],[-3.161412,52.803576],[-3.164402,52.804155],[-3.164189,52.804609],[-3.16478,52.805002],[-3.164871,52.805821],[-3.166221,52.805824],[-3.166166,52.806459],[-3.166918,52.807119],[-3.168205,52.807328],[-3.168357,52.808225],[-3.167317,52.810297],[-3.165464,52.812046],[-3.166039,52.815313],[-3.166655,52.816484],[-3.167693,52.817262],[-3.167888,52.819267],[-3.165368,52.821392],[-3.1649,52.8229],[-3.163806,52.824058],[-3.161409,52.82557],[-3.159542,52.827624],[-3.159165,52.828952],[-3.158197,52.829959],[-3.15882,52.83054],[-3.15777,52.830026],[-3.156676,52.830046],[-3.155112,52.830724],[-3.155587,52.831485],[-3.154066,52.832126],[-3.154169,52.833155],[-3.156479,52.837014],[-3.15548,52.837411],[-3.15533,52.838754],[-3.152254,52.840298],[-3.15126,52.842565],[-3.154609,52.844103],[-3.155099,52.844943],[-3.158501,52.846625],[-3.163015,52.847491],[-3.162438,52.848076],[-3.161434,52.848025],[-3.160877,52.848626],[-3.161278,52.849309],[-3.160137,52.849773],[-3.159737,52.850321],[-3.158192,52.850445],[-3.157794,52.850946],[-3.158358,52.851163],[-3.158268,52.851538],[-3.157391,52.851345],[-3.155788,52.853103],[-3.154122,52.853307],[-3.154002,52.854284],[-3.15306,52.854455],[-3.152391,52.85508],[-3.151056,52.854935],[-3.150726,52.855591],[-3.147644,52.855732],[-3.146276,52.856817],[-3.146325,52.857132],[-3.144562,52.857565],[-3.143937,52.858008],[-3.142845,52.85975],[-3.14125,52.860605],[-3.138878,52.861361],[-3.134419,52.861797],[-3.127713,52.867103],[-3.129055,52.869261],[-3.130636,52.869663],[-3.134425,52.869827],[-3.13618,52.870698],[-3.137212,52.872173],[-3.139106,52.873354],[-3.139757,52.873579],[-3.141826,52.873437],[-3.143137,52.874355],[-3.149824,52.876967],[-3.152417,52.878748],[-3.152487,52.879809],[-3.150449,52.880997],[-3.14837,52.881227],[-3.147041,52.884697],[-3.144169,52.885182],[-3.142754,52.885062],[-3.140595,52.885569],[-3.136606,52.884903],[-3.135494,52.88517],[-3.136187,52.886216],[-3.137049,52.886597],[-3.138313,52.887072],[-3.140273,52.887283],[-3.141405,52.888049],[-3.142892,52.888466],[-3.143785,52.888419],[-3.144072,52.88886],[-3.145756,52.889259],[-3.147504,52.890169],[-3.144695,52.892997],[-3.137518,52.894917],[-3.133226,52.89514],[-3.130281,52.894339],[-3.126656,52.894347],[-3.124624,52.894751],[-3.12333,52.895377],[-3.121869,52.895447],[-3.115335,52.894606],[-3.114162,52.893978],[-3.113813,52.895329],[-3.116894,52.899693],[-3.114696,52.904532],[-3.112755,52.906367],[-3.113304,52.9092],[-3.112912,52.911498],[-3.108731,52.91979],[-3.107718,52.920701],[-3.105858,52.921522],[-3.102522,52.924625],[-3.101793,52.926142],[-3.099644,52.928084],[-3.096046,52.930315],[-3.094347,52.929751],[-3.090844,52.929252],[-3.088288,52.929385],[-3.085742,52.928518],[-3.084357,52.926591],[-3.082553,52.926689],[-3.076513,52.925479],[-3.073017,52.925999],[-3.070194,52.92679],[-3.066014,52.926276],[-3.063874,52.926349],[-3.063049,52.926901],[-3.061514,52.929108],[-3.060873,52.929347],[-3.059868,52.929272],[-3.056432,52.928028],[-3.054853,52.929024],[-3.05236,52.929341],[-3.051196,52.929193],[-3.048037,52.92788],[-3.046854,52.927952],[-3.046014,52.92898],[-3.045313,52.929159],[-3.043357,52.928276],[-3.040676,52.927964],[-3.035123,52.929462],[-3.033735,52.930467],[-3.031727,52.931149],[-3.031126,52.932262],[-3.031083,52.933812],[-3.029981,52.933889],[-3.028999,52.934349],[-3.029231,52.935552],[-3.028294,52.9368],[-3.026323,52.936077],[-3.023868,52.936441],[-3.025622,52.937279],[-3.025234,52.9377],[-3.025589,52.938248],[-3.023035,52.940682],[-3.024027,52.942336],[-3.02195,52.94327],[-3.020909,52.943294],[-3.021196,52.944567],[-3.019256,52.945027],[-3.020062,52.945971],[-3.018372,52.947066],[-3.016931,52.947097],[-3.016684,52.947853],[-3.017039,52.948708],[-3.014519,52.948215],[-3.01325,52.948726],[-3.011394,52.952002],[-3.009856,52.956036],[-3.008614,52.956591],[-3.005065,52.957068],[-3.003544,52.957952],[-2.99754,52.958334],[-2.993798,52.95812],[-2.990395,52.959788],[-2.988383,52.959026],[-2.985925,52.958707],[-2.982022,52.959198],[-2.979863,52.96194],[-2.979494,52.965211],[-2.977403,52.967265],[-2.975323,52.9689],[-2.97477,52.968952],[-2.968487,52.964176],[-2.969466,52.962844],[-2.971186,52.962],[-2.971712,52.961158],[-2.972828,52.960462],[-2.971549,52.959035],[-2.970829,52.959219],[-2.970519,52.958733],[-2.968935,52.959055],[-2.96727,52.958345],[-2.966224,52.957385],[-2.965661,52.956112],[-2.964789,52.956032],[-2.964058,52.956388],[-2.961824,52.955659],[-2.962358,52.954946],[-2.962016,52.954666],[-2.962452,52.954447],[-2.962401,52.953619],[-2.961411,52.953369],[-2.96092,52.95242],[-2.960122,52.95236],[-2.960022,52.951528],[-2.959562,52.951399],[-2.959813,52.95117],[-2.958256,52.950761],[-2.958303,52.950501],[-2.956818,52.950009],[-2.955731,52.949115],[-2.953295,52.948381],[-2.953074,52.947949],[-2.951465,52.947594],[-2.950862,52.94692],[-2.949523,52.946865],[-2.949434,52.946596],[-2.948834,52.946776],[-2.948606,52.946037],[-2.946641,52.945944],[-2.946166,52.945567],[-2.943286,52.944815],[-2.940705,52.943376],[-2.934965,52.941806],[-2.934325,52.941083],[-2.932465,52.940574],[-2.931439,52.939577],[-2.93047,52.939209],[-2.930009,52.939386],[-2.928889,52.938679],[-2.927286,52.938794],[-2.927445,52.941887],[-2.926502,52.942302],[-2.924637,52.942344],[-2.920278,52.943395],[-2.91885,52.943567],[-2.914157,52.942412],[-2.910911,52.942387],[-2.909089,52.941925],[-2.908188,52.942085],[-2.904937,52.943978],[-2.903661,52.944031],[-2.902937,52.9444],[-2.901388,52.946571],[-2.900864,52.948197],[-2.898292,52.950275],[-2.896476,52.95092],[-2.893168,52.951192],[-2.890308,52.950455],[-2.887431,52.95253],[-2.886047,52.94838],[-2.883662,52.946669],[-2.871564,52.945258],[-2.869801,52.944771],[-2.867694,52.944993],[-2.866856,52.945385],[-2.864282,52.945008],[-2.863784,52.944622],[-2.861282,52.944676],[-2.854839,52.943725],[-2.849073,52.944919],[-2.848251,52.944808],[-2.846878,52.94378],[-2.843197,52.942193],[-2.842324,52.942056],[-2.841015,52.942624],[-2.840217,52.941922],[-2.840613,52.939074],[-2.841852,52.938048],[-2.839794,52.933741],[-2.839048,52.933495],[-2.838496,52.932184],[-2.835873,52.932157],[-2.835534,52.931092],[-2.834446,52.930904],[-2.834769,52.929828],[-2.824037,52.922838],[-2.822248,52.920313],[-2.82251,52.919891],[-2.821229,52.919138],[-2.819896,52.919189],[-2.819096,52.91888],[-2.817957,52.917645],[-2.813026,52.914941],[-2.812386,52.914157],[-2.812312,52.912677],[-2.812976,52.909563],[-2.810243,52.90766],[-2.807254,52.906582],[-2.804285,52.903262],[-2.801991,52.899902],[-2.80144,52.896763],[-2.800468,52.896658],[-2.800828,52.895869],[-2.800477,52.895515],[-2.798848,52.895759],[-2.794261,52.897344],[-2.794027,52.898118],[-2.792732,52.8994],[-2.793188,52.901221],[-2.781661,52.9087],[-2.781386,52.909238],[-2.778803,52.910261],[-2.778518,52.909976],[-2.77211,52.914266],[-2.755326,52.924628],[-2.744573,52.924437],[-2.728541,52.925178],[-2.726688,52.927729],[-2.725919,52.929976],[-2.727054,52.93431],[-2.726516,52.937968],[-2.727014,52.939801],[-2.725605,52.940542],[-2.726058,52.945729],[-2.726355,52.945961],[-2.727044,52.945773],[-2.727195,52.946387],[-2.728163,52.946992],[-2.727177,52.949051],[-2.727874,52.953626],[-2.725123,52.955553],[-2.724175,52.956458],[-2.724178,52.957122],[-2.724697,52.957819],[-2.726679,52.958555],[-2.727396,52.95932],[-2.728087,52.961952],[-2.726822,52.963396],[-2.726691,52.964775],[-2.727481,52.966355],[-2.728064,52.966776],[-2.732884,52.96755],[-2.735294,52.969946],[-2.733286,52.97154],[-2.730727,52.974851],[-2.73175,52.975597],[-2.731629,52.976478],[-2.73208,52.976955],[-2.731654,52.976909],[-2.731894,52.977246],[-2.731162,52.977559],[-2.731534,52.977822],[-2.730395,52.977924],[-2.729305,52.978731],[-2.729577,52.979723],[-2.727991,52.980137],[-2.727048,52.980803],[-2.727315,52.981166],[-2.726612,52.981385],[-2.726588,52.981778],[-2.727262,52.982191],[-2.726968,52.982353],[-2.727336,52.98323],[-2.725265,52.982933],[-2.720301,52.984004],[-2.716573,52.984053],[-2.715143,52.985046],[-2.711879,52.986084],[-2.704565,52.990417],[-2.700767,52.993274],[-2.699292,52.995439],[-2.696697,52.994863],[-2.694469,52.993942],[-2.694415,52.993344],[-2.691839,52.990505],[-2.688776,52.989936],[-2.686443,52.988244],[-2.687078,52.98683],[-2.685556,52.986445],[-2.684668,52.986604],[-2.684569,52.98613],[-2.683735,52.986417],[-2.680903,52.986111],[-2.679675,52.986565],[-2.676186,52.986495],[-2.674662,52.985663],[-2.671575,52.987123],[-2.668118,52.98774],[-2.668101,52.988211],[-2.664379,52.989016],[-2.660807,52.991451],[-2.658298,52.992056],[-2.658185,52.991676],[-2.657685,52.991614],[-2.655428,52.993138],[-2.654419,52.993323],[-2.652357,52.994994],[-2.65168,52.994892],[-2.648713,52.995732],[-2.648611,52.995261],[-2.644529,52.995013],[-2.642805,52.993481],[-2.637371,52.994851],[-2.636372,52.996511],[-2.635075,52.996734],[-2.634068,52.995992],[-2.632651,52.996671],[-2.630923,52.995884],[-2.628028,52.995169],[-2.628237,52.992511],[-2.627634,52.992015],[-2.627592,52.990967],[-2.625756,52.989182],[-2.62194,52.986742],[-2.618968,52.986611],[-2.614985,52.987766],[-2.607734,52.988362],[-2.607566,52.98774],[-2.6067,52.987273],[-2.607142,52.98674],[-2.605466,52.985432],[-2.604786,52.98412],[-2.603775,52.98356],[-2.604142,52.983098],[-2.603699,52.981797],[-2.605679,52.979395],[-2.604205,52.978983],[-2.600625,52.978791],[-2.598109,52.979067],[-2.595925,52.979699],[-2.594889,52.979607],[-2.596703,52.977868],[-2.599156,52.976702],[-2.59963,52.975433],[-2.598894,52.975113],[-2.5954,52.97593],[-2.592756,52.974169],[-2.596623,52.973476],[-2.598447,52.971718],[-2.596891,52.96956],[-2.597033,52.968574],[-2.596028,52.967669],[-2.596332,52.966529],[-2.595802,52.96554],[-2.597693,52.963006],[-2.595882,52.962162],[-2.594918,52.960993],[-2.592649,52.960897],[-2.591328,52.960411],[-2.590612,52.959255],[-2.589017,52.958943],[-2.588917,52.958063],[-2.588288,52.957568],[-2.588478,52.957023],[-2.586203,52.955314],[-2.584429,52.955589],[-2.583625,52.95628],[-2.578144,52.955729],[-2.576658,52.956177],[-2.57506,52.957308],[-2.574933,52.958333],[-2.573565,52.958509],[-2.573089,52.959239],[-2.571801,52.959217],[-2.570277,52.959772],[-2.571521,52.96076],[-2.573247,52.961463],[-2.573797,52.962323],[-2.573492,52.962716],[-2.57287,52.962849],[-2.572398,52.962497],[-2.572102,52.962858],[-2.571256,52.962147],[-2.568843,52.961962],[-2.568031,52.962468],[-2.568117,52.963096],[-2.566513,52.963949],[-2.564356,52.963533],[-2.561671,52.964244],[-2.561263,52.964952],[-2.560616,52.963646],[-2.55911,52.962222],[-2.557615,52.962176],[-2.555873,52.959027],[-2.55393,52.957915],[-2.553697,52.957466],[-2.550473,52.956665],[-2.547946,52.95706],[-2.546355,52.956838],[-2.541015,52.952746],[-2.539151,52.95193],[-2.535061,52.948087],[-2.532034,52.947286],[-2.529516,52.947165],[-2.529302,52.949415],[-2.526865,52.951168],[-2.527481,52.951803],[-2.527287,52.952225],[-2.526472,52.952494],[-2.525356,52.953685],[-2.524547,52.953555],[-2.524349,52.953947],[-2.523281,52.954355],[-2.524267,52.955916],[-2.523589,52.956204],[-2.523882,52.957159],[-2.523258,52.957432],[-2.522764,52.958868],[-2.523459,52.959212],[-2.523252,52.959754],[-2.523791,52.959709],[-2.523532,52.960079],[-2.522902,52.960073],[-2.523495,52.960879],[-2.522607,52.961159],[-2.523048,52.961589],[-2.523058,52.963123],[-2.523824,52.963718],[-2.523336,52.964304],[-2.524468,52.964751],[-2.523715,52.964989],[-2.523986,52.966027],[-2.522791,52.967324],[-2.523371,52.967842],[-2.522315,52.968209],[-2.522691,52.969466],[-2.523172,52.969651],[-2.522491,52.970036],[-2.52323,52.970329],[-2.522983,52.971116],[-2.522352,52.971139],[-2.522567,52.972054],[-2.52187,52.972411],[-2.522313,52.972667],[-2.521549,52.972985],[-2.522115,52.973725],[-2.521341,52.974346],[-2.520138,52.974002],[-2.519622,52.973279],[-2.517863,52.972916],[-2.517015,52.972328],[-2.514316,52.971924],[-2.513059,52.971174],[-2.511769,52.96994],[-2.511637,52.96904],[-2.510744,52.968083],[-2.511232,52.967879],[-2.511098,52.96686],[-2.509919,52.966487],[-2.509415,52.965956],[-2.508067,52.965751],[-2.506897,52.964913],[-2.506539,52.965837],[-2.500814,52.967253],[-2.499023,52.968435],[-2.495678,52.968488],[-2.491701,52.967684],[-2.490679,52.966298],[-2.490788,52.965047],[-2.487716,52.965126],[-2.486875,52.962938],[-2.484678,52.961259],[-2.484055,52.960133],[-2.481133,52.958837],[-2.479971,52.960011],[-2.478518,52.960229],[-2.477644,52.960797],[-2.477785,52.961744],[-2.475907,52.961943],[-2.475238,52.962476],[-2.472267,52.96212],[-2.471453,52.961555],[-2.470359,52.961484],[-2.467862,52.96225],[-2.465259,52.963715],[-2.464487,52.963663],[-2.46385,52.964082],[-2.461543,52.963764],[-2.460132,52.96401],[-2.459521,52.964687],[-2.452901,52.965426],[-2.451009,52.966243],[-2.450265,52.966054],[-2.449185,52.967182],[-2.446517,52.968236],[-2.442991,52.970781],[-2.441646,52.969978],[-2.440542,52.96995],[-2.438983,52.969342],[-2.434668,52.969557],[-2.434895,52.970373],[-2.434469,52.971705],[-2.435394,52.973038],[-2.436276,52.973391],[-2.435661,52.975159],[-2.434833,52.975476],[-2.434217,52.976366],[-2.434531,52.977148],[-2.436044,52.977694],[-2.434224,52.978877],[-2.43409,52.979661],[-2.43499,52.980818],[-2.436355,52.981512],[-2.436681,52.982099],[-2.435684,52.98295],[-2.438491,52.984615],[-2.438169,52.985568],[-2.435368,52.986709],[-2.433598,52.986652],[-2.432358,52.987067],[-2.431639,52.986064],[-2.430006,52.98615],[-2.428883,52.98578],[-2.425475,52.986398],[-2.423787,52.986342],[-2.421022,52.987169],[-2.420553,52.987828],[-2.418889,52.988483],[-2.418625,52.988087],[-2.417538,52.987897],[-2.416202,52.988197],[-2.41223,52.988259],[-2.410862,52.987925],[-2.409382,52.989111],[-2.40831,52.989129],[-2.408322,52.989764],[-2.405227,52.990801],[-2.404475,52.991654],[-2.405581,52.992468],[-2.40507,52.993089],[-2.405056,52.994235],[-2.40728,52.995175],[-2.407141,52.995471],[-2.407608,52.995668],[-2.406987,52.995917],[-2.404801,52.995717],[-2.404089,52.995954],[-2.403329,52.995103],[-2.402697,52.995039],[-2.400802,52.995456],[-2.397485,52.994998],[-2.391197,52.996478],[-2.389735,52.995392],[-2.389211,52.995514],[-2.389082,52.996169],[-2.385384,52.996668],[-2.384101,52.997961],[-2.383264,52.997781],[-2.380949,52.998162],[-2.380794,52.998411],[-2.379876,52.998045]]]}}]}