{"type":"FeatureCollection","features":[{"type":"Feature","properties":{"slug":"slough","gss_code":"E06000039","name":"Slough"},"geometry":{"type":"Polygon","coordinates":[[[-0.623771,51.537771],[-0.619703,51.53788],[-0.618955,51.536822],[-0.619636,51.535469],[-0.618273,51.535212],[-0.617914,51.534579],[-0.616824,51.534724],[-0.616512,51.53394],[-0.614562,51.53424],[-0.614322,51.533725],[-0.613795,51.533826],[-0.613376,51.5328],[-0.611811,51.533021],[-0.610536,51.531502],[-0.608434,51.53204],[-0.606403,51.532139],[-0.605981,51.529958],[-0.602199,51.528844],[-0.596222,51.52793],[-0.596472,51.525837],[-0.594666,51.525724],[-0.594983,51.524237],[-0.589851,51.524108],[-0.589777,51.522675],[-0.588412,51.523175],[-0.580992,51.523074],[-0.580868,51.525712],[-0.579228,51.528125],[-0.578363,51.530463],[-0.575979,51.53391],[-0.572754,51.533937],[-0.56918,51.532991],[-0.567256,51.532981],[-0.567593,51.530561],[-0.568008,51.530286],[-0.569931,51.529731],[-0.572837,51.529704],[-0.575095,51.5293],[-0.574545,51.528562],[-0.572436,51.527412],[-0.571774,51.52428],[-0.571062,51.523362],[-0.567498,51.521453],[-0.565381,51.521272],[-0.565044,51.520692],[-0.568969,51.517721],[-0.566668,51.514501],[-0.568709,51.511269],[-0.566094,51.510508],[-0.552122,51.509093],[-0.54251,51.509468],[-0.542387,51.508965],[-0.541723,51.509533],[-0.528854,51.510088],[-0.526695,51.509313],[-0.526169,51.507922],[-0.528907,51.501511],[-0.527979,51.501587],[-0.52786,51.49882],[-0.528748,51.497068],[-0.53182,51.493394],[-0.514145,51.493333],[-0.50881,51.493925],[-0.5009,51.495353],[-0.500539,51.49482],[-0.496077,51.494999],[-0.490025,51.494748],[-0.491445,51.493064],[-0.49483,51.492658],[-0.495349,51.492047],[-0.494942,51.491317],[-0.495986,51.490543],[-0.496762,51.490487],[-0.496651,51.489827],[-0.497382,51.489883],[-0.49863,51.489261],[-0.497978,51.488882],[-0.498308,51.488455],[-0.499169,51.488581],[-0.499024,51.487858],[-0.499676,51.486834],[-0.498997,51.486725],[-0.4987,51.48608],[-0.501955,51.482858],[-0.503495,51.48052],[-0.505942,51.472479],[-0.508499,51.469418],[-0.511135,51.469301],[-0.513583,51.468418],[-0.513851,51.467985],[-0.515661,51.468269],[-0.517136,51.469884],[-0.518728,51.47079],[-0.521221,51.471448],[-0.524359,51.471528],[-0.52371,51.472448],[-0.525508,51.47457],[-0.524683,51.474911],[-0.525345,51.476884],[-0.524244,51.47951],[-0.526978,51.480168],[-0.532734,51.483537],[-0.533846,51.484642],[-0.533458,51.484854],[-0.534355,51.486785],[-0.536809,51.487192],[-0.53811,51.488306],[-0.541292,51.489274],[-0.541857,51.488748],[-0.545373,51.489915],[-0.545191,51.490176],[-0.546961,51.490415],[-0.547138,51.489925],[-0.554124,51.491282],[-0.552543,51.494846],[-0.560551,51.497212],[-0.564781,51.491612],[-0.565568,51.491342],[-0.568375,51.492244],[-0.570273,51.493363],[-0.571677,51.493437],[-0.572969,51.493904],[-0.575361,51.494952],[-0.57606,51.495625],[-0.58961,51.499399],[-0.591033,51.497328],[-0.592614,51.498513],[-0.597718,51.500676],[-0.600576,51.502304],[-0.604326,51.497536],[-0.606668,51.498189],[-0.607716,51.497252],[-0.608947,51.498029],[-0.610717,51.49839],[-0.620851,51.503274],[-0.624237,51.504143],[-0.627898,51.504396],[-0.630791,51.503679],[-0.632566,51.502683],[-0.634647,51.500485],[-0.637078,51.500217],[-0.639034,51.500711],[-0.642212,51.500627],[-0.64297,51.502693],[-0.644932,51.50224],[-0.647858,51.500825],[-0.653465,51.500507],[-0.655087,51.50105],[-0.654795,51.501713],[-0.654344,51.501623],[-0.653915,51.504225],[-0.659271,51.504902],[-0.658952,51.507138],[-0.655601,51.506813],[-0.655415,51.508303],[-0.653968,51.508277],[-0.653039,51.510791],[-0.653961,51.511042],[-0.653241,51.515077],[-0.654217,51.517562],[-0.654868,51.517623],[-0.655024,51.518845],[-0.656811,51.518852],[-0.657885,51.51943],[-0.65888,51.519369],[-0.659068,51.520236],[-0.660143,51.520357],[-0.659573,51.520706],[-0.660142,51.525456],[-0.659945,51.528447],[-0.659212,51.528276],[-0.657909,51.528868],[-0.653997,51.529783],[-0.654271,51.530146],[-0.653451,51.53035],[-0.653057,51.529998],[-0.645389,51.534101],[-0.644544,51.536362],[-0.641493,51.537152],[-0.639723,51.537133],[-0.636791,51.537952],[-0.635367,51.537859],[-0.630536,51.538895],[-0.623771,51.537771]]]}}]}