{"type":"FeatureCollection","features":[{"type":"Feature","properties":{"slug":"solihull","gss_code":"E08000029","name":"Solihull"},"geometry":{"type":"Polygon","coordinates":[[[-1.73308,52.491962],[-1.729988,52.488865],[-1.722527,52.48268],[-1.719029,52.480478],[-1.714802,52.478656],[-1.715273,52.478417],[-1.712684,52.476506],[-1.711657,52.474961],[-1.711158,52.474845],[-1.709858,52.46643],[-1.70906,52.466284],[-1.708516,52.465759],[-1.708517,52.46446],[-1.704128,52.460664],[-1.700408,52.458703],[-1.697448,52.45478],[-1.690023,52.448661],[-1.686479,52.446324],[-1.685346,52.445051],[-1.684697,52.442816],[-1.684209,52.442526],[-1.684418,52.441527],[-1.68355,52.440535],[-1.682033,52.439717],[-1.678145,52.438707],[-1.676596,52.437909],[-1.677154,52.436357],[-1.670743,52.436788],[-1.666586,52.435472],[-1.664543,52.440035],[-1.664888,52.442675],[-1.662287,52.444299],[-1.658319,52.441975],[-1.654868,52.440755],[-1.654675,52.440979],[-1.652793,52.440674],[-1.651136,52.440947],[-1.646996,52.442097],[-1.645251,52.442097],[-1.643257,52.443062],[-1.64159,52.443271],[-1.638421,52.445332],[-1.637541,52.44756],[-1.636309,52.448375],[-1.635053,52.448711],[-1.634716,52.450191],[-1.633596,52.45089],[-1.633155,52.452066],[-1.629715,52.453773],[-1.626919,52.456182],[-1.624662,52.45703],[-1.625944,52.459305],[-1.625784,52.460562],[-1.626651,52.461301],[-1.62688,52.462237],[-1.624452,52.463539],[-1.621729,52.463429],[-1.618318,52.464138],[-1.614213,52.463],[-1.612201,52.461094],[-1.610714,52.458603],[-1.606015,52.458241],[-1.603827,52.456699],[-1.602348,52.456466],[-1.600159,52.454819],[-1.598546,52.454332],[-1.596695,52.455656],[-1.595487,52.45592],[-1.59354,52.453504],[-1.594795,52.453051],[-1.59365,52.451823],[-1.595902,52.451396],[-1.595305,52.450077],[-1.594217,52.448714],[-1.593672,52.448577],[-1.592846,52.445358],[-1.595229,52.439926],[-1.595862,52.439689],[-1.596682,52.438444],[-1.598982,52.439503],[-1.604402,52.440042],[-1.605693,52.440052],[-1.607329,52.439054],[-1.608271,52.438841],[-1.609564,52.437976],[-1.609577,52.436556],[-1.608943,52.435712],[-1.609735,52.434903],[-1.609745,52.433629],[-1.606236,52.432921],[-1.606546,52.431],[-1.608113,52.431098],[-1.611397,52.432134],[-1.61445,52.427968],[-1.613287,52.427215],[-1.610584,52.426262],[-1.607242,52.425835],[-1.606453,52.425387],[-1.609382,52.424111],[-1.611055,52.42275],[-1.611095,52.422341],[-1.604706,52.41868],[-1.603239,52.41678],[-1.602176,52.416057],[-1.6022,52.415828],[-1.60461,52.415913],[-1.603687,52.409196],[-1.604053,52.409134],[-1.603395,52.40776],[-1.605876,52.407286],[-1.605799,52.405927],[-1.603676,52.404482],[-1.601331,52.404648],[-1.601225,52.403738],[-1.604308,52.403473],[-1.604274,52.400009],[-1.601588,52.395939],[-1.602692,52.395809],[-1.602251,52.394948],[-1.60077,52.395058],[-1.600017,52.39287],[-1.60104,52.392869],[-1.6016,52.391481],[-1.603143,52.390362],[-1.602506,52.389755],[-1.601067,52.389299],[-1.603284,52.388194],[-1.601994,52.387418],[-1.603423,52.385986],[-1.60377,52.386065],[-1.604142,52.385619],[-1.605032,52.385739],[-1.605456,52.384892],[-1.604583,52.384775],[-1.605169,52.3839],[-1.607509,52.384626],[-1.608806,52.382997],[-1.609046,52.383429],[-1.609775,52.383419],[-1.609394,52.382988],[-1.610283,52.382507],[-1.606915,52.381008],[-1.607628,52.379182],[-1.607106,52.379089],[-1.607828,52.37631],[-1.608907,52.376497],[-1.608897,52.375832],[-1.611691,52.374668],[-1.615371,52.374455],[-1.61636,52.374593],[-1.618145,52.376256],[-1.618237,52.373402],[-1.617485,52.373437],[-1.617041,52.372623],[-1.617677,52.371868],[-1.61853,52.371579],[-1.619015,52.370558],[-1.622233,52.371743],[-1.623675,52.371779],[-1.624837,52.370257],[-1.626616,52.369194],[-1.620966,52.367884],[-1.623401,52.365551],[-1.626495,52.366647],[-1.629767,52.365107],[-1.631572,52.365705],[-1.633448,52.364243],[-1.636459,52.365169],[-1.638086,52.364009],[-1.641754,52.362536],[-1.644843,52.361847],[-1.644988,52.361],[-1.647767,52.358073],[-1.648418,52.356743],[-1.65131,52.356421],[-1.653086,52.359938],[-1.660888,52.36567],[-1.66405,52.363969],[-1.666064,52.364454],[-1.666812,52.364949],[-1.668105,52.364494],[-1.669985,52.36491],[-1.672533,52.363128],[-1.67794,52.364134],[-1.679621,52.363595],[-1.684027,52.363252],[-1.684693,52.362728],[-1.683691,52.360397],[-1.685684,52.358224],[-1.686177,52.3581],[-1.685862,52.356904],[-1.685405,52.356871],[-1.684931,52.356011],[-1.687543,52.354437],[-1.691363,52.353118],[-1.692626,52.351559],[-1.693885,52.351013],[-1.695766,52.353786],[-1.698092,52.355732],[-1.700017,52.354755],[-1.704089,52.35421],[-1.707215,52.355157],[-1.71027,52.355021],[-1.711373,52.355378],[-1.712635,52.356253],[-1.712837,52.356802],[-1.715093,52.357949],[-1.717141,52.358145],[-1.718337,52.358692],[-1.718757,52.357339],[-1.718535,52.355818],[-1.720211,52.357444],[-1.720755,52.35924],[-1.720088,52.36317],[-1.718023,52.366016],[-1.71773,52.367838],[-1.718233,52.369478],[-1.720258,52.372574],[-1.720796,52.372526],[-1.720863,52.37197],[-1.723282,52.37077],[-1.725639,52.370639],[-1.726048,52.370256],[-1.727569,52.369855],[-1.72858,52.370422],[-1.72889,52.37007],[-1.730483,52.370654],[-1.734031,52.370718],[-1.735234,52.370062],[-1.73575,52.36889],[-1.736546,52.368434],[-1.738323,52.364972],[-1.73773,52.362773],[-1.738222,52.361981],[-1.74103,52.360072],[-1.741437,52.357235],[-1.742434,52.356885],[-1.743881,52.355317],[-1.745926,52.354877],[-1.748675,52.354742],[-1.751286,52.355126],[-1.752194,52.355874],[-1.7535,52.356022],[-1.759515,52.358403],[-1.759888,52.359192],[-1.759569,52.362528],[-1.7627,52.36421],[-1.767042,52.364683],[-1.770129,52.364045],[-1.77006,52.364635],[-1.772134,52.365394],[-1.775613,52.365899],[-1.780127,52.36385],[-1.779079,52.360125],[-1.778643,52.360194],[-1.778902,52.357786],[-1.778184,52.357738],[-1.778185,52.356445],[-1.776578,52.355063],[-1.773449,52.356618],[-1.772847,52.356023],[-1.7718,52.355856],[-1.771986,52.355247],[-1.77318,52.35553],[-1.77481,52.354534],[-1.773017,52.352499],[-1.771746,52.351668],[-1.771872,52.351258],[-1.774834,52.350389],[-1.776222,52.349616],[-1.77579,52.347965],[-1.77768,52.34774],[-1.779407,52.347917],[-1.779479,52.34835],[-1.784522,52.350112],[-1.783746,52.350948],[-1.784894,52.353065],[-1.785771,52.353846],[-1.79171,52.356757],[-1.797799,52.358464],[-1.799595,52.358633],[-1.803301,52.362442],[-1.805491,52.363292],[-1.80696,52.36594],[-1.80791,52.366623],[-1.812804,52.366596],[-1.813242,52.365772],[-1.81905,52.366312],[-1.82426,52.365639],[-1.824518,52.366401],[-1.826868,52.366124],[-1.827247,52.366546],[-1.829527,52.367259],[-1.830266,52.365949],[-1.831461,52.366106],[-1.831312,52.366764],[-1.831824,52.366899],[-1.833176,52.366068],[-1.835066,52.367344],[-1.836603,52.366669],[-1.838052,52.366608],[-1.841567,52.365167],[-1.842882,52.36514],[-1.849653,52.366704],[-1.863146,52.366566],[-1.863309,52.367065],[-1.868216,52.368094],[-1.87202,52.367609],[-1.870495,52.368647],[-1.869999,52.369463],[-1.870238,52.369924],[-1.868914,52.370281],[-1.868952,52.370669],[-1.86754,52.371701],[-1.867558,52.372288],[-1.866766,52.372709],[-1.8666,52.373278],[-1.865328,52.37363],[-1.865026,52.374519],[-1.863445,52.376048],[-1.863119,52.37745],[-1.86194,52.37849],[-1.862043,52.378995],[-1.861301,52.380097],[-1.8618,52.381444],[-1.860945,52.383202],[-1.861355,52.383848],[-1.858078,52.386461],[-1.857284,52.386649],[-1.858195,52.387424],[-1.84998,52.393182],[-1.84755,52.395412],[-1.845598,52.399427],[-1.845474,52.400406],[-1.850646,52.401823],[-1.851704,52.400554],[-1.853204,52.401442],[-1.857043,52.402698],[-1.861775,52.403553],[-1.863495,52.404568],[-1.863822,52.404363],[-1.864801,52.404774],[-1.865023,52.40436],[-1.866281,52.404556],[-1.868682,52.4042],[-1.869196,52.40781],[-1.868786,52.407738],[-1.867113,52.408787],[-1.866252,52.409823],[-1.865637,52.409952],[-1.866645,52.411045],[-1.864769,52.410997],[-1.864131,52.410087],[-1.862759,52.409336],[-1.857811,52.408419],[-1.853943,52.408559],[-1.850836,52.410446],[-1.850253,52.410293],[-1.849434,52.410789],[-1.848719,52.410018],[-1.847818,52.409966],[-1.843609,52.410524],[-1.842365,52.412615],[-1.83906,52.41435],[-1.833729,52.418153],[-1.83441,52.418564],[-1.832898,52.419483],[-1.830725,52.422796],[-1.827999,52.425569],[-1.82703,52.427789],[-1.825263,52.429306],[-1.81924,52.4309],[-1.817315,52.432367],[-1.81611,52.437821],[-1.814481,52.437744],[-1.813399,52.4385],[-1.811904,52.440489],[-1.812798,52.440595],[-1.811837,52.441409],[-1.812416,52.442012],[-1.811571,52.442344],[-1.81227,52.443013],[-1.809573,52.444777],[-1.81001,52.445231],[-1.809263,52.445394],[-1.808276,52.446532],[-1.806679,52.449681],[-1.806066,52.44976],[-1.806254,52.451567],[-1.805124,52.453331],[-1.805965,52.454094],[-1.805389,52.454697],[-1.804913,52.454429],[-1.800317,52.458298],[-1.798744,52.45747],[-1.795683,52.455051],[-1.794825,52.4551],[-1.793988,52.454301],[-1.790906,52.453254],[-1.791308,52.452966],[-1.790503,52.4527],[-1.790283,52.452973],[-1.789421,52.452772],[-1.788981,52.453096],[-1.782704,52.45086],[-1.781639,52.451049],[-1.781454,52.45067],[-1.77913,52.450429],[-1.779107,52.450154],[-1.777951,52.450188],[-1.777478,52.450632],[-1.774383,52.45068],[-1.773336,52.451007],[-1.772478,52.450717],[-1.769015,52.451103],[-1.766661,52.450739],[-1.766675,52.451089],[-1.762767,52.451195],[-1.761392,52.450923],[-1.759601,52.451911],[-1.754978,52.456284],[-1.763379,52.463846],[-1.763748,52.466119],[-1.761716,52.467179],[-1.75995,52.466988],[-1.758729,52.467218],[-1.759324,52.468954],[-1.756692,52.471539],[-1.755803,52.471902],[-1.759163,52.475409],[-1.759157,52.476548],[-1.7586,52.476575],[-1.758837,52.478501],[-1.759856,52.480377],[-1.758872,52.4804],[-1.759806,52.482933],[-1.759046,52.483254],[-1.759474,52.483894],[-1.760412,52.483968],[-1.761095,52.485102],[-1.761561,52.485223],[-1.760861,52.486423],[-1.761478,52.486829],[-1.763094,52.486627],[-1.763655,52.48711],[-1.761113,52.488275],[-1.762325,52.488579],[-1.762359,52.490108],[-1.761595,52.490378],[-1.761008,52.49158],[-1.760839,52.493634],[-1.760336,52.493708],[-1.759899,52.494719],[-1.756959,52.496754],[-1.755837,52.499495],[-1.758731,52.500108],[-1.758891,52.499769],[-1.761492,52.500109],[-1.761542,52.499797],[-1.764183,52.499884],[-1.764173,52.5008],[-1.770271,52.501297],[-1.770356,52.501677],[-1.771398,52.501843],[-1.771536,52.501621],[-1.772023,52.501861],[-1.779395,52.501167],[-1.782164,52.501187],[-1.781979,52.501457],[-1.782541,52.501623],[-1.792092,52.503001],[-1.797442,52.502684],[-1.798596,52.503053],[-1.799295,52.5037],[-1.799358,52.504863],[-1.798691,52.505625],[-1.794307,52.506583],[-1.794025,52.507762],[-1.794825,52.508304],[-1.79392,52.508839],[-1.784612,52.509923],[-1.773602,52.513248],[-1.768484,52.514244],[-1.764401,52.514493],[-1.760494,52.514327],[-1.753519,52.512962],[-1.747556,52.510323],[-1.745169,52.508619],[-1.743079,52.506502],[-1.73308,52.491962]]]}}]}