{"type":"FeatureCollection","features":[{"type":"Feature","properties":{"slug":"somerset","gss_code":"E06000066","name":"Somerset"},"geometry":{"type":"MultiPolygon","coordinates":[[[[-3.015178,51.223319],[-3.015628,51.22343],[-3.015749,51.223135],[-3.017024,51.223966],[-3.016392,51.224323],[-3.017222,51.224807],[-3.016504,51.225467],[-3.017105,51.225724],[-3.017291,51.226737],[-3.015727,51.232844],[-3.015009,51.232309],[-3.015877,51.230066],[-3.015657,51.228507],[-3.012994,51.22511],[-3.0142,51.224555],[-3.015178,51.223319]]],[[[-3.027481,51.327617],[-3.026382,51.32784],[-3.02216,51.326396],[-3.020293,51.326443],[-3.01886,51.32697],[-3.015646,51.326566],[-3.011139,51.325216],[-3.008489,51.325627],[-3.003747,51.324963],[-3.002958,51.325142],[-3.001518,51.32425],[-3.002045,51.323642],[-3.001346,51.322161],[-2.998977,51.322223],[-2.997873,51.321771],[-2.996301,51.32171],[-2.997161,51.321167],[-2.997866,51.321462],[-2.997156,51.321124],[-2.995509,51.32156],[-2.994277,51.321065],[-2.993323,51.320161],[-2.993232,51.319189],[-2.995334,51.319842],[-2.996381,51.319451],[-2.995309,51.319793],[-2.993088,51.318849],[-2.99191,51.317376],[-2.987248,51.314654],[-2.987873,51.314349],[-2.986805,51.314161],[-2.986357,51.312464],[-2.987232,51.310675],[-2.98936,51.308863],[-2.992838,51.308139],[-2.99431,51.307336],[-2.995201,51.307559],[-2.994924,51.30271],[-2.993571,51.300944],[-2.993145,51.30102],[-2.99263,51.30038],[-2.990874,51.299433],[-2.988073,51.29852],[-2.983351,51.29829],[-2.981305,51.29758],[-2.977211,51.297384],[-2.973715,51.295705],[-2.970122,51.296089],[-2.964361,51.29785],[-2.96321,51.298709],[-2.962296,51.299938],[-2.963032,51.302663],[-2.962602,51.304611],[-2.960983,51.304847],[-2.953714,51.304497],[-2.953011,51.304264],[-2.952123,51.303233],[-2.950708,51.302725],[-2.939023,51.302591],[-2.937616,51.303043],[-2.936429,51.303014],[-2.933765,51.301939],[-2.931649,51.299093],[-2.92792,51.297985],[-2.925294,51.298552],[-2.924166,51.298431],[-2.919211,51.295733],[-2.917957,51.294638],[-2.914652,51.294238],[-2.91317,51.293648],[-2.897104,51.290615],[-2.893526,51.29505],[-2.888123,51.304902],[-2.886796,51.305052],[-2.886201,51.305929],[-2.884936,51.30666],[-2.882546,51.304849],[-2.88147,51.30349],[-2.880369,51.303853],[-2.879111,51.303013],[-2.877189,51.300104],[-2.867931,51.302217],[-2.864336,51.300139],[-2.856626,51.300112],[-2.853171,51.299455],[-2.821754,51.301105],[-2.820652,51.300841],[-2.810236,51.301424],[-2.809967,51.305594],[-2.810825,51.307366],[-2.812228,51.308991],[-2.812074,51.310698],[-2.810325,51.311314],[-2.807253,51.311726],[-2.807819,51.314836],[-2.81013,51.315521],[-2.810522,51.317144],[-2.811978,51.31727],[-2.812734,51.318299],[-2.817942,51.319024],[-2.818181,51.320335],[-2.81874,51.320318],[-2.818863,51.320726],[-2.818902,51.321272],[-2.818407,51.321304],[-2.819037,51.322701],[-2.81851,51.322769],[-2.818752,51.325193],[-2.818569,51.326381],[-2.812136,51.327141],[-2.810885,51.326689],[-2.806445,51.326107],[-2.80203,51.326525],[-2.799792,51.326135],[-2.798483,51.326932],[-2.797637,51.326691],[-2.797233,51.325838],[-2.79565,51.324884],[-2.795241,51.325292],[-2.791097,51.325113],[-2.789278,51.324625],[-2.786384,51.324743],[-2.785402,51.324155],[-2.778216,51.323521],[-2.772915,51.323406],[-2.768634,51.323709],[-2.765095,51.322451],[-2.761482,51.322112],[-2.756501,51.323934],[-2.75627,51.324567],[-2.754864,51.324491],[-2.754722,51.323032],[-2.755318,51.321292],[-2.754978,51.320517],[-2.753922,51.319725],[-2.752641,51.320033],[-2.74901,51.319091],[-2.747839,51.319726],[-2.74445,51.319254],[-2.739432,51.319805],[-2.735989,51.319614],[-2.736251,51.319225],[-2.73389,51.318529],[-2.733842,51.318199],[-2.732998,51.318413],[-2.733024,51.318876],[-2.729885,51.318056],[-2.728072,51.31718],[-2.725433,51.318307],[-2.721427,51.319443],[-2.721161,51.321474],[-2.720847,51.321489],[-2.716806,51.316751],[-2.708763,51.317171],[-2.703108,51.317061],[-2.699452,51.31683],[-2.699494,51.316536],[-2.696936,51.316107],[-2.697546,51.317987],[-2.696258,51.317505],[-2.694877,51.318076],[-2.691128,51.317503],[-2.686669,51.316113],[-2.685466,51.316056],[-2.685938,51.315109],[-2.67984,51.313175],[-2.676432,51.311539],[-2.676386,51.310936],[-2.674501,51.310425],[-2.672979,51.311802],[-2.670635,51.311303],[-2.666607,51.309183],[-2.666981,51.30787],[-2.665886,51.307446],[-2.664866,51.307547],[-2.663416,51.30718],[-2.662485,51.30656],[-2.664889,51.305348],[-2.665814,51.303364],[-2.666795,51.302445],[-2.662885,51.302948],[-2.659991,51.302593],[-2.653663,51.300646],[-2.652222,51.299787],[-2.650733,51.299697],[-2.646823,51.298382],[-2.644669,51.297031],[-2.643892,51.297094],[-2.641044,51.2955],[-2.638625,51.2948],[-2.640376,51.293255],[-2.63975,51.291384],[-2.638562,51.289978],[-2.637213,51.289072],[-2.63823,51.288231],[-2.63569,51.287269],[-2.634993,51.286246],[-2.63354,51.286516],[-2.633478,51.28586],[-2.631935,51.284569],[-2.631074,51.284669],[-2.630182,51.284152],[-2.630067,51.283527],[-2.62491,51.28246],[-2.624584,51.2853],[-2.621012,51.284311],[-2.618405,51.286214],[-2.612967,51.284161],[-2.608787,51.285827],[-2.606957,51.287273],[-2.603927,51.287761],[-2.600338,51.288987],[-2.598615,51.290605],[-2.596542,51.290767],[-2.594878,51.292359],[-2.59532,51.293095],[-2.594592,51.295121],[-2.595466,51.296186],[-2.591634,51.296534],[-2.589376,51.295725],[-2.589509,51.295431],[-2.588463,51.29519],[-2.587755,51.294213],[-2.585897,51.293334],[-2.582179,51.293119],[-2.582282,51.29193],[-2.580185,51.29314],[-2.574499,51.294885],[-2.57125,51.295136],[-2.567248,51.297644],[-2.56427,51.298274],[-2.563249,51.298804],[-2.562668,51.298724],[-2.559399,51.302037],[-2.558443,51.302101],[-2.557824,51.302661],[-2.552803,51.301317],[-2.554164,51.298686],[-2.5514,51.298275],[-2.551131,51.299531],[-2.550479,51.299426],[-2.550012,51.300516],[-2.54128,51.298368],[-2.539293,51.296221],[-2.534431,51.2954],[-2.531684,51.293971],[-2.528114,51.293142],[-2.525033,51.292902],[-2.523386,51.293075],[-2.523203,51.293551],[-2.513497,51.292745],[-2.51255,51.29225],[-2.509422,51.292033],[-2.506378,51.291134],[-2.506224,51.290014],[-2.505281,51.289895],[-2.5033,51.290041],[-2.502764,51.290462],[-2.500491,51.290985],[-2.499701,51.290885],[-2.499553,51.29058],[-2.49829,51.290911],[-2.497974,51.290581],[-2.497418,51.290883],[-2.497175,51.290517],[-2.496671,51.29052],[-2.496969,51.290204],[-2.496538,51.287449],[-2.496971,51.286302],[-2.498346,51.286427],[-2.498663,51.285666],[-2.500436,51.284605],[-2.49985,51.28402],[-2.500124,51.282743],[-2.506356,51.278991],[-2.499756,51.276767],[-2.495958,51.275879],[-2.49513,51.276055],[-2.494816,51.276628],[-2.493848,51.276614],[-2.492742,51.276096],[-2.493471,51.275413],[-2.490573,51.274328],[-2.489812,51.274788],[-2.487913,51.27412],[-2.487162,51.275135],[-2.485178,51.274631],[-2.485001,51.274204],[-2.482833,51.273883],[-2.482664,51.274148],[-2.478001,51.273097],[-2.473754,51.277967],[-2.472303,51.277053],[-2.461584,51.274194],[-2.455805,51.273737],[-2.453287,51.273845],[-2.451723,51.274251],[-2.452404,51.277114],[-2.44997,51.277423],[-2.44746,51.277123],[-2.444312,51.277411],[-2.446015,51.280836],[-2.442498,51.28204],[-2.442409,51.282755],[-2.439073,51.283839],[-2.438729,51.28419],[-2.439047,51.285186],[-2.435615,51.285698],[-2.435342,51.2854],[-2.434544,51.285452],[-2.4326,51.286041],[-2.430064,51.284643],[-2.430233,51.286394],[-2.430656,51.286445],[-2.429955,51.286776],[-2.427709,51.286719],[-2.42761,51.287059],[-2.422055,51.287502],[-2.42099,51.289012],[-2.421369,51.291058],[-2.41739,51.292134],[-2.417766,51.293666],[-2.420259,51.296621],[-2.420002,51.296879],[-2.419387,51.29679],[-2.419542,51.297241],[-2.418435,51.297441],[-2.418655,51.297668],[-2.417369,51.298044],[-2.417459,51.298284],[-2.416198,51.298737],[-2.415367,51.298476],[-2.414035,51.299564],[-2.412738,51.299802],[-2.412583,51.300627],[-2.411645,51.301305],[-2.410145,51.300863],[-2.407472,51.300967],[-2.407043,51.300615],[-2.40696,51.300897],[-2.404366,51.302021],[-2.400917,51.3048],[-2.399827,51.304889],[-2.397467,51.303052],[-2.393664,51.297543],[-2.392316,51.296421],[-2.391891,51.295371],[-2.389626,51.294611],[-2.387181,51.294643],[-2.384881,51.295592],[-2.384157,51.296317],[-2.385184,51.296965],[-2.383144,51.299054],[-2.381575,51.300085],[-2.379716,51.3006],[-2.377623,51.300576],[-2.374271,51.301108],[-2.369257,51.301013],[-2.362886,51.302939],[-2.357309,51.305035],[-2.354416,51.306858],[-2.353843,51.306657],[-2.350424,51.306979],[-2.34864,51.308043],[-2.344111,51.308711],[-2.341781,51.309261],[-2.341605,51.309695],[-2.340555,51.309456],[-2.339051,51.309892],[-2.337491,51.308923],[-2.338097,51.308701],[-2.337349,51.307687],[-2.332521,51.308443],[-2.330385,51.309256],[-2.328577,51.310799],[-2.326156,51.311873],[-2.324731,51.313004],[-2.325108,51.313398],[-2.324818,51.31356],[-2.320183,51.314948],[-2.319538,51.314422],[-2.31638,51.316344],[-2.312281,51.317574],[-2.310729,51.318805],[-2.305355,51.319442],[-2.303928,51.320117],[-2.299219,51.321295],[-2.297937,51.322368],[-2.294093,51.322752],[-2.29116,51.323813],[-2.289091,51.325272],[-2.285162,51.324455],[-2.282158,51.325308],[-2.281265,51.324036],[-2.279267,51.324714],[-2.277763,51.324491],[-2.278416,51.325466],[-2.277747,51.325704],[-2.274938,51.325035],[-2.275103,51.324614],[-2.273095,51.322879],[-2.275209,51.322187],[-2.272331,51.3185],[-2.275137,51.31903],[-2.275519,51.31868],[-2.274709,51.317743],[-2.273122,51.316909],[-2.271955,51.314254],[-2.273664,51.312846],[-2.275804,51.312366],[-2.276811,51.310469],[-2.278193,51.310633],[-2.279212,51.310331],[-2.281557,51.310914],[-2.283277,51.310773],[-2.28512,51.309528],[-2.284714,51.308628],[-2.283238,51.308313],[-2.283647,51.307793],[-2.282001,51.307565],[-2.281224,51.307145],[-2.282262,51.306381],[-2.281416,51.30663],[-2.278388,51.30546],[-2.278576,51.304948],[-2.277104,51.304439],[-2.276822,51.303951],[-2.278278,51.302448],[-2.27883,51.300939],[-2.279834,51.300347],[-2.279862,51.299307],[-2.280525,51.298896],[-2.281247,51.298993],[-2.281492,51.29867],[-2.280177,51.297097],[-2.279497,51.29552],[-2.279961,51.294773],[-2.279667,51.294071],[-2.280699,51.293546],[-2.279706,51.293175],[-2.279973,51.29223],[-2.278877,51.292389],[-2.277477,51.29321],[-2.275834,51.293495],[-2.272879,51.294865],[-2.269849,51.294573],[-2.268349,51.295057],[-2.267235,51.295955],[-2.265474,51.29624],[-2.262989,51.295165],[-2.265287,51.292859],[-2.260982,51.290708],[-2.257438,51.291684],[-2.255584,51.289425],[-2.253497,51.289835],[-2.251059,51.285255],[-2.250617,51.282806],[-2.247805,51.279212],[-2.247165,51.277234],[-2.247396,51.275399],[-2.245172,51.272521],[-2.244712,51.267525],[-2.245124,51.264198],[-2.244427,51.263132],[-2.247966,51.261437],[-2.247919,51.260803],[-2.248921,51.260345],[-2.248605,51.260209],[-2.248925,51.259381],[-2.249583,51.258966],[-2.24812,51.258172],[-2.247807,51.256479],[-2.245341,51.253876],[-2.248153,51.251038],[-2.252836,51.247371],[-2.252432,51.246372],[-2.254996,51.243326],[-2.254702,51.243174],[-2.257855,51.241698],[-2.260789,51.239121],[-2.26196,51.235975],[-2.263764,51.234373],[-2.26267,51.233607],[-2.263805,51.231038],[-2.267091,51.226424],[-2.26808,51.224021],[-2.268187,51.222338],[-2.267624,51.221854],[-2.267669,51.221137],[-2.269074,51.220467],[-2.269759,51.218893],[-2.269459,51.217703],[-2.266784,51.216633],[-2.266666,51.215579],[-2.268764,51.213955],[-2.269541,51.21258],[-2.271369,51.210934],[-2.271921,51.209659],[-2.2733,51.209487],[-2.272954,51.208498],[-2.274806,51.20699],[-2.274657,51.206641],[-2.275916,51.205537],[-2.276497,51.205683],[-2.278646,51.201765],[-2.279558,51.202045],[-2.27984,51.201753],[-2.280357,51.199288],[-2.280854,51.199069],[-2.280867,51.197856],[-2.281341,51.197437],[-2.28456,51.197253],[-2.284115,51.195601],[-2.284962,51.194756],[-2.284782,51.193245],[-2.288458,51.192233],[-2.288136,51.191684],[-2.289054,51.19116],[-2.288123,51.189505],[-2.288199,51.188078],[-2.291135,51.188226],[-2.291629,51.18566],[-2.294436,51.182507],[-2.297784,51.180035],[-2.297315,51.178226],[-2.298465,51.175322],[-2.303865,51.172765],[-2.30566,51.170693],[-2.308885,51.169341],[-2.310089,51.168423],[-2.311227,51.167145],[-2.312729,51.163024],[-2.315316,51.160917],[-2.316277,51.160578],[-2.316255,51.159983],[-2.316992,51.159351],[-2.319527,51.158255],[-2.322414,51.154087],[-2.328869,51.14846],[-2.332287,51.144958],[-2.330896,51.141002],[-2.332169,51.137983],[-2.332639,51.137632],[-2.341308,51.135355],[-2.345862,51.133362],[-2.346305,51.130511],[-2.344032,51.12869],[-2.343186,51.127441],[-2.344539,51.124678],[-2.34653,51.123707],[-2.34746,51.123697],[-2.349309,51.122992],[-2.350213,51.122892],[-2.35081,51.123223],[-2.352539,51.122811],[-2.356786,51.120331],[-2.357328,51.120351],[-2.357656,51.120808],[-2.359516,51.120584],[-2.361143,51.120213],[-2.361657,51.119754],[-2.363706,51.119467],[-2.364528,51.118879],[-2.36559,51.11499],[-2.362883,51.115775],[-2.363451,51.113383],[-2.362614,51.112497],[-2.360777,51.108838],[-2.362172,51.10691],[-2.362291,51.105335],[-2.363452,51.104304],[-2.362835,51.103433],[-2.362529,51.101624],[-2.36087,51.099018],[-2.360112,51.099306],[-2.354407,51.096448],[-2.353509,51.094542],[-2.347051,51.088236],[-2.345324,51.088313],[-2.341614,51.087825],[-2.34067,51.087481],[-2.340416,51.086884],[-2.339399,51.08707],[-2.339018,51.086449],[-2.337121,51.08678],[-2.335705,51.086659],[-2.330491,51.085311],[-2.32914,51.085259],[-2.328806,51.083582],[-2.327531,51.082541],[-2.327379,51.08007],[-2.32713,51.079765],[-2.326359,51.080021],[-2.325863,51.079678],[-2.326512,51.078886],[-2.32844,51.07805],[-2.329468,51.077019],[-2.334046,51.075404],[-2.337941,51.074648],[-2.342432,51.075069],[-2.344457,51.074328],[-2.347086,51.072738],[-2.349127,51.070794],[-2.349987,51.068882],[-2.349403,51.066314],[-2.349457,51.064118],[-2.349939,51.063658],[-2.349256,51.061243],[-2.346509,51.058579],[-2.344486,51.055483],[-2.342195,51.056068],[-2.340109,51.056063],[-2.33317,51.051479],[-2.332538,51.049525],[-2.333362,51.04669],[-2.331505,51.044361],[-2.330342,51.04366],[-2.329638,51.042165],[-2.330076,51.042053],[-2.330014,51.041345],[-2.332308,51.03971],[-2.335419,51.039611],[-2.336078,51.039934],[-2.336546,51.038182],[-2.337728,51.036993],[-2.338921,51.036913],[-2.341536,51.035481],[-2.342755,51.035221],[-2.34341,51.033359],[-2.344254,51.032519],[-2.347292,51.031814],[-2.347527,51.031247],[-2.349346,51.030505],[-2.35182,51.028655],[-2.360674,51.025175],[-2.360459,51.023408],[-2.361564,51.023018],[-2.363478,51.019986],[-2.367249,51.017779],[-2.369097,51.015925],[-2.369147,51.014276],[-2.371162,51.01346],[-2.378047,51.011714],[-2.378158,51.011115],[-2.375913,51.01085],[-2.376263,51.00967],[-2.375655,51.009277],[-2.376473,51.009202],[-2.377139,51.008357],[-2.377847,51.008128],[-2.377676,51.00728],[-2.37854,51.007258],[-2.379548,51.006527],[-2.37964,51.006242],[-2.379019,51.005935],[-2.379687,51.005217],[-2.381348,51.004922],[-2.381756,51.001947],[-2.38091,51.001185],[-2.381499,51.000309],[-2.381004,50.999936],[-2.380946,50.996711],[-2.378877,50.994776],[-2.379385,50.994325],[-2.378513,50.994157],[-2.378236,50.993439],[-2.377457,50.993612],[-2.377841,50.992671],[-2.377228,50.992401],[-2.37703,50.991801],[-2.37776,50.991413],[-2.376912,50.991215],[-2.376818,50.990729],[-2.376322,50.990903],[-2.374632,50.990457],[-2.374056,50.990678],[-2.373568,50.990391],[-2.372928,50.990741],[-2.372296,50.99048],[-2.371619,50.991337],[-2.37102,50.991267],[-2.370607,50.991752],[-2.369796,50.991505],[-2.368683,50.991758],[-2.367542,50.991248],[-2.365998,50.991431],[-2.364874,50.990419],[-2.361236,50.991266],[-2.35495,50.990897],[-2.354842,50.990224],[-2.352691,50.989927],[-2.351941,50.988713],[-2.352467,50.9885],[-2.352292,50.988139],[-2.351483,50.987878],[-2.350385,50.988117],[-2.346983,50.985262],[-2.345851,50.984734],[-2.344021,50.984839],[-2.343905,50.98382],[-2.344631,50.983493],[-2.343876,50.982295],[-2.344767,50.981805],[-2.344483,50.981267],[-2.344931,50.98032],[-2.344135,50.979756],[-2.344557,50.978829],[-2.345916,50.979041],[-2.351183,50.978582],[-2.353207,50.977884],[-2.358262,50.977418],[-2.362557,50.976564],[-2.365565,50.975501],[-2.374782,50.973226],[-2.381073,50.972811],[-2.383542,50.972359],[-2.392738,50.969242],[-2.397037,50.968402],[-2.403139,50.965174],[-2.414928,50.960583],[-2.416213,50.961657],[-2.418346,50.962328],[-2.419442,50.963646],[-2.419597,50.965169],[-2.421343,50.967165],[-2.424949,50.97027],[-2.427991,50.971387],[-2.431138,50.970677],[-2.431767,50.971337],[-2.433894,50.970228],[-2.436662,50.969332],[-2.441361,50.968395],[-2.441453,50.968643],[-2.447178,50.96785],[-2.444849,50.963986],[-2.444757,50.963061],[-2.442876,50.962967],[-2.442271,50.962523],[-2.444336,50.961061],[-2.443666,50.961248],[-2.442376,50.960796],[-2.443478,50.958463],[-2.444755,50.958082],[-2.445734,50.955851],[-2.448605,50.952913],[-2.452486,50.950274],[-2.455365,50.949267],[-2.457408,50.949582],[-2.457994,50.949961],[-2.458663,50.949747],[-2.460421,50.951129],[-2.457906,50.952788],[-2.459029,50.953523],[-2.458644,50.954288],[-2.461446,50.95631],[-2.463808,50.955346],[-2.466817,50.959811],[-2.470242,50.959151],[-2.473026,50.95803],[-2.474742,50.957952],[-2.475452,50.960002],[-2.476416,50.960764],[-2.474578,50.962508],[-2.47546,50.962863],[-2.47592,50.963586],[-2.480194,50.965865],[-2.485087,50.971143],[-2.487779,50.973113],[-2.490345,50.972772],[-2.490484,50.974164],[-2.488218,50.974452],[-2.488333,50.975756],[-2.492141,50.978517],[-2.497176,50.987353],[-2.502281,50.993798],[-2.508534,50.994658],[-2.512812,50.993984],[-2.516192,50.994508],[-2.518141,50.993335],[-2.518462,50.99378],[-2.517398,50.994269],[-2.517313,50.994609],[-2.520102,50.99401],[-2.523516,50.99225],[-2.526531,50.991925],[-2.526863,50.992112],[-2.526467,50.992597],[-2.529363,50.992642],[-2.535561,50.994022],[-2.535855,50.996856],[-2.535167,50.999373],[-2.547435,50.999542],[-2.546922,50.997252],[-2.547291,50.996418],[-2.548536,50.995986],[-2.55149,50.996345],[-2.551924,50.993698],[-2.544725,50.991666],[-2.545428,50.989808],[-2.545423,50.985081],[-2.548092,50.984852],[-2.550218,50.983802],[-2.553333,50.982827],[-2.555129,50.981423],[-2.556207,50.979535],[-2.560101,50.978695],[-2.562371,50.977711],[-2.569105,50.98537],[-2.57463,50.986694],[-2.57435,50.985094],[-2.574939,50.983318],[-2.576875,50.982306],[-2.580823,50.981348],[-2.583181,50.978864],[-2.584257,50.978891],[-2.586727,50.977805],[-2.586023,50.976869],[-2.589292,50.97692],[-2.59155,50.978761],[-2.595845,50.98134],[-2.603418,50.976283],[-2.602695,50.976035],[-2.602749,50.975601],[-2.60198,50.974935],[-2.598977,50.97455],[-2.598057,50.973613],[-2.59896,50.972618],[-2.59853,50.971577],[-2.599583,50.970761],[-2.599224,50.970061],[-2.599651,50.969557],[-2.599883,50.967402],[-2.599082,50.966638],[-2.597257,50.965747],[-2.597356,50.964814],[-2.595998,50.964622],[-2.59491,50.962228],[-2.595416,50.960892],[-2.596634,50.961209],[-2.598123,50.960568],[-2.598732,50.958567],[-2.598149,50.957751],[-2.599555,50.954352],[-2.598556,50.953013],[-2.599299,50.952657],[-2.599355,50.952235],[-2.598482,50.95188],[-2.598659,50.950595],[-2.597989,50.950156],[-2.599204,50.949259],[-2.59816,50.948982],[-2.5982,50.948574],[-2.599263,50.947656],[-2.601633,50.947431],[-2.601753,50.9468],[-2.604473,50.94597],[-2.604857,50.945404],[-2.607174,50.945757],[-2.607504,50.945137],[-2.607285,50.944073],[-2.608591,50.943695],[-2.608847,50.942008],[-2.612086,50.940069],[-2.613972,50.940308],[-2.614052,50.941361],[-2.615733,50.941205],[-2.616035,50.941448],[-2.615859,50.939593],[-2.614597,50.93815],[-2.612785,50.937255],[-2.61036,50.936704],[-2.610521,50.936508],[-2.607861,50.935626],[-2.606268,50.934674],[-2.604629,50.932557],[-2.604032,50.930976],[-2.604473,50.927725],[-2.60404,50.926725],[-2.605199,50.9266],[-2.606594,50.925831],[-2.609781,50.925301],[-2.613409,50.923553],[-2.614157,50.92362],[-2.614805,50.923257],[-2.615188,50.922435],[-2.61463,50.922187],[-2.614904,50.921921],[-2.614531,50.921135],[-2.61534,50.919936],[-2.615191,50.91948],[-2.616045,50.919242],[-2.615305,50.917646],[-2.616074,50.91753],[-2.615626,50.916653],[-2.616133,50.915991],[-2.616994,50.915672],[-2.616435,50.915104],[-2.617044,50.914314],[-2.61661,50.913375],[-2.617336,50.913268],[-2.617336,50.912361],[-2.618872,50.911622],[-2.620024,50.911492],[-2.619996,50.910553],[-2.620434,50.91002],[-2.622098,50.910108],[-2.6224,50.908754],[-2.624028,50.907992],[-2.623828,50.907195],[-2.622897,50.906687],[-2.621836,50.905104],[-2.619926,50.904654],[-2.619313,50.903964],[-2.619372,50.903436],[-2.618921,50.903256],[-2.619052,50.902529],[-2.619662,50.902319],[-2.619214,50.902192],[-2.618759,50.901333],[-2.617671,50.90154],[-2.617496,50.900041],[-2.616213,50.899458],[-2.61623,50.898518],[-2.615628,50.898052],[-2.615555,50.897282],[-2.616364,50.896733],[-2.615467,50.896284],[-2.615709,50.895753],[-2.615032,50.894933],[-2.615419,50.894262],[-2.61456,50.893738],[-2.614891,50.893261],[-2.612544,50.892177],[-2.610291,50.89235],[-2.609541,50.891526],[-2.609469,50.890839],[-2.610446,50.889968],[-2.610084,50.889408],[-2.610397,50.888297],[-2.610899,50.888036],[-2.611529,50.886555],[-2.611197,50.886107],[-2.611663,50.885547],[-2.61121,50.885014],[-2.612222,50.884763],[-2.612841,50.885007],[-2.613885,50.883931],[-2.614832,50.883879],[-2.615532,50.881899],[-2.617542,50.881045],[-2.620521,50.881253],[-2.620899,50.880894],[-2.622116,50.880781],[-2.623248,50.880132],[-2.623312,50.879547],[-2.624083,50.879287],[-2.627184,50.87988],[-2.627301,50.882758],[-2.628006,50.884337],[-2.627918,50.886309],[-2.630755,50.885777],[-2.637655,50.886935],[-2.642421,50.886731],[-2.643005,50.887286],[-2.647066,50.888359],[-2.646956,50.887801],[-2.646135,50.887435],[-2.646365,50.886457],[-2.647341,50.885533],[-2.646761,50.884166],[-2.647427,50.884002],[-2.648091,50.884242],[-2.648909,50.883964],[-2.649591,50.884166],[-2.650363,50.883332],[-2.658075,50.886552],[-2.660666,50.887143],[-2.661204,50.886555],[-2.66444,50.885131],[-2.666156,50.883698],[-2.668655,50.882597],[-2.671913,50.880572],[-2.678885,50.877523],[-2.682378,50.876963],[-2.69119,50.876559],[-2.695713,50.876007],[-2.696497,50.875493],[-2.695645,50.874685],[-2.696841,50.87368],[-2.699537,50.872792],[-2.702854,50.873277],[-2.706605,50.870482],[-2.707099,50.869729],[-2.711151,50.87004],[-2.711725,50.870824],[-2.714411,50.871161],[-2.713816,50.866373],[-2.714602,50.864966],[-2.714524,50.863939],[-2.717997,50.864025],[-2.721385,50.864931],[-2.723092,50.866191],[-2.724032,50.866084],[-2.724989,50.865406],[-2.729912,50.864704],[-2.733146,50.864957],[-2.737066,50.864233],[-2.73824,50.864672],[-2.750937,50.863838],[-2.753365,50.864142],[-2.754335,50.864677],[-2.755162,50.866397],[-2.754988,50.86679],[-2.756862,50.866594],[-2.757512,50.866889],[-2.759936,50.865973],[-2.760851,50.863239],[-2.760918,50.861424],[-2.761822,50.860759],[-2.767506,50.86072],[-2.771699,50.860268],[-2.775413,50.860683],[-2.780062,50.860319],[-2.782286,50.859697],[-2.784081,50.856839],[-2.7862,50.854513],[-2.787538,50.853751],[-2.792528,50.852857],[-2.79372,50.853398],[-2.795074,50.854654],[-2.799053,50.855449],[-2.800332,50.856183],[-2.801088,50.85615],[-2.801687,50.856788],[-2.802904,50.857242],[-2.807842,50.858679],[-2.807052,50.858937],[-2.80559,50.861893],[-2.806499,50.862051],[-2.807664,50.862771],[-2.807314,50.863247],[-2.808068,50.863631],[-2.810152,50.862568],[-2.811508,50.863354],[-2.812937,50.862108],[-2.812375,50.861234],[-2.816103,50.85685],[-2.820385,50.853984],[-2.822166,50.853464],[-2.823142,50.852491],[-2.82442,50.852059],[-2.825777,50.850884],[-2.827156,50.850626],[-2.827513,50.851291],[-2.827834,50.851108],[-2.828334,50.851337],[-2.828253,50.85178],[-2.828682,50.852041],[-2.829458,50.850729],[-2.82862,50.848782],[-2.829775,50.848695],[-2.83103,50.849934],[-2.83166,50.849787],[-2.831492,50.849456],[-2.837274,50.848814],[-2.838967,50.848078],[-2.842865,50.847373],[-2.843189,50.84882],[-2.843798,50.849224],[-2.84341,50.849374],[-2.844001,50.850266],[-2.844774,50.850174],[-2.84454,50.850446],[-2.844982,50.850696],[-2.844932,50.851177],[-2.845362,50.85124],[-2.845205,50.851613],[-2.846368,50.851368],[-2.846628,50.850762],[-2.847282,50.850799],[-2.847647,50.851356],[-2.848583,50.851233],[-2.848903,50.85063],[-2.849134,50.850896],[-2.850696,50.850765],[-2.852581,50.849404],[-2.853643,50.849647],[-2.85422,50.849269],[-2.855028,50.849616],[-2.855355,50.850303],[-2.856063,50.849987],[-2.858007,50.850378],[-2.85833,50.850024],[-2.859157,50.850057],[-2.859929,50.849614],[-2.860389,50.849773],[-2.861975,50.848874],[-2.862969,50.849019],[-2.863577,50.848542],[-2.864125,50.848768],[-2.864423,50.848439],[-2.865042,50.848705],[-2.865706,50.848402],[-2.866027,50.849],[-2.866791,50.849256],[-2.867562,50.848822],[-2.86795,50.849092],[-2.869609,50.84882],[-2.869252,50.84837],[-2.869731,50.848074],[-2.871191,50.848214],[-2.871446,50.848987],[-2.872577,50.848874],[-2.872845,50.849415],[-2.873414,50.849389],[-2.874227,50.848806],[-2.877052,50.84932],[-2.877215,50.848664],[-2.877878,50.848586],[-2.878321,50.848932],[-2.878947,50.848262],[-2.878612,50.84777],[-2.878239,50.847938],[-2.877831,50.847526],[-2.878872,50.847145],[-2.879235,50.846375],[-2.880841,50.846732],[-2.880682,50.847498],[-2.882094,50.84814],[-2.882103,50.84854],[-2.883008,50.848295],[-2.882598,50.849217],[-2.883422,50.849487],[-2.883642,50.849169],[-2.883963,50.849583],[-2.884908,50.849673],[-2.885002,50.850291],[-2.886262,50.85054],[-2.886266,50.850103],[-2.886837,50.850357],[-2.888614,50.849836],[-2.889745,50.849873],[-2.890314,50.848972],[-2.892483,50.848327],[-2.892534,50.847662],[-2.893328,50.847433],[-2.893495,50.846743],[-2.894367,50.847268],[-2.895011,50.846657],[-2.895747,50.847148],[-2.896516,50.847052],[-2.897332,50.847511],[-2.898484,50.846748],[-2.89946,50.847267],[-2.899712,50.846727],[-2.900931,50.846566],[-2.900601,50.84595],[-2.901594,50.845906],[-2.90254,50.844769],[-2.901279,50.844601],[-2.901795,50.844103],[-2.90284,50.844052],[-2.903149,50.843738],[-2.906465,50.843685],[-2.906753,50.844227],[-2.908342,50.844051],[-2.908857,50.844542],[-2.910254,50.844753],[-2.910537,50.843964],[-2.911115,50.843914],[-2.910964,50.844428],[-2.912336,50.843967],[-2.913388,50.842376],[-2.914024,50.842377],[-2.914219,50.842012],[-2.917307,50.841782],[-2.917279,50.841551],[-2.917556,50.841813],[-2.919334,50.841774],[-2.919103,50.84152],[-2.920226,50.841317],[-2.92096,50.840564],[-2.923141,50.839944],[-2.924951,50.83995],[-2.925246,50.839436],[-2.926383,50.839893],[-2.927137,50.839677],[-2.928432,50.839981],[-2.927848,50.840446],[-2.927959,50.840809],[-2.928996,50.840423],[-2.930123,50.840922],[-2.930372,50.840441],[-2.929852,50.840404],[-2.930275,50.839074],[-2.930684,50.838656],[-2.931813,50.838923],[-2.932792,50.838769],[-2.93245,50.838209],[-2.934541,50.837649],[-2.934333,50.836485],[-2.938003,50.835086],[-2.939754,50.836385],[-2.94169,50.835883],[-2.942092,50.835003],[-2.942985,50.834794],[-2.944261,50.833228],[-2.943855,50.83261],[-2.944422,50.832316],[-2.944033,50.831927],[-2.944657,50.831993],[-2.944591,50.831151],[-2.943876,50.830159],[-2.944708,50.829625],[-2.944109,50.82916],[-2.944815,50.828707],[-2.945367,50.828842],[-2.945119,50.828512],[-2.945613,50.8289],[-2.946024,50.828832],[-2.946071,50.826282],[-2.947512,50.825916],[-2.947076,50.825308],[-2.94802,50.825274],[-2.947341,50.823739],[-2.948547,50.823264],[-2.948776,50.823642],[-2.949418,50.823749],[-2.949587,50.822477],[-2.951537,50.82287],[-2.953007,50.822298],[-2.95388,50.820854],[-2.955934,50.823019],[-2.95767,50.824287],[-2.957552,50.824826],[-2.959048,50.826082],[-2.962929,50.827731],[-2.9626,50.828834],[-2.961687,50.829801],[-2.965579,50.831792],[-2.966327,50.833639],[-2.969829,50.8342],[-2.968538,50.840511],[-2.969404,50.841734],[-2.971184,50.842893],[-2.972424,50.844347],[-2.972572,50.846031],[-2.971003,50.847719],[-2.970103,50.849612],[-2.968051,50.851301],[-2.971155,50.851452],[-2.972053,50.851893],[-2.974631,50.852338],[-2.97385,50.853855],[-2.97359,50.855657],[-2.976959,50.855561],[-2.97984,50.854811],[-2.984364,50.854963],[-2.98759,50.855933],[-2.990568,50.855685],[-2.993471,50.854916],[-2.994444,50.855146],[-2.996264,50.854672],[-2.998551,50.850965],[-3.000487,50.851686],[-3.001644,50.851673],[-3.00364,50.853389],[-3.006238,50.853854],[-3.011443,50.857209],[-3.012595,50.856906],[-3.012931,50.855722],[-3.014103,50.855131],[-3.018491,50.855788],[-3.021105,50.855506],[-3.031819,50.851735],[-3.034785,50.850946],[-3.036806,50.851065],[-3.036084,50.852853],[-3.037089,50.854395],[-3.035733,50.85625],[-3.036366,50.858245],[-3.034592,50.859046],[-3.033309,50.861163],[-3.032632,50.861639],[-3.034727,50.862442],[-3.034595,50.864],[-3.036652,50.865182],[-3.036984,50.86678],[-3.038442,50.868315],[-3.039281,50.868701],[-3.042026,50.868855],[-3.043733,50.868104],[-3.045326,50.869576],[-3.046107,50.871868],[-3.046761,50.871379],[-3.051579,50.872765],[-3.054062,50.873043],[-3.05375,50.873636],[-3.054982,50.87451],[-3.054305,50.874725],[-3.05464,50.875761],[-3.053937,50.875971],[-3.054356,50.87681],[-3.053592,50.877681],[-3.053843,50.878393],[-3.05251,50.879004],[-3.051908,50.880222],[-3.051768,50.882657],[-3.053294,50.88342],[-3.052985,50.884368],[-3.052229,50.884888],[-3.052299,50.886025],[-3.053345,50.886795],[-3.053735,50.888573],[-3.055392,50.890187],[-3.05568,50.891133],[-3.055523,50.891735],[-3.054857,50.892015],[-3.055403,50.892543],[-3.055086,50.894588],[-3.053865,50.895458],[-3.054773,50.896094],[-3.054711,50.896587],[-3.053044,50.897684],[-3.053253,50.898672],[-3.052314,50.899994],[-3.052352,50.900804],[-3.051755,50.900887],[-3.051367,50.901333],[-3.051466,50.901713],[-3.050144,50.903007],[-3.049904,50.903921],[-3.050521,50.904575],[-3.050387,50.905983],[-3.051326,50.906323],[-3.052405,50.908272],[-3.053112,50.908742],[-3.056211,50.908042],[-3.057197,50.908418],[-3.060071,50.908455],[-3.078088,50.905435],[-3.080546,50.905435],[-3.087893,50.906255],[-3.089851,50.906114],[-3.095451,50.904928],[-3.09948,50.904649],[-3.10147,50.904075],[-3.103569,50.90411],[-3.106997,50.902851],[-3.112053,50.902403],[-3.115871,50.900803],[-3.118291,50.899359],[-3.122079,50.898161],[-3.123265,50.899453],[-3.126341,50.90172],[-3.131099,50.897247],[-3.135126,50.895114],[-3.139626,50.891461],[-3.140145,50.892071],[-3.141562,50.892332],[-3.141828,50.891695],[-3.143245,50.891771],[-3.144185,50.891398],[-3.147923,50.891746],[-3.152877,50.893828],[-3.153919,50.895265],[-3.154134,50.898017],[-3.156156,50.900076],[-3.159372,50.900814],[-3.162953,50.900927],[-3.163891,50.900648],[-3.167755,50.900824],[-3.170397,50.900373],[-3.171856,50.90277],[-3.171478,50.905993],[-3.170556,50.90759],[-3.172737,50.907889],[-3.175832,50.907645],[-3.187962,50.910344],[-3.186242,50.913103],[-3.184299,50.914469],[-3.182881,50.916631],[-3.180226,50.918751],[-3.179958,50.919545],[-3.179166,50.920085],[-3.179291,50.921168],[-3.179851,50.921372],[-3.180299,50.922929],[-3.178528,50.923648],[-3.177652,50.923642],[-3.17755,50.923893],[-3.176225,50.923874],[-3.175267,50.924573],[-3.172438,50.925638],[-3.173475,50.926924],[-3.172873,50.928642],[-3.173557,50.930657],[-3.173073,50.931527],[-3.172461,50.935781],[-3.171315,50.936854],[-3.170205,50.939762],[-3.165227,50.944141],[-3.163946,50.945973],[-3.165371,50.946511],[-3.166479,50.947713],[-3.171828,50.947412],[-3.184542,50.948666],[-3.188919,50.948559],[-3.218347,50.943281],[-3.226303,50.943987],[-3.228073,50.943822],[-3.232514,50.944147],[-3.240262,50.942902],[-3.244329,50.942966],[-3.25483,50.941846],[-3.256134,50.943182],[-3.256978,50.943495],[-3.261892,50.944057],[-3.264298,50.946582],[-3.2725,50.949015],[-3.276504,50.95087],[-3.28441,50.953764],[-3.290069,50.955117],[-3.292461,50.954899],[-3.293847,50.955139],[-3.295629,50.956649],[-3.298283,50.958126],[-3.298265,50.958529],[-3.300095,50.958702],[-3.30156,50.960576],[-3.300278,50.961757],[-3.301818,50.963057],[-3.305467,50.964958],[-3.312153,50.9675],[-3.315756,50.969639],[-3.317374,50.971174],[-3.317666,50.970368],[-3.318937,50.970735],[-3.319871,50.97055],[-3.320314,50.970999],[-3.320411,50.972418],[-3.321371,50.972772],[-3.323458,50.974481],[-3.323557,50.974983],[-3.322842,50.975612],[-3.323307,50.976135],[-3.322437,50.976387],[-3.323673,50.976865],[-3.322914,50.977173],[-3.323177,50.977529],[-3.325882,50.979093],[-3.327155,50.979125],[-3.327841,50.979855],[-3.330835,50.981098],[-3.331342,50.981788],[-3.33367,50.982788],[-3.335217,50.982779],[-3.33941,50.981112],[-3.350761,50.980119],[-3.351544,50.97976],[-3.355299,50.979322],[-3.359816,50.978103],[-3.362274,50.978126],[-3.366172,50.978946],[-3.369158,50.978581],[-3.372452,50.97728],[-3.378664,50.977509],[-3.379235,50.980576],[-3.380468,50.982539],[-3.380471,50.984312],[-3.381301,50.986794],[-3.382996,50.989279],[-3.383073,50.991031],[-3.382656,50.991873],[-3.383428,50.994537],[-3.382101,50.995924],[-3.381684,50.997041],[-3.381911,50.998248],[-3.381419,50.999208],[-3.38241,51.004537],[-3.380867,51.006698],[-3.380194,51.007026],[-3.380488,51.008137],[-3.380141,51.011562],[-3.380845,51.013391],[-3.378897,51.015609],[-3.37908,51.01659],[-3.380488,51.018486],[-3.389904,51.019776],[-3.399779,51.019728],[-3.402927,51.020117],[-3.407534,51.019523],[-3.414174,51.019703],[-3.412965,51.021385],[-3.415769,51.023623],[-3.415998,51.024476],[-3.415361,51.025256],[-3.415621,51.025649],[-3.41506,51.027199],[-3.415702,51.027836],[-3.417821,51.028676],[-3.418747,51.029627],[-3.421304,51.030778],[-3.424259,51.031021],[-3.425386,51.031481],[-3.426815,51.031405],[-3.429273,51.030636],[-3.430852,51.030921],[-3.436781,51.030261],[-3.44023,51.029129],[-3.445447,51.028068],[-3.446406,51.027421],[-3.446436,51.025864],[-3.450492,51.025589],[-3.45431,51.026699],[-3.459751,51.025251],[-3.461839,51.025563],[-3.463689,51.025262],[-3.468525,51.02805],[-3.475339,51.02966],[-3.478345,51.031596],[-3.482344,51.033092],[-3.483302,51.033815],[-3.484433,51.033842],[-3.488557,51.032463],[-3.495586,51.031052],[-3.504924,51.03001],[-3.510247,51.026838],[-3.513516,51.025815],[-3.519584,51.025401],[-3.520014,51.025917],[-3.520458,51.025895],[-3.520493,51.024096],[-3.519371,51.022534],[-3.520991,51.020828],[-3.520331,51.018931],[-3.52174,51.017899],[-3.520565,51.016654],[-3.520701,51.015847],[-3.518881,51.014796],[-3.523032,51.012983],[-3.522621,51.010791],[-3.523236,51.0098],[-3.526276,51.009759],[-3.526694,51.009503],[-3.527324,51.007644],[-3.527042,51.006082],[-3.527564,51.005522],[-3.535049,51.003347],[-3.534731,51.003901],[-3.534049,51.004112],[-3.534387,51.00449],[-3.538368,51.004592],[-3.541499,51.004216],[-3.548396,51.004752],[-3.550044,51.00446],[-3.554309,51.004605],[-3.559626,51.005251],[-3.563477,51.004936],[-3.569186,51.005034],[-3.570984,51.004726],[-3.576489,51.005349],[-3.576543,51.006244],[-3.578251,51.005588],[-3.591647,51.006166],[-3.609746,51.007983],[-3.610185,51.008691],[-3.610109,51.009988],[-3.610688,51.01072],[-3.612086,51.011714],[-3.614706,51.012739],[-3.614263,51.013823],[-3.614701,51.01555],[-3.611926,51.018836],[-3.61084,51.021875],[-3.611276,51.023608],[-3.610913,51.024435],[-3.602783,51.029949],[-3.602518,51.03273],[-3.598215,51.037033],[-3.598222,51.040549],[-3.597549,51.041671],[-3.598295,51.042584],[-3.599172,51.046285],[-3.599941,51.047594],[-3.600286,51.050607],[-3.599831,51.051686],[-3.597609,51.053447],[-3.596658,51.053679],[-3.596119,51.054794],[-3.594859,51.05489],[-3.594471,51.055195],[-3.596875,51.055918],[-3.601429,51.055398],[-3.602959,51.055784],[-3.603831,51.057077],[-3.604845,51.057564],[-3.607585,51.057314],[-3.61033,51.057947],[-3.611222,51.05758],[-3.612413,51.056217],[-3.613053,51.056107],[-3.614693,51.056567],[-3.61935,51.059962],[-3.624304,51.061239],[-3.62809,51.059783],[-3.631279,51.059523],[-3.633655,51.057017],[-3.635354,51.056297],[-3.638072,51.056626],[-3.63997,51.057819],[-3.642448,51.058537],[-3.645411,51.057877],[-3.648836,51.058564],[-3.649826,51.059415],[-3.652331,51.059642],[-3.652311,51.060395],[-3.65088,51.0616],[-3.650289,51.064076],[-3.653358,51.06498],[-3.656201,51.065074],[-3.658232,51.065569],[-3.659186,51.06616],[-3.664337,51.067154],[-3.664799,51.067631],[-3.664919,51.0695],[-3.666384,51.070191],[-3.669833,51.070398],[-3.672805,51.071193],[-3.675633,51.07282],[-3.679639,51.072714],[-3.682368,51.073354],[-3.684161,51.074389],[-3.684189,51.074763],[-3.685629,51.075148],[-3.687298,51.076167],[-3.688774,51.078444],[-3.692445,51.080559],[-3.694308,51.080609],[-3.695042,51.081071],[-3.696499,51.080958],[-3.697859,51.080389],[-3.701518,51.080757],[-3.704326,51.080406],[-3.70925,51.080688],[-3.714907,51.080177],[-3.719947,51.080821],[-3.722468,51.082901],[-3.730048,51.086777],[-3.73863,51.088683],[-3.741344,51.089852],[-3.745491,51.092536],[-3.750874,51.095128],[-3.75755,51.100539],[-3.767395,51.105783],[-3.776909,51.106935],[-3.780121,51.107705],[-3.787035,51.110168],[-3.791437,51.111371],[-3.797501,51.114076],[-3.804289,51.115685],[-3.807176,51.117919],[-3.813727,51.121049],[-3.816409,51.122665],[-3.822115,51.126954],[-3.82525,51.131249],[-3.831149,51.135377],[-3.834491,51.138381],[-3.834102,51.140197],[-3.834738,51.141383],[-3.834472,51.144859],[-3.832069,51.151186],[-3.835351,51.154107],[-3.836463,51.165038],[-3.837496,51.167358],[-3.838923,51.174959],[-3.839821,51.176674],[-3.838447,51.177098],[-3.83228,51.177563],[-3.824358,51.176115],[-3.817519,51.17853],[-3.815569,51.178504],[-3.811889,51.177632],[-3.806267,51.177873],[-3.79599,51.174544],[-3.793381,51.17275],[-3.786303,51.171927],[-3.78211,51.17228],[-3.777182,51.173507],[-3.7573,51.17731],[-3.751179,51.17709],[-3.745875,51.175557],[-3.742115,51.175972],[-3.739589,51.177112],[-3.738539,51.177059],[-3.738099,51.177329],[-3.735492,51.176949],[-3.732851,51.177066],[-3.730185,51.178041],[-3.728748,51.178125],[-3.728061,51.178728],[-3.726032,51.178934],[-3.723826,51.180727],[-3.72509,51.18247],[-3.724421,51.183921],[-3.726002,51.186355],[-3.72945,51.188296],[-3.732088,51.190969],[-3.732021,51.193622],[-3.729,51.19463],[-3.727008,51.197463],[-3.726211,51.199423],[-3.727068,51.201214],[-3.726372,51.202741],[-3.727987,51.20458],[-3.728484,51.205771],[-3.728463,51.207047],[-3.727735,51.208428],[-3.729412,51.211535],[-3.730824,51.213027],[-3.731573,51.215131],[-3.730887,51.216012],[-3.729046,51.216755],[-3.728737,51.218851],[-3.733201,51.222725],[-3.729253,51.223909],[-3.728304,51.225101],[-3.7267,51.225645],[-3.727318,51.22704],[-3.727067,51.229436],[-3.723119,51.230531],[-3.722511,51.231023],[-3.722023,51.232408],[-3.720824,51.233095],[-3.720022,51.232678],[-3.715001,51.231682],[-3.708073,51.23204],[-3.703931,51.230808],[-3.700727,51.231238],[-3.698448,51.231075],[-3.69458,51.229366],[-3.691061,51.228564],[-3.681384,51.227294],[-3.671662,51.226714],[-3.667133,51.225907],[-3.664247,51.226097],[-3.661898,51.225321],[-3.658619,51.224992],[-3.65704,51.225137],[-3.656159,51.224625],[-3.655026,51.224452],[-3.649585,51.224487],[-3.645999,51.224114],[-3.641296,51.222907],[-3.63635,51.222835],[-3.631976,51.223609],[-3.630608,51.222991],[-3.627712,51.220263],[-3.626578,51.219927],[-3.627956,51.219468],[-3.629645,51.221719],[-3.630666,51.222418],[-3.630454,51.221336],[-3.62792,51.219123],[-3.625623,51.218944],[-3.624326,51.217563],[-3.622015,51.216669],[-3.617588,51.216843],[-3.612296,51.218732],[-3.609881,51.218278],[-3.609444,51.217353],[-3.606648,51.217292],[-3.60617,51.217975],[-3.602641,51.219106],[-3.604431,51.219375],[-3.604663,51.218812],[-3.605906,51.218518],[-3.606459,51.218714],[-3.605383,51.219331],[-3.606269,51.219161],[-3.607585,51.21961],[-3.608105,51.218965],[-3.610108,51.219429],[-3.610642,51.218696],[-3.611271,51.219192],[-3.610836,51.219586],[-3.606551,51.220276],[-3.602896,51.220301],[-3.59893,51.220825],[-3.590684,51.223263],[-3.586179,51.225522],[-3.580559,51.229365],[-3.578726,51.231013],[-3.579045,51.231881],[-3.578709,51.232142],[-3.577171,51.231853],[-3.574972,51.231957],[-3.573456,51.231509],[-3.569961,51.23186],[-3.567808,51.231398],[-3.563498,51.23143],[-3.561009,51.232164],[-3.560059,51.232103],[-3.559196,51.232613],[-3.557359,51.232525],[-3.555554,51.233279],[-3.548406,51.232342],[-3.543007,51.232385],[-3.533621,51.230657],[-3.528378,51.228861],[-3.520783,51.227207],[-3.517855,51.226274],[-3.512914,51.225949],[-3.508173,51.223938],[-3.502997,51.222995],[-3.498209,51.224009],[-3.496887,51.223973],[-3.492939,51.222573],[-3.489527,51.220338],[-3.483766,51.219175],[-3.479035,51.216994],[-3.475883,51.21464],[-3.473794,51.214229],[-3.472553,51.213618],[-3.473724,51.214015],[-3.474752,51.213568],[-3.473795,51.212578],[-3.472898,51.209264],[-3.470945,51.208297],[-3.468169,51.207833],[-3.467878,51.208129],[-3.467708,51.207648],[-3.465435,51.207813],[-3.465354,51.207495],[-3.46415,51.207514],[-3.462118,51.207861],[-3.461865,51.208238],[-3.461603,51.20789],[-3.460631,51.208006],[-3.45524,51.209529],[-3.454194,51.208848],[-3.447602,51.208902],[-3.446863,51.208267],[-3.443465,51.207279],[-3.442009,51.2065],[-3.437548,51.202305],[-3.435492,51.198977],[-3.431756,51.195966],[-3.430092,51.195656],[-3.428569,51.193744],[-3.4235,51.190175],[-3.418459,51.187948],[-3.415273,51.185585],[-3.411612,51.183896],[-3.407735,51.182956],[-3.404754,51.182621],[-3.395419,51.18243],[-3.38472,51.182965],[-3.376116,51.184622],[-3.372401,51.184851],[-3.363304,51.184044],[-3.354103,51.182128],[-3.352529,51.181538],[-3.345774,51.181364],[-3.336414,51.183314],[-3.331951,51.182996],[-3.330656,51.183696],[-3.328803,51.184073],[-3.330381,51.18372],[-3.331006,51.183205],[-3.329802,51.182849],[-3.330218,51.182572],[-3.3285,51.182018],[-3.327707,51.181947],[-3.327107,51.182877],[-3.328549,51.183658],[-3.327886,51.183593],[-3.326903,51.182883],[-3.325249,51.183017],[-3.325276,51.182705],[-3.324709,51.182478],[-3.322857,51.18265],[-3.319752,51.182167],[-3.320153,51.181188],[-3.319372,51.180484],[-3.312456,51.179479],[-3.307908,51.179633],[-3.303147,51.180983],[-3.302241,51.18085],[-3.299597,51.181707],[-3.299049,51.181556],[-3.296584,51.182221],[-3.292259,51.182225],[-3.288659,51.181664],[-3.2861,51.181924],[-3.284119,51.180636],[-3.282738,51.180191],[-3.280141,51.180494],[-3.278075,51.179582],[-3.27598,51.179769],[-3.269204,51.182006],[-3.265891,51.183462],[-3.262239,51.185748],[-3.256837,51.187735],[-3.254033,51.187347],[-3.250056,51.187408],[-3.243827,51.188726],[-3.237035,51.191094],[-3.231724,51.191201],[-3.228364,51.192006],[-3.227313,51.192655],[-3.225815,51.193044],[-3.221645,51.193164],[-3.219825,51.194148],[-3.218664,51.193959],[-3.216319,51.194282],[-3.206516,51.199712],[-3.202213,51.201402],[-3.195787,51.202392],[-3.190451,51.20274],[-3.188202,51.202396],[-3.180695,51.199731],[-3.171991,51.202149],[-3.164699,51.202528],[-3.159264,51.205444],[-3.156506,51.208153],[-3.153942,51.208774],[-3.140877,51.209311],[-3.136321,51.209847],[-3.131746,51.210818],[-3.1267,51.210996],[-3.126551,51.21139],[-3.125497,51.21136],[-3.125235,51.210794],[-3.123295,51.210278],[-3.121028,51.208642],[-3.11502,51.207119],[-3.113182,51.206951],[-3.107189,51.207959],[-3.106178,51.207804],[-3.103259,51.208469],[-3.10057,51.208156],[-3.096299,51.206778],[-3.094022,51.206558],[-3.090248,51.205596],[-3.080618,51.201928],[-3.076322,51.201252],[-3.071012,51.201415],[-3.059388,51.203834],[-3.047238,51.209228],[-3.034836,51.21613],[-3.029631,51.218462],[-3.028532,51.217943],[-3.025819,51.218575],[-3.022948,51.21861],[-3.020316,51.218147],[-3.020216,51.217358],[-3.020836,51.21602],[-3.020604,51.215757],[-3.024618,51.212889],[-3.02505,51.21308],[-3.024997,51.212765],[-3.025844,51.212763],[-3.025704,51.21371],[-3.02639,51.215301],[-3.025963,51.21373],[-3.026625,51.213644],[-3.025985,51.213591],[-3.025854,51.213311],[-3.02674,51.212891],[-3.026195,51.212911],[-3.025697,51.212425],[-3.026347,51.212233],[-3.029241,51.209013],[-3.026342,51.211861],[-3.025248,51.212452],[-3.024882,51.212362],[-3.025921,51.209749],[-3.025713,51.208913],[-3.026887,51.208685],[-3.025899,51.208441],[-3.027063,51.207774],[-3.026106,51.20782],[-3.026694,51.206492],[-3.027253,51.206519],[-3.026492,51.206157],[-3.027448,51.205599],[-3.026887,51.204879],[-3.027655,51.204785],[-3.027111,51.204248],[-3.027253,51.203777],[-3.027744,51.20366],[-3.02729,51.203375],[-3.027794,51.203149],[-3.027361,51.202933],[-3.027451,51.202546],[-3.028149,51.202574],[-3.027557,51.202194],[-3.027909,51.200369],[-3.028538,51.199684],[-3.029252,51.199844],[-3.030179,51.2011],[-3.029802,51.20043],[-3.030758,51.200335],[-3.029619,51.200049],[-3.030233,51.199865],[-3.035473,51.200335],[-3.036547,51.202561],[-3.036057,51.200404],[-3.037938,51.200683],[-3.039862,51.204364],[-3.038701,51.200839],[-3.042506,51.201581],[-3.045122,51.202934],[-3.043218,51.201632],[-3.045238,51.20108],[-3.0487,51.20101],[-3.051192,51.20153],[-3.048874,51.200837],[-3.04626,51.200724],[-3.050301,51.198625],[-3.052808,51.19844],[-3.0556,51.198827],[-3.05322,51.198297],[-3.050927,51.198253],[-3.054774,51.19568],[-3.057695,51.194226],[-3.060157,51.193465],[-3.061175,51.193845],[-3.060206,51.193443],[-3.060579,51.193373],[-3.063303,51.194139],[-3.066187,51.192374],[-3.065982,51.191787],[-3.064369,51.191709],[-3.063207,51.191078],[-3.062306,51.191134],[-3.061522,51.191512],[-3.060486,51.193289],[-3.059055,51.192894],[-3.059959,51.193389],[-3.058124,51.193723],[-3.056159,51.194551],[-3.057198,51.193424],[-3.057387,51.192426],[-3.058099,51.192392],[-3.057425,51.192311],[-3.057782,51.191008],[-3.059498,51.19238],[-3.060445,51.192115],[-3.061182,51.191232],[-3.058283,51.189611],[-3.055698,51.189661],[-3.054738,51.19019],[-3.054771,51.190836],[-3.055402,51.19101],[-3.056853,51.190725],[-3.057623,51.190969],[-3.055973,51.194355],[-3.052067,51.196928],[-3.052196,51.194463],[-3.051917,51.196364],[-3.051203,51.197476],[-3.04811,51.199225],[-3.048502,51.197928],[-3.048188,51.195291],[-3.048042,51.198399],[-3.04655,51.200021],[-3.043885,51.20096],[-3.041798,51.200818],[-3.043415,51.199593],[-3.044247,51.196973],[-3.043051,51.199541],[-3.041726,51.200513],[-3.040663,51.200563],[-3.037992,51.199867],[-3.039825,51.199322],[-3.041186,51.197939],[-3.039637,51.199185],[-3.038775,51.199478],[-3.037138,51.19969],[-3.03481,51.199361],[-3.038487,51.197318],[-3.034949,51.198764],[-3.034849,51.197258],[-3.035574,51.195995],[-3.03456,51.197279],[-3.034498,51.198694],[-3.033845,51.199076],[-3.029868,51.199333],[-3.029804,51.197954],[-3.030421,51.196744],[-3.033213,51.194162],[-3.035559,51.19363],[-3.039508,51.194191],[-3.041912,51.194916],[-3.045172,51.194595],[-3.04837,51.192016],[-3.053126,51.189494],[-3.055317,51.187772],[-3.056874,51.185772],[-3.059818,51.178944],[-3.057889,51.175482],[-3.059673,51.174956],[-3.060128,51.174328],[-3.059793,51.174163],[-3.059535,51.174641],[-3.058219,51.175062],[-3.058294,51.174695],[-3.05743,51.174843],[-3.043499,51.16407],[-3.040384,51.162906],[-3.036407,51.162464],[-3.033219,51.163082],[-3.030248,51.164836],[-3.029045,51.166108],[-3.028327,51.169097],[-3.029213,51.173769],[-3.028807,51.174496],[-3.027722,51.175069],[-3.023997,51.175798],[-3.020425,51.175957],[-3.011608,51.173887],[-3.009563,51.173122],[-3.007393,51.171406],[-3.005466,51.168743],[-3.003498,51.16682],[-3.003778,51.165549],[-3.005605,51.163598],[-3.005621,51.162998],[-3.004553,51.161972],[-3.002497,51.160968],[-2.995836,51.160767],[-2.991129,51.162092],[-2.98966,51.161196],[-2.992359,51.156567],[-2.991617,51.153933],[-2.997409,51.153162],[-2.998859,51.152504],[-2.999477,51.151689],[-2.999301,51.15081],[-2.99825,51.149928],[-2.99913,51.149632],[-2.998019,51.149784],[-2.997141,51.148593],[-2.99749,51.147694],[-2.999235,51.145918],[-2.999181,51.144972],[-2.997245,51.144374],[-2.995292,51.144862],[-2.993693,51.144869],[-2.992602,51.143934],[-2.993235,51.141621],[-2.997919,51.140102],[-3.002582,51.137371],[-3.002324,51.135408],[-3.003661,51.133542],[-3.001582,51.131562],[-3.001387,51.128926],[-2.998506,51.125519],[-2.996107,51.120341],[-2.995805,51.118887],[-2.99311,51.116661],[-2.987901,51.115867],[-2.984489,51.116568],[-2.981941,51.115422],[-2.979236,51.114845],[-2.977905,51.113667],[-2.973899,51.111371],[-2.972978,51.107968],[-2.971009,51.106395],[-2.970452,51.104777],[-2.968519,51.103745],[-2.966183,51.102991],[-2.966204,51.100478],[-2.965456,51.099599],[-2.96023,51.096394],[-2.958548,51.094693],[-2.953845,51.092156],[-2.949073,51.090745],[-2.945186,51.09125],[-2.943249,51.088007],[-2.940068,51.085811],[-2.939167,51.084389],[-2.937998,51.083887],[-2.93491,51.083455],[-2.933626,51.079684],[-2.927964,51.075823],[-2.926855,51.074346],[-2.923844,51.073235],[-2.922417,51.072086],[-2.919873,51.070822],[-2.917197,51.067877],[-2.917322,51.067301],[-2.918516,51.066517],[-2.919186,51.065565],[-2.920975,51.064907],[-2.921452,51.064117],[-2.924945,51.06271],[-2.930191,51.059888],[-2.931707,51.058706],[-2.932109,51.057959],[-2.933321,51.057292],[-2.943828,51.04765],[-2.944881,51.046188],[-2.947275,51.0457],[-2.949327,51.043667],[-2.949969,51.041991],[-2.95073,51.041339],[-2.952458,51.040918],[-2.954326,51.041062],[-2.959067,51.040195],[-2.965788,51.038912],[-2.971141,51.037589],[-2.976095,51.037337],[-2.971385,51.037392],[-2.954247,51.040958],[-2.952626,51.040807],[-2.951171,51.041038],[-2.950009,51.041715],[-2.949147,51.043656],[-2.94709,51.045672],[-2.944815,51.046033],[-2.943507,51.047776],[-2.932826,51.057444],[-2.931725,51.058018],[-2.931344,51.058769],[-2.92506,51.062541],[-2.92144,51.064027],[-2.920824,51.064886],[-2.919197,51.065423],[-2.917122,51.06729],[-2.911797,51.065158],[-2.908327,51.063252],[-2.906906,51.06192],[-2.905288,51.061058],[-2.901759,51.061018],[-2.896713,51.062037],[-2.894965,51.061459],[-2.892781,51.061276],[-2.893394,51.058854],[-2.89266,51.057545],[-2.893212,51.0552],[-2.892949,51.054434],[-2.892463,51.053927],[-2.890556,51.053241],[-2.889511,51.051823],[-2.887937,51.050998],[-2.887605,51.049515],[-2.883919,51.048975],[-2.884055,51.047283],[-2.883503,51.046829],[-2.879374,51.046588],[-2.880521,51.046931],[-2.883498,51.047006],[-2.883872,51.047452],[-2.883807,51.049069],[-2.887432,51.049574],[-2.887719,51.051039],[-2.88942,51.051919],[-2.890413,51.053296],[-2.892238,51.053964],[-2.892802,51.054475],[-2.892563,51.057712],[-2.893163,51.058951],[-2.892531,51.061234],[-2.892722,51.061371],[-2.894799,51.061539],[-2.896697,51.062154],[-2.901776,51.061131],[-2.905643,51.0613],[-2.907834,51.063056],[-2.911548,51.065179],[-2.916796,51.067268],[-2.917322,51.068579],[-2.919662,51.070869],[-2.922387,51.072252],[-2.923394,51.073193],[-2.926809,51.074533],[-2.927874,51.075947],[-2.933707,51.079998],[-2.934903,51.083663],[-2.937614,51.083995],[-2.939165,51.084675],[-2.940008,51.085986],[-2.942783,51.087818],[-2.944946,51.091358],[-2.949402,51.090996],[-2.950633,51.091615],[-2.95433,51.092585],[-2.95792,51.094528],[-2.960046,51.096519],[-2.965537,51.0999],[-2.966121,51.103214],[-2.968396,51.103859],[-2.97022,51.104815],[-2.970792,51.106449],[-2.972663,51.107819],[-2.973454,51.111054],[-2.97405,51.111787],[-2.977819,51.113827],[-2.979459,51.115171],[-2.981874,51.11555],[-2.984404,51.116708],[-2.988292,51.116087],[-2.992493,51.116781],[-2.995055,51.118326],[-2.998284,51.125732],[-3.001234,51.12935],[-3.001265,51.131645],[-3.003203,51.133566],[-3.00192,51.135397],[-3.002082,51.137363],[-2.996626,51.140397],[-2.993553,51.141097],[-2.992628,51.141679],[-2.992069,51.143962],[-2.992601,51.14477],[-2.994014,51.145238],[-2.997722,51.144862],[-2.998696,51.145193],[-2.998557,51.145891],[-2.996834,51.147566],[-2.996479,51.148467],[-2.996871,51.149505],[-2.998574,51.150983],[-2.998806,51.151601],[-2.998081,51.152329],[-2.996663,51.152859],[-2.992787,51.152825],[-2.990913,51.15343],[-2.990233,51.154506],[-2.990951,51.157198],[-2.988652,51.15845],[-2.987805,51.159666],[-2.988274,51.161378],[-2.98989,51.162695],[-2.990848,51.162943],[-2.992934,51.162786],[-2.996342,51.161731],[-3.001538,51.161797],[-3.001288,51.165566],[-3.002079,51.167392],[-3.005868,51.17194],[-3.008936,51.174285],[-3.018718,51.177143],[-3.023566,51.177193],[-3.028872,51.176169],[-3.031095,51.174724],[-3.031649,51.172815],[-3.030892,51.167476],[-3.031329,51.166479],[-3.033871,51.164402],[-3.035601,51.163892],[-3.039575,51.164227],[-3.041261,51.16487],[-3.042948,51.16598],[-3.045178,51.168981],[-3.046903,51.170395],[-3.046871,51.170939],[-3.047437,51.170676],[-3.049375,51.172658],[-3.054891,51.17621],[-3.055923,51.178526],[-3.055536,51.181521],[-3.05351,51.185097],[-3.051017,51.187147],[-3.048042,51.187902],[-3.035214,51.188784],[-3.030425,51.190648],[-3.025919,51.193491],[-3.021116,51.197876],[-3.020296,51.199812],[-3.020455,51.201745],[-3.019897,51.20366],[-3.018285,51.207116],[-3.018002,51.207257],[-3.017099,51.206406],[-3.0158,51.206236],[-3.016306,51.205606],[-3.01596,51.205554],[-3.015973,51.204926],[-3.017189,51.203701],[-3.016237,51.204],[-3.016188,51.20286],[-3.01601,51.204427],[-3.015004,51.206492],[-3.013777,51.206391],[-3.015114,51.207078],[-3.01667,51.207124],[-3.016068,51.208893],[-3.016412,51.208794],[-3.016715,51.20917],[-3.016074,51.210348],[-3.012576,51.213997],[-3.010466,51.217567],[-3.006766,51.220781],[-3.005877,51.220898],[-3.006179,51.221325],[-3.0039,51.221416],[-3.00256,51.222334],[-3.002633,51.223263],[-3.003516,51.224021],[-3.002141,51.226028],[-2.999327,51.2255],[-3.000055,51.224402],[-2.999848,51.223856],[-3.000289,51.222967],[-2.999571,51.222485],[-2.998194,51.2221],[-2.996241,51.222297],[-2.99602,51.222626],[-2.994273,51.222674],[-2.992544,51.221677],[-2.989956,51.221438],[-2.988651,51.220986],[-2.988091,51.220424],[-2.984828,51.220186],[-2.984286,51.220426],[-2.985492,51.22073],[-2.985323,51.221372],[-2.986127,51.220989],[-2.987513,51.221078],[-2.989334,51.221984],[-2.991865,51.222305],[-2.994118,51.223503],[-2.995796,51.223618],[-2.997899,51.223021],[-2.998784,51.223069],[-2.998777,51.223688],[-2.998111,51.223663],[-2.998334,51.223973],[-2.997384,51.224547],[-2.997389,51.225479],[-2.998295,51.226372],[-3.000079,51.226943],[-3.001038,51.22682],[-3.002649,51.227815],[-3.001889,51.230061],[-3.000347,51.232869],[-3.000375,51.234502],[-2.999476,51.236908],[-3.000508,51.241619],[-3.003037,51.244921],[-3.005543,51.247431],[-3.011093,51.251058],[-3.01922,51.260492],[-3.021571,51.26598],[-3.020624,51.273072],[-3.016218,51.288069],[-3.013877,51.297765],[-3.011914,51.311254],[-3.011433,51.31744],[-3.011729,51.319909],[-3.013041,51.322636],[-3.014084,51.323461],[-3.017077,51.323149],[-3.019557,51.323558],[-3.024509,51.323591],[-3.028141,51.324207],[-3.033651,51.326242],[-3.034886,51.327116],[-3.03547,51.328536],[-3.034483,51.32868],[-3.03223,51.328082],[-3.028414,51.327911],[-3.027481,51.327617]]]]}}]}