{"type":"FeatureCollection","features":[{"type":"Feature","properties":{"slug":"south-gloucestershire","gss_code":"E06000025","name":"South Gloucestershire"},"geometry":{"type":"MultiPolygon","coordinates":[[[[-2.695214,51.522456],[-2.695392,51.522462],[-2.687983,51.529421],[-2.695214,51.522456]]],[[[-2.519722,51.67121],[-2.517654,51.670734],[-2.509891,51.66794],[-2.50905,51.666042],[-2.505607,51.666287],[-2.501371,51.665364],[-2.501677,51.664741],[-2.500798,51.664417],[-2.500079,51.664877],[-2.498529,51.664998],[-2.496358,51.664398],[-2.495108,51.664643],[-2.492536,51.664139],[-2.490921,51.664348],[-2.489646,51.663965],[-2.489853,51.663385],[-2.491064,51.663284],[-2.491667,51.662893],[-2.491659,51.661069],[-2.492755,51.657798],[-2.491741,51.65593],[-2.491344,51.654049],[-2.491601,51.653198],[-2.4931,51.652035],[-2.491888,51.649681],[-2.489429,51.648905],[-2.484941,51.648445],[-2.486461,51.647371],[-2.487597,51.647024],[-2.487981,51.64648],[-2.490892,51.645146],[-2.490675,51.644834],[-2.487262,51.644689],[-2.482152,51.646409],[-2.474718,51.646565],[-2.473059,51.646788],[-2.470962,51.647596],[-2.470335,51.647474],[-2.46579,51.651045],[-2.463714,51.650977],[-2.462748,51.651978],[-2.460442,51.652602],[-2.458779,51.651281],[-2.4558,51.651833],[-2.45595,51.652307],[-2.45252,51.651371],[-2.449207,51.64979],[-2.445656,51.649334],[-2.445042,51.649892],[-2.444803,51.651112],[-2.442986,51.652487],[-2.441889,51.652207],[-2.439505,51.649924],[-2.439092,51.650531],[-2.438568,51.65015],[-2.437732,51.650103],[-2.437006,51.649513],[-2.435483,51.649869],[-2.434344,51.649208],[-2.432103,51.649134],[-2.431588,51.648691],[-2.431822,51.64687],[-2.430663,51.646518],[-2.427318,51.647235],[-2.42621,51.647033],[-2.425946,51.646573],[-2.424135,51.645827],[-2.423506,51.646072],[-2.422031,51.64539],[-2.421205,51.645504],[-2.420183,51.644604],[-2.416758,51.643326],[-2.415898,51.643621],[-2.415182,51.644637],[-2.412863,51.643439],[-2.412342,51.642749],[-2.411748,51.64294],[-2.410273,51.641944],[-2.407157,51.641201],[-2.406978,51.64161],[-2.406427,51.641662],[-2.404713,51.641364],[-2.404088,51.642879],[-2.402671,51.642518],[-2.401168,51.644592],[-2.398803,51.645795],[-2.395834,51.643612],[-2.396565,51.642807],[-2.394783,51.64212],[-2.397142,51.639554],[-2.395783,51.638743],[-2.394815,51.638621],[-2.392569,51.639077],[-2.390164,51.640716],[-2.38999,51.640445],[-2.388441,51.640146],[-2.385989,51.639943],[-2.385365,51.639322],[-2.385351,51.638671],[-2.386116,51.637612],[-2.389992,51.636443],[-2.39135,51.636336],[-2.391548,51.63595],[-2.396315,51.636011],[-2.396999,51.63565],[-2.397442,51.635988],[-2.398349,51.63576],[-2.398742,51.635223],[-2.399359,51.635466],[-2.400475,51.635143],[-2.400457,51.634428],[-2.399695,51.634348],[-2.399252,51.633745],[-2.398353,51.633937],[-2.3975,51.633037],[-2.396662,51.633384],[-2.396569,51.632831],[-2.395306,51.632621],[-2.395009,51.631817],[-2.393656,51.631743],[-2.392969,51.630053],[-2.38891,51.62754],[-2.389547,51.627174],[-2.389165,51.626612],[-2.389579,51.626405],[-2.388971,51.626071],[-2.389434,51.625788],[-2.389509,51.624792],[-2.388934,51.624864],[-2.388441,51.624451],[-2.388616,51.623409],[-2.389535,51.623257],[-2.388885,51.62294],[-2.389625,51.622479],[-2.38885,51.622243],[-2.389579,51.621248],[-2.38924,51.621132],[-2.389541,51.619647],[-2.388931,51.619592],[-2.389928,51.618468],[-2.389301,51.618104],[-2.389357,51.617576],[-2.390018,51.617648],[-2.389875,51.617019],[-2.390729,51.616966],[-2.390003,51.616394],[-2.391594,51.615348],[-2.391235,51.614944],[-2.391697,51.614708],[-2.391249,51.614348],[-2.39184,51.613399],[-2.390771,51.613028],[-2.391008,51.612467],[-2.390259,51.61211],[-2.39057,51.611579],[-2.391807,51.611359],[-2.391669,51.611108],[-2.393187,51.610621],[-2.394164,51.609607],[-2.393851,51.60916],[-2.394451,51.608976],[-2.394548,51.607754],[-2.395186,51.607513],[-2.394447,51.606914],[-2.395434,51.606789],[-2.395064,51.606486],[-2.395428,51.605125],[-2.395032,51.604899],[-2.394908,51.603822],[-2.393887,51.603132],[-2.39449,51.603143],[-2.394906,51.601759],[-2.395297,51.601327],[-2.39566,51.60141],[-2.396479,51.600342],[-2.396022,51.599735],[-2.395174,51.59963],[-2.394489,51.599106],[-2.394775,51.597452],[-2.3931,51.597076],[-2.39187,51.597382],[-2.390013,51.596992],[-2.38842,51.597151],[-2.388128,51.596905],[-2.386848,51.597238],[-2.38551,51.597082],[-2.385135,51.596749],[-2.384287,51.596895],[-2.384087,51.596669],[-2.379965,51.59638],[-2.37579,51.597977],[-2.374762,51.597529],[-2.37043,51.597573],[-2.369864,51.598114],[-2.369963,51.598755],[-2.368734,51.599079],[-2.366948,51.600826],[-2.366702,51.603031],[-2.365642,51.603741],[-2.362365,51.602533],[-2.362944,51.601236],[-2.359858,51.601004],[-2.357539,51.601566],[-2.356829,51.600514],[-2.355096,51.600099],[-2.354809,51.598681],[-2.354115,51.598849],[-2.35403,51.599245],[-2.352786,51.596696],[-2.347192,51.597413],[-2.344019,51.596499],[-2.344112,51.594229],[-2.343366,51.595197],[-2.339479,51.594134],[-2.338256,51.595321],[-2.335252,51.594254],[-2.335048,51.59649],[-2.334176,51.596633],[-2.333292,51.595477],[-2.331144,51.595287],[-2.330376,51.593205],[-2.331179,51.592504],[-2.331063,51.591602],[-2.329195,51.592826],[-2.328587,51.59199],[-2.328402,51.593183],[-2.326749,51.59281],[-2.323824,51.593188],[-2.32265,51.593676],[-2.319847,51.593915],[-2.319383,51.592908],[-2.319667,51.592659],[-2.317736,51.591062],[-2.318732,51.590639],[-2.31759,51.590745],[-2.31657,51.589834],[-2.308253,51.592865],[-2.307874,51.592361],[-2.30861,51.591797],[-2.308148,51.591628],[-2.306102,51.591977],[-2.305598,51.59299],[-2.301787,51.591959],[-2.301337,51.592151],[-2.301012,51.591601],[-2.300098,51.591481],[-2.299621,51.592073],[-2.297885,51.592387],[-2.29687,51.593029],[-2.296438,51.593802],[-2.29655,51.594995],[-2.29439,51.594796],[-2.289854,51.593204],[-2.29023,51.59255],[-2.2893,51.592361],[-2.290448,51.590968],[-2.2927,51.589964],[-2.294086,51.588574],[-2.293029,51.588302],[-2.293425,51.587702],[-2.291873,51.587703],[-2.292106,51.587382],[-2.291005,51.58693],[-2.290528,51.587414],[-2.287672,51.586583],[-2.286008,51.585534],[-2.283503,51.584964],[-2.284593,51.584151],[-2.286551,51.584471],[-2.287278,51.583157],[-2.285756,51.583064],[-2.285285,51.582747],[-2.284933,51.583242],[-2.284411,51.583121],[-2.282072,51.582268],[-2.280888,51.581313],[-2.280716,51.581044],[-2.282049,51.580701],[-2.281278,51.579622],[-2.282746,51.578517],[-2.278669,51.577803],[-2.276562,51.579896],[-2.274329,51.579143],[-2.274473,51.578911],[-2.27263,51.577557],[-2.273959,51.574537],[-2.274001,51.572345],[-2.268669,51.572376],[-2.26349,51.571274],[-2.260286,51.56988],[-2.264132,51.568019],[-2.264419,51.566835],[-2.266612,51.564561],[-2.266061,51.564347],[-2.267428,51.562852],[-2.267281,51.561705],[-2.267998,51.559957],[-2.268472,51.560038],[-2.268749,51.559686],[-2.268033,51.559464],[-2.267731,51.558211],[-2.268533,51.555804],[-2.267841,51.553878],[-2.267215,51.553756],[-2.267179,51.552596],[-2.267589,51.55222],[-2.266894,51.551388],[-2.268411,51.549696],[-2.26398,51.545432],[-2.261778,51.544739],[-2.262323,51.541634],[-2.264949,51.537557],[-2.266523,51.536268],[-2.265697,51.535431],[-2.264105,51.535389],[-2.263286,51.534722],[-2.263403,51.534408],[-2.261972,51.534504],[-2.260278,51.534019],[-2.260546,51.532127],[-2.260047,51.531786],[-2.260362,51.53106],[-2.257668,51.528462],[-2.253399,51.528742],[-2.252131,51.528187],[-2.25241,51.52689],[-2.253342,51.526715],[-2.2539,51.525991],[-2.25498,51.52566],[-2.254848,51.524115],[-2.255904,51.522887],[-2.255823,51.522073],[-2.262691,51.51963],[-2.263602,51.519219],[-2.263719,51.518559],[-2.270397,51.518365],[-2.277563,51.516862],[-2.281294,51.51563],[-2.289587,51.511933],[-2.296401,51.509757],[-2.296699,51.509094],[-2.29634,51.508805],[-2.297193,51.508009],[-2.296307,51.50675],[-2.297393,51.50626],[-2.306075,51.503787],[-2.311891,51.502863],[-2.320917,51.498562],[-2.324276,51.497517],[-2.319218,51.494547],[-2.317546,51.492807],[-2.313743,51.490516],[-2.313113,51.489199],[-2.311718,51.488088],[-2.31153,51.487258],[-2.310424,51.488157],[-2.309716,51.488147],[-2.304402,51.486358],[-2.304225,51.485841],[-2.301781,51.486355],[-2.300511,51.487277],[-2.297464,51.487828],[-2.29558,51.487794],[-2.293692,51.486904],[-2.293021,51.487122],[-2.292319,51.4869],[-2.29132,51.487368],[-2.290558,51.486858],[-2.290591,51.48658],[-2.291337,51.486628],[-2.290586,51.485352],[-2.289633,51.478833],[-2.288851,51.47815],[-2.29034,51.477075],[-2.291245,51.475573],[-2.291616,51.472967],[-2.293401,51.46865],[-2.29282,51.467458],[-2.294005,51.467227],[-2.294581,51.466785],[-2.294594,51.463848],[-2.295743,51.45859],[-2.293336,51.457784],[-2.289244,51.457651],[-2.287754,51.45687],[-2.286749,51.457042],[-2.285246,51.457938],[-2.288069,51.454581],[-2.289065,51.446205],[-2.294642,51.428804],[-2.298819,51.428798],[-2.301653,51.426321],[-2.301467,51.4259],[-2.30363,51.425097],[-2.307849,51.424562],[-2.309935,51.423052],[-2.312616,51.422446],[-2.313784,51.423177],[-2.31316,51.426572],[-2.314233,51.427638],[-2.313849,51.428911],[-2.317684,51.430269],[-2.31815,51.431014],[-2.321103,51.432599],[-2.322149,51.432789],[-2.323487,51.434469],[-2.324156,51.434716],[-2.325028,51.436991],[-2.328615,51.437041],[-2.331853,51.437793],[-2.336072,51.437381],[-2.339398,51.438157],[-2.342037,51.439403],[-2.34329,51.439533],[-2.343535,51.439187],[-2.34695,51.438553],[-2.350633,51.438377],[-2.351794,51.438739],[-2.353837,51.437348],[-2.354993,51.437202],[-2.35767,51.435838],[-2.358835,51.435786],[-2.360356,51.436186],[-2.361043,51.436551],[-2.361474,51.437404],[-2.367219,51.437054],[-2.373232,51.434422],[-2.375899,51.433757],[-2.377254,51.432831],[-2.38034,51.434102],[-2.386042,51.431986],[-2.396699,51.432025],[-2.397188,51.43125],[-2.39907,51.432057],[-2.403099,51.431595],[-2.403163,51.430637],[-2.405759,51.428654],[-2.410596,51.426227],[-2.412944,51.425841],[-2.414764,51.426329],[-2.416364,51.426072],[-2.418177,51.425229],[-2.422922,51.42385],[-2.430146,51.42417],[-2.431383,51.423723],[-2.438444,51.423169],[-2.441298,51.422491],[-2.442796,51.422751],[-2.444007,51.422569],[-2.444456,51.422349],[-2.444106,51.421044],[-2.441524,51.419291],[-2.443428,51.418336],[-2.445874,51.418945],[-2.44591,51.418479],[-2.446654,51.417988],[-2.450638,51.417331],[-2.455837,51.418495],[-2.457513,51.417852],[-2.458456,51.41681],[-2.460934,51.416662],[-2.464308,51.417319],[-2.469645,51.415932],[-2.472181,51.416987],[-2.473501,51.418071],[-2.475325,51.418096],[-2.47636,51.418497],[-2.48104,51.421584],[-2.483059,51.421429],[-2.484864,51.420715],[-2.486423,51.420584],[-2.490008,51.417669],[-2.492314,51.417987],[-2.492896,51.418345],[-2.492564,51.421458],[-2.490319,51.424042],[-2.488643,51.425235],[-2.488435,51.42648],[-2.49151,51.42894],[-2.494251,51.429414],[-2.496139,51.42867],[-2.498605,51.428633],[-2.502493,51.427126],[-2.503975,51.426027],[-2.505721,51.425662],[-2.507985,51.424641],[-2.508468,51.425009],[-2.508056,51.426594],[-2.508288,51.4279],[-2.508998,51.42853],[-2.510462,51.428782],[-2.510701,51.429269],[-2.513436,51.429632],[-2.516991,51.430816],[-2.521664,51.431718],[-2.523542,51.432606],[-2.525355,51.434124],[-2.527044,51.43625],[-2.526449,51.442557],[-2.526751,51.443865],[-2.528322,51.444955],[-2.53078,51.445593],[-2.5361,51.444715],[-2.538059,51.444822],[-2.539225,51.44555],[-2.539122,51.446294],[-2.537681,51.447013],[-2.535606,51.447341],[-2.534768,51.44653],[-2.531666,51.446442],[-2.529931,51.448232],[-2.527229,51.448664],[-2.526124,51.449145],[-2.525129,51.448972],[-2.522278,51.449803],[-2.518937,51.452611],[-2.519177,51.453733],[-2.518594,51.45427],[-2.518463,51.455658],[-2.519215,51.457573],[-2.518603,51.458167],[-2.518463,51.459078],[-2.516228,51.46],[-2.515363,51.459931],[-2.514258,51.461437],[-2.513137,51.461628],[-2.51339,51.462079],[-2.512246,51.462333],[-2.511403,51.465212],[-2.513252,51.465661],[-2.512285,51.468606],[-2.512923,51.469051],[-2.512609,51.4704],[-2.511508,51.47023],[-2.510836,51.471595],[-2.511073,51.472846],[-2.511478,51.474832],[-2.51524,51.481466],[-2.515128,51.481758],[-2.516799,51.485155],[-2.511393,51.48929],[-2.510999,51.489986],[-2.515966,51.492573],[-2.515319,51.493075],[-2.515865,51.493867],[-2.518037,51.492985],[-2.520686,51.492582],[-2.52334,51.49244],[-2.52533,51.493226],[-2.527473,51.492654],[-2.527938,51.493824],[-2.528555,51.494085],[-2.527754,51.494922],[-2.52935,51.496209],[-2.530286,51.496371],[-2.531741,51.495697],[-2.534329,51.496745],[-2.537704,51.497073],[-2.538952,51.495003],[-2.541743,51.495741],[-2.542537,51.49455],[-2.542171,51.49295],[-2.551602,51.492233],[-2.555348,51.492686],[-2.556156,51.494061],[-2.554662,51.496348],[-2.560077,51.496442],[-2.560513,51.49591],[-2.561225,51.495607],[-2.561591,51.495855],[-2.562241,51.495293],[-2.564789,51.495516],[-2.56472,51.496135],[-2.565339,51.496185],[-2.565065,51.497581],[-2.565973,51.498289],[-2.569087,51.499549],[-2.569928,51.499246],[-2.573163,51.500408],[-2.575477,51.500752],[-2.578097,51.500938],[-2.579871,51.50068],[-2.581715,51.50119],[-2.584519,51.502641],[-2.585628,51.501844],[-2.585244,51.501156],[-2.58815,51.501235],[-2.58769,51.503449],[-2.587863,51.504941],[-2.588545,51.50561],[-2.58802,51.50773],[-2.590503,51.508405],[-2.591223,51.509682],[-2.589228,51.511536],[-2.585852,51.512671],[-2.585106,51.512475],[-2.583087,51.512944],[-2.582003,51.514627],[-2.580988,51.517409],[-2.58799,51.517063],[-2.602443,51.513783],[-2.611134,51.513448],[-2.620899,51.514837],[-2.622624,51.514489],[-2.62613,51.51473],[-2.638514,51.512062],[-2.647162,51.512166],[-2.651508,51.512844],[-2.654486,51.513724],[-2.653958,51.514483],[-2.654494,51.514962],[-2.653204,51.516089],[-2.653744,51.518609],[-2.65276,51.519237],[-2.652718,51.519647],[-2.651665,51.51993],[-2.651403,51.520704],[-2.653609,51.523067],[-2.658129,51.526686],[-2.660365,51.527731],[-2.665425,51.530966],[-2.664614,51.531532],[-2.665728,51.533679],[-2.663739,51.534868],[-2.664478,51.536013],[-2.663689,51.536996],[-2.673814,51.544431],[-2.672449,51.545563],[-2.670916,51.544704],[-2.672551,51.545693],[-2.671014,51.547843],[-2.668062,51.554008],[-2.667101,51.558275],[-2.667478,51.559012],[-2.667119,51.56294],[-2.666043,51.566476],[-2.666701,51.567602],[-2.666634,51.568745],[-2.665405,51.568947],[-2.665403,51.569833],[-2.663937,51.573037],[-2.66335,51.573708],[-2.661203,51.574318],[-2.660793,51.574825],[-2.657853,51.575636],[-2.657135,51.575472],[-2.658058,51.575037],[-2.657999,51.574675],[-2.656241,51.573847],[-2.657747,51.574888],[-2.656616,51.575355],[-2.656804,51.576207],[-2.654149,51.578017],[-2.65288,51.579473],[-2.649458,51.581583],[-2.643581,51.585968],[-2.639923,51.589484],[-2.636314,51.59392],[-2.636344,51.59253],[-2.636937,51.592042],[-2.636534,51.591565],[-2.636845,51.591121],[-2.635001,51.590339],[-2.636594,51.59123],[-2.636238,51.591535],[-2.636518,51.592089],[-2.635244,51.593944],[-2.635802,51.595503],[-2.633995,51.597969],[-2.63029,51.601501],[-2.62779,51.605646],[-2.625872,51.605933],[-2.622225,51.607081],[-2.613631,51.610312],[-2.610339,51.611786],[-2.608446,51.613143],[-2.604183,51.614866],[-2.598989,51.61785],[-2.597742,51.617288],[-2.597623,51.616803],[-2.596561,51.616666],[-2.597246,51.617008],[-2.598059,51.618388],[-2.591361,51.622945],[-2.585718,51.627747],[-2.585564,51.628228],[-2.584664,51.628104],[-2.58513,51.627471],[-2.584748,51.627603],[-2.584027,51.628382],[-2.584177,51.62906],[-2.580854,51.633078],[-2.580131,51.633029],[-2.579478,51.632004],[-2.578183,51.631187],[-2.575462,51.631386],[-2.576394,51.631872],[-2.577667,51.631442],[-2.578562,51.631971],[-2.578919,51.633035],[-2.579963,51.634077],[-2.57988,51.634865],[-2.578871,51.638247],[-2.575908,51.641912],[-2.57374,51.646424],[-2.574038,51.64668],[-2.573647,51.647976],[-2.574336,51.648242],[-2.574034,51.648733],[-2.573746,51.648607],[-2.569106,51.655547],[-2.565496,51.658682],[-2.558532,51.666336],[-2.55531,51.668485],[-2.55369,51.669353],[-2.548867,51.670934],[-2.542839,51.673651],[-2.542502,51.673702],[-2.54207,51.672878],[-2.540585,51.672308],[-2.541928,51.673],[-2.542182,51.673891],[-2.534749,51.677302],[-2.533754,51.676466],[-2.519722,51.67121]]]]}}]}