{"type":"FeatureCollection","features":[{"type":"Feature","properties":{"slug":"south-ribble","gss_code":"E07000126","name":"South Ribble"},"geometry":{"type":"Polygon","coordinates":[[[-2.608683,53.778584],[-2.605606,53.779063],[-2.599488,53.781471],[-2.598966,53.781082],[-2.596611,53.780958],[-2.59603,53.780594],[-2.594544,53.780464],[-2.592947,53.779017],[-2.592298,53.779581],[-2.591792,53.779517],[-2.589139,53.78069],[-2.589145,53.781105],[-2.588107,53.780821],[-2.588026,53.781755],[-2.587091,53.782183],[-2.585654,53.78224],[-2.585296,53.782718],[-2.584143,53.781117],[-2.582617,53.779986],[-2.580862,53.775544],[-2.577439,53.774958],[-2.574708,53.77509],[-2.566838,53.777208],[-2.562287,53.77681],[-2.555612,53.777404],[-2.547505,53.775871],[-2.547615,53.771364],[-2.545577,53.769139],[-2.54826,53.767663],[-2.552087,53.766673],[-2.55922,53.763578],[-2.56427,53.761989],[-2.563939,53.760752],[-2.564517,53.757872],[-2.563664,53.757231],[-2.562192,53.756697],[-2.561348,53.756843],[-2.561352,53.756288],[-2.560433,53.756201],[-2.558507,53.756686],[-2.557485,53.757295],[-2.553981,53.757721],[-2.552378,53.757515],[-2.551262,53.756366],[-2.552112,53.755053],[-2.551567,53.75464],[-2.552028,53.754128],[-2.551885,53.753083],[-2.552739,53.752077],[-2.552599,53.751192],[-2.553729,53.750427],[-2.553946,53.749676],[-2.554483,53.749537],[-2.555021,53.749894],[-2.556101,53.749033],[-2.558106,53.749029],[-2.559132,53.747534],[-2.561602,53.746901],[-2.563854,53.748758],[-2.567063,53.749611],[-2.569106,53.749696],[-2.572962,53.751047],[-2.573004,53.751351],[-2.576716,53.751264],[-2.577722,53.750818],[-2.578658,53.748835],[-2.579853,53.747546],[-2.582346,53.746711],[-2.583847,53.745709],[-2.584267,53.745009],[-2.585677,53.744448],[-2.587454,53.743103],[-2.590207,53.742894],[-2.594209,53.743475],[-2.595621,53.743406],[-2.599939,53.742155],[-2.600033,53.74141],[-2.601015,53.740881],[-2.600968,53.740582],[-2.602476,53.740547],[-2.602484,53.739808],[-2.604682,53.738943],[-2.60459,53.738386],[-2.60565,53.738714],[-2.605898,53.738533],[-2.607082,53.739242],[-2.608402,53.738321],[-2.61196,53.738624],[-2.610151,53.73703],[-2.610748,53.737057],[-2.616931,53.732479],[-2.61851,53.732362],[-2.624297,53.729048],[-2.623918,53.725355],[-2.622905,53.723877],[-2.625497,53.722704],[-2.627884,53.720659],[-2.628101,53.719954],[-2.629087,53.719449],[-2.629737,53.718335],[-2.629781,53.717238],[-2.632714,53.718063],[-2.637354,53.718064],[-2.647942,53.715901],[-2.64841,53.715322],[-2.646945,53.714403],[-2.647554,53.714387],[-2.651365,53.712098],[-2.653526,53.712337],[-2.654394,53.712119],[-2.655495,53.712705],[-2.656957,53.712886],[-2.656819,53.713291],[-2.655886,53.713306],[-2.655545,53.713808],[-2.656394,53.71399],[-2.655567,53.714588],[-2.65628,53.71486],[-2.655886,53.715454],[-2.656771,53.716246],[-2.656723,53.717007],[-2.65726,53.717356],[-2.658236,53.717005],[-2.658542,53.71736],[-2.65804,53.717539],[-2.658428,53.717723],[-2.662707,53.715028],[-2.67042,53.711454],[-2.673738,53.709004],[-2.675554,53.706944],[-2.676807,53.70473],[-2.677526,53.700059],[-2.677595,53.69373],[-2.675827,53.693629],[-2.673633,53.692564],[-2.666456,53.691996],[-2.663906,53.691428],[-2.661682,53.691559],[-2.659439,53.691245],[-2.657928,53.690686],[-2.657205,53.688918],[-2.655847,53.68852],[-2.656726,53.687632],[-2.657596,53.68773],[-2.6574,53.687172],[-2.658335,53.686074],[-2.659071,53.682615],[-2.658829,53.680673],[-2.660865,53.680758],[-2.664988,53.681929],[-2.667238,53.681382],[-2.667832,53.680177],[-2.671034,53.679612],[-2.673594,53.680004],[-2.676308,53.679263],[-2.679139,53.679568],[-2.680129,53.679127],[-2.681882,53.679424],[-2.68235,53.679094],[-2.68319,53.679127],[-2.683332,53.679418],[-2.683749,53.679065],[-2.685004,53.679448],[-2.688502,53.679052],[-2.689359,53.679523],[-2.689923,53.679143],[-2.690214,53.679549],[-2.691285,53.679154],[-2.692309,53.679718],[-2.694597,53.679558],[-2.694789,53.679911],[-2.695596,53.67963],[-2.696843,53.680321],[-2.700619,53.680029],[-2.700685,53.680271],[-2.703077,53.680362],[-2.703547,53.680762],[-2.704203,53.680605],[-2.705025,53.68101],[-2.705862,53.680737],[-2.70628,53.681117],[-2.70722,53.681196],[-2.707212,53.681491],[-2.70806,53.681532],[-2.708484,53.681001],[-2.708455,53.678516],[-2.708952,53.678471],[-2.70806,53.676014],[-2.710582,53.676093],[-2.712467,53.67142],[-2.715504,53.671822],[-2.717294,53.672658],[-2.719697,53.673185],[-2.730275,53.673938],[-2.731798,53.67459],[-2.732872,53.674186],[-2.73355,53.674283],[-2.733833,53.674776],[-2.733265,53.677192],[-2.731624,53.679822],[-2.731059,53.681999],[-2.72912,53.683333],[-2.729465,53.683673],[-2.732291,53.684265],[-2.730039,53.686214],[-2.732731,53.686555],[-2.734452,53.687301],[-2.737465,53.68745],[-2.737554,53.68778],[-2.741501,53.688104],[-2.742729,53.687828],[-2.742768,53.687489],[-2.744109,53.687754],[-2.74604,53.692432],[-2.746602,53.692708],[-2.748279,53.692378],[-2.750999,53.69284],[-2.76561,53.69283],[-2.766111,53.692459],[-2.770317,53.691443],[-2.776565,53.690907],[-2.778122,53.691193],[-2.787186,53.691353],[-2.789869,53.690489],[-2.791938,53.689278],[-2.793912,53.689036],[-2.79367,53.688078],[-2.795883,53.687481],[-2.804027,53.688101],[-2.805749,53.687633],[-2.806751,53.686791],[-2.807401,53.686717],[-2.808063,53.687276],[-2.809199,53.68753],[-2.814513,53.687568],[-2.815929,53.687879],[-2.818705,53.687677],[-2.819872,53.687246],[-2.822163,53.687833],[-2.82433,53.68732],[-2.825664,53.687624],[-2.827833,53.68933],[-2.828829,53.690658],[-2.82972,53.693828],[-2.832529,53.69494],[-2.833303,53.696864],[-2.832978,53.69914],[-2.831463,53.700749],[-2.82792,53.70089],[-2.825948,53.700503],[-2.826153,53.700161],[-2.82438,53.701117],[-2.823721,53.70222],[-2.823822,53.703354],[-2.823463,53.703406],[-2.824396,53.707894],[-2.823609,53.708233],[-2.822244,53.708041],[-2.824495,53.708616],[-2.824611,53.709558],[-2.823574,53.710067],[-2.822954,53.709752],[-2.82357,53.710144],[-2.824627,53.709771],[-2.8249,53.711573],[-2.823969,53.711967],[-2.82317,53.711766],[-2.82387,53.712009],[-2.82486,53.711727],[-2.825296,53.714239],[-2.826679,53.71585],[-2.825153,53.716843],[-2.824521,53.715676],[-2.823411,53.71536],[-2.823711,53.716018],[-2.824476,53.715943],[-2.824923,53.717147],[-2.827157,53.716286],[-2.829902,53.71947],[-2.82876,53.720731],[-2.827777,53.720723],[-2.826519,53.719871],[-2.826585,53.720394],[-2.826817,53.720141],[-2.827765,53.72077],[-2.828743,53.720819],[-2.828737,53.721245],[-2.828861,53.720733],[-2.830307,53.719957],[-2.834677,53.723768],[-2.833544,53.724293],[-2.830822,53.7227],[-2.830156,53.722635],[-2.833603,53.724389],[-2.834248,53.724119],[-2.83546,53.724344],[-2.834077,53.725046],[-2.833699,53.724902],[-2.833508,53.72541],[-2.832411,53.725422],[-2.833419,53.725514],[-2.833327,53.725908],[-2.831763,53.726573],[-2.831463,53.727053],[-2.830626,53.726683],[-2.829732,53.726816],[-2.828327,53.728239],[-2.827963,53.727997],[-2.828188,53.728375],[-2.829875,53.726872],[-2.830711,53.726728],[-2.831124,53.727235],[-2.824108,53.730826],[-2.821194,53.730334],[-2.824043,53.730934],[-2.831445,53.727329],[-2.831379,53.728436],[-2.831759,53.727207],[-2.833734,53.726505],[-2.834259,53.725499],[-2.836099,53.724787],[-2.837771,53.725854],[-2.83717,53.725863],[-2.838068,53.726858],[-2.838156,53.726111],[-2.843018,53.729243],[-2.841354,53.729139],[-2.839546,53.728578],[-2.838874,53.72792],[-2.83933,53.728602],[-2.838082,53.728881],[-2.837886,53.728795],[-2.837787,53.729292],[-2.83702,53.729124],[-2.837729,53.729512],[-2.837221,53.729744],[-2.836403,53.729491],[-2.837259,53.729811],[-2.833622,53.730596],[-2.835638,53.730495],[-2.837384,53.729931],[-2.838509,53.728964],[-2.84012,53.728787],[-2.840458,53.729049],[-2.839613,53.729356],[-2.840573,53.729141],[-2.841305,53.729531],[-2.840759,53.729597],[-2.839976,53.730587],[-2.839149,53.730809],[-2.839931,53.730693],[-2.839864,53.731135],[-2.84089,53.732356],[-2.840553,53.733043],[-2.840967,53.73235],[-2.839956,53.731197],[-2.840027,53.730683],[-2.841248,53.729806],[-2.840809,53.730372],[-2.840664,53.730817],[-2.842013,53.729524],[-2.843129,53.72988],[-2.841991,53.731437],[-2.842352,53.732565],[-2.841746,53.732737],[-2.842273,53.73297],[-2.842347,53.733423],[-2.841549,53.734547],[-2.842213,53.734156],[-2.842571,53.732622],[-2.844978,53.733724],[-2.844678,53.734114],[-2.842293,53.734488],[-2.841148,53.735725],[-2.838779,53.735963],[-2.837551,53.735187],[-2.83658,53.735003],[-2.836808,53.734295],[-2.836689,53.733849],[-2.836485,53.734975],[-2.836657,53.735093],[-2.837569,53.735244],[-2.838421,53.735929],[-2.837076,53.735845],[-2.836269,53.736258],[-2.834989,53.736157],[-2.836309,53.736313],[-2.83596,53.736951],[-2.837117,53.73589],[-2.83795,53.736275],[-2.839555,53.736218],[-2.839023,53.736851],[-2.837502,53.737344],[-2.839026,53.736886],[-2.839704,53.736252],[-2.840809,53.736354],[-2.839562,53.736082],[-2.842317,53.735567],[-2.84175,53.735483],[-2.842103,53.734948],[-2.843347,53.734445],[-2.844931,53.734361],[-2.844455,53.734633],[-2.844672,53.735],[-2.8447,53.734553],[-2.84666,53.734889],[-2.846646,53.735904],[-2.846741,53.734904],[-2.844937,53.73451],[-2.845304,53.734182],[-2.846244,53.734166],[-2.845515,53.73416],[-2.845357,53.733399],[-2.843176,53.73256],[-2.842659,53.731854],[-2.843593,53.730378],[-2.844669,53.730112],[-2.845188,53.730191],[-2.845045,53.730211],[-2.844979,53.730266],[-2.845071,53.731085],[-2.845046,53.73024],[-2.845403,53.730177],[-2.845816,53.730304],[-2.845724,53.730649],[-2.845937,53.730322],[-2.847264,53.731018],[-2.846449,53.730942],[-2.845988,53.731572],[-2.844718,53.731923],[-2.845924,53.731652],[-2.846484,53.730989],[-2.847407,53.731024],[-2.848438,53.731529],[-2.847753,53.732287],[-2.848576,53.731619],[-2.8492,53.731896],[-2.847135,53.732909],[-2.849014,53.732277],[-2.849008,53.732886],[-2.848524,53.732913],[-2.848884,53.732974],[-2.848414,53.733261],[-2.848897,53.733031],[-2.849149,53.73277],[-2.849102,53.73225],[-2.849613,53.73201],[-2.850045,53.732161],[-2.849729,53.733301],[-2.850101,53.732189],[-2.851377,53.732591],[-2.850994,53.732653],[-2.851322,53.733673],[-2.85077,53.733504],[-2.849792,53.733744],[-2.850181,53.733902],[-2.850801,53.733527],[-2.851284,53.734078],[-2.848442,53.734714],[-2.850659,53.734417],[-2.850584,53.734678],[-2.850051,53.734672],[-2.849612,53.734937],[-2.849255,53.734858],[-2.849037,53.735114],[-2.849366,53.734891],[-2.849531,53.735207],[-2.850183,53.734687],[-2.850417,53.734876],[-2.851383,53.73411],[-2.851524,53.732867],[-2.853734,53.733792],[-2.852377,53.734882],[-2.853758,53.733902],[-2.855388,53.735129],[-2.849066,53.737577],[-2.840725,53.739801],[-2.841281,53.738986],[-2.841772,53.738976],[-2.841109,53.738951],[-2.840259,53.739958],[-2.839408,53.739998],[-2.839857,53.739252],[-2.839327,53.739939],[-2.839205,53.739297],[-2.83775,53.738832],[-2.83917,53.739314],[-2.839357,53.740123],[-2.833652,53.741472],[-2.832489,53.741208],[-2.832566,53.740596],[-2.833503,53.740239],[-2.835158,53.739198],[-2.83352,53.740179],[-2.832754,53.74023],[-2.832242,53.740969],[-2.832758,53.741681],[-2.82676,53.742857],[-2.826084,53.74217],[-2.826182,53.741434],[-2.830024,53.740715],[-2.830999,53.740123],[-2.831123,53.739597],[-2.831643,53.739519],[-2.831098,53.739572],[-2.830085,53.740666],[-2.829199,53.740828],[-2.82925,53.740646],[-2.829156,53.740477],[-2.828849,53.740167],[-2.828145,53.739728],[-2.827926,53.739656],[-2.827679,53.73971],[-2.826509,53.740284],[-2.827932,53.73969],[-2.829192,53.740748],[-2.826149,53.741312],[-2.825809,53.74218],[-2.826217,53.743026],[-2.823564,53.743544],[-2.823346,53.743368],[-2.823491,53.743543],[-2.822698,53.74378],[-2.821836,53.743843],[-2.821458,53.743524],[-2.821757,53.743855],[-2.820742,53.744316],[-2.81785,53.743177],[-2.818361,53.741897],[-2.819208,53.74189],[-2.819902,53.741241],[-2.818945,53.741873],[-2.818228,53.741762],[-2.818089,53.739714],[-2.818634,53.739273],[-2.820834,53.738673],[-2.823612,53.73843],[-2.820561,53.738536],[-2.818642,53.7391],[-2.817847,53.739625],[-2.817094,53.739462],[-2.817751,53.739766],[-2.817814,53.741603],[-2.817354,53.742067],[-2.817399,53.743048],[-2.816732,53.743265],[-2.817775,53.743544],[-2.81714,53.743743],[-2.818054,53.74352],[-2.819516,53.743934],[-2.819994,53.744257],[-2.819834,53.744858],[-2.801955,53.748985],[-2.782583,53.752768],[-2.774933,53.753348],[-2.773949,53.748061],[-2.77439,53.753355],[-2.764126,53.754906],[-2.757311,53.756363],[-2.757063,53.755694],[-2.752447,53.756874],[-2.733238,53.757603],[-2.72511,53.756913],[-2.722761,53.756332],[-2.72153,53.755617],[-2.720921,53.755998],[-2.720027,53.75551],[-2.718309,53.753479],[-2.716788,53.749516],[-2.714669,53.748579],[-2.710676,53.747626],[-2.708536,53.747912],[-2.706867,53.748895],[-2.705833,53.74909],[-2.704338,53.750233],[-2.701163,53.751163],[-2.696268,53.751581],[-2.690343,53.748915],[-2.684914,53.748816],[-2.681531,53.746493],[-2.679875,53.745772],[-2.678622,53.745628],[-2.676741,53.746031],[-2.673299,53.746006],[-2.67667,53.746142],[-2.679493,53.745771],[-2.680884,53.746278],[-2.684673,53.748967],[-2.680732,53.751889],[-2.679442,53.752478],[-2.678158,53.75252],[-2.674942,53.750193],[-2.673207,53.749372],[-2.668276,53.748229],[-2.664937,53.748457],[-2.662941,53.749208],[-2.661701,53.750052],[-2.662007,53.750224],[-2.661293,53.750626],[-2.659592,53.75288],[-2.659133,53.753952],[-2.659191,53.756992],[-2.658411,53.758873],[-2.656568,53.760558],[-2.654622,53.761025],[-2.651835,53.761014],[-2.646639,53.759966],[-2.645293,53.76012],[-2.644334,53.760564],[-2.643851,53.761237],[-2.644015,53.764632],[-2.643433,53.76555],[-2.641797,53.765881],[-2.63543,53.765717],[-2.630611,53.766653],[-2.626557,53.767828],[-2.622219,53.770757],[-2.621421,53.772644],[-2.62252,53.774372],[-2.627531,53.777354],[-2.633867,53.779508],[-2.634995,53.780159],[-2.635228,53.780946],[-2.63457,53.782023],[-2.633707,53.782535],[-2.630372,53.782765],[-2.625198,53.78179],[-2.619801,53.779643],[-2.611809,53.778646],[-2.608683,53.778584]]]}}]}