{"type":"FeatureCollection","features":[{"type":"Feature","properties":{"slug":"south-kesteven","gss_code":"E07000141","name":"South Kesteven"},"geometry":{"type":"Polygon","coordinates":[[[-0.690265,53.059049],[-0.687946,53.059214],[-0.687511,53.058954],[-0.684841,53.058805],[-0.681454,53.058906],[-0.680938,53.058001],[-0.675791,53.058272],[-0.670445,53.05813],[-0.670143,53.057852],[-0.667334,53.057771],[-0.66738,53.057496],[-0.661404,53.05711],[-0.661997,53.054996],[-0.648208,53.053756],[-0.648632,53.053175],[-0.644288,53.052581],[-0.644142,53.052905],[-0.636009,53.052351],[-0.635954,53.052655],[-0.637417,53.05334],[-0.637085,53.053806],[-0.637345,53.054679],[-0.604142,53.052154],[-0.603793,53.051151],[-0.601757,53.051112],[-0.601775,53.049562],[-0.597654,53.049399],[-0.596495,53.048156],[-0.593344,53.048065],[-0.593351,53.047435],[-0.592076,53.047334],[-0.591325,53.047785],[-0.589355,53.047598],[-0.589411,53.046604],[-0.584939,53.045677],[-0.584527,53.046246],[-0.580255,53.046135],[-0.579837,53.04711],[-0.574093,53.046995],[-0.574187,53.049258],[-0.573596,53.049619],[-0.565632,53.049298],[-0.53565,53.049755],[-0.522814,53.049642],[-0.531942,52.989817],[-0.526091,52.989654],[-0.523518,52.988186],[-0.52677,52.986448],[-0.52557,52.985314],[-0.528305,52.9837],[-0.526057,52.982124],[-0.526842,52.980829],[-0.526748,52.97695],[-0.531059,52.975752],[-0.528458,52.971206],[-0.526173,52.969387],[-0.540388,52.967334],[-0.54308,52.971643],[-0.554099,52.954431],[-0.550002,52.95417],[-0.545025,52.954679],[-0.540502,52.954356],[-0.533811,52.955119],[-0.529901,52.956287],[-0.526712,52.955735],[-0.524734,52.958721],[-0.523788,52.958448],[-0.522501,52.959901],[-0.52115,52.959099],[-0.517846,52.960288],[-0.515212,52.957521],[-0.512615,52.951594],[-0.512184,52.951651],[-0.511311,52.950556],[-0.510006,52.947573],[-0.507641,52.947757],[-0.508042,52.949311],[-0.502104,52.951042],[-0.494595,52.954063],[-0.493828,52.953575],[-0.49286,52.951982],[-0.494276,52.951723],[-0.494135,52.948333],[-0.489672,52.946931],[-0.489146,52.946515],[-0.487908,52.943916],[-0.487179,52.939512],[-0.482866,52.939384],[-0.482719,52.937679],[-0.483724,52.937699],[-0.483386,52.933769],[-0.481532,52.933922],[-0.48094,52.932349],[-0.479881,52.932685],[-0.479498,52.930882],[-0.479849,52.929771],[-0.481582,52.929827],[-0.481657,52.92802],[-0.486866,52.928053],[-0.485997,52.926089],[-0.486286,52.924962],[-0.487563,52.925174],[-0.488362,52.924042],[-0.48828,52.92191],[-0.487905,52.921911],[-0.48761,52.920582],[-0.493975,52.920738],[-0.492437,52.917777],[-0.489009,52.913239],[-0.488244,52.913171],[-0.486646,52.911788],[-0.483479,52.910864],[-0.481786,52.907998],[-0.479884,52.906422],[-0.476926,52.905615],[-0.477136,52.905448],[-0.472064,52.905435],[-0.47182,52.904193],[-0.469756,52.901188],[-0.454668,52.9014],[-0.447591,52.900501],[-0.445332,52.900572],[-0.44416,52.898991],[-0.443549,52.896278],[-0.441887,52.894823],[-0.44237,52.894432],[-0.440739,52.892639],[-0.437341,52.886996],[-0.430754,52.888848],[-0.427874,52.888663],[-0.42712,52.890434],[-0.41433,52.891272],[-0.410406,52.891867],[-0.398719,52.89442],[-0.391283,52.896518],[-0.391297,52.897253],[-0.383458,52.89865],[-0.382546,52.898417],[-0.375068,52.898461],[-0.371487,52.897724],[-0.365824,52.897931],[-0.366068,52.901164],[-0.360825,52.901939],[-0.360706,52.903822],[-0.359022,52.908453],[-0.358942,52.90991],[-0.358145,52.909979],[-0.358551,52.911664],[-0.357523,52.911868],[-0.357893,52.915651],[-0.341828,52.916535],[-0.339261,52.91695],[-0.32283,52.91753],[-0.314432,52.916402],[-0.310385,52.915012],[-0.292877,52.910772],[-0.290546,52.91081],[-0.283716,52.910059],[-0.278858,52.910031],[-0.275413,52.909596],[-0.256496,52.905883],[-0.269519,52.876957],[-0.25857,52.872321],[-0.258431,52.870241],[-0.256554,52.868361],[-0.257248,52.866768],[-0.25765,52.8667],[-0.260778,52.868131],[-0.264667,52.868677],[-0.264759,52.870193],[-0.265862,52.871194],[-0.270888,52.872108],[-0.276293,52.861688],[-0.275035,52.840867],[-0.272087,52.832589],[-0.269489,52.811088],[-0.266042,52.792836],[-0.264845,52.790261],[-0.264023,52.789507],[-0.26411,52.787455],[-0.262174,52.787071],[-0.260687,52.781134],[-0.260619,52.779503],[-0.261787,52.777089],[-0.260617,52.77146],[-0.260833,52.770759],[-0.262544,52.769184],[-0.265878,52.767806],[-0.286703,52.756111],[-0.288466,52.754573],[-0.30452,52.746056],[-0.30681,52.745272],[-0.305988,52.744683],[-0.305278,52.74474],[-0.304617,52.744043],[-0.30668,52.743436],[-0.297322,52.733633],[-0.295276,52.734244],[-0.27832,52.716501],[-0.281277,52.714264],[-0.26718,52.699086],[-0.265012,52.700879],[-0.26369,52.701],[-0.255766,52.692611],[-0.250422,52.69447],[-0.248757,52.693043],[-0.248092,52.693258],[-0.223208,52.666762],[-0.219911,52.667731],[-0.21561,52.667883],[-0.214025,52.668291],[-0.212501,52.666679],[-0.217917,52.667123],[-0.224008,52.665662],[-0.230239,52.663631],[-0.238306,52.660219],[-0.238893,52.660583],[-0.255567,52.653658],[-0.258665,52.651645],[-0.258933,52.651931],[-0.260244,52.651444],[-0.261238,52.651484],[-0.263577,52.652507],[-0.263794,52.653897],[-0.266197,52.654702],[-0.267483,52.655854],[-0.268961,52.65635],[-0.269997,52.657288],[-0.269736,52.657592],[-0.270336,52.659442],[-0.273075,52.659479],[-0.274879,52.660704],[-0.276023,52.661873],[-0.276207,52.662652],[-0.277788,52.663301],[-0.278876,52.664621],[-0.279083,52.666004],[-0.282261,52.667171],[-0.286849,52.66803],[-0.28842,52.669782],[-0.289502,52.670345],[-0.291664,52.670373],[-0.293396,52.669457],[-0.294554,52.669346],[-0.297309,52.670601],[-0.309972,52.673478],[-0.320524,52.675104],[-0.321173,52.675021],[-0.32103,52.674504],[-0.320518,52.674295],[-0.320021,52.674749],[-0.319517,52.674307],[-0.320737,52.673671],[-0.32411,52.674379],[-0.325467,52.674296],[-0.326292,52.673885],[-0.32755,52.674212],[-0.330237,52.673476],[-0.330677,52.673913],[-0.331695,52.67379],[-0.331516,52.674341],[-0.333114,52.674837],[-0.335037,52.674866],[-0.336246,52.674116],[-0.336138,52.672681],[-0.337357,52.672384],[-0.336044,52.671535],[-0.337091,52.670488],[-0.336244,52.668639],[-0.337537,52.668243],[-0.338765,52.667202],[-0.339665,52.667184],[-0.339892,52.666143],[-0.340894,52.665507],[-0.34232,52.665523],[-0.342597,52.665958],[-0.343216,52.665767],[-0.343112,52.665133],[-0.344339,52.665456],[-0.344832,52.664174],[-0.346316,52.663566],[-0.346554,52.663143],[-0.349459,52.663155],[-0.350008,52.662791],[-0.350022,52.662111],[-0.350592,52.66205],[-0.350077,52.66167],[-0.350901,52.661462],[-0.352635,52.661785],[-0.352535,52.661464],[-0.354154,52.661194],[-0.355062,52.660616],[-0.355598,52.660884],[-0.356343,52.660466],[-0.356309,52.659986],[-0.356824,52.659939],[-0.356795,52.65952],[-0.35934,52.660064],[-0.360954,52.659565],[-0.363768,52.660337],[-0.365627,52.659825],[-0.366331,52.660134],[-0.367421,52.660059],[-0.367754,52.659574],[-0.3696,52.659268],[-0.370612,52.658291],[-0.371229,52.658414],[-0.373056,52.657448],[-0.373977,52.657656],[-0.373968,52.65707],[-0.374909,52.657943],[-0.37549,52.657924],[-0.375749,52.65716],[-0.376562,52.656989],[-0.377271,52.655727],[-0.378947,52.656183],[-0.380285,52.655595],[-0.382517,52.656132],[-0.383614,52.655767],[-0.383408,52.655201],[-0.383801,52.655476],[-0.384605,52.655286],[-0.384617,52.654454],[-0.386025,52.655024],[-0.387005,52.654834],[-0.386996,52.654372],[-0.387482,52.654481],[-0.389032,52.653958],[-0.391209,52.654004],[-0.391473,52.653747],[-0.393124,52.65413],[-0.395712,52.653337],[-0.395964,52.652567],[-0.396686,52.652383],[-0.399997,52.649638],[-0.401162,52.6496],[-0.403378,52.648727],[-0.404654,52.648655],[-0.405695,52.648056],[-0.410425,52.647781],[-0.413039,52.648386],[-0.414621,52.648244],[-0.41669,52.647581],[-0.417206,52.646812],[-0.419142,52.646783],[-0.419603,52.647056],[-0.420744,52.646852],[-0.423274,52.64808],[-0.423743,52.647572],[-0.424187,52.647842],[-0.42499,52.647484],[-0.425448,52.647838],[-0.425422,52.648548],[-0.426644,52.648813],[-0.427337,52.648598],[-0.428197,52.649106],[-0.430222,52.648995],[-0.432074,52.648297],[-0.435183,52.650211],[-0.436118,52.650327],[-0.436342,52.649852],[-0.437442,52.649866],[-0.438638,52.650815],[-0.440371,52.651491],[-0.440871,52.652296],[-0.442391,52.652227],[-0.443135,52.652707],[-0.445572,52.652963],[-0.448605,52.652943],[-0.450478,52.654125],[-0.45143,52.653934],[-0.452832,52.654275],[-0.453115,52.649272],[-0.456047,52.650009],[-0.45897,52.650225],[-0.467636,52.649899],[-0.475831,52.648715],[-0.474514,52.646685],[-0.475167,52.646134],[-0.476001,52.645964],[-0.475961,52.645451],[-0.475245,52.645058],[-0.48345,52.645427],[-0.48432,52.646129],[-0.485617,52.645155],[-0.485137,52.644443],[-0.4861,52.643527],[-0.4884,52.643735],[-0.489207,52.643454],[-0.490772,52.642288],[-0.49185,52.642017],[-0.491485,52.6415],[-0.495026,52.640236],[-0.499333,52.642511],[-0.5044,52.64624],[-0.504846,52.646672],[-0.503875,52.646801],[-0.504374,52.647981],[-0.505124,52.648287],[-0.506461,52.648199],[-0.507429,52.648907],[-0.512551,52.654758],[-0.512741,52.655023],[-0.512024,52.65495],[-0.511845,52.656341],[-0.514077,52.656787],[-0.523586,52.665234],[-0.521829,52.665387],[-0.521828,52.665785],[-0.52063,52.666503],[-0.519879,52.666238],[-0.519017,52.666526],[-0.506674,52.659526],[-0.506379,52.660423],[-0.505294,52.660934],[-0.504567,52.660403],[-0.50198,52.660686],[-0.496867,52.660419],[-0.493866,52.660717],[-0.494712,52.664632],[-0.490609,52.665033],[-0.490268,52.664422],[-0.481456,52.665836],[-0.481595,52.666045],[-0.48041,52.666568],[-0.476561,52.667061],[-0.476379,52.667377],[-0.473666,52.667535],[-0.466069,52.668863],[-0.45945,52.669101],[-0.459485,52.669563],[-0.456191,52.670393],[-0.454171,52.672692],[-0.451305,52.673947],[-0.449316,52.675282],[-0.446352,52.678614],[-0.441328,52.680491],[-0.440237,52.681764],[-0.438468,52.682955],[-0.434055,52.683705],[-0.434888,52.684733],[-0.434366,52.685684],[-0.433177,52.685483],[-0.432213,52.68803],[-0.432521,52.69073],[-0.430856,52.692007],[-0.430368,52.692908],[-0.430544,52.693928],[-0.428921,52.698065],[-0.428366,52.701243],[-0.428697,52.702662],[-0.429726,52.703289],[-0.430443,52.705422],[-0.433498,52.705848],[-0.435741,52.707038],[-0.444722,52.706173],[-0.443958,52.708025],[-0.450533,52.708034],[-0.451092,52.70958],[-0.453229,52.70927],[-0.457084,52.709682],[-0.459464,52.708406],[-0.460875,52.708108],[-0.463644,52.708494],[-0.465546,52.710289],[-0.467897,52.709782],[-0.470281,52.709775],[-0.480217,52.710971],[-0.48308,52.710658],[-0.489595,52.711057],[-0.493242,52.710284],[-0.494531,52.709653],[-0.495743,52.710806],[-0.499843,52.712112],[-0.502471,52.712152],[-0.504537,52.713349],[-0.505721,52.713605],[-0.506961,52.715956],[-0.509861,52.715354],[-0.511004,52.717713],[-0.510655,52.718919],[-0.512641,52.71968],[-0.516493,52.720253],[-0.519186,52.721014],[-0.525003,52.720977],[-0.533045,52.721583],[-0.538748,52.72311],[-0.542434,52.723281],[-0.542822,52.726052],[-0.540315,52.728773],[-0.538812,52.734055],[-0.539974,52.738402],[-0.544714,52.739612],[-0.547953,52.741039],[-0.553262,52.742542],[-0.560034,52.745472],[-0.566111,52.744988],[-0.569011,52.746618],[-0.569507,52.747532],[-0.57145,52.747874],[-0.571499,52.750498],[-0.572636,52.753109],[-0.580509,52.752878],[-0.583447,52.753877],[-0.589566,52.753775],[-0.59391,52.7519],[-0.59771,52.750993],[-0.605444,52.750493],[-0.608594,52.759713],[-0.611773,52.759824],[-0.615495,52.759329],[-0.62305,52.758953],[-0.627687,52.757694],[-0.627738,52.757987],[-0.628148,52.757974],[-0.639571,52.757173],[-0.645078,52.757274],[-0.656929,52.756673],[-0.662595,52.755493],[-0.663681,52.756801],[-0.664101,52.75671],[-0.668164,52.762062],[-0.66951,52.766296],[-0.672757,52.771437],[-0.674355,52.776754],[-0.675659,52.77754],[-0.675507,52.781018],[-0.676959,52.785693],[-0.67455,52.785527],[-0.674109,52.787768],[-0.677493,52.788359],[-0.677305,52.78999],[-0.681584,52.791129],[-0.683107,52.794683],[-0.682754,52.798961],[-0.680629,52.807213],[-0.682234,52.810711],[-0.682067,52.811774],[-0.686497,52.816289],[-0.687918,52.818255],[-0.6924,52.821781],[-0.695604,52.823565],[-0.698388,52.825999],[-0.703653,52.833672],[-0.705831,52.838053],[-0.706738,52.840819],[-0.709479,52.845079],[-0.718748,52.853902],[-0.721784,52.855907],[-0.724591,52.858825],[-0.729104,52.862163],[-0.733673,52.866922],[-0.73615,52.870091],[-0.736109,52.872966],[-0.739175,52.87695],[-0.740424,52.880045],[-0.742723,52.883157],[-0.745531,52.882792],[-0.747734,52.882975],[-0.750077,52.88395],[-0.757157,52.885984],[-0.757755,52.884276],[-0.759449,52.884613],[-0.760342,52.885198],[-0.761661,52.884555],[-0.766592,52.886798],[-0.766754,52.887496],[-0.766205,52.88843],[-0.76394,52.890859],[-0.763565,52.891995],[-0.764317,52.892478],[-0.763988,52.893645],[-0.762489,52.894458],[-0.762537,52.895118],[-0.761577,52.895723],[-0.759831,52.898728],[-0.758675,52.899493],[-0.758468,52.90049],[-0.75911,52.900717],[-0.761714,52.90049],[-0.761773,52.901332],[-0.763695,52.901075],[-0.763967,52.903142],[-0.768789,52.901954],[-0.770009,52.903717],[-0.773801,52.902536],[-0.776859,52.904809],[-0.775429,52.905758],[-0.774543,52.907343],[-0.77302,52.909041],[-0.771982,52.912512],[-0.768877,52.916281],[-0.769496,52.917122],[-0.768712,52.917433],[-0.769445,52.919607],[-0.768471,52.919895],[-0.768435,52.920624],[-0.766738,52.92149],[-0.767483,52.922464],[-0.766577,52.922946],[-0.762919,52.923796],[-0.765515,52.925881],[-0.766107,52.928026],[-0.765372,52.929775],[-0.761987,52.934082],[-0.761671,52.935367],[-0.762154,52.935835],[-0.760871,52.937732],[-0.759536,52.94135],[-0.756847,52.944597],[-0.757439,52.945484],[-0.757157,52.94561],[-0.757923,52.946321],[-0.755506,52.947132],[-0.755821,52.947776],[-0.75495,52.949556],[-0.755468,52.950539],[-0.755961,52.950581],[-0.755284,52.950726],[-0.755313,52.951379],[-0.756947,52.950993],[-0.75947,52.952846],[-0.759999,52.952712],[-0.76454,52.954936],[-0.770322,52.9569],[-0.773674,52.958505],[-0.774313,52.958111],[-0.776418,52.959135],[-0.778437,52.959314],[-0.778368,52.960344],[-0.777794,52.960705],[-0.779257,52.961333],[-0.778009,52.962833],[-0.778316,52.964951],[-0.777721,52.96706],[-0.777673,52.972063],[-0.778078,52.972159],[-0.777109,52.974578],[-0.778223,52.975033],[-0.777278,52.976035],[-0.777705,52.976264],[-0.777551,52.976643],[-0.778279,52.976923],[-0.776995,52.97786],[-0.777648,52.978435],[-0.776789,52.979005],[-0.777599,52.979593],[-0.777079,52.980042],[-0.777669,52.980389],[-0.776853,52.981431],[-0.777478,52.981692],[-0.777554,52.983807],[-0.778457,52.983699],[-0.779575,52.984977],[-0.780306,52.985115],[-0.780158,52.98644],[-0.780905,52.986427],[-0.78159,52.987374],[-0.782204,52.98759],[-0.78213,52.988473],[-0.784536,52.988568],[-0.784459,52.990145],[-0.788095,52.99177],[-0.787325,52.993207],[-0.789455,52.993938],[-0.789686,52.993651],[-0.790092,52.993815],[-0.790566,52.994612],[-0.791512,52.99503],[-0.791494,52.995429],[-0.792563,52.995884],[-0.791891,52.997475],[-0.793822,52.997866],[-0.794936,52.999967],[-0.795859,53.000594],[-0.800189,53.002194],[-0.800521,53.003827],[-0.80251,53.005361],[-0.802616,53.006385],[-0.80406,53.006385],[-0.804274,53.012246],[-0.803644,53.012955],[-0.802031,53.012113],[-0.798614,53.011011],[-0.795825,53.010598],[-0.788414,53.025853],[-0.785843,53.025741],[-0.784872,53.025183],[-0.780409,53.024402],[-0.776673,53.024711],[-0.773955,53.025535],[-0.770386,53.027318],[-0.760826,53.02941],[-0.758434,53.032387],[-0.758854,53.03517],[-0.757817,53.036477],[-0.756619,53.036676],[-0.757147,53.037865],[-0.755856,53.044],[-0.749552,53.055116],[-0.745628,53.054126],[-0.742833,53.05464],[-0.740684,53.053587],[-0.739735,53.053768],[-0.738825,53.05461],[-0.739132,53.05499],[-0.738563,53.055247],[-0.738049,53.054777],[-0.736962,53.054915],[-0.736559,53.054653],[-0.736057,53.054923],[-0.73425,53.054833],[-0.733372,53.055573],[-0.731075,53.054346],[-0.730025,53.054609],[-0.730221,53.055001],[-0.729102,53.055101],[-0.728416,53.055825],[-0.727542,53.055645],[-0.727333,53.055994],[-0.726708,53.056084],[-0.726702,53.056488],[-0.725589,53.056293],[-0.724931,53.057152],[-0.725363,53.05749],[-0.724692,53.058087],[-0.725089,53.05831],[-0.724122,53.058836],[-0.723259,53.058788],[-0.723548,53.059386],[-0.722598,53.059922],[-0.7198,53.059915],[-0.71897,53.059411],[-0.717841,53.059562],[-0.715509,53.058846],[-0.713924,53.057044],[-0.706397,53.05219],[-0.702706,53.051975],[-0.702455,53.052985],[-0.69936,53.053005],[-0.69829,53.053311],[-0.6937,53.056504],[-0.693698,53.057483],[-0.695197,53.057823],[-0.695225,53.059112],[-0.693089,53.059023],[-0.692743,53.059386],[-0.689889,53.059763],[-0.689381,53.05933],[-0.690265,53.059049]]]}}]}