{"type":"FeatureCollection","features":[{"type":"Feature","properties":{"slug":"south-tyneside","gss_code":"E08000023","name":"South Tyneside"},"geometry":{"type":"Polygon","coordinates":[[[-1.410896,54.998894],[-1.407468,54.995736],[-1.403887,54.993533],[-1.402977,54.993247],[-1.401752,54.993752],[-1.401768,54.993401],[-1.400762,54.993215],[-1.401246,54.992578],[-1.399782,54.991775],[-1.397031,54.99161],[-1.395687,54.991014],[-1.394306,54.990932],[-1.394346,54.990046],[-1.393387,54.989209],[-1.393743,54.988759],[-1.39344,54.988309],[-1.391325,54.988234],[-1.388608,54.988881],[-1.387828,54.987887],[-1.386435,54.987758],[-1.386328,54.987351],[-1.385762,54.987444],[-1.385681,54.986741],[-1.385083,54.986897],[-1.385533,54.986574],[-1.385022,54.986177],[-1.382929,54.985913],[-1.382091,54.986142],[-1.381191,54.985539],[-1.380765,54.985674],[-1.381014,54.985088],[-1.380035,54.984435],[-1.38053,54.984271],[-1.380438,54.98358],[-1.381501,54.983019],[-1.381447,54.982436],[-1.381959,54.982097],[-1.380844,54.980329],[-1.377525,54.977764],[-1.375799,54.976987],[-1.374887,54.976135],[-1.373409,54.975763],[-1.372669,54.975068],[-1.370955,54.974335],[-1.368194,54.97392],[-1.367184,54.972974],[-1.36549,54.973248],[-1.363618,54.971925],[-1.361785,54.971877],[-1.360795,54.970975],[-1.361539,54.970438],[-1.361546,54.969973],[-1.360203,54.968884],[-1.359509,54.968882],[-1.360104,54.968024],[-1.359478,54.967888],[-1.359636,54.967605],[-1.35855,54.966852],[-1.357389,54.966509],[-1.357857,54.965841],[-1.356618,54.965266],[-1.356816,54.9648],[-1.355894,54.962673],[-1.354937,54.961396],[-1.355658,54.960583],[-1.355087,54.958906],[-1.354258,54.957986],[-1.353282,54.957561],[-1.35545,54.955746],[-1.355415,54.954443],[-1.357057,54.95337],[-1.35616,54.950388],[-1.358084,54.948222],[-1.359849,54.947768],[-1.360568,54.946512],[-1.363235,54.945033],[-1.363964,54.944129],[-1.365715,54.94418],[-1.366152,54.942864],[-1.374349,54.943536],[-1.375683,54.93691],[-1.376992,54.937336],[-1.378821,54.936952],[-1.381086,54.9382],[-1.384291,54.938744],[-1.38722,54.938088],[-1.389328,54.938153],[-1.391664,54.938912],[-1.392014,54.939493],[-1.397138,54.939741],[-1.402669,54.938661],[-1.406814,54.937002],[-1.412472,54.935807],[-1.416878,54.933977],[-1.418504,54.932685],[-1.419371,54.929924],[-1.425989,54.930461],[-1.426366,54.931207],[-1.43183,54.92982],[-1.432785,54.932836],[-1.441601,54.932899],[-1.44251,54.933561],[-1.447911,54.933511],[-1.449093,54.934088],[-1.454749,54.933461],[-1.460919,54.931979],[-1.460576,54.930191],[-1.481113,54.929795],[-1.481901,54.929356],[-1.481967,54.928823],[-1.483587,54.928369],[-1.485331,54.928575],[-1.485637,54.92909],[-1.488673,54.930611],[-1.49197,54.930119],[-1.496336,54.93106],[-1.500264,54.930524],[-1.505315,54.930923],[-1.508175,54.930384],[-1.510012,54.930485],[-1.510756,54.930848],[-1.511218,54.931666],[-1.510365,54.932104],[-1.516344,54.94538],[-1.518063,54.947048],[-1.518567,54.952175],[-1.515217,54.956058],[-1.51533,54.95735],[-1.516225,54.958138],[-1.518983,54.959265],[-1.519644,54.957555],[-1.522413,54.957386],[-1.526354,54.958084],[-1.527782,54.957124],[-1.530699,54.957978],[-1.529347,54.963355],[-1.531505,54.964475],[-1.534214,54.964987],[-1.532706,54.969674],[-1.532645,54.973481],[-1.531834,54.977672],[-1.530081,54.980615],[-1.528388,54.982112],[-1.527863,54.982012],[-1.527545,54.982569],[-1.526726,54.982646],[-1.526927,54.983042],[-1.526206,54.982963],[-1.526339,54.98337],[-1.524528,54.984143],[-1.519279,54.985469],[-1.518497,54.985268],[-1.518064,54.985643],[-1.517049,54.985521],[-1.516732,54.985819],[-1.511038,54.986177],[-1.511038,54.985943],[-1.49372,54.986173],[-1.491991,54.985862],[-1.479335,54.985753],[-1.475585,54.986526],[-1.472368,54.986182],[-1.472658,54.983935],[-1.471891,54.983318],[-1.471333,54.981804],[-1.46953,54.980833],[-1.470194,54.980102],[-1.47297,54.97978],[-1.476123,54.978819],[-1.477966,54.977556],[-1.478878,54.975788],[-1.480486,54.974901],[-1.478808,54.975729],[-1.477934,54.977373],[-1.476329,54.978612],[-1.47287,54.979603],[-1.471404,54.979503],[-1.470299,54.979859],[-1.466325,54.979578],[-1.464618,54.979041],[-1.463583,54.979081],[-1.463017,54.979567],[-1.458732,54.979158],[-1.456914,54.978695],[-1.456554,54.977436],[-1.456832,54.978706],[-1.458548,54.979177],[-1.463058,54.979649],[-1.463593,54.979184],[-1.464573,54.979149],[-1.465797,54.979538],[-1.469398,54.980036],[-1.469082,54.980914],[-1.471923,54.984016],[-1.472262,54.985087],[-1.471878,54.986077],[-1.470463,54.985489],[-1.469683,54.98544],[-1.469295,54.985861],[-1.469359,54.985191],[-1.468374,54.984712],[-1.465995,54.984188],[-1.465224,54.984666],[-1.465536,54.984124],[-1.464314,54.98404],[-1.462327,54.984102],[-1.462466,54.984381],[-1.461596,54.984646],[-1.4515,54.986418],[-1.448863,54.986623],[-1.449368,54.98722],[-1.447596,54.989167],[-1.446914,54.989412],[-1.447218,54.989553],[-1.445502,54.991469],[-1.445218,54.991389],[-1.445104,54.991908],[-1.443754,54.991305],[-1.445031,54.992019],[-1.444729,54.992334],[-1.44344,54.99123],[-1.44455,54.99253],[-1.444376,54.992714],[-1.443322,54.991469],[-1.444082,54.992899],[-1.440957,54.994258],[-1.443673,54.993465],[-1.442308,54.994762],[-1.441997,54.994649],[-1.441464,54.995482],[-1.441016,54.995497],[-1.440122,54.99722],[-1.440098,54.998538],[-1.439744,54.998646],[-1.440081,54.99874],[-1.440109,55.000353],[-1.43934,55.00006],[-1.43924,55.000369],[-1.440126,55.000812],[-1.440402,55.001735],[-1.439637,55.003967],[-1.439138,55.003968],[-1.438903,55.004555],[-1.433163,55.006266],[-1.433687,55.006395],[-1.433054,55.006302],[-1.428278,55.007356],[-1.42818,55.006815],[-1.427605,55.006732],[-1.426377,55.007675],[-1.423777,55.008138],[-1.425247,55.007749],[-1.424561,55.006093],[-1.421479,55.004251],[-1.418604,55.003231],[-1.409696,55.008241],[-1.403196,55.009766],[-1.400967,55.011266],[-1.401447,55.010608],[-1.402832,55.009798],[-1.409563,55.008066],[-1.414162,55.005199],[-1.414389,55.003927],[-1.410896,54.998894]]]}}]}