{"type":"FeatureCollection","features":[{"type":"Feature","properties":{"slug":"south-staffordshire","gss_code":"E07000196","name":"South Staffordshire"},"geometry":{"type":"Polygon","coordinates":[[[-2.091669,52.780707],[-2.089277,52.78102],[-2.087147,52.780668],[-2.086032,52.779921],[-2.081606,52.779562],[-2.079328,52.779787],[-2.077663,52.780449],[-2.074731,52.778424],[-2.069988,52.775877],[-2.068469,52.774647],[-2.065964,52.773547],[-2.067803,52.772443],[-2.069381,52.770875],[-2.073228,52.769469],[-2.076164,52.766967],[-2.074363,52.766532],[-2.072676,52.766622],[-2.066424,52.765995],[-2.064134,52.765339],[-2.063284,52.765606],[-2.060541,52.764639],[-2.055971,52.765372],[-2.053483,52.763761],[-2.053888,52.763129],[-2.051596,52.761574],[-2.047626,52.763173],[-2.047142,52.763621],[-2.044515,52.762092],[-2.042766,52.760767],[-2.037355,52.754422],[-2.033708,52.747222],[-2.032348,52.745683],[-2.031285,52.742226],[-2.028965,52.739775],[-2.026802,52.736318],[-2.025326,52.734597],[-2.025791,52.731916],[-2.025249,52.728394],[-2.026035,52.72665],[-2.027034,52.725826],[-2.026255,52.724679],[-2.030625,52.712153],[-2.031083,52.705138],[-2.03691,52.703367],[-2.040964,52.701629],[-2.044954,52.698317],[-2.047664,52.694178],[-2.052018,52.691268],[-2.054632,52.690059],[-2.051647,52.686978],[-2.051419,52.685835],[-2.049687,52.684577],[-2.049144,52.683245],[-2.049128,52.68302],[-2.049739,52.682978],[-2.049481,52.681582],[-2.051908,52.679002],[-2.051355,52.678021],[-2.050042,52.677212],[-2.04766,52.677572],[-2.045858,52.676039],[-2.043004,52.675921],[-2.041759,52.67529],[-2.040633,52.673392],[-2.037673,52.672364],[-2.035617,52.67112],[-2.029806,52.671216],[-2.028262,52.670978],[-2.026435,52.671848],[-2.02524,52.671793],[-2.02391,52.672299],[-2.019132,52.672749],[-2.016793,52.671803],[-2.0158,52.670541],[-2.013216,52.669444],[-2.009993,52.669335],[-2.007019,52.669635],[-2.004918,52.669132],[-2.001224,52.666728],[-2.001707,52.666095],[-2.000716,52.664799],[-2.001084,52.664574],[-2.001105,52.662585],[-2.000367,52.661939],[-2.000804,52.66135],[-2.000486,52.660184],[-1.997646,52.657842],[-1.99772,52.656726],[-1.996771,52.656286],[-1.996261,52.655155],[-1.994119,52.653764],[-1.994455,52.653238],[-1.993493,52.653057],[-1.993375,52.650944],[-1.994131,52.650235],[-1.993626,52.64925],[-1.994254,52.648014],[-1.992863,52.646245],[-1.993026,52.645341],[-1.991829,52.645161],[-1.991604,52.644692],[-1.989946,52.644688],[-1.988384,52.644182],[-1.983767,52.643622],[-1.98655,52.640409],[-1.988687,52.639137],[-1.990917,52.636668],[-1.993207,52.638109],[-1.995472,52.638359],[-2.003756,52.63712],[-2.007569,52.634805],[-2.009437,52.634264],[-2.010018,52.634617],[-2.01247,52.63341],[-2.014329,52.633151],[-2.016374,52.629988],[-2.018996,52.628542],[-2.019457,52.629146],[-2.020155,52.628137],[-2.02413,52.625218],[-2.025475,52.624967],[-2.026626,52.625266],[-2.026696,52.625585],[-2.029533,52.62564],[-2.030848,52.624728],[-2.030573,52.62398],[-2.035535,52.621756],[-2.03182,52.619258],[-2.032132,52.61871],[-2.030173,52.616954],[-2.031263,52.616935],[-2.031888,52.617423],[-2.047379,52.621422],[-2.047643,52.620812],[-2.048486,52.620551],[-2.050718,52.620523],[-2.050592,52.621213],[-2.051865,52.621665],[-2.052105,52.6222],[-2.059341,52.621679],[-2.064,52.620746],[-2.064521,52.619459],[-2.068707,52.618117],[-2.067356,52.613859],[-2.067325,52.612076],[-2.071747,52.612788],[-2.081002,52.611905],[-2.081781,52.61267],[-2.083112,52.612565],[-2.084921,52.613885],[-2.086445,52.617151],[-2.088612,52.61985],[-2.093323,52.61989],[-2.09474,52.620617],[-2.095775,52.621674],[-2.096081,52.622618],[-2.097191,52.623368],[-2.097647,52.624533],[-2.097195,52.625106],[-2.097554,52.626507],[-2.098292,52.626639],[-2.098406,52.627119],[-2.098012,52.627259],[-2.099022,52.62853],[-2.098571,52.631905],[-2.099248,52.632762],[-2.100855,52.633513],[-2.101241,52.635053],[-2.104995,52.635311],[-2.106635,52.634544],[-2.10937,52.634562],[-2.110251,52.635453],[-2.111635,52.635139],[-2.113801,52.637911],[-2.116114,52.637815],[-2.11699,52.63747],[-2.118246,52.637708],[-2.125973,52.637259],[-2.131644,52.637623],[-2.131466,52.63554],[-2.135011,52.632724],[-2.137112,52.629815],[-2.140472,52.630102],[-2.153048,52.629736],[-2.153135,52.627743],[-2.152492,52.627121],[-2.151565,52.624589],[-2.156311,52.623744],[-2.160191,52.621798],[-2.162849,52.621157],[-2.161731,52.61913],[-2.164612,52.619124],[-2.167498,52.620412],[-2.168463,52.619893],[-2.168714,52.619204],[-2.168359,52.61899],[-2.169049,52.618282],[-2.169578,52.61827],[-2.165017,52.616513],[-2.165364,52.616151],[-2.166005,52.616248],[-2.165864,52.615888],[-2.16929,52.615075],[-2.170964,52.614334],[-2.16761,52.611443],[-2.168624,52.611239],[-2.16869,52.610615],[-2.169553,52.610435],[-2.169157,52.609338],[-2.170714,52.609132],[-2.17102,52.610645],[-2.172454,52.610275],[-2.17375,52.609243],[-2.177688,52.607355],[-2.180314,52.604901],[-2.183969,52.606081],[-2.18425,52.606658],[-2.186778,52.606505],[-2.18728,52.609031],[-2.188528,52.609016],[-2.188534,52.608103],[-2.19203,52.608019],[-2.192137,52.606972],[-2.195244,52.607087],[-2.195422,52.606484],[-2.196397,52.606615],[-2.196696,52.60616],[-2.196384,52.60503],[-2.194602,52.605335],[-2.193045,52.603609],[-2.193186,52.602941],[-2.191932,52.603359],[-2.190938,52.602228],[-2.188424,52.594865],[-2.188497,52.59061],[-2.189309,52.588609],[-2.193477,52.58868],[-2.197836,52.588159],[-2.197616,52.589162],[-2.198176,52.589177],[-2.198431,52.588855],[-2.199308,52.588954],[-2.199417,52.58848],[-2.200563,52.58858],[-2.202474,52.58693],[-2.204201,52.586576],[-2.206877,52.586583],[-2.206701,52.585117],[-2.201257,52.585186],[-2.199901,52.583845],[-2.200057,52.583461],[-2.203962,52.583863],[-2.202188,52.58165],[-2.203323,52.581201],[-2.201832,52.578818],[-2.199274,52.579155],[-2.199328,52.578874],[-2.197995,52.579012],[-2.196384,52.577896],[-2.189431,52.57727],[-2.189505,52.576637],[-2.18895,52.576503],[-2.188277,52.574175],[-2.183445,52.576944],[-2.182963,52.57693],[-2.18349,52.57653],[-2.182589,52.574109],[-2.180673,52.5747],[-2.180337,52.574505],[-2.178573,52.57107],[-2.179206,52.571107],[-2.176975,52.566959],[-2.180959,52.566396],[-2.180427,52.565587],[-2.179928,52.565688],[-2.179714,52.565349],[-2.180204,52.56513],[-2.179631,52.56399],[-2.175526,52.564487],[-2.174807,52.560083],[-2.175869,52.559867],[-2.176488,52.557152],[-2.175535,52.554407],[-2.173049,52.554641],[-2.170143,52.556033],[-2.169044,52.554206],[-2.167081,52.553778],[-2.165006,52.553867],[-2.165569,52.555687],[-2.164542,52.555923],[-2.163685,52.555449],[-2.16203,52.555257],[-2.161956,52.554953],[-2.160033,52.55527],[-2.157721,52.554872],[-2.157894,52.554517],[-2.157271,52.554427],[-2.157361,52.55359],[-2.155341,52.553948],[-2.153054,52.553675],[-2.153249,52.554792],[-2.148917,52.554765],[-2.147877,52.554935],[-2.146793,52.55568],[-2.145273,52.554738],[-2.143694,52.555836],[-2.142236,52.557771],[-2.141571,52.557847],[-2.140957,52.558539],[-2.139066,52.558072],[-2.134922,52.554547],[-2.133487,52.554067],[-2.133457,52.553445],[-2.134565,52.551645],[-2.13489,52.551738],[-2.137473,52.54954],[-2.138041,52.549449],[-2.138152,52.54882],[-2.13914,52.548081],[-2.13706,52.547056],[-2.136166,52.545519],[-2.136966,52.545023],[-2.136802,52.543417],[-2.135554,52.543408],[-2.13605,52.541722],[-2.135733,52.540732],[-2.136408,52.54029],[-2.1368,52.538031],[-2.135725,52.537611],[-2.136309,52.537492],[-2.136598,52.536161],[-2.135403,52.536029],[-2.136666,52.534927],[-2.135423,52.534857],[-2.135564,52.534509],[-2.136472,52.534473],[-2.136515,52.53399],[-2.137162,52.534029],[-2.137397,52.533733],[-2.137376,52.533294],[-2.139387,52.532677],[-2.146036,52.529459],[-2.145999,52.528749],[-2.147011,52.528091],[-2.151982,52.526182],[-2.15221,52.525696],[-2.149847,52.524803],[-2.148098,52.523725],[-2.147568,52.524157],[-2.146111,52.523362],[-2.145784,52.523496],[-2.145622,52.522761],[-2.14607,52.522674],[-2.144583,52.521384],[-2.144517,52.519621],[-2.145289,52.517731],[-2.144124,52.517169],[-2.148781,52.514695],[-2.150548,52.514137],[-2.15267,52.515042],[-2.155176,52.515261],[-2.156911,52.5152],[-2.162072,52.51416],[-2.163388,52.514712],[-2.164637,52.514641],[-2.167153,52.513396],[-2.168386,52.513514],[-2.169983,52.513096],[-2.170376,52.513306],[-2.173714,52.512311],[-2.178093,52.511679],[-2.180195,52.51073],[-2.180516,52.510249],[-2.185646,52.50853],[-2.185849,52.508803],[-2.187982,52.508363],[-2.187104,52.507507],[-2.188001,52.50716],[-2.187684,52.506078],[-2.186619,52.504787],[-2.189421,52.504762],[-2.191814,52.503387],[-2.184784,52.500347],[-2.184609,52.500007],[-2.18866,52.494507],[-2.185176,52.494813],[-2.184269,52.49288],[-2.182341,52.493131],[-2.179324,52.488331],[-2.177749,52.485064],[-2.178578,52.482698],[-2.177696,52.47898],[-2.173763,52.474226],[-2.171925,52.472677],[-2.168624,52.472214],[-2.168215,52.47162],[-2.16742,52.471541],[-2.170214,52.468229],[-2.171685,52.465872],[-2.174256,52.46383],[-2.173938,52.461096],[-2.176349,52.455979],[-2.17642,52.454552],[-2.175369,52.453009],[-2.171789,52.441647],[-2.171263,52.44143],[-2.170318,52.439073],[-2.164851,52.430204],[-2.164173,52.427884],[-2.16417,52.423908],[-2.163811,52.423258],[-2.167707,52.42378],[-2.172028,52.425059],[-2.180355,52.425207],[-2.181692,52.424947],[-2.184476,52.426085],[-2.185816,52.426232],[-2.18911,52.425272],[-2.190569,52.424169],[-2.192822,52.423266],[-2.196305,52.424938],[-2.196882,52.425641],[-2.196327,52.427176],[-2.196995,52.427784],[-2.200808,52.427196],[-2.202558,52.427787],[-2.203823,52.428675],[-2.206315,52.429491],[-2.20863,52.429463],[-2.210434,52.42997],[-2.211322,52.430437],[-2.212101,52.432701],[-2.214677,52.431885],[-2.215639,52.432161],[-2.215995,52.433345],[-2.217348,52.43389],[-2.216635,52.434516],[-2.217787,52.434985],[-2.217877,52.435368],[-2.219209,52.435111],[-2.226747,52.435126],[-2.240551,52.436386],[-2.244,52.437378],[-2.248638,52.437769],[-2.254277,52.437637],[-2.256092,52.43715],[-2.260224,52.437212],[-2.261503,52.436941],[-2.261927,52.439337],[-2.262397,52.439453],[-2.262731,52.440705],[-2.264762,52.440381],[-2.266677,52.439218],[-2.268532,52.438559],[-2.269505,52.438616],[-2.272042,52.439722],[-2.275231,52.440253],[-2.279431,52.44341],[-2.285983,52.443721],[-2.286076,52.444601],[-2.287246,52.445246],[-2.286645,52.446049],[-2.287199,52.44666],[-2.291087,52.448457],[-2.294964,52.448948],[-2.286095,52.454752],[-2.291023,52.456728],[-2.290731,52.458496],[-2.289061,52.459325],[-2.288899,52.460641],[-2.288385,52.461048],[-2.289374,52.46139],[-2.289691,52.462721],[-2.291227,52.464032],[-2.291341,52.465508],[-2.29209,52.466697],[-2.294834,52.46951],[-2.294684,52.47073],[-2.295513,52.471692],[-2.294986,52.472061],[-2.29563,52.473892],[-2.302271,52.48026],[-2.306277,52.482732],[-2.307247,52.482489],[-2.309078,52.483211],[-2.31041,52.486192],[-2.311664,52.486709],[-2.312749,52.489209],[-2.308667,52.494496],[-2.307695,52.495149],[-2.307784,52.498368],[-2.306415,52.499754],[-2.30188,52.501287],[-2.298421,52.503286],[-2.296294,52.505654],[-2.296087,52.506808],[-2.293067,52.50951],[-2.293243,52.509987],[-2.29139,52.51168],[-2.288301,52.512895],[-2.286253,52.514162],[-2.281417,52.515537],[-2.273227,52.519199],[-2.27066,52.51995],[-2.261123,52.523914],[-2.261135,52.526818],[-2.263297,52.527532],[-2.269215,52.530689],[-2.264228,52.537008],[-2.260789,52.539518],[-2.256419,52.541731],[-2.260509,52.544381],[-2.26254,52.546707],[-2.26573,52.549313],[-2.26793,52.550151],[-2.276506,52.552028],[-2.281409,52.552523],[-2.282108,52.552711],[-2.282477,52.553396],[-2.279045,52.553192],[-2.278589,52.554388],[-2.274214,52.557406],[-2.271665,52.558712],[-2.26995,52.560246],[-2.268706,52.560468],[-2.267212,52.561491],[-2.265583,52.562083],[-2.260836,52.563158],[-2.261786,52.563824],[-2.26177,52.566355],[-2.26338,52.568016],[-2.262141,52.56854],[-2.261938,52.56906],[-2.262926,52.570429],[-2.270287,52.575569],[-2.271951,52.577291],[-2.272187,52.578676],[-2.272809,52.578605],[-2.273991,52.579809],[-2.278121,52.581795],[-2.278118,52.583017],[-2.278929,52.583547],[-2.281052,52.584296],[-2.289501,52.585584],[-2.294421,52.584953],[-2.295056,52.584628],[-2.29491,52.586175],[-2.294373,52.586177],[-2.294098,52.587269],[-2.294958,52.587374],[-2.294883,52.587855],[-2.296055,52.588314],[-2.30013,52.58881],[-2.299947,52.589329],[-2.300684,52.590232],[-2.299951,52.591244],[-2.298838,52.591918],[-2.300293,52.593027],[-2.302341,52.593364],[-2.306988,52.591441],[-2.308546,52.591094],[-2.318003,52.593466],[-2.322024,52.593636],[-2.323349,52.597717],[-2.324849,52.598905],[-2.325458,52.6],[-2.32401,52.602696],[-2.32416,52.609613],[-2.323628,52.61014],[-2.323351,52.611957],[-2.323799,52.612953],[-2.322034,52.614076],[-2.321077,52.614292],[-2.321062,52.614726],[-2.315752,52.614686],[-2.313462,52.614055],[-2.311004,52.611063],[-2.309601,52.607401],[-2.297781,52.607044],[-2.290656,52.607795],[-2.283387,52.606002],[-2.279305,52.605814],[-2.273584,52.607905],[-2.270859,52.609648],[-2.268001,52.610232],[-2.263235,52.610686],[-2.257318,52.609796],[-2.257322,52.609553],[-2.255804,52.609983],[-2.255566,52.611014],[-2.253151,52.614007],[-2.252057,52.61695],[-2.250511,52.618256],[-2.250901,52.619835],[-2.250111,52.620933],[-2.250118,52.621857],[-2.248912,52.622856],[-2.247793,52.625456],[-2.246681,52.62662],[-2.246,52.628271],[-2.243773,52.629924],[-2.243676,52.63105],[-2.242373,52.632505],[-2.238803,52.634051],[-2.236887,52.636067],[-2.236478,52.63873],[-2.235557,52.639855],[-2.234767,52.643233],[-2.232894,52.647694],[-2.235484,52.648498],[-2.236537,52.650548],[-2.237386,52.651033],[-2.235579,52.652632],[-2.234709,52.655854],[-2.247687,52.65666],[-2.247824,52.656989],[-2.246374,52.657915],[-2.238917,52.661905],[-2.238715,52.663701],[-2.239773,52.664941],[-2.239487,52.666814],[-2.240343,52.668966],[-2.240224,52.671624],[-2.242544,52.673115],[-2.243845,52.675916],[-2.244221,52.678052],[-2.243705,52.679933],[-2.244685,52.680992],[-2.24661,52.681071],[-2.247696,52.683043],[-2.249961,52.682908],[-2.250775,52.682097],[-2.251849,52.681706],[-2.253873,52.681681],[-2.257438,52.681876],[-2.261457,52.682882],[-2.263111,52.682913],[-2.264203,52.682684],[-2.266212,52.681526],[-2.273551,52.679754],[-2.277579,52.680995],[-2.280563,52.681545],[-2.287178,52.681245],[-2.292062,52.682182],[-2.29571,52.683267],[-2.30304,52.682953],[-2.303879,52.684191],[-2.304184,52.685878],[-2.307695,52.690568],[-2.307995,52.693332],[-2.313206,52.693704],[-2.313579,52.695409],[-2.319908,52.695398],[-2.320656,52.697808],[-2.322974,52.700793],[-2.32333,52.70248],[-2.324834,52.705336],[-2.323633,52.706145],[-2.321845,52.709046],[-2.319006,52.711036],[-2.317058,52.713312],[-2.308604,52.720746],[-2.314679,52.724555],[-2.316453,52.728218],[-2.315778,52.730576],[-2.314876,52.731554],[-2.314821,52.732398],[-2.315637,52.73294],[-2.315635,52.735094],[-2.315004,52.736352],[-2.31555,52.737166],[-2.316262,52.737186],[-2.316718,52.737976],[-2.31568,52.738303],[-2.314069,52.737314],[-2.313047,52.737921],[-2.313009,52.7394],[-2.312208,52.740838],[-2.30752,52.739813],[-2.306861,52.740203],[-2.305358,52.739915],[-2.301478,52.740751],[-2.299321,52.740751],[-2.297798,52.742331],[-2.295939,52.743447],[-2.29227,52.742265],[-2.290931,52.743214],[-2.2876,52.743278],[-2.285148,52.74258],[-2.283165,52.740483],[-2.280483,52.740575],[-2.277835,52.741173],[-2.277049,52.742237],[-2.274971,52.742754],[-2.273956,52.739989],[-2.2739,52.737756],[-2.269833,52.737757],[-2.26952,52.738274],[-2.267915,52.737992],[-2.266593,52.737284],[-2.264796,52.73411],[-2.26526,52.73301],[-2.265041,52.7317],[-2.264374,52.730945],[-2.263214,52.73076],[-2.262669,52.729836],[-2.255728,52.730504],[-2.253959,52.728132],[-2.256273,52.727721],[-2.257198,52.725716],[-2.258281,52.724747],[-2.258434,52.720935],[-2.25753,52.71869],[-2.25685,52.717849],[-2.250464,52.715523],[-2.248653,52.715563],[-2.246613,52.715062],[-2.245352,52.715188],[-2.243348,52.716311],[-2.24261,52.717619],[-2.240951,52.718318],[-2.240978,52.718944],[-2.23955,52.720531],[-2.236134,52.721718],[-2.234448,52.723106],[-2.231061,52.72443],[-2.231174,52.724787],[-2.229413,52.724771],[-2.228209,52.725241],[-2.22809,52.725639],[-2.225833,52.726179],[-2.225332,52.725831],[-2.224273,52.726159],[-2.220618,52.725815],[-2.219763,52.72604],[-2.220047,52.726266],[-2.21759,52.729642],[-2.217661,52.731034],[-2.218293,52.731071],[-2.218353,52.732359],[-2.216673,52.732221],[-2.216923,52.732871],[-2.206532,52.732054],[-2.205529,52.732541],[-2.205163,52.732123],[-2.20199,52.731978],[-2.20159,52.733001],[-2.200868,52.732793],[-2.200144,52.733671],[-2.196875,52.734609],[-2.195502,52.734159],[-2.194251,52.733237],[-2.19125,52.733367],[-2.188717,52.73279],[-2.187612,52.732967],[-2.18639,52.734969],[-2.185259,52.73479],[-2.183719,52.735143],[-2.183733,52.735698],[-2.183151,52.735905],[-2.180312,52.736161],[-2.179844,52.737015],[-2.178616,52.736685],[-2.177045,52.738946],[-2.17807,52.740896],[-2.177975,52.743988],[-2.173538,52.744364],[-2.173132,52.744962],[-2.169012,52.744543],[-2.168049,52.743098],[-2.163545,52.741129],[-2.159639,52.743636],[-2.159613,52.745391],[-2.158629,52.746618],[-2.158598,52.74761],[-2.159789,52.749427],[-2.159273,52.749889],[-2.160433,52.750856],[-2.160326,52.75236],[-2.159594,52.752969],[-2.160122,52.753139],[-2.159803,52.753552],[-2.161275,52.75474],[-2.158045,52.754644],[-2.15767,52.75735],[-2.155316,52.758536],[-2.157749,52.759329],[-2.159377,52.760338],[-2.15787,52.762357],[-2.156171,52.763026],[-2.155661,52.764246],[-2.155777,52.768675],[-2.154515,52.771237],[-2.154578,52.771772],[-2.156173,52.772576],[-2.154223,52.773079],[-2.151392,52.77503],[-2.150466,52.778896],[-2.149283,52.780257],[-2.145938,52.781615],[-2.147038,52.782541],[-2.144731,52.783608],[-2.144182,52.783357],[-2.14122,52.784114],[-2.138384,52.783781],[-2.137835,52.78242],[-2.138262,52.781834],[-2.137236,52.7802],[-2.136905,52.778486],[-2.137638,52.778161],[-2.137329,52.777735],[-2.134218,52.777663],[-2.134712,52.775929],[-2.132615,52.775802],[-2.130613,52.776086],[-2.129421,52.775836],[-2.128031,52.774751],[-2.124085,52.773284],[-2.116675,52.769773],[-2.116598,52.769145],[-2.114436,52.768756],[-2.114202,52.769116],[-2.111965,52.769625],[-2.11224,52.770605],[-2.111542,52.771406],[-2.110957,52.771576],[-2.108991,52.771084],[-2.1076,52.771644],[-2.105453,52.770287],[-2.102671,52.769798],[-2.10001,52.773043],[-2.098858,52.773234],[-2.098829,52.774738],[-2.100041,52.775845],[-2.099854,52.777729],[-2.09945,52.779734],[-2.098574,52.7809],[-2.098782,52.782054],[-2.097516,52.782701],[-2.099138,52.784713],[-2.096225,52.785129],[-2.095164,52.786433],[-2.09386,52.786207],[-2.096161,52.78389],[-2.094967,52.782317],[-2.095089,52.78109],[-2.091669,52.780707]]]}}]}