{"type":"FeatureCollection","features":[{"type":"Feature","properties":{"slug":"south-derbyshire","gss_code":"E07000039","name":"South Derbyshire"},"geometry":{"type":"Polygon","coordinates":[[[-1.639268,52.947706],[-1.636174,52.94789],[-1.633101,52.946833],[-1.633091,52.946603],[-1.628534,52.946735],[-1.627505,52.946286],[-1.624838,52.945935],[-1.623544,52.946265],[-1.620976,52.947818],[-1.619463,52.947469],[-1.616563,52.945874],[-1.613846,52.945203],[-1.612953,52.944293],[-1.609926,52.946037],[-1.609398,52.94594],[-1.607137,52.947172],[-1.6058,52.946393],[-1.60656,52.945659],[-1.608304,52.945048],[-1.60732,52.944349],[-1.610095,52.942609],[-1.608831,52.941871],[-1.610054,52.940855],[-1.607332,52.939799],[-1.60413,52.937478],[-1.604126,52.936888],[-1.603285,52.937081],[-1.603037,52.936683],[-1.601704,52.937808],[-1.59795,52.937826],[-1.59621,52.937362],[-1.594186,52.937638],[-1.591978,52.93618],[-1.588701,52.935073],[-1.585309,52.935849],[-1.58454,52.936515],[-1.58301,52.936735],[-1.579867,52.936011],[-1.578059,52.935017],[-1.574276,52.93593],[-1.570137,52.935828],[-1.567162,52.933102],[-1.563378,52.933998],[-1.562074,52.933943],[-1.558562,52.932996],[-1.554601,52.930473],[-1.551095,52.928924],[-1.549463,52.928582],[-1.549401,52.927927],[-1.54734,52.926691],[-1.545728,52.926637],[-1.544068,52.924208],[-1.549692,52.922806],[-1.552912,52.922561],[-1.55107,52.916969],[-1.556835,52.914645],[-1.555645,52.913772],[-1.556403,52.913505],[-1.55555,52.912567],[-1.555972,52.912472],[-1.554035,52.909267],[-1.554602,52.908615],[-1.553853,52.906304],[-1.555212,52.906273],[-1.555146,52.906052],[-1.551153,52.901844],[-1.549994,52.90222],[-1.547477,52.899614],[-1.544975,52.90033],[-1.544219,52.898776],[-1.542434,52.896773],[-1.543072,52.896395],[-1.542433,52.895152],[-1.541082,52.894092],[-1.539638,52.893942],[-1.542059,52.892364],[-1.541667,52.892131],[-1.541691,52.88954],[-1.540371,52.889556],[-1.539662,52.889261],[-1.539904,52.889009],[-1.536906,52.888206],[-1.534353,52.888437],[-1.533963,52.888054],[-1.530674,52.888998],[-1.530833,52.889167],[-1.528417,52.890216],[-1.528097,52.890684],[-1.526372,52.890911],[-1.524743,52.890636],[-1.52426,52.888847],[-1.523198,52.887341],[-1.51583,52.886458],[-1.514612,52.884706],[-1.503112,52.884845],[-1.502779,52.882557],[-1.501645,52.882639],[-1.502004,52.881602],[-1.499495,52.882704],[-1.499143,52.881211],[-1.499995,52.879019],[-1.49989,52.877264],[-1.496834,52.876853],[-1.49668,52.875812],[-1.494972,52.874922],[-1.495367,52.87468],[-1.493524,52.873638],[-1.49512,52.870358],[-1.493667,52.869741],[-1.490357,52.869337],[-1.487528,52.869524],[-1.487537,52.8698],[-1.483827,52.870337],[-1.484422,52.871232],[-1.467662,52.870536],[-1.467153,52.872922],[-1.463757,52.872486],[-1.452903,52.868324],[-1.450651,52.866982],[-1.449908,52.866949],[-1.4471,52.864506],[-1.44485,52.863204],[-1.444878,52.862153],[-1.446227,52.861309],[-1.444087,52.86106],[-1.442135,52.861492],[-1.440882,52.862294],[-1.440809,52.862081],[-1.43908,52.862435],[-1.438212,52.861691],[-1.437907,52.862835],[-1.427681,52.863941],[-1.427955,52.864756],[-1.423567,52.865078],[-1.424995,52.868877],[-1.42614,52.869137],[-1.427527,52.868839],[-1.429778,52.87021],[-1.425821,52.872184],[-1.425182,52.872968],[-1.425407,52.873934],[-1.416465,52.875699],[-1.420093,52.878272],[-1.41959,52.87863],[-1.420484,52.879616],[-1.420362,52.882081],[-1.418913,52.884546],[-1.416736,52.884815],[-1.413779,52.884257],[-1.411661,52.884245],[-1.411006,52.884796],[-1.410376,52.88654],[-1.409734,52.886439],[-1.409863,52.888293],[-1.409283,52.889339],[-1.407588,52.889691],[-1.407584,52.891434],[-1.407898,52.891502],[-1.406508,52.893637],[-1.406505,52.894608],[-1.40592,52.894532],[-1.405826,52.895469],[-1.403103,52.895616],[-1.402949,52.89623],[-1.403491,52.896941],[-1.402772,52.900462],[-1.400335,52.901394],[-1.39364,52.901855],[-1.386729,52.901316],[-1.384881,52.901851],[-1.382997,52.901263],[-1.378358,52.901099],[-1.374498,52.898465],[-1.373109,52.895122],[-1.372066,52.894577],[-1.367878,52.895454],[-1.366121,52.897097],[-1.364661,52.896588],[-1.362444,52.896426],[-1.361813,52.896014],[-1.361546,52.894595],[-1.362876,52.892886],[-1.362117,52.892275],[-1.361396,52.892184],[-1.360288,52.89258],[-1.358682,52.89523],[-1.357629,52.895109],[-1.35607,52.89416],[-1.355408,52.89298],[-1.356382,52.89164],[-1.35545,52.891558],[-1.355335,52.891074],[-1.356057,52.890372],[-1.356922,52.890407],[-1.35709,52.889855],[-1.354924,52.889293],[-1.354415,52.888764],[-1.351426,52.889118],[-1.349441,52.88901],[-1.348333,52.888747],[-1.347792,52.887774],[-1.34734,52.887687],[-1.345178,52.888857],[-1.345167,52.889525],[-1.346516,52.890273],[-1.346072,52.890793],[-1.34476,52.890708],[-1.344718,52.890021],[-1.342798,52.889578],[-1.341126,52.890129],[-1.339532,52.889745],[-1.338887,52.889322],[-1.338902,52.888813],[-1.341772,52.887484],[-1.340957,52.886221],[-1.341917,52.885255],[-1.344356,52.885035],[-1.347406,52.885896],[-1.348124,52.885804],[-1.348299,52.885145],[-1.347058,52.883999],[-1.346797,52.882798],[-1.347509,52.882017],[-1.34982,52.881126],[-1.349973,52.880688],[-1.34844,52.879848],[-1.347028,52.879684],[-1.344952,52.880657],[-1.343628,52.880743],[-1.342551,52.879344],[-1.340344,52.879366],[-1.33667,52.878679],[-1.336144,52.878375],[-1.335452,52.876339],[-1.332891,52.876739],[-1.33009,52.878168],[-1.329697,52.87783],[-1.330394,52.877014],[-1.330274,52.875679],[-1.328721,52.874708],[-1.326914,52.874318],[-1.325731,52.875377],[-1.321972,52.876403],[-1.320167,52.875931],[-1.319539,52.875203],[-1.320262,52.874697],[-1.320595,52.873562],[-1.32135,52.873349],[-1.323742,52.873725],[-1.323878,52.872987],[-1.322824,52.872361],[-1.319307,52.872869],[-1.319047,52.87],[-1.319328,52.869498],[-1.323055,52.868305],[-1.324556,52.866359],[-1.325716,52.865913],[-1.328242,52.865834],[-1.330799,52.867019],[-1.332967,52.86713],[-1.337339,52.864951],[-1.33914,52.864578],[-1.340309,52.864986],[-1.341341,52.866534],[-1.342655,52.867565],[-1.343538,52.867777],[-1.344759,52.867589],[-1.345535,52.86724],[-1.346245,52.866281],[-1.346303,52.864536],[-1.345207,52.863882],[-1.343172,52.863559],[-1.342714,52.862824],[-1.34709,52.861481],[-1.348393,52.859243],[-1.352263,52.85769],[-1.352735,52.856486],[-1.350834,52.855307],[-1.350618,52.853611],[-1.351819,52.852998],[-1.352718,52.853033],[-1.354717,52.855822],[-1.357982,52.856089],[-1.360566,52.855409],[-1.363807,52.854009],[-1.366888,52.850201],[-1.370919,52.848305],[-1.376402,52.847001],[-1.379297,52.846895],[-1.380938,52.846122],[-1.382842,52.844646],[-1.383046,52.843634],[-1.38466,52.843189],[-1.384817,52.842359],[-1.385831,52.841205],[-1.385407,52.840674],[-1.388241,52.839425],[-1.387619,52.838908],[-1.39436,52.836767],[-1.393092,52.833871],[-1.391515,52.833395],[-1.389069,52.83339],[-1.387922,52.832982],[-1.391106,52.830445],[-1.395617,52.825559],[-1.396043,52.825593],[-1.396975,52.82492],[-1.399313,52.821839],[-1.402319,52.820131],[-1.403567,52.818484],[-1.405205,52.818694],[-1.40579,52.81736],[-1.404605,52.817245],[-1.404134,52.816644],[-1.408753,52.812344],[-1.410164,52.810132],[-1.411776,52.809173],[-1.414031,52.807076],[-1.417065,52.803056],[-1.417704,52.801616],[-1.424973,52.801323],[-1.42599,52.800613],[-1.430097,52.802081],[-1.433544,52.802095],[-1.436227,52.802595],[-1.441379,52.802067],[-1.443526,52.802732],[-1.443737,52.802317],[-1.441486,52.801589],[-1.440946,52.800915],[-1.441041,52.799983],[-1.441684,52.799642],[-1.441015,52.798701],[-1.442053,52.797059],[-1.442362,52.797173],[-1.443208,52.79663],[-1.441861,52.79358],[-1.442499,52.792896],[-1.443362,52.792938],[-1.443813,52.792464],[-1.445151,52.792367],[-1.446796,52.791535],[-1.448054,52.790288],[-1.449759,52.789629],[-1.452233,52.78995],[-1.454865,52.788977],[-1.457539,52.78859],[-1.462808,52.786793],[-1.461498,52.785813],[-1.460914,52.786015],[-1.458825,52.784446],[-1.457947,52.784687],[-1.457615,52.784371],[-1.458861,52.783685],[-1.458321,52.782768],[-1.461199,52.781408],[-1.459502,52.780303],[-1.459867,52.780107],[-1.45938,52.779758],[-1.457102,52.779069],[-1.457944,52.778054],[-1.459521,52.777054],[-1.458822,52.776797],[-1.457148,52.777381],[-1.455909,52.777082],[-1.45659,52.777044],[-1.456649,52.77674],[-1.458157,52.776767],[-1.460453,52.776238],[-1.460516,52.774603],[-1.462304,52.771253],[-1.463604,52.77103],[-1.466607,52.767907],[-1.468397,52.767388],[-1.468472,52.766891],[-1.471876,52.766263],[-1.472633,52.766577],[-1.473411,52.765452],[-1.477253,52.765978],[-1.478451,52.763655],[-1.479926,52.763859],[-1.485686,52.762784],[-1.485904,52.763044],[-1.487793,52.762345],[-1.488252,52.762513],[-1.492428,52.759453],[-1.492913,52.759663],[-1.493984,52.759047],[-1.496452,52.760351],[-1.498762,52.764278],[-1.502122,52.766663],[-1.503928,52.767494],[-1.517691,52.766971],[-1.522014,52.765891],[-1.525348,52.765528],[-1.525003,52.763984],[-1.526929,52.762315],[-1.529584,52.761094],[-1.532938,52.762572],[-1.53478,52.762006],[-1.53732,52.760473],[-1.53962,52.760086],[-1.54185,52.76056],[-1.544747,52.763061],[-1.547442,52.764134],[-1.552787,52.763333],[-1.552555,52.763035],[-1.553231,52.762801],[-1.552697,52.762097],[-1.554843,52.762021],[-1.554426,52.75842],[-1.557629,52.757161],[-1.558142,52.755532],[-1.560388,52.752116],[-1.562493,52.750587],[-1.557487,52.744959],[-1.556529,52.740737],[-1.556812,52.740533],[-1.556212,52.739711],[-1.555679,52.739566],[-1.555196,52.739985],[-1.554578,52.739801],[-1.55491,52.739482],[-1.553481,52.73843],[-1.551176,52.735556],[-1.547373,52.733715],[-1.546542,52.733583],[-1.545283,52.732756],[-1.545202,52.732088],[-1.544614,52.731701],[-1.545198,52.731184],[-1.545074,52.730457],[-1.544673,52.730368],[-1.544837,52.729928],[-1.545444,52.729798],[-1.545365,52.728239],[-1.545859,52.727655],[-1.547668,52.727293],[-1.547532,52.726831],[-1.548492,52.726773],[-1.54879,52.726302],[-1.550242,52.725717],[-1.549977,52.724245],[-1.550448,52.723056],[-1.550007,52.722153],[-1.550302,52.721528],[-1.549817,52.720997],[-1.550114,52.720337],[-1.552386,52.719332],[-1.553389,52.718429],[-1.554026,52.718342],[-1.554705,52.717564],[-1.555573,52.717628],[-1.556523,52.716663],[-1.557321,52.716667],[-1.557537,52.716363],[-1.558457,52.716577],[-1.558726,52.715554],[-1.560452,52.714291],[-1.560552,52.713726],[-1.562228,52.713133],[-1.56387,52.711197],[-1.564334,52.710975],[-1.565011,52.711192],[-1.565924,52.710448],[-1.566537,52.710425],[-1.566092,52.710255],[-1.568505,52.709974],[-1.568733,52.709721],[-1.569232,52.710361],[-1.570556,52.710323],[-1.572739,52.711034],[-1.572967,52.711355],[-1.574256,52.711461],[-1.574481,52.712018],[-1.577151,52.711745],[-1.578027,52.711366],[-1.579315,52.709584],[-1.580421,52.710043],[-1.580651,52.709575],[-1.581344,52.709341],[-1.580882,52.708563],[-1.581663,52.708465],[-1.58146,52.708817],[-1.582356,52.709234],[-1.582276,52.708625],[-1.582798,52.709072],[-1.583372,52.70833],[-1.583997,52.708399],[-1.583725,52.70787],[-1.584694,52.707527],[-1.584755,52.706924],[-1.585165,52.70691],[-1.585087,52.70723],[-1.585787,52.707521],[-1.58835,52.706534],[-1.589441,52.706402],[-1.589405,52.706778],[-1.590506,52.706153],[-1.591039,52.706304],[-1.591673,52.705973],[-1.592169,52.704977],[-1.591016,52.704707],[-1.591191,52.704174],[-1.59185,52.704375],[-1.591397,52.703746],[-1.59191,52.703522],[-1.593095,52.703749],[-1.593923,52.703245],[-1.594483,52.703451],[-1.594069,52.703801],[-1.594391,52.703976],[-1.595172,52.703424],[-1.594708,52.703305],[-1.59496,52.702784],[-1.596317,52.703073],[-1.596546,52.702044],[-1.596152,52.70146],[-1.597541,52.700422],[-1.598703,52.700385],[-1.599093,52.699777],[-1.599876,52.69966],[-1.599098,52.699042],[-1.598514,52.699334],[-1.598805,52.698458],[-1.599814,52.698305],[-1.601233,52.697399],[-1.604136,52.696716],[-1.605327,52.696983],[-1.605746,52.696501],[-1.607014,52.696833],[-1.606736,52.697601],[-1.607964,52.697358],[-1.607761,52.698401],[-1.610088,52.698914],[-1.610638,52.698517],[-1.611519,52.698857],[-1.611558,52.69924],[-1.612317,52.69914],[-1.61268,52.69998],[-1.615493,52.700701],[-1.616692,52.700507],[-1.618066,52.699599],[-1.618405,52.699805],[-1.620941,52.69952],[-1.622444,52.698611],[-1.623309,52.697515],[-1.625263,52.697406],[-1.626356,52.699003],[-1.62734,52.699553],[-1.626244,52.700244],[-1.629581,52.700327],[-1.630259,52.700099],[-1.631788,52.700346],[-1.632975,52.70087],[-1.633318,52.701504],[-1.634153,52.701477],[-1.634036,52.702069],[-1.635014,52.70196],[-1.634856,52.702387],[-1.635296,52.702497],[-1.636288,52.702401],[-1.637674,52.7014],[-1.638199,52.700194],[-1.63797,52.699868],[-1.637518,52.700051],[-1.637578,52.699644],[-1.641043,52.699676],[-1.641625,52.700322],[-1.642345,52.700443],[-1.644732,52.699344],[-1.648061,52.698398],[-1.64882,52.698554],[-1.648575,52.699243],[-1.649342,52.699658],[-1.652567,52.699556],[-1.653914,52.699303],[-1.653891,52.6988],[-1.655064,52.698776],[-1.655629,52.699464],[-1.654421,52.699979],[-1.655055,52.701981],[-1.654151,52.703058],[-1.654301,52.708209],[-1.656343,52.708571],[-1.65591,52.710455],[-1.657733,52.710579],[-1.658209,52.712608],[-1.659291,52.714083],[-1.657551,52.714948],[-1.657845,52.715327],[-1.655678,52.715951],[-1.656214,52.717798],[-1.655928,52.719843],[-1.656608,52.721748],[-1.662613,52.723005],[-1.663023,52.723645],[-1.664553,52.723603],[-1.66484,52.724048],[-1.666284,52.723942],[-1.666376,52.723593],[-1.669169,52.723583],[-1.671384,52.724061],[-1.67131,52.7243],[-1.675563,52.724897],[-1.675433,52.72686],[-1.677944,52.727504],[-1.682089,52.727016],[-1.687822,52.727286],[-1.694021,52.726868],[-1.696952,52.727195],[-1.701318,52.728464],[-1.703165,52.729481],[-1.704457,52.731068],[-1.704158,52.732079],[-1.701208,52.733149],[-1.697875,52.735391],[-1.697908,52.735913],[-1.699872,52.738167],[-1.699473,52.738865],[-1.697167,52.740303],[-1.697895,52.742565],[-1.697556,52.743785],[-1.696328,52.744253],[-1.693328,52.743807],[-1.692288,52.744164],[-1.692506,52.744801],[-1.695166,52.746652],[-1.696127,52.747947],[-1.695812,52.749173],[-1.69402,52.750398],[-1.693886,52.750897],[-1.696818,52.752108],[-1.696887,52.752989],[-1.69289,52.756234],[-1.691064,52.756971],[-1.687941,52.757492],[-1.686176,52.758863],[-1.683958,52.761701],[-1.683166,52.764266],[-1.683483,52.76482],[-1.684999,52.765319],[-1.685236,52.766413],[-1.684868,52.767077],[-1.683066,52.76818],[-1.68208,52.77022],[-1.678338,52.772104],[-1.67202,52.772418],[-1.670179,52.773396],[-1.669734,52.777816],[-1.670739,52.781071],[-1.669692,52.782335],[-1.665604,52.785163],[-1.664009,52.785486],[-1.662269,52.785149],[-1.658756,52.783493],[-1.656826,52.781063],[-1.65324,52.779716],[-1.64993,52.779482],[-1.648484,52.779849],[-1.644324,52.782499],[-1.641929,52.784586],[-1.638243,52.786729],[-1.626958,52.779772],[-1.623753,52.782449],[-1.622905,52.782128],[-1.619289,52.785168],[-1.617742,52.783875],[-1.615012,52.782496],[-1.61541,52.782052],[-1.612462,52.781218],[-1.611719,52.781627],[-1.61113,52.781404],[-1.610304,52.782257],[-1.61123,52.782809],[-1.609417,52.784454],[-1.613721,52.786155],[-1.612392,52.787519],[-1.614345,52.788274],[-1.611959,52.789807],[-1.60633,52.790732],[-1.604132,52.791268],[-1.602658,52.791985],[-1.601475,52.792842],[-1.601716,52.793211],[-1.600854,52.794194],[-1.603549,52.795455],[-1.59785,52.798344],[-1.596788,52.798037],[-1.595704,52.797115],[-1.593585,52.797984],[-1.593513,52.796932],[-1.592856,52.797386],[-1.5927,52.798284],[-1.588946,52.799822],[-1.589055,52.800424],[-1.590025,52.800782],[-1.589294,52.801389],[-1.589728,52.801712],[-1.589309,52.802115],[-1.588501,52.801708],[-1.587977,52.802144],[-1.590907,52.802492],[-1.589876,52.806361],[-1.590601,52.806959],[-1.591692,52.809288],[-1.593147,52.809011],[-1.594424,52.809485],[-1.596748,52.811008],[-1.598915,52.811471],[-1.600783,52.812751],[-1.60502,52.814676],[-1.607698,52.814834],[-1.610344,52.815603],[-1.610249,52.817114],[-1.607601,52.819557],[-1.607098,52.821995],[-1.605553,52.823155],[-1.603006,52.826193],[-1.600229,52.82762],[-1.597539,52.828407],[-1.588781,52.828884],[-1.585867,52.830672],[-1.58538,52.831597],[-1.587964,52.83161],[-1.589224,52.830928],[-1.591896,52.83227],[-1.591402,52.833431],[-1.591949,52.834613],[-1.591106,52.835444],[-1.591287,52.836261],[-1.592436,52.836393],[-1.593213,52.835466],[-1.594179,52.835182],[-1.597523,52.837335],[-1.598904,52.83776],[-1.59942,52.837866],[-1.60095,52.837087],[-1.601891,52.837246],[-1.603007,52.839827],[-1.602944,52.840829],[-1.604342,52.842105],[-1.606499,52.843097],[-1.606979,52.843148],[-1.607584,52.842695],[-1.608749,52.842708],[-1.613963,52.844981],[-1.615741,52.845184],[-1.617579,52.844764],[-1.620462,52.847313],[-1.62269,52.84793],[-1.622596,52.849466],[-1.625152,52.849658],[-1.626132,52.850016],[-1.628079,52.851716],[-1.627818,52.85233],[-1.62612,52.852659],[-1.626531,52.854385],[-1.62711,52.854495],[-1.629543,52.853824],[-1.630608,52.852769],[-1.635152,52.852992],[-1.636925,52.853284],[-1.639901,52.85543],[-1.641911,52.855753],[-1.642632,52.856327],[-1.64577,52.855855],[-1.654041,52.857001],[-1.659043,52.856862],[-1.664895,52.858445],[-1.668174,52.859886],[-1.669071,52.860847],[-1.670084,52.861232],[-1.672486,52.861395],[-1.674616,52.861156],[-1.679442,52.861537],[-1.682731,52.862808],[-1.684714,52.862371],[-1.68645,52.86245],[-1.687487,52.863726],[-1.688883,52.864389],[-1.689999,52.864524],[-1.691731,52.864198],[-1.694173,52.862869],[-1.697591,52.862941],[-1.698559,52.862683],[-1.699232,52.862227],[-1.698834,52.860809],[-1.700609,52.860584],[-1.703466,52.861251],[-1.703575,52.862827],[-1.702937,52.862854],[-1.701542,52.862226],[-1.699943,52.863298],[-1.70076,52.864477],[-1.703334,52.8664],[-1.705782,52.86675],[-1.708389,52.866119],[-1.710482,52.866523],[-1.71206,52.865921],[-1.714835,52.865969],[-1.716544,52.865438],[-1.717675,52.864532],[-1.717332,52.863462],[-1.715234,52.863551],[-1.714164,52.862888],[-1.714737,52.862415],[-1.716143,52.862182],[-1.716803,52.860494],[-1.718264,52.860731],[-1.717675,52.86194],[-1.719878,52.86189],[-1.720959,52.863052],[-1.721804,52.863245],[-1.722202,52.863048],[-1.721319,52.862441],[-1.722437,52.861494],[-1.722601,52.860546],[-1.725295,52.859666],[-1.727381,52.860389],[-1.728225,52.861564],[-1.727762,52.861859],[-1.726626,52.861489],[-1.725833,52.861603],[-1.725678,52.862376],[-1.726317,52.863071],[-1.729874,52.862708],[-1.731324,52.862847],[-1.734819,52.863825],[-1.735629,52.865111],[-1.738152,52.864731],[-1.739328,52.864884],[-1.739433,52.867208],[-1.73998,52.867711],[-1.74453,52.865934],[-1.746784,52.865958],[-1.749558,52.866774],[-1.747397,52.868201],[-1.746428,52.868255],[-1.746003,52.868693],[-1.744731,52.868722],[-1.744498,52.8703],[-1.744905,52.871847],[-1.742027,52.87191],[-1.74159,52.872459],[-1.742643,52.874696],[-1.738955,52.876024],[-1.738408,52.876792],[-1.738725,52.87716],[-1.737776,52.879776],[-1.737302,52.884961],[-1.737877,52.888275],[-1.737663,52.890659],[-1.736561,52.89522],[-1.742622,52.90271],[-1.743148,52.902657],[-1.742987,52.905],[-1.74343,52.906001],[-1.746332,52.907022],[-1.748222,52.908154],[-1.746964,52.910442],[-1.748955,52.912493],[-1.739779,52.913397],[-1.736133,52.912555],[-1.731103,52.912323],[-1.729984,52.911383],[-1.729414,52.911468],[-1.729023,52.910475],[-1.725896,52.911231],[-1.724394,52.910784],[-1.722694,52.910839],[-1.722134,52.909977],[-1.720892,52.910334],[-1.718656,52.910265],[-1.718987,52.909422],[-1.714467,52.909586],[-1.713549,52.911739],[-1.712063,52.912721],[-1.711567,52.913538],[-1.710978,52.916221],[-1.71125,52.918385],[-1.710288,52.920436],[-1.709708,52.920573],[-1.708228,52.922005],[-1.705608,52.922699],[-1.705115,52.922433],[-1.701755,52.922867],[-1.6951,52.920848],[-1.691664,52.920547],[-1.690647,52.919926],[-1.690053,52.920048],[-1.683771,52.918308],[-1.683187,52.918446],[-1.682454,52.920256],[-1.680296,52.921096],[-1.678027,52.921545],[-1.676876,52.92081],[-1.674693,52.918291],[-1.674111,52.91714],[-1.674342,52.916332],[-1.670594,52.9168],[-1.668648,52.911213],[-1.66946,52.909345],[-1.668707,52.908852],[-1.667998,52.907142],[-1.665245,52.906305],[-1.66444,52.905592],[-1.663013,52.90245],[-1.662329,52.902561],[-1.661885,52.902242],[-1.66159,52.902702],[-1.661317,52.902083],[-1.660966,52.902521],[-1.658379,52.902736],[-1.657393,52.90419],[-1.6541,52.905746],[-1.65493,52.906246],[-1.652015,52.908382],[-1.650888,52.908723],[-1.652693,52.909159],[-1.653405,52.912083],[-1.655509,52.914544],[-1.656332,52.918393],[-1.654993,52.91831],[-1.653891,52.920547],[-1.653707,52.924366],[-1.652661,52.924472],[-1.652366,52.926686],[-1.65325,52.92671],[-1.65331,52.928282],[-1.651069,52.930545],[-1.650362,52.934547],[-1.649733,52.934697],[-1.649936,52.935824],[-1.649033,52.936842],[-1.648991,52.937158],[-1.649608,52.937251],[-1.648654,52.939677],[-1.64987,52.94182],[-1.650261,52.944539],[-1.649688,52.944507],[-1.649182,52.945093],[-1.647326,52.945288],[-1.647371,52.945629],[-1.646065,52.945858],[-1.645861,52.946409],[-1.645197,52.946413],[-1.641378,52.948162],[-1.639268,52.947706]]]}}]}