{"type":"FeatureCollection","features":[{"type":"Feature","properties":{"slug":"southend-on-sea","gss_code":"E06000033","name":"Southend-on-Sea"},"geometry":{"type":"MultiPolygon","coordinates":[[[[0.641241,51.535994],[0.640825,51.536067],[0.640251,51.53568],[0.640721,51.534645],[0.640024,51.534188],[0.640215,51.533427],[0.639234,51.533308],[0.638906,51.533865],[0.6393,51.533094],[0.637295,51.532506],[0.636752,51.533302],[0.636845,51.53252],[0.636395,51.532835],[0.636783,51.532515],[0.63659,51.531973],[0.635867,51.531964],[0.635445,51.532647],[0.636031,51.533299],[0.635508,51.532863],[0.635198,51.533082],[0.635369,51.532081],[0.635007,51.531674],[0.634149,51.532773],[0.63463,51.533278],[0.634,51.532842],[0.634378,51.532398],[0.634137,51.531887],[0.633462,51.53294],[0.633203,51.532727],[0.632844,51.532972],[0.632583,51.532545],[0.632936,51.532563],[0.633295,51.531947],[0.632951,51.531875],[0.632645,51.532378],[0.632746,51.531774],[0.631739,51.531687],[0.631541,51.531409],[0.631622,51.53222],[0.631125,51.531801],[0.630994,51.532192],[0.630521,51.531773],[0.629936,51.532162],[0.629135,51.53164],[0.629191,51.531991],[0.628804,51.531725],[0.628419,51.532209],[0.627852,51.531995],[0.627293,51.532661],[0.628169,51.532989],[0.628028,51.533225],[0.628688,51.53362],[0.631701,51.534323],[0.633497,51.534618],[0.634532,51.534087],[0.635315,51.534365],[0.635955,51.534195],[0.637356,51.534985],[0.637125,51.535292],[0.637615,51.535162],[0.637705,51.535463],[0.638634,51.535141],[0.639016,51.53588],[0.639962,51.535971],[0.640503,51.536381],[0.641241,51.535994]]],[[[0.637573,51.537857],[0.636769,51.537924],[0.637409,51.53803],[0.637573,51.537857]]],[[[0.635359,51.538014],[0.636299,51.538236],[0.636374,51.538008],[0.635359,51.538014]]],[[[0.63664,51.538049],[0.636864,51.538275],[0.637014,51.538123],[0.63664,51.538049]]],[[[0.639738,51.5384],[0.639637,51.538775],[0.640496,51.538662],[0.639738,51.5384]]],[[[0.63766,51.537969],[0.637096,51.538383],[0.638281,51.538873],[0.63952,51.538304],[0.63766,51.537969]]],[[[0.639605,51.538362],[0.638596,51.538939],[0.639503,51.538872],[0.639605,51.538362]]],[[[0.646196,51.538598],[0.645747,51.538702],[0.645124,51.53849],[0.644883,51.538791],[0.645111,51.538431],[0.644293,51.538607],[0.644449,51.538365],[0.643974,51.538299],[0.643844,51.538649],[0.64376,51.538284],[0.643283,51.538658],[0.643646,51.538335],[0.643339,51.538206],[0.645215,51.53823],[0.645276,51.538517],[0.645833,51.538622],[0.645336,51.538259],[0.645945,51.538277],[0.645869,51.538481],[0.646187,51.538257],[0.646024,51.538063],[0.642802,51.537848],[0.641286,51.537402],[0.642413,51.537432],[0.642426,51.537176],[0.642763,51.537585],[0.643297,51.537636],[0.643067,51.537397],[0.643928,51.537776],[0.643474,51.537411],[0.644103,51.537824],[0.645599,51.537656],[0.646304,51.537922],[0.646533,51.537684],[0.64498,51.536998],[0.643781,51.536769],[0.643224,51.537026],[0.643667,51.536672],[0.643245,51.536699],[0.643037,51.536092],[0.642404,51.535815],[0.640593,51.535809],[0.641322,51.535998],[0.641779,51.536474],[0.641245,51.536609],[0.641257,51.536176],[0.641189,51.53642],[0.640706,51.536351],[0.640988,51.536978],[0.641237,51.536831],[0.641444,51.53684],[0.641481,51.536776],[0.642046,51.537007],[0.641224,51.536861],[0.640998,51.537334],[0.640304,51.536874],[0.640573,51.536697],[0.641032,51.537128],[0.640471,51.536549],[0.640067,51.536827],[0.640666,51.537264],[0.639709,51.536946],[0.640318,51.536471],[0.637942,51.53579],[0.63862,51.535266],[0.637792,51.5358],[0.636653,51.535474],[0.637083,51.535109],[0.63664,51.534847],[0.63669,51.535053],[0.636582,51.535422],[0.636342,51.535412],[0.636638,51.534945],[0.636399,51.53515],[0.636507,51.534831],[0.635748,51.534934],[0.636042,51.534484],[0.635632,51.534971],[0.635415,51.534569],[0.634149,51.534543],[0.63627,51.53529],[0.635822,51.535398],[0.633978,51.534726],[0.632328,51.534515],[0.628664,51.533705],[0.627417,51.533093],[0.626974,51.532448],[0.627915,51.533847],[0.627427,51.534584],[0.624538,51.536372],[0.627588,51.537736],[0.62962,51.538198],[0.632959,51.538138],[0.633689,51.537948],[0.633907,51.537489],[0.635846,51.537259],[0.638906,51.537594],[0.639416,51.537166],[0.640058,51.53765],[0.640851,51.537555],[0.640031,51.537182],[0.641818,51.537804],[0.640067,51.537803],[0.641196,51.538167],[0.641249,51.537836],[0.641296,51.538165],[0.641918,51.538331],[0.641963,51.53811],[0.642301,51.538467],[0.642603,51.538127],[0.641947,51.537802],[0.643558,51.538039],[0.642612,51.538002],[0.642764,51.538272],[0.643213,51.538204],[0.642498,51.538584],[0.643741,51.539175],[0.645829,51.539222],[0.645635,51.538961],[0.646196,51.538598]]],[[[0.640763,51.538813],[0.639322,51.539165],[0.640133,51.53923],[0.642066,51.539599],[0.640763,51.538813]]],[[[0.651309,51.573497],[0.660119,51.573102],[0.66295,51.572446],[0.667717,51.572694],[0.667833,51.572208],[0.675334,51.572868],[0.675419,51.570145],[0.680764,51.569512],[0.683788,51.568604],[0.685035,51.568899],[0.687167,51.568213],[0.704178,51.566762],[0.70566,51.567495],[0.707234,51.566666],[0.708587,51.566435],[0.70794,51.564288],[0.715812,51.563171],[0.715806,51.562806],[0.719056,51.562675],[0.718392,51.560946],[0.72284,51.56041],[0.730471,51.5605],[0.730538,51.559443],[0.735364,51.560137],[0.737379,51.560022],[0.737573,51.559487],[0.739026,51.55935],[0.741077,51.559243],[0.741747,51.559898],[0.749072,51.559361],[0.752093,51.558362],[0.751583,51.557993],[0.753382,51.557522],[0.753154,51.554867],[0.757687,51.554127],[0.761029,51.553294],[0.76116,51.552965],[0.769555,51.552396],[0.769861,51.551783],[0.78669,51.552943],[0.786804,51.546935],[0.787471,51.546932],[0.787657,51.545164],[0.788991,51.542444],[0.794376,51.542339],[0.798427,51.541678],[0.807959,51.540955],[0.810868,51.540132],[0.814869,51.543732],[0.819168,51.542207],[0.820834,51.540863],[0.816837,51.539128],[0.815826,51.538139],[0.813839,51.537222],[0.813855,51.536697],[0.810908,51.535946],[0.808738,51.534396],[0.807498,51.534061],[0.79979,51.529774],[0.787402,51.521859],[0.782096,51.521336],[0.776548,51.52267],[0.76826,51.525509],[0.757077,51.528419],[0.75081,51.529529],[0.744067,51.529931],[0.736507,51.529588],[0.731565,51.530062],[0.719435,51.532675],[0.718216,51.532058],[0.716478,51.532083],[0.714227,51.532277],[0.713036,51.532978],[0.711402,51.533167],[0.702746,51.533141],[0.692852,51.534942],[0.680499,51.535816],[0.670718,51.538148],[0.665158,51.538841],[0.659034,51.538719],[0.652513,51.539408],[0.652341,51.539093],[0.65225,51.539435],[0.651277,51.539365],[0.651383,51.539664],[0.650721,51.53959],[0.648158,51.540494],[0.644332,51.540763],[0.644035,51.541103],[0.643154,51.541107],[0.642243,51.540595],[0.641949,51.540782],[0.636565,51.539227],[0.633821,51.53923],[0.633611,51.53887],[0.634154,51.538548],[0.633344,51.538738],[0.633242,51.539236],[0.631901,51.538953],[0.632049,51.538616],[0.631499,51.538906],[0.631643,51.538626],[0.628916,51.538447],[0.628884,51.538702],[0.628571,51.538792],[0.628926,51.538945],[0.62902,51.539133],[0.627948,51.539025],[0.628945,51.53908],[0.628329,51.538709],[0.627379,51.538816],[0.628025,51.538637],[0.627325,51.538415],[0.628073,51.538594],[0.627063,51.538163],[0.625429,51.538072],[0.624335,51.538563],[0.623997,51.539033],[0.62474,51.540409],[0.62296,51.540468],[0.622979,51.540915],[0.623757,51.541258],[0.623275,51.541325],[0.623213,51.542124],[0.623913,51.542082],[0.624785,51.543787],[0.62416,51.547658],[0.627191,51.551197],[0.62553,51.553664],[0.627015,51.555401],[0.628526,51.555398],[0.629365,51.556386],[0.631685,51.557645],[0.633137,51.559094],[0.635576,51.56065],[0.634677,51.561802],[0.634392,51.565263],[0.633115,51.565482],[0.635141,51.567953],[0.63412,51.569484],[0.63159,51.569931],[0.634646,51.574941],[0.635679,51.57447],[0.637818,51.576313],[0.638951,51.576801],[0.646581,51.574298],[0.651309,51.573497]]]]}}]}