{"type":"FeatureCollection","features":[{"type":"Feature","properties":{"slug":"southwark","gss_code":"E09000028","name":"Southwark"},"geometry":{"type":"Polygon","coordinates":[[[-0.104684,51.508405],[-0.096113,51.508378],[-0.092077,51.50723],[-0.084688,51.506623],[-0.081135,51.50594],[-0.072718,51.503603],[-0.070872,51.50257],[-0.073487,51.500486],[-0.070778,51.50221],[-0.067358,51.501229],[-0.06719,51.501444],[-0.063789,51.50063],[-0.057255,51.500854],[-0.050721,51.5029],[-0.048783,51.504026],[-0.04917,51.504359],[-0.047705,51.504155],[-0.048009,51.504768],[-0.046981,51.505361],[-0.04605,51.505148],[-0.046542,51.505656],[-0.045728,51.50613],[-0.045318,51.505923],[-0.044367,51.506951],[-0.041302,51.507491],[-0.037264,51.507231],[-0.037314,51.506422],[-0.03679,51.507133],[-0.034194,51.506304],[-0.033058,51.505094],[-0.033017,51.504361],[-0.032322,51.504349],[-0.032349,51.500108],[-0.032729,51.500088],[-0.03249,51.498284],[-0.032944,51.496942],[-0.032549,51.496009],[-0.033957,51.495682],[-0.033849,51.495473],[-0.032534,51.495674],[-0.032664,51.494403],[-0.033249,51.494144],[-0.03264,51.494131],[-0.032393,51.493089],[-0.037251,51.492224],[-0.039235,51.492966],[-0.040492,51.492797],[-0.040031,51.492182],[-0.041024,51.491831],[-0.040277,51.491046],[-0.042479,51.490251],[-0.042256,51.490089],[-0.046529,51.490348],[-0.046541,51.490669],[-0.051339,51.489504],[-0.051937,51.489115],[-0.050065,51.48833],[-0.050487,51.48792],[-0.052346,51.487801],[-0.052592,51.487552],[-0.053969,51.487941],[-0.052854,51.486684],[-0.052925,51.486004],[-0.053534,51.48568],[-0.053056,51.485038],[-0.052782,51.482725],[-0.053099,51.480927],[-0.054235,51.478596],[-0.052687,51.478014],[-0.052742,51.47297],[-0.051658,51.469716],[-0.052269,51.469226],[-0.050851,51.467577],[-0.051297,51.46737],[-0.050544,51.46679],[-0.050812,51.466654],[-0.048176,51.465894],[-0.048515,51.465627],[-0.045973,51.463975],[-0.045191,51.462045],[-0.045211,51.459431],[-0.046134,51.456946],[-0.044574,51.456581],[-0.041648,51.454997],[-0.04608,51.449868],[-0.048997,51.450106],[-0.053856,51.448686],[-0.057578,51.450326],[-0.061801,51.447787],[-0.063018,51.446199],[-0.064036,51.442072],[-0.06503,51.441163],[-0.064049,51.440841],[-0.063401,51.437572],[-0.064393,51.437051],[-0.065851,51.434626],[-0.066812,51.433882],[-0.069114,51.432831],[-0.072226,51.432498],[-0.074864,51.429842],[-0.075081,51.428983],[-0.073907,51.426213],[-0.075041,51.425627],[-0.078288,51.420605],[-0.079217,51.420869],[-0.078908,51.421568],[-0.079835,51.42214],[-0.080876,51.42186],[-0.081734,51.423378],[-0.083462,51.422997],[-0.084035,51.425691],[-0.085187,51.4273],[-0.086075,51.427817],[-0.085909,51.428504],[-0.088198,51.429335],[-0.089345,51.432017],[-0.091019,51.437553],[-0.092896,51.441082],[-0.094427,51.443235],[-0.095065,51.445412],[-0.096038,51.446726],[-0.099134,51.448975],[-0.099962,51.450273],[-0.100763,51.450336],[-0.101454,51.452216],[-0.10108,51.453927],[-0.095812,51.457415],[-0.094947,51.458787],[-0.092244,51.461058],[-0.090658,51.463318],[-0.090063,51.465831],[-0.092756,51.469869],[-0.093015,51.472029],[-0.093626,51.471735],[-0.094143,51.470673],[-0.095975,51.469867],[-0.098829,51.471872],[-0.100654,51.474447],[-0.099972,51.476864],[-0.108209,51.480286],[-0.104034,51.480901],[-0.106018,51.482698],[-0.105612,51.48294],[-0.107189,51.483649],[-0.106359,51.484899],[-0.108461,51.485849],[-0.103272,51.491253],[-0.104852,51.493528],[-0.110934,51.495468],[-0.111467,51.496459],[-0.110258,51.496763],[-0.108267,51.500443],[-0.105917,51.502033],[-0.106077,51.502524],[-0.106757,51.50221],[-0.107392,51.503036],[-0.106403,51.503367],[-0.106486,51.505063],[-0.107339,51.507072],[-0.108165,51.506922],[-0.108858,51.508426],[-0.104676,51.508615],[-0.104684,51.508405]]]}}]}