{"type":"FeatureCollection","features":[{"type":"Feature","properties":{"slug":"south-oxfordshire","gss_code":"E07000179","name":"South Oxfordshire"},"geometry":{"type":"Polygon","coordinates":[[[-1.167121,51.809685],[-1.1643,51.81004],[-1.159587,51.807162],[-1.153824,51.80454],[-1.151896,51.803098],[-1.150751,51.801188],[-1.152323,51.799671],[-1.152929,51.797738],[-1.154076,51.796634],[-1.153531,51.796402],[-1.146223,51.797775],[-1.142584,51.797274],[-1.142118,51.79771],[-1.136807,51.796016],[-1.132335,51.797152],[-1.126818,51.799503],[-1.125006,51.798262],[-1.125206,51.795801],[-1.125913,51.794642],[-1.123788,51.794557],[-1.123541,51.794181],[-1.120439,51.792963],[-1.119992,51.792293],[-1.122863,51.788531],[-1.12209,51.788395],[-1.121943,51.787081],[-1.115382,51.786899],[-1.110651,51.783832],[-1.105897,51.781941],[-1.106361,51.781631],[-1.097603,51.780453],[-1.096929,51.781186],[-1.097148,51.781667],[-1.096709,51.782235],[-1.08574,51.781304],[-1.082948,51.780296],[-1.079946,51.77747],[-1.082706,51.773511],[-1.080761,51.772878],[-1.080819,51.772161],[-1.078848,51.771266],[-1.079928,51.770138],[-1.079276,51.769406],[-1.081408,51.76713],[-1.082801,51.764115],[-1.082721,51.760483],[-1.083088,51.760394],[-1.080852,51.756554],[-1.077784,51.758501],[-1.072892,51.758323],[-1.068662,51.75601],[-1.067952,51.755389],[-1.068241,51.754887],[-1.066385,51.753625],[-1.065811,51.753832],[-1.065099,51.753611],[-1.064113,51.754038],[-1.058244,51.752333],[-1.056313,51.751976],[-1.054954,51.752194],[-1.05325,51.749724],[-1.053422,51.749289],[-1.052877,51.749402],[-1.050731,51.748333],[-1.04816,51.747625],[-1.047273,51.746546],[-1.045567,51.745911],[-1.045785,51.745437],[-1.04524,51.745205],[-1.045972,51.745053],[-1.045471,51.744599],[-1.044103,51.745076],[-1.043375,51.744558],[-1.039041,51.744705],[-1.038342,51.744065],[-1.037651,51.744607],[-1.037188,51.744133],[-1.036068,51.744078],[-1.034487,51.744636],[-1.031606,51.744379],[-1.030435,51.744929],[-1.029622,51.745959],[-1.030013,51.746595],[-1.029614,51.748901],[-1.030552,51.749174],[-1.03122,51.752139],[-1.03256,51.753132],[-1.032633,51.754624],[-1.032138,51.755346],[-1.032661,51.755786],[-1.031971,51.756995],[-1.029828,51.757881],[-1.028217,51.757027],[-1.027085,51.757262],[-1.025219,51.755808],[-1.023611,51.755519],[-1.007394,51.755939],[-1.007585,51.754928],[-1.005668,51.754996],[-1.00396,51.754455],[-1.003742,51.755038],[-0.999471,51.754507],[-0.998398,51.75489],[-0.998068,51.754477],[-0.998509,51.753646],[-0.997448,51.753409],[-0.993499,51.754745],[-0.992833,51.754481],[-0.992738,51.754081],[-0.990617,51.754087],[-0.989954,51.753474],[-0.989114,51.753756],[-0.989088,51.753141],[-0.986882,51.753169],[-0.987207,51.752192],[-0.98625,51.752062],[-0.983353,51.752425],[-0.980819,51.753379],[-0.980442,51.753919],[-0.981289,51.754595],[-0.981657,51.755869],[-0.980737,51.757098],[-0.981216,51.758038],[-0.980592,51.75927],[-0.981267,51.759449],[-0.98142,51.760023],[-0.979685,51.760718],[-0.977319,51.760307],[-0.977045,51.759996],[-0.976199,51.760115],[-0.975245,51.758873],[-0.973853,51.758017],[-0.971431,51.758101],[-0.970697,51.758665],[-0.970069,51.758517],[-0.969761,51.758803],[-0.96815,51.75859],[-0.963515,51.758902],[-0.963025,51.759165],[-0.961823,51.758608],[-0.961651,51.75883],[-0.960584,51.758743],[-0.954159,51.757854],[-0.952679,51.757539],[-0.95249,51.757174],[-0.951043,51.756624],[-0.950616,51.755896],[-0.95028,51.756168],[-0.949652,51.755946],[-0.949259,51.756288],[-0.948357,51.755674],[-0.947707,51.755698],[-0.947659,51.755384],[-0.946949,51.755509],[-0.944909,51.753643],[-0.944117,51.753309],[-0.943551,51.753531],[-0.942369,51.75297],[-0.940961,51.753355],[-0.940397,51.752873],[-0.935983,51.753445],[-0.93321,51.752344],[-0.932015,51.749186],[-0.928478,51.745936],[-0.924115,51.747715],[-0.920939,51.744619],[-0.920344,51.742713],[-0.920389,51.740523],[-0.919362,51.739648],[-0.919895,51.739454],[-0.919296,51.739473],[-0.919156,51.739208],[-0.919723,51.738926],[-0.918627,51.738684],[-0.918971,51.738238],[-0.918554,51.738089],[-0.918733,51.737745],[-0.918234,51.7378],[-0.918269,51.73721],[-0.91763,51.737431],[-0.916937,51.736885],[-0.916489,51.737207],[-0.916279,51.736962],[-0.914814,51.737884],[-0.914555,51.737418],[-0.913767,51.737779],[-0.912558,51.7367],[-0.912194,51.737042],[-0.910992,51.736859],[-0.911061,51.737123],[-0.910534,51.73705],[-0.910774,51.736783],[-0.909682,51.736777],[-0.908755,51.735103],[-0.906094,51.73336],[-0.905383,51.733312],[-0.903143,51.731393],[-0.903555,51.731255],[-0.903336,51.731066],[-0.900593,51.729361],[-0.901656,51.728146],[-0.8997,51.724999],[-0.897165,51.722849],[-0.895446,51.721851],[-0.893464,51.722046],[-0.891339,51.721471],[-0.889396,51.720143],[-0.887682,51.718343],[-0.887623,51.71367],[-0.888253,51.712374],[-0.888327,51.710375],[-0.88885,51.709977],[-0.888641,51.709005],[-0.889677,51.708125],[-0.889268,51.707115],[-0.888577,51.707361],[-0.887071,51.705211],[-0.886558,51.705083],[-0.887235,51.703325],[-0.889563,51.701257],[-0.889256,51.699901],[-0.890753,51.697284],[-0.894773,51.692522],[-0.893816,51.690453],[-0.892647,51.689054],[-0.885664,51.686762],[-0.881901,51.684588],[-0.879896,51.680865],[-0.881836,51.680542],[-0.886764,51.681391],[-0.891017,51.67865],[-0.892464,51.678288],[-0.893813,51.679108],[-0.894321,51.678889],[-0.895764,51.677309],[-0.897896,51.676401],[-0.895069,51.674665],[-0.892142,51.674779],[-0.888933,51.673956],[-0.884135,51.673775],[-0.881368,51.67242],[-0.8786,51.67002],[-0.877707,51.668385],[-0.883971,51.667727],[-0.894745,51.668254],[-0.897042,51.670019],[-0.901203,51.670987],[-0.904703,51.672202],[-0.907022,51.673423],[-0.910381,51.673849],[-0.915694,51.67246],[-0.917729,51.6724],[-0.918636,51.67123],[-0.92491,51.666907],[-0.924889,51.665428],[-0.927816,51.66558],[-0.928612,51.665274],[-0.929353,51.666282],[-0.930796,51.666094],[-0.931387,51.665118],[-0.932213,51.664868],[-0.929536,51.663359],[-0.928343,51.661056],[-0.926547,51.660014],[-0.925051,51.659694],[-0.923098,51.656997],[-0.923215,51.656461],[-0.924609,51.655725],[-0.925172,51.654999],[-0.927652,51.654686],[-0.927251,51.651444],[-0.929185,51.653777],[-0.929431,51.655749],[-0.930959,51.6552],[-0.931434,51.655309],[-0.931497,51.653165],[-0.933169,51.652602],[-0.939536,51.654293],[-0.939792,51.654033],[-0.946318,51.653784],[-0.948181,51.652111],[-0.944453,51.652161],[-0.944002,51.651174],[-0.944984,51.649791],[-0.949951,51.650929],[-0.950726,51.650741],[-0.948341,51.649445],[-0.945143,51.648334],[-0.944606,51.64655],[-0.941621,51.644194],[-0.940211,51.643632],[-0.937538,51.641649],[-0.934586,51.636699],[-0.935492,51.635625],[-0.938217,51.635114],[-0.940111,51.632768],[-0.942317,51.631775],[-0.943339,51.631098],[-0.943591,51.630502],[-0.948873,51.631366],[-0.95003,51.628907],[-0.949489,51.625604],[-0.950071,51.622741],[-0.949793,51.620678],[-0.947534,51.620405],[-0.945719,51.61848],[-0.939459,51.618528],[-0.938644,51.617787],[-0.940079,51.614175],[-0.943989,51.610763],[-0.944133,51.609389],[-0.942563,51.607476],[-0.943139,51.605016],[-0.942399,51.604521],[-0.939175,51.604325],[-0.936018,51.603346],[-0.936179,51.602275],[-0.933667,51.60166],[-0.93214,51.601861],[-0.931213,51.602364],[-0.92981,51.604136],[-0.92914,51.604324],[-0.923942,51.604211],[-0.921867,51.603678],[-0.920175,51.603611],[-0.917127,51.600027],[-0.916899,51.59929],[-0.919695,51.59592],[-0.919873,51.595602],[-0.91947,51.595504],[-0.92101,51.594648],[-0.92488,51.590888],[-0.928165,51.59069],[-0.928548,51.590085],[-0.933197,51.588637],[-0.934337,51.58863],[-0.941471,51.585507],[-0.941333,51.584445],[-0.939822,51.582143],[-0.939401,51.580184],[-0.940019,51.576308],[-0.938427,51.571156],[-0.936674,51.571449],[-0.934246,51.569983],[-0.930582,51.569157],[-0.930226,51.569005],[-0.930411,51.568565],[-0.92778,51.568112],[-0.928228,51.565952],[-0.924146,51.563525],[-0.921378,51.564648],[-0.919546,51.561883],[-0.918521,51.561494],[-0.9171,51.562573],[-0.915958,51.561735],[-0.91469,51.561492],[-0.913601,51.561734],[-0.910207,51.557774],[-0.90624,51.556813],[-0.901681,51.556166],[-0.902841,51.552905],[-0.902222,51.548566],[-0.903312,51.545927],[-0.896882,51.544863],[-0.900127,51.540264],[-0.900294,51.537149],[-0.899805,51.536199],[-0.895793,51.533799],[-0.892619,51.532709],[-0.887998,51.530131],[-0.878796,51.523728],[-0.878218,51.523018],[-0.878496,51.518136],[-0.880523,51.516367],[-0.880263,51.515126],[-0.880796,51.513274],[-0.880209,51.511612],[-0.879477,51.511088],[-0.874469,51.509325],[-0.871608,51.507574],[-0.871081,51.506945],[-0.871023,51.505501],[-0.870057,51.504537],[-0.870514,51.503283],[-0.872003,51.502446],[-0.878603,51.501965],[-0.882331,51.501375],[-0.888122,51.499636],[-0.893676,51.496763],[-0.894076,51.495953],[-0.893859,51.494842],[-0.895283,51.493921],[-0.893447,51.492538],[-0.894267,51.492044],[-0.896384,51.491816],[-0.896627,51.489938],[-0.898262,51.488314],[-0.897652,51.487045],[-0.901868,51.485339],[-0.905809,51.485063],[-0.908186,51.483961],[-0.910211,51.482148],[-0.910586,51.479474],[-0.910079,51.477755],[-0.910608,51.476831],[-0.91334,51.475963],[-0.914573,51.474787],[-0.91687,51.474375],[-0.919277,51.472719],[-0.920451,51.471306],[-0.921698,51.467931],[-0.923668,51.46719],[-0.930642,51.46764],[-0.932661,51.465794],[-0.942348,51.460594],[-0.945989,51.459504],[-0.949168,51.459513],[-0.955453,51.461257],[-0.955162,51.462192],[-0.954546,51.462201],[-0.954393,51.462631],[-0.954363,51.464526],[-0.954806,51.464555],[-0.955184,51.465334],[-0.951561,51.465702],[-0.949441,51.464931],[-0.94888,51.465512],[-0.949246,51.46614],[-0.947182,51.466653],[-0.949222,51.470132],[-0.94653,51.471517],[-0.947323,51.472942],[-0.941137,51.474978],[-0.944921,51.479182],[-0.945527,51.481681],[-0.944501,51.481953],[-0.945491,51.483593],[-0.946035,51.483442],[-0.947944,51.48527],[-0.947033,51.486062],[-0.949117,51.486977],[-0.949772,51.486454],[-0.953568,51.488438],[-0.955999,51.491045],[-0.95547,51.491391],[-0.956647,51.49207],[-0.957487,51.493081],[-0.961805,51.493092],[-0.964996,51.492056],[-0.964565,51.491438],[-0.966014,51.490917],[-0.967227,51.490615],[-0.967478,51.490845],[-0.969201,51.490172],[-0.969537,51.490764],[-0.970254,51.490501],[-0.969918,51.489313],[-0.971598,51.487628],[-0.974318,51.486724],[-0.975359,51.487407],[-0.975967,51.488345],[-0.977775,51.488353],[-0.97928,51.487526],[-0.978622,51.487311],[-0.978559,51.485581],[-0.979905,51.485675],[-0.98191,51.485068],[-0.984121,51.484963],[-0.986936,51.48574],[-0.989029,51.485732],[-0.991489,51.485208],[-0.993375,51.486296],[-0.994331,51.485973],[-0.993837,51.485191],[-0.998399,51.484305],[-0.997527,51.48347],[-0.998349,51.483281],[-0.997833,51.482377],[-0.998051,51.481721],[-0.999976,51.481464],[-1.000007,51.480857],[-1.000619,51.480839],[-1.000425,51.479895],[-0.999676,51.480315],[-0.998711,51.480299],[-0.998181,51.47755],[-0.999816,51.475232],[-1.000803,51.474621],[-1.002442,51.474254],[-1.003265,51.474433],[-1.003807,51.473313],[-1.006929,51.473422],[-1.004806,51.472721],[-1.004837,51.472434],[-1.005962,51.472593],[-1.006739,51.472308],[-1.007099,51.471982],[-1.006814,51.471395],[-1.007938,51.471572],[-1.007856,51.469581],[-1.007296,51.468211],[-1.0075,51.46783],[-1.011207,51.467162],[-1.013564,51.466292],[-1.018205,51.466585],[-1.021772,51.467996],[-1.026594,51.470724],[-1.038493,51.476185],[-1.038979,51.47687],[-1.038684,51.479691],[-1.037328,51.482132],[-1.037397,51.483825],[-1.039509,51.485176],[-1.039682,51.486559],[-1.040744,51.487599],[-1.043593,51.489381],[-1.048677,51.490784],[-1.05135,51.49186],[-1.055422,51.492038],[-1.059708,51.491789],[-1.073045,51.489512],[-1.07727,51.487865],[-1.082643,51.487079],[-1.088362,51.485753],[-1.089672,51.485789],[-1.089901,51.486205],[-1.100228,51.488876],[-1.102777,51.490171],[-1.104365,51.492331],[-1.108031,51.500719],[-1.106969,51.501097],[-1.109026,51.504854],[-1.112895,51.509401],[-1.114784,51.510482],[-1.117948,51.51163],[-1.119464,51.511857],[-1.127647,51.511897],[-1.133693,51.511286],[-1.13508,51.511844],[-1.138674,51.514175],[-1.141063,51.515188],[-1.142053,51.516195],[-1.143264,51.519771],[-1.142536,51.520827],[-1.143248,51.520954],[-1.143016,51.521404],[-1.144038,51.522029],[-1.143536,51.523455],[-1.138896,51.526984],[-1.138546,51.526857],[-1.137732,51.528893],[-1.134664,51.532801],[-1.134446,51.533722],[-1.134679,51.536519],[-1.136315,51.539978],[-1.140375,51.542911],[-1.146937,51.540612],[-1.152674,51.539392],[-1.154652,51.538725],[-1.156037,51.537867],[-1.160157,51.536602],[-1.159375,51.534926],[-1.160798,51.53459],[-1.165992,51.533947],[-1.172761,51.533764],[-1.175181,51.533407],[-1.180337,51.531951],[-1.19057,51.529988],[-1.20465,51.528395],[-1.205004,51.530344],[-1.205974,51.531837],[-1.205389,51.533385],[-1.204202,51.534276],[-1.203232,51.536724],[-1.204644,51.537604],[-1.206129,51.53753],[-1.210135,51.536442],[-1.214945,51.536091],[-1.216577,51.536228],[-1.218859,51.536938],[-1.221438,51.536152],[-1.226792,51.535158],[-1.228705,51.541421],[-1.228703,51.543721],[-1.227974,51.546867],[-1.223675,51.552065],[-1.222787,51.551981],[-1.220731,51.557288],[-1.221765,51.560375],[-1.220632,51.560526],[-1.219149,51.562579],[-1.217201,51.564031],[-1.214234,51.569716],[-1.213892,51.569776],[-1.213961,51.57056],[-1.211772,51.570904],[-1.212635,51.572327],[-1.212161,51.572512],[-1.212389,51.572861],[-1.211693,51.573038],[-1.207648,51.579538],[-1.202679,51.589297],[-1.203091,51.58973],[-1.202369,51.589759],[-1.202274,51.590129],[-1.203339,51.590657],[-1.204017,51.592187],[-1.20428,51.591883],[-1.204563,51.592129],[-1.207758,51.591389],[-1.207991,51.591074],[-1.208851,51.591221],[-1.209089,51.590522],[-1.208677,51.589683],[-1.209643,51.58933],[-1.209822,51.589646],[-1.210664,51.589137],[-1.214121,51.588818],[-1.215588,51.587925],[-1.216446,51.586907],[-1.216758,51.587108],[-1.21904,51.585886],[-1.220223,51.585827],[-1.220195,51.585162],[-1.220835,51.585078],[-1.220252,51.584609],[-1.220891,51.584853],[-1.220815,51.584477],[-1.221679,51.58446],[-1.223637,51.583179],[-1.224268,51.58264],[-1.224315,51.581501],[-1.224813,51.581337],[-1.226814,51.582282],[-1.226961,51.581307],[-1.227779,51.581565],[-1.230062,51.580327],[-1.232734,51.582597],[-1.23341,51.582727],[-1.252995,51.584524],[-1.257998,51.583931],[-1.264718,51.584599],[-1.269389,51.58456],[-1.270475,51.584064],[-1.271134,51.583106],[-1.273632,51.581232],[-1.282557,51.576265],[-1.284129,51.574854],[-1.285413,51.575422],[-1.285712,51.575276],[-1.286391,51.575916],[-1.28696,51.578225],[-1.287637,51.578215],[-1.287659,51.577892],[-1.290225,51.577897],[-1.288677,51.581312],[-1.283967,51.586908],[-1.270634,51.598244],[-1.270784,51.599296],[-1.271526,51.600231],[-1.265063,51.603753],[-1.266085,51.604205],[-1.265731,51.607178],[-1.26912,51.608515],[-1.268929,51.608845],[-1.270482,51.609722],[-1.272786,51.610114],[-1.27327,51.611635],[-1.269828,51.61367],[-1.266359,51.614797],[-1.266242,51.617148],[-1.265694,51.618604],[-1.264921,51.619217],[-1.263811,51.618582],[-1.257204,51.617108],[-1.255724,51.620718],[-1.254162,51.622093],[-1.251988,51.623018],[-1.249255,51.623379],[-1.245903,51.623178],[-1.243067,51.622517],[-1.242018,51.624252],[-1.235666,51.629593],[-1.235473,51.630176],[-1.22175,51.639913],[-1.220735,51.639974],[-1.219095,51.641755],[-1.219323,51.642644],[-1.220273,51.642996],[-1.221877,51.642356],[-1.222533,51.641529],[-1.229007,51.641103],[-1.232585,51.641546],[-1.236685,51.642683],[-1.23733,51.643379],[-1.238471,51.643258],[-1.24224,51.645181],[-1.242459,51.64455],[-1.244352,51.645351],[-1.251205,51.64658],[-1.253342,51.64754],[-1.258288,51.649052],[-1.26322,51.650098],[-1.265613,51.649609],[-1.26612,51.64861],[-1.267253,51.647908],[-1.26969,51.647742],[-1.271058,51.647294],[-1.272727,51.647331],[-1.273339,51.646836],[-1.272948,51.646151],[-1.274138,51.645675],[-1.273861,51.645204],[-1.28003,51.644173],[-1.280428,51.643037],[-1.287123,51.642806],[-1.287769,51.64584],[-1.289454,51.646868],[-1.288634,51.648586],[-1.286946,51.649184],[-1.286557,51.650172],[-1.285724,51.650335],[-1.285154,51.649746],[-1.284216,51.650402],[-1.2832,51.650011],[-1.281127,51.653053],[-1.279656,51.656554],[-1.278644,51.658037],[-1.279554,51.658593],[-1.279384,51.658832],[-1.281571,51.659992],[-1.283799,51.66587],[-1.280117,51.667238],[-1.280194,51.667661],[-1.279183,51.667863],[-1.277404,51.668889],[-1.269542,51.670285],[-1.268955,51.669973],[-1.268195,51.67029],[-1.264121,51.669816],[-1.263259,51.670238],[-1.261631,51.669449],[-1.260144,51.669204],[-1.258356,51.66736],[-1.250817,51.66656],[-1.246689,51.66717],[-1.242786,51.668353],[-1.241262,51.669352],[-1.234926,51.671052],[-1.230882,51.67285],[-1.230321,51.674824],[-1.227736,51.675399],[-1.226874,51.675982],[-1.226256,51.678654],[-1.224618,51.681728],[-1.223081,51.682865],[-1.221753,51.68462],[-1.222368,51.686014],[-1.222084,51.68824],[-1.223264,51.691509],[-1.224118,51.692616],[-1.225426,51.693389],[-1.226197,51.694449],[-1.229004,51.696688],[-1.230824,51.69931],[-1.230114,51.699618],[-1.229957,51.700133],[-1.230653,51.702891],[-1.231346,51.70365],[-1.233146,51.70409],[-1.232929,51.70745],[-1.234135,51.707291],[-1.234689,51.707651],[-1.234429,51.709745],[-1.235319,51.711449],[-1.233576,51.711793],[-1.234913,51.713043],[-1.235419,51.714835],[-1.236896,51.715728],[-1.237336,51.717969],[-1.239378,51.717822],[-1.242621,51.721021],[-1.24131,51.72516],[-1.233789,51.722017],[-1.234022,51.721168],[-1.232108,51.718813],[-1.225208,51.714221],[-1.223654,51.712883],[-1.223962,51.712743],[-1.222289,51.710984],[-1.221271,51.711488],[-1.220522,51.712473],[-1.218778,51.713007],[-1.217664,51.715078],[-1.215453,51.715784],[-1.214152,51.71554],[-1.213744,51.71595],[-1.21241,51.716103],[-1.210143,51.71581],[-1.207363,51.71498],[-1.200203,51.712144],[-1.194414,51.713969],[-1.189586,51.714562],[-1.188307,51.716755],[-1.187695,51.718504],[-1.186436,51.719997],[-1.184154,51.721573],[-1.185428,51.722738],[-1.189015,51.724313],[-1.190313,51.727046],[-1.175912,51.732579],[-1.175794,51.733482],[-1.177969,51.735678],[-1.1788,51.735385],[-1.179229,51.736247],[-1.193164,51.736271],[-1.193994,51.7366],[-1.193549,51.737181],[-1.193367,51.74002],[-1.192207,51.741863],[-1.194659,51.745376],[-1.195247,51.745153],[-1.195061,51.751359],[-1.194285,51.75713],[-1.191419,51.755271],[-1.189982,51.756054],[-1.187801,51.755514],[-1.186114,51.75688],[-1.185939,51.759998],[-1.184275,51.760029],[-1.182666,51.762407],[-1.179664,51.762849],[-1.180208,51.765865],[-1.188205,51.765577],[-1.188242,51.76705],[-1.188994,51.767703],[-1.191542,51.768242],[-1.19751,51.768559],[-1.198231,51.768861],[-1.198222,51.769194],[-1.20011,51.769489],[-1.201642,51.770135],[-1.203807,51.770053],[-1.210704,51.772305],[-1.215721,51.772821],[-1.220815,51.772258],[-1.227931,51.775234],[-1.227981,51.776418],[-1.231698,51.776876],[-1.253986,51.786152],[-1.252704,51.786499],[-1.247907,51.786622],[-1.247028,51.787408],[-1.246828,51.788381],[-1.244091,51.789437],[-1.244346,51.790669],[-1.246349,51.793003],[-1.247396,51.793603],[-1.248891,51.793858],[-1.253331,51.796394],[-1.253809,51.797847],[-1.252484,51.798698],[-1.250219,51.798875],[-1.24823,51.799552],[-1.246231,51.801473],[-1.245087,51.80198],[-1.245404,51.802777],[-1.243536,51.803727],[-1.242794,51.80459],[-1.243708,51.805503],[-1.243652,51.806534],[-1.244751,51.807923],[-1.241964,51.809996],[-1.239402,51.809471],[-1.239347,51.808378],[-1.236582,51.808303],[-1.236598,51.80964],[-1.230902,51.809395],[-1.226049,51.806643],[-1.225389,51.806419],[-1.224573,51.806941],[-1.221116,51.805079],[-1.222067,51.803645],[-1.221876,51.802764],[-1.222847,51.802485],[-1.22134,51.801558],[-1.215833,51.803091],[-1.210357,51.802463],[-1.210448,51.80096],[-1.208342,51.798155],[-1.205812,51.80056],[-1.203815,51.798578],[-1.2025,51.797997],[-1.198176,51.798181],[-1.194519,51.796994],[-1.190679,51.798537],[-1.191515,51.800234],[-1.188338,51.803591],[-1.188486,51.804944],[-1.18802,51.806503],[-1.188481,51.808862],[-1.186605,51.808627],[-1.187317,51.812136],[-1.172052,51.812352],[-1.170454,51.813053],[-1.16741,51.813778],[-1.165691,51.811777],[-1.167274,51.810773],[-1.167121,51.809685]]]}}]}