{"type":"FeatureCollection","features":[{"type":"Feature","properties":{"slug":"south-cambridgeshire","gss_code":"E07000012","name":"South Cambridgeshire"},"geometry":{"type":"Polygon","coordinates":[[[0.043226,52.352302],[0.044649,52.352352],[0.044176,52.35277],[0.046021,52.352073],[0.045834,52.35183],[0.049595,52.34949],[0.056681,52.346392],[0.059297,52.344188],[0.065264,52.341367],[0.073873,52.338441],[0.07659,52.337051],[0.082211,52.334863],[0.084529,52.334656],[0.08688,52.335646],[0.087963,52.335247],[0.089053,52.335265],[0.089494,52.334843],[0.091042,52.334914],[0.092163,52.334339],[0.093555,52.334145],[0.096506,52.3313],[0.099744,52.331087],[0.102621,52.330292],[0.104797,52.328762],[0.107978,52.329309],[0.110287,52.328205],[0.115433,52.328373],[0.120033,52.328133],[0.123052,52.326935],[0.125917,52.326672],[0.128281,52.325405],[0.130578,52.325121],[0.134394,52.322895],[0.138453,52.321121],[0.140316,52.32067],[0.142854,52.32125],[0.142168,52.322664],[0.143177,52.324084],[0.147352,52.32414],[0.149051,52.325528],[0.151863,52.324634],[0.1625,52.32423],[0.162903,52.323521],[0.162103,52.322176],[0.162265,52.321584],[0.164276,52.320492],[0.166108,52.31805],[0.167413,52.317601],[0.169169,52.317872],[0.169809,52.318754],[0.170855,52.319351],[0.175489,52.319886],[0.177741,52.321032],[0.181637,52.321222],[0.189485,52.323096],[0.192714,52.323114],[0.195897,52.324181],[0.197528,52.324268],[0.200063,52.323427],[0.198605,52.318412],[0.203279,52.316899],[0.205886,52.316847],[0.238951,52.320325],[0.239875,52.321971],[0.238466,52.323714],[0.239303,52.324703],[0.239315,52.32559],[0.243778,52.325361],[0.244456,52.324537],[0.248817,52.322854],[0.247907,52.322796],[0.248455,52.321721],[0.247895,52.321445],[0.247652,52.32051],[0.248484,52.320052],[0.248366,52.31963],[0.248912,52.3191],[0.250146,52.319082],[0.248008,52.311653],[0.246901,52.31115],[0.247325,52.310545],[0.247257,52.309203],[0.246193,52.307044],[0.244778,52.305756],[0.246179,52.303872],[0.24719,52.30383],[0.246176,52.301251],[0.244121,52.299575],[0.243082,52.297184],[0.241243,52.295474],[0.241157,52.294554],[0.242007,52.292553],[0.241561,52.290923],[0.240417,52.290371],[0.236767,52.289906],[0.230314,52.286454],[0.229857,52.285892],[0.229705,52.283177],[0.228117,52.28116],[0.224193,52.278442],[0.222651,52.276374],[0.220464,52.274604],[0.218761,52.274235],[0.216373,52.274284],[0.215089,52.273881],[0.213973,52.271462],[0.211581,52.269918],[0.214602,52.26714],[0.216046,52.266579],[0.216069,52.266034],[0.216998,52.266077],[0.217926,52.265073],[0.220618,52.263541],[0.219359,52.262607],[0.218514,52.260429],[0.218764,52.259779],[0.21047,52.24946],[0.215278,52.24967],[0.218205,52.249221],[0.217868,52.248098],[0.21904,52.247094],[0.2208,52.243389],[0.222187,52.242891],[0.222031,52.241706],[0.226331,52.239711],[0.229503,52.236663],[0.225348,52.231695],[0.230449,52.228931],[0.231385,52.229696],[0.230897,52.230502],[0.232857,52.231489],[0.235007,52.228826],[0.239761,52.226026],[0.242693,52.225352],[0.244574,52.222763],[0.247885,52.221241],[0.249692,52.21925],[0.249277,52.218634],[0.254408,52.214523],[0.257321,52.213126],[0.260804,52.211985],[0.26899,52.208095],[0.273432,52.205497],[0.278159,52.204074],[0.278016,52.203564],[0.280627,52.202643],[0.28754,52.201186],[0.296722,52.196587],[0.304172,52.193633],[0.310991,52.190474],[0.310379,52.185727],[0.318112,52.181837],[0.321242,52.179772],[0.321939,52.17884],[0.324961,52.178912],[0.33066,52.17738],[0.334444,52.175745],[0.334277,52.17545],[0.338452,52.174402],[0.339873,52.173278],[0.341959,52.172374],[0.346798,52.171265],[0.351716,52.168639],[0.361635,52.167276],[0.364078,52.167963],[0.369726,52.167444],[0.370957,52.166341],[0.372716,52.166771],[0.377434,52.1666],[0.3761,52.164525],[0.376207,52.164146],[0.376792,52.164578],[0.377413,52.164412],[0.377446,52.163797],[0.3764,52.163814],[0.376341,52.163233],[0.383672,52.161649],[0.387133,52.161985],[0.38891,52.161801],[0.391596,52.159126],[0.393962,52.159449],[0.394915,52.15797],[0.397152,52.158282],[0.398605,52.158893],[0.399185,52.158286],[0.402312,52.159418],[0.405447,52.159589],[0.406836,52.159133],[0.409171,52.156691],[0.409891,52.156401],[0.412549,52.15708],[0.417276,52.159307],[0.420477,52.156746],[0.420886,52.155639],[0.419788,52.152833],[0.419457,52.150632],[0.419689,52.146771],[0.418453,52.145536],[0.418584,52.142446],[0.419669,52.139611],[0.41913,52.138122],[0.419363,52.137324],[0.417486,52.133162],[0.413678,52.134169],[0.411888,52.134003],[0.409929,52.134416],[0.406885,52.130932],[0.404674,52.129255],[0.405559,52.128244],[0.406539,52.127918],[0.406956,52.126813],[0.407778,52.126194],[0.409442,52.125851],[0.409011,52.124036],[0.40734,52.123101],[0.405796,52.122765],[0.396363,52.122359],[0.39488,52.121547],[0.395228,52.119674],[0.39834,52.118792],[0.38959,52.117471],[0.389323,52.116221],[0.38817,52.114403],[0.388582,52.113532],[0.385494,52.11034],[0.385231,52.106615],[0.383695,52.105409],[0.381804,52.102701],[0.382587,52.101148],[0.384004,52.100727],[0.38592,52.099555],[0.388688,52.099212],[0.388212,52.098263],[0.386301,52.097686],[0.386864,52.097305],[0.389193,52.097138],[0.392372,52.096078],[0.394997,52.095968],[0.394667,52.09488],[0.392722,52.095309],[0.392477,52.095019],[0.39085,52.088483],[0.393874,52.08817],[0.393382,52.086508],[0.39418,52.084354],[0.395358,52.084072],[0.397183,52.083012],[0.399508,52.084159],[0.401711,52.082595],[0.401021,52.082025],[0.400521,52.082288],[0.399966,52.081863],[0.40062,52.081519],[0.400236,52.081035],[0.400605,52.080125],[0.402996,52.078203],[0.401663,52.076432],[0.403679,52.075131],[0.400908,52.074032],[0.400893,52.073019],[0.407092,52.070794],[0.405708,52.069361],[0.406203,52.069175],[0.403326,52.066251],[0.404638,52.065502],[0.403569,52.0638],[0.402391,52.063812],[0.40222,52.063453],[0.400859,52.063516],[0.400722,52.063289],[0.399015,52.063513],[0.396016,52.060719],[0.392472,52.061144],[0.39042,52.060288],[0.382297,52.051003],[0.379613,52.049563],[0.383094,52.045995],[0.386247,52.044235],[0.388189,52.043717],[0.387668,52.040832],[0.38968,52.036458],[0.386354,52.036075],[0.38084,52.036987],[0.377507,52.036334],[0.374862,52.037321],[0.374587,52.037108],[0.371722,52.037369],[0.368575,52.039319],[0.367027,52.039741],[0.366215,52.041315],[0.363836,52.04362],[0.364642,52.043959],[0.363324,52.044698],[0.35224,52.04697],[0.345933,52.049701],[0.343749,52.051057],[0.343303,52.052188],[0.344433,52.052333],[0.344007,52.053207],[0.341241,52.054824],[0.341492,52.055679],[0.341033,52.055984],[0.3417,52.056318],[0.339579,52.057454],[0.337662,52.059765],[0.335479,52.060344],[0.331927,52.062811],[0.329801,52.065859],[0.328396,52.067047],[0.327581,52.068635],[0.327268,52.068521],[0.32498,52.069975],[0.325576,52.071207],[0.323477,52.071981],[0.324674,52.072783],[0.321948,52.074302],[0.316769,52.076105],[0.312081,52.076551],[0.312098,52.076905],[0.311065,52.076944],[0.310281,52.078863],[0.308702,52.080284],[0.302386,52.082598],[0.292168,52.088165],[0.286432,52.09025],[0.276231,52.092658],[0.275263,52.091076],[0.271828,52.090061],[0.269061,52.087541],[0.264795,52.084757],[0.254081,52.080035],[0.252383,52.078219],[0.252027,52.077063],[0.251573,52.076786],[0.24752,52.079111],[0.246351,52.082057],[0.244113,52.083018],[0.235208,52.089],[0.229447,52.089801],[0.224193,52.089252],[0.215967,52.08998],[0.213101,52.090386],[0.213005,52.091023],[0.203459,52.092674],[0.200592,52.087397],[0.199277,52.085886],[0.19397,52.075481],[0.193591,52.07514],[0.184562,52.073854],[0.184463,52.073557],[0.183194,52.073183],[0.186864,52.065678],[0.189916,52.0622],[0.188365,52.0609],[0.189922,52.060201],[0.186373,52.056661],[0.181858,52.05694],[0.181523,52.056686],[0.177998,52.057323],[0.177729,52.056959],[0.176712,52.05693],[0.176285,52.056121],[0.175478,52.056144],[0.174107,52.055581],[0.16757,52.055],[0.167285,52.051764],[0.166364,52.051562],[0.166396,52.048191],[0.160757,52.04844],[0.161425,52.049768],[0.160578,52.052099],[0.152634,52.050318],[0.151147,52.052872],[0.142474,52.050826],[0.136617,52.050005],[0.134245,52.048927],[0.133764,52.049148],[0.132567,52.048349],[0.131693,52.048712],[0.13123,52.048362],[0.130424,52.048439],[0.128135,52.047323],[0.128264,52.050002],[0.127593,52.051899],[0.124938,52.054126],[0.122898,52.057566],[0.121961,52.057387],[0.119078,52.059963],[0.114569,52.060601],[0.109539,52.059997],[0.105736,52.060261],[0.104971,52.057743],[0.105976,52.049739],[0.104974,52.049661],[0.104763,52.048728],[0.103055,52.047568],[0.101417,52.045492],[0.100377,52.041804],[0.101147,52.038852],[0.096428,52.034423],[0.09491,52.033725],[0.094195,52.032874],[0.093638,52.030662],[0.092979,52.030226],[0.094701,52.029028],[0.091196,52.025185],[0.091737,52.024964],[0.0908,52.02254],[0.092254,52.021654],[0.089542,52.019959],[0.085211,52.016212],[0.085424,52.01483],[0.083248,52.013584],[0.083106,52.011533],[0.082276,52.010053],[0.080626,52.008215],[0.079063,52.007722],[0.07577,52.007181],[0.07125,52.008237],[0.070074,52.007434],[0.069682,52.006173],[0.068156,52.005763],[0.065096,52.007604],[0.063957,52.009611],[0.06245,52.010932],[0.062146,52.012012],[0.059042,52.014527],[0.058991,52.016374],[0.060167,52.018648],[0.058287,52.020565],[0.054397,52.022493],[0.052098,52.024631],[0.050456,52.028473],[0.049667,52.033835],[0.047641,52.03675],[0.043034,52.041501],[0.043365,52.041873],[0.041625,52.045266],[0.041569,52.049036],[0.040394,52.053136],[0.033649,52.05183],[0.024856,52.051431],[0.01129,52.04966],[0.007186,52.049533],[0.002604,52.050095],[-0.001343,52.051609],[-0.003552,52.053418],[-0.006433,52.05724],[-0.012628,52.061548],[-0.013175,52.061397],[-0.017242,52.063261],[-0.020849,52.063631],[-0.024412,52.063316],[-0.028797,52.0619],[-0.030019,52.061959],[-0.030631,52.061236],[-0.037569,52.05785],[-0.050266,52.050068],[-0.054264,52.046608],[-0.056988,52.045362],[-0.063914,52.043528],[-0.079039,52.037884],[-0.107694,52.028355],[-0.112236,52.025912],[-0.112403,52.026121],[-0.120999,52.019521],[-0.126568,52.020922],[-0.122339,52.029636],[-0.122525,52.029953],[-0.123102,52.029996],[-0.123747,52.033634],[-0.124677,52.034856],[-0.126829,52.036086],[-0.131573,52.04263],[-0.131303,52.043302],[-0.13373,52.046233],[-0.13672,52.04603],[-0.141674,52.047244],[-0.144576,52.04699],[-0.146035,52.047546],[-0.149026,52.050226],[-0.152139,52.051026],[-0.15453,52.052348],[-0.155121,52.053061],[-0.154946,52.054273],[-0.15264,52.055849],[-0.152059,52.057418],[-0.150211,52.05918],[-0.149934,52.061235],[-0.151885,52.064674],[-0.150655,52.065838],[-0.149014,52.066222],[-0.147927,52.067637],[-0.148009,52.068873],[-0.147509,52.06945],[-0.148606,52.070484],[-0.148026,52.071275],[-0.148722,52.072904],[-0.150014,52.074278],[-0.152111,52.075181],[-0.153491,52.076234],[-0.156363,52.076779],[-0.157224,52.07877],[-0.157091,52.079416],[-0.157873,52.079979],[-0.15712,52.080299],[-0.157605,52.080441],[-0.156229,52.081051],[-0.156669,52.081175],[-0.15625,52.08137],[-0.156748,52.081749],[-0.155922,52.082627],[-0.156227,52.083452],[-0.155425,52.083357],[-0.155707,52.083807],[-0.155197,52.083834],[-0.155298,52.084206],[-0.154867,52.084125],[-0.155014,52.084672],[-0.154311,52.084964],[-0.15461,52.085189],[-0.154084,52.086241],[-0.15045,52.088832],[-0.149001,52.091226],[-0.149748,52.092171],[-0.148887,52.092703],[-0.14929,52.093148],[-0.148588,52.093463],[-0.148993,52.09451],[-0.148674,52.094679],[-0.149137,52.095117],[-0.148487,52.095443],[-0.150335,52.097014],[-0.147485,52.098845],[-0.148504,52.099664],[-0.147165,52.10041],[-0.148429,52.101556],[-0.146871,52.103014],[-0.147834,52.10389],[-0.146233,52.105987],[-0.147665,52.107117],[-0.145897,52.107895],[-0.147049,52.109027],[-0.14543,52.109902],[-0.146944,52.11117],[-0.145738,52.111763],[-0.146748,52.112842],[-0.146833,52.113702],[-0.147888,52.114253],[-0.145887,52.115568],[-0.143986,52.117742],[-0.145605,52.11789],[-0.144197,52.129943],[-0.144434,52.138164],[-0.148352,52.138953],[-0.149691,52.138835],[-0.151441,52.14181],[-0.150513,52.143619],[-0.152706,52.14316],[-0.154403,52.144411],[-0.156466,52.143972],[-0.159673,52.144068],[-0.160087,52.143023],[-0.162657,52.143061],[-0.162712,52.1426],[-0.163945,52.142392],[-0.163751,52.140128],[-0.166106,52.139892],[-0.169133,52.14026],[-0.171535,52.139503],[-0.174475,52.140328],[-0.176025,52.139762],[-0.181679,52.13976],[-0.190783,52.141468],[-0.19807,52.142005],[-0.203417,52.143356],[-0.204138,52.143979],[-0.206204,52.144449],[-0.207779,52.144537],[-0.20932,52.143843],[-0.213607,52.143379],[-0.21721,52.144078],[-0.219168,52.143893],[-0.234804,52.144727],[-0.227949,52.147793],[-0.22488,52.149755],[-0.222703,52.15313],[-0.219425,52.157009],[-0.218089,52.158166],[-0.213486,52.159823],[-0.211218,52.161092],[-0.203491,52.162858],[-0.202257,52.163635],[-0.198114,52.164917],[-0.193475,52.167455],[-0.191855,52.166902],[-0.190489,52.168776],[-0.189534,52.169206],[-0.18689,52.167602],[-0.183753,52.16893],[-0.182043,52.167867],[-0.179546,52.167902],[-0.178757,52.167016],[-0.168655,52.167631],[-0.15619,52.167246],[-0.155603,52.169385],[-0.151519,52.169782],[-0.150692,52.172056],[-0.150769,52.172351],[-0.151764,52.17239],[-0.152248,52.172797],[-0.153433,52.174515],[-0.153342,52.175437],[-0.152119,52.175902],[-0.150225,52.177307],[-0.144935,52.182744],[-0.143333,52.183289],[-0.141013,52.183417],[-0.137799,52.184468],[-0.133849,52.183075],[-0.116049,52.179537],[-0.110825,52.178884],[-0.108803,52.179103],[-0.107932,52.179659],[-0.106078,52.179291],[-0.104282,52.180896],[-0.10054,52.182665],[-0.101219,52.185415],[-0.104519,52.193552],[-0.107104,52.193805],[-0.10665,52.195099],[-0.105729,52.196145],[-0.104847,52.196074],[-0.104413,52.197011],[-0.107258,52.197586],[-0.103949,52.200385],[-0.105715,52.201007],[-0.104641,52.202862],[-0.107127,52.202955],[-0.10723,52.205686],[-0.108127,52.206883],[-0.109531,52.206522],[-0.109893,52.206958],[-0.111649,52.207044],[-0.115096,52.20817],[-0.130402,52.207231],[-0.136946,52.207778],[-0.137471,52.208046],[-0.140154,52.207928],[-0.141093,52.209645],[-0.147028,52.210238],[-0.152807,52.211997],[-0.156311,52.209072],[-0.159319,52.205706],[-0.166649,52.202536],[-0.168269,52.200813],[-0.17215,52.199281],[-0.17259,52.198322],[-0.173139,52.198286],[-0.173133,52.19769],[-0.175885,52.197256],[-0.175839,52.199562],[-0.17873,52.201629],[-0.183574,52.201989],[-0.189051,52.200579],[-0.191882,52.201369],[-0.192509,52.203322],[-0.194732,52.204374],[-0.195609,52.20449],[-0.193479,52.209586],[-0.192926,52.209731],[-0.191883,52.210932],[-0.189807,52.213921],[-0.18884,52.216557],[-0.188711,52.220841],[-0.187087,52.225082],[-0.186946,52.228858],[-0.182743,52.22869],[-0.180246,52.230223],[-0.175634,52.230481],[-0.171264,52.229284],[-0.165917,52.228601],[-0.162114,52.227571],[-0.155752,52.226457],[-0.15324,52.226136],[-0.152884,52.226529],[-0.149041,52.22595],[-0.150001,52.227871],[-0.148174,52.229163],[-0.147431,52.228861],[-0.144627,52.229409],[-0.140175,52.229149],[-0.140176,52.229884],[-0.137517,52.230178],[-0.137819,52.231763],[-0.136911,52.235489],[-0.136746,52.235832],[-0.134523,52.235679],[-0.134649,52.237289],[-0.13374,52.239515],[-0.134034,52.240951],[-0.133512,52.241037],[-0.13222,52.243262],[-0.134509,52.244433],[-0.13913,52.245425],[-0.14173,52.245462],[-0.142939,52.246457],[-0.145137,52.247431],[-0.145168,52.248013],[-0.145951,52.247811],[-0.146316,52.248456],[-0.147778,52.248474],[-0.148761,52.250149],[-0.14871,52.251687],[-0.151432,52.251901],[-0.152179,52.252926],[-0.155907,52.253756],[-0.157122,52.254308],[-0.162214,52.254542],[-0.170099,52.25586],[-0.173685,52.255779],[-0.176152,52.252998],[-0.177075,52.250266],[-0.177496,52.250291],[-0.177621,52.251293],[-0.180338,52.255058],[-0.180127,52.255771],[-0.182414,52.256128],[-0.184068,52.260301],[-0.18381,52.262091],[-0.182954,52.264248],[-0.180918,52.267102],[-0.179043,52.266627],[-0.177934,52.269971],[-0.179822,52.270468],[-0.175477,52.280217],[-0.170865,52.281713],[-0.163898,52.282221],[-0.159815,52.283364],[-0.148118,52.284606],[-0.144186,52.283554],[-0.143946,52.283119],[-0.142714,52.283196],[-0.123708,52.257072],[-0.12112,52.257317],[-0.120543,52.259773],[-0.1186,52.260944],[-0.118286,52.26227],[-0.114238,52.262019],[-0.114871,52.263893],[-0.113899,52.26417],[-0.114062,52.266193],[-0.111485,52.266212],[-0.111165,52.26894],[-0.109635,52.268777],[-0.10748,52.270431],[-0.107496,52.271781],[-0.106107,52.271798],[-0.106068,52.273035],[-0.101734,52.276903],[-0.102271,52.277671],[-0.09813,52.277934],[-0.097405,52.275598],[-0.095093,52.275306],[-0.094679,52.27462],[-0.092836,52.273832],[-0.085388,52.272502],[-0.084079,52.274304],[-0.082812,52.274245],[-0.082998,52.275003],[-0.082606,52.275285],[-0.0786,52.276938],[-0.075802,52.278685],[-0.076211,52.279255],[-0.07412,52.279958],[-0.074434,52.280357],[-0.070454,52.282639],[-0.067396,52.28542],[-0.066535,52.285146],[-0.064849,52.287358],[-0.063532,52.287755],[-0.062441,52.291053],[-0.061569,52.29084],[-0.061533,52.290518],[-0.060126,52.290407],[-0.057728,52.291756],[-0.057151,52.292779],[-0.059898,52.293977],[-0.054707,52.30079],[-0.051941,52.305734],[-0.049254,52.306802],[-0.047501,52.308206],[-0.046499,52.310333],[-0.047012,52.31339],[-0.046464,52.314659],[-0.045145,52.314539],[-0.042123,52.315121],[-0.038821,52.31432],[-0.03712,52.314281],[-0.034791,52.314945],[-0.031263,52.316812],[-0.022511,52.315328],[-0.016827,52.31267],[-0.015147,52.312545],[-0.011156,52.315291],[-0.007126,52.316958],[-0.004713,52.321717],[-0.004139,52.323473],[0.000165,52.328051],[0.003289,52.329513],[0.008181,52.334451],[0.008476,52.335387],[0.009226,52.336034],[0.009828,52.338937],[0.009332,52.34098],[0.009684,52.341577],[0.01444,52.343777],[0.026488,52.351121],[0.029686,52.351913],[0.030184,52.351681],[0.031764,52.352496],[0.035011,52.353318],[0.038622,52.353259],[0.043226,52.352302]],[[0.151279,52.232917],[0.147631,52.229906],[0.129913,52.235678],[0.127606,52.233839],[0.126141,52.234364],[0.125,52.2343],[0.118745,52.231292],[0.117417,52.228236],[0.113757,52.228957],[0.111597,52.229045],[0.111445,52.229637],[0.107789,52.230555],[0.095961,52.224545],[0.093761,52.222546],[0.092517,52.22314],[0.090037,52.221094],[0.089411,52.221504],[0.08814,52.22055],[0.087557,52.220928],[0.085651,52.219802],[0.085129,52.220043],[0.081545,52.21824],[0.075142,52.217111],[0.074971,52.216789],[0.068639,52.216109],[0.06865,52.214937],[0.071117,52.215126],[0.069802,52.212178],[0.074242,52.211535],[0.073666,52.209874],[0.074101,52.209696],[0.073947,52.208381],[0.077369,52.207882],[0.077635,52.206061],[0.079147,52.205809],[0.079017,52.204354],[0.085534,52.203254],[0.084698,52.201495],[0.090536,52.200233],[0.09231,52.199499],[0.09236,52.199181],[0.093201,52.199321],[0.093839,52.198993],[0.094076,52.199328],[0.094891,52.199333],[0.094999,52.19875],[0.09623,52.19756],[0.097571,52.197309],[0.097407,52.195088],[0.096385,52.192851],[0.096852,52.19208],[0.099724,52.191828],[0.100245,52.192431],[0.104057,52.191513],[0.103698,52.19119],[0.104715,52.190656],[0.104749,52.189011],[0.102828,52.188134],[0.102143,52.187414],[0.102027,52.186513],[0.099989,52.184944],[0.100357,52.18259],[0.099248,52.182204],[0.098132,52.180558],[0.098318,52.179962],[0.099634,52.179335],[0.099496,52.176688],[0.10033,52.175972],[0.101393,52.175859],[0.101578,52.174852],[0.101313,52.173813],[0.099927,52.172763],[0.10003,52.171788],[0.099287,52.171328],[0.106946,52.169893],[0.106092,52.168299],[0.107853,52.168322],[0.105827,52.166183],[0.104682,52.163427],[0.101101,52.160725],[0.10343,52.157942],[0.120578,52.164994],[0.126822,52.166754],[0.126814,52.167056],[0.130181,52.16807],[0.130589,52.167817],[0.141756,52.171005],[0.154927,52.164623],[0.159885,52.168448],[0.162629,52.172481],[0.176416,52.170944],[0.181329,52.169491],[0.181707,52.170603],[0.181181,52.183065],[0.181498,52.18312],[0.181719,52.185264],[0.181349,52.186881],[0.183118,52.186917],[0.183213,52.187848],[0.181021,52.187871],[0.182041,52.189965],[0.184552,52.191485],[0.181702,52.193128],[0.183501,52.195771],[0.181088,52.196546],[0.182686,52.198111],[0.180756,52.198911],[0.181505,52.199558],[0.179932,52.200322],[0.180437,52.200669],[0.178935,52.201414],[0.179921,52.202251],[0.17741,52.203262],[0.178277,52.204076],[0.175749,52.205458],[0.173075,52.203959],[0.172824,52.204384],[0.171236,52.20381],[0.167344,52.204148],[0.168591,52.205047],[0.170876,52.206013],[0.170301,52.207017],[0.170407,52.208889],[0.17301,52.213392],[0.173606,52.213267],[0.175201,52.215565],[0.174735,52.215711],[0.175865,52.217279],[0.16548,52.217906],[0.164968,52.219272],[0.163828,52.219103],[0.15686,52.223318],[0.156172,52.224951],[0.154851,52.226487],[0.157324,52.227494],[0.160978,52.231008],[0.163462,52.230083],[0.164154,52.23077],[0.16665,52.230136],[0.16906,52.233551],[0.171336,52.232958],[0.171439,52.23384],[0.170092,52.234324],[0.169447,52.235249],[0.167339,52.235785],[0.166231,52.234255],[0.155302,52.23729],[0.151279,52.232917]]]}}]}