{"type":"FeatureCollection","features":[{"type":"Feature","properties":{"slug":"south-holland","gss_code":"E07000140","name":"South Holland"},"geometry":{"type":"MultiPolygon","coordinates":[[[[0.267467,52.81326],[0.266325,52.8137],[0.266101,52.814488],[0.264636,52.815081],[0.264482,52.815819],[0.268775,52.815856],[0.267467,52.81326]]],[[[0.238851,52.821999],[0.240176,52.82204],[0.238882,52.820783],[0.238615,52.819214],[0.23892,52.820776],[0.240575,52.822079],[0.244764,52.821996],[0.24438,52.821312],[0.245184,52.822233],[0.244619,52.821082],[0.244764,52.82038],[0.242765,52.817412],[0.244852,52.820411],[0.24467,52.818494],[0.245181,52.820202],[0.244714,52.821074],[0.245263,52.822],[0.245903,52.821165],[0.247216,52.820486],[0.25259,52.819347],[0.252992,52.818317],[0.252502,52.817777],[0.253385,52.81845],[0.253664,52.818124],[0.252995,52.817453],[0.253894,52.818065],[0.252928,52.81686],[0.251841,52.816336],[0.250533,52.812566],[0.251865,52.81629],[0.253028,52.816873],[0.253959,52.818039],[0.25311,52.816617],[0.254508,52.814185],[0.254445,52.813101],[0.254552,52.814148],[0.253162,52.816669],[0.254099,52.818006],[0.254671,52.817386],[0.256429,52.816846],[0.25595,52.815799],[0.256637,52.816697],[0.257157,52.816748],[0.256824,52.815313],[0.256123,52.814605],[0.256749,52.815164],[0.256869,52.815341],[0.257042,52.815866],[0.255717,52.81069],[0.253016,52.8113],[0.255769,52.810664],[0.257084,52.814756],[0.257375,52.81367],[0.25751,52.816986],[0.257858,52.816881],[0.257466,52.815565],[0.25802,52.814211],[0.257699,52.815487],[0.258359,52.814184],[0.257844,52.816012],[0.258332,52.81498],[0.258193,52.815841],[0.258684,52.815986],[0.258901,52.814966],[0.258854,52.816149],[0.259144,52.81533],[0.259122,52.816114],[0.259404,52.816036],[0.259762,52.814802],[0.258878,52.813968],[0.258748,52.813299],[0.259833,52.812047],[0.260335,52.809929],[0.263484,52.810183],[0.260372,52.809962],[0.259873,52.812143],[0.258875,52.813154],[0.259001,52.813945],[0.25975,52.81446],[0.261461,52.812442],[0.26254,52.811638],[0.262601,52.81121],[0.263845,52.810149],[0.264197,52.810057],[0.265875,52.810403],[0.264046,52.810136],[0.262683,52.811589],[0.261781,52.812322],[0.263802,52.812047],[0.261648,52.812381],[0.260018,52.814836],[0.260307,52.815064],[0.260893,52.814596],[0.26119,52.814887],[0.261615,52.814318],[0.261009,52.8153],[0.261246,52.815575],[0.263045,52.813834],[0.261622,52.815648],[0.263525,52.815516],[0.264156,52.815905],[0.264478,52.815126],[0.265104,52.814607],[0.264954,52.814092],[0.265403,52.813247],[0.265195,52.814191],[0.2657,52.814523],[0.266162,52.814271],[0.266342,52.813602],[0.267446,52.813218],[0.263934,52.806248],[0.264009,52.805511],[0.262783,52.803752],[0.262072,52.803622],[0.253117,52.797406],[0.260961,52.796076],[0.251992,52.792572],[0.245038,52.78447],[0.272228,52.772813],[0.269917,52.772053],[0.265887,52.771655],[0.254084,52.767167],[0.251701,52.767128],[0.2475,52.764839],[0.243953,52.764001],[0.233163,52.760265],[0.227815,52.757172],[0.217369,52.753248],[0.211753,52.749543],[0.19659,52.742198],[0.194819,52.738716],[0.190814,52.739475],[0.192278,52.738336],[0.186323,52.735349],[0.172108,52.737944],[0.191966,52.761949],[0.195399,52.765629],[0.201062,52.775594],[0.207184,52.787812],[0.207583,52.787911],[0.207306,52.788171],[0.215795,52.817712],[0.216183,52.818489],[0.216354,52.817821],[0.215541,52.816374],[0.216727,52.816215],[0.216376,52.815747],[0.216908,52.815414],[0.216763,52.816092],[0.217448,52.816144],[0.21565,52.816445],[0.216391,52.817818],[0.216225,52.819069],[0.216813,52.820884],[0.218936,52.82158],[0.221472,52.821665],[0.222134,52.822154],[0.222393,52.821343],[0.221791,52.820946],[0.220454,52.818566],[0.22186,52.820948],[0.22243,52.821241],[0.223491,52.820779],[0.223649,52.82054],[0.224479,52.820211],[0.225769,52.818052],[0.225218,52.816886],[0.225327,52.81688],[0.225766,52.817789],[0.22584,52.818271],[0.225662,52.818961],[0.22638,52.818116],[0.226502,52.81694],[0.226682,52.816793],[0.229448,52.816545],[0.22661,52.816882],[0.226435,52.818105],[0.225801,52.818952],[0.2245,52.820293],[0.222584,52.821333],[0.222558,52.822987],[0.225049,52.822279],[0.225906,52.822637],[0.226789,52.822543],[0.227581,52.823232],[0.229217,52.823811],[0.234592,52.823307],[0.238851,52.821999]]],[[[0.208091,52.826161],[0.209723,52.826878],[0.20904,52.826394],[0.209706,52.82675],[0.210284,52.826655],[0.209376,52.826279],[0.210708,52.826589],[0.209805,52.826334],[0.210455,52.82633],[0.209821,52.826089],[0.209685,52.825877],[0.20558,52.824909],[0.204554,52.825972],[0.207564,52.826902],[0.208909,52.826884],[0.206326,52.826436],[0.20983,52.826959],[0.208091,52.826161]]],[[[0.212537,52.826623],[0.210552,52.826133],[0.212588,52.826606],[0.213375,52.826551],[0.213222,52.826348],[0.211181,52.826224],[0.210355,52.82607],[0.209882,52.826078],[0.210581,52.826278],[0.210824,52.826632],[0.2121,52.826781],[0.213221,52.827154],[0.214011,52.827004],[0.21346,52.826643],[0.212537,52.826623]]],[[[0.214291,52.825871],[0.213389,52.826376],[0.214105,52.826774],[0.214365,52.827586],[0.21526,52.827689],[0.215323,52.826407],[0.214291,52.825871]]],[[[0.213774,52.827224],[0.21311,52.827247],[0.210089,52.826713],[0.209945,52.827037],[0.209051,52.826905],[0.20866,52.827167],[0.209512,52.827261],[0.213415,52.828699],[0.213657,52.828506],[0.2126,52.828161],[0.213752,52.828476],[0.214147,52.828687],[0.215163,52.828514],[0.213774,52.827224]]],[[[0.211901,52.828258],[0.211362,52.828499],[0.210065,52.828518],[0.20897,52.828343],[0.208006,52.82839],[0.209946,52.828999],[0.213375,52.828753],[0.211901,52.828258]]],[[[0.11456,52.888925],[0.114315,52.88698],[0.114311,52.885025],[0.114794,52.884179],[0.114876,52.883192],[0.114664,52.882563],[0.113618,52.882854],[0.11408,52.88395],[0.112985,52.88682],[0.11363,52.888496],[0.113339,52.88991],[0.114262,52.892076],[0.116731,52.893209],[0.116811,52.892686],[0.115476,52.891464],[0.117034,52.892696],[0.117147,52.893333],[0.117418,52.892914],[0.116649,52.891976],[0.116727,52.891585],[0.11456,52.888925]]],[[[0.115389,52.892692],[0.113877,52.89211],[0.112997,52.889977],[0.11074,52.889225],[0.111803,52.88938],[0.110722,52.887514],[0.111432,52.888641],[0.110718,52.886888],[0.1116,52.888883],[0.111698,52.888056],[0.110628,52.885842],[0.111521,52.887387],[0.111735,52.888089],[0.111648,52.88899],[0.111918,52.889302],[0.111749,52.886406],[0.110981,52.885298],[0.111779,52.886356],[0.111995,52.88946],[0.112783,52.889821],[0.112419,52.888636],[0.113059,52.889881],[0.113416,52.888555],[0.111488,52.883908],[0.110995,52.883396],[0.109281,52.883569],[0.109092,52.88334],[0.101875,52.883841],[0.101516,52.884063],[0.102758,52.884351],[0.102068,52.884699],[0.102286,52.885011],[0.101236,52.886852],[0.101093,52.888106],[0.100281,52.888708],[0.099911,52.892585],[0.100542,52.893418],[0.100425,52.894209],[0.100761,52.894441],[0.101097,52.894169],[0.10107,52.89404],[0.101441,52.893872],[0.101004,52.891918],[0.100954,52.890628],[0.101243,52.889538],[0.101435,52.890068],[0.101049,52.890714],[0.101508,52.893935],[0.102093,52.893907],[0.102655,52.892527],[0.102449,52.893736],[0.102911,52.894017],[0.102961,52.892856],[0.103812,52.892501],[0.103695,52.892012],[0.103075,52.891875],[0.102388,52.891111],[0.10178,52.889189],[0.102034,52.888175],[0.101823,52.889144],[0.102485,52.891081],[0.103815,52.892046],[0.103893,52.892538],[0.103046,52.892884],[0.103067,52.89431],[0.104389,52.894393],[0.104077,52.892763],[0.104444,52.891332],[0.103378,52.888826],[0.103325,52.887968],[0.103851,52.887227],[0.103385,52.887954],[0.103855,52.889663],[0.104601,52.888457],[0.105717,52.887776],[0.104604,52.888492],[0.103829,52.889718],[0.104571,52.891583],[0.105003,52.891043],[0.10498,52.889451],[0.105839,52.888668],[0.105004,52.889506],[0.105068,52.891031],[0.104252,52.892423],[0.104549,52.894027],[0.104716,52.892956],[0.10499,52.894085],[0.105557,52.893097],[0.106778,52.889317],[0.105763,52.892564],[0.106261,52.891719],[0.108815,52.890703],[0.109239,52.889938],[0.108737,52.888707],[0.109144,52.889279],[0.10927,52.890061],[0.108872,52.89071],[0.106204,52.891831],[0.105637,52.89317],[0.10515,52.893887],[0.105897,52.894415],[0.108093,52.894396],[0.108267,52.893127],[0.108462,52.894422],[0.116467,52.893548],[0.115389,52.892692]]],[[[0.029366,52.897564],[0.028305,52.897789],[0.030585,52.899412],[0.032279,52.900106],[0.032506,52.899971],[0.03156,52.898275],[0.029366,52.897564]]],[[[0.063135,52.916447],[0.06406,52.916558],[0.064335,52.916078],[0.062856,52.915613],[0.062538,52.914789],[0.063799,52.915231],[0.062029,52.914256],[0.06294,52.914535],[0.064148,52.91535],[0.065684,52.915931],[0.064367,52.915335],[0.062891,52.914415],[0.065335,52.915086],[0.065842,52.914971],[0.066298,52.915182],[0.067902,52.91503],[0.067899,52.914688],[0.0668,52.913988],[0.062395,52.913409],[0.066931,52.913951],[0.065323,52.912042],[0.062873,52.911455],[0.061652,52.912019],[0.062359,52.911416],[0.06128,52.911324],[0.059938,52.912257],[0.060624,52.911471],[0.061534,52.911249],[0.060964,52.911147],[0.054193,52.911297],[0.060938,52.911079],[0.066803,52.911989],[0.067558,52.911449],[0.066454,52.909776],[0.067043,52.909101],[0.063012,52.90887],[0.061315,52.909103],[0.062494,52.908847],[0.065137,52.908875],[0.067896,52.907599],[0.066426,52.907267],[0.062882,52.907498],[0.060676,52.908642],[0.059146,52.908566],[0.0535,52.906962],[0.048324,52.904709],[0.053475,52.906853],[0.059945,52.908596],[0.060697,52.908518],[0.062587,52.9074],[0.065357,52.90711],[0.063626,52.906601],[0.057305,52.906947],[0.056314,52.906308],[0.057533,52.906923],[0.064086,52.906545],[0.064596,52.906227],[0.064136,52.905991],[0.062827,52.906458],[0.064014,52.905896],[0.062645,52.90618],[0.063859,52.905785],[0.061521,52.906031],[0.063398,52.905724],[0.062457,52.905539],[0.063069,52.905546],[0.062666,52.90537],[0.061789,52.905563],[0.062408,52.905324],[0.060705,52.905509],[0.058093,52.905214],[0.055895,52.905346],[0.057146,52.90519],[0.055127,52.905065],[0.059158,52.90518],[0.060843,52.90542],[0.06179,52.905122],[0.059526,52.905157],[0.061579,52.905083],[0.05817,52.904594],[0.054746,52.903306],[0.05303,52.90329],[0.051621,52.90438],[0.052926,52.903301],[0.053425,52.903192],[0.048003,52.903643],[0.046569,52.903424],[0.046114,52.903193],[0.046332,52.902305],[0.041603,52.901189],[0.044769,52.901793],[0.049851,52.903283],[0.053299,52.903071],[0.055454,52.90325],[0.054252,52.902307],[0.053161,52.902075],[0.048525,52.902257],[0.046373,52.901622],[0.044886,52.900574],[0.040111,52.900738],[0.044905,52.900539],[0.045286,52.90058],[0.043946,52.899708],[0.041898,52.899102],[0.037428,52.899596],[0.036601,52.899449],[0.035078,52.898239],[0.034877,52.896979],[0.032712,52.897091],[0.032992,52.897618],[0.031699,52.898366],[0.032681,52.899874],[0.033189,52.899626],[0.035211,52.899452],[0.033152,52.899683],[0.032648,52.900075],[0.033043,52.90043],[0.034128,52.900902],[0.035126,52.90029],[0.034287,52.900936],[0.03463,52.900884],[0.034366,52.901087],[0.035031,52.901403],[0.036204,52.900793],[0.035243,52.901531],[0.035835,52.901666],[0.036998,52.901151],[0.035846,52.901853],[0.036486,52.902144],[0.036976,52.901861],[0.038231,52.901814],[0.03685,52.901937],[0.036558,52.902206],[0.036952,52.90244],[0.038705,52.902105],[0.037138,52.902541],[0.039304,52.902309],[0.037347,52.902565],[0.038349,52.90324],[0.038884,52.902816],[0.040525,52.902819],[0.038917,52.902837],[0.038537,52.903363],[0.03897,52.903553],[0.039182,52.903412],[0.039481,52.903291],[0.040381,52.90331],[0.039048,52.903633],[0.039467,52.903816],[0.04055,52.903547],[0.039602,52.903958],[0.041762,52.905294],[0.041996,52.904958],[0.041846,52.905363],[0.042288,52.905675],[0.043241,52.905282],[0.042461,52.905789],[0.043416,52.905539],[0.042774,52.905977],[0.04327,52.906321],[0.043704,52.906029],[0.043483,52.906461],[0.044308,52.906148],[0.043618,52.90655],[0.043994,52.906795],[0.045305,52.906505],[0.044158,52.906834],[0.044603,52.907175],[0.045312,52.906749],[0.044716,52.90725],[0.045109,52.90745],[0.04573,52.907221],[0.045135,52.907496],[0.045758,52.907935],[0.046757,52.907372],[0.045907,52.908009],[0.047487,52.908993],[0.048153,52.908341],[0.047563,52.908987],[0.047923,52.909333],[0.049054,52.908801],[0.048162,52.909446],[0.048902,52.90996],[0.050457,52.909542],[0.049192,52.910099],[0.049657,52.910434],[0.051983,52.909191],[0.049974,52.910628],[0.054022,52.913216],[0.055916,52.912857],[0.054366,52.913427],[0.05691,52.913436],[0.054625,52.913572],[0.056972,52.915036],[0.059744,52.915222],[0.060369,52.914642],[0.060278,52.915434],[0.057331,52.915065],[0.059006,52.916339],[0.059426,52.91613],[0.060309,52.916363],[0.060757,52.915409],[0.061762,52.915847],[0.060379,52.914409],[0.061558,52.915451],[0.061874,52.915567],[0.060681,52.914454],[0.061937,52.915511],[0.062383,52.915509],[0.061675,52.914681],[0.062432,52.915493],[0.061016,52.916595],[0.062001,52.916343],[0.061925,52.916685],[0.062492,52.916342],[0.062055,52.916731],[0.062459,52.917245],[0.063135,52.916447]],[[0.064375,52.914331],[0.062409,52.913978],[0.064363,52.914289],[0.065842,52.914971],[0.064375,52.914331]]],[[[0.067893,52.917004],[0.068216,52.917079],[0.068183,52.916784],[0.06933,52.916923],[0.069186,52.916492],[0.068271,52.916076],[0.068483,52.915676],[0.06503,52.915077],[0.063812,52.914684],[0.064458,52.915353],[0.065769,52.915943],[0.064708,52.915971],[0.063311,52.915356],[0.064996,52.915824],[0.064742,52.915611],[0.062738,52.914901],[0.06313,52.915543],[0.064364,52.916035],[0.064456,52.916215],[0.064217,52.916533],[0.063707,52.916772],[0.063223,52.916467],[0.062838,52.917396],[0.063283,52.917338],[0.06424,52.918053],[0.064834,52.917785],[0.065258,52.918167],[0.065615,52.917545],[0.065003,52.916757],[0.065689,52.917554],[0.065612,52.918128],[0.066336,52.91798],[0.06695,52.918594],[0.068589,52.9186],[0.068527,52.918382],[0.069081,52.918336],[0.067893,52.917004]]],[[[-0.21423,52.923288],[-0.213755,52.923677],[-0.20821,52.922478],[-0.201744,52.920576],[-0.198512,52.918285],[-0.195178,52.917772],[-0.192299,52.916941],[-0.191624,52.915949],[-0.192281,52.915214],[-0.192083,52.914663],[-0.190669,52.914938],[-0.190837,52.91534],[-0.189867,52.915427],[-0.189719,52.915804],[-0.188473,52.915778],[-0.187988,52.916683],[-0.186013,52.916468],[-0.186525,52.9156],[-0.185619,52.914921],[-0.184315,52.914575],[-0.179732,52.915454],[-0.178248,52.916803],[-0.178507,52.918293],[-0.177865,52.919053],[-0.176177,52.918443],[-0.171785,52.917645],[-0.171607,52.916194],[-0.169774,52.914395],[-0.168083,52.914369],[-0.167307,52.912337],[-0.166054,52.912097],[-0.161149,52.912695],[-0.160163,52.911436],[-0.159297,52.911673],[-0.159324,52.912268],[-0.156617,52.912163],[-0.156292,52.911816],[-0.15682,52.910945],[-0.155199,52.90962],[-0.154312,52.908042],[-0.150703,52.905996],[-0.150722,52.904111],[-0.14994,52.90271],[-0.151035,52.901822],[-0.150273,52.900308],[-0.149279,52.900285],[-0.148732,52.900733],[-0.147601,52.899573],[-0.146965,52.899405],[-0.146643,52.898672],[-0.14686,52.898419],[-0.148578,52.898785],[-0.14893,52.897967],[-0.147777,52.897387],[-0.148742,52.897245],[-0.149511,52.896285],[-0.151029,52.896085],[-0.151612,52.895372],[-0.151635,52.894238],[-0.147358,52.891926],[-0.14697,52.891213],[-0.145729,52.891282],[-0.144735,52.890769],[-0.144741,52.88959],[-0.143921,52.889186],[-0.145228,52.888726],[-0.145383,52.888164],[-0.144146,52.887545],[-0.145253,52.887056],[-0.143463,52.886335],[-0.142652,52.884908],[-0.141938,52.884956],[-0.140973,52.884472],[-0.139359,52.88482],[-0.138206,52.884674],[-0.137765,52.885602],[-0.136494,52.88578],[-0.135191,52.885461],[-0.135671,52.885139],[-0.135564,52.884449],[-0.135177,52.884381],[-0.133568,52.885621],[-0.132266,52.884515],[-0.132194,52.88381],[-0.131143,52.883529],[-0.129169,52.882125],[-0.129191,52.881773],[-0.126986,52.880596],[-0.128181,52.880158],[-0.127592,52.879812],[-0.126823,52.879995],[-0.125481,52.879752],[-0.126088,52.880614],[-0.124278,52.880959],[-0.123723,52.881866],[-0.122487,52.882407],[-0.122034,52.882501],[-0.121577,52.88217],[-0.119995,52.882639],[-0.116645,52.881589],[-0.11782,52.881061],[-0.117407,52.880334],[-0.115088,52.879323],[-0.114227,52.879591],[-0.11405,52.878891],[-0.112369,52.877978],[-0.109919,52.877949],[-0.107293,52.876766],[-0.103566,52.876914],[-0.101379,52.874305],[-0.1005,52.874672],[-0.098748,52.873085],[-0.098852,52.872825],[-0.099754,52.872741],[-0.100327,52.871672],[-0.100905,52.871796],[-0.099922,52.870607],[-0.098584,52.872006],[-0.096896,52.871214],[-0.097421,52.87029],[-0.096251,52.869827],[-0.096419,52.869257],[-0.09445,52.866621],[-0.092826,52.866492],[-0.091849,52.867071],[-0.091871,52.867379],[-0.093272,52.867621],[-0.092838,52.868167],[-0.09099,52.867759],[-0.089474,52.867799],[-0.088974,52.867313],[-0.090195,52.86676],[-0.089992,52.866329],[-0.088881,52.865886],[-0.087288,52.865891],[-0.084794,52.864546],[-0.082052,52.865367],[-0.080466,52.866921],[-0.069791,52.864392],[-0.081995,52.856272],[-0.087268,52.854748],[-0.090907,52.853298],[-0.094133,52.850712],[-0.097208,52.847481],[-0.101157,52.84585],[-0.097276,52.847214],[-0.097951,52.845596],[-0.097129,52.846306],[-0.097116,52.84426],[-0.111359,52.828438],[-0.113592,52.826514],[-0.117718,52.821788],[-0.120301,52.818174],[-0.12439,52.814268],[-0.125986,52.811182],[-0.135173,52.799707],[-0.134004,52.800724],[-0.133546,52.799683],[-0.132876,52.799336],[-0.132584,52.799585],[-0.133291,52.800243],[-0.133259,52.801235],[-0.125611,52.810984],[-0.124024,52.814022],[-0.119498,52.818333],[-0.117318,52.821632],[-0.112949,52.82644],[-0.110248,52.828873],[-0.097029,52.843364],[-0.096374,52.844406],[-0.096456,52.847443],[-0.095421,52.848687],[-0.089854,52.853271],[-0.08123,52.856171],[-0.069006,52.864182],[-0.066021,52.8635],[-0.065631,52.862895],[-0.059243,52.863669],[-0.040349,52.868451],[-0.034959,52.870398],[-0.036982,52.87242],[-0.032182,52.874101],[-0.031233,52.873808],[-0.0309,52.873822],[-0.027475,52.874879],[-0.031193,52.873886],[-0.031668,52.874316],[-0.023366,52.877379],[-0.018371,52.879676],[-0.017791,52.879653],[-0.018135,52.879776],[-0.002002,52.886815],[-0.000729,52.887324],[-0.00015,52.886945],[-0.000367,52.887518],[0.005787,52.890213],[0.0066,52.88978],[0.006181,52.890398],[0.010907,52.892475],[0.011904,52.892832],[0.012027,52.892268],[0.011499,52.892153],[0.01217,52.892133],[0.012085,52.89288],[0.013671,52.893492],[0.013973,52.893412],[0.015056,52.893448],[0.01532,52.893364],[0.01521,52.893174],[0.01543,52.893015],[0.01491,52.892754],[0.014913,52.89255],[0.014059,52.892356],[0.018398,52.892974],[0.015107,52.892581],[0.014959,52.892719],[0.015476,52.892979],[0.015438,52.89335],[0.01508,52.893488],[0.013849,52.893505],[0.015098,52.894001],[0.015698,52.893508],[0.018263,52.893519],[0.019514,52.893041],[0.01983,52.893068],[0.020251,52.893272],[0.019617,52.893053],[0.018366,52.893594],[0.021659,52.89439],[0.022362,52.896156],[0.021617,52.895529],[0.020513,52.895871],[0.029632,52.898993],[0.028859,52.898281],[0.023449,52.896472],[0.023115,52.896166],[0.023554,52.895717],[0.023049,52.895331],[0.023632,52.895752],[0.023174,52.896191],[0.026728,52.89739],[0.027748,52.896456],[0.02173,52.893758],[0.027833,52.896455],[0.027108,52.897496],[0.027467,52.897267],[0.028106,52.897404],[0.029097,52.896771],[0.032164,52.897018],[0.029211,52.896798],[0.028143,52.897438],[0.027471,52.897327],[0.027393,52.897656],[0.028114,52.897971],[0.028305,52.897789],[0.028549,52.897556],[0.029508,52.897556],[0.031652,52.898239],[0.032912,52.897607],[0.032625,52.897154],[0.032655,52.896942],[0.03487,52.896944],[0.035207,52.897639],[0.03509,52.898214],[0.0366,52.899421],[0.039743,52.899259],[0.038836,52.898952],[0.038323,52.898371],[0.039566,52.899171],[0.042346,52.898977],[0.044322,52.899813],[0.046113,52.901166],[0.046211,52.900691],[0.045059,52.899795],[0.042272,52.898506],[0.041934,52.897289],[0.040334,52.897172],[0.042135,52.897257],[0.043242,52.897431],[0.042043,52.897288],[0.042255,52.898427],[0.046158,52.90029],[0.046478,52.901522],[0.04881,52.902165],[0.051069,52.902085],[0.04831,52.901717],[0.047413,52.901228],[0.047173,52.900932],[0.047018,52.89989],[0.047269,52.898981],[0.046671,52.898624],[0.047332,52.898971],[0.047356,52.90112],[0.047978,52.901508],[0.051359,52.902048],[0.048941,52.901205],[0.048372,52.9009],[0.048366,52.900745],[0.049847,52.899652],[0.052357,52.90086],[0.053456,52.900971],[0.052453,52.900914],[0.049697,52.899778],[0.048435,52.900773],[0.051756,52.90201],[0.053515,52.901912],[0.054179,52.901246],[0.053854,52.901238],[0.054554,52.901138],[0.053647,52.901908],[0.058662,52.904395],[0.059544,52.904446],[0.060861,52.904013],[0.05965,52.903252],[0.057189,52.902658],[0.057075,52.902328],[0.060115,52.901204],[0.060522,52.900036],[0.062162,52.899348],[0.060783,52.899166],[0.059091,52.899608],[0.0595,52.899911],[0.058868,52.899677],[0.057052,52.900164],[0.057238,52.900381],[0.056035,52.900245],[0.056375,52.900468],[0.056034,52.900318],[0.055716,52.899915],[0.056013,52.900215],[0.056881,52.900182],[0.061967,52.898644],[0.060761,52.899075],[0.062045,52.89917],[0.062267,52.899398],[0.062162,52.899599],[0.060608,52.90012],[0.062699,52.900052],[0.063068,52.900282],[0.060749,52.900261],[0.060097,52.901354],[0.05732,52.902428],[0.059619,52.903083],[0.061335,52.903959],[0.06495,52.904527],[0.065175,52.903378],[0.066054,52.902841],[0.065759,52.901537],[0.064779,52.901143],[0.064225,52.900218],[0.064226,52.899259],[0.064812,52.901098],[0.065498,52.901184],[0.065468,52.899831],[0.065741,52.901443],[0.066816,52.899049],[0.065877,52.90145],[0.066182,52.902876],[0.065307,52.903413],[0.06518,52.904447],[0.066972,52.904603],[0.067296,52.903428],[0.067169,52.904588],[0.067963,52.904672],[0.067739,52.90409],[0.067945,52.903462],[0.068224,52.904709],[0.068088,52.903662],[0.068309,52.904485],[0.069007,52.903135],[0.068393,52.904699],[0.072152,52.905425],[0.072139,52.905081],[0.071001,52.904415],[0.072213,52.905082],[0.073385,52.906055],[0.073446,52.905426],[0.073173,52.905293],[0.07266,52.904676],[0.070681,52.903844],[0.069943,52.903189],[0.072694,52.904641],[0.073271,52.905258],[0.073833,52.905419],[0.073539,52.904908],[0.071906,52.903957],[0.074162,52.905134],[0.072123,52.903505],[0.072126,52.903159],[0.072523,52.903251],[0.070593,52.902106],[0.072407,52.902984],[0.072857,52.903476],[0.072504,52.902964],[0.073416,52.903663],[0.07426,52.90353],[0.073765,52.902695],[0.071328,52.900924],[0.074213,52.902936],[0.074974,52.902904],[0.073925,52.901687],[0.075897,52.903624],[0.076494,52.903699],[0.075303,52.902519],[0.076723,52.903582],[0.076064,52.902986],[0.077044,52.903533],[0.077508,52.90329],[0.076298,52.902629],[0.077646,52.903275],[0.077697,52.902894],[0.075296,52.90179],[0.077841,52.902926],[0.077312,52.902383],[0.077743,52.902484],[0.077606,52.902251],[0.07333,52.900016],[0.078039,52.902389],[0.076846,52.901364],[0.075002,52.900509],[0.07922,52.902038],[0.077881,52.90094],[0.079709,52.902063],[0.079254,52.901673],[0.079875,52.90177],[0.078083,52.900784],[0.080331,52.901797],[0.077441,52.900177],[0.080264,52.901717],[0.079321,52.900991],[0.080425,52.901333],[0.076431,52.899474],[0.080633,52.901314],[0.081218,52.900849],[0.07886,52.900275],[0.077538,52.899618],[0.078833,52.900211],[0.080514,52.900512],[0.081695,52.901029],[0.081897,52.900142],[0.079925,52.899746],[0.082025,52.900155],[0.082561,52.899563],[0.080013,52.899009],[0.079372,52.899474],[0.07775,52.899507],[0.079305,52.89944],[0.079758,52.899005],[0.078797,52.898827],[0.078231,52.899188],[0.077992,52.899217],[0.075567,52.898902],[0.078096,52.899167],[0.078535,52.89883],[0.077016,52.898112],[0.07371,52.897398],[0.070145,52.897024],[0.068914,52.896973],[0.065064,52.897867],[0.068864,52.896833],[0.073626,52.897291],[0.07288,52.896604],[0.072743,52.896363],[0.072869,52.896031],[0.07283,52.896484],[0.07372,52.896913],[0.074117,52.896629],[0.074542,52.896089],[0.07372,52.895621],[0.069707,52.896601],[0.073825,52.89539],[0.074631,52.896158],[0.073801,52.897255],[0.077247,52.898018],[0.077549,52.897295],[0.075896,52.896645],[0.077669,52.897292],[0.077724,52.896734],[0.076985,52.895831],[0.077887,52.896865],[0.077439,52.897873],[0.077771,52.898216],[0.079201,52.898562],[0.079314,52.897743],[0.079558,52.898536],[0.079949,52.898088],[0.079842,52.898016],[0.079493,52.897375],[0.079899,52.898011],[0.080138,52.897717],[0.079788,52.898594],[0.080331,52.898654],[0.081028,52.898044],[0.080524,52.898696],[0.085934,52.899755],[0.086009,52.898885],[0.083515,52.898498],[0.086235,52.8989],[0.086065,52.898218],[0.083183,52.897901],[0.081667,52.897983],[0.083585,52.897492],[0.080938,52.897557],[0.083773,52.897465],[0.080575,52.897181],[0.083128,52.897335],[0.084084,52.897016],[0.083293,52.897193],[0.081453,52.897076],[0.083246,52.897168],[0.083683,52.896986],[0.085095,52.896849],[0.082638,52.896267],[0.081468,52.89623],[0.080598,52.896645],[0.078853,52.895522],[0.077424,52.895642],[0.078163,52.895335],[0.077903,52.894823],[0.076087,52.895289],[0.076825,52.895446],[0.075848,52.895347],[0.075394,52.895851],[0.075421,52.895568],[0.07504,52.895505],[0.075,52.895795],[0.074363,52.895404],[0.075435,52.895512],[0.076059,52.895208],[0.078781,52.894377],[0.076241,52.894811],[0.078819,52.894223],[0.079482,52.894604],[0.080462,52.894572],[0.080001,52.895004],[0.080621,52.89595],[0.081123,52.896024],[0.080894,52.895293],[0.081398,52.896136],[0.083195,52.896197],[0.08255,52.89592],[0.082332,52.895674],[0.082239,52.894445],[0.082507,52.89578],[0.083996,52.896279],[0.084721,52.895285],[0.084093,52.896276],[0.0856,52.896739],[0.085391,52.893667],[0.085627,52.896528],[0.086126,52.896504],[0.087421,52.895391],[0.086656,52.893955],[0.08729,52.892196],[0.086419,52.892417],[0.086381,52.892561],[0.085559,52.893311],[0.085372,52.893407],[0.083494,52.893929],[0.081896,52.894147],[0.085533,52.893278],[0.086314,52.892517],[0.085885,52.892343],[0.079191,52.894062],[0.079493,52.894416],[0.080194,52.894408],[0.07956,52.894461],[0.07927,52.894321],[0.079139,52.894047],[0.085762,52.892278],[0.087198,52.892078],[0.087809,52.892246],[0.090727,52.891255],[0.087725,52.892305],[0.087204,52.89277],[0.086998,52.893452],[0.088284,52.893132],[0.086858,52.893538],[0.087675,52.895376],[0.085791,52.896851],[0.086617,52.897214],[0.089026,52.897438],[0.088958,52.896951],[0.088252,52.896604],[0.089054,52.896872],[0.088397,52.896506],[0.08914,52.896237],[0.088542,52.895879],[0.089255,52.895942],[0.088375,52.895131],[0.088873,52.89536],[0.088569,52.894932],[0.089145,52.895259],[0.088695,52.894752],[0.089428,52.895466],[0.089024,52.894567],[0.089465,52.895391],[0.090212,52.895608],[0.089183,52.894555],[0.090402,52.895472],[0.089738,52.894827],[0.091108,52.89509],[0.09007,52.893968],[0.091299,52.895044],[0.091585,52.894713],[0.090923,52.893555],[0.091272,52.894041],[0.09123,52.893512],[0.091478,52.894306],[0.091765,52.8934],[0.091514,52.894508],[0.092279,52.89512],[0.092686,52.894272],[0.091817,52.890933],[0.091177,52.890426],[0.09154,52.890071],[0.091951,52.890718],[0.092438,52.889754],[0.091885,52.887846],[0.092359,52.886413],[0.092557,52.887077],[0.092748,52.886487],[0.092348,52.885638],[0.092423,52.885574],[0.099271,52.884577],[0.099153,52.884372],[0.096998,52.88467],[0.099091,52.884343],[0.09757,52.884386],[0.099062,52.884286],[0.099421,52.884462],[0.099233,52.884617],[0.092453,52.885677],[0.092859,52.88658],[0.092676,52.887092],[0.092029,52.887767],[0.092583,52.889763],[0.092067,52.891224],[0.093016,52.894321],[0.093794,52.894793],[0.095354,52.894193],[0.094452,52.893025],[0.095333,52.894114],[0.096173,52.894088],[0.095948,52.893429],[0.096205,52.894015],[0.098021,52.894545],[0.099467,52.894493],[0.098802,52.893462],[0.097591,52.892766],[0.095153,52.890955],[0.094392,52.888527],[0.094809,52.886791],[0.094433,52.888538],[0.09525,52.891009],[0.095839,52.89117],[0.096018,52.890837],[0.096457,52.888263],[0.096141,52.890831],[0.095913,52.891206],[0.096738,52.891725],[0.096401,52.890953],[0.09663,52.889662],[0.096725,52.889535],[0.096728,52.891544],[0.097524,52.892584],[0.098616,52.893203],[0.097708,52.891346],[0.097901,52.890661],[0.097785,52.891361],[0.098515,52.892977],[0.099488,52.894117],[0.100207,52.893987],[0.100355,52.893469],[0.099711,52.892451],[0.100079,52.889001],[0.100348,52.888282],[0.100952,52.888074],[0.101153,52.886792],[0.102185,52.885065],[0.101977,52.884685],[0.102671,52.884372],[0.10155,52.884308],[0.101439,52.884087],[0.101592,52.883935],[0.101915,52.8838],[0.109105,52.883312],[0.109399,52.883519],[0.111805,52.883266],[0.111835,52.883002],[0.114443,52.882346],[0.111905,52.883018],[0.112088,52.883256],[0.115098,52.882347],[0.114887,52.884144],[0.114392,52.885035],[0.114542,52.886491],[0.114987,52.885913],[0.114758,52.884694],[0.115036,52.885934],[0.114422,52.886783],[0.114662,52.888773],[0.116635,52.890988],[0.115793,52.889265],[0.116111,52.887956],[0.11591,52.887771],[0.115491,52.886406],[0.115435,52.885233],[0.11548,52.884122],[0.116407,52.882482],[0.116082,52.882106],[0.115236,52.882309],[0.115916,52.881872],[0.117208,52.881499],[0.115953,52.881959],[0.116202,52.882103],[0.116455,52.88254],[0.115532,52.884086],[0.115488,52.885287],[0.115959,52.887728],[0.116169,52.887893],[0.1163,52.887657],[0.115979,52.886077],[0.116344,52.88766],[0.1159,52.889294],[0.116839,52.890702],[0.116893,52.891905],[0.117605,52.892677],[0.118718,52.892353],[0.118325,52.890833],[0.117277,52.88939],[0.117629,52.888934],[0.116191,52.886073],[0.116464,52.884608],[0.116227,52.886097],[0.117651,52.888854],[0.117766,52.886395],[0.117989,52.887527],[0.11773,52.888932],[0.118198,52.890065],[0.119075,52.890377],[0.119777,52.889071],[0.118677,52.887935],[0.118684,52.886413],[0.119131,52.88407],[0.117513,52.883166],[0.117604,52.88309],[0.118947,52.883927],[0.119041,52.883363],[0.119242,52.884148],[0.118788,52.887904],[0.119938,52.888894],[0.119279,52.887196],[0.119739,52.887959],[0.119808,52.886332],[0.120086,52.888703],[0.118882,52.890855],[0.119939,52.891569],[0.120575,52.891375],[0.120983,52.890543],[0.120641,52.889934],[0.120777,52.888434],[0.120225,52.887864],[0.120463,52.886883],[0.119478,52.883991],[0.120488,52.886811],[0.120477,52.886143],[0.12056,52.887211],[0.120283,52.887872],[0.120824,52.888394],[0.120907,52.889189],[0.121378,52.888177],[0.121314,52.886267],[0.121423,52.888136],[0.120735,52.889867],[0.121123,52.890749],[0.122252,52.888867],[0.122264,52.887417],[0.123063,52.88561],[0.122377,52.887385],[0.122472,52.888584],[0.121401,52.890785],[0.122141,52.890809],[0.123621,52.888835],[0.123636,52.887647],[0.123669,52.888836],[0.122163,52.890867],[0.122698,52.89121],[0.127781,52.890379],[0.129377,52.889834],[0.127728,52.888851],[0.126501,52.887577],[0.127827,52.888882],[0.129231,52.889645],[0.129976,52.889544],[0.129912,52.88707],[0.129264,52.8863],[0.129971,52.887072],[0.13002,52.889453],[0.131667,52.888897],[0.131738,52.886625],[0.131912,52.888899],[0.133763,52.887616],[0.133851,52.88817],[0.136796,52.88715],[0.134926,52.8854],[0.136977,52.887019],[0.137305,52.887159],[0.137985,52.886807],[0.136964,52.886023],[0.137093,52.885438],[0.136076,52.884618],[0.135205,52.883117],[0.138142,52.884825],[0.137845,52.884504],[0.137309,52.884081],[0.136415,52.883213],[0.13764,52.884137],[0.137416,52.883614],[0.139411,52.885961],[0.140449,52.886026],[0.140052,52.885911],[0.139549,52.885575],[0.138875,52.884943],[0.139886,52.885713],[0.139398,52.885252],[0.138416,52.884034],[0.138436,52.883633],[0.139478,52.885297],[0.140461,52.885952],[0.140751,52.885519],[0.14016,52.885232],[0.139163,52.883885],[0.139544,52.883495],[0.138452,52.882362],[0.138485,52.881244],[0.138499,52.882357],[0.139591,52.88339],[0.139615,52.883538],[0.139263,52.883889],[0.14034,52.885293],[0.141998,52.885503],[0.140556,52.882768],[0.142396,52.885356],[0.145003,52.885079],[0.146894,52.882117],[0.144072,52.880883],[0.14317,52.880971],[0.14391,52.880738],[0.142696,52.879734],[0.140525,52.879623],[0.14232,52.879567],[0.136907,52.87548],[0.134256,52.876543],[0.133203,52.879131],[0.133247,52.879747],[0.133987,52.880235],[0.126901,52.884032],[0.133841,52.880252],[0.13313,52.879723],[0.133099,52.879332],[0.134135,52.876504],[0.132728,52.876888],[0.136798,52.875426],[0.135986,52.874703],[0.142364,52.879441],[0.143628,52.880138],[0.143837,52.879887],[0.144321,52.879892],[0.14387,52.879906],[0.143703,52.88024],[0.144503,52.880944],[0.147752,52.88187],[0.145643,52.880237],[0.147614,52.881568],[0.14769,52.880988],[0.146538,52.880282],[0.147677,52.880901],[0.147981,52.881901],[0.150188,52.882385],[0.150684,52.881997],[0.146153,52.879857],[0.14763,52.88047],[0.146893,52.879626],[0.147673,52.88042],[0.150128,52.881509],[0.150249,52.881043],[0.149952,52.881077],[0.148614,52.880343],[0.150066,52.881004],[0.15008,52.880689],[0.149109,52.879921],[0.148455,52.879916],[0.146913,52.879156],[0.14668,52.878422],[0.146956,52.879159],[0.148787,52.879832],[0.147591,52.878781],[0.15012,52.88063],[0.150346,52.880893],[0.149951,52.880281],[0.149739,52.880215],[0.149005,52.879423],[0.148996,52.878976],[0.149045,52.879419],[0.150584,52.880711],[0.15082,52.88048],[0.150094,52.879996],[0.14974,52.878821],[0.150131,52.879984],[0.150965,52.880373],[0.150239,52.879114],[0.151193,52.880093],[0.152152,52.878455],[0.152086,52.87785],[0.1511,52.877793],[0.149809,52.877216],[0.149096,52.877986],[0.147001,52.877384],[0.144368,52.877518],[0.146967,52.877347],[0.149072,52.877918],[0.149599,52.877169],[0.147925,52.876803],[0.15027,52.877204],[0.151364,52.8777],[0.150285,52.876568],[0.148252,52.876123],[0.146887,52.876196],[0.145497,52.87555],[0.147004,52.876183],[0.14825,52.876073],[0.149912,52.876386],[0.149119,52.875955],[0.148861,52.874701],[0.147108,52.874723],[0.146223,52.8744],[0.148858,52.874648],[0.147199,52.872567],[0.145072,52.872272],[0.145117,52.87212],[0.146581,52.871622],[0.146462,52.871298],[0.146653,52.871568],[0.146527,52.871684],[0.14511,52.872226],[0.147939,52.872527],[0.147583,52.872699],[0.14901,52.874778],[0.149857,52.874566],[0.149075,52.874836],[0.149349,52.875923],[0.150543,52.876531],[0.15138,52.877363],[0.152636,52.87783],[0.152842,52.877473],[0.153111,52.87799],[0.153977,52.87696],[0.153335,52.875955],[0.153797,52.875979],[0.154002,52.877008],[0.153266,52.877967],[0.153057,52.878034],[0.152604,52.877927],[0.151009,52.881052],[0.151473,52.881558],[0.152955,52.88157],[0.157405,52.880389],[0.160462,52.880051],[0.161313,52.879465],[0.163943,52.879086],[0.168144,52.877687],[0.16573,52.876508],[0.164623,52.876749],[0.161245,52.8769],[0.161011,52.876351],[0.161484,52.876879],[0.165232,52.876449],[0.162389,52.875163],[0.163772,52.875517],[0.16238,52.874292],[0.164824,52.876246],[0.166285,52.876343],[0.165861,52.875301],[0.166301,52.875691],[0.166331,52.876719],[0.167992,52.877267],[0.169123,52.877249],[0.16929,52.876206],[0.170455,52.875393],[0.168283,52.874588],[0.168143,52.874363],[0.169885,52.873185],[0.168272,52.87442],[0.170608,52.875373],[0.169389,52.876458],[0.169749,52.877076],[0.170816,52.877122],[0.170953,52.876683],[0.172769,52.875724],[0.171852,52.874374],[0.171486,52.872634],[0.171924,52.874375],[0.172726,52.875492],[0.175444,52.874214],[0.175097,52.873885],[0.174887,52.874162],[0.173962,52.874025],[0.173263,52.873472],[0.174018,52.874031],[0.174809,52.874143],[0.17508,52.87385],[0.173435,52.872251],[0.172783,52.870995],[0.173535,52.872304],[0.175187,52.873844],[0.176418,52.87404],[0.177351,52.872796],[0.175961,52.872033],[0.174826,52.87099],[0.177492,52.872681],[0.176415,52.871347],[0.177376,52.872447],[0.178588,52.871304],[0.179006,52.869333],[0.178591,52.86735],[0.17962,52.866003],[0.178646,52.866031],[0.177235,52.86675],[0.175113,52.867293],[0.177108,52.866755],[0.178304,52.866052],[0.177785,52.865964],[0.177433,52.866463],[0.177319,52.866466],[0.176561,52.866007],[0.175407,52.866413],[0.175151,52.866421],[0.172642,52.866103],[0.175467,52.866354],[0.175574,52.865624],[0.173812,52.865371],[0.175051,52.865415],[0.175638,52.865628],[0.175743,52.866032],[0.176742,52.865973],[0.177393,52.866395],[0.177806,52.865878],[0.180421,52.866051],[0.179704,52.864919],[0.178394,52.864798],[0.178217,52.864528],[0.176463,52.864673],[0.176029,52.865025],[0.174941,52.865045],[0.17572,52.864788],[0.175973,52.865],[0.176467,52.864643],[0.176827,52.864607],[0.178281,52.86451],[0.178555,52.864804],[0.179436,52.864841],[0.179684,52.864591],[0.179452,52.864243],[0.177199,52.863926],[0.176927,52.864123],[0.175707,52.864269],[0.176006,52.864145],[0.175002,52.864031],[0.177103,52.863897],[0.180103,52.864126],[0.179465,52.863645],[0.177673,52.863315],[0.174235,52.863634],[0.170289,52.863163],[0.174322,52.863577],[0.175481,52.863292],[0.174928,52.862994],[0.173797,52.86315],[0.175044,52.862931],[0.174984,52.862706],[0.174427,52.862172],[0.17332,52.861968],[0.174384,52.862085],[0.175786,52.863281],[0.178309,52.863306],[0.178197,52.862869],[0.177133,52.862612],[0.178197,52.862824],[0.178136,52.862103],[0.175984,52.861987],[0.177864,52.861983],[0.178136,52.862054],[0.178428,52.862527],[0.179876,52.862854],[0.178393,52.862564],[0.178448,52.86327],[0.179335,52.863494],[0.180782,52.864215],[0.181525,52.86273],[0.181046,52.862387],[0.181122,52.861228],[0.18255,52.85932],[0.183359,52.859084],[0.182362,52.858875],[0.181256,52.859075],[0.181154,52.859393],[0.180543,52.859573],[0.178153,52.859754],[0.17665,52.860327],[0.173334,52.860519],[0.176691,52.860261],[0.175948,52.85988],[0.176688,52.860104],[0.178308,52.859663],[0.180366,52.859535],[0.18105,52.859328],[0.181071,52.859057],[0.182005,52.858906],[0.181131,52.858692],[0.18007,52.859239],[0.179955,52.859254],[0.178367,52.859018],[0.180055,52.859214],[0.181138,52.858619],[0.182864,52.858805],[0.181425,52.857941],[0.180218,52.858367],[0.176379,52.858698],[0.175854,52.858528],[0.175451,52.859077],[0.175028,52.859364],[0.1729,52.8598],[0.171744,52.859498],[0.172964,52.85977],[0.175322,52.859067],[0.175857,52.858452],[0.175336,52.85819],[0.174028,52.858844],[0.174076,52.858536],[0.175234,52.858142],[0.174906,52.857884],[0.176355,52.858616],[0.180342,52.858234],[0.179026,52.858083],[0.178771,52.857767],[0.177664,52.857771],[0.17643,52.85764],[0.177495,52.857661],[0.17668,52.857362],[0.177135,52.857311],[0.177706,52.857748],[0.178715,52.857637],[0.177768,52.856884],[0.17721,52.856859],[0.176552,52.856513],[0.175072,52.856496],[0.173229,52.857138],[0.172425,52.857784],[0.173168,52.857126],[0.174942,52.856472],[0.177281,52.856229],[0.177756,52.856235],[0.176665,52.856453],[0.177849,52.856847],[0.178848,52.857564],[0.179004,52.85798],[0.182078,52.857852],[0.181864,52.857166],[0.180379,52.856941],[0.179282,52.856388],[0.180362,52.856916],[0.180892,52.856862],[0.179606,52.856437],[0.180409,52.856672],[0.179791,52.856267],[0.181896,52.857106],[0.182178,52.857919],[0.183417,52.858879],[0.183967,52.858231],[0.181872,52.856789],[0.184057,52.858176],[0.185196,52.857364],[0.18147,52.856342],[0.180927,52.85583],[0.182015,52.856462],[0.181764,52.855728],[0.182152,52.856477],[0.18263,52.856492],[0.181579,52.855224],[0.183101,52.856488],[0.184883,52.856556],[0.185468,52.855509],[0.184886,52.855765],[0.183304,52.855775],[0.182118,52.855138],[0.183369,52.855748],[0.185471,52.855459],[0.185715,52.855598],[0.186175,52.855115],[0.184557,52.854202],[0.18464,52.85451],[0.183148,52.85513],[0.183036,52.855146],[0.182509,52.854986],[0.182105,52.854654],[0.183009,52.855098],[0.184548,52.854516],[0.183959,52.853881],[0.182331,52.853634],[0.178316,52.854757],[0.177266,52.85553],[0.174335,52.855451],[0.172829,52.856307],[0.171552,52.856442],[0.163885,52.862644],[0.163876,52.862399],[0.16336,52.862371],[0.164097,52.86232],[0.166253,52.860725],[0.167262,52.85973],[0.166857,52.859538],[0.167381,52.859679],[0.169911,52.857481],[0.169651,52.857186],[0.16911,52.85759],[0.170084,52.856461],[0.170015,52.857352],[0.171485,52.856306],[0.170912,52.855971],[0.169799,52.856077],[0.170703,52.855884],[0.172414,52.856203],[0.173426,52.855674],[0.173528,52.854542],[0.171994,52.854441],[0.171986,52.854689],[0.17171,52.854441],[0.171513,52.854711],[0.171979,52.855008],[0.171528,52.854837],[0.171473,52.854729],[0.172116,52.853197],[0.171946,52.85434],[0.173586,52.854499],[0.173531,52.855544],[0.174913,52.855156],[0.17701,52.855369],[0.177775,52.854774],[0.176959,52.854012],[0.176672,52.853203],[0.176617,52.852258],[0.175158,52.85219],[0.173453,52.852718],[0.172879,52.852703],[0.172393,52.852511],[0.172309,52.852247],[0.172506,52.851658],[0.172354,52.852277],[0.17323,52.852695],[0.17515,52.852136],[0.176892,52.852152],[0.175645,52.851365],[0.175254,52.850916],[0.173583,52.851065],[0.177433,52.850498],[0.175416,52.850927],[0.175586,52.851276],[0.176968,52.851865],[0.176797,52.853185],[0.177844,52.854624],[0.180826,52.853827],[0.17861,52.853194],[0.181096,52.853708],[0.18211,52.853326],[0.179969,52.853045],[0.180925,52.853003],[0.180645,52.8526],[0.181066,52.853162],[0.182342,52.853191],[0.182369,52.852347],[0.179262,52.851064],[0.182194,52.852142],[0.18194,52.851202],[0.182336,52.851788],[0.182515,52.853328],[0.184433,52.853783],[0.185225,52.853168],[0.184048,52.851726],[0.184574,52.852145],[0.184139,52.85135],[0.185302,52.853171],[0.184783,52.853939],[0.186276,52.85473],[0.187315,52.854492],[0.185996,52.852143],[0.186922,52.853079],[0.187297,52.854369],[0.188839,52.853608],[0.187447,52.851545],[0.185911,52.851488],[0.182317,52.850255],[0.181999,52.849843],[0.181261,52.85001],[0.179318,52.850074],[0.180631,52.849807],[0.181882,52.849771],[0.182285,52.849968],[0.18345,52.849362],[0.183791,52.849041],[0.183003,52.848673],[0.183767,52.847704],[0.183116,52.848722],[0.183911,52.849093],[0.182391,52.850197],[0.18607,52.851421],[0.187581,52.851396],[0.187471,52.850733],[0.185862,52.84963],[0.187645,52.850627],[0.186799,52.849203],[0.187805,52.850429],[0.187787,52.851981],[0.189342,52.853632],[0.189991,52.853809],[0.190256,52.853349],[0.189224,52.852413],[0.188852,52.851336],[0.189343,52.852469],[0.190086,52.853052],[0.190721,52.852975],[0.190072,52.852045],[0.190965,52.853248],[0.191584,52.852542],[0.192625,52.852509],[0.192696,52.85148],[0.195434,52.849717],[0.195657,52.848477],[0.192394,52.848619],[0.191013,52.848417],[0.19078,52.848816],[0.189924,52.848751],[0.190632,52.848792],[0.191052,52.848242],[0.191445,52.848478],[0.193566,52.848354],[0.189717,52.847368],[0.190539,52.847515],[0.189976,52.847141],[0.191818,52.847888],[0.19506,52.84834],[0.195136,52.847195],[0.195987,52.847231],[0.196371,52.847094],[0.196164,52.846729],[0.194034,52.846404],[0.193883,52.846708],[0.193508,52.846738],[0.190628,52.846243],[0.193818,52.846684],[0.190784,52.846195],[0.189432,52.845704],[0.190209,52.845793],[0.189869,52.845542],[0.191014,52.846197],[0.193908,52.846599],[0.19394,52.846393],[0.193017,52.845931],[0.192125,52.846144],[0.191446,52.846179],[0.190889,52.846072],[0.191519,52.846124],[0.189941,52.844301],[0.185097,52.844279],[0.184661,52.844559],[0.184684,52.845514],[0.184555,52.844875],[0.184689,52.844446],[0.18517,52.84424],[0.186167,52.844132],[0.189975,52.844207],[0.190763,52.843886],[0.19266,52.841636],[0.191429,52.843611],[0.190106,52.844257],[0.191481,52.845874],[0.193055,52.845826],[0.195,52.846447],[0.197047,52.846509],[0.197108,52.846149],[0.195482,52.846098],[0.194204,52.845691],[0.196781,52.84604],[0.197195,52.846167],[0.196627,52.845638],[0.193329,52.845366],[0.196133,52.845432],[0.196905,52.84572],[0.19724,52.845301],[0.194226,52.845194],[0.196948,52.845273],[0.197194,52.844867],[0.19643,52.844832],[0.194931,52.844427],[0.193576,52.843806],[0.195553,52.844548],[0.197166,52.844773],[0.198111,52.843154],[0.20017,52.841805],[0.200527,52.841019],[0.198826,52.841345],[0.196498,52.840922],[0.195194,52.841272],[0.193613,52.840972],[0.195149,52.841249],[0.196514,52.840883],[0.199411,52.841195],[0.200849,52.840607],[0.201569,52.838624],[0.199968,52.838636],[0.198143,52.838258],[0.197915,52.837947],[0.195503,52.83787],[0.193587,52.837092],[0.193446,52.839062],[0.193425,52.8371],[0.193738,52.83703],[0.195066,52.837442],[0.195528,52.837802],[0.197948,52.837856],[0.198247,52.838178],[0.199631,52.838449],[0.198337,52.83644],[0.196996,52.836526],[0.196288,52.836227],[0.197065,52.83651],[0.198322,52.836367],[0.199763,52.838459],[0.202235,52.838196],[0.20359,52.836829],[0.201869,52.836829],[0.200534,52.835552],[0.199871,52.835523],[0.198785,52.83581],[0.198285,52.835847],[0.19793,52.835802],[0.196905,52.8353],[0.198038,52.835805],[0.198737,52.835794],[0.199565,52.835265],[0.198703,52.835348],[0.198105,52.834771],[0.197165,52.834753],[0.196868,52.834628],[0.195049,52.835438],[0.196186,52.834788],[0.196849,52.834584],[0.197519,52.834601],[0.198154,52.834714],[0.198801,52.835306],[0.19949,52.835129],[0.199808,52.83543],[0.200602,52.83545],[0.20196,52.836747],[0.203803,52.836676],[0.203693,52.836283],[0.202458,52.835922],[0.203952,52.836337],[0.204754,52.835479],[0.202998,52.835354],[0.204865,52.835409],[0.205223,52.834925],[0.2002,52.834344],[0.205153,52.834874],[0.203381,52.83414],[0.205262,52.834764],[0.20597,52.834355],[0.20612,52.833737],[0.205398,52.833555],[0.205023,52.833819],[0.202162,52.833844],[0.201154,52.833443],[0.202294,52.833824],[0.203743,52.833566],[0.204992,52.833781],[0.204322,52.833635],[0.203456,52.833045],[0.201687,52.83269],[0.199017,52.832969],[0.198765,52.833304],[0.198879,52.833003],[0.199082,52.832934],[0.201666,52.832642],[0.203518,52.832999],[0.204591,52.833614],[0.205292,52.833491],[0.205977,52.833611],[0.205831,52.83349],[0.205809,52.833195],[0.205516,52.833206],[0.203521,52.832592],[0.203312,52.832193],[0.203815,52.83267],[0.205846,52.83318],[0.205933,52.833515],[0.207691,52.833605],[0.207886,52.833351],[0.207144,52.833023],[0.206292,52.833039],[0.203901,52.831915],[0.201638,52.831405],[0.204029,52.831887],[0.206331,52.833001],[0.206947,52.832948],[0.207995,52.833151],[0.208781,52.832603],[0.208366,52.832204],[0.206159,52.831989],[0.204089,52.831243],[0.204838,52.83128],[0.206152,52.831942],[0.208616,52.832145],[0.20874,52.831868],[0.208166,52.83183],[0.207169,52.8316],[0.205544,52.830852],[0.207563,52.831667],[0.209275,52.831833],[0.213092,52.829275],[0.212883,52.828994],[0.20499,52.82945],[0.203587,52.829126],[0.20224,52.829408],[0.203575,52.829088],[0.205378,52.829386],[0.20965,52.829138],[0.207714,52.8283],[0.205408,52.827852],[0.207578,52.828037],[0.207906,52.828328],[0.210712,52.82833],[0.208068,52.827536],[0.211363,52.82837],[0.209655,52.827398],[0.204773,52.82721],[0.208569,52.82717],[0.20599,52.826568],[0.204491,52.826003],[0.205535,52.824716],[0.203594,52.826546],[0.205347,52.824643],[0.211425,52.826211],[0.210606,52.825922],[0.21208,52.826256],[0.212405,52.826041],[0.210072,52.825653],[0.211142,52.825746],[0.210149,52.82543],[0.21322,52.825937],[0.208893,52.825092],[0.212913,52.825737],[0.213695,52.826051],[0.212417,52.825149],[0.208918,52.824998],[0.207978,52.824777],[0.207152,52.824063],[0.2084,52.824774],[0.209559,52.824545],[0.212401,52.825104],[0.214088,52.825982],[0.214193,52.825693],[0.213252,52.825157],[0.213762,52.824503],[0.211606,52.822969],[0.208729,52.822666],[0.207593,52.822282],[0.206035,52.823919],[0.207565,52.822238],[0.211971,52.823012],[0.213889,52.824543],[0.213452,52.825228],[0.215418,52.826072],[0.215,52.823577],[0.214182,52.822183],[0.212511,52.822123],[0.21215,52.822005],[0.211562,52.821702],[0.209868,52.820345],[0.209367,52.820362],[0.208606,52.821145],[0.210107,52.819565],[0.20947,52.820332],[0.209954,52.820338],[0.211862,52.821824],[0.213793,52.82198],[0.212368,52.821018],[0.21438,52.822187],[0.214313,52.821913],[0.214778,52.822993],[0.214709,52.82142],[0.21424,52.821393],[0.214299,52.821721],[0.21419,52.821406],[0.213999,52.821471],[0.213879,52.821454],[0.212614,52.820721],[0.213976,52.821449],[0.214186,52.821358],[0.214718,52.82132],[0.21448,52.820181],[0.212568,52.81971],[0.214427,52.820029],[0.214151,52.819091],[0.213428,52.819059],[0.213333,52.818822],[0.212535,52.818955],[0.213329,52.818795],[0.21401,52.818965],[0.213442,52.816862],[0.212186,52.817198],[0.211463,52.818039],[0.212113,52.817203],[0.213348,52.81675],[0.213358,52.815994],[0.212409,52.813657],[0.212674,52.81318],[0.212238,52.811147],[0.205608,52.78674],[0.198656,52.773078],[0.197567,52.772846],[0.198258,52.772229],[0.195656,52.767769],[0.188051,52.758672],[0.186464,52.758066],[0.18746,52.758079],[0.174529,52.742278],[0.172729,52.741351],[0.172766,52.741105],[0.173651,52.741177],[0.171259,52.738262],[0.170154,52.738957],[0.170181,52.739894],[0.152501,52.73814],[0.15083,52.738745],[0.148292,52.738638],[0.147613,52.739446],[0.144127,52.73903],[0.143688,52.74],[0.140653,52.739753],[0.137737,52.738916],[0.132975,52.739304],[0.130959,52.738388],[0.129047,52.738436],[0.119713,52.732877],[0.116796,52.732727],[0.115324,52.732301],[0.114144,52.731397],[0.113685,52.72999],[0.111105,52.729779],[0.10494,52.730504],[0.10254,52.729865],[0.100775,52.730419],[0.098789,52.73034],[0.094587,52.728448],[0.091649,52.725216],[0.089012,52.72363],[0.087549,52.72357],[0.082641,52.72456],[0.07604,52.724522],[0.063904,52.727436],[0.063186,52.72713],[0.06306,52.72603],[0.062307,52.725387],[0.059239,52.724724],[0.055137,52.72183],[0.048018,52.718785],[0.046263,52.715378],[0.044149,52.714382],[0.045108,52.711998],[0.044842,52.710863],[0.045461,52.705007],[0.045046,52.703238],[0.045235,52.701432],[0.044399,52.700683],[0.045907,52.697794],[0.045259,52.69719],[0.044883,52.69579],[0.045231,52.69371],[0.044563,52.692586],[0.044981,52.691936],[0.047635,52.690624],[0.049199,52.689368],[0.049149,52.68693],[0.049624,52.68615],[0.048974,52.684011],[0.048998,52.681997],[0.048566,52.681402],[0.0215,52.664887],[-0.031271,52.661533],[-0.032103,52.665361],[-0.039532,52.666936],[-0.05949,52.674687],[-0.063785,52.675224],[-0.065445,52.671996],[-0.066973,52.672034],[-0.069672,52.671406],[-0.072008,52.672072],[-0.074611,52.672074],[-0.080315,52.670546],[-0.087837,52.66678],[-0.090431,52.666685],[-0.091467,52.66696],[-0.094322,52.668179],[-0.096682,52.67006],[-0.099435,52.670392],[-0.102196,52.672206],[-0.112995,52.667976],[-0.11551,52.666477],[-0.117415,52.664764],[-0.126535,52.659995],[-0.12982,52.659212],[-0.133024,52.656958],[-0.137017,52.65554],[-0.13684,52.655207],[-0.139502,52.654862],[-0.140253,52.654272],[-0.140134,52.653474],[-0.141062,52.651507],[-0.18002,52.660561],[-0.190418,52.65247],[-0.192868,52.652439],[-0.195566,52.655375],[-0.196478,52.6555],[-0.199818,52.660864],[-0.200591,52.66144],[-0.203074,52.665105],[-0.205519,52.666832],[-0.206038,52.668073],[-0.209654,52.66699],[-0.212501,52.666679],[-0.214025,52.668291],[-0.21561,52.667883],[-0.219911,52.667731],[-0.223208,52.666762],[-0.248092,52.693258],[-0.248757,52.693043],[-0.250422,52.69447],[-0.255766,52.692611],[-0.26369,52.701],[-0.265012,52.700879],[-0.26718,52.699086],[-0.281277,52.714264],[-0.27832,52.716501],[-0.295276,52.734244],[-0.297322,52.733633],[-0.30668,52.743436],[-0.304617,52.744043],[-0.305278,52.74474],[-0.305988,52.744683],[-0.30681,52.745272],[-0.30452,52.746056],[-0.288466,52.754573],[-0.286703,52.756111],[-0.265878,52.767806],[-0.262544,52.769184],[-0.260833,52.770759],[-0.260617,52.77146],[-0.261787,52.777089],[-0.260619,52.779503],[-0.260687,52.781134],[-0.262174,52.787071],[-0.26411,52.787455],[-0.264023,52.789507],[-0.264845,52.790261],[-0.266042,52.792836],[-0.269489,52.811088],[-0.272087,52.832589],[-0.275035,52.840867],[-0.276293,52.861688],[-0.270888,52.872108],[-0.265862,52.871194],[-0.264759,52.870193],[-0.264667,52.868677],[-0.260778,52.868131],[-0.25765,52.8667],[-0.257248,52.866768],[-0.256554,52.868361],[-0.258431,52.870241],[-0.25857,52.872321],[-0.269519,52.876957],[-0.256496,52.905883],[-0.2467,52.928845],[-0.245515,52.927937],[-0.239392,52.926237],[-0.230244,52.92497],[-0.219217,52.924136],[-0.21423,52.923288]],[[0.09152,52.885651],[0.091477,52.88544],[0.091612,52.885255],[0.092578,52.885115],[0.091559,52.885482],[0.092199,52.885876],[0.092359,52.886413],[0.09152,52.885651]],[[0.097455,52.888565],[0.097647,52.887241],[0.097507,52.888541],[0.096725,52.889535],[0.097455,52.888565]],[[0.118489,52.882345],[0.117745,52.881659],[0.117785,52.881595],[0.118634,52.88131],[0.117127,52.881331],[0.11894,52.881276],[0.117876,52.881602],[0.11852,52.882189],[0.118533,52.882401],[0.117604,52.88309],[0.118489,52.882345]],[[0.191961,52.847244],[0.192264,52.847155],[0.19036,52.846375],[0.192252,52.847072],[0.195136,52.847195],[0.191961,52.847244]]]]}}]}