{"type":"FeatureCollection","features":[{"type":"Feature","properties":{"slug":"spelthorne","gss_code":"E07000213","name":"Spelthorne"},"geometry":{"type":"Polygon","coordinates":[[[-0.513851,51.467985],[-0.513583,51.468418],[-0.511135,51.469301],[-0.509807,51.469207],[-0.510241,51.4675],[-0.508788,51.467103],[-0.507295,51.466944],[-0.50638,51.467752],[-0.504253,51.467766],[-0.501016,51.467314],[-0.498097,51.466441],[-0.496941,51.46585],[-0.493866,51.462763],[-0.492154,51.462988],[-0.489617,51.461796],[-0.4862,51.461367],[-0.477154,51.461375],[-0.475912,51.460792],[-0.476481,51.460595],[-0.476054,51.460082],[-0.473618,51.458577],[-0.461113,51.457174],[-0.458724,51.456342],[-0.459294,51.452715],[-0.459838,51.45224],[-0.46132,51.452391],[-0.461482,51.448992],[-0.457462,51.449091],[-0.457444,51.442999],[-0.455391,51.442119],[-0.456475,51.438225],[-0.45366,51.438494],[-0.446289,51.439996],[-0.447717,51.435003],[-0.439752,51.43462],[-0.439983,51.430626],[-0.43264,51.429018],[-0.429534,51.428798],[-0.429425,51.429395],[-0.427831,51.429252],[-0.427486,51.43082],[-0.423499,51.430878],[-0.42358,51.431161],[-0.421154,51.432172],[-0.419079,51.432359],[-0.418356,51.431867],[-0.417294,51.431918],[-0.4179,51.431028],[-0.413806,51.430075],[-0.414352,51.429296],[-0.412453,51.428782],[-0.413086,51.427855],[-0.410868,51.427342],[-0.409007,51.425451],[-0.408441,51.423835],[-0.405362,51.42248],[-0.40176,51.423312],[-0.398112,51.423556],[-0.394512,51.423238],[-0.391317,51.422315],[-0.386642,51.420081],[-0.387694,51.419328],[-0.386762,51.417654],[-0.386594,51.415022],[-0.386123,51.414281],[-0.390292,51.414338],[-0.38965,51.410693],[-0.389177,51.41032],[-0.383777,51.410119],[-0.38335,51.408538],[-0.385697,51.409151],[-0.390465,51.409643],[-0.397047,51.407983],[-0.397193,51.408596],[-0.39992,51.407812],[-0.39933,51.407072],[-0.400432,51.406602],[-0.402768,51.405917],[-0.408158,51.40517],[-0.410635,51.404105],[-0.412933,51.40147],[-0.414632,51.400694],[-0.415837,51.399149],[-0.41714,51.398834],[-0.417198,51.397659],[-0.419643,51.396709],[-0.418965,51.396373],[-0.418686,51.395542],[-0.419508,51.395087],[-0.41952,51.394449],[-0.420143,51.3945],[-0.420708,51.394102],[-0.421319,51.393094],[-0.420668,51.392705],[-0.421078,51.392286],[-0.421599,51.392412],[-0.422698,51.391701],[-0.426135,51.390415],[-0.42666,51.389938],[-0.426546,51.388749],[-0.427667,51.386415],[-0.430052,51.387172],[-0.430199,51.38701],[-0.427889,51.386267],[-0.428855,51.385371],[-0.432089,51.384042],[-0.435758,51.383918],[-0.435616,51.384268],[-0.437513,51.385187],[-0.438137,51.386901],[-0.439977,51.388722],[-0.44159,51.389704],[-0.442777,51.389798],[-0.443422,51.389253],[-0.443783,51.387557],[-0.445004,51.386901],[-0.447583,51.386847],[-0.450219,51.388022],[-0.451891,51.387633],[-0.451955,51.386911],[-0.450255,51.38492],[-0.450523,51.38366],[-0.451978,51.382823],[-0.455167,51.383226],[-0.457879,51.381849],[-0.459586,51.3815],[-0.459433,51.380974],[-0.457991,51.380567],[-0.460733,51.379328],[-0.461464,51.378584],[-0.462796,51.378435],[-0.463501,51.37909],[-0.461682,51.38063],[-0.461308,51.381584],[-0.461774,51.382136],[-0.462509,51.382328],[-0.464776,51.381834],[-0.469954,51.381892],[-0.47102,51.382551],[-0.469832,51.384952],[-0.470136,51.385882],[-0.47226,51.387653],[-0.476476,51.390114],[-0.477736,51.390375],[-0.478667,51.390089],[-0.480637,51.387591],[-0.481841,51.386773],[-0.483754,51.386544],[-0.485104,51.387071],[-0.486423,51.388881],[-0.486876,51.392087],[-0.486389,51.393058],[-0.486893,51.395526],[-0.487863,51.396755],[-0.491082,51.398738],[-0.491763,51.399494],[-0.491947,51.40047],[-0.491169,51.403251],[-0.493087,51.405946],[-0.492517,51.410308],[-0.493203,51.411887],[-0.494568,51.412916],[-0.498115,51.414076],[-0.499772,51.414079],[-0.5008,51.413276],[-0.500021,51.411388],[-0.500272,51.41092],[-0.500879,51.410604],[-0.503244,51.410803],[-0.503737,51.411396],[-0.501657,51.414397],[-0.501736,51.415044],[-0.502681,51.415886],[-0.506371,51.417311],[-0.511218,51.416888],[-0.512596,51.417377],[-0.512875,51.419002],[-0.509821,51.424476],[-0.509735,51.426763],[-0.510266,51.429345],[-0.511216,51.430625],[-0.518867,51.434445],[-0.522778,51.435304],[-0.523264,51.435807],[-0.524532,51.435929],[-0.525232,51.437564],[-0.524068,51.438827],[-0.52454,51.43988],[-0.527729,51.44089],[-0.530563,51.441014],[-0.531495,51.441679],[-0.530641,51.443773],[-0.531062,51.44489],[-0.529405,51.445496],[-0.526732,51.44751],[-0.540577,51.457095],[-0.540602,51.458388],[-0.537061,51.459689],[-0.536591,51.45936],[-0.535301,51.460512],[-0.532072,51.464491],[-0.529646,51.469294],[-0.530378,51.469321],[-0.52996,51.470168],[-0.524359,51.471528],[-0.521221,51.471448],[-0.518728,51.47079],[-0.517136,51.469884],[-0.515661,51.468269],[-0.513851,51.467985]]]}}]}