{"type":"FeatureCollection","features":[{"type":"Feature","properties":{"slug":"st-albans","gss_code":"E07000240","name":"St Albans"},"geometry":{"type":"Polygon","coordinates":[[[-0.329252,51.846547],[-0.327707,51.846792],[-0.323218,51.844832],[-0.323318,51.843105],[-0.322251,51.839083],[-0.320372,51.837905],[-0.319398,51.836655],[-0.315539,51.836366],[-0.307792,51.835103],[-0.30532,51.835146],[-0.302538,51.835945],[-0.301076,51.835737],[-0.299395,51.834928],[-0.298518,51.83485],[-0.298343,51.835339],[-0.295841,51.834872],[-0.296328,51.834346],[-0.29599,51.834307],[-0.29199,51.834806],[-0.292006,51.835523],[-0.290787,51.835673],[-0.280095,51.834736],[-0.273535,51.835365],[-0.266586,51.83452],[-0.265057,51.833843],[-0.263669,51.832409],[-0.261496,51.828385],[-0.255164,51.822655],[-0.252259,51.821717],[-0.251649,51.820341],[-0.250189,51.81971],[-0.250062,51.819144],[-0.248644,51.818241],[-0.248311,51.816834],[-0.246622,51.81479],[-0.243428,51.812792],[-0.243783,51.809383],[-0.245868,51.807086],[-0.248957,51.80647],[-0.250994,51.805454],[-0.252962,51.805115],[-0.256461,51.803263],[-0.263746,51.802436],[-0.269774,51.800654],[-0.275297,51.799706],[-0.276729,51.798085],[-0.277543,51.797786],[-0.274391,51.794192],[-0.271578,51.791969],[-0.271212,51.79101],[-0.272603,51.788001],[-0.273918,51.786556],[-0.274041,51.782802],[-0.277428,51.77808],[-0.276905,51.774911],[-0.275539,51.772936],[-0.275838,51.772249],[-0.273326,51.770654],[-0.271902,51.769078],[-0.268834,51.769793],[-0.262356,51.763625],[-0.262537,51.763329],[-0.25864,51.760246],[-0.261252,51.758526],[-0.259739,51.757591],[-0.260396,51.75747],[-0.259266,51.756183],[-0.257114,51.754953],[-0.258082,51.754691],[-0.255743,51.753431],[-0.257295,51.751848],[-0.256514,51.751503],[-0.255075,51.749976],[-0.255873,51.749264],[-0.253059,51.747717],[-0.249507,51.749245],[-0.245591,51.751767],[-0.242382,51.745003],[-0.242608,51.744595],[-0.241581,51.742402],[-0.244846,51.741139],[-0.244894,51.739753],[-0.24551,51.739656],[-0.246457,51.738161],[-0.245968,51.734328],[-0.244428,51.731892],[-0.246852,51.731481],[-0.2483,51.732445],[-0.25035,51.73258],[-0.249008,51.731029],[-0.249421,51.73088],[-0.249754,51.731174],[-0.255136,51.729537],[-0.260056,51.733924],[-0.262117,51.736719],[-0.264281,51.737884],[-0.26611,51.738145],[-0.270195,51.737111],[-0.272979,51.735429],[-0.276523,51.735215],[-0.282702,51.733781],[-0.284364,51.732949],[-0.285298,51.731656],[-0.289021,51.728888],[-0.289466,51.72799],[-0.283671,51.724287],[-0.284119,51.722884],[-0.286393,51.72118],[-0.285917,51.720785],[-0.28231,51.721485],[-0.280863,51.720854],[-0.276954,51.721285],[-0.278831,51.719241],[-0.279621,51.717492],[-0.283498,51.714815],[-0.283846,51.714262],[-0.286491,51.713138],[-0.295759,51.711185],[-0.293969,51.709792],[-0.295222,51.709155],[-0.301976,51.708067],[-0.299267,51.69938],[-0.301029,51.698584],[-0.300019,51.696525],[-0.306327,51.697708],[-0.30923,51.697898],[-0.311323,51.697296],[-0.313296,51.696195],[-0.316175,51.696681],[-0.318078,51.695558],[-0.318309,51.69507],[-0.322332,51.69348],[-0.324642,51.697291],[-0.325954,51.70231],[-0.326711,51.703484],[-0.329561,51.702148],[-0.332101,51.702136],[-0.33336,51.701514],[-0.334082,51.698804],[-0.335042,51.698149],[-0.336849,51.697719],[-0.342253,51.697596],[-0.343397,51.697842],[-0.343274,51.6982],[-0.344255,51.697881],[-0.346063,51.69877],[-0.347791,51.698435],[-0.349131,51.698871],[-0.349737,51.699476],[-0.350542,51.699395],[-0.351026,51.69864],[-0.351979,51.698383],[-0.352541,51.697804],[-0.353624,51.698485],[-0.353424,51.699078],[-0.353871,51.699046],[-0.354759,51.698014],[-0.355408,51.698044],[-0.356568,51.696043],[-0.355868,51.695303],[-0.356587,51.694814],[-0.355886,51.694433],[-0.356029,51.692968],[-0.355595,51.691929],[-0.354933,51.691481],[-0.355325,51.690598],[-0.35574,51.691557],[-0.358213,51.691474],[-0.359087,51.690661],[-0.362759,51.689136],[-0.364185,51.689344],[-0.366765,51.689132],[-0.369624,51.687987],[-0.371999,51.687591],[-0.374208,51.689543],[-0.375943,51.693832],[-0.375723,51.695618],[-0.376466,51.69702],[-0.376175,51.698157],[-0.377164,51.700036],[-0.377212,51.701667],[-0.37886,51.701692],[-0.378731,51.70427],[-0.380802,51.705202],[-0.380775,51.706989],[-0.383655,51.7076],[-0.392717,51.708418],[-0.39642,51.709509],[-0.403015,51.712174],[-0.404991,51.712544],[-0.404419,51.713415],[-0.405873,51.7138],[-0.402557,51.71807],[-0.403454,51.719635],[-0.40246,51.721159],[-0.408923,51.72128],[-0.40954,51.721888],[-0.409363,51.723725],[-0.406599,51.724418],[-0.4075,51.725641],[-0.409273,51.725815],[-0.410116,51.729969],[-0.411888,51.732075],[-0.415228,51.73202],[-0.416165,51.732612],[-0.418148,51.735336],[-0.418131,51.737186],[-0.423771,51.742626],[-0.426557,51.744343],[-0.424567,51.745825],[-0.424044,51.745706],[-0.421024,51.748761],[-0.423746,51.750688],[-0.425702,51.752886],[-0.42439,51.753818],[-0.423461,51.756277],[-0.422819,51.760156],[-0.423357,51.762479],[-0.422832,51.76599],[-0.42589,51.76639],[-0.429739,51.767905],[-0.428443,51.770241],[-0.43008,51.77021],[-0.430822,51.771888],[-0.430707,51.77328],[-0.431458,51.776663],[-0.430324,51.777545],[-0.432959,51.779647],[-0.434625,51.780189],[-0.439391,51.78453],[-0.440584,51.786878],[-0.434897,51.789042],[-0.42995,51.79044],[-0.427305,51.792076],[-0.419722,51.79098],[-0.416409,51.790849],[-0.413368,51.791185],[-0.41366,51.793315],[-0.412161,51.793325],[-0.411428,51.795312],[-0.409362,51.797306],[-0.412439,51.799136],[-0.411968,51.800279],[-0.415923,51.802069],[-0.420952,51.802256],[-0.422896,51.803273],[-0.424829,51.804905],[-0.425204,51.804854],[-0.427945,51.80645],[-0.428535,51.806372],[-0.428829,51.806765],[-0.42717,51.809744],[-0.427706,51.810656],[-0.427501,51.811631],[-0.42429,51.813045],[-0.422886,51.81458],[-0.421585,51.815234],[-0.421815,51.815798],[-0.417482,51.817441],[-0.416958,51.817897],[-0.415494,51.818227],[-0.414112,51.819086],[-0.419727,51.820955],[-0.419056,51.821801],[-0.418975,51.822731],[-0.419938,51.825887],[-0.417936,51.828685],[-0.417588,51.831994],[-0.416313,51.835704],[-0.412686,51.838119],[-0.4086,51.838789],[-0.404859,51.840607],[-0.398,51.837183],[-0.39274,51.835572],[-0.380838,51.831103],[-0.373959,51.829191],[-0.373229,51.829269],[-0.370766,51.830567],[-0.36873,51.831083],[-0.368539,51.832868],[-0.367525,51.835105],[-0.36495,51.837917],[-0.364058,51.841183],[-0.363308,51.842105],[-0.358966,51.841409],[-0.357671,51.840016],[-0.35603,51.840513],[-0.352858,51.842154],[-0.344305,51.845376],[-0.342038,51.846641],[-0.342276,51.847394],[-0.341436,51.847744],[-0.341455,51.848338],[-0.339486,51.849606],[-0.337075,51.848635],[-0.333379,51.84804],[-0.329381,51.846925],[-0.329252,51.846547]]]}}]}