{"type":"FeatureCollection","features":[{"type":"Feature","properties":{"slug":"st-helens","gss_code":"E08000013","name":"St. Helens"},"geometry":{"type":"Polygon","coordinates":[[[-2.759832,53.512537],[-2.758701,53.514081],[-2.756016,53.514622],[-2.752829,53.516036],[-2.748293,53.516071],[-2.746985,53.516712],[-2.741035,53.518459],[-2.735924,53.519656],[-2.7314,53.519708],[-2.730418,53.520581],[-2.728302,53.518118],[-2.727302,53.517812],[-2.726798,53.514841],[-2.72355,53.511804],[-2.723241,53.511114],[-2.723605,53.510318],[-2.72297,53.509997],[-2.722029,53.510903],[-2.721046,53.511061],[-2.720452,53.511536],[-2.719632,53.511222],[-2.719275,53.511791],[-2.718252,53.511569],[-2.717477,53.510932],[-2.715546,53.51068],[-2.715019,53.511014],[-2.714481,53.512447],[-2.710014,53.51458],[-2.708554,53.513373],[-2.707058,53.506617],[-2.706277,53.505648],[-2.705817,53.505833],[-2.705572,53.505609],[-2.706016,53.505407],[-2.705478,53.504786],[-2.703854,53.505104],[-2.70324,53.503967],[-2.700756,53.504592],[-2.69916,53.503094],[-2.698962,53.502012],[-2.696769,53.501842],[-2.696319,53.502264],[-2.692947,53.502208],[-2.691163,53.501836],[-2.690298,53.501291],[-2.688379,53.501493],[-2.685986,53.500841],[-2.685024,53.501071],[-2.68347,53.500919],[-2.682569,53.500289],[-2.681882,53.500398],[-2.681856,53.499979],[-2.68023,53.499516],[-2.680312,53.499151],[-2.677685,53.49883],[-2.673878,53.499346],[-2.673279,53.499031],[-2.671686,53.499073],[-2.669692,53.499476],[-2.669645,53.49988],[-2.668456,53.500135],[-2.666258,53.499741],[-2.665781,53.49813],[-2.664751,53.496724],[-2.664847,53.49596],[-2.663933,53.494703],[-2.66131,53.493673],[-2.662937,53.492797],[-2.65992,53.492245],[-2.656731,53.492523],[-2.654131,53.486532],[-2.652995,53.486495],[-2.65289,53.485482],[-2.651987,53.48536],[-2.648405,53.482525],[-2.645553,53.48078],[-2.645537,53.480271],[-2.63767,53.480366],[-2.633102,53.481019],[-2.631859,53.480821],[-2.617277,53.481779],[-2.612138,53.481138],[-2.61224,53.478449],[-2.613188,53.478173],[-2.612209,53.477705],[-2.612171,53.477317],[-2.609347,53.476709],[-2.609135,53.476074],[-2.612051,53.476743],[-2.611872,53.475],[-2.607863,53.470828],[-2.608305,53.470389],[-2.608989,53.470316],[-2.610664,53.47054],[-2.611237,53.469932],[-2.614549,53.470361],[-2.614893,53.468681],[-2.614487,53.468595],[-2.615112,53.467856],[-2.615888,53.468075],[-2.616761,53.466239],[-2.61514,53.465013],[-2.615434,53.463691],[-2.613737,53.462693],[-2.613748,53.462145],[-2.613111,53.461775],[-2.61023,53.461596],[-2.609116,53.461309],[-2.609101,53.46101],[-2.606824,53.461523],[-2.603494,53.46091],[-2.600851,53.461218],[-2.599234,53.461069],[-2.599118,53.460686],[-2.59957,53.460158],[-2.59914,53.458747],[-2.596929,53.456837],[-2.593269,53.455788],[-2.588659,53.456152],[-2.588376,53.455558],[-2.586679,53.455245],[-2.584201,53.454116],[-2.583079,53.453359],[-2.584671,53.452246],[-2.583807,53.451809],[-2.583328,53.448971],[-2.58232,53.44821],[-2.578826,53.447513],[-2.576665,53.446085],[-2.582314,53.441159],[-2.584597,53.440393],[-2.585296,53.439807],[-2.591596,53.446548],[-2.598685,53.450414],[-2.596659,53.448179],[-2.59589,53.44533],[-2.596231,53.442666],[-2.597051,53.442561],[-2.598897,53.443397],[-2.600605,53.443514],[-2.602485,53.442431],[-2.606344,53.442822],[-2.611423,53.442275],[-2.612087,53.441688],[-2.616055,53.440706],[-2.61801,53.438668],[-2.619693,53.438793],[-2.619233,53.438349],[-2.620299,53.437833],[-2.620959,53.437872],[-2.621018,53.437047],[-2.625433,53.436526],[-2.626716,53.435162],[-2.626323,53.434432],[-2.627462,53.434413],[-2.630043,53.435145],[-2.632089,53.43794],[-2.63141,53.44015],[-2.632408,53.44166],[-2.63954,53.444422],[-2.641891,53.443892],[-2.645657,53.444305],[-2.646057,53.44536],[-2.647982,53.446654],[-2.649378,53.446362],[-2.651096,53.447728],[-2.65236,53.448164],[-2.654743,53.448118],[-2.657915,53.447446],[-2.658787,53.4477],[-2.659946,53.448981],[-2.663873,53.449491],[-2.665132,53.449162],[-2.666062,53.449619],[-2.667876,53.449609],[-2.668495,53.450001],[-2.670661,53.449926],[-2.672603,53.450991],[-2.673443,53.451999],[-2.673408,53.452582],[-2.674574,53.452911],[-2.677186,53.452753],[-2.678612,53.450578],[-2.677504,53.449415],[-2.677788,53.449017],[-2.677354,53.448065],[-2.678223,53.446328],[-2.678476,53.444587],[-2.67869,53.444273],[-2.680278,53.444718],[-2.681338,53.442577],[-2.679828,53.442229],[-2.682168,53.439234],[-2.682066,53.438887],[-2.678879,53.439696],[-2.678844,53.439123],[-2.670292,53.441301],[-2.668772,53.441044],[-2.668328,53.440416],[-2.668845,53.439395],[-2.671836,53.437868],[-2.671683,53.43594],[-2.674182,53.43529],[-2.676046,53.435455],[-2.675268,53.432965],[-2.672724,53.432037],[-2.670319,53.43229],[-2.666442,53.431843],[-2.664819,53.431302],[-2.663852,53.429667],[-2.663784,53.428461],[-2.665674,53.427855],[-2.666567,53.426359],[-2.670063,53.424176],[-2.67232,53.422025],[-2.6718,53.418897],[-2.667094,53.418646],[-2.666856,53.416264],[-2.670745,53.415255],[-2.671877,53.415287],[-2.672136,53.411807],[-2.673025,53.41008],[-2.672996,53.408827],[-2.672927,53.407873],[-2.672355,53.407762],[-2.671377,53.400174],[-2.673109,53.399742],[-2.673794,53.398388],[-2.674816,53.398013],[-2.676611,53.393547],[-2.676034,53.389868],[-2.676317,53.387619],[-2.690633,53.385388],[-2.701076,53.386846],[-2.705042,53.386746],[-2.705081,53.387932],[-2.710344,53.38929],[-2.710222,53.389941],[-2.712803,53.390626],[-2.71612,53.39688],[-2.716589,53.399045],[-2.715227,53.399035],[-2.720314,53.399987],[-2.728936,53.399671],[-2.740372,53.40142],[-2.743863,53.402553],[-2.745175,53.402096],[-2.747422,53.402314],[-2.754919,53.400978],[-2.766389,53.400067],[-2.772259,53.400147],[-2.786776,53.401188],[-2.786686,53.402208],[-2.784124,53.407074],[-2.785592,53.411331],[-2.785691,53.415029],[-2.778777,53.415693],[-2.778205,53.416303],[-2.78246,53.418681],[-2.782119,53.419222],[-2.782459,53.419316],[-2.781384,53.420412],[-2.781837,53.420575],[-2.781673,53.420852],[-2.780208,53.420569],[-2.776201,53.426687],[-2.778719,53.42774],[-2.779666,53.427694],[-2.782017,53.428597],[-2.783572,53.428595],[-2.786029,53.429372],[-2.787243,53.430526],[-2.787945,53.430378],[-2.793337,53.431042],[-2.793789,53.432794],[-2.793236,53.432835],[-2.793961,53.433867],[-2.797746,53.433757],[-2.796809,53.436013],[-2.799186,53.436115],[-2.800124,53.437089],[-2.803079,53.437557],[-2.80503,53.43866],[-2.805349,53.440118],[-2.804639,53.441162],[-2.803973,53.441443],[-2.798952,53.44136],[-2.796767,53.440631],[-2.795069,53.44323],[-2.800259,53.449143],[-2.804188,53.451394],[-2.805281,53.45368],[-2.805107,53.455537],[-2.807004,53.455831],[-2.806273,53.463217],[-2.804408,53.467236],[-2.818712,53.466891],[-2.818652,53.470149],[-2.816752,53.477852],[-2.822949,53.48269],[-2.824964,53.485209],[-2.82404,53.489592],[-2.822076,53.492583],[-2.820349,53.494371],[-2.819894,53.496507],[-2.82252,53.505128],[-2.821484,53.505088],[-2.816616,53.512282],[-2.815629,53.512862],[-2.810395,53.513859],[-2.810795,53.514365],[-2.810478,53.516078],[-2.809512,53.516923],[-2.807273,53.517922],[-2.805341,53.518664],[-2.800575,53.519381],[-2.794687,53.521243],[-2.793593,53.522042],[-2.791406,53.525483],[-2.78894,53.526828],[-2.782418,53.531373],[-2.774142,53.523099],[-2.77252,53.520042],[-2.770894,53.518209],[-2.769902,53.515768],[-2.770015,53.514121],[-2.768872,53.513571],[-2.759832,53.512537]]]}}]}