{"type":"FeatureCollection","features":[{"type":"Feature","properties":{"slug":"stafford","gss_code":"E07000197","name":"Stafford"},"geometry":{"type":"Polygon","coordinates":[[[-2.212213,52.979656],[-2.209846,52.977407],[-2.208746,52.973839],[-2.207169,52.971775],[-2.205417,52.972223],[-2.204689,52.969924],[-2.202224,52.968658],[-2.200438,52.968414],[-2.198722,52.966598],[-2.195376,52.964224],[-2.194237,52.960807],[-2.194291,52.958051],[-2.193207,52.955692],[-2.191773,52.953894],[-2.191799,52.951557],[-2.191253,52.950086],[-2.185998,52.951006],[-2.185154,52.95045],[-2.184602,52.949416],[-2.182093,52.947607],[-2.182099,52.947282],[-2.182924,52.94717],[-2.18156,52.946158],[-2.178585,52.948115],[-2.177414,52.9477],[-2.175704,52.947752],[-2.174505,52.947222],[-2.17433,52.949468],[-2.176814,52.953694],[-2.173261,52.954448],[-2.172238,52.955011],[-2.17112,52.951729],[-2.166893,52.952934],[-2.162595,52.953365],[-2.161854,52.954712],[-2.162426,52.956428],[-2.161364,52.957484],[-2.161812,52.957891],[-2.159856,52.959065],[-2.159588,52.961102],[-2.158325,52.961145],[-2.158167,52.963149],[-2.159396,52.963152],[-2.159499,52.963619],[-2.154169,52.964326],[-2.153772,52.963559],[-2.150985,52.96412],[-2.151371,52.964902],[-2.149842,52.965281],[-2.151482,52.968669],[-2.151493,52.971194],[-2.148957,52.972828],[-2.147394,52.974944],[-2.145711,52.976111],[-2.139363,52.973698],[-2.136651,52.973498],[-2.133981,52.97381],[-2.131357,52.971542],[-2.130403,52.971176],[-2.128955,52.969273],[-2.127922,52.965005],[-2.121585,52.956086],[-2.117718,52.956108],[-2.115117,52.956474],[-2.110284,52.957819],[-2.109153,52.959394],[-2.109596,52.962359],[-2.107231,52.962446],[-2.107199,52.962158],[-2.10617,52.962178],[-2.103015,52.963409],[-2.10028,52.96074],[-2.086841,52.965026],[-2.084454,52.965419],[-2.084555,52.966257],[-2.081231,52.966902],[-2.081952,52.968217],[-2.081521,52.96826],[-2.084368,52.970103],[-2.086837,52.972881],[-2.088319,52.973643],[-2.088131,52.973848],[-2.075898,52.97071],[-2.068447,52.968367],[-2.067371,52.96773],[-2.067257,52.967194],[-2.068377,52.96509],[-2.068881,52.962993],[-2.067727,52.962971],[-2.065016,52.960966],[-2.063659,52.960682],[-2.060987,52.961359],[-2.060605,52.961003],[-2.05985,52.961],[-2.059083,52.959842],[-2.058489,52.959609],[-2.05853,52.958638],[-2.057706,52.958305],[-2.057842,52.958058],[-2.05368,52.95693],[-2.053415,52.956615],[-2.053649,52.956415],[-2.052739,52.955704],[-2.050716,52.955333],[-2.050108,52.954657],[-2.04891,52.954255],[-2.048964,52.953667],[-2.048165,52.954142],[-2.047635,52.953757],[-2.048076,52.953434],[-2.046922,52.952676],[-2.04559,52.952512],[-2.045725,52.952057],[-2.044959,52.952178],[-2.04456,52.951525],[-2.043032,52.951353],[-2.043773,52.951098],[-2.043891,52.950464],[-2.043159,52.948809],[-2.046327,52.946565],[-2.046099,52.945948],[-2.044651,52.945653],[-2.046654,52.94265],[-2.049995,52.939402],[-2.04582,52.938462],[-2.046265,52.936832],[-2.047833,52.93665],[-2.049287,52.935986],[-2.05183,52.933573],[-2.055948,52.931356],[-2.059687,52.926217],[-2.062991,52.922481],[-2.057279,52.920097],[-2.053784,52.919004],[-2.04156,52.917473],[-2.043541,52.917311],[-2.042711,52.915704],[-2.04062,52.915953],[-2.040638,52.916496],[-2.036934,52.915753],[-2.034057,52.914716],[-2.033162,52.914154],[-2.033016,52.913634],[-2.027202,52.911564],[-2.023903,52.909636],[-2.017461,52.90824],[-2.01275,52.906581],[-2.016521,52.903706],[-2.016969,52.902306],[-2.012422,52.900637],[-2.007406,52.899252],[-2.002729,52.896856],[-1.999704,52.892268],[-1.996646,52.892202],[-1.993941,52.893633],[-1.991279,52.894265],[-1.986864,52.894726],[-1.985942,52.895297],[-1.985951,52.89493],[-1.982011,52.894168],[-1.97966,52.893279],[-1.975978,52.889815],[-1.97348,52.887819],[-1.97212,52.887191],[-1.97017,52.885156],[-1.969952,52.881799],[-1.968451,52.874864],[-1.967531,52.87429],[-1.967262,52.874422],[-1.966393,52.873949],[-1.965932,52.874158],[-1.964998,52.873672],[-1.96429,52.872534],[-1.960685,52.870298],[-1.952512,52.868388],[-1.951435,52.870294],[-1.950054,52.869732],[-1.946536,52.869472],[-1.944969,52.869935],[-1.936012,52.870751],[-1.937077,52.869697],[-1.936653,52.869351],[-1.937286,52.868783],[-1.936884,52.868431],[-1.937337,52.867894],[-1.937112,52.867278],[-1.93466,52.867054],[-1.934724,52.866315],[-1.934187,52.8662],[-1.935209,52.865603],[-1.935306,52.865396],[-1.934631,52.865314],[-1.934795,52.865102],[-1.937027,52.864422],[-1.936886,52.863743],[-1.936074,52.864027],[-1.93553,52.863765],[-1.935717,52.863123],[-1.936732,52.862792],[-1.935867,52.862107],[-1.936603,52.861547],[-1.935972,52.860883],[-1.936331,52.859437],[-1.937591,52.858762],[-1.937002,52.858128],[-1.935476,52.857863],[-1.934675,52.85721],[-1.933297,52.8541],[-1.933982,52.852753],[-1.93465,52.852991],[-1.933997,52.853155],[-1.934562,52.853569],[-1.935238,52.853293],[-1.935589,52.853519],[-1.937414,52.853452],[-1.937998,52.853079],[-1.93788,52.852723],[-1.938995,52.852764],[-1.938741,52.852395],[-1.939886,52.851664],[-1.939186,52.851628],[-1.93853,52.850581],[-1.939142,52.85034],[-1.938127,52.850061],[-1.938474,52.849554],[-1.937358,52.849222],[-1.937411,52.848737],[-1.936703,52.848155],[-1.946234,52.846859],[-1.946875,52.845583],[-1.94918,52.844754],[-1.949642,52.844121],[-1.951092,52.843743],[-1.95044,52.84235],[-1.948471,52.842415],[-1.949129,52.841439],[-1.948692,52.840717],[-1.952225,52.837077],[-1.950752,52.83645],[-1.952122,52.834744],[-1.953005,52.832444],[-1.954435,52.832134],[-1.960839,52.827317],[-1.966634,52.825157],[-1.96729,52.825259],[-1.967884,52.824301],[-1.96558,52.821925],[-1.964447,52.821479],[-1.964414,52.820343],[-1.962585,52.819336],[-1.962019,52.818189],[-1.960355,52.817228],[-1.959692,52.815488],[-1.958249,52.814498],[-1.958323,52.813916],[-1.957004,52.813551],[-1.957225,52.813261],[-1.956328,52.81294],[-1.95494,52.812806],[-1.954862,52.81236],[-1.953757,52.812072],[-1.951327,52.807428],[-1.951162,52.803904],[-1.95269,52.801994],[-1.952402,52.801798],[-1.953038,52.801502],[-1.952629,52.800654],[-1.958076,52.798506],[-1.956097,52.797957],[-1.951786,52.795981],[-1.948205,52.793634],[-1.947948,52.793302],[-1.951367,52.791821],[-1.950675,52.789777],[-1.949279,52.79004],[-1.949204,52.789394],[-1.945253,52.789356],[-1.946447,52.785941],[-1.947109,52.78596],[-1.948258,52.78382],[-1.951278,52.780135],[-1.952085,52.780083],[-1.947441,52.778176],[-1.945841,52.776564],[-1.943958,52.773739],[-1.944688,52.773535],[-1.946601,52.774197],[-1.947712,52.773805],[-1.948639,52.773985],[-1.950599,52.771663],[-1.955935,52.769168],[-1.959705,52.768389],[-1.965753,52.765521],[-1.967726,52.764986],[-1.970536,52.765026],[-1.97205,52.763444],[-1.97313,52.761558],[-1.977394,52.762437],[-1.982697,52.76206],[-1.986689,52.762985],[-1.988337,52.762829],[-1.996776,52.763644],[-1.99938,52.762893],[-2.003786,52.760655],[-2.007332,52.760799],[-2.01267,52.759595],[-2.015698,52.759677],[-2.018466,52.758831],[-2.017815,52.757107],[-2.01478,52.753511],[-2.015159,52.753103],[-2.015064,52.751069],[-2.015468,52.750994],[-2.016822,52.746578],[-2.018023,52.744295],[-2.017016,52.742566],[-2.017906,52.741517],[-2.026802,52.736318],[-2.028965,52.739775],[-2.031285,52.742226],[-2.032348,52.745683],[-2.033708,52.747222],[-2.037355,52.754422],[-2.042766,52.760767],[-2.044515,52.762092],[-2.047142,52.763621],[-2.047626,52.763173],[-2.051596,52.761574],[-2.053888,52.763129],[-2.053483,52.763761],[-2.055971,52.765372],[-2.060541,52.764639],[-2.063284,52.765606],[-2.064134,52.765339],[-2.066424,52.765995],[-2.072676,52.766622],[-2.074363,52.766532],[-2.076164,52.766967],[-2.073228,52.769469],[-2.069381,52.770875],[-2.067803,52.772443],[-2.065964,52.773547],[-2.068469,52.774647],[-2.069988,52.775877],[-2.074731,52.778424],[-2.077663,52.780449],[-2.079328,52.779787],[-2.081606,52.779562],[-2.086032,52.779921],[-2.087147,52.780668],[-2.089277,52.78102],[-2.091669,52.780707],[-2.095089,52.78109],[-2.094967,52.782317],[-2.096161,52.78389],[-2.09386,52.786207],[-2.095164,52.786433],[-2.096225,52.785129],[-2.099138,52.784713],[-2.097516,52.782701],[-2.098782,52.782054],[-2.098574,52.7809],[-2.09945,52.779734],[-2.099854,52.777729],[-2.100041,52.775845],[-2.098829,52.774738],[-2.098858,52.773234],[-2.10001,52.773043],[-2.102671,52.769798],[-2.105453,52.770287],[-2.1076,52.771644],[-2.108991,52.771084],[-2.110957,52.771576],[-2.111542,52.771406],[-2.11224,52.770605],[-2.111965,52.769625],[-2.114202,52.769116],[-2.114436,52.768756],[-2.116598,52.769145],[-2.116675,52.769773],[-2.124085,52.773284],[-2.128031,52.774751],[-2.129421,52.775836],[-2.130613,52.776086],[-2.132615,52.775802],[-2.134712,52.775929],[-2.134218,52.777663],[-2.137329,52.777735],[-2.137638,52.778161],[-2.136905,52.778486],[-2.137236,52.7802],[-2.138262,52.781834],[-2.137835,52.78242],[-2.138384,52.783781],[-2.14122,52.784114],[-2.144182,52.783357],[-2.144731,52.783608],[-2.147038,52.782541],[-2.145938,52.781615],[-2.149283,52.780257],[-2.150466,52.778896],[-2.151392,52.77503],[-2.154223,52.773079],[-2.156173,52.772576],[-2.154578,52.771772],[-2.154515,52.771237],[-2.155777,52.768675],[-2.155661,52.764246],[-2.156171,52.763026],[-2.15787,52.762357],[-2.159377,52.760338],[-2.157749,52.759329],[-2.155316,52.758536],[-2.15767,52.75735],[-2.158045,52.754644],[-2.161275,52.75474],[-2.159803,52.753552],[-2.160122,52.753139],[-2.159594,52.752969],[-2.160326,52.75236],[-2.160433,52.750856],[-2.159273,52.749889],[-2.159789,52.749427],[-2.158598,52.74761],[-2.158629,52.746618],[-2.159613,52.745391],[-2.159639,52.743636],[-2.163545,52.741129],[-2.168049,52.743098],[-2.169012,52.744543],[-2.173132,52.744962],[-2.173538,52.744364],[-2.177975,52.743988],[-2.17807,52.740896],[-2.177045,52.738946],[-2.178616,52.736685],[-2.179844,52.737015],[-2.180312,52.736161],[-2.183151,52.735905],[-2.183733,52.735698],[-2.183719,52.735143],[-2.185259,52.73479],[-2.18639,52.734969],[-2.187612,52.732967],[-2.188717,52.73279],[-2.19125,52.733367],[-2.194251,52.733237],[-2.195502,52.734159],[-2.196875,52.734609],[-2.200144,52.733671],[-2.200868,52.732793],[-2.20159,52.733001],[-2.20199,52.731978],[-2.205163,52.732123],[-2.205529,52.732541],[-2.206532,52.732054],[-2.216923,52.732871],[-2.216673,52.732221],[-2.218353,52.732359],[-2.218293,52.731071],[-2.217661,52.731034],[-2.21759,52.729642],[-2.220047,52.726266],[-2.219763,52.72604],[-2.220618,52.725815],[-2.224273,52.726159],[-2.225332,52.725831],[-2.225833,52.726179],[-2.22809,52.725639],[-2.228209,52.725241],[-2.229413,52.724771],[-2.231174,52.724787],[-2.231061,52.72443],[-2.234448,52.723106],[-2.236134,52.721718],[-2.23955,52.720531],[-2.240978,52.718944],[-2.240951,52.718318],[-2.24261,52.717619],[-2.243348,52.716311],[-2.245352,52.715188],[-2.246613,52.715062],[-2.252045,52.715889],[-2.25685,52.717849],[-2.25753,52.71869],[-2.258434,52.720935],[-2.258281,52.724747],[-2.257198,52.725716],[-2.256273,52.727721],[-2.253959,52.728132],[-2.255728,52.730504],[-2.262669,52.729836],[-2.263214,52.73076],[-2.264374,52.730945],[-2.265041,52.7317],[-2.26526,52.73301],[-2.264796,52.73411],[-2.266593,52.737284],[-2.267915,52.737992],[-2.26952,52.738274],[-2.269833,52.737757],[-2.2739,52.737756],[-2.273956,52.739989],[-2.274971,52.742754],[-2.277049,52.742237],[-2.277835,52.741173],[-2.280483,52.740575],[-2.283165,52.740483],[-2.285148,52.74258],[-2.2876,52.743278],[-2.290931,52.743214],[-2.29227,52.742265],[-2.295939,52.743447],[-2.297798,52.742331],[-2.299321,52.740751],[-2.301478,52.740751],[-2.305358,52.739915],[-2.306861,52.740203],[-2.30752,52.739813],[-2.312208,52.740838],[-2.316054,52.744548],[-2.315714,52.74498],[-2.316002,52.745179],[-2.315146,52.745436],[-2.316964,52.745991],[-2.31791,52.74681],[-2.319421,52.747433],[-2.320177,52.747579],[-2.321016,52.747194],[-2.320795,52.747838],[-2.321345,52.748208],[-2.321509,52.749916],[-2.323867,52.750768],[-2.324685,52.751512],[-2.326899,52.751238],[-2.329852,52.751318],[-2.330527,52.751584],[-2.330379,52.751958],[-2.330674,52.751849],[-2.331108,52.752702],[-2.330548,52.753694],[-2.329754,52.753701],[-2.328658,52.754502],[-2.329367,52.754775],[-2.329384,52.756108],[-2.330142,52.756399],[-2.329795,52.756844],[-2.329941,52.757525],[-2.330449,52.757629],[-2.330156,52.758021],[-2.334942,52.758863],[-2.342441,52.762091],[-2.344026,52.763909],[-2.343967,52.765028],[-2.345233,52.766309],[-2.349967,52.766198],[-2.352731,52.768908],[-2.354392,52.771597],[-2.357569,52.772198],[-2.359032,52.773873],[-2.363242,52.775167],[-2.365069,52.776738],[-2.36635,52.77712],[-2.368092,52.776881],[-2.368828,52.777277],[-2.367053,52.778593],[-2.366768,52.779584],[-2.367162,52.781666],[-2.365949,52.783397],[-2.367187,52.783807],[-2.36827,52.783589],[-2.371876,52.784243],[-2.377207,52.783645],[-2.378933,52.784098],[-2.378522,52.785082],[-2.378758,52.785904],[-2.379442,52.78592],[-2.379447,52.786324],[-2.380187,52.786638],[-2.37957,52.787134],[-2.380046,52.787313],[-2.379866,52.787565],[-2.380792,52.787792],[-2.381034,52.788812],[-2.383231,52.788526],[-2.383371,52.789025],[-2.384289,52.789067],[-2.385035,52.789589],[-2.384693,52.790468],[-2.385647,52.790755],[-2.383649,52.791158],[-2.381251,52.790753],[-2.380853,52.792296],[-2.381678,52.792522],[-2.381608,52.792828],[-2.38206,52.792739],[-2.381631,52.792983],[-2.382176,52.793218],[-2.380543,52.794774],[-2.37985,52.794201],[-2.379073,52.794578],[-2.378595,52.7943],[-2.37895,52.794051],[-2.377512,52.794173],[-2.376435,52.793437],[-2.375785,52.793367],[-2.37529,52.793953],[-2.374577,52.794125],[-2.374746,52.793813],[-2.373119,52.793923],[-2.371327,52.795304],[-2.371651,52.796565],[-2.373014,52.796617],[-2.373304,52.797293],[-2.372923,52.797663],[-2.372619,52.797468],[-2.37182,52.797708],[-2.372185,52.798294],[-2.371324,52.799185],[-2.371889,52.799414],[-2.371126,52.79968],[-2.371431,52.799965],[-2.370845,52.800336],[-2.371448,52.800378],[-2.371113,52.800492],[-2.371581,52.800797],[-2.372168,52.800591],[-2.372379,52.801286],[-2.373644,52.801614],[-2.373695,52.802126],[-2.374798,52.802392],[-2.375438,52.802917],[-2.375124,52.803135],[-2.375774,52.803626],[-2.376549,52.803657],[-2.376847,52.804086],[-2.37701,52.804425],[-2.376397,52.804734],[-2.376582,52.805236],[-2.37698,52.805264],[-2.376924,52.805874],[-2.377486,52.805937],[-2.377696,52.807136],[-2.375976,52.808024],[-2.376504,52.808275],[-2.375947,52.80955],[-2.376862,52.81019],[-2.378023,52.810447],[-2.37802,52.81075],[-2.378699,52.810784],[-2.378476,52.811516],[-2.377655,52.811643],[-2.397754,52.820014],[-2.416347,52.827006],[-2.415542,52.827711],[-2.415337,52.82914],[-2.413782,52.829608],[-2.412718,52.831047],[-2.409704,52.832567],[-2.409344,52.83359],[-2.407656,52.834605],[-2.403608,52.834854],[-2.400874,52.833731],[-2.39709,52.833854],[-2.395734,52.834421],[-2.395594,52.834962],[-2.394502,52.835577],[-2.393756,52.83662],[-2.394068,52.837913],[-2.393521,52.838697],[-2.394268,52.841042],[-2.393191,52.842404],[-2.392528,52.845621],[-2.39276,52.846911],[-2.391433,52.849926],[-2.389779,52.851807],[-2.389725,52.854549],[-2.388371,52.855785],[-2.389333,52.857224],[-2.386739,52.859972],[-2.388201,52.861221],[-2.388495,52.862234],[-2.382223,52.865756],[-2.381156,52.867063],[-2.380551,52.873254],[-2.38245,52.875765],[-2.38256,52.876485],[-2.381114,52.880154],[-2.379418,52.880907],[-2.378919,52.88165],[-2.379172,52.883428],[-2.376865,52.8845],[-2.377551,52.887713],[-2.375387,52.89144],[-2.378938,52.891721],[-2.379684,52.893042],[-2.379596,52.893885],[-2.380603,52.895012],[-2.380719,52.896433],[-2.382142,52.897059],[-2.382688,52.897841],[-2.382121,52.899378],[-2.382498,52.901456],[-2.381124,52.90284],[-2.380865,52.903845],[-2.382711,52.906116],[-2.378977,52.911039],[-2.37915,52.912913],[-2.376996,52.913241],[-2.373438,52.914576],[-2.371365,52.914689],[-2.369088,52.915645],[-2.368702,52.916314],[-2.366602,52.916732],[-2.365316,52.917586],[-2.361434,52.917567],[-2.357879,52.918558],[-2.354713,52.918046],[-2.353415,52.917108],[-2.350736,52.916297],[-2.35067,52.915819],[-2.349284,52.915447],[-2.347307,52.914119],[-2.346277,52.916575],[-2.343085,52.92015],[-2.341421,52.921661],[-2.340937,52.921578],[-2.340052,52.922015],[-2.339008,52.92307],[-2.333739,52.926202],[-2.333104,52.926814],[-2.332764,52.928204],[-2.330226,52.928896],[-2.328,52.930012],[-2.325545,52.929957],[-2.323029,52.930841],[-2.322817,52.930526],[-2.319612,52.932444],[-2.31478,52.930927],[-2.311791,52.930365],[-2.310628,52.931124],[-2.308856,52.930651],[-2.306014,52.932415],[-2.302052,52.930042],[-2.301154,52.930647],[-2.297816,52.931255],[-2.296359,52.931946],[-2.293514,52.930287],[-2.293176,52.929636],[-2.288729,52.928304],[-2.287057,52.927584],[-2.286998,52.927003],[-2.286232,52.926859],[-2.285983,52.927101],[-2.285477,52.926581],[-2.284651,52.926834],[-2.283897,52.926599],[-2.283495,52.926906],[-2.282771,52.926624],[-2.282183,52.9269],[-2.280356,52.926658],[-2.279885,52.926366],[-2.279115,52.926574],[-2.27695,52.925285],[-2.276188,52.925262],[-2.276576,52.924917],[-2.276098,52.924683],[-2.272679,52.924485],[-2.272436,52.924137],[-2.271639,52.924254],[-2.2712,52.923741],[-2.270023,52.923434],[-2.269615,52.923641],[-2.268978,52.92323],[-2.266707,52.923415],[-2.266477,52.923749],[-2.264065,52.923683],[-2.262544,52.927756],[-2.263108,52.93012],[-2.264587,52.930367],[-2.264428,52.932553],[-2.26378,52.932601],[-2.26407,52.933581],[-2.263233,52.933961],[-2.265096,52.934957],[-2.266394,52.936547],[-2.267435,52.93687],[-2.267051,52.9371],[-2.267406,52.937808],[-2.2683,52.937751],[-2.268222,52.938086],[-2.269396,52.938415],[-2.26981,52.939392],[-2.270744,52.939149],[-2.270577,52.939346],[-2.273142,52.94115],[-2.273207,52.942147],[-2.273635,52.942283],[-2.273376,52.943264],[-2.274045,52.943353],[-2.273849,52.943694],[-2.274776,52.944396],[-2.274495,52.945168],[-2.275722,52.945195],[-2.275265,52.945467],[-2.275995,52.946416],[-2.275333,52.946554],[-2.276511,52.947049],[-2.276269,52.947449],[-2.276865,52.947746],[-2.276228,52.947921],[-2.276277,52.948416],[-2.276571,52.948656],[-2.277162,52.948498],[-2.277401,52.949295],[-2.276947,52.95013],[-2.278026,52.951227],[-2.275416,52.953893],[-2.274576,52.954318],[-2.273328,52.957757],[-2.269751,52.961795],[-2.270225,52.963372],[-2.269313,52.96317],[-2.268375,52.963662],[-2.267355,52.963193],[-2.264404,52.962849],[-2.263653,52.963506],[-2.262566,52.96569],[-2.258702,52.965079],[-2.255849,52.965611],[-2.254281,52.96407],[-2.253575,52.963931],[-2.252451,52.964428],[-2.252288,52.965637],[-2.251083,52.966394],[-2.245925,52.968263],[-2.238544,52.972052],[-2.236056,52.972708],[-2.234392,52.972584],[-2.233498,52.972929],[-2.233361,52.973292],[-2.232137,52.973819],[-2.232033,52.975043],[-2.229996,52.975795],[-2.229463,52.975377],[-2.227083,52.976346],[-2.226384,52.976312],[-2.225758,52.975848],[-2.224553,52.975928],[-2.223894,52.977089],[-2.221234,52.97864],[-2.22042,52.979541],[-2.217977,52.980481],[-2.212514,52.980575],[-2.212213,52.979656]]]}}]}