{"type":"FeatureCollection","features":[{"type":"Feature","properties":{"slug":"staffordshire-moorlands","gss_code":"E07000198","name":"Staffordshire Moorlands"},"geometry":{"type":"Polygon","coordinates":[[[-1.948913,53.211713],[-1.939171,53.212078],[-1.936732,53.2115],[-1.934374,53.210368],[-1.933444,53.209436],[-1.930479,53.20856],[-1.929758,53.207367],[-1.928478,53.206667],[-1.925063,53.20551],[-1.922969,53.20325],[-1.921716,53.202924],[-1.919599,53.203187],[-1.919201,53.202975],[-1.918246,53.203456],[-1.917268,53.203454],[-1.916696,53.202844],[-1.915309,53.202948],[-1.915126,53.202257],[-1.914085,53.202305],[-1.913411,53.20147],[-1.912204,53.201546],[-1.912379,53.200752],[-1.911343,53.199949],[-1.909991,53.199568],[-1.909184,53.198811],[-1.908314,53.198927],[-1.908138,53.198597],[-1.907329,53.198851],[-1.906629,53.198368],[-1.9056,53.198841],[-1.903876,53.198649],[-1.903715,53.199044],[-1.901729,53.199019],[-1.900885,53.199863],[-1.898683,53.200042],[-1.89728,53.199987],[-1.896887,53.199428],[-1.895523,53.199863],[-1.895218,53.199348],[-1.89464,53.199239],[-1.893967,53.199657],[-1.893193,53.199108],[-1.892327,53.199241],[-1.891376,53.198919],[-1.890586,53.1994],[-1.8886,53.198745],[-1.888428,53.198406],[-1.887071,53.198325],[-1.884591,53.19674],[-1.88491,53.196546],[-1.884649,53.196317],[-1.883791,53.196614],[-1.882526,53.196133],[-1.882452,53.196582],[-1.880898,53.195924],[-1.880503,53.196366],[-1.880144,53.195978],[-1.879063,53.195977],[-1.878278,53.195517],[-1.877047,53.195393],[-1.876518,53.19496],[-1.87586,53.195521],[-1.874716,53.195082],[-1.874043,53.195384],[-1.874165,53.194821],[-1.873537,53.194499],[-1.873888,53.193855],[-1.871776,53.193903],[-1.871454,53.193087],[-1.871904,53.192912],[-1.871012,53.192169],[-1.870091,53.192237],[-1.870226,53.19147],[-1.869524,53.191217],[-1.869322,53.191512],[-1.868539,53.190848],[-1.867494,53.190931],[-1.866277,53.189693],[-1.865463,53.189889],[-1.863879,53.188787],[-1.860806,53.188459],[-1.86082,53.187849],[-1.860224,53.187539],[-1.859378,53.187681],[-1.859151,53.186619],[-1.858488,53.186191],[-1.857607,53.186196],[-1.856023,53.185574],[-1.855479,53.184983],[-1.854275,53.184903],[-1.854399,53.184404],[-1.852488,53.18389],[-1.851796,53.182843],[-1.850768,53.182881],[-1.850896,53.182426],[-1.849724,53.182125],[-1.848209,53.180881],[-1.848562,53.180475],[-1.847501,53.180034],[-1.847506,53.179494],[-1.847101,53.179829],[-1.846379,53.17977],[-1.846148,53.178572],[-1.845631,53.17861],[-1.845193,53.178246],[-1.843939,53.178401],[-1.84447,53.178116],[-1.843667,53.177682],[-1.843078,53.178127],[-1.840779,53.176934],[-1.839337,53.17693],[-1.839344,53.176358],[-1.838624,53.176414],[-1.837197,53.175761],[-1.837166,53.175387],[-1.836382,53.175234],[-1.835979,53.174361],[-1.83446,53.174054],[-1.834291,53.173584],[-1.832062,53.172837],[-1.833012,53.170543],[-1.830122,53.167628],[-1.828837,53.167225],[-1.829072,53.166743],[-1.828292,53.166432],[-1.827068,53.166437],[-1.826402,53.165297],[-1.824803,53.164838],[-1.825168,53.164019],[-1.823754,53.163665],[-1.823838,53.163079],[-1.822711,53.162887],[-1.822249,53.162209],[-1.821021,53.161706],[-1.821053,53.161319],[-1.819988,53.161249],[-1.819952,53.160846],[-1.81917,53.160587],[-1.819151,53.159889],[-1.818161,53.159809],[-1.817916,53.159389],[-1.816179,53.158729],[-1.815997,53.158345],[-1.816501,53.157972],[-1.815727,53.157466],[-1.81508,53.156277],[-1.815402,53.155156],[-1.814721,53.154686],[-1.812649,53.154442],[-1.812083,53.152732],[-1.812682,53.151697],[-1.814365,53.151222],[-1.814714,53.150613],[-1.816658,53.149982],[-1.81704,53.149237],[-1.816774,53.14794],[-1.81612,53.147717],[-1.817363,53.147334],[-1.816813,53.146564],[-1.817283,53.145595],[-1.818123,53.14524],[-1.817757,53.144448],[-1.818561,53.143814],[-1.817662,53.143434],[-1.817671,53.143022],[-1.818506,53.142291],[-1.819192,53.142651],[-1.819852,53.142441],[-1.821219,53.141442],[-1.820664,53.14049],[-1.821205,53.14034],[-1.821413,53.139392],[-1.821957,53.139501],[-1.82216,53.137982],[-1.821807,53.137558],[-1.821507,53.137949],[-1.821094,53.137567],[-1.821864,53.136684],[-1.820835,53.136809],[-1.821439,53.135819],[-1.819984,53.134623],[-1.819774,53.133954],[-1.817303,53.13337],[-1.816193,53.134153],[-1.815282,53.133394],[-1.815334,53.132995],[-1.814098,53.132991],[-1.813687,53.132698],[-1.813318,53.13312],[-1.812766,53.132811],[-1.813635,53.13257],[-1.814098,53.131933],[-1.812279,53.132214],[-1.811609,53.131778],[-1.813314,53.13118],[-1.812535,53.130283],[-1.811522,53.12992],[-1.810883,53.130128],[-1.810252,53.128063],[-1.809363,53.127262],[-1.809341,53.126949],[-1.810445,53.126262],[-1.809917,53.125766],[-1.809651,53.1238],[-1.808632,53.123713],[-1.807855,53.122963],[-1.80574,53.122414],[-1.805478,53.121674],[-1.801876,53.118184],[-1.800934,53.115158],[-1.800111,53.114603],[-1.797807,53.114055],[-1.795361,53.112639],[-1.793788,53.110487],[-1.789076,53.109493],[-1.786987,53.108699],[-1.785898,53.107308],[-1.786272,53.106649],[-1.788076,53.105958],[-1.788027,53.105504],[-1.785231,53.104509],[-1.783686,53.102958],[-1.783545,53.101661],[-1.784491,53.101507],[-1.786327,53.099824],[-1.784456,53.097977],[-1.78241,53.096619],[-1.782958,53.096001],[-1.785488,53.095016],[-1.783207,53.093793],[-1.782971,53.093334],[-1.78356,53.092738],[-1.787437,53.091925],[-1.788615,53.091395],[-1.790789,53.091783],[-1.792295,53.091526],[-1.792857,53.091026],[-1.792878,53.089832],[-1.794239,53.088394],[-1.793129,53.086659],[-1.791128,53.086437],[-1.790829,53.085799],[-1.791082,53.085025],[-1.791915,53.084423],[-1.791983,53.0837],[-1.788605,53.080905],[-1.788584,53.079246],[-1.79025,53.079046],[-1.791356,53.0782],[-1.790842,53.076774],[-1.789752,53.076401],[-1.79005,53.075381],[-1.789157,53.074801],[-1.788871,53.07335],[-1.787405,53.072335],[-1.78603,53.070525],[-1.785642,53.06823],[-1.784203,53.066812],[-1.78411,53.065334],[-1.785552,53.06311],[-1.783118,53.061423],[-1.777824,53.06032],[-1.775653,53.059355],[-1.777013,53.058223],[-1.779301,53.057629],[-1.782164,53.05613],[-1.78246,53.055731],[-1.781901,53.055406],[-1.783204,53.054432],[-1.783811,53.054957],[-1.784145,53.054708],[-1.784211,53.051891],[-1.78336,53.050634],[-1.783644,53.050128],[-1.784696,53.049931],[-1.78118,53.04827],[-1.779969,53.047079],[-1.778987,53.044918],[-1.780163,53.044758],[-1.781102,53.045999],[-1.790216,53.042929],[-1.790754,53.041858],[-1.789971,53.041059],[-1.790949,53.038366],[-1.794805,53.03933],[-1.794123,53.038552],[-1.793689,53.036672],[-1.793915,53.033763],[-1.79338,53.033398],[-1.793548,53.032418],[-1.790893,53.029527],[-1.788254,53.030305],[-1.787882,53.029848],[-1.78808,53.02886],[-1.791561,53.027227],[-1.791074,53.026335],[-1.790405,53.025585],[-1.788813,53.02543],[-1.78719,53.025484],[-1.785997,53.025881],[-1.784766,53.024554],[-1.786881,53.023497],[-1.787342,53.023597],[-1.790256,53.022373],[-1.790961,53.023011],[-1.792247,53.02263],[-1.792441,53.020615],[-1.794722,53.020424],[-1.793479,53.015928],[-1.794094,53.014734],[-1.794866,53.014484],[-1.796058,53.013217],[-1.796874,53.013583],[-1.797647,53.014687],[-1.797721,53.016005],[-1.79873,53.016391],[-1.798745,53.016681],[-1.799175,53.016582],[-1.799322,53.017249],[-1.799987,53.017313],[-1.800869,53.018968],[-1.800719,53.020126],[-1.80141,53.021572],[-1.80299,53.022292],[-1.806119,53.022573],[-1.807378,53.023836],[-1.808205,53.025924],[-1.811643,53.028484],[-1.814191,53.029759],[-1.81716,53.029104],[-1.818521,53.029182],[-1.819724,53.028721],[-1.821145,53.02874],[-1.824789,53.02996],[-1.825423,53.030742],[-1.830169,53.032301],[-1.83047,53.03296],[-1.833741,53.032505],[-1.836678,53.031702],[-1.839336,53.031647],[-1.842272,53.031148],[-1.844009,53.030444],[-1.84529,53.030337],[-1.847862,53.031322],[-1.851157,53.031425],[-1.854662,53.032955],[-1.856033,53.034097],[-1.860662,53.031465],[-1.863982,53.030094],[-1.862959,53.028691],[-1.871539,53.019988],[-1.872701,53.020671],[-1.876218,53.021572],[-1.877501,53.019807],[-1.879101,53.020703],[-1.880315,53.020988],[-1.882346,53.019407],[-1.884119,53.020097],[-1.885001,53.018508],[-1.886233,53.017476],[-1.886547,53.016276],[-1.884811,53.01547],[-1.885338,53.013311],[-1.883389,53.010889],[-1.879214,53.007336],[-1.876957,53.005969],[-1.876206,53.004468],[-1.877305,53.003576],[-1.878133,53.003841],[-1.878912,53.003335],[-1.879363,53.001504],[-1.878407,52.999723],[-1.88116,52.996136],[-1.880595,52.994602],[-1.878726,52.993704],[-1.87758,52.994055],[-1.873766,52.993903],[-1.871174,52.992783],[-1.869383,52.991554],[-1.869169,52.99114],[-1.870137,52.990889],[-1.870394,52.988986],[-1.869771,52.986584],[-1.8677,52.985317],[-1.868016,52.984803],[-1.865308,52.983055],[-1.865234,52.98249],[-1.865765,52.981991],[-1.864487,52.982051],[-1.864028,52.98163],[-1.864265,52.981297],[-1.865729,52.981113],[-1.864354,52.980804],[-1.861583,52.979254],[-1.861289,52.978425],[-1.859947,52.97796],[-1.859942,52.977705],[-1.860935,52.977347],[-1.860649,52.976451],[-1.861349,52.976078],[-1.861244,52.974889],[-1.862528,52.974261],[-1.864483,52.974467],[-1.867756,52.974087],[-1.870912,52.974435],[-1.872387,52.971602],[-1.877124,52.972377],[-1.877535,52.970971],[-1.879723,52.971159],[-1.879969,52.969929],[-1.883845,52.970584],[-1.887926,52.970565],[-1.888552,52.969937],[-1.888348,52.96938],[-1.893095,52.970783],[-1.893213,52.971176],[-1.895635,52.971332],[-1.895547,52.971822],[-1.899148,52.971698],[-1.899,52.971221],[-1.900481,52.970749],[-1.899796,52.97036],[-1.901165,52.969191],[-1.903329,52.965941],[-1.904899,52.965503],[-1.906173,52.96444],[-1.909668,52.962546],[-1.910967,52.962834],[-1.915035,52.96554],[-1.916272,52.965147],[-1.916254,52.965661],[-1.916869,52.965956],[-1.918778,52.965706],[-1.922181,52.963601],[-1.925467,52.963191],[-1.92582,52.961794],[-1.927389,52.960778],[-1.927235,52.960498],[-1.928031,52.959745],[-1.923299,52.957422],[-1.918425,52.957638],[-1.916978,52.957112],[-1.917485,52.955913],[-1.915921,52.953536],[-1.917776,52.951904],[-1.910934,52.949093],[-1.908812,52.948879],[-1.903908,52.946299],[-1.903208,52.945246],[-1.906214,52.944142],[-1.910186,52.939809],[-1.912583,52.939887],[-1.914182,52.940566],[-1.919132,52.941083],[-1.920441,52.941873],[-1.923523,52.942218],[-1.923527,52.940553],[-1.926893,52.941297],[-1.928195,52.940575],[-1.930475,52.937974],[-1.932209,52.933965],[-1.934365,52.931669],[-1.935177,52.931892],[-1.936744,52.93184],[-1.937002,52.931498],[-1.939481,52.931701],[-1.94051,52.931476],[-1.941107,52.932028],[-1.942031,52.931845],[-1.942615,52.932575],[-1.944407,52.932727],[-1.944527,52.932284],[-1.946697,52.932792],[-1.946613,52.933118],[-1.947639,52.933396],[-1.949811,52.933709],[-1.950578,52.933506],[-1.951665,52.933888],[-1.951375,52.934642],[-1.952648,52.934323],[-1.953772,52.935178],[-1.95692,52.935067],[-1.956632,52.935482],[-1.95773,52.935291],[-1.958023,52.935999],[-1.958891,52.935706],[-1.958989,52.936056],[-1.959882,52.936414],[-1.960911,52.936193],[-1.961398,52.936576],[-1.962325,52.936572],[-1.964482,52.937886],[-1.964423,52.938137],[-1.965294,52.938374],[-1.965224,52.93871],[-1.966607,52.939066],[-1.966779,52.939398],[-1.96851,52.939603],[-1.968697,52.940098],[-1.967924,52.940241],[-1.97101,52.940806],[-1.972104,52.940365],[-1.974021,52.938756],[-1.975322,52.93864],[-1.97627,52.938025],[-1.976653,52.935749],[-1.976295,52.935384],[-1.977406,52.934597],[-1.978909,52.934271],[-1.979694,52.934469],[-1.980157,52.933989],[-1.983957,52.934743],[-1.985316,52.935672],[-1.988335,52.93468],[-1.99365,52.933928],[-2.000983,52.931246],[-2.001953,52.930006],[-2.000788,52.929625],[-2.001523,52.929419],[-2.002545,52.928469],[-2.003656,52.928327],[-2.004206,52.927732],[-2.005049,52.927841],[-2.006226,52.927271],[-2.007554,52.927074],[-2.009149,52.927235],[-2.013296,52.925507],[-2.015603,52.925061],[-2.01728,52.924269],[-2.01952,52.924134],[-2.022857,52.924815],[-2.025725,52.92486],[-2.027902,52.923879],[-2.030335,52.923308],[-2.031847,52.922505],[-2.033854,52.922439],[-2.032978,52.921033],[-2.034336,52.918111],[-2.034878,52.918229],[-2.035092,52.917783],[-2.037981,52.917505],[-2.040653,52.916647],[-2.04156,52.917473],[-2.053784,52.919004],[-2.057279,52.920097],[-2.062991,52.922481],[-2.059687,52.926217],[-2.055948,52.931356],[-2.05183,52.933573],[-2.049287,52.935986],[-2.047833,52.93665],[-2.046265,52.936832],[-2.04582,52.938462],[-2.049995,52.939402],[-2.046654,52.94265],[-2.044651,52.945653],[-2.046099,52.945948],[-2.046327,52.946565],[-2.043159,52.948809],[-2.043891,52.950464],[-2.043773,52.951098],[-2.043032,52.951353],[-2.04456,52.951525],[-2.044959,52.952178],[-2.045725,52.952057],[-2.04559,52.952512],[-2.046922,52.952676],[-2.048076,52.953434],[-2.047635,52.953757],[-2.048165,52.954142],[-2.048964,52.953667],[-2.04891,52.954255],[-2.050108,52.954657],[-2.050716,52.955333],[-2.052739,52.955704],[-2.053649,52.956415],[-2.053415,52.956615],[-2.05368,52.95693],[-2.057842,52.958058],[-2.057706,52.958305],[-2.05853,52.958638],[-2.058489,52.959609],[-2.059083,52.959842],[-2.05985,52.961],[-2.060605,52.961003],[-2.060987,52.961359],[-2.063659,52.960682],[-2.065016,52.960966],[-2.067727,52.962971],[-2.068881,52.962993],[-2.068377,52.96509],[-2.067257,52.967194],[-2.067371,52.96773],[-2.068447,52.968367],[-2.075898,52.97071],[-2.088131,52.973848],[-2.085957,52.973512],[-2.084203,52.97513],[-2.079458,52.974019],[-2.079239,52.9745],[-2.080776,52.975486],[-2.079654,52.975829],[-2.080998,52.977918],[-2.08225,52.977114],[-2.084937,52.978483],[-2.083392,52.97996],[-2.084517,52.981398],[-2.08479,52.981215],[-2.09,52.983653],[-2.089247,52.984161],[-2.089994,52.984866],[-2.091865,52.985285],[-2.091799,52.988088],[-2.09039,52.988609],[-2.089846,52.989786],[-2.090355,52.990015],[-2.090104,52.990281],[-2.08848,52.989495],[-2.088078,52.989617],[-2.089328,52.991473],[-2.08788,52.993072],[-2.088281,52.99479],[-2.088734,52.995025],[-2.088058,52.996003],[-2.088526,52.997077],[-2.089532,52.997739],[-2.08994,52.997591],[-2.090146,52.998101],[-2.091277,52.998362],[-2.091767,52.998827],[-2.095098,52.998742],[-2.09574,52.997637],[-2.096861,52.997615],[-2.097037,52.99725],[-2.09857,52.997568],[-2.101358,52.995628],[-2.105163,52.997794],[-2.107831,53.002491],[-2.107205,53.003845],[-2.107141,53.004951],[-2.103429,53.007005],[-2.104107,53.007489],[-2.102628,53.008975],[-2.104019,53.010087],[-2.103467,53.010858],[-2.10836,53.012679],[-2.108235,53.01301],[-2.108947,53.013232],[-2.109278,53.012832],[-2.109908,53.01309],[-2.10948,53.013617],[-2.111925,53.013895],[-2.113277,53.013774],[-2.113742,53.013313],[-2.115959,53.014762],[-2.114638,53.016043],[-2.114897,53.016497],[-2.116183,53.016859],[-2.11852,53.018394],[-2.120488,53.018696],[-2.121503,53.018012],[-2.121967,53.018724],[-2.122493,53.018725],[-2.122489,53.019154],[-2.121129,53.019283],[-2.120968,53.020294],[-2.122416,53.020857],[-2.122904,53.020743],[-2.123763,53.02159],[-2.122076,53.022639],[-2.121372,53.024019],[-2.119537,53.026153],[-2.118803,53.026445],[-2.119678,53.027668],[-2.120483,53.02789],[-2.121292,53.027456],[-2.122197,53.028342],[-2.12325,53.027865],[-2.124355,53.029927],[-2.123705,53.030704],[-2.12373,53.031577],[-2.12502,53.033041],[-2.125571,53.033008],[-2.12702,53.033722],[-2.129167,53.035617],[-2.128184,53.036419],[-2.127411,53.035941],[-2.125951,53.037317],[-2.126931,53.037816],[-2.126508,53.040136],[-2.131779,53.047334],[-2.12909,53.04831],[-2.128614,53.048014],[-2.128298,53.04821],[-2.127059,53.047963],[-2.127228,53.048129],[-2.124791,53.048567],[-2.118208,53.046609],[-2.117967,53.046821],[-2.119583,53.047625],[-2.117255,53.047589],[-2.116583,53.048033],[-2.119818,53.049636],[-2.121748,53.050992],[-2.121428,53.051289],[-2.123991,53.052631],[-2.127437,53.053739],[-2.127366,53.059416],[-2.125373,53.064615],[-2.127777,53.065665],[-2.13478,53.064987],[-2.137728,53.06551],[-2.139094,53.065299],[-2.140483,53.06749],[-2.139846,53.068321],[-2.140377,53.068808],[-2.142397,53.068433],[-2.142624,53.069278],[-2.143018,53.069325],[-2.143622,53.068647],[-2.144962,53.068507],[-2.146481,53.069122],[-2.147954,53.070363],[-2.151181,53.069505],[-2.151573,53.070168],[-2.15334,53.069382],[-2.153787,53.069977],[-2.15501,53.069925],[-2.155455,53.070563],[-2.156585,53.070407],[-2.157476,53.070741],[-2.161101,53.070084],[-2.161741,53.071015],[-2.161349,53.071173],[-2.16149,53.071852],[-2.162161,53.071738],[-2.162594,53.072227],[-2.161933,53.072363],[-2.161829,53.073227],[-2.162804,53.073247],[-2.163832,53.075882],[-2.163609,53.0767],[-2.165532,53.07938],[-2.166243,53.08235],[-2.168995,53.085244],[-2.168628,53.085359],[-2.169298,53.086925],[-2.172104,53.088894],[-2.171466,53.089207],[-2.1717,53.089447],[-2.17427,53.090254],[-2.174879,53.089869],[-2.175553,53.089915],[-2.178532,53.091549],[-2.179089,53.091464],[-2.181148,53.089844],[-2.18115,53.090545],[-2.183743,53.09342],[-2.184318,53.095252],[-2.185798,53.09608],[-2.186229,53.097702],[-2.188942,53.100534],[-2.189271,53.101432],[-2.191437,53.102304],[-2.193737,53.102378],[-2.194752,53.103036],[-2.195142,53.103839],[-2.19677,53.104617],[-2.199303,53.105283],[-2.200293,53.106391],[-2.201444,53.106932],[-2.201645,53.107647],[-2.203815,53.109594],[-2.205879,53.112475],[-2.209472,53.115306],[-2.211315,53.115824],[-2.202645,53.121632],[-2.193506,53.129565],[-2.186534,53.135977],[-2.180094,53.142563],[-2.176581,53.145531],[-2.174367,53.146522],[-2.172409,53.148021],[-2.171669,53.147404],[-2.169289,53.148206],[-2.168058,53.14816],[-2.16386,53.151372],[-2.159543,53.152906],[-2.15858,53.154173],[-2.155637,53.1566],[-2.155049,53.157676],[-2.155545,53.159653],[-2.154632,53.159266],[-2.15238,53.159787],[-2.150998,53.159661],[-2.148506,53.158222],[-2.147275,53.158574],[-2.145422,53.157321],[-2.141423,53.156612],[-2.144496,53.171338],[-2.144461,53.173545],[-2.144866,53.173768],[-2.144508,53.174707],[-2.14352,53.175438],[-2.144455,53.176236],[-2.144298,53.176921],[-2.142647,53.177793],[-2.142385,53.179111],[-2.1416,53.179353],[-2.141361,53.179806],[-2.142271,53.181144],[-2.142174,53.182245],[-2.140211,53.183895],[-2.138152,53.184006],[-2.133744,53.18304],[-2.12977,53.178339],[-2.130064,53.176768],[-2.129356,53.175535],[-2.127947,53.174648],[-2.125368,53.17519],[-2.124607,53.174686],[-2.125016,53.173958],[-2.124771,53.17349],[-2.124103,53.173403],[-2.121604,53.174438],[-2.119724,53.174689],[-2.118851,53.174202],[-2.119378,53.173791],[-2.119315,53.172874],[-2.117498,53.171709],[-2.116113,53.171893],[-2.114971,53.172675],[-2.114406,53.172577],[-2.113881,53.171902],[-2.115931,53.171083],[-2.115432,53.169537],[-2.111729,53.168623],[-2.110406,53.169399],[-2.110015,53.169309],[-2.109893,53.168637],[-2.108724,53.168349],[-2.103841,53.169875],[-2.101788,53.168914],[-2.098741,53.170362],[-2.097673,53.171553],[-2.096906,53.171161],[-2.09577,53.171191],[-2.094599,53.172631],[-2.0935,53.17256],[-2.092773,53.172953],[-2.090708,53.172354],[-2.089215,53.170787],[-2.087529,53.170174],[-2.087398,53.169837],[-2.085606,53.170255],[-2.083029,53.170136],[-2.082101,53.170935],[-2.081217,53.171025],[-2.079804,53.171066],[-2.078101,53.170416],[-2.075533,53.171249],[-2.07153,53.171917],[-2.07005,53.1717],[-2.069076,53.172916],[-2.069868,53.17277],[-2.070498,53.173157],[-2.067795,53.174882],[-2.063254,53.174905],[-2.058056,53.176389],[-2.056892,53.17767],[-2.058248,53.178692],[-2.058429,53.179663],[-2.059609,53.179956],[-2.059317,53.180836],[-2.058951,53.181224],[-2.056799,53.181711],[-2.056432,53.182904],[-2.054507,53.183144],[-2.052394,53.18391],[-2.053254,53.185267],[-2.055049,53.185957],[-2.054896,53.186832],[-2.052261,53.18783],[-2.049466,53.19042],[-2.04831,53.190991],[-2.048314,53.191462],[-2.047415,53.192278],[-2.04611,53.192777],[-2.044098,53.192566],[-2.042757,53.192851],[-2.040465,53.192536],[-2.039265,53.193525],[-2.037817,53.193758],[-2.03653,53.193171],[-2.034552,53.19315],[-2.033689,53.193703],[-2.031743,53.193238],[-2.028581,53.193372],[-2.024441,53.191802],[-2.021332,53.189827],[-2.018232,53.189085],[-2.016381,53.189288],[-2.014222,53.190641],[-2.011121,53.19193],[-2.010952,53.192449],[-2.00993,53.192878],[-2.009133,53.192964],[-2.006915,53.192421],[-2.005503,53.192847],[-2.004982,53.193494],[-2.001749,53.192956],[-2.000073,53.193902],[-2.000366,53.194538],[-1.998808,53.196096],[-1.998655,53.197124],[-1.996742,53.197588],[-1.996401,53.19877],[-1.994661,53.199752],[-1.994192,53.204124],[-1.992774,53.204868],[-1.99376,53.20527],[-1.993014,53.206519],[-1.992993,53.207494],[-1.990873,53.208261],[-1.990359,53.209645],[-1.988901,53.209957],[-1.988526,53.21117],[-1.987085,53.211971],[-1.98738,53.213604],[-1.986,53.214333],[-1.983845,53.214546],[-1.983527,53.214982],[-1.982792,53.214987],[-1.981288,53.21573],[-1.98069,53.216401],[-1.978108,53.21688],[-1.976267,53.21873],[-1.970773,53.220938],[-1.962365,53.226242],[-1.961031,53.219434],[-1.956707,53.213748],[-1.950833,53.211962],[-1.948913,53.211713]]]}}]}