{"type":"FeatureCollection","features":[{"type":"Feature","properties":{"slug":"stevenage","gss_code":"E07000243","name":"Stevenage"},"geometry":{"type":"Polygon","coordinates":[[[-0.167907,51.927964],[-0.166511,51.926721],[-0.164629,51.926861],[-0.163165,51.922276],[-0.163479,51.921746],[-0.162181,51.920341],[-0.159119,51.91898],[-0.156538,51.916235],[-0.156385,51.909007],[-0.157955,51.905837],[-0.157338,51.904757],[-0.155493,51.903667],[-0.156522,51.903231],[-0.159468,51.903785],[-0.159423,51.902818],[-0.160117,51.901066],[-0.159258,51.901023],[-0.159402,51.9006],[-0.158419,51.900792],[-0.155792,51.900363],[-0.155072,51.898784],[-0.153019,51.898998],[-0.154599,51.895994],[-0.156348,51.894201],[-0.156152,51.892566],[-0.155167,51.892242],[-0.157933,51.888681],[-0.157386,51.886661],[-0.161151,51.884972],[-0.160103,51.884427],[-0.159127,51.885143],[-0.157097,51.885842],[-0.157291,51.886577],[-0.155121,51.887078],[-0.152591,51.885493],[-0.151836,51.885781],[-0.151296,51.885393],[-0.15499,51.882542],[-0.155436,51.878874],[-0.156102,51.877591],[-0.152996,51.876192],[-0.152164,51.876375],[-0.151458,51.875736],[-0.149582,51.875158],[-0.148102,51.872038],[-0.146817,51.870572],[-0.148421,51.869268],[-0.157167,51.871481],[-0.158698,51.872153],[-0.181868,51.877356],[-0.18467,51.878453],[-0.191903,51.882924],[-0.193289,51.882601],[-0.195956,51.882943],[-0.197957,51.882161],[-0.200853,51.881737],[-0.204204,51.880138],[-0.2048,51.883521],[-0.205898,51.883134],[-0.207633,51.885464],[-0.209274,51.886919],[-0.210663,51.889652],[-0.20851,51.890122],[-0.209928,51.891876],[-0.212696,51.894253],[-0.214582,51.894067],[-0.214662,51.89331],[-0.215197,51.89359],[-0.215758,51.893466],[-0.216369,51.893983],[-0.215469,51.894277],[-0.216013,51.896142],[-0.218997,51.895964],[-0.225275,51.893236],[-0.224859,51.895585],[-0.225922,51.897587],[-0.227035,51.898093],[-0.227712,51.898931],[-0.229678,51.898098],[-0.230535,51.898889],[-0.229338,51.899446],[-0.230092,51.901211],[-0.229826,51.902695],[-0.228857,51.903454],[-0.232662,51.903617],[-0.232091,51.904239],[-0.234372,51.905255],[-0.232962,51.907274],[-0.231476,51.908511],[-0.228714,51.913112],[-0.228079,51.916941],[-0.229305,51.917232],[-0.226072,51.920833],[-0.225916,51.922238],[-0.224659,51.922486],[-0.225434,51.924187],[-0.226181,51.924528],[-0.226486,51.923973],[-0.227701,51.924569],[-0.22701,51.925891],[-0.227725,51.926947],[-0.224885,51.929352],[-0.22657,51.930114],[-0.220068,51.930968],[-0.217187,51.930109],[-0.216859,51.930083],[-0.216706,51.930564],[-0.210263,51.930018],[-0.209999,51.928388],[-0.208292,51.929026],[-0.207426,51.929775],[-0.204928,51.928545],[-0.202347,51.930559],[-0.200403,51.92924],[-0.199611,51.929655],[-0.19854,51.928793],[-0.19713,51.930469],[-0.194384,51.930434],[-0.195171,51.92924],[-0.193143,51.927699],[-0.190307,51.928672],[-0.18795,51.928467],[-0.18713,51.929893],[-0.184606,51.932413],[-0.175671,51.930603],[-0.173367,51.928904],[-0.171279,51.928224],[-0.167907,51.927964]]]}}]}