{"type":"FeatureCollection","features":[{"type":"Feature","properties":{"slug":"stockport","gss_code":"E08000007","name":"Stockport"},"geometry":{"type":"Polygon","coordinates":[[[-2.154652,53.451048],[-2.152442,53.450299],[-2.14925,53.448505],[-2.148377,53.447412],[-2.148826,53.446579],[-2.146981,53.445491],[-2.145948,53.445542],[-2.142904,53.444561],[-2.144573,53.443655],[-2.143758,53.442665],[-2.142687,53.442254],[-2.141742,53.439845],[-2.142257,53.439783],[-2.14169,53.438251],[-2.141582,53.438966],[-2.141033,53.439192],[-2.139568,53.438331],[-2.137653,53.437756],[-2.13642,53.439154],[-2.135706,53.439334],[-2.135292,53.437635],[-2.13461,53.43738],[-2.133526,53.43828],[-2.132486,53.438465],[-2.130723,53.439435],[-2.129018,53.439452],[-2.122922,53.437762],[-2.122667,53.438236],[-2.123844,53.439783],[-2.123706,53.440794],[-2.122706,53.441078],[-2.119382,53.438889],[-2.12054,53.43699],[-2.120262,53.436402],[-2.118914,53.437045],[-2.117477,53.437175],[-2.11486,53.438664],[-2.114699,53.439058],[-2.115234,53.439402],[-2.117333,53.43931],[-2.117072,53.44019],[-2.116085,53.440746],[-2.111318,53.437597],[-2.110743,53.436319],[-2.10742,53.43375],[-2.102861,53.432644],[-2.102033,53.432666],[-2.100663,53.433552],[-2.097758,53.43336],[-2.096777,53.433583],[-2.098137,53.436089],[-2.097813,53.436904],[-2.096574,53.437057],[-2.093848,53.436481],[-2.09281,53.437539],[-2.088873,53.437259],[-2.087201,53.436205],[-2.0865,53.434727],[-2.084036,53.434097],[-2.085262,53.433564],[-2.084452,53.433057],[-2.084821,53.432857],[-2.085606,53.433176],[-2.086318,53.432784],[-2.085425,53.432451],[-2.085158,53.431536],[-2.085386,53.430136],[-2.086077,53.429832],[-2.084615,53.42789],[-2.08299,53.427293],[-2.082914,53.426819],[-2.079135,53.426109],[-2.077626,53.426178],[-2.077091,53.426864],[-2.076443,53.427007],[-2.074705,53.425972],[-2.071153,53.427832],[-2.070106,53.428132],[-2.069424,53.427737],[-2.069062,53.428289],[-2.067293,53.428699],[-2.065178,53.430164],[-2.06213,53.428979],[-2.061728,53.429883],[-2.060282,53.430525],[-2.059877,53.429978],[-2.058271,53.430577],[-2.058367,53.431012],[-2.05579,53.431771],[-2.054519,53.431678],[-2.05436,53.431129],[-2.053553,53.431317],[-2.050486,53.43089],[-2.04917,53.430034],[-2.047453,53.430063],[-2.045748,53.429359],[-2.042163,53.428741],[-2.039609,53.427869],[-2.039978,53.427383],[-2.039068,53.427182],[-2.035525,53.427507],[-2.034045,53.428752],[-2.030526,53.428454],[-2.026255,53.429865],[-2.024146,53.427954],[-2.023957,53.427503],[-2.024434,53.427275],[-2.022519,53.427582],[-2.021653,53.427378],[-2.020475,53.426692],[-2.019724,53.425119],[-2.021284,53.422576],[-2.020996,53.42126],[-2.023439,53.421752],[-2.02371,53.420552],[-2.016676,53.419304],[-2.017019,53.418142],[-2.014769,53.417851],[-2.015225,53.416627],[-2.013661,53.416461],[-2.013697,53.41589],[-2.010649,53.416727],[-2.005092,53.415028],[-1.992329,53.415193],[-1.993965,53.413183],[-1.9933,53.411909],[-1.99399,53.409185],[-1.995148,53.407762],[-1.996184,53.404668],[-1.997387,53.403537],[-2.00177,53.396491],[-2.004481,53.393761],[-2.005176,53.392395],[-2.004643,53.386327],[-2.013062,53.384105],[-2.015113,53.380567],[-2.01698,53.381498],[-2.019714,53.380595],[-2.018593,53.380206],[-2.017084,53.377833],[-2.020944,53.377598],[-2.020629,53.376161],[-2.021996,53.375958],[-2.021472,53.375059],[-2.023417,53.374954],[-2.023256,53.374611],[-2.024067,53.374173],[-2.026209,53.373618],[-2.028037,53.373954],[-2.030691,53.375188],[-2.033775,53.375542],[-2.033783,53.375092],[-2.030835,53.372916],[-2.028624,53.370734],[-2.030373,53.370114],[-2.031058,53.370262],[-2.030957,53.371515],[-2.032632,53.372034],[-2.038421,53.371892],[-2.038854,53.372986],[-2.040564,53.374088],[-2.041106,53.3727],[-2.043022,53.371716],[-2.043953,53.37063],[-2.046668,53.369369],[-2.04863,53.369443],[-2.050113,53.369083],[-2.051988,53.3674],[-2.053908,53.367328],[-2.05532,53.366891],[-2.056253,53.364309],[-2.05696,53.36373],[-2.056927,53.36335],[-2.05638,53.363255],[-2.056337,53.362413],[-2.057463,53.362055],[-2.058783,53.360213],[-2.059172,53.360238],[-2.059677,53.35891],[-2.061309,53.358356],[-2.061786,53.358663],[-2.062465,53.358418],[-2.062514,53.358724],[-2.063395,53.358776],[-2.065057,53.357704],[-2.065739,53.357904],[-2.068239,53.357364],[-2.068631,53.357506],[-2.068418,53.357884],[-2.069154,53.358084],[-2.070095,53.357937],[-2.070321,53.357591],[-2.071073,53.35798],[-2.071197,53.357743],[-2.072268,53.357879],[-2.072574,53.357554],[-2.075596,53.357704],[-2.083786,53.359508],[-2.083897,53.360154],[-2.087002,53.361578],[-2.090903,53.364089],[-2.092804,53.364473],[-2.093694,53.365502],[-2.094154,53.365452],[-2.095092,53.366068],[-2.099002,53.36625],[-2.101127,53.365832],[-2.101343,53.366081],[-2.103938,53.366041],[-2.105779,53.365094],[-2.106655,53.365179],[-2.107512,53.364732],[-2.109921,53.364515],[-2.110762,53.364739],[-2.111479,53.364309],[-2.111832,53.364592],[-2.11548,53.364769],[-2.115869,53.364343],[-2.116872,53.36456],[-2.117566,53.364082],[-2.117743,53.364317],[-2.120729,53.363896],[-2.122079,53.363037],[-2.122639,53.36211],[-2.124295,53.361967],[-2.12718,53.364037],[-2.127622,53.363982],[-2.127884,53.364617],[-2.129221,53.364963],[-2.133377,53.364986],[-2.136513,53.366995],[-2.139025,53.367317],[-2.139265,53.366657],[-2.137714,53.366611],[-2.139481,53.364615],[-2.13929,53.363647],[-2.139693,53.362901],[-2.139228,53.361581],[-2.139871,53.360155],[-2.139169,53.357767],[-2.138197,53.356891],[-2.140327,53.355052],[-2.142533,53.35419],[-2.145734,53.351728],[-2.146326,53.351898],[-2.147166,53.351129],[-2.146546,53.350863],[-2.149661,53.349633],[-2.151191,53.348133],[-2.147718,53.34483],[-2.147177,53.344811],[-2.146127,53.343775],[-2.144099,53.342871],[-2.146664,53.340612],[-2.146738,53.340142],[-2.148324,53.339441],[-2.149044,53.338561],[-2.150008,53.338297],[-2.151034,53.336119],[-2.151323,53.332925],[-2.151765,53.332209],[-2.15141,53.331236],[-2.151968,53.331015],[-2.152535,53.328553],[-2.154165,53.327795],[-2.158442,53.328936],[-2.160333,53.328039],[-2.160225,53.32758],[-2.161001,53.327686],[-2.160711,53.3272],[-2.161388,53.327365],[-2.161337,53.327929],[-2.163837,53.328068],[-2.163698,53.328445],[-2.16621,53.329228],[-2.165854,53.329565],[-2.166159,53.329817],[-2.167455,53.329534],[-2.167279,53.329964],[-2.168766,53.330415],[-2.169235,53.331198],[-2.169936,53.330621],[-2.169833,53.331272],[-2.170309,53.331293],[-2.170486,53.331843],[-2.171193,53.331171],[-2.171713,53.331368],[-2.172386,53.331159],[-2.172246,53.33088],[-2.172898,53.331198],[-2.173387,53.331043],[-2.173543,53.331396],[-2.174247,53.331046],[-2.174918,53.33134],[-2.175973,53.331043],[-2.178494,53.331248],[-2.179374,53.330641],[-2.179325,53.330174],[-2.179918,53.330339],[-2.179619,53.33058],[-2.180001,53.331078],[-2.181642,53.33163],[-2.181881,53.331355],[-2.182257,53.331839],[-2.18293,53.331883],[-2.183094,53.332076],[-2.182657,53.332139],[-2.183078,53.332536],[-2.183898,53.332719],[-2.184093,53.332332],[-2.184292,53.332876],[-2.184877,53.332691],[-2.189108,53.335269],[-2.190494,53.337644],[-2.194163,53.33865],[-2.192809,53.339846],[-2.192699,53.341032],[-2.190732,53.342127],[-2.182753,53.343129],[-2.180977,53.344044],[-2.184829,53.346992],[-2.185302,53.346949],[-2.188015,53.348737],[-2.185492,53.352011],[-2.185438,53.352652],[-2.189249,53.352831],[-2.191891,53.353645],[-2.192261,53.354015],[-2.201834,53.355431],[-2.201925,53.354848],[-2.208465,53.355004],[-2.20741,53.356799],[-2.210657,53.357286],[-2.21454,53.356719],[-2.214631,53.357935],[-2.216218,53.358131],[-2.216142,53.358867],[-2.219552,53.35849],[-2.22031,53.359428],[-2.222224,53.359781],[-2.232982,53.358795],[-2.232811,53.360271],[-2.237592,53.359253],[-2.23954,53.359233],[-2.24079,53.359574],[-2.236933,53.370197],[-2.238676,53.370799],[-2.239009,53.372131],[-2.240475,53.372694],[-2.239895,53.373043],[-2.240266,53.374027],[-2.241461,53.374868],[-2.241679,53.375606],[-2.24132,53.3761],[-2.242107,53.377969],[-2.241278,53.37882],[-2.241342,53.380102],[-2.240927,53.380595],[-2.242097,53.381718],[-2.241952,53.382011],[-2.242878,53.382269],[-2.242607,53.382553],[-2.24307,53.383025],[-2.242441,53.38399],[-2.242985,53.384962],[-2.242434,53.385662],[-2.242625,53.387691],[-2.246222,53.38783],[-2.245734,53.390239],[-2.243914,53.390401],[-2.244467,53.391337],[-2.246025,53.391383],[-2.245985,53.393821],[-2.244406,53.394081],[-2.246828,53.39606],[-2.242544,53.397778],[-2.242537,53.399475],[-2.240605,53.399789],[-2.238143,53.400822],[-2.236042,53.401065],[-2.227851,53.400855],[-2.224856,53.401379],[-2.222668,53.401176],[-2.220128,53.402378],[-2.219326,53.403964],[-2.219474,53.405052],[-2.212595,53.406968],[-2.214973,53.409707],[-2.215476,53.41089],[-2.214533,53.41105],[-2.215414,53.411391],[-2.2146,53.413241],[-2.213428,53.418915],[-2.20967,53.417944],[-2.208426,53.419159],[-2.206493,53.418976],[-2.206219,53.420104],[-2.207693,53.42008],[-2.204929,53.422367],[-2.2045,53.422176],[-2.20186,53.423622],[-2.199065,53.427044],[-2.196898,53.428109],[-2.193141,53.427653],[-2.193076,53.429248],[-2.191352,53.435128],[-2.188702,53.434873],[-2.187136,53.435228],[-2.18854,53.436653],[-2.187432,53.436668],[-2.187385,53.436296],[-2.186595,53.436001],[-2.185646,53.436094],[-2.185213,53.435667],[-2.184192,53.435617],[-2.183909,53.435199],[-2.180204,53.434786],[-2.179814,53.434609],[-2.180087,53.434371],[-2.179012,53.434278],[-2.179045,53.433994],[-2.177802,53.433699],[-2.176755,53.433016],[-2.175845,53.434333],[-2.175293,53.434365],[-2.17395,53.443862],[-2.171964,53.447262],[-2.17288,53.448001],[-2.167412,53.449417],[-2.166044,53.453648],[-2.161282,53.45182],[-2.161694,53.453145],[-2.159877,53.453345],[-2.160364,53.454283],[-2.158451,53.454937],[-2.154652,53.451048]]]}}]}