{"type":"FeatureCollection","features":[{"type":"Feature","properties":{"slug":"stockton-on-tees","gss_code":"E06000004","name":"Stockton-on-Tees"},"geometry":{"type":"MultiPolygon","coordinates":[[[[-1.275456,54.551752],[-1.275455,54.551756],[-1.274926,54.551871],[-1.275456,54.551752]]],[[[-1.271967,54.553561],[-1.271288,54.554522],[-1.271536,54.553784],[-1.271967,54.553561]]],[[[-1.280532,54.563749],[-1.280952,54.56421],[-1.280852,54.564146],[-1.280532,54.563749]]],[[[-1.240768,54.624751],[-1.240859,54.624801],[-1.240762,54.624763],[-1.240768,54.624751]]],[[[-1.249982,54.625275],[-1.250432,54.625293],[-1.250471,54.625321],[-1.249982,54.625275]]],[[[-1.242514,54.625434],[-1.242575,54.625446],[-1.242532,54.625441],[-1.242514,54.625434]]],[[[-1.22474,54.625409],[-1.224803,54.625493],[-1.22439,54.625472],[-1.22474,54.625409]]],[[[-1.225003,54.625617],[-1.224437,54.626178],[-1.223463,54.626268],[-1.222888,54.62587],[-1.225003,54.625617]]],[[[-1.237669,54.626465],[-1.238673,54.62649],[-1.238658,54.626499],[-1.237669,54.626465]]],[[[-1.233176,54.628151],[-1.233151,54.62827],[-1.233137,54.62826],[-1.233176,54.628151]]],[[[-1.317148,54.644799],[-1.316364,54.645235],[-1.315142,54.644096],[-1.315593,54.643846],[-1.315259,54.643447],[-1.31143,54.641858],[-1.311242,54.641228],[-1.311943,54.641194],[-1.311788,54.640876],[-1.308406,54.638726],[-1.308394,54.638266],[-1.30698,54.63695],[-1.304414,54.636673],[-1.302746,54.635754],[-1.298219,54.635511],[-1.298811,54.633465],[-1.298594,54.631157],[-1.299014,54.627982],[-1.296199,54.628028],[-1.292481,54.628747],[-1.291135,54.626992],[-1.286315,54.628194],[-1.286047,54.627665],[-1.279875,54.628246],[-1.276112,54.627255],[-1.273882,54.625996],[-1.271947,54.625345],[-1.268971,54.626393],[-1.268557,54.625655],[-1.267659,54.626063],[-1.267479,54.624558],[-1.266887,54.624144],[-1.263954,54.624283],[-1.262136,54.624919],[-1.25985,54.6246],[-1.258761,54.626449],[-1.256258,54.625626],[-1.257403,54.624078],[-1.257673,54.624191],[-1.257194,54.62355],[-1.255321,54.623382],[-1.254143,54.624104],[-1.252506,54.623931],[-1.250674,54.625308],[-1.249415,54.625192],[-1.247399,54.62589],[-1.245754,54.626017],[-1.243856,54.625424],[-1.24236,54.625361],[-1.240631,54.624665],[-1.240262,54.625416],[-1.238697,54.626433],[-1.237187,54.626429],[-1.238793,54.627913],[-1.234178,54.628805],[-1.233396,54.628407],[-1.233542,54.627574],[-1.232128,54.625559],[-1.231361,54.625607],[-1.230394,54.626157],[-1.230248,54.625148],[-1.229094,54.624999],[-1.22873,54.626104],[-1.226955,54.626713],[-1.226463,54.626396],[-1.226667,54.625339],[-1.225379,54.625182],[-1.225568,54.62492],[-1.2261,54.625046],[-1.226746,54.624945],[-1.225204,54.624578],[-1.225241,54.62409],[-1.225065,54.624535],[-1.225157,54.624599],[-1.226193,54.62488],[-1.225538,54.624835],[-1.225297,54.625004],[-1.224048,54.623557],[-1.22121,54.622934],[-1.222809,54.62346],[-1.222458,54.623443],[-1.221793,54.62385],[-1.223105,54.623513],[-1.221111,54.624876],[-1.220707,54.624663],[-1.220585,54.623381],[-1.219973,54.622976],[-1.215626,54.622777],[-1.215206,54.62225],[-1.215554,54.621856],[-1.216175,54.622],[-1.216183,54.622586],[-1.216639,54.622548],[-1.217322,54.621957],[-1.218324,54.622149],[-1.217826,54.621853],[-1.21721,54.621938],[-1.217699,54.621701],[-1.219278,54.622323],[-1.219868,54.622445],[-1.219237,54.62226],[-1.219556,54.62203],[-1.219093,54.622118],[-1.218414,54.621724],[-1.218625,54.621482],[-1.21832,54.621702],[-1.217782,54.621494],[-1.217534,54.621063],[-1.217731,54.621552],[-1.218048,54.621649],[-1.217663,54.621637],[-1.216818,54.622005],[-1.216477,54.622503],[-1.216195,54.621868],[-1.215574,54.621711],[-1.216974,54.620882],[-1.217329,54.621173],[-1.217419,54.620715],[-1.212713,54.621587],[-1.206969,54.62153],[-1.204979,54.62224],[-1.201264,54.622404],[-1.201028,54.622682],[-1.200504,54.62176],[-1.172807,54.621552],[-1.172663,54.62227],[-1.169249,54.625775],[-1.169034,54.627358],[-1.168379,54.627033],[-1.168772,54.625473],[-1.165806,54.628015],[-1.166127,54.628462],[-1.166147,54.628046],[-1.166847,54.628429],[-1.168559,54.628021],[-1.169091,54.627584],[-1.169564,54.628096],[-1.169121,54.628719],[-1.17051,54.629261],[-1.170782,54.629735],[-1.167831,54.629313],[-1.16636,54.628958],[-1.165352,54.628023],[-1.169808,54.624615],[-1.172118,54.62193],[-1.170945,54.620937],[-1.167124,54.619759],[-1.166008,54.620047],[-1.162053,54.622611],[-1.16004,54.618709],[-1.15875,54.617805],[-1.159241,54.612903],[-1.160529,54.610387],[-1.165676,54.610172],[-1.167434,54.607575],[-1.167431,54.604806],[-1.172647,54.601505],[-1.172766,54.600932],[-1.174212,54.600408],[-1.180126,54.596475],[-1.179894,54.596308],[-1.180901,54.59602],[-1.183846,54.594135],[-1.184287,54.594191],[-1.18408,54.593987],[-1.185176,54.593304],[-1.186895,54.593397],[-1.193108,54.589254],[-1.197139,54.585668],[-1.199366,54.584362],[-1.201645,54.583349],[-1.204929,54.582542],[-1.209261,54.58206],[-1.212984,54.58226],[-1.223564,54.584899],[-1.227059,54.585455],[-1.22787,54.585266],[-1.230198,54.585957],[-1.230755,54.585738],[-1.236145,54.587457],[-1.236155,54.587917],[-1.238825,54.588979],[-1.24011,54.590058],[-1.240529,54.590081],[-1.240349,54.589903],[-1.243058,54.591014],[-1.245379,54.59387],[-1.246352,54.593695],[-1.245029,54.591665],[-1.245736,54.591978],[-1.246686,54.591899],[-1.248072,54.592743],[-1.248763,54.592415],[-1.248426,54.59202],[-1.249688,54.592774],[-1.249735,54.592275],[-1.250614,54.592822],[-1.250766,54.592389],[-1.251905,54.592568],[-1.257397,54.59023],[-1.258791,54.588595],[-1.262156,54.573027],[-1.264889,54.575362],[-1.264365,54.576242],[-1.267756,54.578166],[-1.270369,54.578837],[-1.271353,54.579579],[-1.273245,54.580097],[-1.279346,54.583014],[-1.280625,54.583386],[-1.281451,54.583392],[-1.283229,54.584678],[-1.282295,54.583888],[-1.283024,54.583541],[-1.284857,54.583875],[-1.285772,54.583643],[-1.286991,54.5841],[-1.287325,54.584882],[-1.28829,54.585032],[-1.288365,54.585328],[-1.296314,54.586683],[-1.297186,54.587114],[-1.297408,54.587807],[-1.298043,54.58797],[-1.297756,54.589461],[-1.29821,54.587937],[-1.29748,54.587761],[-1.297294,54.587115],[-1.296443,54.586677],[-1.288509,54.585298],[-1.288341,54.584968],[-1.287403,54.584822],[-1.287159,54.584097],[-1.285866,54.5835],[-1.285022,54.583805],[-1.2832,54.583438],[-1.282125,54.583752],[-1.281269,54.583222],[-1.280437,54.583267],[-1.273599,54.580048],[-1.271414,54.579416],[-1.270438,54.578666],[-1.268142,54.577984],[-1.264809,54.576179],[-1.265295,54.575276],[-1.262296,54.572041],[-1.264074,54.57008],[-1.266901,54.568736],[-1.27106,54.567704],[-1.277806,54.56722],[-1.278485,54.566794],[-1.286222,54.56479],[-1.285999,54.564203],[-1.285159,54.56429],[-1.285915,54.563978],[-1.282749,54.564756],[-1.281705,54.56468],[-1.280764,54.563947],[-1.278027,54.56053],[-1.275454,54.55867],[-1.271543,54.557312],[-1.27075,54.556486],[-1.271146,54.554945],[-1.272131,54.553475],[-1.274173,54.552474],[-1.276134,54.552299],[-1.273881,54.552366],[-1.275617,54.551768],[-1.276303,54.548811],[-1.277213,54.547867],[-1.276936,54.547177],[-1.27801,54.547109],[-1.27779,54.546077],[-1.278635,54.545762],[-1.278873,54.545244],[-1.278786,54.542415],[-1.28196,54.538659],[-1.283558,54.537954],[-1.283963,54.538119],[-1.284818,54.537035],[-1.284656,54.536666],[-1.285432,54.53625],[-1.284653,54.532898],[-1.284701,54.530503],[-1.285074,54.530297],[-1.284259,54.528572],[-1.284332,54.527974],[-1.283515,54.527885],[-1.283898,54.527652],[-1.283389,54.527508],[-1.283021,54.526566],[-1.282071,54.52643],[-1.282457,54.525382],[-1.282059,54.52411],[-1.282764,54.522966],[-1.28194,54.522478],[-1.28075,54.520558],[-1.282002,54.519718],[-1.282249,54.51838],[-1.279293,54.517812],[-1.27926,54.517495],[-1.278577,54.517449],[-1.278919,54.517207],[-1.278366,54.517203],[-1.277579,54.516558],[-1.276816,54.51657],[-1.274267,54.514904],[-1.273323,54.514766],[-1.272802,54.515098],[-1.269943,54.514614],[-1.268186,54.514694],[-1.267828,54.514351],[-1.267267,54.514446],[-1.266243,54.513567],[-1.264164,54.512996],[-1.263863,54.512545],[-1.259066,54.512674],[-1.256375,54.511402],[-1.256303,54.512395],[-1.251239,54.513117],[-1.250645,54.512002],[-1.249825,54.511713],[-1.248787,54.51197],[-1.246781,54.511297],[-1.245238,54.511557],[-1.243662,54.511399],[-1.242168,54.511576],[-1.241461,54.512064],[-1.240281,54.511489],[-1.238689,54.511303],[-1.237779,54.510666],[-1.236489,54.510739],[-1.234866,54.510316],[-1.23438,54.506142],[-1.238513,54.506232],[-1.242321,54.501658],[-1.244702,54.501354],[-1.245677,54.502188],[-1.248526,54.501194],[-1.249285,54.501391],[-1.250458,54.501089],[-1.252487,54.5014],[-1.256675,54.501108],[-1.255177,54.499469],[-1.253718,54.498804],[-1.253262,54.497782],[-1.253329,54.497281],[-1.254553,54.496607],[-1.254312,54.495851],[-1.254777,54.495251],[-1.257225,54.493208],[-1.256666,54.491174],[-1.257403,54.487322],[-1.26019,54.487802],[-1.264239,54.487568],[-1.265637,54.488172],[-1.26713,54.488167],[-1.268023,54.488555],[-1.269299,54.488308],[-1.270955,54.489135],[-1.273104,54.489276],[-1.272827,54.490279],[-1.274403,54.49107],[-1.276268,54.490733],[-1.276721,54.490075],[-1.277699,54.489746],[-1.278985,54.490291],[-1.281093,54.490567],[-1.284206,54.489132],[-1.285347,54.487872],[-1.287212,54.487511],[-1.287732,54.487952],[-1.288492,54.487765],[-1.289592,54.487986],[-1.289361,54.487332],[-1.287826,54.486364],[-1.287701,54.484843],[-1.286658,54.483957],[-1.28671,54.482735],[-1.288611,54.481805],[-1.290748,54.481941],[-1.291049,54.482181],[-1.290393,54.483438],[-1.291591,54.483445],[-1.293544,54.47961],[-1.294595,54.479339],[-1.29616,54.479648],[-1.296949,54.479501],[-1.299091,54.476632],[-1.300431,54.475822],[-1.303147,54.475931],[-1.301546,54.47642],[-1.302331,54.47673],[-1.302169,54.478028],[-1.303278,54.478397],[-1.30686,54.477692],[-1.307304,54.477047],[-1.308474,54.476865],[-1.308823,54.476442],[-1.310959,54.477574],[-1.313116,54.477277],[-1.315529,54.475286],[-1.31704,54.472752],[-1.318341,54.472089],[-1.323517,54.471433],[-1.324131,54.470925],[-1.343629,54.464155],[-1.344035,54.4642],[-1.344118,54.465501],[-1.344722,54.466023],[-1.343935,54.466229],[-1.343248,54.467257],[-1.342309,54.467663],[-1.342795,54.467842],[-1.342509,54.468129],[-1.343109,54.468207],[-1.342699,54.46845],[-1.343752,54.468231],[-1.343927,54.468784],[-1.344788,54.46903],[-1.344127,54.469543],[-1.344904,54.470114],[-1.344109,54.470511],[-1.344681,54.470716],[-1.343826,54.471059],[-1.344731,54.47158],[-1.344915,54.472408],[-1.345357,54.472244],[-1.346347,54.472667],[-1.347831,54.472333],[-1.349807,54.472727],[-1.350002,54.473182],[-1.350917,54.473416],[-1.353045,54.472419],[-1.35649,54.472926],[-1.357336,54.471418],[-1.361264,54.468711],[-1.361824,54.467809],[-1.364417,54.465952],[-1.368953,54.469949],[-1.372562,54.472307],[-1.373439,54.473566],[-1.374343,54.474061],[-1.373848,54.474439],[-1.374941,54.479534],[-1.37478,54.482467],[-1.374215,54.483588],[-1.374384,54.484233],[-1.37193,54.48482],[-1.370299,54.486139],[-1.371976,54.488001],[-1.372703,54.488475],[-1.373731,54.48838],[-1.375761,54.490635],[-1.377504,54.491242],[-1.378406,54.492131],[-1.37975,54.492621],[-1.381011,54.494029],[-1.382969,54.491591],[-1.382102,54.48858],[-1.382246,54.487928],[-1.383065,54.487286],[-1.384572,54.486852],[-1.389861,54.486699],[-1.39505,54.48568],[-1.397274,54.486539],[-1.398399,54.487633],[-1.397942,54.491105],[-1.399215,54.492892],[-1.402374,54.494269],[-1.405059,54.49416],[-1.407089,54.49353],[-1.409347,54.491514],[-1.410189,54.489686],[-1.408851,54.48728],[-1.408113,54.484621],[-1.408332,54.481395],[-1.409974,54.478333],[-1.412786,54.477195],[-1.417887,54.477086],[-1.423139,54.47888],[-1.43065,54.479163],[-1.432118,54.479455],[-1.433115,54.480105],[-1.433204,54.480941],[-1.428156,54.482881],[-1.426832,54.483999],[-1.426583,54.484779],[-1.426986,54.485234],[-1.432251,54.486519],[-1.434905,54.487493],[-1.433124,54.489292],[-1.43635,54.490991],[-1.434824,54.492153],[-1.435381,54.492711],[-1.433217,54.493519],[-1.433615,54.494082],[-1.429311,54.495275],[-1.427796,54.497494],[-1.426632,54.498293],[-1.425161,54.50065],[-1.425545,54.505882],[-1.428659,54.513064],[-1.423419,54.513982],[-1.423482,54.514739],[-1.421923,54.516203],[-1.421286,54.517573],[-1.421485,54.519638],[-1.422523,54.520902],[-1.424866,54.522277],[-1.426409,54.522132],[-1.429922,54.523703],[-1.43143,54.523623],[-1.434727,54.527186],[-1.435161,54.527076],[-1.436232,54.527611],[-1.438031,54.527138],[-1.4388,54.527661],[-1.441208,54.527784],[-1.443188,54.527644],[-1.444739,54.526987],[-1.446349,54.530657],[-1.449607,54.532968],[-1.449052,54.534026],[-1.445917,54.533662],[-1.443839,54.534539],[-1.444655,54.535218],[-1.445539,54.535435],[-1.446989,54.537218],[-1.44605,54.537778],[-1.445307,54.538851],[-1.445093,54.540079],[-1.444183,54.540748],[-1.443838,54.542434],[-1.442582,54.543087],[-1.443659,54.545602],[-1.443721,54.547445],[-1.445665,54.553913],[-1.446756,54.555668],[-1.43934,54.557505],[-1.435439,54.559242],[-1.435905,54.560112],[-1.42708,54.562775],[-1.422377,54.563356],[-1.416466,54.563358],[-1.411419,54.564793],[-1.414677,54.567878],[-1.414328,54.568367],[-1.414755,54.569053],[-1.416294,54.570439],[-1.414132,54.571269],[-1.416771,54.573883],[-1.416808,54.57583],[-1.415962,54.576704],[-1.416151,54.578049],[-1.414984,54.580878],[-1.414513,54.583534],[-1.413222,54.586216],[-1.413084,54.588238],[-1.408984,54.589923],[-1.407292,54.593728],[-1.40815,54.594401],[-1.41008,54.594498],[-1.410458,54.594187],[-1.411291,54.594439],[-1.411205,54.594944],[-1.414462,54.596303],[-1.414697,54.597303],[-1.416203,54.597958],[-1.417042,54.599378],[-1.418769,54.599917],[-1.419502,54.599637],[-1.421112,54.60042],[-1.421973,54.600505],[-1.422216,54.601698],[-1.42183,54.602253],[-1.423327,54.603127],[-1.425027,54.602579],[-1.426039,54.602711],[-1.426022,54.602376],[-1.426603,54.602432],[-1.427384,54.601799],[-1.428039,54.601814],[-1.427927,54.601503],[-1.429498,54.600616],[-1.429963,54.59995],[-1.429444,54.599386],[-1.429843,54.598329],[-1.429187,54.597779],[-1.429335,54.597253],[-1.42961,54.59662],[-1.431369,54.59536],[-1.432077,54.595485],[-1.43354,54.595128],[-1.435816,54.595713],[-1.437887,54.595254],[-1.438073,54.594953],[-1.4386,54.5955],[-1.439585,54.595689],[-1.43976,54.59664],[-1.440294,54.596703],[-1.440589,54.597196],[-1.442192,54.597471],[-1.443186,54.598509],[-1.445167,54.599548],[-1.444131,54.60046],[-1.445495,54.602029],[-1.446521,54.602256],[-1.447264,54.603082],[-1.448675,54.603245],[-1.448889,54.603687],[-1.45003,54.604036],[-1.450786,54.604699],[-1.451333,54.606249],[-1.452641,54.607054],[-1.452494,54.607558],[-1.451952,54.607674],[-1.452219,54.608765],[-1.450946,54.609841],[-1.450897,54.610558],[-1.449805,54.610401],[-1.448586,54.611008],[-1.444629,54.61053],[-1.444555,54.610029],[-1.443445,54.610361],[-1.442193,54.610251],[-1.442013,54.610824],[-1.439757,54.611193],[-1.439359,54.612523],[-1.437118,54.613064],[-1.436832,54.61412],[-1.435712,54.614392],[-1.435051,54.613948],[-1.43255,54.613733],[-1.431361,54.614858],[-1.42997,54.615323],[-1.428343,54.615036],[-1.427935,54.614437],[-1.428494,54.613266],[-1.426758,54.612485],[-1.426171,54.611519],[-1.42236,54.613073],[-1.418232,54.614262],[-1.416446,54.615324],[-1.412536,54.616801],[-1.409785,54.618494],[-1.408022,54.620132],[-1.406489,54.620771],[-1.406622,54.621426],[-1.408188,54.622064],[-1.406647,54.62262],[-1.40478,54.624046],[-1.402875,54.622434],[-1.399158,54.624129],[-1.401599,54.626359],[-1.400436,54.627714],[-1.399129,54.626979],[-1.396748,54.628332],[-1.394235,54.628882],[-1.39551,54.631098],[-1.393381,54.631521],[-1.39301,54.632015],[-1.390105,54.631405],[-1.388271,54.631603],[-1.388574,54.632107],[-1.387175,54.632778],[-1.388417,54.633422],[-1.388983,54.634946],[-1.390587,54.636283],[-1.390112,54.637761],[-1.390542,54.638161],[-1.390448,54.639135],[-1.387654,54.640125],[-1.387632,54.641399],[-1.384518,54.643074],[-1.380847,54.643802],[-1.379552,54.643274],[-1.3745,54.643739],[-1.367832,54.643471],[-1.362385,54.640615],[-1.356827,54.638376],[-1.354768,54.63807],[-1.349896,54.638809],[-1.342536,54.636672],[-1.339718,54.636247],[-1.337398,54.634752],[-1.335061,54.631324],[-1.331904,54.633792],[-1.329509,54.636528],[-1.329071,54.638576],[-1.329449,54.643097],[-1.328864,54.644002],[-1.328097,54.644446],[-1.326508,54.644466],[-1.326306,54.645103],[-1.321984,54.644542],[-1.317757,54.645251],[-1.317148,54.644799]]]]}}]}