{"type":"FeatureCollection","features":[{"type":"Feature","properties":{"slug":"stoke-on-trent","gss_code":"E06000021","name":"Stoke-on-Trent"},"geometry":{"type":"Polygon","coordinates":[[[-2.188911,53.090085],[-2.18495,53.090134],[-2.181563,53.089281],[-2.179089,53.091464],[-2.178532,53.091549],[-2.175553,53.089915],[-2.174879,53.089869],[-2.17427,53.090254],[-2.1717,53.089447],[-2.171466,53.089207],[-2.172104,53.088894],[-2.169298,53.086925],[-2.168628,53.085359],[-2.168995,53.085244],[-2.166243,53.08235],[-2.165532,53.07938],[-2.163609,53.0767],[-2.163832,53.075882],[-2.162804,53.073247],[-2.161829,53.073227],[-2.161933,53.072363],[-2.162594,53.072227],[-2.162161,53.071738],[-2.16149,53.071852],[-2.161349,53.071173],[-2.161741,53.071015],[-2.161101,53.070084],[-2.157476,53.070741],[-2.156585,53.070407],[-2.155455,53.070563],[-2.15501,53.069925],[-2.153787,53.069977],[-2.15334,53.069382],[-2.151573,53.070168],[-2.151181,53.069505],[-2.147954,53.070363],[-2.146481,53.069122],[-2.144962,53.068507],[-2.143622,53.068647],[-2.143018,53.069325],[-2.142624,53.069278],[-2.142397,53.068433],[-2.140377,53.068808],[-2.139846,53.068321],[-2.140483,53.06749],[-2.139094,53.065299],[-2.137728,53.06551],[-2.13478,53.064987],[-2.127777,53.065665],[-2.125373,53.064615],[-2.127366,53.059416],[-2.127437,53.053739],[-2.123991,53.052631],[-2.121428,53.051289],[-2.121748,53.050992],[-2.119818,53.049636],[-2.116583,53.048033],[-2.117255,53.047589],[-2.119583,53.047625],[-2.117967,53.046821],[-2.118208,53.046609],[-2.124791,53.048567],[-2.127228,53.048129],[-2.127059,53.047963],[-2.128298,53.04821],[-2.128614,53.048014],[-2.12909,53.04831],[-2.131779,53.047334],[-2.126508,53.040136],[-2.126931,53.037816],[-2.125951,53.037317],[-2.127411,53.035941],[-2.128184,53.036419],[-2.129167,53.035617],[-2.12702,53.033722],[-2.125571,53.033008],[-2.12502,53.033041],[-2.12373,53.031577],[-2.123705,53.030704],[-2.124355,53.029927],[-2.12325,53.027865],[-2.122197,53.028342],[-2.121292,53.027456],[-2.120483,53.02789],[-2.119678,53.027668],[-2.118803,53.026445],[-2.119537,53.026153],[-2.121372,53.024019],[-2.122076,53.022639],[-2.123763,53.02159],[-2.122904,53.020743],[-2.122416,53.020857],[-2.120968,53.020294],[-2.121129,53.019283],[-2.122489,53.019154],[-2.122493,53.018725],[-2.121967,53.018724],[-2.121503,53.018012],[-2.120488,53.018696],[-2.11852,53.018394],[-2.116183,53.016859],[-2.114897,53.016497],[-2.114638,53.016043],[-2.115959,53.014762],[-2.113742,53.013313],[-2.113277,53.013774],[-2.111925,53.013895],[-2.10948,53.013617],[-2.109908,53.01309],[-2.109278,53.012832],[-2.108947,53.013232],[-2.108235,53.01301],[-2.10836,53.012679],[-2.103467,53.010858],[-2.104019,53.010087],[-2.102628,53.008975],[-2.104107,53.007489],[-2.103429,53.007005],[-2.107141,53.004951],[-2.107205,53.003845],[-2.107831,53.002491],[-2.105163,52.997794],[-2.101358,52.995628],[-2.09857,52.997568],[-2.097037,52.99725],[-2.096861,52.997615],[-2.09574,52.997637],[-2.095098,52.998742],[-2.091767,52.998827],[-2.091277,52.998362],[-2.090146,52.998101],[-2.08994,52.997591],[-2.089532,52.997739],[-2.088526,52.997077],[-2.088058,52.996003],[-2.088734,52.995025],[-2.088281,52.99479],[-2.08788,52.993072],[-2.089328,52.991473],[-2.088078,52.989617],[-2.08848,52.989495],[-2.090104,52.990281],[-2.090355,52.990015],[-2.089846,52.989786],[-2.09039,52.988609],[-2.091799,52.988088],[-2.091957,52.985559],[-2.091865,52.985285],[-2.089994,52.984866],[-2.089247,52.984161],[-2.09,52.983653],[-2.08479,52.981215],[-2.084517,52.981398],[-2.083392,52.97996],[-2.084937,52.978483],[-2.08225,52.977114],[-2.080998,52.977918],[-2.079654,52.975829],[-2.080776,52.975486],[-2.079239,52.9745],[-2.079458,52.974019],[-2.084203,52.97513],[-2.085957,52.973512],[-2.088025,52.97403],[-2.088319,52.973643],[-2.086837,52.972881],[-2.084368,52.970103],[-2.081521,52.96826],[-2.081952,52.968217],[-2.081231,52.966902],[-2.084555,52.966257],[-2.084454,52.965419],[-2.086841,52.965026],[-2.10028,52.96074],[-2.103015,52.963409],[-2.10617,52.962178],[-2.107199,52.962158],[-2.107231,52.962446],[-2.109596,52.962359],[-2.109153,52.959394],[-2.110284,52.957819],[-2.115117,52.956474],[-2.117718,52.956108],[-2.121585,52.956086],[-2.127922,52.965005],[-2.128955,52.969273],[-2.130403,52.971176],[-2.131357,52.971542],[-2.133981,52.97381],[-2.136651,52.973498],[-2.139363,52.973698],[-2.145711,52.976111],[-2.147394,52.974944],[-2.148957,52.972828],[-2.151493,52.971194],[-2.151482,52.968669],[-2.149842,52.965281],[-2.151371,52.964902],[-2.150985,52.96412],[-2.153772,52.963559],[-2.154169,52.964326],[-2.159499,52.963619],[-2.159396,52.963152],[-2.158167,52.963149],[-2.158325,52.961145],[-2.159588,52.961102],[-2.159856,52.959065],[-2.161812,52.957891],[-2.161364,52.957484],[-2.162426,52.956428],[-2.161854,52.954712],[-2.162595,52.953365],[-2.166893,52.952934],[-2.17112,52.951729],[-2.172238,52.955011],[-2.173261,52.954448],[-2.176814,52.953694],[-2.17433,52.949468],[-2.174505,52.947222],[-2.175704,52.947752],[-2.177414,52.9477],[-2.178585,52.948115],[-2.18156,52.946158],[-2.182924,52.94717],[-2.182099,52.947282],[-2.182093,52.947607],[-2.184602,52.949416],[-2.185154,52.95045],[-2.185998,52.951006],[-2.191253,52.950086],[-2.191799,52.951557],[-2.191773,52.953894],[-2.193207,52.955692],[-2.194291,52.958051],[-2.194237,52.960807],[-2.195376,52.964224],[-2.198722,52.966598],[-2.200438,52.968414],[-2.202224,52.968658],[-2.204689,52.969924],[-2.205417,52.972223],[-2.207169,52.971775],[-2.208746,52.973839],[-2.209846,52.977407],[-2.212213,52.979656],[-2.212514,52.980575],[-2.208037,52.980637],[-2.204341,52.981398],[-2.206389,52.982917],[-2.208406,52.983203],[-2.208837,52.984023],[-2.210359,52.984763],[-2.210031,52.985096],[-2.210688,52.985873],[-2.210277,52.986028],[-2.210608,52.986455],[-2.210206,52.986764],[-2.210591,52.987193],[-2.211487,52.987114],[-2.212465,52.988184],[-2.21189,52.988647],[-2.213196,52.992477],[-2.212497,52.992553],[-2.212779,52.993022],[-2.212402,52.993347],[-2.213446,52.994473],[-2.213218,52.996484],[-2.214972,52.999946],[-2.216178,53.001492],[-2.21719,53.001637],[-2.215874,53.00251],[-2.217782,53.003988],[-2.214536,53.00614],[-2.21153,53.00703],[-2.212625,53.008301],[-2.212331,53.008372],[-2.213076,53.009726],[-2.214617,53.009415],[-2.215066,53.009952],[-2.214421,53.010168],[-2.215529,53.010569],[-2.215767,53.011072],[-2.215262,53.012446],[-2.215643,53.013802],[-2.214927,53.014039],[-2.215531,53.015283],[-2.213655,53.015964],[-2.20833,53.016717],[-2.202553,53.020025],[-2.20496,53.023141],[-2.20637,53.030638],[-2.209211,53.035858],[-2.219166,53.043738],[-2.225363,53.057694],[-2.225695,53.057699],[-2.225817,53.05901],[-2.227918,53.063731],[-2.230543,53.063422],[-2.23279,53.063719],[-2.23414,53.064393],[-2.233511,53.066218],[-2.236642,53.06788],[-2.237032,53.06955],[-2.238508,53.071171],[-2.238295,53.071937],[-2.237614,53.07241],[-2.238761,53.073339],[-2.237441,53.074337],[-2.236066,53.074766],[-2.234895,53.075903],[-2.234066,53.075622],[-2.231419,53.078026],[-2.230071,53.077745],[-2.227351,53.079539],[-2.226532,53.078966],[-2.225142,53.079331],[-2.221543,53.081018],[-2.220686,53.082129],[-2.216737,53.082662],[-2.21664,53.084646],[-2.215879,53.08531],[-2.214034,53.085681],[-2.211517,53.08674],[-2.210052,53.08562],[-2.207137,53.087048],[-2.201371,53.0867],[-2.201992,53.088004],[-2.201544,53.08903],[-2.199586,53.089469],[-2.200387,53.0917],[-2.198563,53.092733],[-2.196675,53.092414],[-2.19598,53.091744],[-2.192178,53.090687],[-2.188968,53.090351],[-2.188911,53.090085]]]}}]}