{"type":"FeatureCollection","features":[{"type":"Feature","properties":{"slug":"stratford-on-avon","gss_code":"E07000221","name":"Stratford-on-Avon"},"geometry":{"type":"Polygon","coordinates":[[[-1.863146,52.366566],[-1.849653,52.366704],[-1.842882,52.36514],[-1.841567,52.365167],[-1.838052,52.366608],[-1.836603,52.366669],[-1.835066,52.367344],[-1.833176,52.366068],[-1.831824,52.366899],[-1.831312,52.366764],[-1.831461,52.366106],[-1.830266,52.365949],[-1.829527,52.367259],[-1.827247,52.366546],[-1.826868,52.366124],[-1.824518,52.366401],[-1.82426,52.365639],[-1.81905,52.366312],[-1.813242,52.365772],[-1.812804,52.366596],[-1.80791,52.366623],[-1.80696,52.36594],[-1.805491,52.363292],[-1.803301,52.362442],[-1.799595,52.358633],[-1.797799,52.358464],[-1.79171,52.356757],[-1.785771,52.353846],[-1.784894,52.353065],[-1.783746,52.350948],[-1.784522,52.350112],[-1.779479,52.34835],[-1.779407,52.347917],[-1.77768,52.34774],[-1.77579,52.347965],[-1.773766,52.341049],[-1.771956,52.338445],[-1.767606,52.328599],[-1.768079,52.323811],[-1.769014,52.319339],[-1.766567,52.315817],[-1.764766,52.314549],[-1.763538,52.312614],[-1.760727,52.310285],[-1.760769,52.30875],[-1.761665,52.308006],[-1.754808,52.305022],[-1.75392,52.304878],[-1.751852,52.305212],[-1.749849,52.304768],[-1.747727,52.304745],[-1.746651,52.302716],[-1.743719,52.302956],[-1.741265,52.302365],[-1.740902,52.301838],[-1.739874,52.301723],[-1.740159,52.301356],[-1.73877,52.30107],[-1.738907,52.300802],[-1.737754,52.300068],[-1.738133,52.299737],[-1.737998,52.298985],[-1.737356,52.298973],[-1.738602,52.297816],[-1.738534,52.297295],[-1.737239,52.295891],[-1.736874,52.296048],[-1.735528,52.294557],[-1.734489,52.293843],[-1.733889,52.293808],[-1.733828,52.293516],[-1.733157,52.294203],[-1.733679,52.294132],[-1.733912,52.294455],[-1.732373,52.295124],[-1.733042,52.295409],[-1.732047,52.295851],[-1.731451,52.295263],[-1.729994,52.296169],[-1.728825,52.296126],[-1.728645,52.296427],[-1.727726,52.296595],[-1.727813,52.296961],[-1.72711,52.296628],[-1.726645,52.29675],[-1.726957,52.297164],[-1.726466,52.297767],[-1.725459,52.297767],[-1.724698,52.298378],[-1.723764,52.29846],[-1.722718,52.29709],[-1.719762,52.296321],[-1.719134,52.295396],[-1.718113,52.294936],[-1.717167,52.293299],[-1.712293,52.289683],[-1.703883,52.291239],[-1.69997,52.291251],[-1.697453,52.289407],[-1.695234,52.28694],[-1.693649,52.286048],[-1.692619,52.285933],[-1.690262,52.284348],[-1.68549,52.282801],[-1.683599,52.284003],[-1.682235,52.284267],[-1.681182,52.285321],[-1.680303,52.285512],[-1.679328,52.286743],[-1.677258,52.285953],[-1.674234,52.286417],[-1.66909,52.285816],[-1.66691,52.28511],[-1.665803,52.284166],[-1.665826,52.283781],[-1.667153,52.282171],[-1.66934,52.280782],[-1.672648,52.277921],[-1.675004,52.274174],[-1.675285,52.271897],[-1.674112,52.269923],[-1.67644,52.270104],[-1.675825,52.265386],[-1.674002,52.263043],[-1.669389,52.259965],[-1.669014,52.259191],[-1.669209,52.258],[-1.668519,52.258212],[-1.666856,52.257955],[-1.665965,52.256783],[-1.664201,52.256091],[-1.661873,52.256256],[-1.661792,52.255991],[-1.660349,52.255718],[-1.658686,52.255808],[-1.658531,52.256306],[-1.657512,52.256494],[-1.65736,52.257143],[-1.653983,52.256572],[-1.653361,52.256129],[-1.653041,52.257135],[-1.651933,52.257181],[-1.65158,52.257816],[-1.649049,52.257518],[-1.648976,52.258174],[-1.645929,52.258271],[-1.643454,52.256609],[-1.644902,52.25556],[-1.645888,52.255391],[-1.642306,52.253971],[-1.641111,52.25315],[-1.640948,52.252347],[-1.637986,52.249943],[-1.638035,52.249222],[-1.635916,52.247349],[-1.629613,52.246824],[-1.626412,52.24705],[-1.626415,52.246523],[-1.621317,52.244493],[-1.622338,52.243369],[-1.624477,52.242147],[-1.625053,52.242142],[-1.625729,52.243014],[-1.626054,52.242206],[-1.627522,52.24234],[-1.627659,52.241653],[-1.626765,52.240711],[-1.626215,52.241484],[-1.625781,52.241543],[-1.623915,52.239287],[-1.624041,52.239018],[-1.625055,52.238829],[-1.624742,52.238367],[-1.620427,52.237218],[-1.617665,52.236903],[-1.61237,52.237405],[-1.611284,52.237842],[-1.610722,52.238515],[-1.60959,52.238764],[-1.607877,52.238367],[-1.606415,52.237312],[-1.605675,52.236037],[-1.605786,52.235026],[-1.609235,52.232326],[-1.609032,52.230312],[-1.60938,52.230071],[-1.610333,52.229718],[-1.612307,52.229637],[-1.613497,52.230354],[-1.614746,52.230343],[-1.615288,52.230009],[-1.615098,52.229665],[-1.616514,52.229309],[-1.618081,52.228318],[-1.622393,52.227007],[-1.625319,52.226868],[-1.625896,52.226285],[-1.626372,52.224774],[-1.625566,52.222578],[-1.624282,52.221351],[-1.623851,52.221453],[-1.621241,52.220385],[-1.620303,52.218124],[-1.621227,52.213807],[-1.620516,52.213719],[-1.619663,52.214026],[-1.6192,52.214627],[-1.618925,52.214393],[-1.61855,52.214622],[-1.618451,52.215039],[-1.618939,52.215032],[-1.618915,52.215244],[-1.617958,52.215918],[-1.618048,52.216213],[-1.617525,52.216214],[-1.617485,52.216605],[-1.611851,52.219017],[-1.61007,52.220471],[-1.607796,52.220997],[-1.605899,52.222365],[-1.604003,52.222805],[-1.603087,52.224631],[-1.602023,52.225257],[-1.60103,52.224949],[-1.597277,52.225322],[-1.593177,52.223525],[-1.589904,52.223817],[-1.588775,52.223619],[-1.587107,52.224568],[-1.586656,52.224193],[-1.586381,52.224497],[-1.585603,52.224417],[-1.586058,52.224018],[-1.585164,52.223652],[-1.585012,52.222975],[-1.584341,52.222653],[-1.584811,52.222233],[-1.584493,52.221587],[-1.583628,52.221435],[-1.583198,52.220905],[-1.582716,52.221287],[-1.581223,52.220878],[-1.581252,52.220374],[-1.58036,52.21903],[-1.579311,52.218422],[-1.579391,52.21807],[-1.577595,52.217997],[-1.576725,52.217273],[-1.575324,52.217312],[-1.57503,52.216287],[-1.573755,52.216383],[-1.573491,52.216906],[-1.572787,52.216983],[-1.5726,52.218015],[-1.56904,52.218104],[-1.568301,52.217704],[-1.567416,52.219484],[-1.567351,52.221569],[-1.564641,52.22428],[-1.56369,52.225654],[-1.563136,52.228029],[-1.560059,52.231647],[-1.554297,52.230943],[-1.555021,52.228232],[-1.548539,52.22764],[-1.542432,52.227831],[-1.542326,52.228188],[-1.539825,52.227868],[-1.539681,52.228342],[-1.535245,52.226491],[-1.528199,52.22515],[-1.525256,52.226696],[-1.523484,52.229338],[-1.521731,52.230307],[-1.520772,52.235456],[-1.519701,52.235975],[-1.519309,52.238216],[-1.517673,52.239823],[-1.516568,52.239981],[-1.516317,52.240805],[-1.514726,52.241147],[-1.514595,52.241547],[-1.512989,52.242176],[-1.512491,52.241769],[-1.510953,52.242226],[-1.509845,52.24165],[-1.508688,52.241636],[-1.507639,52.240838],[-1.506552,52.241276],[-1.504566,52.241016],[-1.502186,52.2415],[-1.500023,52.239588],[-1.500619,52.238892],[-1.502081,52.238285],[-1.502107,52.237934],[-1.500105,52.237563],[-1.498919,52.238994],[-1.498864,52.241021],[-1.497564,52.240074],[-1.495076,52.24207],[-1.488738,52.249434],[-1.486624,52.252761],[-1.484954,52.254434],[-1.483467,52.255296],[-1.477657,52.261741],[-1.475825,52.261202],[-1.4745,52.262882],[-1.46959,52.264794],[-1.465567,52.263672],[-1.463033,52.265138],[-1.458927,52.270252],[-1.454743,52.270835],[-1.453417,52.271926],[-1.448506,52.271383],[-1.444136,52.27209],[-1.441119,52.271477],[-1.438209,52.271857],[-1.435215,52.272788],[-1.434864,52.273904],[-1.436096,52.274519],[-1.435094,52.276442],[-1.439666,52.278766],[-1.439223,52.281761],[-1.440522,52.28165],[-1.44083,52.282219],[-1.441928,52.282129],[-1.44276,52.284141],[-1.445879,52.287728],[-1.447934,52.291384],[-1.448472,52.294072],[-1.443964,52.295334],[-1.440846,52.294505],[-1.440465,52.294146],[-1.439185,52.294245],[-1.435609,52.293618],[-1.428036,52.295106],[-1.426796,52.29416],[-1.424734,52.294283],[-1.425258,52.294883],[-1.42618,52.29494],[-1.426044,52.295204],[-1.424564,52.296497],[-1.423651,52.29647],[-1.421802,52.297956],[-1.422926,52.299095],[-1.424163,52.299627],[-1.424983,52.299365],[-1.426252,52.299474],[-1.426493,52.300751],[-1.424005,52.301787],[-1.422827,52.3017],[-1.421788,52.302649],[-1.422319,52.302986],[-1.421668,52.303486],[-1.420099,52.3034],[-1.419408,52.303754],[-1.414793,52.303131],[-1.40902,52.302899],[-1.408492,52.304174],[-1.405751,52.303951],[-1.398304,52.302451],[-1.392234,52.301766],[-1.389269,52.3009],[-1.389761,52.300288],[-1.38312,52.297112],[-1.378947,52.294787],[-1.379104,52.294524],[-1.375661,52.293627],[-1.370532,52.291383],[-1.36781,52.289659],[-1.368229,52.289163],[-1.366223,52.288593],[-1.366364,52.288053],[-1.364562,52.287994],[-1.363965,52.286441],[-1.362519,52.285167],[-1.362351,52.283413],[-1.359257,52.282923],[-1.360667,52.28098],[-1.356996,52.280558],[-1.357019,52.280145],[-1.355174,52.280432],[-1.354806,52.279138],[-1.346561,52.277448],[-1.3465,52.276285],[-1.341025,52.274852],[-1.338469,52.273152],[-1.3357,52.271823],[-1.335192,52.27124],[-1.333833,52.271172],[-1.328145,52.269419],[-1.324785,52.268007],[-1.322725,52.267739],[-1.32187,52.26737],[-1.321394,52.266675],[-1.31574,52.267017],[-1.315734,52.265699],[-1.314735,52.265544],[-1.313333,52.262792],[-1.312544,52.262822],[-1.309429,52.260719],[-1.311629,52.259921],[-1.309015,52.257473],[-1.30889,52.257831],[-1.308289,52.257823],[-1.30622,52.258888],[-1.305469,52.260137],[-1.299479,52.264252],[-1.298151,52.26459],[-1.29573,52.264433],[-1.293339,52.265404],[-1.292491,52.267038],[-1.290239,52.269119],[-1.289754,52.270482],[-1.287992,52.271079],[-1.287803,52.273626],[-1.2815,52.270055],[-1.275465,52.267913],[-1.273585,52.266794],[-1.276455,52.266592],[-1.276452,52.265197],[-1.272466,52.263075],[-1.272927,52.262511],[-1.271348,52.261416],[-1.267322,52.260683],[-1.264974,52.259242],[-1.259604,52.257199],[-1.259505,52.256449],[-1.253618,52.25565],[-1.251308,52.255036],[-1.247551,52.253396],[-1.245034,52.252973],[-1.239213,52.252734],[-1.232999,52.253259],[-1.232426,52.252418],[-1.231932,52.25269],[-1.2317,52.252314],[-1.23234,52.252051],[-1.232058,52.251686],[-1.232578,52.251523],[-1.232369,52.251227],[-1.234704,52.250448],[-1.235159,52.249271],[-1.237766,52.248435],[-1.240568,52.247961],[-1.246682,52.2491],[-1.250483,52.248302],[-1.250979,52.248674],[-1.251746,52.248641],[-1.254479,52.247568],[-1.258069,52.244674],[-1.264799,52.241881],[-1.266152,52.24083],[-1.266769,52.239469],[-1.266065,52.238888],[-1.267621,52.237438],[-1.266353,52.236705],[-1.266852,52.235249],[-1.275373,52.238032],[-1.27997,52.238632],[-1.284683,52.238519],[-1.284024,52.237148],[-1.282744,52.236337],[-1.280012,52.233373],[-1.2785,52.230052],[-1.278363,52.228716],[-1.272579,52.227535],[-1.273478,52.226764],[-1.275636,52.226336],[-1.276915,52.22512],[-1.276295,52.223093],[-1.275054,52.221835],[-1.273818,52.221366],[-1.273346,52.220649],[-1.272261,52.220267],[-1.270967,52.219243],[-1.267697,52.217758],[-1.264334,52.216613],[-1.26093,52.216003],[-1.259893,52.211878],[-1.257326,52.208627],[-1.25736,52.205614],[-1.25478,52.198889],[-1.254982,52.197831],[-1.262539,52.195962],[-1.268003,52.196531],[-1.271424,52.196368],[-1.274074,52.1954],[-1.277573,52.195809],[-1.281138,52.195775],[-1.281195,52.191953],[-1.283644,52.191601],[-1.290787,52.192133],[-1.294894,52.191681],[-1.300595,52.191775],[-1.308859,52.189779],[-1.313135,52.190468],[-1.314386,52.188112],[-1.316161,52.18666],[-1.317447,52.184855],[-1.318194,52.183006],[-1.318191,52.181417],[-1.319945,52.181361],[-1.322813,52.181801],[-1.326509,52.178397],[-1.326837,52.178468],[-1.328638,52.17702],[-1.331482,52.174137],[-1.332332,52.172324],[-1.331116,52.171416],[-1.332292,52.17054],[-1.331591,52.169521],[-1.331897,52.168485],[-1.333088,52.167349],[-1.333948,52.165398],[-1.334005,52.159081],[-1.334668,52.159336],[-1.335813,52.159011],[-1.336429,52.159447],[-1.337147,52.158884],[-1.338236,52.158843],[-1.342344,52.154905],[-1.343459,52.153235],[-1.341611,52.15068],[-1.34281,52.14873],[-1.34104,52.144856],[-1.343373,52.144224],[-1.346829,52.14235],[-1.349936,52.141592],[-1.350255,52.140864],[-1.349115,52.138515],[-1.348313,52.1378],[-1.34938,52.135915],[-1.348708,52.135132],[-1.352075,52.134806],[-1.355732,52.136014],[-1.357659,52.13531],[-1.357779,52.135515],[-1.359823,52.135062],[-1.360015,52.135458],[-1.362821,52.134798],[-1.364049,52.136708],[-1.366147,52.136075],[-1.369601,52.134724],[-1.370166,52.133095],[-1.37115,52.133266],[-1.375199,52.130914],[-1.382728,52.127543],[-1.383765,52.128216],[-1.384412,52.127999],[-1.384669,52.12842],[-1.385279,52.128202],[-1.385463,52.128403],[-1.386829,52.126052],[-1.387556,52.125991],[-1.390092,52.122737],[-1.389174,52.121963],[-1.391426,52.121528],[-1.392377,52.120292],[-1.392079,52.119696],[-1.393303,52.118963],[-1.392182,52.117071],[-1.3907,52.116789],[-1.385379,52.117458],[-1.38161,52.116946],[-1.377689,52.118132],[-1.374583,52.118318],[-1.370842,52.117534],[-1.371398,52.117168],[-1.371055,52.116703],[-1.370624,52.116722],[-1.371441,52.116173],[-1.370744,52.11551],[-1.371047,52.115142],[-1.370326,52.11537],[-1.370149,52.115083],[-1.370241,52.114244],[-1.370896,52.114396],[-1.370576,52.113821],[-1.370146,52.113778],[-1.370357,52.113186],[-1.369817,52.112991],[-1.370367,52.112718],[-1.369521,52.112485],[-1.369558,52.112058],[-1.36909,52.112329],[-1.36794,52.111647],[-1.367231,52.111938],[-1.367238,52.111634],[-1.366309,52.111732],[-1.365183,52.111302],[-1.364817,52.110582],[-1.365395,52.110617],[-1.365058,52.110368],[-1.365292,52.110023],[-1.363006,52.108933],[-1.363144,52.108051],[-1.362378,52.107802],[-1.362315,52.108068],[-1.361362,52.107505],[-1.361224,52.107235],[-1.361742,52.107347],[-1.361283,52.106925],[-1.36161,52.106676],[-1.361227,52.106598],[-1.361375,52.106289],[-1.360618,52.106135],[-1.360979,52.105889],[-1.359666,52.105698],[-1.359067,52.10524],[-1.359722,52.10498],[-1.358903,52.104964],[-1.359302,52.104645],[-1.358404,52.104298],[-1.358977,52.10408],[-1.359462,52.104291],[-1.358366,52.102976],[-1.358515,52.102584],[-1.35891,52.102616],[-1.358519,52.102376],[-1.358825,52.10225],[-1.35777,52.10131],[-1.360576,52.100968],[-1.362554,52.101084],[-1.366155,52.099944],[-1.367573,52.100005],[-1.371552,52.099075],[-1.374424,52.099726],[-1.378307,52.096763],[-1.3777,52.096055],[-1.3854,52.094146],[-1.385731,52.095239],[-1.387147,52.096106],[-1.387553,52.097424],[-1.390898,52.098897],[-1.395536,52.101702],[-1.396716,52.101921],[-1.397875,52.102724],[-1.39801,52.103341],[-1.398919,52.103449],[-1.400338,52.104335],[-1.400615,52.105057],[-1.401979,52.105582],[-1.402232,52.10629],[-1.402633,52.106325],[-1.402797,52.108897],[-1.403894,52.11009],[-1.411459,52.113049],[-1.412906,52.114266],[-1.413573,52.114323],[-1.414417,52.115439],[-1.41963,52.117642],[-1.424962,52.118277],[-1.437071,52.116704],[-1.441229,52.115556],[-1.443875,52.115199],[-1.448471,52.116097],[-1.45158,52.114449],[-1.453469,52.112991],[-1.449221,52.108315],[-1.448061,52.105162],[-1.448328,52.100471],[-1.446978,52.098863],[-1.447188,52.097625],[-1.453607,52.097336],[-1.453534,52.098542],[-1.458207,52.098001],[-1.458519,52.097666],[-1.459738,52.097531],[-1.465082,52.097416],[-1.466931,52.09774],[-1.467559,52.097056],[-1.470738,52.097955],[-1.471776,52.099463],[-1.474141,52.101002],[-1.477302,52.101351],[-1.480067,52.093558],[-1.486199,52.094228],[-1.487804,52.093957],[-1.488143,52.092828],[-1.48682,52.091483],[-1.484733,52.091304],[-1.485607,52.087733],[-1.48779,52.087773],[-1.488905,52.086235],[-1.489953,52.086234],[-1.4904,52.084729],[-1.49074,52.08473],[-1.49056,52.083803],[-1.494355,52.082227],[-1.493688,52.081593],[-1.493292,52.0796],[-1.490665,52.077135],[-1.491742,52.07633],[-1.492172,52.075482],[-1.493495,52.074808],[-1.495013,52.07472],[-1.496312,52.074142],[-1.496809,52.074349],[-1.499179,52.073915],[-1.500815,52.072929],[-1.501855,52.071627],[-1.500069,52.069943],[-1.502619,52.069176],[-1.501817,52.066333],[-1.499186,52.063579],[-1.497238,52.06087],[-1.497353,52.058955],[-1.499636,52.052436],[-1.50184,52.049582],[-1.503461,52.043548],[-1.504944,52.04144],[-1.506899,52.037233],[-1.507479,52.03532],[-1.5074,52.03338],[-1.510116,52.026713],[-1.510947,52.021449],[-1.513571,52.018383],[-1.515579,52.014429],[-1.521164,52.005885],[-1.52161,52.001596],[-1.522826,51.996843],[-1.524928,51.993207],[-1.525388,51.992821],[-1.526863,51.992528],[-1.527929,51.991754],[-1.529355,51.992276],[-1.52913,51.99263],[-1.534756,51.99436],[-1.536001,51.995361],[-1.5399,51.996367],[-1.541742,51.996432],[-1.543929,51.996324],[-1.546832,51.994701],[-1.549676,51.993939],[-1.550615,51.993342],[-1.553561,51.992369],[-1.554036,51.991897],[-1.55558,51.99186],[-1.556194,51.991533],[-1.556318,51.991783],[-1.557224,51.991658],[-1.556721,51.989474],[-1.553282,51.985758],[-1.553533,51.985609],[-1.549547,51.980846],[-1.563539,51.97704],[-1.568641,51.976272],[-1.580573,51.972996],[-1.588407,51.974226],[-1.600302,51.976942],[-1.596689,51.974278],[-1.595799,51.972564],[-1.591634,51.97045],[-1.59429,51.968127],[-1.594721,51.96827],[-1.596917,51.964394],[-1.605788,51.959573],[-1.612342,51.955403],[-1.613337,51.95586],[-1.613609,51.955689],[-1.615272,51.956935],[-1.615865,51.956642],[-1.616647,51.956995],[-1.617239,51.957504],[-1.616215,51.957953],[-1.617562,51.959202],[-1.617984,51.959075],[-1.619892,51.960709],[-1.620286,51.960674],[-1.621903,51.961864],[-1.621039,51.962279],[-1.622612,51.963389],[-1.623569,51.964844],[-1.626285,51.967512],[-1.629724,51.969906],[-1.633301,51.970893],[-1.632963,51.971422],[-1.634132,51.971821],[-1.634303,51.972421],[-1.634859,51.972226],[-1.635011,51.972549],[-1.636528,51.972879],[-1.635913,51.973727],[-1.638315,51.975172],[-1.643093,51.977903],[-1.656581,51.983542],[-1.657334,51.984441],[-1.665754,51.987489],[-1.669279,51.989219],[-1.669934,51.993165],[-1.665751,51.997405],[-1.661338,51.999332],[-1.659086,51.999856],[-1.655652,52.003126],[-1.651927,52.005547],[-1.642879,52.009223],[-1.64193,52.010293],[-1.642045,52.01113],[-1.643296,52.012812],[-1.642928,52.014714],[-1.640308,52.018758],[-1.638628,52.020531],[-1.635221,52.021951],[-1.63448,52.022825],[-1.628337,52.027192],[-1.627039,52.027365],[-1.624539,52.026377],[-1.621592,52.027219],[-1.620824,52.027766],[-1.62011,52.027738],[-1.618831,52.029034],[-1.618587,52.03042],[-1.617617,52.031569],[-1.617598,52.032613],[-1.618054,52.033153],[-1.617496,52.033366],[-1.618938,52.034182],[-1.619277,52.034995],[-1.620614,52.034405],[-1.621265,52.034686],[-1.620631,52.034803],[-1.620668,52.035243],[-1.621416,52.035143],[-1.622503,52.036043],[-1.624156,52.036089],[-1.62415,52.036694],[-1.625078,52.037123],[-1.624733,52.037356],[-1.625111,52.037671],[-1.624101,52.038507],[-1.62446,52.038953],[-1.626775,52.038435],[-1.626854,52.0379],[-1.628093,52.037418],[-1.628479,52.036874],[-1.629132,52.037274],[-1.629705,52.036753],[-1.63127,52.036455],[-1.632269,52.03589],[-1.6349,52.036992],[-1.635572,52.036636],[-1.636031,52.036906],[-1.635695,52.037148],[-1.636648,52.037021],[-1.636941,52.037498],[-1.63702,52.036979],[-1.637945,52.037057],[-1.638507,52.036753],[-1.639213,52.03724],[-1.6432,52.035326],[-1.643944,52.035286],[-1.643614,52.03576],[-1.644179,52.035718],[-1.644638,52.035438],[-1.644054,52.034943],[-1.644465,52.034418],[-1.645236,52.034624],[-1.645417,52.034237],[-1.645489,52.034805],[-1.646106,52.034661],[-1.646337,52.035099],[-1.647116,52.034493],[-1.648083,52.034246],[-1.648089,52.034005],[-1.649345,52.034306],[-1.649275,52.034648],[-1.650221,52.03467],[-1.650888,52.035172],[-1.651272,52.035208],[-1.651366,52.034922],[-1.651826,52.035248],[-1.652174,52.034959],[-1.652246,52.035363],[-1.653582,52.0354],[-1.655679,52.034713],[-1.656369,52.032703],[-1.656045,52.032426],[-1.656547,52.032115],[-1.659102,52.031644],[-1.659975,52.032],[-1.660331,52.031784],[-1.660103,52.031504],[-1.663305,52.031646],[-1.663824,52.031267],[-1.66481,52.031775],[-1.664953,52.032583],[-1.66583,52.033281],[-1.665705,52.033584],[-1.666017,52.033548],[-1.666049,52.034404],[-1.667452,52.036244],[-1.670653,52.036713],[-1.671762,52.036275],[-1.673287,52.036309],[-1.673394,52.036025],[-1.675417,52.03653],[-1.675276,52.036804],[-1.675872,52.036697],[-1.67599,52.036958],[-1.676401,52.036717],[-1.677731,52.03704],[-1.677553,52.036706],[-1.678117,52.036496],[-1.678345,52.036989],[-1.679405,52.036795],[-1.681086,52.037395],[-1.683103,52.037538],[-1.683265,52.037326],[-1.683725,52.037799],[-1.685712,52.037379],[-1.685963,52.037685],[-1.687385,52.037799],[-1.687445,52.037467],[-1.689736,52.038185],[-1.68953,52.038326],[-1.690819,52.038795],[-1.691291,52.039485],[-1.691861,52.039351],[-1.691742,52.039711],[-1.693981,52.039528],[-1.695002,52.040525],[-1.694796,52.042939],[-1.693041,52.045006],[-1.691164,52.048243],[-1.690606,52.051448],[-1.688636,52.051833],[-1.690013,52.053181],[-1.69018,52.054736],[-1.692153,52.05435],[-1.699673,52.054648],[-1.702493,52.056177],[-1.702958,52.05741],[-1.705053,52.059634],[-1.70545,52.061456],[-1.704064,52.063138],[-1.703345,52.067664],[-1.701485,52.070357],[-1.701699,52.072834],[-1.70789,52.072507],[-1.709859,52.073306],[-1.712213,52.070508],[-1.712659,52.068027],[-1.711841,52.06661],[-1.713112,52.066553],[-1.714306,52.066701],[-1.716993,52.06811],[-1.724267,52.069492],[-1.72488,52.069991],[-1.727128,52.070703],[-1.727748,52.071328],[-1.728811,52.071573],[-1.728118,52.072728],[-1.730656,52.073291],[-1.728184,52.081448],[-1.729067,52.081514],[-1.729452,52.084066],[-1.729129,52.084131],[-1.7291,52.085444],[-1.728071,52.088384],[-1.728085,52.088721],[-1.728848,52.08876],[-1.728398,52.090974],[-1.728683,52.091725],[-1.729264,52.091977],[-1.730165,52.091582],[-1.730508,52.092786],[-1.73019,52.095246],[-1.729635,52.095255],[-1.728543,52.097998],[-1.728561,52.10012],[-1.728729,52.099494],[-1.729868,52.098936],[-1.730226,52.09794],[-1.732185,52.096962],[-1.732916,52.094971],[-1.73856,52.091358],[-1.740394,52.091426],[-1.747035,52.093287],[-1.747964,52.094087],[-1.750908,52.095475],[-1.751815,52.097005],[-1.753631,52.097624],[-1.754822,52.099324],[-1.754384,52.099867],[-1.754685,52.10033],[-1.754005,52.100923],[-1.754936,52.101225],[-1.755472,52.101977],[-1.755942,52.101924],[-1.757698,52.103213],[-1.758079,52.104929],[-1.758831,52.10545],[-1.758901,52.106139],[-1.762473,52.107322],[-1.763834,52.108575],[-1.766278,52.109686],[-1.767692,52.112578],[-1.759207,52.114964],[-1.757398,52.115944],[-1.757834,52.11613],[-1.75941,52.115537],[-1.760285,52.116251],[-1.762459,52.115233],[-1.763223,52.116366],[-1.764632,52.115885],[-1.7697,52.115314],[-1.770589,52.116124],[-1.773001,52.116837],[-1.775166,52.118256],[-1.778432,52.118313],[-1.780083,52.119082],[-1.780699,52.119016],[-1.780627,52.120143],[-1.78777,52.119511],[-1.791004,52.120194],[-1.793318,52.121778],[-1.792871,52.122139],[-1.792992,52.122862],[-1.793888,52.122969],[-1.793913,52.123867],[-1.795774,52.124442],[-1.793318,52.125464],[-1.793125,52.12654],[-1.792237,52.127122],[-1.79277,52.127824],[-1.79168,52.128572],[-1.790273,52.128951],[-1.790246,52.129403],[-1.789208,52.129845],[-1.789925,52.130486],[-1.786583,52.131367],[-1.786271,52.131845],[-1.785548,52.132059],[-1.79967,52.136277],[-1.801521,52.136984],[-1.802346,52.137637],[-1.808434,52.139876],[-1.810888,52.13992],[-1.81732,52.138596],[-1.823217,52.136382],[-1.824854,52.137449],[-1.824498,52.137692],[-1.825087,52.138291],[-1.824612,52.138725],[-1.827845,52.141245],[-1.825443,52.141812],[-1.825304,52.14271],[-1.823348,52.145925],[-1.828674,52.146346],[-1.83147,52.145674],[-1.831004,52.148307],[-1.833543,52.148137],[-1.83752,52.150437],[-1.839319,52.151803],[-1.839672,52.152714],[-1.84823,52.149973],[-1.847563,52.148634],[-1.851904,52.14797],[-1.850971,52.146471],[-1.846908,52.147186],[-1.84581,52.142654],[-1.847295,52.141888],[-1.848337,52.140347],[-1.849837,52.139384],[-1.854188,52.138521],[-1.859708,52.140509],[-1.863266,52.142846],[-1.866962,52.14464],[-1.865725,52.145964],[-1.863877,52.147038],[-1.866802,52.150068],[-1.866107,52.150305],[-1.866927,52.153008],[-1.869075,52.153166],[-1.876407,52.154805],[-1.880541,52.154873],[-1.881621,52.155537],[-1.882125,52.155432],[-1.882781,52.156004],[-1.883884,52.155821],[-1.884292,52.156225],[-1.885522,52.156422],[-1.886527,52.156115],[-1.888944,52.156357],[-1.890072,52.156097],[-1.891812,52.155066],[-1.892067,52.154155],[-1.893853,52.151961],[-1.893507,52.151089],[-1.894918,52.150952],[-1.895188,52.150478],[-1.89423,52.148251],[-1.893839,52.147978],[-1.89333,52.148188],[-1.891343,52.147962],[-1.890475,52.148852],[-1.88973,52.148432],[-1.888377,52.148601],[-1.887057,52.148311],[-1.88634,52.148566],[-1.884967,52.147139],[-1.887073,52.14464],[-1.890577,52.141705],[-1.892904,52.13861],[-1.900216,52.135726],[-1.90126,52.134752],[-1.902603,52.134253],[-1.903238,52.133448],[-1.903553,52.133509],[-1.902427,52.135889],[-1.902188,52.137723],[-1.904184,52.140019],[-1.904357,52.14154],[-1.9051,52.142737],[-1.907323,52.142737],[-1.910886,52.144378],[-1.913432,52.144984],[-1.916878,52.146716],[-1.91838,52.149353],[-1.921852,52.152954],[-1.933626,52.153512],[-1.940053,52.153016],[-1.942127,52.154396],[-1.944302,52.155333],[-1.941982,52.157269],[-1.939227,52.158907],[-1.938962,52.159543],[-1.939527,52.159652],[-1.939693,52.160316],[-1.937736,52.16131],[-1.937299,52.163408],[-1.934119,52.165394],[-1.934957,52.165992],[-1.934554,52.167825],[-1.935343,52.168248],[-1.935483,52.169557],[-1.943475,52.170935],[-1.945546,52.170356],[-1.947215,52.167947],[-1.951369,52.169191],[-1.960407,52.168672],[-1.960448,52.16951],[-1.961966,52.170737],[-1.961628,52.172655],[-1.960675,52.174025],[-1.958658,52.174257],[-1.953207,52.1738],[-1.949349,52.172962],[-1.946687,52.173929],[-1.946181,52.174404],[-1.944628,52.174733],[-1.941641,52.177406],[-1.939776,52.181706],[-1.939452,52.184539],[-1.937709,52.188215],[-1.935693,52.190042],[-1.935756,52.191241],[-1.934841,52.192893],[-1.936576,52.197058],[-1.935666,52.199992],[-1.936477,52.200706],[-1.93645,52.202655],[-1.935966,52.202931],[-1.935527,52.204193],[-1.933628,52.206059],[-1.932025,52.206454],[-1.930204,52.208038],[-1.926928,52.208932],[-1.923073,52.208891],[-1.921852,52.210221],[-1.920075,52.210291],[-1.919772,52.214059],[-1.917293,52.218962],[-1.917488,52.223697],[-1.924134,52.234762],[-1.925444,52.239015],[-1.923922,52.240184],[-1.924651,52.240875],[-1.925432,52.242571],[-1.926215,52.242915],[-1.926697,52.242749],[-1.928181,52.244835],[-1.931911,52.247553],[-1.931241,52.247881],[-1.933669,52.249822],[-1.934611,52.252018],[-1.935328,52.254507],[-1.934411,52.254493],[-1.934779,52.256033],[-1.93421,52.256775],[-1.935415,52.256863],[-1.934114,52.259988],[-1.936573,52.260409],[-1.935814,52.261518],[-1.936415,52.262757],[-1.934765,52.262912],[-1.934387,52.264594],[-1.935749,52.264507],[-1.935837,52.265996],[-1.935134,52.266216],[-1.93521,52.266806],[-1.936213,52.266597],[-1.938074,52.268863],[-1.938687,52.270498],[-1.937403,52.276127],[-1.935422,52.276933],[-1.934267,52.276945],[-1.929253,52.275503],[-1.927655,52.275439],[-1.926025,52.2761],[-1.92113,52.27648],[-1.915977,52.275034],[-1.91438,52.275445],[-1.911661,52.276997],[-1.90317,52.279746],[-1.902855,52.280133],[-1.90358,52.280719],[-1.900654,52.28227],[-1.901032,52.28339],[-1.896679,52.283694],[-1.895499,52.28272],[-1.893419,52.283735],[-1.891385,52.285923],[-1.887198,52.286438],[-1.8864,52.286785],[-1.886148,52.287597],[-1.886808,52.288351],[-1.885589,52.290563],[-1.886545,52.290949],[-1.885865,52.291746],[-1.884393,52.291903],[-1.883696,52.294107],[-1.883195,52.294674],[-1.882621,52.294687],[-1.881423,52.296923],[-1.880509,52.297648],[-1.880201,52.299061],[-1.879379,52.299273],[-1.879451,52.29968],[-1.877696,52.300599],[-1.875996,52.304247],[-1.875229,52.30426],[-1.875207,52.305482],[-1.876289,52.305496],[-1.877529,52.306375],[-1.878598,52.308389],[-1.880953,52.310871],[-1.874813,52.312465],[-1.870378,52.312579],[-1.868469,52.314773],[-1.86717,52.318154],[-1.866638,52.318203],[-1.86751,52.331262],[-1.864877,52.333107],[-1.865368,52.333336],[-1.868449,52.333005],[-1.871196,52.335978],[-1.872827,52.337019],[-1.87476,52.340167],[-1.876075,52.345669],[-1.880064,52.348974],[-1.884871,52.353695],[-1.884546,52.354473],[-1.885169,52.356052],[-1.886617,52.356361],[-1.888974,52.361093],[-1.887805,52.36146],[-1.884318,52.361722],[-1.880863,52.362665],[-1.879658,52.362555],[-1.876666,52.363765],[-1.876125,52.363582],[-1.873463,52.365343],[-1.873687,52.366089],[-1.87202,52.367609],[-1.868216,52.368094],[-1.863309,52.367065],[-1.863146,52.366566]]]}}]}