{"type":"FeatureCollection","features":[{"type":"Feature","properties":{"slug":"sunderland","gss_code":"E08000024","name":"Sunderland"},"geometry":{"type":"MultiPolygon","coordinates":[[[[-1.358376,54.913541],[-1.358736,54.912963],[-1.357282,54.910975],[-1.354523,54.90938],[-1.353915,54.909615],[-1.354674,54.909271],[-1.353593,54.907728],[-1.350705,54.90592],[-1.351413,54.906307],[-1.353049,54.906391],[-1.355357,54.90551],[-1.354868,54.904823],[-1.353682,54.904878],[-1.352893,54.905386],[-1.352281,54.905072],[-1.357294,54.902581],[-1.358201,54.901514],[-1.359721,54.901016],[-1.360937,54.899853],[-1.360661,54.898529],[-1.361607,54.898227],[-1.35999,54.893862],[-1.360481,54.893803],[-1.360824,54.893104],[-1.359464,54.888964],[-1.359789,54.888909],[-1.357998,54.885662],[-1.35806,54.883917],[-1.354063,54.880031],[-1.355624,54.878886],[-1.355999,54.876011],[-1.352568,54.869122],[-1.348014,54.864721],[-1.347608,54.863003],[-1.349065,54.862173],[-1.348486,54.860496],[-1.349142,54.860426],[-1.34944,54.860073],[-1.352357,54.860619],[-1.354078,54.860278],[-1.355787,54.858981],[-1.357344,54.858473],[-1.359523,54.858254],[-1.360181,54.857833],[-1.36042,54.858063],[-1.360908,54.857882],[-1.363927,54.858225],[-1.365338,54.857686],[-1.368961,54.857655],[-1.373809,54.85407],[-1.376781,54.851081],[-1.378569,54.850016],[-1.381663,54.84716],[-1.383919,54.848146],[-1.387157,54.846559],[-1.392535,54.845685],[-1.393412,54.846228],[-1.396463,54.845866],[-1.397294,54.846447],[-1.399499,54.846374],[-1.400004,54.846613],[-1.40475,54.845505],[-1.407509,54.845729],[-1.409187,54.845188],[-1.413547,54.844878],[-1.413555,54.844482],[-1.411954,54.843181],[-1.412013,54.841896],[-1.417561,54.840942],[-1.419195,54.839839],[-1.42158,54.839471],[-1.420744,54.833762],[-1.416599,54.830636],[-1.416139,54.829395],[-1.41693,54.828737],[-1.41558,54.827316],[-1.415687,54.826377],[-1.414274,54.825898],[-1.413122,54.824559],[-1.413059,54.823329],[-1.413295,54.822158],[-1.414394,54.821235],[-1.414184,54.819543],[-1.415616,54.818487],[-1.417689,54.81829],[-1.419088,54.814318],[-1.421639,54.813164],[-1.421863,54.810474],[-1.423898,54.805486],[-1.42268,54.804021],[-1.422543,54.803175],[-1.42433,54.803089],[-1.429326,54.801025],[-1.430229,54.801559],[-1.437531,54.800527],[-1.440708,54.799689],[-1.441312,54.800534],[-1.440259,54.801528],[-1.442877,54.801976],[-1.444022,54.80247],[-1.448267,54.801007],[-1.454601,54.800022],[-1.455061,54.800538],[-1.456421,54.80049],[-1.456033,54.800915],[-1.460174,54.801694],[-1.468028,54.800307],[-1.472349,54.799948],[-1.477878,54.800073],[-1.48005,54.799764],[-1.481905,54.799058],[-1.485092,54.799682],[-1.490726,54.799304],[-1.493531,54.800052],[-1.494331,54.80117],[-1.491099,54.804315],[-1.485024,54.808488],[-1.481856,54.809651],[-1.482229,54.809988],[-1.48433,54.810467],[-1.485338,54.811981],[-1.487504,54.812683],[-1.494306,54.816012],[-1.4923,54.817831],[-1.492004,54.818383],[-1.492393,54.818617],[-1.49029,54.820182],[-1.49374,54.823472],[-1.497509,54.822628],[-1.497812,54.823613],[-1.50428,54.83123],[-1.502892,54.834445],[-1.503318,54.83663],[-1.506223,54.846237],[-1.507055,54.847015],[-1.507802,54.851389],[-1.510262,54.860107],[-1.509785,54.865242],[-1.508239,54.868835],[-1.506531,54.87108],[-1.513541,54.874696],[-1.515066,54.875113],[-1.516674,54.874925],[-1.517091,54.875671],[-1.519195,54.875902],[-1.518192,54.878123],[-1.512754,54.880733],[-1.510492,54.881095],[-1.507407,54.880451],[-1.506336,54.880643],[-1.504327,54.88226],[-1.500763,54.886847],[-1.498228,54.887427],[-1.496205,54.888278],[-1.49372,54.890663],[-1.486944,54.892282],[-1.480756,54.895424],[-1.476923,54.898487],[-1.473852,54.902271],[-1.472339,54.903269],[-1.469213,54.903554],[-1.466913,54.903158],[-1.46478,54.901015],[-1.464042,54.89879],[-1.461996,54.898108],[-1.460795,54.898284],[-1.459291,54.899354],[-1.458469,54.900439],[-1.458312,54.903579],[-1.451805,54.907878],[-1.449342,54.9091],[-1.449052,54.908884],[-1.449115,54.909191],[-1.445793,54.910274],[-1.439276,54.91169],[-1.438778,54.911127],[-1.434999,54.911708],[-1.43384,54.912914],[-1.431717,54.914116],[-1.428003,54.915037],[-1.424929,54.915373],[-1.423565,54.916166],[-1.421469,54.916464],[-1.416703,54.916306],[-1.414447,54.915755],[-1.410995,54.913639],[-1.408681,54.913119],[-1.407918,54.913335],[-1.407482,54.912865],[-1.401871,54.913705],[-1.398274,54.916434],[-1.396837,54.916743],[-1.395315,54.91661],[-1.393664,54.915927],[-1.393641,54.91353],[-1.392038,54.911517],[-1.38738,54.909689],[-1.382085,54.909334],[-1.379319,54.9099],[-1.380218,54.909297],[-1.37894,54.90993],[-1.377167,54.910095],[-1.372068,54.909605],[-1.370838,54.910063],[-1.366485,54.913575],[-1.364055,54.913099],[-1.363906,54.913422],[-1.363828,54.912962],[-1.36201,54.912378],[-1.361561,54.912952],[-1.363761,54.913592],[-1.364411,54.91586],[-1.363309,54.915697],[-1.363393,54.916574],[-1.362569,54.916126],[-1.361867,54.917099],[-1.361325,54.917208],[-1.359567,54.914003],[-1.35857,54.913703],[-1.357477,54.913931],[-1.355348,54.914812],[-1.353973,54.915924],[-1.352813,54.919055],[-1.35316,54.917072],[-1.354044,54.915682],[-1.355701,54.914509],[-1.358376,54.913541]]],[[[-1.364633,54.942131],[-1.366341,54.939841],[-1.36752,54.937008],[-1.367889,54.934428],[-1.367484,54.932953],[-1.365422,54.931146],[-1.365473,54.929708],[-1.366521,54.929278],[-1.36713,54.928537],[-1.365689,54.926412],[-1.36613,54.926108],[-1.363318,54.922889],[-1.360337,54.92313],[-1.358626,54.923098],[-1.355961,54.922694],[-1.352537,54.921397],[-1.356674,54.922744],[-1.360435,54.923044],[-1.363478,54.922769],[-1.363474,54.920042],[-1.362812,54.918716],[-1.362244,54.918494],[-1.360748,54.918884],[-1.360108,54.918712],[-1.363496,54.917694],[-1.364598,54.918349],[-1.365597,54.91796],[-1.365859,54.917395],[-1.366799,54.919555],[-1.367534,54.919787],[-1.368542,54.918477],[-1.367289,54.918203],[-1.367082,54.917753],[-1.368022,54.916817],[-1.369444,54.916122],[-1.369161,54.914019],[-1.370968,54.911705],[-1.373266,54.910852],[-1.377204,54.911174],[-1.383,54.910155],[-1.387006,54.910485],[-1.390564,54.912008],[-1.39162,54.912819],[-1.391652,54.915277],[-1.392142,54.916529],[-1.393499,54.917364],[-1.395821,54.917932],[-1.399489,54.917086],[-1.402659,54.914666],[-1.405881,54.914208],[-1.406279,54.9145],[-1.40977,54.914401],[-1.413884,54.917442],[-1.415009,54.917113],[-1.41733,54.917715],[-1.42077,54.917775],[-1.421045,54.918005],[-1.424731,54.917763],[-1.426575,54.917133],[-1.427177,54.917456],[-1.426982,54.917792],[-1.427624,54.917977],[-1.427115,54.917024],[-1.43282,54.915598],[-1.436667,54.913556],[-1.442153,54.91256],[-1.448898,54.910373],[-1.45191,54.908883],[-1.455224,54.906126],[-1.458403,54.904591],[-1.459631,54.903488],[-1.459484,54.900424],[-1.460607,54.89905],[-1.461687,54.898608],[-1.463041,54.899084],[-1.464236,54.901714],[-1.466709,54.903709],[-1.470142,54.904045],[-1.473471,54.903614],[-1.474863,54.902846],[-1.47723,54.899564],[-1.481246,54.895915],[-1.486219,54.89313],[-1.493934,54.891076],[-1.496929,54.888426],[-1.501268,54.887159],[-1.504552,54.882876],[-1.506597,54.881034],[-1.511574,54.881474],[-1.513836,54.880882],[-1.517695,54.878929],[-1.518255,54.878925],[-1.517959,54.878762],[-1.519121,54.877921],[-1.519949,54.875974],[-1.522912,54.876217],[-1.52564,54.877606],[-1.52737,54.87699],[-1.529022,54.87738],[-1.530013,54.877122],[-1.530789,54.877894],[-1.531782,54.878188],[-1.532853,54.877854],[-1.533374,54.87645],[-1.536154,54.874739],[-1.537481,54.874387],[-1.538959,54.875453],[-1.541568,54.873459],[-1.553116,54.875942],[-1.561914,54.875693],[-1.561991,54.877378],[-1.562428,54.87776],[-1.560366,54.879904],[-1.558592,54.884378],[-1.556129,54.884796],[-1.556263,54.885262],[-1.558155,54.885649],[-1.558655,54.886426],[-1.558528,54.888191],[-1.557219,54.888191],[-1.557062,54.890983],[-1.558308,54.891092],[-1.55852,54.891481],[-1.558195,54.90266],[-1.559781,54.902938],[-1.561612,54.904566],[-1.562785,54.905089],[-1.560092,54.906332],[-1.558673,54.906519],[-1.55707,54.907895],[-1.55708,54.909211],[-1.559826,54.914154],[-1.56034,54.9144],[-1.560037,54.914592],[-1.563133,54.917093],[-1.565542,54.920066],[-1.567154,54.923194],[-1.568891,54.924625],[-1.556705,54.929978],[-1.553265,54.92769],[-1.552171,54.928461],[-1.547133,54.930625],[-1.543053,54.931383],[-1.535687,54.932104],[-1.532574,54.931362],[-1.53072,54.932577],[-1.528577,54.933134],[-1.524687,54.933155],[-1.519024,54.931126],[-1.517244,54.930781],[-1.515661,54.931082],[-1.514519,54.931715],[-1.512089,54.932114],[-1.510012,54.930485],[-1.508175,54.930384],[-1.505315,54.930923],[-1.500264,54.930524],[-1.496336,54.93106],[-1.49197,54.930119],[-1.488673,54.930611],[-1.485637,54.92909],[-1.485331,54.928575],[-1.483587,54.928369],[-1.481967,54.928823],[-1.481901,54.929356],[-1.481113,54.929795],[-1.460576,54.930191],[-1.460919,54.931979],[-1.454749,54.933461],[-1.449093,54.934088],[-1.447911,54.933511],[-1.44251,54.933561],[-1.441601,54.932899],[-1.432785,54.932836],[-1.43183,54.92982],[-1.426366,54.931207],[-1.425989,54.930461],[-1.419371,54.929924],[-1.418504,54.932685],[-1.416878,54.933977],[-1.412472,54.935807],[-1.406814,54.937002],[-1.402669,54.938661],[-1.397138,54.939741],[-1.393393,54.939639],[-1.392014,54.939493],[-1.391664,54.938912],[-1.389328,54.938153],[-1.38722,54.938088],[-1.384291,54.938744],[-1.381086,54.9382],[-1.378821,54.936952],[-1.376992,54.937336],[-1.375683,54.93691],[-1.374349,54.943536],[-1.366152,54.942864],[-1.365715,54.94418],[-1.363966,54.944126],[-1.364633,54.942131]]]]}}]}