{"type":"FeatureCollection","features":[{"type":"Feature","properties":{"slug":"surrey-heath","gss_code":"E07000214","name":"Surrey Heath"},"geometry":{"type":"Polygon","coordinates":[[[-0.594416,51.376526],[-0.587484,51.375048],[-0.579301,51.372174],[-0.574018,51.370838],[-0.5731,51.368102],[-0.572889,51.365511],[-0.571285,51.362374],[-0.569625,51.360337],[-0.560355,51.362015],[-0.555234,51.361936],[-0.550785,51.35654],[-0.550025,51.354264],[-0.551238,51.353271],[-0.548492,51.349164],[-0.548549,51.348021],[-0.548957,51.347578],[-0.549417,51.347822],[-0.549994,51.347667],[-0.551715,51.346073],[-0.553527,51.345142],[-0.557484,51.344768],[-0.557968,51.344951],[-0.559901,51.343832],[-0.560815,51.344098],[-0.561578,51.343807],[-0.561936,51.343245],[-0.563953,51.343064],[-0.566219,51.343551],[-0.567445,51.343183],[-0.56879,51.343334],[-0.569706,51.342827],[-0.572816,51.342299],[-0.573783,51.341515],[-0.573486,51.341291],[-0.574278,51.340994],[-0.573785,51.33827],[-0.576889,51.33631],[-0.578272,51.336093],[-0.582202,51.336502],[-0.587627,51.338244],[-0.589801,51.339866],[-0.608146,51.339695],[-0.615247,51.335942],[-0.613809,51.33348],[-0.61346,51.332158],[-0.616244,51.332036],[-0.6204,51.33318],[-0.622481,51.33445],[-0.623842,51.333632],[-0.62476,51.334787],[-0.625952,51.334782],[-0.625546,51.333483],[-0.626152,51.330493],[-0.625114,51.32901],[-0.625387,51.32849],[-0.624782,51.327538],[-0.626866,51.324479],[-0.626224,51.322126],[-0.625357,51.321118],[-0.625546,51.320781],[-0.624378,51.320699],[-0.623506,51.319906],[-0.624338,51.319224],[-0.62732,51.318775],[-0.627991,51.316445],[-0.633015,51.3144],[-0.634504,51.315277],[-0.637134,51.314467],[-0.636983,51.314182],[-0.646807,51.311886],[-0.671361,51.317365],[-0.672717,51.316446],[-0.675295,51.315521],[-0.687504,51.313813],[-0.6946,51.304638],[-0.69763,51.300032],[-0.698758,51.299311],[-0.699935,51.297843],[-0.700509,51.291445],[-0.697754,51.288775],[-0.703827,51.284039],[-0.70957,51.282445],[-0.715618,51.282071],[-0.718934,51.280412],[-0.719281,51.280505],[-0.720224,51.279285],[-0.723923,51.280088],[-0.728277,51.280489],[-0.729831,51.280022],[-0.731565,51.280601],[-0.731213,51.281362],[-0.732293,51.281337],[-0.733349,51.281791],[-0.73326,51.282411],[-0.733836,51.282806],[-0.733393,51.283401],[-0.733873,51.283791],[-0.73328,51.284034],[-0.733761,51.284434],[-0.734254,51.284376],[-0.735128,51.285433],[-0.735715,51.285441],[-0.735538,51.285768],[-0.735985,51.285945],[-0.735622,51.286254],[-0.736363,51.287526],[-0.736089,51.288353],[-0.737231,51.289674],[-0.736688,51.292424],[-0.738238,51.292897],[-0.738471,51.293647],[-0.739347,51.294026],[-0.739307,51.295125],[-0.739974,51.296127],[-0.738946,51.297032],[-0.739654,51.297287],[-0.739811,51.298658],[-0.738836,51.299751],[-0.739223,51.299915],[-0.739393,51.301355],[-0.740484,51.301923],[-0.740287,51.302343],[-0.741606,51.303688],[-0.741733,51.304749],[-0.742421,51.305027],[-0.742321,51.305538],[-0.74357,51.305715],[-0.743621,51.306544],[-0.744698,51.306905],[-0.74359,51.307456],[-0.743683,51.307861],[-0.744424,51.308233],[-0.744167,51.309295],[-0.746155,51.310001],[-0.746389,51.310618],[-0.747364,51.310433],[-0.748124,51.311071],[-0.747969,51.31134],[-0.748639,51.31163],[-0.749624,51.311447],[-0.751268,51.312561],[-0.752138,51.312439],[-0.753573,51.312795],[-0.754432,51.313491],[-0.755584,51.313509],[-0.756411,51.314021],[-0.756448,51.314667],[-0.758291,51.315926],[-0.758512,51.316769],[-0.759249,51.317162],[-0.761071,51.316944],[-0.761333,51.317344],[-0.762311,51.317465],[-0.763051,51.318353],[-0.763052,51.32041],[-0.763666,51.320826],[-0.763471,51.321404],[-0.764074,51.321768],[-0.764399,51.321552],[-0.765064,51.322661],[-0.766062,51.322901],[-0.765903,51.32348],[-0.764978,51.324097],[-0.764991,51.324668],[-0.766343,51.325951],[-0.768202,51.326676],[-0.7686,51.3276],[-0.769207,51.327866],[-0.770651,51.327531],[-0.772356,51.327896],[-0.772221,51.328458],[-0.77302,51.329017],[-0.772714,51.329353],[-0.773542,51.329457],[-0.7736,51.330171],[-0.774655,51.330621],[-0.775466,51.331959],[-0.77268,51.332843],[-0.768968,51.335486],[-0.764662,51.33703],[-0.761432,51.340409],[-0.758193,51.340568],[-0.759428,51.343521],[-0.756944,51.344296],[-0.755157,51.34548],[-0.752416,51.348541],[-0.749752,51.349934],[-0.748053,51.352348],[-0.744326,51.354563],[-0.741455,51.357118],[-0.735335,51.36501],[-0.731853,51.366431],[-0.724091,51.368466],[-0.710369,51.370653],[-0.697007,51.374395],[-0.664347,51.385739],[-0.658169,51.386281],[-0.6553,51.387246],[-0.652376,51.38679],[-0.650738,51.385663],[-0.647037,51.385932],[-0.646679,51.385384],[-0.640473,51.38738],[-0.639501,51.386631],[-0.638528,51.386659],[-0.636183,51.385187],[-0.634799,51.385099],[-0.634623,51.384753],[-0.632507,51.384304],[-0.628218,51.384235],[-0.625931,51.382873],[-0.624939,51.382883],[-0.620923,51.385172],[-0.619608,51.384822],[-0.619249,51.384992],[-0.618045,51.38338],[-0.616344,51.38354],[-0.617194,51.385817],[-0.618842,51.387463],[-0.620516,51.388475],[-0.623495,51.389543],[-0.621667,51.390047],[-0.618006,51.392056],[-0.618495,51.392388],[-0.616499,51.392408],[-0.608946,51.389841],[-0.607247,51.389677],[-0.605991,51.388372],[-0.604246,51.388095],[-0.603049,51.387251],[-0.59806,51.38628],[-0.594416,51.376526]]]}}]}