{"type":"FeatureCollection","features":[{"type":"Feature","properties":{"slug":"swale","gss_code":"E07000113","name":"Swale"},"geometry":{"type":"MultiPolygon","coordinates":[[[[0.830053,51.356922],[0.833477,51.356417],[0.82978,51.356276],[0.829707,51.356653],[0.829422,51.356296],[0.828928,51.356397],[0.828932,51.356822],[0.828835,51.356367],[0.827854,51.356494],[0.827624,51.357014],[0.827268,51.356956],[0.827615,51.356982],[0.82768,51.356549],[0.826617,51.357226],[0.826758,51.356857],[0.826267,51.35692],[0.826331,51.357418],[0.829219,51.356939],[0.829341,51.35695],[0.828645,51.357271],[0.829015,51.356999],[0.826296,51.357465],[0.826425,51.357972],[0.830053,51.356922]]],[[[0.826072,51.357037],[0.824259,51.357525],[0.824769,51.358147],[0.826192,51.357854],[0.826072,51.357037]]],[[[0.824178,51.357573],[0.822384,51.358294],[0.822396,51.358583],[0.824521,51.358258],[0.824178,51.357573]]],[[[0.881114,51.359802],[0.881247,51.360204],[0.882021,51.359794],[0.881114,51.359802]]],[[[0.876489,51.358943],[0.874665,51.360075],[0.875151,51.360593],[0.876489,51.358943]]],[[[0.879604,51.361217],[0.878404,51.36107],[0.877802,51.359951],[0.877849,51.360309],[0.877361,51.360246],[0.877695,51.35955],[0.876475,51.360645],[0.876566,51.360729],[0.876261,51.361202],[0.876209,51.360666],[0.876876,51.360011],[0.876662,51.359969],[0.875739,51.360969],[0.876236,51.361653],[0.875366,51.361837],[0.876418,51.362506],[0.876926,51.362349],[0.877523,51.362373],[0.878168,51.361755],[0.879604,51.361217]]],[[[0.864771,51.364404],[0.863311,51.364094],[0.862836,51.364339],[0.863136,51.364611],[0.862863,51.36521],[0.864262,51.364938],[0.864771,51.364404]]],[[[0.860574,51.363972],[0.86149,51.365624],[0.86289,51.365037],[0.862599,51.364214],[0.860574,51.363972]]],[[[0.773777,51.367882],[0.773222,51.368074],[0.774028,51.368141],[0.773777,51.367882]]],[[[0.773919,51.367919],[0.774073,51.368152],[0.775501,51.367967],[0.773919,51.367919]]],[[[0.852694,51.365834],[0.853196,51.366114],[0.854226,51.365463],[0.853528,51.365287],[0.854613,51.365266],[0.854484,51.364823],[0.854163,51.364921],[0.85442,51.36481],[0.854533,51.364812],[0.855054,51.364985],[0.854938,51.364672],[0.855353,51.364785],[0.856746,51.363373],[0.851862,51.365324],[0.851583,51.366824],[0.852502,51.366685],[0.85307,51.366215],[0.852694,51.365834]]],[[[0.860492,51.365367],[0.861279,51.365486],[0.860613,51.365237],[0.861217,51.365247],[0.86029,51.364648],[0.860647,51.364544],[0.860363,51.363963],[0.857533,51.364744],[0.858373,51.365335],[0.858492,51.365112],[0.858782,51.364938],[0.85854,51.365132],[0.858735,51.365362],[0.859477,51.365309],[0.858493,51.365522],[0.85853,51.366948],[0.859974,51.366101],[0.861417,51.36567],[0.860492,51.365367]]],[[[0.782448,51.36904],[0.782036,51.369113],[0.782,51.3686],[0.781057,51.369292],[0.782815,51.369487],[0.782448,51.36904]]],[[[0.796463,51.368792],[0.797052,51.36926],[0.797555,51.368937],[0.796463,51.368792]]],[[[0.780343,51.369541],[0.780752,51.369661],[0.78306,51.369586],[0.780343,51.369541]]],[[[0.854677,51.366484],[0.852933,51.367993],[0.853398,51.368396],[0.854884,51.3669],[0.854677,51.366484]]],[[[0.797789,51.369373],[0.797005,51.369523],[0.797318,51.369817],[0.797789,51.369373]]],[[[0.781411,51.369832],[0.780975,51.370173],[0.781342,51.370266],[0.782629,51.369836],[0.781411,51.369832]]],[[[0.796992,51.369578],[0.79657,51.369821],[0.797178,51.370088],[0.797312,51.369865],[0.796839,51.369857],[0.796992,51.369578]]],[[[0.858341,51.368012],[0.858139,51.368145],[0.858615,51.368133],[0.859374,51.368666],[0.859531,51.368339],[0.858341,51.368012]]],[[[0.795485,51.370186],[0.795153,51.370381],[0.795609,51.370456],[0.795851,51.370217],[0.795485,51.370186]]],[[[0.797444,51.369931],[0.797559,51.370242],[0.797341,51.370405],[0.797346,51.370188],[0.79669,51.370432],[0.796665,51.370086],[0.797061,51.370247],[0.797481,51.370127],[0.797385,51.370004],[0.797244,51.370133],[0.796665,51.36992],[0.795962,51.370396],[0.79748,51.370638],[0.798597,51.370405],[0.797444,51.369931]]],[[[0.858603,51.368321],[0.858099,51.368385],[0.85842,51.369635],[0.858603,51.368321]]],[[[0.768572,51.378211],[0.76738,51.377994],[0.767009,51.378064],[0.767318,51.378349],[0.766852,51.378163],[0.767948,51.378715],[0.76744,51.378139],[0.769484,51.378702],[0.768572,51.378211]]],[[[0.76991,51.37923],[0.769106,51.379675],[0.769378,51.379416],[0.768454,51.379038],[0.76908,51.379815],[0.76888,51.380601],[0.769299,51.380412],[0.76991,51.37923]]],[[[0.665797,51.382903],[0.665749,51.383266],[0.666273,51.383177],[0.666111,51.383406],[0.666986,51.383312],[0.665797,51.382903]]],[[[0.701681,51.390042],[0.701043,51.390364],[0.701242,51.390198],[0.700747,51.390166],[0.701441,51.390753],[0.701681,51.390042]]],[[[0.701982,51.390345],[0.701651,51.390599],[0.701986,51.390882],[0.702324,51.390685],[0.701982,51.390345]]],[[[0.663078,51.393475],[0.662863,51.39371],[0.663284,51.393858],[0.663495,51.393527],[0.663078,51.393475]]],[[[0.663415,51.393797],[0.663329,51.394072],[0.663673,51.394003],[0.663415,51.393797]]],[[[0.664284,51.394226],[0.662843,51.394435],[0.663047,51.394908],[0.663061,51.394567],[0.664027,51.394327],[0.66354,51.394949],[0.665241,51.395308],[0.664284,51.394226]]],[[[0.682517,51.395581],[0.680723,51.395002],[0.67797,51.393171],[0.674952,51.391908],[0.67256,51.389831],[0.672399,51.390415],[0.673332,51.390618],[0.671598,51.391794],[0.669194,51.39267],[0.669228,51.39288],[0.669675,51.392564],[0.670033,51.392758],[0.669492,51.393498],[0.669695,51.393773],[0.67042,51.393772],[0.670801,51.394424],[0.672027,51.394879],[0.673505,51.395038],[0.673805,51.39477],[0.673495,51.395376],[0.674626,51.395534],[0.674764,51.395967],[0.674327,51.39589],[0.674985,51.396126],[0.67759,51.39682],[0.679491,51.396951],[0.681781,51.396542],[0.682517,51.395581]]],[[[0.737046,51.395333],[0.736484,51.39594],[0.737744,51.395713],[0.737046,51.395333]]],[[[0.698259,51.402102],[0.698125,51.402604],[0.698814,51.402193],[0.698259,51.402102]]],[[[0.70231,51.409393],[0.701656,51.409295],[0.701579,51.409524],[0.700914,51.408675],[0.700244,51.409564],[0.701136,51.409787],[0.700028,51.409598],[0.699619,51.409979],[0.700242,51.409916],[0.700395,51.410257],[0.70231,51.409393]]],[[[0.698528,51.410161],[0.698278,51.410806],[0.699227,51.410686],[0.698751,51.410384],[0.698967,51.410198],[0.698528,51.410161]]],[[[0.685577,51.411934],[0.689265,51.412345],[0.690051,51.412],[0.690539,51.412161],[0.691199,51.411674],[0.690472,51.410923],[0.691027,51.410217],[0.691038,51.409293],[0.690381,51.405331],[0.691418,51.402543],[0.695195,51.398155],[0.695313,51.397625],[0.69451,51.396764],[0.691706,51.396695],[0.68991,51.397287],[0.687294,51.397359],[0.68668,51.397523],[0.68681,51.397716],[0.686416,51.397573],[0.686384,51.398343],[0.685854,51.398835],[0.684904,51.398005],[0.683715,51.398091],[0.680504,51.399298],[0.680355,51.399947],[0.676585,51.399551],[0.672876,51.39869],[0.672639,51.398406],[0.672434,51.398682],[0.673003,51.398829],[0.672695,51.399658],[0.671198,51.401267],[0.67141,51.401492],[0.671983,51.400985],[0.673772,51.401408],[0.674035,51.402255],[0.672899,51.402583],[0.672964,51.402876],[0.671283,51.40373],[0.671808,51.404418],[0.6716,51.40498],[0.671019,51.404707],[0.670092,51.405183],[0.669792,51.406642],[0.670434,51.406676],[0.670202,51.406161],[0.671429,51.406821],[0.671378,51.407068],[0.668557,51.407037],[0.668324,51.40641],[0.668894,51.406034],[0.666559,51.405855],[0.665929,51.406282],[0.665554,51.407307],[0.665802,51.40786],[0.667519,51.409203],[0.669991,51.409346],[0.672103,51.410174],[0.673374,51.408089],[0.674453,51.40833],[0.674138,51.407725],[0.675554,51.40741],[0.675607,51.406692],[0.676294,51.406725],[0.676771,51.406309],[0.677909,51.406389],[0.679286,51.407064],[0.679449,51.407613],[0.676761,51.407982],[0.675071,51.40871],[0.675504,51.408989],[0.679097,51.409294],[0.682494,51.40898],[0.682958,51.41004],[0.682539,51.410218],[0.682203,51.411915],[0.682392,51.412632],[0.685577,51.411934]]],[[[0.709502,51.418603],[0.709868,51.418905],[0.710205,51.418743],[0.709502,51.418603]]],[[[0.722574,51.418181],[0.722244,51.418497],[0.722091,51.41849],[0.721865,51.41831],[0.722069,51.418118],[0.722145,51.418478],[0.722526,51.418134],[0.722828,51.418296],[0.722777,51.41838],[0.723432,51.418195],[0.723515,51.417633],[0.722625,51.417472],[0.722826,51.417759],[0.723196,51.417596],[0.723091,51.41787],[0.72315,51.417638],[0.722847,51.417802],[0.72249,51.417426],[0.722092,51.41768],[0.722446,51.417676],[0.722602,51.417886],[0.721844,51.418108],[0.721051,51.41802],[0.720604,51.418424],[0.722421,51.419079],[0.722805,51.418735],[0.722423,51.418633],[0.722574,51.418181]]],[[[0.711848,51.418979],[0.710241,51.41906],[0.710237,51.41876],[0.70963,51.419287],[0.711818,51.419308],[0.711848,51.418979]]],[[[0.730527,51.417805],[0.729395,51.419419],[0.729959,51.418987],[0.729689,51.419481],[0.730957,51.418994],[0.731178,51.418335],[0.730588,51.418388],[0.730504,51.418169],[0.731151,51.417064],[0.730561,51.418115],[0.730661,51.418368],[0.731206,51.418224],[0.731156,51.417519],[0.73195,51.416856],[0.731621,51.416331],[0.731282,51.416726],[0.73159,51.415884],[0.731512,51.416346],[0.731613,51.416305],[0.732037,51.416425],[0.732132,51.414977],[0.731427,51.41511],[0.731141,51.414877],[0.730826,51.415183],[0.731317,51.415529],[0.730776,51.415288],[0.729639,51.415727],[0.73067,51.415433],[0.731391,51.415948],[0.731354,51.416038],[0.730527,51.417805]]],[[[0.707714,51.419778],[0.709263,51.419942],[0.708069,51.41934],[0.706067,51.419846],[0.70742,51.420036],[0.707714,51.419778]]],[[[0.729878,51.418557],[0.729378,51.418728],[0.729175,51.418406],[0.729898,51.418506],[0.730452,51.417732],[0.729647,51.418273],[0.729199,51.418253],[0.729188,51.417851],[0.728726,51.417915],[0.729038,51.418133],[0.729125,51.418193],[0.728738,51.418673],[0.728244,51.418445],[0.728431,51.418929],[0.728834,51.418862],[0.728002,51.419466],[0.729325,51.419291],[0.729878,51.418557]]],[[[0.730533,51.415573],[0.729545,51.416007],[0.730698,51.416106],[0.730591,51.415859],[0.730783,51.416136],[0.729058,51.416255],[0.729305,51.416094],[0.728372,51.416496],[0.729028,51.416815],[0.728379,51.417005],[0.728315,51.416531],[0.727061,51.417049],[0.727365,51.417219],[0.726834,51.417484],[0.727275,51.417235],[0.725871,51.417572],[0.726082,51.417268],[0.724637,51.417444],[0.724628,51.41771],[0.723935,51.417559],[0.724052,51.418132],[0.724676,51.417976],[0.724069,51.418291],[0.72392,51.418083],[0.723915,51.418825],[0.725601,51.419466],[0.72575,51.418959],[0.725046,51.419076],[0.725784,51.418596],[0.725822,51.41954],[0.726697,51.419742],[0.726823,51.419498],[0.727171,51.419759],[0.727953,51.419524],[0.727923,51.419459],[0.728492,51.418947],[0.727235,51.418973],[0.728342,51.418705],[0.727685,51.418557],[0.727233,51.418189],[0.727834,51.418469],[0.728624,51.418198],[0.728594,51.418578],[0.729038,51.418133],[0.728665,51.418007],[0.728671,51.417873],[0.729453,51.417807],[0.728242,51.417528],[0.727761,51.417062],[0.728371,51.417187],[0.728258,51.417485],[0.72894,51.417332],[0.728975,51.417658],[0.729674,51.417756],[0.729611,51.418192],[0.729975,51.417685],[0.73056,51.41757],[0.730239,51.417535],[0.730185,51.417191],[0.729928,51.417377],[0.729629,51.417367],[0.729922,51.417328],[0.72957,51.417055],[0.730311,51.417108],[0.730264,51.417499],[0.730616,51.417471],[0.730915,51.416858],[0.730001,51.41675],[0.730945,51.41678],[0.730543,51.416409],[0.731055,51.416596],[0.731354,51.416038],[0.730533,51.415573]]],[[[0.709417,51.419971],[0.709498,51.420238],[0.710206,51.420224],[0.709417,51.419971]]],[[[0.71193,51.419877],[0.710896,51.419965],[0.712267,51.4202],[0.712689,51.420026],[0.71193,51.419877]]],[[[0.714998,51.420207],[0.714279,51.420426],[0.71521,51.420436],[0.714998,51.420207]]],[[[0.712887,51.420149],[0.714195,51.420657],[0.714172,51.420471],[0.714464,51.420203],[0.712887,51.420149]]],[[[0.716856,51.420415],[0.716717,51.420064],[0.71613,51.420164],[0.716385,51.420506],[0.716072,51.420146],[0.715103,51.420247],[0.715549,51.420696],[0.715781,51.42046],[0.717406,51.420756],[0.716856,51.420415]]],[[[0.705891,51.419795],[0.705008,51.419259],[0.704403,51.419707],[0.704725,51.419243],[0.703638,51.41946],[0.703496,51.419246],[0.703293,51.419605],[0.703382,51.419249],[0.703738,51.419231],[0.703456,51.419026],[0.70424,51.418581],[0.704119,51.418992],[0.704542,51.418769],[0.705506,51.418951],[0.706062,51.419502],[0.707244,51.419083],[0.708882,51.419102],[0.708605,51.418691],[0.707702,51.418478],[0.706211,51.41878],[0.705098,51.41859],[0.705956,51.418029],[0.70529,51.418071],[0.707574,51.417689],[0.707155,51.418085],[0.708266,51.417923],[0.708057,51.418154],[0.709052,51.418409],[0.708996,51.418059],[0.709998,51.417388],[0.70815,51.417586],[0.710977,51.417094],[0.710223,51.417275],[0.710272,51.417564],[0.71064,51.4174],[0.710755,51.417398],[0.710979,51.417974],[0.711188,51.417934],[0.710942,51.417715],[0.710971,51.41765],[0.711073,51.417621],[0.711904,51.417758],[0.711007,51.417661],[0.711268,51.41788],[0.711203,51.418014],[0.710994,51.418077],[0.710665,51.417426],[0.709894,51.417909],[0.710182,51.418021],[0.709286,51.418119],[0.709385,51.418359],[0.710119,51.418455],[0.710122,51.418242],[0.710844,51.41873],[0.710976,51.418264],[0.711193,51.418696],[0.711669,51.418454],[0.711353,51.418305],[0.711698,51.418435],[0.711647,51.418571],[0.712117,51.418677],[0.712413,51.419217],[0.713798,51.419591],[0.713963,51.419193],[0.713691,51.41896],[0.71389,51.418592],[0.712897,51.418566],[0.713358,51.418434],[0.712873,51.418254],[0.714358,51.418705],[0.713739,51.41896],[0.714544,51.419433],[0.715385,51.418952],[0.714466,51.418727],[0.714859,51.418539],[0.714537,51.418743],[0.715211,51.418759],[0.715373,51.418861],[0.715414,51.419029],[0.714879,51.419431],[0.714043,51.419439],[0.715413,51.419591],[0.717397,51.41918],[0.716456,51.419147],[0.720408,51.418553],[0.721416,51.417552],[0.719937,51.417668],[0.720363,51.41741],[0.721673,51.417573],[0.721757,51.418053],[0.722417,51.417804],[0.722053,51.417731],[0.722154,51.417385],[0.720314,51.417173],[0.723373,51.417494],[0.723552,51.417604],[0.723459,51.418562],[0.723477,51.418233],[0.722502,51.418512],[0.722888,51.418762],[0.722677,51.419196],[0.723042,51.419313],[0.723542,51.418921],[0.72426,51.419194],[0.723719,51.419033],[0.723122,51.419405],[0.725083,51.4203],[0.726084,51.420427],[0.725354,51.4201],[0.725195,51.419771],[0.725194,51.419562],[0.725795,51.419752],[0.725256,51.419769],[0.725491,51.420126],[0.726176,51.420056],[0.726347,51.420486],[0.727789,51.420448],[0.727789,51.419942],[0.727874,51.42035],[0.729241,51.419936],[0.728963,51.419619],[0.727531,51.419813],[0.726581,51.419804],[0.724211,51.41902],[0.723639,51.418733],[0.723827,51.417495],[0.726696,51.417128],[0.729367,51.415834],[0.726183,51.417081],[0.723645,51.417361],[0.720137,51.416925],[0.717323,51.414834],[0.717661,51.414661],[0.717451,51.414332],[0.717002,51.414485],[0.716681,51.413628],[0.717149,51.413929],[0.717079,51.413482],[0.716211,51.413102],[0.717351,51.412896],[0.716877,51.412621],[0.718275,51.411609],[0.717825,51.410909],[0.718469,51.409883],[0.718224,51.410679],[0.718655,51.410564],[0.718449,51.410814],[0.718989,51.410704],[0.719359,51.41],[0.718717,51.410048],[0.718815,51.410324],[0.718674,51.410048],[0.718867,51.409765],[0.719698,51.409766],[0.719555,51.40939],[0.719234,51.409531],[0.719376,51.40926],[0.718786,51.409608],[0.71919,51.409146],[0.719916,51.409197],[0.719935,51.40895],[0.719575,51.409033],[0.721148,51.407891],[0.720167,51.408779],[0.721153,51.408465],[0.721716,51.40686],[0.721582,51.407485],[0.722284,51.406833],[0.721638,51.406738],[0.721684,51.406146],[0.722728,51.405227],[0.722359,51.405909],[0.723078,51.405824],[0.723459,51.404749],[0.722592,51.404838],[0.722995,51.405135],[0.722281,51.404714],[0.723147,51.404377],[0.724203,51.403348],[0.726437,51.399018],[0.72715,51.398911],[0.728077,51.398051],[0.73014,51.396981],[0.734751,51.395657],[0.735804,51.394149],[0.738573,51.39596],[0.743455,51.393883],[0.748012,51.390413],[0.749253,51.389973],[0.749211,51.38939],[0.750194,51.388805],[0.749735,51.388937],[0.74978,51.388685],[0.750687,51.388477],[0.751291,51.387938],[0.75078,51.387901],[0.75467,51.386281],[0.758862,51.385243],[0.759034,51.384273],[0.758443,51.383244],[0.75896,51.383137],[0.76051,51.385124],[0.762731,51.384336],[0.762373,51.384145],[0.762073,51.384375],[0.7623,51.384076],[0.762968,51.384002],[0.763261,51.383501],[0.762469,51.383606],[0.763108,51.383447],[0.762997,51.383257],[0.763354,51.383375],[0.763538,51.382372],[0.763124,51.382249],[0.762793,51.382821],[0.763091,51.382186],[0.763609,51.382251],[0.763713,51.381956],[0.763183,51.38164],[0.763627,51.381597],[0.763512,51.380879],[0.763113,51.380941],[0.763275,51.3802],[0.762987,51.379961],[0.763075,51.380614],[0.762711,51.379372],[0.762984,51.379157],[0.762395,51.378649],[0.762783,51.378253],[0.762621,51.378066],[0.762251,51.378535],[0.760527,51.377219],[0.761232,51.376849],[0.760938,51.377244],[0.761498,51.377346],[0.761495,51.376944],[0.761901,51.377338],[0.761726,51.376947],[0.762267,51.377261],[0.761997,51.377],[0.762361,51.376879],[0.761939,51.376545],[0.760403,51.377141],[0.759944,51.376819],[0.762029,51.376017],[0.761645,51.375191],[0.761512,51.375966],[0.761066,51.375808],[0.761524,51.37573],[0.761606,51.374893],[0.761344,51.375008],[0.761326,51.375547],[0.76097,51.375217],[0.760961,51.375698],[0.760477,51.375718],[0.760789,51.376026],[0.760277,51.375877],[0.759776,51.376684],[0.759124,51.376361],[0.759946,51.375948],[0.759287,51.375793],[0.759877,51.375902],[0.760665,51.375293],[0.759494,51.375511],[0.760276,51.375153],[0.759897,51.374821],[0.760064,51.374554],[0.7605,51.375182],[0.760487,51.374652],[0.760811,51.375066],[0.760765,51.374679],[0.761223,51.37475],[0.760218,51.374426],[0.760332,51.374136],[0.760788,51.374271],[0.760498,51.373855],[0.76122,51.37446],[0.76099,51.373778],[0.760604,51.373723],[0.761046,51.3729],[0.760627,51.372103],[0.759816,51.371641],[0.759382,51.370271],[0.760857,51.369907],[0.761717,51.369219],[0.761641,51.367958],[0.762624,51.367885],[0.763235,51.367401],[0.763371,51.365424],[0.764455,51.36303],[0.763652,51.362597],[0.76028,51.362644],[0.761042,51.362489],[0.760638,51.362177],[0.760011,51.362626],[0.760322,51.362087],[0.759658,51.361956],[0.75893,51.362308],[0.75921,51.36168],[0.758451,51.361744],[0.756979,51.36093],[0.758096,51.360992],[0.757801,51.360714],[0.756953,51.360763],[0.757745,51.360624],[0.757293,51.359877],[0.757448,51.358648],[0.756972,51.358463],[0.757484,51.358563],[0.757424,51.358153],[0.756516,51.357936],[0.757386,51.358034],[0.757245,51.357268],[0.756907,51.357419],[0.75723,51.35711],[0.756879,51.356867],[0.756097,51.357142],[0.756029,51.356675],[0.756965,51.356576],[0.756303,51.356558],[0.755426,51.355946],[0.756865,51.355775],[0.755541,51.353491],[0.754757,51.353244],[0.752671,51.351538],[0.752908,51.351186],[0.751461,51.350942],[0.751602,51.350479],[0.750596,51.350662],[0.751628,51.351533],[0.750291,51.350572],[0.7484,51.350413],[0.748353,51.350638],[0.74366,51.349154],[0.742642,51.348237],[0.743431,51.347109],[0.742037,51.345932],[0.741318,51.345984],[0.739395,51.347194],[0.738414,51.347232],[0.735999,51.34627],[0.734745,51.346122],[0.734555,51.345808],[0.736977,51.346252],[0.73722,51.345732],[0.737554,51.346366],[0.738676,51.346616],[0.74241,51.34532],[0.743283,51.346053],[0.743813,51.345713],[0.74399,51.344892],[0.744016,51.345923],[0.743412,51.346229],[0.74409,51.346993],[0.743712,51.34829],[0.74507,51.349019],[0.748569,51.35],[0.749567,51.3484],[0.749807,51.348543],[0.74905,51.349475],[0.749276,51.349797],[0.750843,51.350009],[0.752673,51.349666],[0.75442,51.35039],[0.757606,51.354609],[0.759102,51.359393],[0.76031,51.360698],[0.764152,51.360878],[0.7642,51.361176],[0.764521,51.360893],[0.765949,51.362169],[0.76835,51.362422],[0.770689,51.362313],[0.774559,51.361422],[0.777843,51.361744],[0.782176,51.360808],[0.806416,51.359921],[0.810791,51.359248],[0.814414,51.35819],[0.814723,51.356832],[0.813749,51.3555],[0.809726,51.353017],[0.809893,51.353657],[0.810713,51.354031],[0.809877,51.353686],[0.809434,51.352497],[0.809803,51.35292],[0.810203,51.352885],[0.809154,51.351524],[0.809702,51.351686],[0.810047,51.35106],[0.809394,51.351346],[0.810787,51.350544],[0.812844,51.350011],[0.813984,51.349286],[0.813987,51.347833],[0.810815,51.347252],[0.811709,51.346528],[0.813702,51.347028],[0.814568,51.346769],[0.81459,51.347404],[0.816452,51.346294],[0.814811,51.347558],[0.815077,51.348864],[0.814293,51.350166],[0.811793,51.351302],[0.811187,51.352077],[0.812912,51.353141],[0.812634,51.352546],[0.817193,51.356353],[0.821544,51.35561],[0.822465,51.354672],[0.822806,51.354912],[0.82338,51.354654],[0.828257,51.354598],[0.82856,51.354293],[0.832044,51.35405],[0.834479,51.354357],[0.836759,51.354197],[0.837849,51.353788],[0.842922,51.354519],[0.84836,51.354573],[0.851779,51.354251],[0.852208,51.354341],[0.851824,51.354488],[0.855779,51.355249],[0.858444,51.35535],[0.858928,51.35556],[0.858397,51.355434],[0.858712,51.355726],[0.862249,51.356334],[0.866161,51.355852],[0.871902,51.354428],[0.87435,51.354263],[0.877487,51.35324],[0.877311,51.353036],[0.877857,51.35308],[0.879229,51.352107],[0.879341,51.351761],[0.878623,51.35128],[0.879452,51.351789],[0.879875,51.351663],[0.882807,51.349377],[0.886104,51.347836],[0.887736,51.346561],[0.889295,51.346587],[0.892969,51.345064],[0.89679,51.344626],[0.897167,51.344191],[0.895094,51.343352],[0.895079,51.343082],[0.89417,51.342975],[0.893706,51.342522],[0.893562,51.341673],[0.894348,51.341506],[0.894406,51.340851],[0.893949,51.34067],[0.894443,51.340565],[0.894379,51.339529],[0.894153,51.339033],[0.893193,51.338947],[0.894102,51.33893],[0.894209,51.338242],[0.892584,51.335033],[0.890988,51.334105],[0.886267,51.333489],[0.884859,51.332996],[0.883592,51.331739],[0.881977,51.331129],[0.88181,51.330184],[0.88005,51.328704],[0.882048,51.329549],[0.884854,51.332133],[0.885995,51.331944],[0.885581,51.332519],[0.892254,51.334079],[0.894603,51.336339],[0.896445,51.335084],[0.898973,51.333943],[0.903394,51.335531],[0.905374,51.335369],[0.905273,51.334342],[0.905753,51.334061],[0.905636,51.333838],[0.907122,51.334354],[0.907119,51.334066],[0.90622,51.333703],[0.908045,51.334199],[0.907534,51.334169],[0.90714,51.334556],[0.905549,51.334345],[0.906027,51.335272],[0.9096,51.334918],[0.908935,51.334209],[0.909781,51.334893],[0.911207,51.333935],[0.912073,51.331564],[0.915285,51.329452],[0.915393,51.328715],[0.915031,51.328805],[0.914637,51.328203],[0.912964,51.328375],[0.914581,51.328165],[0.914683,51.328186],[0.915244,51.328743],[0.915464,51.327837],[0.914808,51.326897],[0.913852,51.326669],[0.911221,51.326888],[0.907854,51.324506],[0.902822,51.322752],[0.89472,51.320963],[0.892953,51.319777],[0.893672,51.320785],[0.890488,51.31802],[0.888493,51.317551],[0.887543,51.318071],[0.887913,51.317492],[0.887405,51.317654],[0.888237,51.317204],[0.890585,51.317977],[0.895535,51.320771],[0.902389,51.322303],[0.902717,51.322263],[0.902511,51.320282],[0.902931,51.322421],[0.909427,51.324623],[0.909606,51.325429],[0.911214,51.326494],[0.91277,51.326375],[0.911531,51.325655],[0.912926,51.326419],[0.914302,51.326319],[0.915512,51.326815],[0.916369,51.328212],[0.917053,51.328262],[0.916479,51.327999],[0.916545,51.327619],[0.916528,51.327978],[0.917103,51.32824],[0.916685,51.328468],[0.916348,51.328266],[0.915998,51.327824],[0.915931,51.329192],[0.916797,51.329165],[0.915933,51.32928],[0.913219,51.331946],[0.911448,51.334602],[0.909987,51.335437],[0.904007,51.33666],[0.901616,51.336163],[0.899299,51.335011],[0.898326,51.335124],[0.896711,51.335927],[0.89639,51.336136],[0.899279,51.336301],[0.896356,51.336213],[0.895794,51.336619],[0.896003,51.34047],[0.89634,51.34109],[0.897279,51.340816],[0.896366,51.341135],[0.896773,51.341438],[0.89963,51.341778],[0.904744,51.343054],[0.91062,51.343865],[0.914545,51.343483],[0.915705,51.343649],[0.915484,51.343877],[0.915986,51.344047],[0.916498,51.343826],[0.917716,51.344212],[0.917788,51.343851],[0.917835,51.344234],[0.918512,51.344409],[0.918914,51.34391],[0.922166,51.344314],[0.9229,51.344614],[0.922564,51.344573],[0.922448,51.344891],[0.922033,51.344951],[0.92241,51.344804],[0.922213,51.34435],[0.918849,51.344005],[0.918824,51.344498],[0.921016,51.345333],[0.918826,51.344575],[0.918281,51.345133],[0.918691,51.344525],[0.91711,51.344152],[0.917249,51.345019],[0.916684,51.344718],[0.91683,51.344183],[0.915961,51.344832],[0.916013,51.344571],[0.915246,51.344718],[0.914845,51.343926],[0.914137,51.344364],[0.914293,51.344684],[0.91703,51.345201],[0.922051,51.345546],[0.928225,51.345298],[0.933511,51.346538],[0.936383,51.346882],[0.939358,51.346818],[0.950417,51.345603],[0.958078,51.337947],[0.9611,51.337525],[0.962754,51.336933],[0.963907,51.335948],[0.965237,51.336557],[0.967678,51.336357],[0.967593,51.337151],[0.971965,51.338244],[0.972369,51.336502],[0.973726,51.335305],[0.990575,51.324629],[1.000949,51.318988],[1.00511,51.319687],[1.007887,51.319594],[1.009595,51.318674],[1.012461,51.318177],[1.015066,51.316736],[1.015248,51.316272],[1.014815,51.316309],[1.015974,51.314046],[1.017101,51.312909],[1.014571,51.312352],[1.0143,51.312046],[1.013623,51.312219],[1.011818,51.311834],[1.006652,51.309541],[1.007575,51.307806],[1.00922,51.307078],[1.009073,51.305716],[1.010328,51.304935],[1.010201,51.304076],[1.011058,51.302813],[1.004051,51.288179],[1.005968,51.283783],[0.997565,51.280632],[0.996203,51.2809],[0.993687,51.279724],[0.99057,51.27905],[0.989195,51.279005],[0.988706,51.279604],[0.985574,51.278157],[0.983224,51.277588],[0.981752,51.277671],[0.983193,51.27467],[0.980167,51.27458],[0.977169,51.272477],[0.977,51.270172],[0.974635,51.269632],[0.973279,51.268595],[0.971971,51.269193],[0.97006,51.26935],[0.968189,51.269262],[0.964906,51.268052],[0.9615,51.268632],[0.958151,51.268505],[0.955032,51.270246],[0.955294,51.269183],[0.954194,51.267264],[0.954343,51.266609],[0.952423,51.265602],[0.950306,51.262356],[0.950148,51.260614],[0.951112,51.25758],[0.949122,51.256034],[0.941923,51.253441],[0.937968,51.253368],[0.933519,51.255765],[0.933423,51.256515],[0.931332,51.258027],[0.92693,51.259607],[0.923728,51.259415],[0.921864,51.258141],[0.920651,51.257742],[0.920108,51.256873],[0.919891,51.254957],[0.920849,51.252577],[0.91953,51.251103],[0.916775,51.25125],[0.910281,51.2502],[0.909785,51.250689],[0.905321,51.250186],[0.903705,51.24906],[0.906398,51.247794],[0.904973,51.245595],[0.902374,51.24524],[0.896725,51.247017],[0.892057,51.247636],[0.891411,51.246716],[0.888651,51.245081],[0.882455,51.242865],[0.881141,51.241258],[0.880052,51.239026],[0.876318,51.240095],[0.871782,51.239759],[0.867761,51.239883],[0.863494,51.238872],[0.861031,51.235332],[0.859874,51.230838],[0.854511,51.230698],[0.851453,51.23155],[0.848606,51.233586],[0.84572,51.234431],[0.841768,51.237102],[0.835317,51.23192],[0.825194,51.228566],[0.823289,51.226603],[0.822169,51.224348],[0.816301,51.225197],[0.812062,51.227975],[0.8113,51.227412],[0.809783,51.227116],[0.808898,51.228283],[0.808296,51.227642],[0.805339,51.229014],[0.804668,51.228006],[0.803758,51.228185],[0.803947,51.229652],[0.800169,51.229482],[0.79954,51.228476],[0.798238,51.229074],[0.797326,51.228074],[0.795118,51.228534],[0.795539,51.229426],[0.793575,51.229641],[0.794063,51.230181],[0.791246,51.230826],[0.792179,51.232015],[0.792379,51.233357],[0.795764,51.236877],[0.792611,51.23813],[0.794947,51.244473],[0.796469,51.246295],[0.789378,51.248634],[0.791662,51.251372],[0.792386,51.254252],[0.792188,51.255112],[0.793379,51.257281],[0.792352,51.258121],[0.789571,51.259131],[0.789521,51.260596],[0.79063,51.261499],[0.790547,51.261781],[0.782968,51.264959],[0.778846,51.264756],[0.776882,51.266568],[0.775514,51.265088],[0.769404,51.262088],[0.766387,51.25987],[0.765141,51.258273],[0.761955,51.256378],[0.760761,51.25661],[0.75766,51.256358],[0.750768,51.257833],[0.749641,51.258644],[0.750814,51.259775],[0.756897,51.268969],[0.758727,51.271088],[0.760006,51.271994],[0.761524,51.274858],[0.76454,51.27675],[0.760894,51.278576],[0.760064,51.279314],[0.756843,51.278025],[0.747454,51.27811],[0.743874,51.278469],[0.733172,51.285344],[0.728953,51.286666],[0.725303,51.288658],[0.722855,51.289554],[0.721345,51.289611],[0.719869,51.291796],[0.717696,51.293288],[0.716316,51.295855],[0.715589,51.295587],[0.71617,51.296788],[0.713817,51.299408],[0.712734,51.298791],[0.70602,51.298806],[0.701579,51.299175],[0.692876,51.29812],[0.680501,51.291182],[0.673845,51.293272],[0.67427,51.294372],[0.675875,51.295767],[0.671447,51.296834],[0.673066,51.299274],[0.671653,51.29969],[0.674596,51.302669],[0.675392,51.303962],[0.675184,51.30562],[0.673426,51.30567],[0.669181,51.307992],[0.669718,51.308951],[0.670651,51.309476],[0.670765,51.310115],[0.669047,51.311743],[0.668806,51.312738],[0.665349,51.317241],[0.662819,51.319434],[0.658856,51.324493],[0.658796,51.324725],[0.660755,51.325043],[0.661626,51.325604],[0.662354,51.325243],[0.663405,51.32591],[0.665273,51.32799],[0.664321,51.328929],[0.660429,51.330422],[0.659092,51.330557],[0.644989,51.336163],[0.641935,51.336197],[0.639748,51.336765],[0.63629,51.335278],[0.634699,51.335258],[0.629494,51.333014],[0.623275,51.331872],[0.619229,51.331564],[0.61843,51.331522],[0.619622,51.333269],[0.619446,51.334469],[0.61588,51.335115],[0.614288,51.335092],[0.612926,51.334664],[0.610942,51.33265],[0.607834,51.328487],[0.604424,51.325697],[0.601542,51.327371],[0.60098,51.328203],[0.604625,51.328604],[0.607078,51.330795],[0.602876,51.332178],[0.601404,51.333301],[0.60203,51.334625],[0.603878,51.336257],[0.60801,51.334644],[0.610949,51.336474],[0.612052,51.337941],[0.611322,51.339318],[0.613724,51.341118],[0.617934,51.347394],[0.618163,51.348642],[0.620033,51.349709],[0.622085,51.349689],[0.623415,51.351435],[0.625088,51.354818],[0.628569,51.359371],[0.629299,51.35922],[0.634908,51.36637],[0.628382,51.368368],[0.626741,51.368689],[0.626267,51.368251],[0.623293,51.369223],[0.625835,51.37141],[0.625738,51.373465],[0.626955,51.374731],[0.627168,51.374146],[0.627602,51.3745],[0.628548,51.373098],[0.628683,51.373568],[0.627265,51.375308],[0.628012,51.378194],[0.630114,51.380728],[0.631122,51.380396],[0.631091,51.38096],[0.631291,51.380316],[0.631898,51.382404],[0.634567,51.382502],[0.635951,51.383008],[0.638369,51.386577],[0.640112,51.386618],[0.641044,51.387576],[0.641125,51.388719],[0.639655,51.38974],[0.640019,51.390279],[0.641733,51.391147],[0.641818,51.391679],[0.64133,51.39369],[0.639962,51.395067],[0.642977,51.395734],[0.644525,51.396642],[0.648011,51.397555],[0.649317,51.396712],[0.651812,51.395854],[0.65313,51.394871],[0.653112,51.39524],[0.653664,51.395139],[0.653253,51.394643],[0.654028,51.39398],[0.653926,51.393667],[0.655447,51.39356],[0.655156,51.393018],[0.654491,51.393182],[0.654633,51.392748],[0.655788,51.392383],[0.656223,51.392588],[0.657063,51.392074],[0.657323,51.392167],[0.656436,51.392534],[0.656873,51.39251],[0.656668,51.392742],[0.656308,51.3926],[0.65648,51.392928],[0.655821,51.392941],[0.656207,51.3934],[0.656801,51.39341],[0.656673,51.393095],[0.657473,51.392688],[0.657623,51.392142],[0.656995,51.391909],[0.657529,51.391734],[0.656861,51.391131],[0.657462,51.391367],[0.658607,51.390562],[0.658884,51.389067],[0.659306,51.388834],[0.659578,51.389018],[0.659686,51.388357],[0.6607,51.38789],[0.66156,51.386903],[0.661237,51.384547],[0.660847,51.38452],[0.660752,51.384047],[0.660678,51.384455],[0.660267,51.38379],[0.660921,51.383249],[0.661728,51.383242],[0.661225,51.384051],[0.661864,51.385024],[0.662311,51.38524],[0.662111,51.385021],[0.662329,51.384761],[0.661802,51.384655],[0.66209,51.384307],[0.661491,51.384077],[0.662528,51.384029],[0.661614,51.383845],[0.661793,51.383568],[0.662711,51.38373],[0.661906,51.383252],[0.66281,51.383029],[0.662527,51.382676],[0.662972,51.382657],[0.663888,51.38379],[0.663948,51.383319],[0.664432,51.383159],[0.664404,51.383407],[0.664692,51.383119],[0.663924,51.38311],[0.66481,51.382829],[0.664012,51.38303],[0.663661,51.382928],[0.663687,51.382688],[0.664809,51.382781],[0.66485,51.382847],[0.664646,51.382982],[0.664815,51.383195],[0.665575,51.383005],[0.665181,51.38267],[0.665273,51.383046],[0.664809,51.383092],[0.665053,51.382667],[0.664659,51.382559],[0.665207,51.382361],[0.665407,51.382847],[0.665326,51.382577],[0.665432,51.382223],[0.664315,51.382509],[0.664283,51.382155],[0.663096,51.382382],[0.664139,51.382125],[0.666203,51.381807],[0.666313,51.382041],[0.665653,51.38215],[0.666389,51.382544],[0.665669,51.38223],[0.665405,51.382675],[0.666892,51.383007],[0.666646,51.382608],[0.666136,51.382701],[0.66675,51.382324],[0.666296,51.382347],[0.666414,51.382094],[0.667212,51.38222],[0.66633,51.381787],[0.666672,51.381337],[0.666223,51.379768],[0.666869,51.37878],[0.668907,51.378515],[0.671615,51.377272],[0.670153,51.37484],[0.670097,51.373292],[0.670595,51.373239],[0.670185,51.373688],[0.670278,51.374936],[0.671398,51.376078],[0.674999,51.37577],[0.676514,51.378418],[0.677759,51.37945],[0.678445,51.379584],[0.679776,51.378947],[0.679872,51.379615],[0.680537,51.379567],[0.682014,51.379866],[0.680532,51.379602],[0.680234,51.379793],[0.681424,51.379846],[0.681684,51.380243],[0.681946,51.380058],[0.682525,51.380363],[0.682352,51.381226],[0.683356,51.38283],[0.682589,51.384566],[0.682942,51.386302],[0.684433,51.389542],[0.685655,51.390299],[0.686535,51.391438],[0.687976,51.391841],[0.691463,51.391965],[0.695913,51.392699],[0.698224,51.393983],[0.699787,51.393406],[0.699426,51.393147],[0.700379,51.393197],[0.699459,51.3928],[0.698394,51.393219],[0.699397,51.392764],[0.700395,51.393104],[0.699467,51.392489],[0.698569,51.392929],[0.699231,51.392522],[0.699559,51.392446],[0.700383,51.39294],[0.700668,51.392326],[0.701272,51.392778],[0.700783,51.392651],[0.700438,51.392984],[0.700767,51.393117],[0.701946,51.392722],[0.701698,51.392715],[0.701437,51.392469],[0.701824,51.392214],[0.701751,51.3927],[0.702491,51.392355],[0.702866,51.392499],[0.702977,51.391854],[0.702846,51.391246],[0.702957,51.391851],[0.702454,51.391863],[0.702787,51.391664],[0.702421,51.391043],[0.700357,51.390548],[0.700598,51.390322],[0.698932,51.38999],[0.698667,51.389534],[0.699285,51.388272],[0.698831,51.387613],[0.696352,51.386023],[0.696283,51.385338],[0.694752,51.384843],[0.694813,51.382924],[0.693612,51.382011],[0.6949,51.380927],[0.695247,51.379791],[0.696381,51.380443],[0.69797,51.380753],[0.698882,51.380845],[0.699309,51.380506],[0.700158,51.380702],[0.700395,51.381074],[0.700163,51.380893],[0.699923,51.381089],[0.700217,51.380997],[0.700029,51.38127],[0.700833,51.381985],[0.701175,51.38172],[0.700501,51.381433],[0.701584,51.381798],[0.701943,51.381463],[0.706142,51.382602],[0.709301,51.382867],[0.709604,51.383316],[0.709686,51.382853],[0.709714,51.383398],[0.710051,51.382919],[0.709764,51.383453],[0.710401,51.383096],[0.710198,51.383556],[0.711012,51.383125],[0.710789,51.383759],[0.71108,51.383469],[0.711452,51.383664],[0.71106,51.383264],[0.711897,51.383548],[0.711342,51.383197],[0.713181,51.383788],[0.71284,51.383802],[0.713648,51.384252],[0.713758,51.383922],[0.714357,51.384177],[0.714184,51.384722],[0.714456,51.38452],[0.714896,51.385507],[0.715478,51.385816],[0.71547,51.386471],[0.716672,51.387065],[0.716898,51.38798],[0.719199,51.388113],[0.719035,51.389127],[0.717269,51.39012],[0.711915,51.391523],[0.709285,51.393975],[0.707233,51.394824],[0.705972,51.394573],[0.707314,51.396372],[0.707447,51.39717],[0.706925,51.397769],[0.704726,51.398406],[0.704659,51.398043],[0.706226,51.397508],[0.706661,51.396969],[0.706145,51.395743],[0.705197,51.39509],[0.70344,51.395163],[0.70195,51.396086],[0.701296,51.398162],[0.701791,51.397315],[0.702774,51.397896],[0.702359,51.398417],[0.704252,51.398149],[0.704543,51.398537],[0.702513,51.399016],[0.700436,51.398799],[0.698928,51.400886],[0.699083,51.401236],[0.698582,51.401537],[0.69917,51.402315],[0.698356,51.402504],[0.698491,51.402818],[0.698787,51.402672],[0.698389,51.40297],[0.698271,51.402632],[0.697691,51.402791],[0.695885,51.407213],[0.697457,51.408954],[0.698642,51.409581],[0.699665,51.409218],[0.699145,51.409204],[0.699775,51.409057],[0.699668,51.408689],[0.701675,51.408284],[0.702284,51.409002],[0.70251,51.408321],[0.702204,51.408223],[0.703668,51.407767],[0.704804,51.407986],[0.704862,51.40741],[0.704235,51.407532],[0.704997,51.407153],[0.705506,51.408408],[0.703354,51.408952],[0.703693,51.408376],[0.704453,51.408313],[0.703193,51.408094],[0.702964,51.409204],[0.699778,51.410615],[0.700276,51.410348],[0.700199,51.409945],[0.700045,51.410355],[0.699621,51.410051],[0.699497,51.410451],[0.699284,51.410041],[0.69892,51.410376],[0.699248,51.410701],[0.698839,51.411052],[0.699388,51.411241],[0.699023,51.412465],[0.698339,51.413715],[0.698791,51.412648],[0.698413,51.412513],[0.698398,51.412917],[0.698388,51.412431],[0.698117,51.41257],[0.697742,51.415139],[0.696422,51.418978],[0.696545,51.419996],[0.696873,51.419312],[0.697733,51.420157],[0.697339,51.420082],[0.697379,51.420454],[0.698171,51.420241],[0.696976,51.418882],[0.69752,51.417736],[0.697546,51.418256],[0.698647,51.419071],[0.698692,51.419948],[0.698419,51.419587],[0.698274,51.41997],[0.698653,51.420715],[0.698291,51.420867],[0.696773,51.420457],[0.699068,51.421387],[0.705891,51.419795]]],[[[0.663018,51.383414],[0.66241,51.38353],[0.663137,51.383436],[0.66281,51.383029],[0.663018,51.383414]]],[[[0.720516,51.420278],[0.719832,51.420458],[0.719319,51.42039],[0.719712,51.420182],[0.71993,51.420395],[0.720184,51.419999],[0.722653,51.421145],[0.722389,51.420646],[0.722692,51.420366],[0.721685,51.420368],[0.723009,51.420137],[0.721779,51.419501],[0.721274,51.419631],[0.721584,51.419439],[0.721024,51.419237],[0.719945,51.4191],[0.720053,51.419482],[0.719765,51.419118],[0.719009,51.419271],[0.719199,51.419925],[0.718963,51.419316],[0.717427,51.419806],[0.717696,51.420022],[0.716872,51.419984],[0.71688,51.420404],[0.718128,51.420828],[0.718369,51.420631],[0.718165,51.420928],[0.720306,51.421487],[0.720374,51.420922],[0.719696,51.420661],[0.720516,51.420278]]],[[[0.721148,51.421552],[0.721745,51.421539],[0.721977,51.421086],[0.721044,51.420844],[0.721145,51.420649],[0.720772,51.420912],[0.721078,51.420547],[0.720417,51.420398],[0.720385,51.421724],[0.721238,51.421835],[0.721148,51.421552]]],[[[0.723966,51.421795],[0.724306,51.421935],[0.724997,51.420965],[0.722845,51.420516],[0.723224,51.421381],[0.721991,51.42125],[0.721818,51.421684],[0.723464,51.422075],[0.72385,51.421801],[0.723966,51.421795]]],[[[0.680947,51.422772],[0.682559,51.423059],[0.684658,51.422878],[0.687591,51.4219],[0.6873,51.41929],[0.68702,51.418764],[0.686395,51.418599],[0.687852,51.418069],[0.686918,51.417339],[0.686378,51.417513],[0.686572,51.417265],[0.686865,51.417271],[0.687624,51.417674],[0.687765,51.417484],[0.68777,51.416878],[0.686804,51.416779],[0.686443,51.416303],[0.686928,51.416775],[0.687977,51.41676],[0.687716,51.416087],[0.688069,51.416116],[0.688195,51.414987],[0.687777,51.414434],[0.686789,51.414528],[0.686281,51.415648],[0.686752,51.415333],[0.686812,51.415654],[0.685369,51.41619],[0.684587,51.417197],[0.684699,51.41775],[0.6841,51.417789],[0.682667,51.418753],[0.682139,51.418406],[0.680519,51.419241],[0.676311,51.419277],[0.675545,51.418184],[0.676211,51.414731],[0.672312,51.413476],[0.670734,51.413769],[0.670398,51.414577],[0.670755,51.415253],[0.67018,51.415696],[0.670557,51.41617],[0.669898,51.416589],[0.670052,51.417402],[0.670894,51.417565],[0.669126,51.418073],[0.670139,51.418124],[0.669369,51.418494],[0.668738,51.419959],[0.667975,51.419986],[0.668088,51.420484],[0.663427,51.419053],[0.662843,51.419091],[0.662764,51.419881],[0.661692,51.420013],[0.661237,51.419616],[0.661786,51.418737],[0.661746,51.418392],[0.661152,51.418211],[0.661452,51.417742],[0.660058,51.417626],[0.659587,51.418575],[0.660049,51.419844],[0.66144,51.421183],[0.662618,51.421235],[0.663264,51.421719],[0.663011,51.422272],[0.664278,51.422938],[0.664738,51.423699],[0.66572,51.423813],[0.666469,51.423293],[0.667144,51.423312],[0.666967,51.423188],[0.667273,51.423058],[0.667133,51.422815],[0.667739,51.423048],[0.667769,51.423372],[0.667066,51.423213],[0.667469,51.423465],[0.669615,51.423487],[0.669298,51.423168],[0.669973,51.423501],[0.672626,51.423373],[0.673352,51.423007],[0.678799,51.423519],[0.680947,51.422772]]],[[[0.724561,51.422146],[0.725883,51.422453],[0.72602,51.422032],[0.725197,51.421833],[0.725513,51.421782],[0.725233,51.421468],[0.725027,51.421607],[0.725386,51.421238],[0.725942,51.42107],[0.725105,51.42096],[0.724267,51.422013],[0.723905,51.421802],[0.723987,51.422045],[0.723579,51.422076],[0.72447,51.422568],[0.725451,51.422633],[0.724561,51.422146]]],[[[0.725236,51.422795],[0.727189,51.422754],[0.728177,51.423243],[0.727352,51.422683],[0.727439,51.422693],[0.727597,51.422321],[0.727625,51.422767],[0.728327,51.422962],[0.729607,51.420912],[0.727577,51.421094],[0.727413,51.421379],[0.727479,51.421111],[0.726092,51.421132],[0.726494,51.421331],[0.726202,51.421507],[0.726084,51.421186],[0.725501,51.421266],[0.725364,51.421569],[0.726117,51.422043],[0.726143,51.422262],[0.726639,51.422085],[0.726033,51.422607],[0.725481,51.422679],[0.724493,51.422663],[0.727802,51.423573],[0.728118,51.423362],[0.727183,51.422791],[0.725236,51.422795]]],[[[0.877701,51.362265],[0.87813,51.362145],[0.87853,51.362232],[0.879142,51.362635],[0.878073,51.362214],[0.877602,51.362408],[0.876826,51.362445],[0.877647,51.362801],[0.876655,51.362552],[0.876821,51.36287],[0.875396,51.362135],[0.876507,51.362747],[0.876555,51.363114],[0.875709,51.363142],[0.876148,51.363231],[0.875516,51.363448],[0.875242,51.363121],[0.874678,51.363272],[0.875308,51.36357],[0.874608,51.3638],[0.874499,51.363569],[0.874425,51.364507],[0.874988,51.36447],[0.874425,51.364533],[0.874272,51.363971],[0.874183,51.364558],[0.874158,51.363237],[0.87353,51.364093],[0.873864,51.363405],[0.872639,51.363882],[0.872289,51.363727],[0.872642,51.364058],[0.87188,51.36394],[0.872673,51.36442],[0.871808,51.36407],[0.872057,51.365069],[0.871919,51.364664],[0.870931,51.364321],[0.869022,51.364815],[0.869798,51.365344],[0.86873,51.364984],[0.8689,51.365595],[0.868638,51.365002],[0.867514,51.36488],[0.867333,51.365813],[0.867461,51.364892],[0.866733,51.364894],[0.866094,51.365176],[0.866427,51.365925],[0.866256,51.366213],[0.866159,51.366245],[0.865305,51.36625],[0.866203,51.366214],[0.866402,51.365951],[0.865932,51.365162],[0.863265,51.365379],[0.86276,51.36562],[0.862837,51.3662],[0.862699,51.365459],[0.860623,51.365974],[0.859141,51.366872],[0.859935,51.367111],[0.85898,51.366878],[0.858785,51.367066],[0.859151,51.367109],[0.85852,51.367148],[0.858223,51.367573],[0.858663,51.367525],[0.858129,51.367847],[0.858807,51.367734],[0.858876,51.368082],[0.859192,51.367617],[0.859611,51.368228],[0.859588,51.3675],[0.859839,51.367866],[0.860528,51.367494],[0.85948,51.368877],[0.859813,51.369636],[0.857698,51.370398],[0.856465,51.369898],[0.857267,51.368371],[0.857802,51.368611],[0.857133,51.367633],[0.857706,51.368184],[0.858011,51.367265],[0.856423,51.367156],[0.857614,51.36714],[0.857621,51.366894],[0.85729,51.36702],[0.857605,51.366841],[0.858056,51.36715],[0.858265,51.366214],[0.857958,51.365622],[0.856588,51.366184],[0.857999,51.365551],[0.856695,51.364926],[0.854935,51.366271],[0.856231,51.366332],[0.85552,51.36664],[0.85557,51.36642],[0.854765,51.366373],[0.854979,51.366969],[0.8535,51.368564],[0.852802,51.368146],[0.852519,51.368505],[0.852874,51.368736],[0.852077,51.369245],[0.852432,51.368632],[0.850324,51.370606],[0.850261,51.370371],[0.84862,51.370947],[0.848859,51.371066],[0.846713,51.371261],[0.842578,51.371099],[0.840528,51.371647],[0.841058,51.371389],[0.840372,51.371508],[0.83896,51.370058],[0.839392,51.369916],[0.838706,51.370034],[0.839342,51.369821],[0.839086,51.369695],[0.838715,51.369229],[0.838879,51.369043],[0.837899,51.369017],[0.838886,51.369002],[0.839096,51.369636],[0.839644,51.369756],[0.839626,51.37033],[0.840984,51.370173],[0.840821,51.369657],[0.839223,51.368877],[0.839525,51.368668],[0.839077,51.368724],[0.839532,51.368617],[0.839534,51.368912],[0.841183,51.369805],[0.841212,51.369251],[0.840321,51.368733],[0.840352,51.368356],[0.840835,51.368436],[0.840479,51.368623],[0.841498,51.369329],[0.842376,51.369017],[0.84195,51.368981],[0.841716,51.368582],[0.841997,51.368958],[0.841876,51.368589],[0.842455,51.369019],[0.842831,51.369023],[0.84227,51.368773],[0.841559,51.368134],[0.842128,51.368222],[0.842254,51.3687],[0.842527,51.36837],[0.84281,51.368979],[0.843644,51.36873],[0.843409,51.368449],[0.842938,51.368533],[0.843099,51.368163],[0.842484,51.367905],[0.842895,51.367933],[0.843938,51.368885],[0.842477,51.369104],[0.841671,51.369376],[0.841795,51.369588],[0.841366,51.369424],[0.84146,51.3699],[0.842415,51.369939],[0.84258,51.369559],[0.842599,51.369904],[0.843041,51.369899],[0.843382,51.369528],[0.843436,51.369818],[0.844645,51.36981],[0.84468,51.369382],[0.844089,51.369212],[0.845427,51.36908],[0.84478,51.369255],[0.844816,51.36968],[0.845737,51.369708],[0.845699,51.36935],[0.846075,51.369663],[0.846619,51.369463],[0.846113,51.369199],[0.846454,51.369042],[0.84591,51.368936],[0.846283,51.368776],[0.846782,51.369465],[0.847112,51.368789],[0.847181,51.369298],[0.847707,51.369179],[0.847419,51.368942],[0.848001,51.36909],[0.847749,51.368576],[0.848088,51.368948],[0.848402,51.368854],[0.848508,51.368356],[0.849005,51.368479],[0.849028,51.368095],[0.849393,51.368204],[0.849181,51.367968],[0.849425,51.368072],[0.850982,51.366682],[0.850811,51.366065],[0.846775,51.368138],[0.845626,51.368412],[0.845159,51.368445],[0.844758,51.368028],[0.843805,51.368345],[0.843732,51.367767],[0.844141,51.368193],[0.844777,51.368001],[0.844906,51.368016],[0.845578,51.368367],[0.846307,51.368131],[0.845938,51.367452],[0.845373,51.367396],[0.845983,51.36743],[0.846589,51.367984],[0.847535,51.367675],[0.848012,51.367108],[0.847291,51.366982],[0.847746,51.366849],[0.848136,51.367159],[0.848134,51.367227],[0.848944,51.366727],[0.848573,51.366474],[0.849026,51.366714],[0.849332,51.366527],[0.849062,51.366293],[0.849458,51.366501],[0.849565,51.366188],[0.849719,51.366371],[0.850233,51.365889],[0.850753,51.365909],[0.850976,51.365614],[0.85064,51.365477],[0.851185,51.365283],[0.850791,51.365047],[0.851305,51.364902],[0.850706,51.364715],[0.850277,51.364038],[0.843983,51.363682],[0.837203,51.36388],[0.836204,51.364316],[0.836612,51.364657],[0.822175,51.367864],[0.822315,51.368392],[0.820835,51.369099],[0.81978,51.36896],[0.808802,51.369899],[0.806899,51.370982],[0.806291,51.372289],[0.804727,51.371801],[0.804629,51.370619],[0.80422,51.370539],[0.80473,51.370512],[0.805126,51.370778],[0.805599,51.370516],[0.80498,51.370395],[0.805687,51.370377],[0.805883,51.369862],[0.804607,51.370413],[0.804154,51.370188],[0.804741,51.370046],[0.803885,51.369765],[0.803748,51.370205],[0.801658,51.369845],[0.801175,51.369947],[0.801425,51.370107],[0.799048,51.37041],[0.800207,51.370033],[0.799113,51.369888],[0.798991,51.370125],[0.798883,51.369864],[0.800069,51.369852],[0.799077,51.369499],[0.799825,51.369548],[0.800388,51.369975],[0.800553,51.369386],[0.799282,51.369094],[0.798666,51.369393],[0.798564,51.368998],[0.797807,51.368947],[0.797482,51.369204],[0.798459,51.369041],[0.798457,51.369388],[0.798062,51.369342],[0.798268,51.369653],[0.797907,51.369432],[0.797452,51.369849],[0.798545,51.369985],[0.798718,51.370205],[0.798133,51.370149],[0.79867,51.370257],[0.798575,51.370453],[0.797089,51.370761],[0.795286,51.37045],[0.791987,51.37058],[0.791794,51.371681],[0.790834,51.372482],[0.791441,51.372414],[0.790669,51.372716],[0.791153,51.372931],[0.790485,51.372674],[0.790595,51.373048],[0.787792,51.373431],[0.787208,51.37252],[0.783166,51.370638],[0.780543,51.37072],[0.780197,51.369507],[0.778074,51.367663],[0.777514,51.368108],[0.776417,51.368028],[0.777066,51.368205],[0.775715,51.368021],[0.775726,51.368252],[0.77155,51.368604],[0.768224,51.370977],[0.768375,51.370802],[0.766771,51.369816],[0.765379,51.370421],[0.76482,51.371348],[0.764579,51.374689],[0.765604,51.376529],[0.76667,51.376594],[0.765486,51.376789],[0.765495,51.377339],[0.769013,51.378136],[0.770322,51.379134],[0.765599,51.38574],[0.764841,51.385747],[0.76342,51.386908],[0.762198,51.386907],[0.762455,51.387428],[0.762965,51.387101],[0.763113,51.387605],[0.764273,51.388261],[0.763913,51.388519],[0.761774,51.388294],[0.760581,51.387892],[0.761538,51.387732],[0.760253,51.387632],[0.756732,51.388155],[0.755418,51.388667],[0.754212,51.389641],[0.753794,51.389698],[0.754247,51.389423],[0.753619,51.38966],[0.752274,51.39078],[0.751387,51.390812],[0.751458,51.393874],[0.750767,51.394731],[0.749636,51.394834],[0.748596,51.394302],[0.746119,51.395317],[0.742108,51.397707],[0.741973,51.398509],[0.740096,51.398661],[0.739883,51.398862],[0.740496,51.398987],[0.739698,51.399005],[0.739776,51.399297],[0.738649,51.399017],[0.7383,51.399596],[0.737389,51.399525],[0.737922,51.3995],[0.737819,51.399251],[0.732678,51.400277],[0.731284,51.40118],[0.728767,51.404793],[0.728036,51.407615],[0.72677,51.409527],[0.727006,51.409928],[0.726672,51.409832],[0.725765,51.410523],[0.724008,51.41262],[0.721659,51.414425],[0.721994,51.414576],[0.723046,51.414017],[0.723718,51.413526],[0.723349,51.413416],[0.723114,51.413717],[0.723194,51.413398],[0.724626,51.41264],[0.725162,51.412895],[0.725733,51.412741],[0.725835,51.412172],[0.726486,51.411752],[0.726909,51.411842],[0.727081,51.411254],[0.729179,51.409891],[0.730947,51.409159],[0.732453,51.408946],[0.734724,51.409316],[0.740467,51.41109],[0.742455,51.414281],[0.742249,51.415178],[0.743515,51.415306],[0.742796,51.415688],[0.743112,51.416054],[0.744242,51.415933],[0.743422,51.416311],[0.743765,51.416626],[0.746431,51.416244],[0.74688,51.415338],[0.747028,51.416269],[0.74545,51.416782],[0.74353,51.416925],[0.741775,51.41582],[0.742106,51.415066],[0.741069,51.415118],[0.740392,51.41604],[0.740232,51.417277],[0.736009,51.421583],[0.735437,51.424373],[0.736581,51.42971],[0.737415,51.431551],[0.7371,51.431919],[0.738066,51.432645],[0.743956,51.440472],[0.745526,51.440486],[0.745555,51.440715],[0.74433,51.441011],[0.744243,51.44299],[0.743631,51.443296],[0.74342,51.444854],[0.74379,51.444735],[0.743859,51.445186],[0.743976,51.444732],[0.745025,51.444787],[0.744761,51.445324],[0.745231,51.445373],[0.744395,51.445545],[0.744335,51.446053],[0.743682,51.445517],[0.743609,51.446892],[0.743135,51.447148],[0.743993,51.447674],[0.745257,51.447792],[0.746472,51.447497],[0.747239,51.447155],[0.747255,51.446758],[0.750836,51.445431],[0.758156,51.444025],[0.762356,51.442334],[0.769503,51.44084],[0.770112,51.441224],[0.772712,51.440395],[0.775876,51.440308],[0.779277,51.440691],[0.782223,51.440378],[0.782856,51.440445],[0.782879,51.440716],[0.784745,51.440346],[0.787925,51.440331],[0.791588,51.439264],[0.807229,51.431712],[0.816028,51.427924],[0.824564,51.425536],[0.83122,51.425524],[0.832755,51.425088],[0.840572,51.424328],[0.841838,51.424607],[0.845993,51.423561],[0.849435,51.42355],[0.852699,51.422956],[0.860558,51.422406],[0.867678,51.420799],[0.871519,51.42081],[0.874548,51.42141],[0.884454,51.420921],[0.888462,51.420105],[0.892681,51.41862],[0.897989,51.417576],[0.899979,51.416862],[0.901367,51.416826],[0.903756,51.414564],[0.904255,51.412974],[0.907797,51.410195],[0.910188,51.407583],[0.910191,51.407122],[0.918565,51.401762],[0.924869,51.398682],[0.928559,51.396462],[0.938154,51.389812],[0.939189,51.387449],[0.940697,51.386114],[0.943525,51.382436],[0.945097,51.379707],[0.94883,51.376024],[0.95094,51.373372],[0.948878,51.371002],[0.94608,51.36973],[0.945153,51.367425],[0.944443,51.367026],[0.942996,51.367592],[0.942333,51.368332],[0.942489,51.368618],[0.942516,51.368194],[0.942965,51.36843],[0.943238,51.368095],[0.94314,51.368918],[0.944642,51.368693],[0.942831,51.369072],[0.943285,51.36972],[0.94398,51.369379],[0.943531,51.369671],[0.94366,51.37025],[0.944756,51.370117],[0.944099,51.370517],[0.943463,51.370312],[0.943793,51.371141],[0.943476,51.371602],[0.945594,51.371319],[0.943386,51.371756],[0.944406,51.372168],[0.945052,51.371809],[0.945883,51.371737],[0.946193,51.372],[0.94655,51.372615],[0.947188,51.372512],[0.94675,51.372809],[0.946244,51.372384],[0.946119,51.371963],[0.945793,51.371789],[0.945157,51.372416],[0.945494,51.372741],[0.9451,51.372515],[0.945384,51.371923],[0.94423,51.372259],[0.943398,51.373661],[0.944611,51.374139],[0.945306,51.374698],[0.946306,51.374497],[0.945462,51.374751],[0.945214,51.3747],[0.944488,51.374417],[0.944602,51.374207],[0.943541,51.373992],[0.943354,51.373659],[0.943366,51.373584],[0.944205,51.372202],[0.943384,51.371906],[0.943333,51.371646],[0.940754,51.372554],[0.940861,51.373123],[0.941961,51.373852],[0.940787,51.373108],[0.940717,51.372535],[0.943241,51.371606],[0.943656,51.371137],[0.942901,51.370134],[0.942365,51.370222],[0.942425,51.370789],[0.942115,51.370313],[0.941682,51.370854],[0.941472,51.369974],[0.941457,51.370501],[0.941139,51.370453],[0.941476,51.370709],[0.940907,51.370421],[0.940697,51.37095],[0.940393,51.370664],[0.940308,51.372866],[0.940302,51.370365],[0.93978,51.370381],[0.93923,51.371447],[0.939458,51.370166],[0.937585,51.370076],[0.937307,51.370569],[0.937168,51.369721],[0.935483,51.36901],[0.934664,51.369748],[0.933948,51.370125],[0.93279,51.370339],[0.934493,51.369819],[0.935345,51.368877],[0.934112,51.369314],[0.934769,51.368849],[0.933738,51.368623],[0.934401,51.368529],[0.933038,51.367896],[0.932376,51.368239],[0.932932,51.367876],[0.931508,51.367038],[0.930695,51.36727],[0.931448,51.366984],[0.931046,51.366733],[0.930518,51.366975],[0.930962,51.366723],[0.930551,51.366304],[0.929557,51.366103],[0.92927,51.366513],[0.929414,51.366074],[0.928617,51.36608],[0.928979,51.365899],[0.926275,51.364664],[0.927723,51.364674],[0.926507,51.363702],[0.925606,51.364065],[0.926175,51.363751],[0.92595,51.363432],[0.924995,51.363719],[0.925784,51.363385],[0.925361,51.363217],[0.926315,51.363285],[0.926454,51.362445],[0.925191,51.361852],[0.923854,51.362834],[0.925109,51.361832],[0.923799,51.362596],[0.924158,51.362259],[0.923248,51.362184],[0.924405,51.362147],[0.924973,51.36161],[0.92326,51.360771],[0.922574,51.361772],[0.9232,51.360569],[0.922129,51.360585],[0.922721,51.360404],[0.921054,51.359781],[0.920816,51.360245],[0.921551,51.360919],[0.921101,51.36111],[0.91643,51.35828],[0.915113,51.358078],[0.912366,51.356785],[0.909664,51.355878],[0.909085,51.355949],[0.908742,51.355595],[0.908057,51.355468],[0.907673,51.35584],[0.907771,51.3554],[0.906089,51.355269],[0.905994,51.355575],[0.905193,51.355179],[0.905184,51.356033],[0.904776,51.355105],[0.902166,51.354867],[0.902014,51.355342],[0.902052,51.354839],[0.897475,51.354487],[0.898671,51.354874],[0.896804,51.354468],[0.896951,51.355004],[0.896298,51.354487],[0.891201,51.355244],[0.891496,51.355823],[0.891,51.355232],[0.890505,51.355233],[0.890171,51.355441],[0.890422,51.355628],[0.890122,51.355481],[0.889173,51.356014],[0.890277,51.355288],[0.88983,51.355279],[0.888648,51.356014],[0.888816,51.356387],[0.888577,51.35608],[0.887584,51.356813],[0.886751,51.35727],[0.886626,51.357306],[0.885611,51.356926],[0.886676,51.357272],[0.886617,51.356891],[0.886953,51.357066],[0.887501,51.356818],[0.889372,51.355347],[0.881225,51.357826],[0.879673,51.358766],[0.880945,51.359652],[0.882059,51.359595],[0.882292,51.359286],[0.882356,51.35955],[0.883933,51.358642],[0.884724,51.358537],[0.882116,51.359741],[0.882863,51.360028],[0.881969,51.35985],[0.881754,51.360275],[0.881285,51.360329],[0.882111,51.360718],[0.881051,51.360406],[0.880959,51.359735],[0.879589,51.359262],[0.879777,51.359671],[0.879157,51.359347],[0.879174,51.359902],[0.879083,51.359347],[0.878055,51.359435],[0.877866,51.359873],[0.878305,51.359863],[0.877966,51.359958],[0.878701,51.360918],[0.879683,51.361082],[0.88041,51.360766],[0.880399,51.360428],[0.880584,51.360806],[0.879624,51.361157],[0.880575,51.361714],[0.879646,51.361245],[0.878168,51.361755],[0.877701,51.362265]],[[0.799602,51.370113],[0.799024,51.370205],[0.798991,51.370125],[0.799602,51.370113]]]]}}]}