{"type":"FeatureCollection","features":[{"type":"Feature","properties":{"slug":"tameside","gss_code":"E08000008","name":"Tameside"},"geometry":{"type":"Polygon","coordinates":[[[-2.044467,53.529877],[-2.039872,53.530007],[-2.039616,53.529213],[-2.038463,53.529047],[-2.038283,53.529895],[-2.036058,53.530372],[-2.034973,53.530325],[-2.034485,53.529398],[-2.032453,53.530257],[-2.026799,53.529426],[-2.024708,53.528533],[-2.023156,53.528397],[-2.020318,53.526001],[-2.018093,53.524831],[-2.01753,53.523725],[-2.018776,53.521434],[-2.016815,53.521202],[-2.009133,53.519127],[-2.003033,53.520212],[-1.996927,53.522065],[-1.991477,53.519845],[-1.988824,53.518386],[-1.986953,53.516704],[-1.97782,53.514433],[-1.973056,53.512442],[-1.96673,53.510379],[-1.963386,53.509827],[-1.966937,53.507351],[-1.967438,53.506639],[-1.971319,53.504559],[-1.97272,53.502486],[-1.971975,53.500203],[-1.972493,53.499047],[-1.970777,53.495224],[-1.971222,53.493653],[-1.972198,53.492832],[-1.972262,53.491618],[-1.97377,53.490101],[-1.974278,53.488384],[-1.976647,53.486319],[-1.981465,53.485262],[-1.984668,53.483232],[-1.984644,53.482699],[-1.985705,53.481742],[-1.987399,53.481576],[-1.989098,53.47682],[-1.989323,53.475114],[-1.988682,53.474683],[-1.987373,53.472774],[-1.988163,53.472084],[-1.988531,53.470025],[-1.987613,53.469589],[-1.986731,53.467505],[-1.98421,53.466824],[-1.984008,53.466127],[-1.981532,53.464505],[-1.980595,53.463209],[-1.980913,53.46287],[-1.988161,53.460598],[-1.988091,53.459649],[-1.98743,53.458903],[-1.987659,53.456878],[-1.985562,53.455759],[-1.986901,53.454316],[-1.989448,53.454021],[-1.993148,53.452295],[-1.995034,53.450597],[-1.994765,53.446914],[-1.996391,53.445772],[-1.999377,53.44585],[-2.002532,53.444118],[-2.003764,53.442901],[-2.006608,53.442411],[-2.008306,53.441452],[-2.006416,53.440445],[-2.004692,53.438011],[-2.005433,53.437143],[-2.004004,53.436234],[-2.004216,53.435922],[-2.007172,53.435701],[-2.008316,53.436094],[-2.010043,53.437259],[-2.012298,53.439917],[-2.013655,53.439883],[-2.014721,53.439571],[-2.016565,53.438098],[-2.01731,53.438614],[-2.017849,53.438392],[-2.019519,53.435787],[-2.02245,53.434322],[-2.022755,53.433098],[-2.027323,53.432401],[-2.027322,53.431886],[-2.025765,53.430093],[-2.030526,53.428454],[-2.034045,53.428752],[-2.035525,53.427507],[-2.039068,53.427182],[-2.039978,53.427383],[-2.039609,53.427869],[-2.042163,53.428741],[-2.045748,53.429359],[-2.047453,53.430063],[-2.04917,53.430034],[-2.050486,53.43089],[-2.053553,53.431317],[-2.05436,53.431129],[-2.054519,53.431678],[-2.05579,53.431771],[-2.058367,53.431012],[-2.058271,53.430577],[-2.059877,53.429978],[-2.060282,53.430525],[-2.061728,53.429883],[-2.06213,53.428979],[-2.065178,53.430164],[-2.067293,53.428699],[-2.069062,53.428289],[-2.069424,53.427737],[-2.070106,53.428132],[-2.071153,53.427832],[-2.074705,53.425972],[-2.076443,53.427007],[-2.077091,53.426864],[-2.077626,53.426178],[-2.079135,53.426109],[-2.082914,53.426819],[-2.08299,53.427293],[-2.084615,53.42789],[-2.086077,53.429832],[-2.085386,53.430136],[-2.085158,53.431536],[-2.085425,53.432451],[-2.086318,53.432784],[-2.085606,53.433176],[-2.084821,53.432857],[-2.084452,53.433057],[-2.085262,53.433564],[-2.084036,53.434097],[-2.0865,53.434727],[-2.087201,53.436205],[-2.088873,53.437259],[-2.09281,53.437539],[-2.093848,53.436481],[-2.096574,53.437057],[-2.097813,53.436904],[-2.098137,53.436089],[-2.096777,53.433583],[-2.097758,53.43336],[-2.100663,53.433552],[-2.102033,53.432666],[-2.102861,53.432644],[-2.10742,53.43375],[-2.110743,53.436319],[-2.111318,53.437597],[-2.116085,53.440746],[-2.117072,53.44019],[-2.117333,53.43931],[-2.115234,53.439402],[-2.114699,53.439058],[-2.11486,53.438664],[-2.117477,53.437175],[-2.118914,53.437045],[-2.120262,53.436402],[-2.12054,53.43699],[-2.119382,53.438889],[-2.122706,53.441078],[-2.123706,53.440794],[-2.123844,53.439783],[-2.122667,53.438236],[-2.122922,53.437762],[-2.129018,53.439452],[-2.130723,53.439435],[-2.132486,53.438465],[-2.133526,53.43828],[-2.13461,53.43738],[-2.135292,53.437635],[-2.135706,53.439334],[-2.13642,53.439154],[-2.137653,53.437756],[-2.139568,53.438331],[-2.141033,53.439192],[-2.141582,53.438966],[-2.14169,53.438251],[-2.142257,53.439783],[-2.141742,53.439845],[-2.142687,53.442254],[-2.143758,53.442665],[-2.144573,53.443655],[-2.142904,53.444561],[-2.145948,53.445542],[-2.146981,53.445491],[-2.148826,53.446579],[-2.148377,53.447412],[-2.14925,53.448505],[-2.152442,53.450299],[-2.154652,53.451048],[-2.158451,53.454937],[-2.152119,53.457721],[-2.150279,53.457942],[-2.149241,53.45941],[-2.150775,53.460214],[-2.149213,53.460325],[-2.149017,53.460582],[-2.150173,53.46079],[-2.151975,53.462536],[-2.152321,53.462462],[-2.152783,53.463247],[-2.149973,53.463711],[-2.149145,53.465155],[-2.14785,53.465786],[-2.147925,53.466626],[-2.146863,53.467498],[-2.147848,53.469043],[-2.149894,53.470913],[-2.150128,53.472326],[-2.150661,53.472866],[-2.155433,53.474444],[-2.155924,53.475319],[-2.161565,53.47485],[-2.162232,53.476294],[-2.165011,53.476897],[-2.165438,53.477258],[-2.165969,53.479557],[-2.168064,53.480088],[-2.167689,53.480111],[-2.167537,53.481096],[-2.168482,53.482933],[-2.169218,53.48573],[-2.168885,53.485759],[-2.169026,53.486125],[-2.169537,53.48608],[-2.169664,53.486782],[-2.168925,53.487181],[-2.169027,53.488523],[-2.166227,53.488868],[-2.16606,53.489714],[-2.166638,53.490858],[-2.165969,53.491573],[-2.16397,53.491397],[-2.16303,53.492849],[-2.161998,53.493354],[-2.159137,53.493227],[-2.158324,53.49355],[-2.157706,53.494384],[-2.155712,53.493513],[-2.154675,53.493456],[-2.154083,53.492846],[-2.151518,53.492863],[-2.151079,53.493154],[-2.148413,53.492909],[-2.146978,53.493799],[-2.145429,53.491973],[-2.140939,53.491128],[-2.138139,53.491799],[-2.136125,53.491928],[-2.135204,53.495271],[-2.13139,53.498283],[-2.127536,53.498498],[-2.124447,53.499659],[-2.123317,53.500667],[-2.121515,53.500782],[-2.120693,53.501262],[-2.119685,53.505727],[-2.118225,53.505749],[-2.110789,53.508332],[-2.103311,53.509671],[-2.102356,53.510996],[-2.099963,53.511726],[-2.099461,53.512472],[-2.09965,53.513255],[-2.099029,53.514005],[-2.098262,53.513886],[-2.097325,53.514786],[-2.095174,53.515854],[-2.094939,53.516924],[-2.09544,53.517643],[-2.093425,53.51812],[-2.093648,53.518819],[-2.092939,53.519528],[-2.093258,53.520617],[-2.078367,53.520631],[-2.077205,53.520274],[-2.075165,53.520661],[-2.074831,53.521242],[-2.071142,53.521302],[-2.070697,53.521736],[-2.06473,53.522817],[-2.06421,53.52126],[-2.063442,53.521232],[-2.061866,53.522311],[-2.058394,53.522964],[-2.056205,53.522183],[-2.054148,53.522269],[-2.054453,53.523822],[-2.053115,53.525579],[-2.053284,53.526828],[-2.05626,53.529294],[-2.057301,53.529267],[-2.056936,53.530677],[-2.054917,53.531393],[-2.051116,53.530432],[-2.044467,53.529877]]]}}]}