{"type":"FeatureCollection","features":[{"type":"Feature","properties":{"slug":"tamworth","gss_code":"E07000199","name":"Tamworth"},"geometry":{"type":"Polygon","coordinates":[[[-1.642711,52.651017],[-1.640692,52.649595],[-1.640306,52.648144],[-1.639387,52.647223],[-1.635989,52.64527],[-1.634603,52.64397],[-1.632994,52.643527],[-1.642538,52.640958],[-1.638217,52.637778],[-1.640188,52.634195],[-1.642422,52.63149],[-1.641945,52.63003],[-1.638181,52.625521],[-1.643086,52.623204],[-1.644118,52.620791],[-1.640156,52.62008],[-1.638679,52.620743],[-1.636015,52.619617],[-1.637063,52.617083],[-1.63905,52.615742],[-1.639841,52.614694],[-1.639087,52.610702],[-1.639777,52.608393],[-1.640978,52.606963],[-1.642193,52.606418],[-1.642913,52.605642],[-1.643777,52.603355],[-1.64518,52.603125],[-1.649137,52.600762],[-1.648864,52.598611],[-1.651578,52.598418],[-1.653008,52.597302],[-1.655509,52.596608],[-1.655099,52.595672],[-1.659874,52.595582],[-1.660781,52.59451],[-1.665708,52.595666],[-1.665298,52.594316],[-1.66564,52.592252],[-1.666664,52.59211],[-1.669066,52.592675],[-1.673646,52.592597],[-1.677665,52.593264],[-1.679223,52.592709],[-1.68032,52.593505],[-1.68272,52.59378],[-1.682855,52.593281],[-1.685786,52.593412],[-1.686061,52.592727],[-1.685658,52.589364],[-1.688629,52.588654],[-1.68984,52.589004],[-1.691356,52.58897],[-1.691498,52.589337],[-1.693891,52.589305],[-1.694595,52.590201],[-1.695873,52.590272],[-1.697532,52.591003],[-1.698648,52.590872],[-1.699258,52.5902],[-1.700968,52.59166],[-1.700426,52.591676],[-1.70073,52.592129],[-1.700265,52.593264],[-1.700858,52.593804],[-1.701875,52.594077],[-1.701803,52.594572],[-1.702271,52.594876],[-1.703023,52.594726],[-1.704287,52.595015],[-1.704246,52.59528],[-1.703682,52.595285],[-1.703699,52.59604],[-1.700309,52.5974],[-1.699375,52.597434],[-1.699501,52.597008],[-1.698605,52.597008],[-1.696392,52.598766],[-1.695181,52.598709],[-1.693934,52.59977],[-1.694328,52.6002],[-1.693277,52.601406],[-1.692859,52.603274],[-1.691284,52.603916],[-1.689987,52.605485],[-1.688822,52.605821],[-1.688976,52.606266],[-1.691034,52.607552],[-1.690909,52.609492],[-1.690324,52.610659],[-1.692095,52.612238],[-1.690586,52.614242],[-1.691453,52.617392],[-1.700607,52.615518],[-1.702056,52.615736],[-1.707522,52.619124],[-1.709527,52.621327],[-1.709609,52.622022],[-1.711887,52.62546],[-1.720943,52.628535],[-1.726121,52.632162],[-1.731258,52.632716],[-1.732292,52.634923],[-1.734919,52.63587],[-1.735837,52.636907],[-1.733093,52.63763],[-1.732652,52.638424],[-1.733652,52.639475],[-1.733488,52.640796],[-1.734163,52.642078],[-1.73371,52.642912],[-1.734466,52.644593],[-1.727222,52.645656],[-1.72571,52.646127],[-1.725682,52.646533],[-1.724703,52.646516],[-1.724498,52.646896],[-1.721407,52.647681],[-1.722863,52.649425],[-1.721536,52.649914],[-1.722553,52.651366],[-1.720499,52.651615],[-1.714092,52.651307],[-1.711427,52.650122],[-1.704418,52.650952],[-1.70151,52.650715],[-1.694354,52.651102],[-1.689718,52.650923],[-1.684369,52.647221],[-1.68131,52.64878],[-1.673204,52.650715],[-1.670752,52.651602],[-1.666474,52.652247],[-1.665395,52.652039],[-1.662688,52.652231],[-1.6584,52.653303],[-1.656116,52.654772],[-1.651575,52.655764],[-1.650471,52.656346],[-1.647261,52.657172],[-1.644987,52.657485],[-1.642905,52.654449],[-1.642123,52.652053],[-1.642711,52.651017]]]}}]}