{"type":"FeatureCollection","features":[{"type":"Feature","properties":{"slug":"tandridge","gss_code":"E07000215","name":"Tandridge"},"geometry":{"type":"Polygon","coordinates":[[[-0.020588,51.337203],[-0.01786,51.333017],[-0.017238,51.332988],[-0.016037,51.332052],[-0.014317,51.329772],[-0.01364,51.331531],[-0.011902,51.332954],[-0.010726,51.333083],[-0.010947,51.333676],[-0.009661,51.333928],[-0.007128,51.33374],[-0.007209,51.333387],[-0.001677,51.330307],[-0.000503,51.328778],[0.002255,51.329135],[0.00487,51.322076],[0.005546,51.318444],[0.006598,51.315685],[0.010354,51.316146],[0.008386,51.310561],[0.015009,51.291786],[0.019101,51.291684],[0.020874,51.295572],[0.020953,51.296778],[0.023599,51.299704],[0.024839,51.302155],[0.027978,51.304685],[0.030282,51.305558],[0.032909,51.307521],[0.036337,51.305863],[0.040918,51.302721],[0.041543,51.30298],[0.04262,51.301329],[0.043093,51.299054],[0.044298,51.298581],[0.043313,51.296582],[0.042396,51.292673],[0.042695,51.292063],[0.04478,51.290736],[0.04674,51.288592],[0.048171,51.285653],[0.046926,51.281066],[0.045361,51.277922],[0.045396,51.27666],[0.048032,51.270121],[0.04961,51.268032],[0.04968,51.265694],[0.051942,51.262683],[0.053252,51.258165],[0.054266,51.256586],[0.053844,51.254078],[0.055131,51.25238],[0.05705,51.251291],[0.058243,51.247778],[0.057365,51.244062],[0.056239,51.243176],[0.055393,51.240558],[0.053557,51.239325],[0.05393,51.238143],[0.05286,51.236527],[0.048033,51.233756],[0.046059,51.233319],[0.045136,51.231947],[0.043809,51.230887],[0.043864,51.229783],[0.043039,51.229083],[0.042302,51.227377],[0.043685,51.225827],[0.042834,51.22461],[0.042314,51.222577],[0.042951,51.221794],[0.043167,51.220162],[0.04145,51.218251],[0.041149,51.216624],[0.03628,51.216582],[0.033599,51.214338],[0.034721,51.213482],[0.034024,51.212031],[0.034051,51.21174],[0.034595,51.21166],[0.033588,51.211324],[0.033988,51.210881],[0.033772,51.210554],[0.03539,51.208486],[0.036379,51.208165],[0.036198,51.207956],[0.03729,51.20706],[0.036697,51.205181],[0.035794,51.204214],[0.039158,51.200873],[0.038309,51.199765],[0.038387,51.198833],[0.038697,51.198463],[0.039324,51.19846],[0.039682,51.197822],[0.040445,51.197883],[0.040678,51.197611],[0.04042,51.196663],[0.0414,51.195841],[0.042534,51.194048],[0.042065,51.193709],[0.042514,51.193605],[0.042775,51.192991],[0.044051,51.192622],[0.044545,51.191853],[0.046017,51.192159],[0.046966,51.191685],[0.047823,51.191742],[0.047325,51.189999],[0.045167,51.188615],[0.046255,51.187844],[0.046859,51.187783],[0.046257,51.187341],[0.047359,51.186336],[0.04736,51.18556],[0.048914,51.184879],[0.049437,51.185017],[0.049811,51.182905],[0.052287,51.181227],[0.0526,51.180624],[0.051685,51.178697],[0.051778,51.177755],[0.050904,51.17718],[0.050499,51.176282],[0.048697,51.175591],[0.048231,51.174331],[0.047289,51.174063],[0.046694,51.173478],[0.046176,51.171831],[0.046562,51.171468],[0.046251,51.169193],[0.047029,51.168926],[0.046684,51.168448],[0.047087,51.167718],[0.046392,51.166206],[0.046945,51.16487],[0.048624,51.164418],[0.047514,51.161243],[0.048901,51.158817],[0.051494,51.157245],[0.051434,51.154375],[0.050841,51.153515],[0.051223,51.151684],[0.052414,51.150746],[0.054683,51.150434],[0.054805,51.149529],[0.05425,51.148315],[0.053076,51.147462],[0.051852,51.144925],[0.050918,51.144701],[0.049891,51.143912],[0.050017,51.14265],[0.042945,51.141636],[0.041708,51.141014],[0.041205,51.141188],[0.038368,51.140285],[0.035236,51.140384],[0.031596,51.139794],[0.029328,51.140011],[0.023239,51.139073],[0.020986,51.139348],[0.019915,51.139952],[0.017094,51.139149],[0.010984,51.138949],[0.007097,51.138986],[0.001166,51.139606],[-0.001397,51.138934],[-0.003149,51.138106],[-0.005427,51.138209],[-0.005483,51.137948],[-0.006732,51.137641],[-0.00623,51.138474],[-0.006786,51.13914],[-0.010044,51.138313],[-0.010172,51.13874],[-0.011332,51.139073],[-0.012446,51.138899],[-0.012455,51.139266],[-0.01445,51.139625],[-0.014414,51.140066],[-0.016165,51.140381],[-0.016701,51.140995],[-0.017653,51.141185],[-0.018344,51.141184],[-0.018781,51.140719],[-0.020369,51.140957],[-0.020049,51.139288],[-0.021136,51.139389],[-0.024655,51.138613],[-0.030705,51.138617],[-0.033241,51.139261],[-0.04178,51.139566],[-0.046354,51.139131],[-0.053017,51.137839],[-0.056326,51.136766],[-0.063203,51.141258],[-0.06708,51.141107],[-0.073962,51.141778],[-0.076313,51.142296],[-0.081066,51.142204],[-0.082613,51.142638],[-0.085389,51.142751],[-0.09369,51.138426],[-0.109169,51.139368],[-0.111765,51.140079],[-0.111644,51.140375],[-0.114965,51.140702],[-0.114586,51.141104],[-0.117252,51.141606],[-0.117829,51.140575],[-0.120811,51.140722],[-0.124558,51.140273],[-0.125143,51.14086],[-0.12757,51.140302],[-0.127402,51.139536],[-0.131085,51.139434],[-0.131749,51.141469],[-0.137572,51.14216],[-0.136331,51.146383],[-0.13503,51.155981],[-0.134192,51.157722],[-0.13296,51.158884],[-0.133136,51.159229],[-0.135984,51.159738],[-0.140462,51.160047],[-0.140359,51.160416],[-0.135796,51.160741],[-0.128234,51.162842],[-0.127719,51.16504],[-0.12898,51.174791],[-0.134909,51.176498],[-0.135131,51.177359],[-0.136367,51.177932],[-0.135885,51.179312],[-0.136695,51.181204],[-0.139419,51.182546],[-0.141667,51.184852],[-0.140324,51.185969],[-0.141491,51.186443],[-0.143508,51.186535],[-0.142955,51.190392],[-0.141602,51.190672],[-0.141555,51.191473],[-0.139366,51.192986],[-0.137776,51.195971],[-0.137024,51.200569],[-0.137904,51.203991],[-0.13775,51.206609],[-0.137321,51.206595],[-0.136747,51.20754],[-0.135654,51.210527],[-0.135868,51.212074],[-0.143745,51.210744],[-0.145593,51.210728],[-0.144539,51.213574],[-0.144766,51.216232],[-0.145241,51.216216],[-0.147442,51.219945],[-0.149484,51.221916],[-0.152947,51.226324],[-0.152488,51.226771],[-0.153357,51.227136],[-0.155047,51.230726],[-0.153007,51.234378],[-0.152192,51.23504],[-0.151393,51.234937],[-0.150388,51.235997],[-0.149434,51.234594],[-0.148067,51.234176],[-0.145307,51.237297],[-0.146023,51.239566],[-0.145328,51.24059],[-0.145288,51.241592],[-0.143076,51.243876],[-0.142734,51.245786],[-0.144373,51.247927],[-0.144898,51.250229],[-0.145738,51.251214],[-0.144199,51.251807],[-0.142949,51.253323],[-0.139447,51.253338],[-0.135135,51.254717],[-0.131793,51.25417],[-0.131522,51.256559],[-0.129624,51.259891],[-0.127608,51.261652],[-0.126802,51.261737],[-0.126825,51.2641],[-0.128635,51.264147],[-0.130094,51.265605],[-0.129674,51.266525],[-0.132037,51.26902],[-0.132023,51.269683],[-0.129986,51.272557],[-0.130249,51.274359],[-0.131494,51.276833],[-0.130401,51.279547],[-0.130138,51.281732],[-0.130985,51.284815],[-0.126797,51.284917],[-0.127336,51.286438],[-0.117787,51.287182],[-0.11694,51.289488],[-0.115494,51.291166],[-0.114553,51.291554],[-0.114734,51.292451],[-0.111052,51.292253],[-0.102637,51.296007],[-0.100545,51.296448],[-0.094276,51.299439],[-0.095776,51.299602],[-0.097396,51.300385],[-0.097336,51.301101],[-0.095998,51.301514],[-0.094818,51.300621],[-0.091224,51.301475],[-0.091172,51.303392],[-0.090726,51.303945],[-0.089687,51.303963],[-0.088698,51.305147],[-0.088825,51.307219],[-0.086761,51.308795],[-0.081932,51.310647],[-0.081893,51.312609],[-0.084802,51.315867],[-0.083591,51.316382],[-0.083662,51.316651],[-0.082237,51.316947],[-0.081504,51.316722],[-0.080179,51.317842],[-0.078835,51.318098],[-0.078913,51.31977],[-0.07494,51.320237],[-0.07102,51.321224],[-0.070067,51.3189],[-0.063986,51.31864],[-0.062079,51.3192],[-0.060658,51.320064],[-0.058392,51.320383],[-0.056207,51.321682],[-0.054864,51.32128],[-0.052531,51.322419],[-0.051307,51.322452],[-0.051267,51.323438],[-0.049765,51.325267],[-0.047869,51.325245],[-0.047828,51.32651],[-0.04907,51.328608],[-0.048749,51.328718],[-0.051081,51.330845],[-0.051042,51.331594],[-0.050072,51.332053],[-0.050277,51.332638],[-0.048489,51.332802],[-0.046606,51.333538],[-0.041986,51.33386],[-0.039645,51.337477],[-0.03792,51.338725],[-0.034509,51.338083],[-0.032822,51.337415],[-0.030779,51.337472],[-0.02613,51.338546],[-0.02215,51.338131],[-0.020588,51.337203]]]}}]}