{"type":"FeatureCollection","features":[{"type":"Feature","properties":{"slug":"teignbridge","gss_code":"E07000045","name":"Teignbridge"},"geometry":{"type":"MultiPolygon","coordinates":[[[[-3.585319,50.537565],[-3.584441,50.537887],[-3.58519,50.537193],[-3.583794,50.537953],[-3.583372,50.537889],[-3.583515,50.537438],[-3.588515,50.536106],[-3.589328,50.5371],[-3.58829,50.53903],[-3.585393,50.539032],[-3.585259,50.538772],[-3.583756,50.538587],[-3.585086,50.53802],[-3.584611,50.537907],[-3.585319,50.537565]]],[[[-3.44717,50.61718],[-3.44747,50.618635],[-3.447254,50.618713],[-3.44717,50.61718]]],[[[-3.665985,50.759914],[-3.661867,50.759643],[-3.65913,50.758143],[-3.659343,50.757929],[-3.65882,50.757484],[-3.656712,50.757201],[-3.656037,50.757442],[-3.656081,50.7571],[-3.653424,50.756337],[-3.648074,50.756885],[-3.646424,50.756711],[-3.644013,50.757361],[-3.641498,50.758618],[-3.64066,50.758257],[-3.640888,50.757077],[-3.639717,50.755255],[-3.636271,50.755758],[-3.634686,50.755075],[-3.631975,50.754821],[-3.627365,50.75618],[-3.624837,50.756108],[-3.623183,50.755496],[-3.622219,50.755721],[-3.621879,50.75561],[-3.621252,50.753112],[-3.620164,50.752149],[-3.619961,50.750949],[-3.61839,50.751082],[-3.617107,50.751961],[-3.615737,50.752304],[-3.614353,50.753956],[-3.608846,50.754198],[-3.6088,50.753362],[-3.607665,50.752746],[-3.606741,50.751278],[-3.606232,50.748831],[-3.603249,50.747421],[-3.602004,50.745965],[-3.601139,50.746309],[-3.599,50.746441],[-3.598439,50.747044],[-3.596704,50.746858],[-3.596603,50.74778],[-3.595265,50.747569],[-3.593588,50.746304],[-3.593184,50.746454],[-3.591903,50.744988],[-3.592306,50.744823],[-3.592149,50.743285],[-3.587881,50.744023],[-3.58552,50.743866],[-3.583083,50.741559],[-3.579467,50.741836],[-3.573378,50.744114],[-3.569664,50.745004],[-3.569025,50.74094],[-3.566646,50.740646],[-3.564706,50.739981],[-3.566011,50.739622],[-3.567372,50.737355],[-3.564468,50.735564],[-3.563884,50.733695],[-3.563047,50.733355],[-3.562723,50.732278],[-3.561726,50.731992],[-3.560578,50.730058],[-3.56079,50.729737],[-3.561867,50.729632],[-3.563202,50.728717],[-3.566216,50.72912],[-3.567698,50.72834],[-3.566885,50.72744],[-3.570132,50.72783],[-3.568412,50.726232],[-3.567851,50.726165],[-3.566684,50.72446],[-3.565733,50.72379],[-3.566082,50.723104],[-3.565429,50.722242],[-3.565127,50.720098],[-3.564783,50.719986],[-3.564627,50.717852],[-3.565571,50.716709],[-3.565749,50.715408],[-3.566227,50.715073],[-3.56702,50.715347],[-3.568229,50.715253],[-3.568678,50.715112],[-3.568702,50.714614],[-3.566893,50.714179],[-3.566201,50.711217],[-3.564875,50.710865],[-3.565109,50.710594],[-3.56299,50.709039],[-3.562744,50.706903],[-3.5507,50.704439],[-3.547667,50.703235],[-3.545481,50.70191],[-3.542999,50.699409],[-3.539092,50.692918],[-3.538142,50.693407],[-3.533709,50.692728],[-3.529388,50.692817],[-3.526832,50.69532],[-3.52509,50.69366],[-3.522818,50.692577],[-3.520899,50.692526],[-3.518779,50.693033],[-3.517749,50.692486],[-3.510871,50.692229],[-3.506782,50.691116],[-3.505409,50.691416],[-3.503654,50.692623],[-3.503261,50.692421],[-3.50177,50.694325],[-3.499578,50.694194],[-3.496028,50.692964],[-3.49435,50.692741],[-3.49363,50.692011],[-3.4936,50.691142],[-3.493887,50.690436],[-3.4948,50.68985],[-3.492755,50.688886],[-3.492728,50.688611],[-3.490237,50.688266],[-3.487823,50.688882],[-3.483887,50.688229],[-3.482544,50.687792],[-3.482341,50.68659],[-3.480807,50.686044],[-3.480455,50.685294],[-3.479618,50.685324],[-3.476928,50.683333],[-3.470467,50.681851],[-3.469828,50.682253],[-3.468691,50.681819],[-3.468882,50.681242],[-3.467659,50.675803],[-3.467223,50.675285],[-3.467592,50.674908],[-3.467706,50.667486],[-3.466627,50.665489],[-3.466707,50.664353],[-3.466083,50.663286],[-3.467498,50.664645],[-3.468195,50.663954],[-3.467372,50.663377],[-3.465375,50.660205],[-3.462056,50.658816],[-3.460673,50.657884],[-3.459827,50.657945],[-3.457649,50.657067],[-3.456538,50.656148],[-3.45559,50.652829],[-3.452697,50.649491],[-3.451264,50.647084],[-3.45257,50.644662],[-3.452536,50.64225],[-3.449788,50.63573],[-3.449454,50.63254],[-3.450159,50.632253],[-3.449451,50.632482],[-3.446107,50.624821],[-3.447252,50.61881],[-3.449054,50.61834],[-3.448992,50.616971],[-3.448099,50.616782],[-3.446935,50.617054],[-3.445744,50.614358],[-3.444509,50.607315],[-3.444769,50.605616],[-3.445921,50.605543],[-3.444787,50.605553],[-3.443585,50.601275],[-3.443159,50.60189],[-3.443675,50.60189],[-3.442877,50.602344],[-3.443595,50.602056],[-3.443592,50.602523],[-3.443004,50.602626],[-3.443822,50.602579],[-3.443577,50.603159],[-3.443055,50.603391],[-3.443462,50.602997],[-3.442618,50.602731],[-3.442068,50.603302],[-3.442859,50.60204],[-3.439614,50.604375],[-3.439954,50.604857],[-3.438661,50.604953],[-3.436324,50.605864],[-3.43543,50.606685],[-3.433436,50.607049],[-3.431383,50.607937],[-3.43092,50.607839],[-3.431025,50.607287],[-3.430368,50.607177],[-3.4285,50.607905],[-3.427547,50.609173],[-3.427453,50.61047],[-3.428157,50.611016],[-3.429164,50.61122],[-3.429837,50.611135],[-3.43041,50.61024],[-3.430649,50.61055],[-3.429993,50.611789],[-3.427767,50.613176],[-3.423505,50.614594],[-3.42252,50.614121],[-3.422702,50.613287],[-3.429782,50.605433],[-3.439106,50.59962],[-3.439753,50.598764],[-3.439306,50.598082],[-3.442023,50.596649],[-3.443021,50.595689],[-3.443739,50.593125],[-3.443458,50.592852],[-3.443976,50.592721],[-3.443466,50.592022],[-3.445052,50.59187],[-3.449492,50.589897],[-3.456999,50.585789],[-3.461269,50.582834],[-3.460764,50.582386],[-3.461346,50.582705],[-3.46486,50.580004],[-3.464395,50.579461],[-3.464989,50.579749],[-3.466976,50.578114],[-3.46754,50.577348],[-3.467062,50.576658],[-3.467693,50.575556],[-3.467451,50.575396],[-3.467783,50.575469],[-3.469125,50.574126],[-3.468621,50.573522],[-3.468548,50.573169],[-3.468806,50.573119],[-3.468475,50.572516],[-3.469083,50.572123],[-3.468201,50.571834],[-3.467986,50.571536],[-3.468574,50.571573],[-3.469568,50.570523],[-3.468545,50.566342],[-3.469596,50.564392],[-3.469288,50.563526],[-3.468441,50.562976],[-3.469545,50.563221],[-3.470211,50.562634],[-3.469791,50.562381],[-3.470704,50.562403],[-3.472295,50.561866],[-3.473192,50.56234],[-3.474618,50.562322],[-3.474538,50.562021],[-3.477356,50.560443],[-3.48177,50.556382],[-3.483153,50.554463],[-3.486562,50.552242],[-3.496444,50.542503],[-3.49943,50.54122],[-3.499816,50.540539],[-3.500667,50.540708],[-3.498876,50.542229],[-3.498337,50.543466],[-3.498575,50.544331],[-3.499053,50.544567],[-3.498784,50.544849],[-3.499531,50.544842],[-3.499326,50.545236],[-3.49986,50.54502],[-3.501056,50.545917],[-3.507343,50.546216],[-3.507588,50.546552],[-3.509805,50.546841],[-3.509723,50.546599],[-3.510469,50.54643],[-3.510345,50.545876],[-3.511026,50.546435],[-3.51512,50.545813],[-3.515497,50.545463],[-3.516924,50.54544],[-3.524729,50.547097],[-3.529265,50.547279],[-3.532764,50.547024],[-3.536888,50.546227],[-3.537678,50.544918],[-3.539298,50.545313],[-3.540725,50.544993],[-3.542077,50.545405],[-3.546666,50.54517],[-3.548493,50.544715],[-3.549595,50.545168],[-3.551967,50.545043],[-3.553436,50.545327],[-3.554807,50.54494],[-3.555751,50.545503],[-3.559241,50.545502],[-3.564705,50.544533],[-3.566616,50.542932],[-3.568147,50.5424],[-3.569805,50.542745],[-3.573316,50.542755],[-3.577394,50.542106],[-3.578987,50.541627],[-3.580058,50.540757],[-3.580111,50.540192],[-3.580584,50.539982],[-3.580424,50.539353],[-3.580643,50.539295],[-3.582347,50.539625],[-3.59087,50.538847],[-3.590689,50.538623],[-3.591528,50.538507],[-3.590897,50.53839],[-3.588799,50.538931],[-3.589525,50.537574],[-3.589016,50.536136],[-3.589763,50.534835],[-3.591732,50.534535],[-3.592423,50.534668],[-3.593329,50.534576],[-3.593706,50.534829],[-3.593442,50.535473],[-3.591756,50.535417],[-3.593343,50.535509],[-3.593463,50.535485],[-3.593651,50.535358],[-3.593728,50.534708],[-3.593293,50.534526],[-3.591962,50.534508],[-3.596836,50.533543],[-3.598664,50.534733],[-3.602801,50.536584],[-3.601614,50.53804],[-3.602835,50.538878],[-3.602605,50.540075],[-3.605959,50.541169],[-3.602801,50.539913],[-3.603062,50.538989],[-3.601892,50.538022],[-3.60303,50.536615],[-3.602995,50.536276],[-3.599113,50.534781],[-3.601229,50.534702],[-3.604922,50.535331],[-3.607404,50.537215],[-3.60567,50.537084],[-3.607678,50.537437],[-3.607443,50.538493],[-3.607938,50.537591],[-3.607731,50.538947],[-3.608417,50.539921],[-3.607785,50.538958],[-3.608155,50.5378],[-3.608621,50.538101],[-3.608306,50.5384],[-3.608682,50.538129],[-3.609139,50.538397],[-3.605046,50.535272],[-3.603419,50.534883],[-3.60389,50.534494],[-3.603294,50.534902],[-3.601365,50.534619],[-3.599125,50.534533],[-3.597877,50.533693],[-3.598331,50.533566],[-3.600483,50.534133],[-3.601592,50.534029],[-3.602982,50.533421],[-3.60466,50.531791],[-3.606506,50.531599],[-3.604674,50.531714],[-3.602767,50.533441],[-3.600664,50.534044],[-3.59776,50.533363],[-3.596833,50.533269],[-3.592848,50.534077],[-3.590044,50.534179],[-3.591317,50.531407],[-3.593025,50.529028],[-3.59511,50.525012],[-3.594935,50.524316],[-3.594974,50.524947],[-3.594053,50.526149],[-3.592773,50.529241],[-3.591151,50.531545],[-3.589522,50.534431],[-3.5883,50.53588],[-3.57661,50.538381],[-3.572818,50.538364],[-3.57042,50.538717],[-3.567296,50.538639],[-3.566296,50.538218],[-3.56598,50.538437],[-3.566467,50.53905],[-3.565378,50.539455],[-3.559349,50.539214],[-3.558241,50.539794],[-3.553953,50.540747],[-3.552232,50.540077],[-3.550997,50.541113],[-3.548811,50.540032],[-3.543529,50.539746],[-3.540385,50.538093],[-3.539385,50.540383],[-3.535748,50.540462],[-3.533288,50.540063],[-3.532122,50.540342],[-3.53122,50.540042],[-3.52925,50.540602],[-3.52725,50.540287],[-3.524068,50.540594],[-3.522089,50.541235],[-3.520969,50.540853],[-3.51878,50.541355],[-3.517981,50.540639],[-3.514124,50.540944],[-3.512443,50.541952],[-3.510094,50.54215],[-3.50981,50.542857],[-3.509704,50.54229],[-3.507393,50.542149],[-3.504804,50.541139],[-3.501498,50.539282],[-3.498526,50.53818],[-3.497125,50.538253],[-3.496177,50.537937],[-3.496135,50.537493],[-3.498705,50.535377],[-3.500784,50.532864],[-3.50115,50.530043],[-3.501969,50.529629],[-3.502921,50.528484],[-3.503051,50.527583],[-3.504199,50.526235],[-3.503831,50.525586],[-3.504708,50.524602],[-3.504971,50.523214],[-3.506458,50.521656],[-3.506965,50.519334],[-3.507892,50.518925],[-3.508146,50.517822],[-3.509045,50.517263],[-3.509135,50.51658],[-3.513815,50.516539],[-3.516533,50.518494],[-3.517196,50.517397],[-3.52083,50.517698],[-3.519989,50.510984],[-3.523247,50.509808],[-3.525,50.508618],[-3.525718,50.50852],[-3.529067,50.506787],[-3.528214,50.50607],[-3.529581,50.506035],[-3.529943,50.504553],[-3.532772,50.505251],[-3.53318,50.504634],[-3.535127,50.505142],[-3.536633,50.505937],[-3.538481,50.504392],[-3.539143,50.504535],[-3.539024,50.502173],[-3.541285,50.500763],[-3.542259,50.498838],[-3.543276,50.498968],[-3.543798,50.497347],[-3.551572,50.494889],[-3.558409,50.495026],[-3.561075,50.494463],[-3.562834,50.493333],[-3.562096,50.491493],[-3.562389,50.488477],[-3.564774,50.486967],[-3.567251,50.487915],[-3.567508,50.489413],[-3.568989,50.489964],[-3.568968,50.490394],[-3.569641,50.490706],[-3.570194,50.490444],[-3.57032,50.489293],[-3.57124,50.488253],[-3.571992,50.487842],[-3.572835,50.487865],[-3.572947,50.487462],[-3.574104,50.487667],[-3.574921,50.486856],[-3.574846,50.486001],[-3.575292,50.48581],[-3.575635,50.484539],[-3.576652,50.483163],[-3.579216,50.482198],[-3.580845,50.480321],[-3.581962,50.48029],[-3.582076,50.47983],[-3.584471,50.47924],[-3.58425,50.477723],[-3.587565,50.478563],[-3.588849,50.478567],[-3.590725,50.479622],[-3.591451,50.479663],[-3.592426,50.480922],[-3.595112,50.482709],[-3.595218,50.483236],[-3.598046,50.484396],[-3.59833,50.484162],[-3.603095,50.484507],[-3.60442,50.484045],[-3.607073,50.482062],[-3.608582,50.481589],[-3.609799,50.480711],[-3.613222,50.475602],[-3.612589,50.472252],[-3.614389,50.472388],[-3.613204,50.469602],[-3.614207,50.469208],[-3.616587,50.469661],[-3.620961,50.469707],[-3.621415,50.468276],[-3.623446,50.466665],[-3.626244,50.466783],[-3.627338,50.46618],[-3.631361,50.466216],[-3.632384,50.466917],[-3.63326,50.466379],[-3.633976,50.466416],[-3.634479,50.467035],[-3.637186,50.46785],[-3.638058,50.466862],[-3.640621,50.465603],[-3.642481,50.463031],[-3.645015,50.461157],[-3.647392,50.462156],[-3.653056,50.463817],[-3.658807,50.464623],[-3.657742,50.464998],[-3.65581,50.466496],[-3.653621,50.467396],[-3.65409,50.467785],[-3.652936,50.468737],[-3.652455,50.468138],[-3.650158,50.468471],[-3.65012,50.470553],[-3.652239,50.470212],[-3.652719,50.469769],[-3.654865,50.469703],[-3.655165,50.469799],[-3.654692,50.470324],[-3.653301,50.470644],[-3.654713,50.471867],[-3.65549,50.472061],[-3.656857,50.471451],[-3.658011,50.471686],[-3.661982,50.469656],[-3.66259,50.469792],[-3.664059,50.469222],[-3.664089,50.46891],[-3.664587,50.469033],[-3.664905,50.468758],[-3.664951,50.467925],[-3.666367,50.467879],[-3.667029,50.467169],[-3.668347,50.466735],[-3.668673,50.466023],[-3.667907,50.465435],[-3.668354,50.46415],[-3.669112,50.463417],[-3.668864,50.463021],[-3.669364,50.462157],[-3.670219,50.462252],[-3.671141,50.463164],[-3.671123,50.464196],[-3.671947,50.464992],[-3.673212,50.465317],[-3.674425,50.466258],[-3.67495,50.466108],[-3.676787,50.466982],[-3.67788,50.467015],[-3.679605,50.467609],[-3.680024,50.468076],[-3.681525,50.467944],[-3.681501,50.468221],[-3.681925,50.468517],[-3.682472,50.468418],[-3.683017,50.469093],[-3.686305,50.470102],[-3.688505,50.47199],[-3.689496,50.472247],[-3.689886,50.472894],[-3.69081,50.473255],[-3.690787,50.473635],[-3.691387,50.47397],[-3.691226,50.474474],[-3.69228,50.474725],[-3.693754,50.475938],[-3.694065,50.477851],[-3.697185,50.478267],[-3.698288,50.478847],[-3.698682,50.478701],[-3.699997,50.479646],[-3.703157,50.480023],[-3.703869,50.480458],[-3.706011,50.480485],[-3.706481,50.481136],[-3.707523,50.480965],[-3.707873,50.481283],[-3.708376,50.480993],[-3.710241,50.481792],[-3.71045,50.482609],[-3.710948,50.482829],[-3.711642,50.482358],[-3.712066,50.48301],[-3.715478,50.485016],[-3.716079,50.485746],[-3.716205,50.486728],[-3.717051,50.487421],[-3.716854,50.48827],[-3.71761,50.489198],[-3.716959,50.490667],[-3.718706,50.49244],[-3.718495,50.493036],[-3.719363,50.49345],[-3.720228,50.493404],[-3.720699,50.494016],[-3.721527,50.494334],[-3.722332,50.494273],[-3.722693,50.494571],[-3.723344,50.494382],[-3.725192,50.495323],[-3.727584,50.497747],[-3.730425,50.498851],[-3.734133,50.50138],[-3.735273,50.502391],[-3.735858,50.503816],[-3.737246,50.505479],[-3.737402,50.506344],[-3.741847,50.507955],[-3.745215,50.507586],[-3.747433,50.508027],[-3.750371,50.50933],[-3.756291,50.510392],[-3.758354,50.509147],[-3.764361,50.506708],[-3.766584,50.505057],[-3.767767,50.503406],[-3.768227,50.501358],[-3.767806,50.499547],[-3.765775,50.495999],[-3.76559,50.494033],[-3.766126,50.492434],[-3.768327,50.488859],[-3.769201,50.485812],[-3.767482,50.48489],[-3.766301,50.481865],[-3.761198,50.479048],[-3.760789,50.478531],[-3.760909,50.477186],[-3.757888,50.474421],[-3.757691,50.473536],[-3.758942,50.470038],[-3.758858,50.466819],[-3.762042,50.467743],[-3.764142,50.467493],[-3.765823,50.466687],[-3.768139,50.467056],[-3.772269,50.464378],[-3.772915,50.463489],[-3.774247,50.463548],[-3.775965,50.464152],[-3.776675,50.463949],[-3.778821,50.465881],[-3.779794,50.468594],[-3.78101,50.47002],[-3.78201,50.472292],[-3.784447,50.473321],[-3.784872,50.472898],[-3.786405,50.472634],[-3.786779,50.472075],[-3.787313,50.471973],[-3.786599,50.473199],[-3.78628,50.475447],[-3.787284,50.475603],[-3.786982,50.477044],[-3.786129,50.477745],[-3.788876,50.478256],[-3.791903,50.477805],[-3.792249,50.478487],[-3.793241,50.47843],[-3.793303,50.480049],[-3.79428,50.480983],[-3.791126,50.482262],[-3.793033,50.483936],[-3.794846,50.486411],[-3.796971,50.487286],[-3.798163,50.489432],[-3.794344,50.490003],[-3.795286,50.491969],[-3.792198,50.492995],[-3.789505,50.49295],[-3.790727,50.495611],[-3.787171,50.494901],[-3.782926,50.494729],[-3.779091,50.494911],[-3.775861,50.495589],[-3.77638,50.497337],[-3.778395,50.498546],[-3.780408,50.498825],[-3.785575,50.498723],[-3.789222,50.499412],[-3.790688,50.500169],[-3.791775,50.501429],[-3.791661,50.502296],[-3.788235,50.503813],[-3.787103,50.505013],[-3.786302,50.507419],[-3.787502,50.509983],[-3.785367,50.513554],[-3.784758,50.517716],[-3.788025,50.520546],[-3.789412,50.521221],[-3.791147,50.521441],[-3.794266,50.520837],[-3.798174,50.520951],[-3.799501,50.521704],[-3.799638,50.522735],[-3.797998,50.525833],[-3.797699,50.529876],[-3.794871,50.532562],[-3.798359,50.534956],[-3.799469,50.536388],[-3.800882,50.536928],[-3.80198,50.536763],[-3.803891,50.535415],[-3.805207,50.533882],[-3.805496,50.532886],[-3.808956,50.532821],[-3.811095,50.530858],[-3.814933,50.529491],[-3.814569,50.527376],[-3.813583,50.525963],[-3.813708,50.525412],[-3.818212,50.525036],[-3.819993,50.52204],[-3.820245,50.519186],[-3.821854,50.516929],[-3.822593,50.516606],[-3.825288,50.51679],[-3.827219,50.516412],[-3.829296,50.518271],[-3.836315,50.523311],[-3.83716,50.524887],[-3.836581,50.525288],[-3.836109,50.526688],[-3.836559,50.52746],[-3.840326,50.5302],[-3.842687,50.530486],[-3.84385,50.531043],[-3.844054,50.531753],[-3.843347,50.533311],[-3.844738,50.534433],[-3.851638,50.536152],[-3.853063,50.535439],[-3.855391,50.53314],[-3.85856,50.532582],[-3.861591,50.534081],[-3.863214,50.534461],[-3.866395,50.534545],[-3.87144,50.53414],[-3.872009,50.534471],[-3.87276,50.536021],[-3.875045,50.537803],[-3.875333,50.540179],[-3.875011,50.541104],[-3.875601,50.54243],[-3.875863,50.544556],[-3.874875,50.545431],[-3.875132,50.546618],[-3.875987,50.547253],[-3.875615,50.54766],[-3.875905,50.549249],[-3.877129,50.550001],[-3.87743,50.552503],[-3.876829,50.553156],[-3.874295,50.554211],[-3.874595,50.555175],[-3.874041,50.556197],[-3.875929,50.556982],[-3.876226,50.558913],[-3.874281,50.561823],[-3.874852,50.564019],[-3.874341,50.564791],[-3.873013,50.565569],[-3.872802,50.566444],[-3.87186,50.566774],[-3.871882,50.568117],[-3.870713,50.569189],[-3.869692,50.5713],[-3.870134,50.572144],[-3.872575,50.573384],[-3.873802,50.57515],[-3.876976,50.575151],[-3.877353,50.575648],[-3.877711,50.578743],[-3.877293,50.579039],[-3.878421,50.579928],[-3.878358,50.580456],[-3.879285,50.580856],[-3.880935,50.584351],[-3.880385,50.585696],[-3.879248,50.586259],[-3.880704,50.586959],[-3.880579,50.587419],[-3.881368,50.587738],[-3.88051,50.589332],[-3.881178,50.590441],[-3.881136,50.592472],[-3.882823,50.595003],[-3.882482,50.596724],[-3.879187,50.599528],[-3.874924,50.609127],[-3.873033,50.610973],[-3.872497,50.612637],[-3.87336,50.614297],[-3.869802,50.616889],[-3.867308,50.619312],[-3.864264,50.623439],[-3.862049,50.625136],[-3.860565,50.625822],[-3.858096,50.626185],[-3.857743,50.628957],[-3.855984,50.630677],[-3.854455,50.631639],[-3.852778,50.631605],[-3.850372,50.632319],[-3.84887,50.633528],[-3.848384,50.634444],[-3.845924,50.635698],[-3.845281,50.641023],[-3.843614,50.643051],[-3.843925,50.645259],[-3.843578,50.646945],[-3.841759,50.648231],[-3.837754,50.649821],[-3.834762,50.649708],[-3.832759,50.648911],[-3.83175,50.647781],[-3.830264,50.647655],[-3.82928,50.64793],[-3.828814,50.648973],[-3.828847,50.650481],[-3.826654,50.651771],[-3.824514,50.652048],[-3.823825,50.651595],[-3.821937,50.651391],[-3.82069,50.651792],[-3.820124,50.651673],[-3.820031,50.652223],[-3.818519,50.652307],[-3.817399,50.651402],[-3.815977,50.651597],[-3.81415,50.651305],[-3.814231,50.652926],[-3.813484,50.653384],[-3.811697,50.653668],[-3.810792,50.654237],[-3.809911,50.654193],[-3.81021,50.655163],[-3.80938,50.655671],[-3.806833,50.655495],[-3.804646,50.655906],[-3.805901,50.656702],[-3.807243,50.658593],[-3.809658,50.658989],[-3.811925,50.658749],[-3.811996,50.658997],[-3.811083,50.659595],[-3.810397,50.662456],[-3.809484,50.662902],[-3.809656,50.664635],[-3.806238,50.665364],[-3.803495,50.666572],[-3.804529,50.667365],[-3.801574,50.668734],[-3.801609,50.669748],[-3.800588,50.670335],[-3.799414,50.671764],[-3.799018,50.673164],[-3.797217,50.674915],[-3.798077,50.675768],[-3.798485,50.677693],[-3.802843,50.678617],[-3.807026,50.681612],[-3.807752,50.682806],[-3.807872,50.684622],[-3.810989,50.68939],[-3.811623,50.691025],[-3.809736,50.69258],[-3.808918,50.693998],[-3.807285,50.694745],[-3.803317,50.693637],[-3.801658,50.693695],[-3.798784,50.692909],[-3.791881,50.69384],[-3.789372,50.692798],[-3.786785,50.692158],[-3.784944,50.692812],[-3.784279,50.693424],[-3.783781,50.69489],[-3.78257,50.695528],[-3.780001,50.695322],[-3.777105,50.693474],[-3.77575,50.693061],[-3.773832,50.693166],[-3.76848,50.694976],[-3.761649,50.693216],[-3.760644,50.693309],[-3.758477,50.694431],[-3.756745,50.694829],[-3.753443,50.694308],[-3.752673,50.696327],[-3.749543,50.697158],[-3.745598,50.696664],[-3.741789,50.695516],[-3.735076,50.695896],[-3.732247,50.697002],[-3.733686,50.698601],[-3.73347,50.699465],[-3.73403,50.700136],[-3.7337,50.700243],[-3.735126,50.701247],[-3.735011,50.702003],[-3.735678,50.702524],[-3.735593,50.703184],[-3.733861,50.70457],[-3.733915,50.706518],[-3.734869,50.708328],[-3.733236,50.71142],[-3.731054,50.713646],[-3.72924,50.714475],[-3.724214,50.715651],[-3.727475,50.717308],[-3.732587,50.718721],[-3.734989,50.721717],[-3.737514,50.723531],[-3.734229,50.723793],[-3.727558,50.727128],[-3.723342,50.728154],[-3.722748,50.731497],[-3.719656,50.734639],[-3.718241,50.737308],[-3.71006,50.742704],[-3.708375,50.748708],[-3.701929,50.75085],[-3.694315,50.752446],[-3.691848,50.753772],[-3.688989,50.752416],[-3.687687,50.752478],[-3.682765,50.751557],[-3.68158,50.750125],[-3.680249,50.749897],[-3.680358,50.750412],[-3.679441,50.750515],[-3.678986,50.750931],[-3.679175,50.752125],[-3.6782,50.752334],[-3.67853,50.753088],[-3.679357,50.753446],[-3.679231,50.754116],[-3.679574,50.754266],[-3.678323,50.755124],[-3.678649,50.755303],[-3.678399,50.755596],[-3.677418,50.755422],[-3.676568,50.755977],[-3.676776,50.756425],[-3.676174,50.756384],[-3.676085,50.756642],[-3.676627,50.756803],[-3.675905,50.756873],[-3.676161,50.757377],[-3.675459,50.757441],[-3.675801,50.757776],[-3.675128,50.757864],[-3.675024,50.758553],[-3.674542,50.758646],[-3.674449,50.758989],[-3.675287,50.759384],[-3.675136,50.759715],[-3.674621,50.759749],[-3.674771,50.760443],[-3.67442,50.76036],[-3.673662,50.760892],[-3.674137,50.761334],[-3.673908,50.761786],[-3.673031,50.762157],[-3.673137,50.762591],[-3.672707,50.762731],[-3.672199,50.763806],[-3.671626,50.763992],[-3.670301,50.763075],[-3.668791,50.762708],[-3.665985,50.759914]]]]}}]}