{"type":"FeatureCollection","features":[{"type":"Feature","properties":{"slug":"tendring","gss_code":"E07000076","name":"Tendring"},"geometry":{"type":"MultiPolygon","coordinates":[[[[1.036824,51.784615],[1.037714,51.784125],[1.036539,51.783801],[1.035565,51.784093],[1.035378,51.78443],[1.03694,51.78429],[1.035331,51.784483],[1.034891,51.785103],[1.035489,51.785387],[1.035459,51.784885],[1.035857,51.785476],[1.036125,51.784805],[1.036144,51.785536],[1.036824,51.784615]]],[[[1.039337,51.785467],[1.039198,51.785111],[1.0392,51.78555],[1.039016,51.784906],[1.037722,51.784809],[1.037026,51.78561],[1.038347,51.787525],[1.041316,51.78844],[1.042246,51.787921],[1.041564,51.787638],[1.040576,51.787054],[1.040167,51.786449],[1.040519,51.786145],[1.039337,51.785467]]],[[[1.032019,51.785668],[1.032362,51.786065],[1.032653,51.785101],[1.033101,51.784755],[1.032449,51.784655],[1.032689,51.784275],[1.032538,51.784628],[1.032954,51.784655],[1.033149,51.784752],[1.033139,51.784824],[1.03237,51.786132],[1.034155,51.786804],[1.033611,51.787504],[1.035096,51.787716],[1.035599,51.787419],[1.035835,51.786436],[1.034391,51.785731],[1.034267,51.785916],[1.034036,51.78557],[1.034359,51.784504],[1.033751,51.784153],[1.034376,51.784448],[1.03472,51.78407],[1.033716,51.78366],[1.033759,51.78333],[1.033355,51.783508],[1.033322,51.783203],[1.033552,51.782038],[1.033428,51.783408],[1.033653,51.783286],[1.034258,51.783223],[1.035068,51.783453],[1.03453,51.782232],[1.034902,51.781477],[1.034121,51.781292],[1.034927,51.78139],[1.035314,51.780013],[1.033825,51.780348],[1.033518,51.780964],[1.03351,51.780214],[1.034621,51.780131],[1.033833,51.779459],[1.03463,51.779998],[1.035444,51.779749],[1.035552,51.77938],[1.034732,51.779289],[1.034153,51.778958],[1.034247,51.778646],[1.034789,51.779267],[1.035541,51.779287],[1.036341,51.77827],[1.036106,51.777935],[1.035472,51.778278],[1.034862,51.778028],[1.035256,51.77789],[1.035387,51.778238],[1.035903,51.777849],[1.035275,51.777424],[1.036505,51.778135],[1.036792,51.777986],[1.035915,51.777642],[1.035226,51.777249],[1.035816,51.777165],[1.036053,51.777639],[1.037069,51.777862],[1.038144,51.777416],[1.037677,51.777215],[1.037752,51.77686],[1.036952,51.776823],[1.03777,51.776823],[1.037715,51.77717],[1.038266,51.777335],[1.039007,51.776813],[1.038503,51.776464],[1.03913,51.776758],[1.039958,51.776134],[1.038473,51.775925],[1.038043,51.77629],[1.037912,51.776008],[1.037705,51.776309],[1.036407,51.776459],[1.037259,51.776312],[1.036114,51.775947],[1.037241,51.776272],[1.037708,51.776151],[1.037116,51.77576],[1.038113,51.775973],[1.038915,51.775541],[1.038129,51.775341],[1.038668,51.775395],[1.039166,51.774529],[1.038487,51.774348],[1.039353,51.77436],[1.038226,51.773936],[1.039299,51.774215],[1.039663,51.773104],[1.039994,51.773354],[1.039354,51.774306],[1.039852,51.77424],[1.040707,51.772246],[1.040466,51.773345],[1.043893,51.771054],[1.047693,51.770302],[1.045507,51.770402],[1.044139,51.770078],[1.040592,51.771008],[1.034639,51.776281],[1.032927,51.778295],[1.030803,51.784607],[1.031169,51.784791],[1.031594,51.78447],[1.031139,51.784171],[1.031704,51.784401],[1.032048,51.783527],[1.031806,51.782718],[1.032612,51.782704],[1.032803,51.779799],[1.033852,51.777692],[1.032879,51.779747],[1.033514,51.779539],[1.032888,51.779857],[1.032756,51.782725],[1.031933,51.782872],[1.032315,51.783754],[1.029185,51.788633],[1.029515,51.789583],[1.030176,51.789745],[1.030097,51.788011],[1.032162,51.786062],[1.031819,51.786068],[1.032019,51.785668]]],[[[1.033928,51.802466],[1.031297,51.802046],[1.028454,51.802224],[1.025546,51.803334],[1.029499,51.804066],[1.031021,51.803939],[1.036022,51.804393],[1.039631,51.804254],[1.033928,51.802466]]],[[[1.049019,51.808356],[1.047642,51.808222],[1.046444,51.807586],[1.045504,51.807481],[1.045319,51.807814],[1.04425,51.807804],[1.044084,51.808283],[1.044509,51.808288],[1.04407,51.808309],[1.044151,51.807793],[1.044653,51.807059],[1.043976,51.806874],[1.044066,51.807272],[1.043389,51.808054],[1.043998,51.807285],[1.043681,51.807103],[1.043876,51.806838],[1.044114,51.806813],[1.043748,51.806657],[1.04343,51.806855],[1.043004,51.807017],[1.043232,51.807201],[1.04322,51.807272],[1.042992,51.807432],[1.043346,51.807234],[1.042,51.808516],[1.042894,51.807382],[1.043127,51.807309],[1.042947,51.807018],[1.043517,51.806673],[1.039976,51.805634],[1.037265,51.805667],[1.038217,51.806315],[1.036777,51.805805],[1.037142,51.80612],[1.037413,51.807025],[1.041789,51.80863],[1.041663,51.808914],[1.043772,51.809428],[1.047757,51.809647],[1.047675,51.809871],[1.049019,51.808356]]],[[[1.055632,51.810106],[1.055006,51.809955],[1.05496,51.810276],[1.054622,51.810147],[1.054966,51.809895],[1.054234,51.810014],[1.05452,51.809803],[1.05405,51.809649],[1.053812,51.810166],[1.055332,51.810502],[1.055632,51.810106]]],[[[1.052336,51.810487],[1.052801,51.810517],[1.053549,51.809495],[1.051735,51.80906],[1.050482,51.81058],[1.051332,51.809455],[1.050842,51.809248],[1.050173,51.809475],[1.05062,51.809626],[1.050195,51.80963],[1.050567,51.810178],[1.050257,51.810571],[1.051746,51.810706],[1.052336,51.810487]]],[[[1.233783,51.856182],[1.233269,51.856613],[1.233159,51.857588],[1.233783,51.856182]]],[[[1.233184,51.857651],[1.233843,51.858416],[1.234981,51.858592],[1.23418,51.859073],[1.234958,51.859004],[1.235002,51.858415],[1.234021,51.85819],[1.233184,51.857651]]],[[[1.234815,51.859821],[1.234024,51.859571],[1.233936,51.859856],[1.233134,51.859951],[1.23391,51.860285],[1.23417,51.860918],[1.234978,51.861102],[1.234673,51.861262],[1.235365,51.861819],[1.234815,51.859821]]],[[[1.257076,51.867391],[1.258227,51.867647],[1.2585,51.86733],[1.259493,51.867646],[1.259957,51.867377],[1.259639,51.866874],[1.261457,51.865083],[1.261926,51.865079],[1.261927,51.86537],[1.262709,51.864832],[1.263525,51.865064],[1.262493,51.865597],[1.262995,51.865124],[1.262499,51.865116],[1.26182,51.865813],[1.262362,51.865642],[1.262168,51.865948],[1.262605,51.866021],[1.2627,51.865584],[1.263438,51.865282],[1.263709,51.866122],[1.262868,51.866342],[1.262952,51.866665],[1.26432,51.866335],[1.264684,51.865791],[1.265344,51.865819],[1.267899,51.867202],[1.268344,51.865108],[1.265806,51.864203],[1.263312,51.86401],[1.259961,51.865703],[1.259719,51.86635],[1.25917,51.866357],[1.259289,51.866954],[1.25867,51.866454],[1.256578,51.867109],[1.256869,51.868046],[1.257076,51.867391]]],[[[1.255504,51.867641],[1.252847,51.867656],[1.253564,51.867748],[1.253521,51.868174],[1.255258,51.867805],[1.255472,51.868192],[1.255504,51.867641]]],[[[1.252256,51.870058],[1.25261,51.870113],[1.252567,51.869815],[1.253297,51.869532],[1.251903,51.869438],[1.251796,51.87063],[1.252896,51.870407],[1.252256,51.870058]]],[[[1.249984,51.870408],[1.250988,51.870634],[1.251594,51.869607],[1.247394,51.868435],[1.245627,51.868442],[1.245581,51.869171],[1.246084,51.869408],[1.246349,51.869208],[1.246152,51.869047],[1.246195,51.868981],[1.246541,51.868946],[1.246233,51.869049],[1.247049,51.869443],[1.246581,51.869584],[1.246857,51.86972],[1.247286,51.869426],[1.247204,51.86974],[1.247774,51.869738],[1.247318,51.869401],[1.247747,51.869625],[1.248177,51.869208],[1.247983,51.870022],[1.248392,51.870011],[1.248796,51.869326],[1.248648,51.869976],[1.248956,51.869145],[1.249208,51.869924],[1.250266,51.869702],[1.250346,51.870073],[1.25025,51.869851],[1.249405,51.86997],[1.250049,51.870302],[1.249114,51.870349],[1.249204,51.870659],[1.250078,51.870823],[1.249984,51.870408]]],[[[1.22888,51.871481],[1.228447,51.870505],[1.228689,51.87159],[1.228025,51.871731],[1.228427,51.872007],[1.228213,51.872246],[1.226302,51.872265],[1.228594,51.872515],[1.22888,51.871481]]],[[[1.232965,51.869913],[1.231954,51.870117],[1.230219,51.869645],[1.229521,51.870509],[1.2295,51.872607],[1.231414,51.872088],[1.232965,51.869913]]],[[[1.20835,51.873742],[1.208058,51.872776],[1.206498,51.873376],[1.204565,51.873169],[1.203126,51.874044],[1.205066,51.873981],[1.207219,51.874769],[1.208324,51.874805],[1.209211,51.874421],[1.20835,51.873742]]],[[[1.257802,51.87333],[1.259828,51.872505],[1.263094,51.872193],[1.263839,51.872389],[1.264526,51.872097],[1.264603,51.871549],[1.264596,51.872272],[1.265564,51.871046],[1.265283,51.870556],[1.264961,51.870985],[1.265116,51.870602],[1.26529,51.8705],[1.265665,51.870764],[1.266708,51.869845],[1.266369,51.869782],[1.266127,51.869554],[1.26586,51.869743],[1.266296,51.869288],[1.266655,51.869439],[1.266302,51.869481],[1.266357,51.869737],[1.266765,51.869818],[1.267059,51.869503],[1.267125,51.868877],[1.266633,51.869096],[1.266787,51.869335],[1.266327,51.869252],[1.267029,51.868765],[1.26743,51.868695],[1.26701,51.86799],[1.267538,51.868357],[1.267566,51.867599],[1.264777,51.866123],[1.263102,51.867266],[1.261535,51.867588],[1.25936,51.869127],[1.256243,51.868977],[1.25415,51.869796],[1.253788,51.87073],[1.253169,51.870688],[1.251789,51.871524],[1.252337,51.872131],[1.253187,51.872267],[1.252543,51.872542],[1.253047,51.872538],[1.252703,51.872893],[1.253058,51.873364],[1.254583,51.873586],[1.256479,51.87304],[1.257802,51.87333]]],[[[1.280799,51.875857],[1.28123,51.875716],[1.280189,51.875888],[1.279333,51.875803],[1.280158,51.875922],[1.281108,51.875917],[1.280799,51.875857]]],[[[1.282254,51.875528],[1.281552,51.875674],[1.281529,51.875964],[1.282254,51.875528]]],[[[1.281672,51.876558],[1.282871,51.876441],[1.283027,51.875905],[1.283339,51.875716],[1.282594,51.875671],[1.281876,51.876308],[1.280363,51.876101],[1.280904,51.876858],[1.280887,51.87693],[1.280691,51.877108],[1.28129,51.876885],[1.281848,51.8768],[1.281672,51.876558]]],[[[1.21023,51.876194],[1.209169,51.875629],[1.206876,51.875392],[1.20449,51.874667],[1.202814,51.874865],[1.201611,51.875941],[1.200615,51.875733],[1.199673,51.876358],[1.202524,51.876124],[1.206868,51.876873],[1.206811,51.877082],[1.207735,51.876977],[1.209811,51.877635],[1.212021,51.879219],[1.213268,51.879075],[1.21023,51.876194]]],[[[1.278023,51.877514],[1.278552,51.877471],[1.278826,51.877741],[1.278859,51.877496],[1.279448,51.87784],[1.279242,51.877191],[1.277162,51.876767],[1.277187,51.876987],[1.276907,51.876756],[1.275206,51.876884],[1.275913,51.877214],[1.276342,51.876981],[1.27597,51.877232],[1.27656,51.877212],[1.276368,51.877592],[1.277219,51.877082],[1.276569,51.87782],[1.277258,51.877149],[1.277768,51.877203],[1.276872,51.877654],[1.277747,51.877331],[1.27681,51.878082],[1.277478,51.877714],[1.278023,51.877514]]],[[[1.224506,51.876612],[1.223297,51.874906],[1.222041,51.87392],[1.22392,51.876698],[1.221547,51.873753],[1.221792,51.872035],[1.221625,51.872307],[1.221198,51.872065],[1.219905,51.871893],[1.21657,51.872355],[1.212617,51.871118],[1.213104,51.870609],[1.212555,51.871119],[1.211578,51.870844],[1.212264,51.870996],[1.212715,51.870908],[1.211958,51.870901],[1.211647,51.870515],[1.211403,51.87082],[1.210126,51.870721],[1.210307,51.870522],[1.209682,51.870807],[1.209315,51.870313],[1.209477,51.870764],[1.208853,51.870493],[1.208863,51.870901],[1.208394,51.870192],[1.207888,51.870393],[1.208269,51.870518],[1.208166,51.870997],[1.207755,51.870318],[1.206496,51.871053],[1.206845,51.871227],[1.206679,51.870961],[1.207785,51.870535],[1.207788,51.870869],[1.208185,51.871095],[1.208803,51.8712],[1.209762,51.872097],[1.210043,51.872711],[1.211474,51.873165],[1.211467,51.873415],[1.211753,51.87324],[1.211918,51.873595],[1.212175,51.873356],[1.213064,51.873783],[1.212431,51.874722],[1.212521,51.875048],[1.213782,51.87653],[1.214667,51.876959],[1.212614,51.874833],[1.213424,51.873869],[1.21504,51.873166],[1.215271,51.872253],[1.216571,51.872503],[1.215877,51.872407],[1.215874,51.873143],[1.218118,51.87468],[1.218204,51.875152],[1.217262,51.875956],[1.217308,51.876374],[1.217187,51.875968],[1.216014,51.876078],[1.216348,51.875524],[1.215881,51.87568],[1.215773,51.876285],[1.218705,51.878126],[1.22113,51.877886],[1.221024,51.87711],[1.22119,51.877945],[1.22272,51.877588],[1.222635,51.876642],[1.22143,51.876648],[1.223054,51.876416],[1.221992,51.875204],[1.221448,51.874891],[1.219597,51.874857],[1.220077,51.874416],[1.221448,51.874116],[1.222049,51.874718],[1.221311,51.873724],[1.221172,51.873145],[1.221214,51.872293],[1.220116,51.872156],[1.221194,51.872203],[1.221344,51.872324],[1.22139,51.873799],[1.224016,51.877238],[1.224163,51.879835],[1.222471,51.879795],[1.21886,51.878875],[1.215236,51.877129],[1.218583,51.878961],[1.223666,51.880136],[1.223548,51.880436],[1.224284,51.880575],[1.224667,51.880299],[1.224506,51.876612]]],[[[1.273553,51.879234],[1.274225,51.879694],[1.274592,51.879355],[1.274203,51.879263],[1.274673,51.879289],[1.275384,51.878728],[1.274998,51.878329],[1.275657,51.87813],[1.275226,51.877676],[1.272469,51.876797],[1.272093,51.876786],[1.272196,51.87711],[1.27187,51.876769],[1.271969,51.877334],[1.271758,51.876692],[1.270508,51.876859],[1.271284,51.877526],[1.272628,51.877405],[1.271331,51.877596],[1.272017,51.87767],[1.271443,51.877798],[1.271708,51.877979],[1.273377,51.878076],[1.272941,51.878235],[1.273001,51.87911],[1.273362,51.879778],[1.273938,51.879667],[1.273553,51.879234]]],[[[1.262154,51.879999],[1.262906,51.880163],[1.263477,51.879605],[1.263687,51.879255],[1.26329,51.879135],[1.263731,51.879098],[1.263548,51.878193],[1.263793,51.878476],[1.264021,51.878046],[1.263501,51.877873],[1.264113,51.877695],[1.263741,51.873044],[1.260093,51.873652],[1.26023,51.873894],[1.259749,51.873739],[1.259299,51.874068],[1.255049,51.874526],[1.254901,51.875813],[1.257213,51.874979],[1.259669,51.875585],[1.260379,51.876643],[1.259696,51.878087],[1.25988,51.878779],[1.261985,51.880618],[1.262904,51.880217],[1.262154,51.879999]]],[[[1.212146,51.881508],[1.210526,51.881734],[1.209863,51.882259],[1.212543,51.882256],[1.212146,51.881508]]],[[[1.207825,51.881783],[1.205116,51.88326],[1.205354,51.883684],[1.206397,51.883695],[1.207166,51.883098],[1.207825,51.881783]]],[[[1.259152,51.883148],[1.259335,51.882533],[1.259548,51.882682],[1.259928,51.882314],[1.259639,51.882056],[1.260006,51.882205],[1.260285,51.881865],[1.259885,51.880118],[1.259745,51.880406],[1.25827,51.87842],[1.258608,51.878718],[1.258282,51.877599],[1.258609,51.877216],[1.258006,51.877357],[1.258215,51.878224],[1.257712,51.877195],[1.257873,51.876994],[1.257236,51.876535],[1.257698,51.876552],[1.25772,51.876021],[1.257791,51.876822],[1.258191,51.876962],[1.25802,51.876553],[1.258323,51.876003],[1.258081,51.876667],[1.258463,51.876972],[1.258329,51.87658],[1.258974,51.876438],[1.25889,51.876123],[1.257151,51.875727],[1.256695,51.875915],[1.257286,51.876104],[1.257008,51.876385],[1.257512,51.876263],[1.257262,51.876443],[1.256815,51.876459],[1.256428,51.876304],[1.257022,51.876436],[1.256591,51.875974],[1.256047,51.876248],[1.256434,51.876426],[1.255864,51.876274],[1.256164,51.876682],[1.254205,51.877184],[1.253839,51.876935],[1.254195,51.877147],[1.254576,51.876914],[1.253821,51.876698],[1.253772,51.876963],[1.252815,51.876228],[1.252872,51.876503],[1.252255,51.876746],[1.253213,51.876956],[1.253403,51.876885],[1.252842,51.876799],[1.252834,51.876651],[1.253066,51.876544],[1.252885,51.876714],[1.253598,51.876854],[1.25346,51.877172],[1.254028,51.877206],[1.252937,51.877411],[1.250163,51.876917],[1.248261,51.875064],[1.246033,51.8746],[1.246048,51.873506],[1.24693,51.872791],[1.243705,51.870974],[1.244497,51.870563],[1.244052,51.870545],[1.244774,51.869522],[1.24492,51.869916],[1.245369,51.869971],[1.245296,51.869576],[1.245493,51.869971],[1.245743,51.869819],[1.245539,51.870245],[1.246145,51.870726],[1.24693,51.87081],[1.246242,51.870423],[1.246499,51.87019],[1.245955,51.870324],[1.24596,51.869543],[1.245489,51.869284],[1.245261,51.869492],[1.24528,51.869086],[1.244888,51.869468],[1.244593,51.868885],[1.241679,51.869761],[1.239909,51.869454],[1.237996,51.870194],[1.237281,51.869603],[1.236914,51.870074],[1.237315,51.86987],[1.237873,51.8703],[1.235398,51.872335],[1.23413,51.874035],[1.234202,51.873698],[1.232923,51.874464],[1.231168,51.874215],[1.231557,51.874709],[1.230856,51.874277],[1.231021,51.874692],[1.227914,51.875769],[1.226764,51.875039],[1.227756,51.876054],[1.226422,51.875308],[1.227203,51.87606],[1.226621,51.875912],[1.226457,51.876296],[1.227765,51.876345],[1.227013,51.876409],[1.226664,51.876859],[1.227104,51.876703],[1.227094,51.876973],[1.227861,51.877148],[1.227819,51.876754],[1.22804,51.877223],[1.226955,51.876984],[1.22679,51.877684],[1.227941,51.877921],[1.228292,51.877531],[1.228435,51.877916],[1.228164,51.878039],[1.227378,51.877892],[1.227479,51.878289],[1.228183,51.878254],[1.227442,51.878337],[1.227058,51.877917],[1.227058,51.879334],[1.227767,51.879772],[1.227826,51.880543],[1.229692,51.88147],[1.233694,51.882166],[1.236522,51.88192],[1.237244,51.881055],[1.236682,51.881085],[1.237382,51.880945],[1.238611,51.881233],[1.238428,51.880863],[1.238705,51.881223],[1.23976,51.881298],[1.23987,51.881539],[1.240247,51.881218],[1.23998,51.881609],[1.240585,51.881671],[1.240454,51.881371],[1.241088,51.881868],[1.241235,51.881618],[1.243214,51.881764],[1.244735,51.881057],[1.244651,51.881245],[1.248702,51.881669],[1.250321,51.882747],[1.25686,51.883365],[1.256611,51.883772],[1.259152,51.883148]]],[[[1.226232,51.888407],[1.227193,51.888692],[1.227807,51.888261],[1.230125,51.885413],[1.229759,51.884929],[1.22478,51.883842],[1.224222,51.884215],[1.222734,51.883912],[1.221345,51.883333],[1.222518,51.882451],[1.221902,51.882089],[1.219503,51.882126],[1.219643,51.881801],[1.219106,51.881543],[1.21653,51.882171],[1.215433,51.881759],[1.216301,51.881075],[1.213642,51.880714],[1.212839,51.881107],[1.212,51.88097],[1.212575,51.881264],[1.214048,51.880926],[1.215473,51.881181],[1.21523,51.881851],[1.216432,51.882314],[1.218669,51.881676],[1.219345,51.882167],[1.219893,51.882336],[1.221185,51.882113],[1.222183,51.882503],[1.221138,51.88334],[1.222338,51.883977],[1.223582,51.884264],[1.22568,51.88424],[1.22979,51.885182],[1.22989,51.885503],[1.227165,51.888201],[1.224948,51.888378],[1.22453,51.887835],[1.223038,51.887899],[1.223552,51.887464],[1.220908,51.888277],[1.221054,51.888499],[1.225599,51.888886],[1.226232,51.888407]]],[[[1.237236,51.892302],[1.236697,51.891409],[1.238359,51.890602],[1.238827,51.889824],[1.240159,51.889184],[1.240951,51.888008],[1.242164,51.887387],[1.24185,51.887323],[1.242674,51.886586],[1.239081,51.886443],[1.233603,51.886754],[1.231559,51.887494],[1.230686,51.888643],[1.230678,51.889999],[1.232561,51.892642],[1.233153,51.892939],[1.234159,51.892853],[1.233952,51.893679],[1.236246,51.893415],[1.237236,51.892302]]],[[[1.227502,51.89769],[1.228204,51.897953],[1.22871,51.897411],[1.228236,51.897146],[1.228769,51.897328],[1.229095,51.89683],[1.228373,51.896719],[1.229185,51.896737],[1.22868,51.895527],[1.224875,51.896684],[1.21886,51.89744],[1.219097,51.897605],[1.218691,51.897496],[1.217991,51.897893],[1.220032,51.898354],[1.222843,51.898079],[1.223716,51.898542],[1.22349,51.897557],[1.22492,51.897969],[1.226017,51.897806],[1.227487,51.89701],[1.227259,51.897625],[1.225964,51.898296],[1.22627,51.898979],[1.227066,51.898285],[1.228044,51.898004],[1.227502,51.89769]]],[[[1.231642,51.901738],[1.232659,51.901717],[1.232228,51.901705],[1.2327,51.901662],[1.232928,51.900986],[1.234945,51.899644],[1.236412,51.899174],[1.238196,51.896534],[1.237742,51.896062],[1.238313,51.895776],[1.239149,51.895498],[1.238379,51.89597],[1.24191,51.895513],[1.244086,51.895899],[1.244883,51.895499],[1.244227,51.89293],[1.246679,51.891292],[1.245856,51.890913],[1.246295,51.890563],[1.245752,51.890151],[1.245322,51.890483],[1.24571,51.890101],[1.245347,51.888503],[1.244592,51.887907],[1.241604,51.888264],[1.241012,51.888922],[1.241963,51.888358],[1.239253,51.89029],[1.238695,51.891224],[1.237504,51.891276],[1.237453,51.892388],[1.236843,51.89321],[1.235808,51.893654],[1.233854,51.893746],[1.233938,51.893013],[1.232579,51.893031],[1.232366,51.894126],[1.229865,51.895514],[1.229853,51.895884],[1.230576,51.895769],[1.230351,51.896078],[1.229969,51.895987],[1.23031,51.896508],[1.228706,51.898214],[1.229043,51.899371],[1.228215,51.900335],[1.229941,51.902201],[1.230697,51.902408],[1.231642,51.901738]]],[[[1.2343,51.903782],[1.235773,51.903292],[1.234994,51.902995],[1.23555,51.902535],[1.23527,51.90235],[1.235917,51.902601],[1.236926,51.902277],[1.237219,51.902584],[1.238449,51.902189],[1.23839,51.901693],[1.238818,51.901726],[1.239276,51.901295],[1.241707,51.900955],[1.240525,51.900694],[1.241557,51.900864],[1.24167,51.900482],[1.241712,51.90084],[1.242659,51.90059],[1.243169,51.900137],[1.242621,51.899809],[1.242722,51.898934],[1.243358,51.89844],[1.242241,51.898342],[1.243509,51.898301],[1.242061,51.898244],[1.243536,51.898225],[1.242294,51.898136],[1.243611,51.89802],[1.244347,51.896953],[1.242549,51.896655],[1.242232,51.897289],[1.240904,51.897663],[1.242261,51.897082],[1.242272,51.896796],[1.241777,51.897069],[1.242467,51.896604],[1.241414,51.896568],[1.241084,51.896806],[1.241408,51.897211],[1.24103,51.896829],[1.240495,51.897225],[1.240687,51.897478],[1.240169,51.897544],[1.240275,51.897359],[1.24134,51.896504],[1.239469,51.896751],[1.238686,51.897344],[1.239231,51.897596],[1.238543,51.897535],[1.23925,51.897903],[1.238518,51.897575],[1.238474,51.898042],[1.238162,51.897819],[1.237629,51.898539],[1.239019,51.899309],[1.237522,51.898707],[1.237509,51.899345],[1.23601,51.899836],[1.236037,51.900133],[1.23542,51.899983],[1.234367,51.900759],[1.234585,51.900899],[1.234291,51.900824],[1.234747,51.901322],[1.234096,51.900994],[1.233382,51.901254],[1.233309,51.901869],[1.233913,51.902055],[1.228801,51.902949],[1.229821,51.903102],[1.231442,51.90271],[1.231128,51.903322],[1.231816,51.903908],[1.2343,51.903782]]],[[[1.258935,51.916133],[1.258047,51.916211],[1.258919,51.915268],[1.257551,51.914385],[1.257268,51.913684],[1.256324,51.913128],[1.256607,51.912938],[1.255441,51.912248],[1.254391,51.913104],[1.251717,51.914392],[1.249854,51.913135],[1.249819,51.915998],[1.250472,51.916539],[1.252655,51.91676],[1.253575,51.91648],[1.256231,51.916552],[1.257746,51.916242],[1.256261,51.916686],[1.257424,51.916798],[1.258935,51.916133]]],[[[1.259864,51.919993],[1.259789,51.920239],[1.261468,51.920765],[1.262625,51.920239],[1.259864,51.919993]]],[[[1.051864,51.956936],[1.052724,51.957363],[1.053198,51.95726],[1.05282,51.956631],[1.051698,51.95623],[1.052266,51.955418],[1.05324,51.95497],[1.05286,51.954666],[1.053108,51.954189],[1.05394,51.954641],[1.054373,51.954492],[1.053637,51.954066],[1.054047,51.9531],[1.053931,51.952243],[1.053267,51.952481],[1.055221,51.951399],[1.055796,51.95145],[1.056393,51.950642],[1.056048,51.950534],[1.055454,51.951109],[1.055996,51.950392],[1.057604,51.949279],[1.058411,51.949216],[1.060838,51.94805],[1.061958,51.946471],[1.061862,51.945954],[1.065135,51.946405],[1.065112,51.946093],[1.066107,51.94592],[1.06934,51.946049],[1.069611,51.946393],[1.070691,51.946324],[1.073715,51.946936],[1.07833,51.946742],[1.08097,51.944452],[1.083764,51.94449],[1.086882,51.945344],[1.087034,51.945033],[1.087739,51.94502],[1.089906,51.945336],[1.089951,51.94556],[1.095161,51.944063],[1.106089,51.942278],[1.106399,51.941816],[1.106476,51.942236],[1.108898,51.94233],[1.110398,51.942865],[1.111947,51.942792],[1.113941,51.942223],[1.116226,51.940744],[1.119476,51.940054],[1.123517,51.940534],[1.125843,51.941492],[1.126475,51.941615],[1.126753,51.941289],[1.126852,51.94168],[1.128764,51.941234],[1.128506,51.940697],[1.128869,51.940843],[1.128959,51.940607],[1.129453,51.940701],[1.128934,51.940896],[1.129298,51.941089],[1.130187,51.940586],[1.13127,51.940451],[1.135197,51.940412],[1.137911,51.940726],[1.138708,51.941165],[1.140527,51.941406],[1.14414,51.942516],[1.145445,51.942634],[1.145776,51.942173],[1.146498,51.942637],[1.146562,51.943157],[1.146057,51.942655],[1.145626,51.942906],[1.147198,51.944401],[1.149051,51.945553],[1.150344,51.945889],[1.154245,51.946088],[1.164887,51.947683],[1.170687,51.947996],[1.171266,51.946707],[1.170815,51.946618],[1.170444,51.946918],[1.169719,51.947296],[1.168004,51.947406],[1.169659,51.947285],[1.169632,51.947023],[1.169797,51.946846],[1.169588,51.946775],[1.169311,51.946402],[1.168666,51.946701],[1.165899,51.947421],[1.169278,51.946348],[1.170312,51.94612],[1.169362,51.946392],[1.16987,51.946875],[1.169764,51.947208],[1.170819,51.946528],[1.171357,51.946479],[1.171625,51.945834],[1.170858,51.945896],[1.1728,51.945155],[1.175506,51.943546],[1.180548,51.941752],[1.187906,51.940686],[1.191135,51.940584],[1.198539,51.941093],[1.204313,51.94253],[1.207061,51.942664],[1.209769,51.94217],[1.209486,51.94177],[1.210082,51.941989],[1.210384,51.941442],[1.211082,51.941436],[1.210798,51.941156],[1.211334,51.941327],[1.211045,51.940845],[1.211411,51.941314],[1.212152,51.941076],[1.211892,51.940529],[1.212214,51.941011],[1.212442,51.940447],[1.213151,51.940762],[1.212946,51.940277],[1.214102,51.940362],[1.21332,51.940525],[1.213438,51.940742],[1.214394,51.940413],[1.213534,51.940882],[1.213075,51.940819],[1.213261,51.941085],[1.213736,51.9408],[1.2137,51.941109],[1.214231,51.94126],[1.214321,51.940715],[1.214414,51.941232],[1.214956,51.941149],[1.215122,51.940509],[1.215474,51.940753],[1.215155,51.941206],[1.216637,51.941583],[1.216273,51.940792],[1.215713,51.940568],[1.216318,51.940731],[1.216537,51.941303],[1.216455,51.940402],[1.215622,51.940357],[1.216442,51.940342],[1.216486,51.93984],[1.216754,51.941587],[1.217435,51.941353],[1.217003,51.940186],[1.217476,51.94133],[1.217447,51.941567],[1.217804,51.941585],[1.217394,51.94055],[1.217869,51.941601],[1.218816,51.941187],[1.218363,51.941258],[1.217712,51.940642],[1.218577,51.941035],[1.21823,51.940203],[1.217297,51.939862],[1.218311,51.940048],[1.21851,51.939636],[1.219091,51.940692],[1.219063,51.940326],[1.21963,51.940659],[1.218886,51.939828],[1.21947,51.939935],[1.219538,51.939256],[1.21976,51.940279],[1.220227,51.940016],[1.219948,51.939703],[1.220448,51.939874],[1.220313,51.939539],[1.22075,51.9399],[1.220896,51.939624],[1.221993,51.93947],[1.22733,51.939457],[1.231699,51.940046],[1.232849,51.940584],[1.236264,51.944467],[1.238639,51.946096],[1.240091,51.946305],[1.240965,51.947365],[1.245649,51.948405],[1.260643,51.947752],[1.261825,51.946301],[1.266574,51.94557],[1.267522,51.94245],[1.27318,51.940894],[1.274301,51.939524],[1.275536,51.939532],[1.27652,51.939168],[1.279118,51.939442],[1.280224,51.94023],[1.27949,51.941356],[1.279654,51.942106],[1.278638,51.942727],[1.278397,51.943796],[1.277299,51.94421],[1.277584,51.943524],[1.276975,51.943768],[1.277367,51.944643],[1.280331,51.944641],[1.281382,51.944907],[1.281819,51.945395],[1.282537,51.945244],[1.283952,51.945597],[1.284837,51.945035],[1.285211,51.945267],[1.284305,51.946485],[1.284021,51.947892],[1.284595,51.94725],[1.287001,51.948469],[1.287883,51.949309],[1.287758,51.949027],[1.290125,51.949562],[1.289307,51.949251],[1.289501,51.948912],[1.291714,51.949284],[1.291237,51.948983],[1.291515,51.948489],[1.289705,51.947993],[1.290274,51.947433],[1.291359,51.943428],[1.290225,51.939667],[1.290163,51.937951],[1.291011,51.937178],[1.295605,51.935866],[1.290981,51.937137],[1.289983,51.937044],[1.287833,51.937566],[1.285314,51.936856],[1.281371,51.934806],[1.272958,51.928117],[1.269427,51.923381],[1.267907,51.923401],[1.265889,51.920859],[1.262219,51.918586],[1.261238,51.916996],[1.259036,51.916334],[1.258138,51.916907],[1.258718,51.916849],[1.260582,51.917739],[1.259436,51.91748],[1.25972,51.919793],[1.260905,51.919911],[1.261011,51.919444],[1.260974,51.919919],[1.262897,51.920066],[1.262671,51.920337],[1.261476,51.920796],[1.258495,51.919907],[1.259732,51.920219],[1.259092,51.919392],[1.257682,51.919138],[1.258196,51.919773],[1.256667,51.919174],[1.257564,51.919347],[1.257595,51.9191],[1.25717,51.91907],[1.256472,51.918585],[1.255879,51.918633],[1.256487,51.918561],[1.257184,51.919044],[1.259138,51.919237],[1.259367,51.919456],[1.259272,51.917342],[1.258209,51.917249],[1.258674,51.917885],[1.258511,51.918112],[1.256819,51.918501],[1.256597,51.918327],[1.258601,51.917862],[1.258091,51.917248],[1.258295,51.917177],[1.259179,51.917301],[1.258549,51.916971],[1.256151,51.91711],[1.255234,51.918045],[1.255455,51.918426],[1.255254,51.918429],[1.256351,51.919045],[1.254806,51.918404],[1.2553,51.918342],[1.255142,51.918071],[1.256166,51.917019],[1.256768,51.91704],[1.257397,51.916937],[1.255923,51.916874],[1.254887,51.91802],[1.254187,51.917996],[1.25452,51.918304],[1.253391,51.917762],[1.254841,51.918001],[1.255831,51.916792],[1.254499,51.916577],[1.254415,51.916864],[1.253109,51.917117],[1.251858,51.917043],[1.253116,51.917717],[1.251211,51.917005],[1.253188,51.917069],[1.254346,51.916827],[1.254401,51.916571],[1.252344,51.91692],[1.250609,51.916801],[1.249653,51.916139],[1.249635,51.912067],[1.255352,51.908289],[1.249936,51.912106],[1.249857,51.91308],[1.251701,51.914303],[1.253888,51.913119],[1.252547,51.910624],[1.254266,51.913096],[1.255302,51.912115],[1.255918,51.911625],[1.25579,51.911399],[1.255947,51.911207],[1.25514,51.910399],[1.253325,51.910183],[1.255019,51.910295],[1.255835,51.910956],[1.256226,51.910812],[1.256002,51.911582],[1.255398,51.912087],[1.25665,51.912888],[1.257985,51.912152],[1.256448,51.909072],[1.255884,51.906712],[1.253947,51.904163],[1.252334,51.901021],[1.249797,51.899061],[1.247816,51.898131],[1.246151,51.895706],[1.245691,51.896727],[1.246778,51.896758],[1.247337,51.89806],[1.247009,51.89784],[1.246377,51.898582],[1.246273,51.898137],[1.246764,51.897818],[1.246822,51.896986],[1.24653,51.896794],[1.245442,51.897056],[1.245067,51.898229],[1.246448,51.899197],[1.245649,51.898849],[1.245779,51.899212],[1.245049,51.898271],[1.245391,51.89708],[1.244557,51.897144],[1.243566,51.898625],[1.244625,51.898676],[1.243955,51.898897],[1.245014,51.899347],[1.244132,51.899203],[1.243443,51.898672],[1.242941,51.899518],[1.243198,51.899547],[1.2436,51.899705],[1.243603,51.89963],[1.24382,51.899555],[1.244696,51.899765],[1.243684,51.89961],[1.244308,51.899859],[1.243982,51.899878],[1.24314,51.899555],[1.242992,51.899764],[1.243813,51.900138],[1.244913,51.899923],[1.245404,51.900227],[1.245067,51.899683],[1.245499,51.900197],[1.245484,51.899601],[1.245646,51.899965],[1.2458,51.899627],[1.24604,51.899826],[1.245495,51.900312],[1.246216,51.90035],[1.246202,51.900118],[1.246473,51.900413],[1.24673,51.900001],[1.246536,51.900376],[1.24713,51.900482],[1.247396,51.900183],[1.246981,51.8998],[1.247514,51.90005],[1.247435,51.90045],[1.248331,51.899903],[1.248807,51.900136],[1.249541,51.899928],[1.248803,51.900226],[1.248212,51.900085],[1.247635,51.900459],[1.24895,51.900591],[1.249381,51.900471],[1.249145,51.900169],[1.2499,51.900086],[1.249374,51.900176],[1.249457,51.900473],[1.2502,51.90072],[1.250057,51.901036],[1.250696,51.900746],[1.250827,51.901012],[1.250204,51.90108],[1.24971,51.901047],[1.249732,51.901252],[1.250693,51.901468],[1.250706,51.901263],[1.250998,51.90162],[1.251496,51.901347],[1.251401,51.901622],[1.250861,51.901653],[1.25098,51.902081],[1.252019,51.902174],[1.248687,51.901919],[1.248608,51.901729],[1.249854,51.901732],[1.249623,51.901111],[1.249178,51.901105],[1.249151,51.901543],[1.248919,51.901116],[1.248918,51.901527],[1.248641,51.901205],[1.249012,51.901039],[1.248558,51.900832],[1.248138,51.901321],[1.24842,51.901643],[1.247368,51.901368],[1.248283,51.901073],[1.248337,51.900792],[1.247884,51.900598],[1.247668,51.901178],[1.247374,51.900566],[1.247384,51.901025],[1.246972,51.900559],[1.246995,51.901241],[1.246798,51.900781],[1.246688,51.901138],[1.246525,51.900491],[1.245902,51.900513],[1.246291,51.901037],[1.245855,51.900708],[1.245901,51.901162],[1.245641,51.900464],[1.245181,51.900984],[1.245475,51.900438],[1.245098,51.900213],[1.244536,51.900298],[1.245265,51.901294],[1.244599,51.901138],[1.244944,51.900982],[1.244459,51.900279],[1.244137,51.900315],[1.244523,51.900836],[1.243798,51.900253],[1.244218,51.901204],[1.244824,51.901337],[1.244235,51.9014],[1.243524,51.900208],[1.243813,51.901066],[1.243178,51.900359],[1.24303,51.900918],[1.242856,51.9006],[1.242619,51.900815],[1.243335,51.901531],[1.242359,51.900877],[1.242318,51.901437],[1.243119,51.901499],[1.242464,51.901859],[1.242257,51.901418],[1.242266,51.900867],[1.241872,51.900965],[1.241757,51.901571],[1.24206,51.901598],[1.241994,51.901889],[1.241632,51.902168],[1.241962,51.90185],[1.241622,51.901575],[1.241611,51.901142],[1.240943,51.901238],[1.240954,51.901418],[1.240774,51.901929],[1.240441,51.90203],[1.240002,51.902016],[1.240658,51.90195],[1.240843,51.901274],[1.240267,51.901303],[1.240439,51.901714],[1.239967,51.901922],[1.240411,51.901691],[1.240213,51.901283],[1.239789,51.901248],[1.239655,51.901802],[1.239288,51.901338],[1.238795,51.901902],[1.240068,51.90261],[1.239318,51.902391],[1.238029,51.902778],[1.237559,51.90254],[1.236447,51.903121],[1.236181,51.902798],[1.236067,51.903201],[1.23436,51.903818],[1.229693,51.904563],[1.229536,51.904153],[1.230525,51.904236],[1.230771,51.90398],[1.22995,51.90388],[1.230528,51.903881],[1.229549,51.903289],[1.229486,51.903745],[1.229198,51.903235],[1.228781,51.903554],[1.228583,51.903275],[1.227984,51.903495],[1.228522,51.903839],[1.229053,51.903579],[1.229094,51.903867],[1.22601,51.90379],[1.224895,51.902777],[1.226359,51.90308],[1.226036,51.902757],[1.224436,51.902443],[1.223521,51.901739],[1.223172,51.90184],[1.223503,51.901578],[1.222467,51.900253],[1.222054,51.900581],[1.217062,51.899981],[1.21624,51.899321],[1.217049,51.89855],[1.216878,51.898317],[1.215941,51.899099],[1.215851,51.898371],[1.215265,51.898137],[1.215567,51.899236],[1.214887,51.899298],[1.214961,51.899057],[1.21421,51.898747],[1.213609,51.898893],[1.213759,51.898588],[1.213045,51.898542],[1.212092,51.896454],[1.214918,51.896812],[1.214996,51.896439],[1.215561,51.896354],[1.217323,51.897361],[1.218387,51.896888],[1.221413,51.89644],[1.222171,51.895461],[1.223898,51.895725],[1.224602,51.895178],[1.227718,51.894658],[1.229828,51.893004],[1.230484,51.893273],[1.230748,51.892796],[1.230311,51.892306],[1.229906,51.892275],[1.230229,51.892796],[1.229852,51.892252],[1.228842,51.89193],[1.227824,51.890601],[1.228432,51.890779],[1.228299,51.890538],[1.226532,51.890245],[1.225503,51.889549],[1.22201,51.88974],[1.221585,51.88953],[1.221878,51.889278],[1.218387,51.888886],[1.217181,51.888986],[1.217631,51.88914],[1.217133,51.889343],[1.216808,51.88901],[1.215787,51.889095],[1.213539,51.890125],[1.213646,51.88983],[1.213212,51.89011],[1.212963,51.889914],[1.212441,51.890364],[1.212887,51.88676],[1.212203,51.886355],[1.210478,51.885788],[1.210102,51.88631],[1.209174,51.886636],[1.20649,51.887166],[1.205125,51.886883],[1.204767,51.886286],[1.2044,51.886418],[1.205091,51.885689],[1.206091,51.885497],[1.205832,51.88507],[1.205875,51.885255],[1.20521,51.88556],[1.205119,51.885158],[1.205703,51.885209],[1.205052,51.885007],[1.204885,51.885383],[1.204689,51.884933],[1.203411,51.885246],[1.20203,51.884921],[1.20193,51.885133],[1.201208,51.88466],[1.20018,51.885042],[1.199016,51.884778],[1.200219,51.884918],[1.201043,51.884639],[1.19996,51.883888],[1.200052,51.882882],[1.199181,51.882621],[1.199844,51.881913],[1.201043,51.882113],[1.201559,51.880998],[1.201084,51.880863],[1.201838,51.88073],[1.202548,51.878164],[1.208354,51.878218],[1.210347,51.879319],[1.211062,51.880602],[1.211358,51.87995],[1.210891,51.879173],[1.210368,51.879116],[1.209842,51.878517],[1.208446,51.877992],[1.208778,51.87819],[1.207767,51.877953],[1.202436,51.87802],[1.19709,51.877365],[1.197999,51.87581],[1.198688,51.87601],[1.198975,51.875641],[1.199013,51.876028],[1.199581,51.875753],[1.199216,51.875523],[1.199726,51.875732],[1.198777,51.874959],[1.197656,51.874575],[1.195598,51.874711],[1.195971,51.874875],[1.194538,51.874701],[1.19179,51.872389],[1.193483,51.873659],[1.194568,51.873857],[1.193276,51.873369],[1.192389,51.871757],[1.187638,51.87243],[1.187701,51.872671],[1.191618,51.872405],[1.187124,51.872832],[1.185708,51.872557],[1.187093,51.872746],[1.187517,51.872426],[1.186553,51.872549],[1.181745,51.871924],[1.185415,51.87258],[1.178191,51.871448],[1.178618,51.871351],[1.178245,51.871348],[1.178423,51.8711],[1.179046,51.871374],[1.180286,51.871139],[1.180534,51.870827],[1.180982,51.871374],[1.181775,51.871301],[1.18283,51.871819],[1.183169,51.871704],[1.182895,51.871493],[1.183609,51.871429],[1.184529,51.872013],[1.18443,51.871617],[1.184898,51.871533],[1.184552,51.871448],[1.186041,51.871225],[1.185654,51.871007],[1.185983,51.870848],[1.186341,51.870845],[1.186033,51.870939],[1.186296,51.871292],[1.187558,51.871119],[1.187731,51.87077],[1.18682,51.870809],[1.187861,51.870009],[1.188052,51.870417],[1.188622,51.869978],[1.188286,51.869827],[1.190731,51.870016],[1.190037,51.869776],[1.190608,51.869695],[1.196145,51.871244],[1.20046,51.871221],[1.200931,51.87059],[1.202046,51.870553],[1.202265,51.870266],[1.20143,51.870348],[1.201519,51.870116],[1.201098,51.87055],[1.201033,51.870155],[1.200157,51.870177],[1.201114,51.870113],[1.201311,51.869632],[1.200797,51.86929],[1.200021,51.869436],[1.198469,51.867899],[1.199306,51.867175],[1.199539,51.86758],[1.200312,51.867614],[1.199721,51.867404],[1.199705,51.866904],[1.200213,51.867329],[1.200094,51.867073],[1.200663,51.867384],[1.200313,51.867016],[1.200765,51.867008],[1.2011,51.867486],[1.202078,51.867502],[1.202761,51.868116],[1.202683,51.867536],[1.202968,51.867968],[1.203221,51.867712],[1.20322,51.867934],[1.203924,51.867808],[1.2038,51.8681],[1.20296,51.868096],[1.20384,51.868482],[1.203343,51.868837],[1.204398,51.869161],[1.203902,51.868557],[1.20471,51.868685],[1.204416,51.868533],[1.204757,51.868411],[1.203778,51.868228],[1.204337,51.86773],[1.20286,51.867467],[1.205647,51.867786],[1.205914,51.867866],[1.205364,51.867808],[1.205399,51.868122],[1.205902,51.868327],[1.205769,51.867951],[1.206196,51.868198],[1.206291,51.867972],[1.206285,51.868264],[1.206621,51.868036],[1.206874,51.868433],[1.206798,51.868013],[1.206982,51.868482],[1.206994,51.868181],[1.207381,51.868487],[1.207725,51.86822],[1.207614,51.868483],[1.207895,51.868142],[1.206932,51.867913],[1.20809,51.86791],[1.207939,51.868588],[1.206669,51.86916],[1.206598,51.868885],[1.206667,51.869279],[1.205789,51.869653],[1.205938,51.869855],[1.206107,51.869617],[1.206618,51.869925],[1.206429,51.869525],[1.207852,51.868661],[1.207493,51.869063],[1.20798,51.868985],[1.208141,51.868142],[1.208481,51.868246],[1.20818,51.868489],[1.20868,51.868271],[1.20864,51.868641],[1.209278,51.868465],[1.208822,51.868493],[1.208904,51.868066],[1.209332,51.868114],[1.209781,51.86837],[1.209453,51.868468],[1.209848,51.868475],[1.209526,51.868563],[1.209833,51.868776],[1.209942,51.868463],[1.209719,51.868226],[1.209877,51.867875],[1.209956,51.86833],[1.210382,51.868153],[1.210156,51.86794],[1.210552,51.868059],[1.210404,51.868338],[1.211148,51.86854],[1.210864,51.868655],[1.210957,51.868877],[1.212077,51.869474],[1.211439,51.868734],[1.211057,51.868697],[1.211379,51.868688],[1.211362,51.868387],[1.210632,51.868213],[1.210961,51.868009],[1.210837,51.867716],[1.210424,51.867826],[1.210551,51.867177],[1.210141,51.867306],[1.210728,51.867015],[1.2095,51.867506],[1.209819,51.867078],[1.211586,51.866354],[1.212002,51.867749],[1.212773,51.867828],[1.212551,51.868054],[1.212993,51.8682],[1.212962,51.867819],[1.214321,51.867669],[1.214652,51.868467],[1.214172,51.868515],[1.214311,51.868691],[1.214685,51.868534],[1.215124,51.868964],[1.217209,51.869064],[1.216933,51.869535],[1.216822,51.86906],[1.215957,51.869057],[1.216567,51.869173],[1.216774,51.869738],[1.215806,51.869079],[1.215735,51.869363],[1.216369,51.86955],[1.215816,51.869641],[1.215399,51.869155],[1.215665,51.869791],[1.215243,51.869154],[1.21469,51.869119],[1.214773,51.869358],[1.215163,51.869276],[1.215157,51.869904],[1.215625,51.869835],[1.215474,51.87016],[1.215849,51.87015],[1.215748,51.869797],[1.216171,51.870167],[1.216217,51.869727],[1.216764,51.869762],[1.216347,51.870076],[1.216817,51.870124],[1.217359,51.869113],[1.219688,51.869613],[1.219397,51.870142],[1.218789,51.869941],[1.218771,51.870492],[1.219579,51.870171],[1.219814,51.869676],[1.220862,51.86971],[1.220918,51.870223],[1.221279,51.869772],[1.222199,51.870764],[1.222008,51.870962],[1.222264,51.870781],[1.223058,51.871132],[1.222511,51.871267],[1.2239,51.871526],[1.223262,51.87117],[1.223779,51.871127],[1.224353,51.871786],[1.22464,51.871239],[1.226173,51.871182],[1.226547,51.87149],[1.225891,51.871398],[1.226098,51.87222],[1.226484,51.871628],[1.228092,51.871189],[1.228619,51.871401],[1.22816,51.870738],[1.227451,51.871362],[1.226676,51.871449],[1.226284,51.871145],[1.228732,51.870411],[1.228789,51.870146],[1.22828,51.870231],[1.227931,51.869761],[1.228873,51.869479],[1.22886,51.869992],[1.229472,51.869198],[1.228942,51.869465],[1.22834,51.869322],[1.228961,51.869383],[1.229033,51.869137],[1.228844,51.869202],[1.228495,51.869033],[1.227835,51.869673],[1.227234,51.86861],[1.22808,51.86886],[1.228669,51.868296],[1.228157,51.868951],[1.2289,51.869111],[1.229401,51.868733],[1.228877,51.868698],[1.229054,51.86837],[1.229124,51.868615],[1.229621,51.868586],[1.229326,51.868908],[1.229793,51.868769],[1.229794,51.869215],[1.230221,51.868927],[1.229788,51.868687],[1.230137,51.86806],[1.229573,51.867647],[1.230064,51.868051],[1.229617,51.868528],[1.229162,51.8684],[1.229569,51.867864],[1.229071,51.868326],[1.229098,51.86785],[1.228345,51.868179],[1.228779,51.867939],[1.228508,51.867727],[1.228999,51.86769],[1.228182,51.867453],[1.228279,51.868064],[1.227926,51.867192],[1.227658,51.867908],[1.228183,51.868226],[1.228666,51.868188],[1.227969,51.868535],[1.228119,51.868243],[1.227901,51.868385],[1.227583,51.867965],[1.227159,51.868536],[1.226821,51.868037],[1.227468,51.867974],[1.227598,51.867454],[1.227097,51.867336],[1.227606,51.86722],[1.226497,51.867033],[1.226759,51.867382],[1.227398,51.867488],[1.22724,51.867762],[1.226663,51.867409],[1.226758,51.867963],[1.226065,51.86756],[1.22521,51.864967],[1.226552,51.865456],[1.228635,51.865245],[1.229148,51.863812],[1.230048,51.863856],[1.229817,51.86362],[1.230237,51.863356],[1.229572,51.86356],[1.230189,51.863218],[1.230341,51.863548],[1.230153,51.863891],[1.230691,51.86375],[1.230401,51.863307],[1.231762,51.863063],[1.230209,51.863128],[1.230786,51.862845],[1.230839,51.863034],[1.232293,51.862957],[1.231166,51.862657],[1.230948,51.862901],[1.231062,51.862668],[1.230315,51.862511],[1.230083,51.863112],[1.23025,51.861588],[1.228443,51.860035],[1.228966,51.86035],[1.229415,51.859876],[1.229398,51.860079],[1.229664,51.8602],[1.230061,51.859962],[1.230488,51.860247],[1.230607,51.859857],[1.231168,51.860938],[1.231323,51.860733],[1.231605,51.860945],[1.231537,51.860739],[1.230691,51.859668],[1.229317,51.859378],[1.230521,51.859861],[1.22955,51.860052],[1.229683,51.859744],[1.229021,51.85947],[1.229262,51.859809],[1.228846,51.860014],[1.228838,51.85965],[1.228495,51.859962],[1.228587,51.859265],[1.228038,51.858497],[1.228936,51.858337],[1.230085,51.858777],[1.23016,51.858247],[1.231348,51.858149],[1.231177,51.857729],[1.23156,51.858094],[1.232376,51.857957],[1.232462,51.857709],[1.231592,51.857813],[1.232426,51.857561],[1.23193,51.857283],[1.231227,51.857685],[1.23207,51.857094],[1.232742,51.856081],[1.232322,51.856825],[1.232093,51.857111],[1.231926,51.857215],[1.232307,51.857432],[1.232485,51.857038],[1.23255,51.857329],[1.233172,51.856579],[1.232438,51.855073],[1.233518,51.856192],[1.233068,51.855569],[1.233893,51.856174],[1.233562,51.857812],[1.235083,51.858408],[1.235471,51.858784],[1.235318,51.860802],[1.235658,51.861406],[1.23713,51.86166],[1.237356,51.861275],[1.238804,51.861109],[1.239402,51.860681],[1.240792,51.860618],[1.242594,51.859599],[1.24305,51.859766],[1.243437,51.85927],[1.243015,51.859148],[1.245746,51.859763],[1.247741,51.859466],[1.246171,51.859796],[1.246125,51.860064],[1.248957,51.861646],[1.249113,51.862334],[1.249905,51.861744],[1.250731,51.859944],[1.250438,51.860442],[1.24992,51.860477],[1.250489,51.860303],[1.249813,51.859796],[1.248522,51.859857],[1.249536,51.859659],[1.250016,51.859775],[1.25017,51.860038],[1.25082,51.859354],[1.249894,51.859072],[1.249542,51.859417],[1.249415,51.859168],[1.248455,51.859301],[1.248152,51.859028],[1.248556,51.858679],[1.249025,51.858906],[1.248633,51.858658],[1.248844,51.858139],[1.249319,51.858139],[1.249206,51.858426],[1.250413,51.858231],[1.249975,51.8586],[1.250987,51.858981],[1.251693,51.859826],[1.252378,51.858893],[1.251156,51.857953],[1.25081,51.857909],[1.25069,51.858361],[1.250369,51.858118],[1.250862,51.857796],[1.249828,51.857432],[1.249501,51.856877],[1.249464,51.857338],[1.250347,51.857919],[1.249768,51.858108],[1.249168,51.857378],[1.248994,51.858045],[1.249296,51.856551],[1.250122,51.856144],[1.25383,51.858059],[1.25352,51.859294],[1.252959,51.85949],[1.253443,51.859553],[1.252662,51.862181],[1.252872,51.860837],[1.251609,51.861312],[1.253074,51.863181],[1.252523,51.8637],[1.253207,51.86381],[1.253352,51.863484],[1.253726,51.863882],[1.255146,51.863869],[1.258234,51.864614],[1.258914,51.864409],[1.257938,51.863659],[1.253917,51.86354],[1.253367,51.862448],[1.255118,51.862072],[1.255846,51.86246],[1.257521,51.862261],[1.259078,51.863899],[1.259789,51.86387],[1.262283,51.862836],[1.262215,51.86258],[1.262815,51.86273],[1.262318,51.86212],[1.262707,51.862257],[1.262862,51.86199],[1.263638,51.862116],[1.262834,51.862419],[1.262979,51.862695],[1.26353,51.862587],[1.263499,51.862333],[1.263071,51.862462],[1.263434,51.862277],[1.263816,51.862429],[1.263785,51.86199],[1.264528,51.862019],[1.266321,51.862776],[1.269932,51.863625],[1.271399,51.862296],[1.271655,51.861244],[1.270974,51.861369],[1.271373,51.861628],[1.270465,51.861363],[1.270655,51.860992],[1.271542,51.861156],[1.270549,51.860796],[1.269742,51.860952],[1.269546,51.861312],[1.271149,51.86162],[1.270945,51.862288],[1.269327,51.862355],[1.270287,51.862971],[1.267057,51.862567],[1.267426,51.861678],[1.267243,51.862024],[1.266866,51.862194],[1.265732,51.861961],[1.266317,51.861714],[1.267085,51.861993],[1.266582,51.861587],[1.267201,51.861087],[1.266798,51.860732],[1.268902,51.860948],[1.267786,51.861304],[1.267424,51.861032],[1.267015,51.861613],[1.268999,51.86136],[1.269249,51.860797],[1.268768,51.860521],[1.269691,51.860703],[1.270096,51.860469],[1.269325,51.860512],[1.269272,51.860203],[1.269839,51.860309],[1.270661,51.859903],[1.269805,51.859579],[1.26851,51.859863],[1.268839,51.860391],[1.268391,51.860092],[1.267022,51.860373],[1.268042,51.859719],[1.267572,51.859144],[1.268451,51.858815],[1.268262,51.858644],[1.26903,51.858586],[1.268661,51.858101],[1.268285,51.858324],[1.268666,51.858449],[1.267863,51.858438],[1.268753,51.857763],[1.267926,51.857941],[1.267637,51.857818],[1.26816,51.857776],[1.267064,51.857603],[1.267324,51.857827],[1.266994,51.858034],[1.267948,51.858938],[1.267483,51.859064],[1.26614,51.857973],[1.264846,51.855633],[1.265774,51.853723],[1.266069,51.85414],[1.267257,51.854516],[1.268046,51.85419],[1.267917,51.853829],[1.267668,51.854156],[1.267375,51.853944],[1.267324,51.852831],[1.268342,51.854086],[1.268889,51.853851],[1.269158,51.853114],[1.268385,51.853436],[1.267763,51.852879],[1.267997,51.85266],[1.268652,51.85297],[1.268103,51.852577],[1.268524,51.852408],[1.269286,51.852955],[1.268516,51.852197],[1.268971,51.851823],[1.269692,51.852682],[1.270761,51.852372],[1.270638,51.854095],[1.268807,51.854783],[1.269733,51.856054],[1.271204,51.855542],[1.274198,51.855135],[1.274405,51.854147],[1.275009,51.854942],[1.270618,51.856365],[1.270209,51.856931],[1.270359,51.85823],[1.272854,51.86021],[1.272807,51.860508],[1.273616,51.860285],[1.273556,51.862077],[1.272443,51.863052],[1.272679,51.86351],[1.271867,51.863732],[1.27149,51.864411],[1.270983,51.868243],[1.269887,51.870154],[1.270476,51.870261],[1.270338,51.870835],[1.26958,51.870951],[1.269239,51.871936],[1.268857,51.871917],[1.269456,51.872229],[1.269445,51.87265],[1.26859,51.87272],[1.268039,51.874182],[1.26773,51.87389],[1.268201,51.87625],[1.267944,51.8759],[1.267787,51.877113],[1.269914,51.876013],[1.271585,51.875651],[1.277275,51.876145],[1.279154,51.875717],[1.280427,51.875808],[1.283095,51.875348],[1.286065,51.875742],[1.285537,51.875747],[1.285215,51.876144],[1.285147,51.875689],[1.283608,51.875709],[1.283095,51.876093],[1.283543,51.876209],[1.2834,51.876664],[1.283719,51.87675],[1.28339,51.876855],[1.283292,51.876714],[1.283437,51.876362],[1.282997,51.876249],[1.283054,51.876971],[1.282467,51.87696],[1.282623,51.876482],[1.282116,51.876587],[1.282042,51.877202],[1.281629,51.876844],[1.280601,51.877248],[1.280639,51.876955],[1.280862,51.876909],[1.28046,51.876293],[1.280443,51.876545],[1.280341,51.876576],[1.279251,51.876599],[1.280367,51.876541],[1.2802,51.876095],[1.279133,51.876057],[1.279129,51.876451],[1.27881,51.876123],[1.278131,51.876767],[1.278788,51.87667],[1.278416,51.876848],[1.27901,51.87702],[1.279293,51.876776],[1.279873,51.877588],[1.280465,51.877503],[1.280189,51.877198],[1.281001,51.877631],[1.279183,51.877878],[1.278919,51.877541],[1.278897,51.877902],[1.278684,51.878073],[1.278723,51.87771],[1.278418,51.878148],[1.278637,51.877586],[1.278088,51.877542],[1.278238,51.878087],[1.277589,51.877724],[1.277041,51.878215],[1.277486,51.877921],[1.277332,51.878102],[1.277868,51.878015],[1.277123,51.878344],[1.27815,51.878303],[1.276942,51.878857],[1.276007,51.878808],[1.276319,51.878885],[1.276243,51.879172],[1.275905,51.87897],[1.27608,51.878954],[1.275875,51.878632],[1.276612,51.878626],[1.275663,51.878009],[1.275701,51.878181],[1.275639,51.878415],[1.275174,51.878298],[1.275433,51.878762],[1.274382,51.879654],[1.274976,51.87972],[1.275014,51.879244],[1.27513,51.879676],[1.27535,51.879335],[1.275895,51.87954],[1.275261,51.879536],[1.275554,51.879656],[1.27483,51.880022],[1.274227,51.87987],[1.274225,51.880406],[1.273557,51.880628],[1.274204,51.880055],[1.273657,51.879984],[1.273515,51.880775],[1.272829,51.880722],[1.272468,51.880586],[1.27219,51.880857],[1.272341,51.880577],[1.271687,51.880391],[1.271203,51.880774],[1.271533,51.880414],[1.270987,51.880255],[1.271563,51.880325],[1.272535,51.880581],[1.272865,51.880703],[1.273233,51.880714],[1.273525,51.880082],[1.272852,51.879851],[1.272721,51.880167],[1.27243,51.8798],[1.272195,51.880125],[1.272349,51.879741],[1.271598,51.879582],[1.27296,51.879753],[1.272719,51.878654],[1.272508,51.879046],[1.271629,51.879299],[1.272474,51.878984],[1.272444,51.878325],[1.271812,51.879007],[1.271136,51.879403],[1.271439,51.879153],[1.271138,51.878997],[1.271735,51.87901],[1.272093,51.878225],[1.27108,51.878285],[1.270988,51.879287],[1.270679,51.878935],[1.270538,51.879358],[1.270845,51.879664],[1.271269,51.879545],[1.270646,51.879793],[1.270345,51.878782],[1.270715,51.878878],[1.270775,51.878497],[1.271251,51.878131],[1.270565,51.877355],[1.269901,51.877306],[1.270382,51.877655],[1.269989,51.877409],[1.26999,51.877719],[1.270455,51.87779],[1.269922,51.877776],[1.27025,51.877858],[1.270615,51.878225],[1.270897,51.87824],[1.270725,51.878314],[1.269815,51.877904],[1.269906,51.877527],[1.269568,51.877486],[1.269123,51.877906],[1.269938,51.878219],[1.269391,51.87863],[1.269991,51.878911],[1.269261,51.878761],[1.269965,51.879016],[1.269298,51.878795],[1.268954,51.879214],[1.270171,51.879632],[1.268881,51.879322],[1.26986,51.879652],[1.26893,51.879411],[1.268616,51.87971],[1.269557,51.879754],[1.268512,51.879873],[1.269466,51.880069],[1.268541,51.879918],[1.268173,51.880376],[1.270132,51.880667],[1.268169,51.880419],[1.267758,51.880992],[1.268875,51.881251],[1.269071,51.880977],[1.269357,51.88133],[1.269471,51.88097],[1.269662,51.881427],[1.269921,51.881053],[1.269776,51.881412],[1.270141,51.88151],[1.270774,51.880768],[1.270196,51.881511],[1.270708,51.881473],[1.271107,51.881007],[1.270762,51.881509],[1.271529,51.881459],[1.271397,51.881159],[1.271573,51.881446],[1.272139,51.881412],[1.272047,51.881105],[1.27259,51.881485],[1.270056,51.88154],[1.267757,51.881033],[1.267706,51.880964],[1.269584,51.878175],[1.268985,51.878052],[1.26844,51.879453],[1.268347,51.879127],[1.26794,51.88014],[1.267809,51.87995],[1.267249,51.880579],[1.267719,51.880502],[1.266511,51.881272],[1.267936,51.88149],[1.267453,51.881109],[1.268077,51.881515],[1.26939,51.881581],[1.26896,51.881705],[1.269418,51.881822],[1.271047,51.882],[1.271173,51.88172],[1.271647,51.882048],[1.268819,51.882897],[1.268912,51.88272],[1.267175,51.882256],[1.265854,51.882597],[1.266376,51.882283],[1.264925,51.88286],[1.264395,51.88347],[1.263911,51.882992],[1.264141,51.882596],[1.263475,51.882745],[1.263071,51.885055],[1.263546,51.886186],[1.264726,51.886034],[1.267363,51.885007],[1.265017,51.884849],[1.264556,51.884633],[1.264277,51.885091],[1.264051,51.884901],[1.264393,51.884542],[1.263464,51.8852],[1.264229,51.884549],[1.264348,51.884502],[1.26465,51.884642],[1.264819,51.884593],[1.264953,51.884811],[1.265982,51.884392],[1.26535,51.884766],[1.267828,51.884793],[1.27022,51.882772],[1.27799,51.879214],[1.280921,51.878409],[1.281674,51.878002],[1.28167,51.877605],[1.284731,51.87699],[1.286017,51.876402],[1.286936,51.875741],[1.285455,51.875362],[1.286223,51.874946],[1.286521,51.875542],[1.290638,51.874154],[1.291549,51.871402],[1.291223,51.867772],[1.290012,51.863547],[1.288294,51.861346],[1.288301,51.86065],[1.287662,51.860584],[1.287208,51.859289],[1.286242,51.859713],[1.285439,51.859375],[1.282113,51.856393],[1.279816,51.853686],[1.279369,51.853822],[1.276329,51.851674],[1.274799,51.84994],[1.275635,51.849559],[1.274752,51.849921],[1.272844,51.848414],[1.273015,51.848156],[1.272652,51.848179],[1.270579,51.845966],[1.271264,51.845694],[1.269939,51.845862],[1.265933,51.841545],[1.264724,51.841818],[1.263537,51.841404],[1.258186,51.836086],[1.257358,51.836038],[1.253222,51.832968],[1.242506,51.8238],[1.236471,51.819719],[1.236642,51.819284],[1.226265,51.814188],[1.22575,51.813564],[1.226015,51.813199],[1.225701,51.813325],[1.220162,51.811262],[1.218667,51.80983],[1.219142,51.809503],[1.218688,51.809727],[1.21671,51.809092],[1.217009,51.808351],[1.214499,51.808189],[1.211139,51.806183],[1.209541,51.805764],[1.208629,51.80506],[1.206862,51.804649],[1.206001,51.803996],[1.204278,51.80363],[1.203407,51.802982],[1.201624,51.802685],[1.200658,51.802056],[1.198805,51.801785],[1.197924,51.801196],[1.196006,51.801167],[1.193922,51.800616],[1.190484,51.799456],[1.189421,51.798545],[1.187949,51.798628],[1.186701,51.797735],[1.181965,51.796868],[1.180884,51.796437],[1.180997,51.795996],[1.176522,51.794964],[1.17301,51.793303],[1.171399,51.793329],[1.169364,51.792661],[1.167548,51.791487],[1.164724,51.791029],[1.152836,51.785929],[1.153188,51.78562],[1.152695,51.786015],[1.146918,51.783295],[1.147342,51.782872],[1.146924,51.783252],[1.145296,51.78243],[1.146068,51.781872],[1.145177,51.782479],[1.142159,51.781289],[1.141155,51.779783],[1.142532,51.779592],[1.140683,51.779742],[1.140102,51.779336],[1.137748,51.779181],[1.135969,51.778394],[1.134248,51.77696],[1.133918,51.776063],[1.134514,51.775881],[1.133516,51.775901],[1.132517,51.775336],[1.13332,51.77593],[1.13276,51.776364],[1.130116,51.776726],[1.127846,51.776157],[1.126385,51.774815],[1.125703,51.77477],[1.128066,51.77435],[1.125674,51.774696],[1.125001,51.774143],[1.125562,51.774741],[1.124538,51.775099],[1.12265,51.775097],[1.120066,51.774385],[1.117417,51.772754],[1.116904,51.772],[1.117362,51.771832],[1.116712,51.771947],[1.116043,51.771484],[1.116324,51.772399],[1.114449,51.772728],[1.112845,51.772572],[1.110732,51.77187],[1.109155,51.772233],[1.106674,51.771779],[1.102716,51.771941],[1.099908,51.771073],[1.100317,51.770853],[1.099547,51.771138],[1.098827,51.770938],[1.099328,51.771299],[1.099063,51.771634],[1.097044,51.772337],[1.094469,51.771948],[1.092084,51.772226],[1.091608,51.771976],[1.09091,51.77221],[1.088293,51.77194],[1.087913,51.772255],[1.086858,51.772025],[1.083807,51.772587],[1.082188,51.772576],[1.064712,51.769977],[1.054721,51.769508],[1.044782,51.769556],[1.042665,51.76992],[1.042163,51.770169],[1.042318,51.770528],[1.044192,51.769967],[1.04574,51.770283],[1.054277,51.769975],[1.057951,51.770385],[1.058558,51.771027],[1.059216,51.770809],[1.060524,51.770675],[1.06163,51.770826],[1.059032,51.770942],[1.061872,51.771636],[1.062856,51.771103],[1.062068,51.771671],[1.063323,51.771805],[1.064307,51.772229],[1.064666,51.771901],[1.064443,51.772134],[1.065543,51.772954],[1.06741,51.772607],[1.072,51.772685],[1.073228,51.771995],[1.074722,51.772356],[1.078076,51.772282],[1.074942,51.772419],[1.074517,51.772749],[1.07443,51.77229],[1.07327,51.772067],[1.072016,51.77275],[1.067329,51.772647],[1.065478,51.773083],[1.063898,51.772058],[1.058287,51.771089],[1.057875,51.770539],[1.057416,51.771429],[1.056592,51.772462],[1.057432,51.772718],[1.056505,51.772747],[1.056572,51.772233],[1.056301,51.772233],[1.056144,51.772533],[1.055913,51.772524],[1.055212,51.771653],[1.056078,51.772517],[1.056251,51.772194],[1.057338,51.771394],[1.057458,51.770619],[1.055373,51.770564],[1.055446,51.7703],[1.054182,51.770137],[1.04844,51.77033],[1.043902,51.771314],[1.045026,51.771522],[1.047509,51.770765],[1.047896,51.770797],[1.048223,51.7712],[1.047571,51.770802],[1.046317,51.771172],[1.046466,51.771422],[1.045065,51.771585],[1.043652,51.771444],[1.043006,51.772096],[1.044209,51.771958],[1.04284,51.772151],[1.040902,51.773558],[1.041814,51.773403],[1.042782,51.772542],[1.043108,51.772598],[1.04187,51.773459],[1.040887,51.77369],[1.040789,51.773533],[1.039343,51.774985],[1.04012,51.775087],[1.040262,51.774652],[1.040614,51.774741],[1.040068,51.775198],[1.040733,51.774955],[1.040396,51.775328],[1.041353,51.775228],[1.040531,51.775416],[1.041282,51.776336],[1.042005,51.776282],[1.041504,51.776101],[1.042146,51.776278],[1.041956,51.775645],[1.042313,51.776246],[1.044173,51.776189],[1.044202,51.775301],[1.043522,51.774833],[1.043049,51.775142],[1.04334,51.774747],[1.042903,51.77451],[1.042628,51.774876],[1.042874,51.774291],[1.042349,51.773771],[1.043004,51.773982],[1.043695,51.772926],[1.043277,51.774252],[1.044391,51.774751],[1.04466,51.775145],[1.043822,51.774776],[1.044879,51.775371],[1.044415,51.77539],[1.044638,51.776158],[1.046098,51.776656],[1.046164,51.776319],[1.045019,51.775462],[1.046423,51.776273],[1.046188,51.776483],[1.046332,51.776912],[1.047447,51.776749],[1.047586,51.776816],[1.046422,51.777019],[1.047188,51.777872],[1.047621,51.777567],[1.047133,51.778339],[1.048173,51.778418],[1.047811,51.777847],[1.048387,51.77856],[1.047112,51.778461],[1.046872,51.779406],[1.047433,51.779592],[1.048138,51.778633],[1.048029,51.779054],[1.047263,51.77997],[1.047385,51.779692],[1.046857,51.779505],[1.046219,51.780292],[1.047121,51.779998],[1.047012,51.780294],[1.045467,51.780456],[1.045169,51.780998],[1.045647,51.781796],[1.046483,51.781806],[1.046545,51.781391],[1.046661,51.782565],[1.046429,51.781928],[1.04546,51.781885],[1.045698,51.782919],[1.046299,51.782711],[1.04583,51.782935],[1.046064,51.783248],[1.047397,51.78295],[1.046707,51.782582],[1.047508,51.782987],[1.046439,51.783286],[1.047635,51.783312],[1.047531,51.783008],[1.047827,51.783264],[1.047607,51.783377],[1.046675,51.783361],[1.046085,51.783281],[1.045164,51.782949],[1.045695,51.783036],[1.045355,51.782321],[1.044598,51.782473],[1.044384,51.782194],[1.045335,51.782261],[1.045017,51.781007],[1.043224,51.781194],[1.043247,51.780355],[1.043402,51.781092],[1.044818,51.780981],[1.043244,51.78024],[1.043069,51.780499],[1.042928,51.779514],[1.04334,51.779168],[1.044938,51.780139],[1.046082,51.780111],[1.045191,51.779991],[1.043371,51.779018],[1.043797,51.778952],[1.045281,51.779976],[1.046159,51.780009],[1.0463,51.779818],[1.045081,51.779636],[1.046275,51.779769],[1.04686,51.778574],[1.045607,51.778941],[1.046809,51.778534],[1.046895,51.778057],[1.045424,51.77872],[1.044816,51.778683],[1.045675,51.778534],[1.046866,51.777958],[1.046871,51.777692],[1.04595,51.777],[1.04504,51.778246],[1.044713,51.77837],[1.044393,51.777942],[1.04489,51.778191],[1.045452,51.777608],[1.044786,51.77754],[1.045485,51.777515],[1.045792,51.776864],[1.044839,51.776422],[1.042899,51.776489],[1.042546,51.776613],[1.043247,51.777015],[1.042825,51.776899],[1.043292,51.777612],[1.042394,51.776525],[1.042129,51.776872],[1.043045,51.777634],[1.042085,51.77692],[1.042123,51.776578],[1.040675,51.77664],[1.039246,51.777287],[1.039792,51.777763],[1.039053,51.777435],[1.038926,51.777697],[1.03964,51.778131],[1.04045,51.778119],[1.040022,51.778229],[1.040695,51.778716],[1.039815,51.778476],[1.038717,51.777623],[1.037819,51.778003],[1.040005,51.77878],[1.039101,51.778578],[1.041244,51.779634],[1.038857,51.778575],[1.03858,51.778759],[1.039149,51.778984],[1.03868,51.778867],[1.038537,51.77874],[1.038501,51.77827],[1.037603,51.778093],[1.036935,51.778453],[1.037177,51.778902],[1.038753,51.779117],[1.040463,51.779781],[1.03877,51.779149],[1.038204,51.77923],[1.038654,51.779564],[1.037629,51.779067],[1.038264,51.779849],[1.038792,51.779695],[1.040137,51.780027],[1.038845,51.779747],[1.039335,51.78003],[1.038358,51.779899],[1.038639,51.780242],[1.037623,51.779423],[1.037547,51.779097],[1.037024,51.778873],[1.036824,51.778585],[1.036607,51.778767],[1.036364,51.779117],[1.037475,51.779926],[1.036296,51.779229],[1.036117,51.779912],[1.036784,51.780641],[1.035961,51.780143],[1.035678,51.781476],[1.03632,51.781881],[1.03572,51.781565],[1.035389,51.782194],[1.035663,51.782583],[1.03687,51.782114],[1.035683,51.782623],[1.03604,51.782893],[1.036545,51.782674],[1.036428,51.782961],[1.035971,51.782944],[1.035673,51.783961],[1.036633,51.783775],[1.037693,51.78397],[1.038046,51.783599],[1.038121,51.783643],[1.037743,51.784001],[1.038549,51.783544],[1.037782,51.783131],[1.038136,51.783185],[1.037393,51.781399],[1.037722,51.781427],[1.037678,51.780553],[1.037755,51.781379],[1.038529,51.78212],[1.038179,51.780346],[1.038486,51.781737],[1.038954,51.780901],[1.038504,51.780499],[1.040221,51.780506],[1.038579,51.780515],[1.03901,51.780947],[1.038576,51.781766],[1.038925,51.781993],[1.038977,51.781348],[1.039245,51.781343],[1.039053,51.780733],[1.039214,51.780727],[1.039491,51.780905],[1.039316,51.781361],[1.038961,51.781588],[1.040132,51.781815],[1.040896,51.781419],[1.04034,51.780954],[1.040523,51.780424],[1.041044,51.780531],[1.040465,51.780982],[1.04123,51.781238],[1.041263,51.780776],[1.041518,51.780549],[1.040877,51.780121],[1.041435,51.779791],[1.042408,51.780402],[1.041343,51.780758],[1.041372,51.781064],[1.041636,51.780971],[1.041605,51.780818],[1.041949,51.78062],[1.042302,51.780744],[1.041684,51.780823],[1.041705,51.780999],[1.04068,51.781801],[1.03913,51.781916],[1.039084,51.782167],[1.039595,51.782254],[1.038873,51.782185],[1.038966,51.782883],[1.039714,51.782561],[1.039013,51.782965],[1.038798,51.783607],[1.039859,51.783349],[1.040434,51.782653],[1.040092,51.782459],[1.040298,51.782102],[1.041758,51.781207],[1.040827,51.781945],[1.042472,51.781459],[1.041714,51.781787],[1.041945,51.782078],[1.043181,51.782129],[1.041685,51.782083],[1.04214,51.782219],[1.041298,51.782263],[1.040727,51.782779],[1.041343,51.782549],[1.04152,51.782648],[1.041722,51.782312],[1.043549,51.782165],[1.043654,51.782181],[1.041531,51.782705],[1.04132,51.782647],[1.04147,51.782886],[1.042627,51.782657],[1.043031,51.782869],[1.041432,51.782968],[1.043419,51.783588],[1.044347,51.783562],[1.043458,51.783653],[1.043696,51.783781],[1.042884,51.784083],[1.042183,51.78397],[1.044131,51.784445],[1.04445,51.78432],[1.043925,51.784172],[1.045276,51.783984],[1.045275,51.783738],[1.045655,51.783401],[1.044671,51.782764],[1.045749,51.783442],[1.047334,51.783473],[1.045385,51.783688],[1.045675,51.784613],[1.046317,51.784089],[1.046062,51.784462],[1.046544,51.784781],[1.04607,51.784555],[1.045713,51.78482],[1.046297,51.784986],[1.045189,51.785019],[1.045171,51.785632],[1.043943,51.784654],[1.043136,51.784642],[1.043578,51.785005],[1.040645,51.783958],[1.042101,51.784586],[1.04103,51.784191],[1.041082,51.784508],[1.042299,51.784828],[1.041378,51.784634],[1.042001,51.785012],[1.041087,51.784715],[1.041685,51.784959],[1.042192,51.785248],[1.043238,51.785389],[1.042163,51.785272],[1.041108,51.784833],[1.040807,51.784534],[1.040564,51.784723],[1.043844,51.786011],[1.041619,51.785273],[1.04322,51.785976],[1.042218,51.785648],[1.04257,51.786177],[1.041775,51.785607],[1.042741,51.786394],[1.043174,51.786609],[1.042614,51.786382],[1.041881,51.785906],[1.04154,51.785217],[1.040655,51.78484],[1.04144,51.785297],[1.040849,51.78527],[1.040373,51.784471],[1.039016,51.78443],[1.040772,51.78555],[1.039978,51.785358],[1.040273,51.785679],[1.041022,51.785766],[1.042262,51.786564],[1.041008,51.785794],[1.041196,51.786162],[1.040072,51.785623],[1.039387,51.784766],[1.038643,51.784773],[1.039058,51.784831],[1.039471,51.785458],[1.04177,51.786907],[1.040458,51.786305],[1.040294,51.786552],[1.040837,51.787078],[1.042282,51.787899],[1.043077,51.787432],[1.041172,51.788586],[1.044346,51.786762],[1.043582,51.786416],[1.044428,51.786706],[1.046692,51.784731],[1.047563,51.783452],[1.048139,51.783702],[1.047639,51.783514],[1.046323,51.785219],[1.044436,51.786748],[1.041491,51.788671],[1.04071,51.788935],[1.041047,51.788492],[1.038493,51.787974],[1.038556,51.788439],[1.03723,51.789737],[1.037554,51.790079],[1.03714,51.789822],[1.036496,51.790194],[1.037204,51.790638],[1.036477,51.790363],[1.035994,51.790537],[1.035938,51.791088],[1.034193,51.792126],[1.032455,51.794111],[1.030241,51.795875],[1.025483,51.797833],[1.022318,51.79822],[1.01779,51.80112],[1.018924,51.802258],[1.018758,51.802577],[1.019386,51.802948],[1.019767,51.80278],[1.021055,51.803175],[1.021247,51.802306],[1.021629,51.802804],[1.022752,51.802493],[1.023182,51.802196],[1.022853,51.801902],[1.023315,51.802168],[1.024476,51.801661],[1.024133,51.801317],[1.024712,51.801544],[1.024572,51.80117],[1.024825,51.80152],[1.025997,51.801099],[1.025675,51.800584],[1.026209,51.80104],[1.027329,51.80074],[1.027233,51.800045],[1.027419,51.800674],[1.028401,51.800541],[1.028374,51.800176],[1.027481,51.800024],[1.029145,51.799412],[1.027559,51.799996],[1.028342,51.800116],[1.028431,51.800164],[1.028509,51.800454],[1.033209,51.800637],[1.040978,51.802878],[1.042735,51.802683],[1.044671,51.801562],[1.046158,51.801265],[1.047623,51.801458],[1.046877,51.801527],[1.047655,51.802341],[1.048233,51.802234],[1.048373,51.802509],[1.047728,51.802385],[1.048614,51.802683],[1.049032,51.802077],[1.048105,51.801543],[1.049041,51.801983],[1.049879,51.801136],[1.051801,51.800853],[1.051227,51.800563],[1.051418,51.80012],[1.051814,51.800696],[1.052293,51.800574],[1.051433,51.800045],[1.051694,51.79957],[1.051187,51.798935],[1.053403,51.798538],[1.052736,51.799013],[1.053647,51.799226],[1.053772,51.798439],[1.054006,51.798741],[1.054556,51.798514],[1.054414,51.798282],[1.055285,51.798274],[1.055224,51.797984],[1.053171,51.798346],[1.055235,51.797933],[1.055613,51.79821],[1.057003,51.797868],[1.056708,51.79769],[1.057439,51.797856],[1.057172,51.797465],[1.055434,51.797924],[1.057207,51.79741],[1.062109,51.797293],[1.058834,51.797453],[1.059646,51.797544],[1.059616,51.797966],[1.060291,51.797781],[1.059993,51.79743],[1.060597,51.797381],[1.060376,51.797765],[1.061031,51.797414],[1.060909,51.797686],[1.061583,51.797742],[1.061406,51.797529],[1.061872,51.797858],[1.061669,51.797451],[1.061968,51.79799],[1.062387,51.798227],[1.062283,51.797964],[1.062612,51.798033],[1.062467,51.79831],[1.062809,51.798345],[1.06274,51.797886],[1.062941,51.798376],[1.06295,51.797861],[1.063726,51.797946],[1.06304,51.797687],[1.06357,51.797763],[1.063371,51.797394],[1.063089,51.797639],[1.062302,51.7974],[1.06249,51.797625],[1.062236,51.797381],[1.062945,51.797506],[1.06312,51.797187],[1.062172,51.797291],[1.06312,51.797119],[1.063328,51.797359],[1.063202,51.79708],[1.06446,51.796637],[1.063295,51.797174],[1.063898,51.797889],[1.064308,51.797784],[1.063882,51.797494],[1.064451,51.797725],[1.064339,51.797037],[1.06434,51.797509],[1.064066,51.797184],[1.063572,51.797401],[1.065474,51.796228],[1.066649,51.797245],[1.06468,51.798459],[1.063001,51.798885],[1.061316,51.798488],[1.061212,51.798755],[1.060933,51.798111],[1.060911,51.798704],[1.060557,51.798193],[1.06041,51.798648],[1.060298,51.79835],[1.06026,51.79862],[1.059728,51.79848],[1.058689,51.79884],[1.057776,51.798191],[1.056193,51.798329],[1.054544,51.798848],[1.053975,51.799379],[1.05434,51.799862],[1.053815,51.799634],[1.054347,51.799988],[1.053796,51.799845],[1.05341,51.800324],[1.053916,51.800148],[1.053039,51.800602],[1.053306,51.800877],[1.052734,51.800913],[1.05291,51.800714],[1.051694,51.801229],[1.052246,51.801144],[1.051914,51.801386],[1.050199,51.802085],[1.04987,51.802845],[1.050142,51.802112],[1.050429,51.801776],[1.051654,51.801298],[1.049901,51.801633],[1.049677,51.802682],[1.048909,51.803179],[1.046977,51.803206],[1.047279,51.803023],[1.045977,51.801875],[1.044988,51.802463],[1.045252,51.802485],[1.045462,51.802799],[1.045855,51.802467],[1.045815,51.802865],[1.046246,51.80315],[1.0457,51.80291],[1.045784,51.802774],[1.045436,51.802824],[1.045334,51.802793],[1.044931,51.802451],[1.044439,51.80307],[1.045006,51.803823],[1.046491,51.803344],[1.046599,51.803625],[1.045818,51.803583],[1.045807,51.803936],[1.046678,51.803831],[1.046519,51.804058],[1.048192,51.804466],[1.047828,51.804042],[1.048142,51.803942],[1.048449,51.80461],[1.050776,51.805397],[1.054541,51.807537],[1.056563,51.808294],[1.056718,51.807997],[1.057661,51.808686],[1.062284,51.810166],[1.062478,51.810363],[1.062533,51.810767],[1.06237,51.810314],[1.062177,51.810514],[1.063714,51.811759],[1.064345,51.812947],[1.06479,51.812832],[1.064501,51.813338],[1.066055,51.815675],[1.066185,51.816787],[1.065544,51.817746],[1.065491,51.819266],[1.065341,51.818411],[1.065012,51.819093],[1.065294,51.818379],[1.064834,51.818989],[1.06538,51.818122],[1.064687,51.818982],[1.066566,51.821127],[1.067783,51.821083],[1.066525,51.821188],[1.065328,51.82029],[1.065273,51.820919],[1.063145,51.820643],[1.060445,51.823542],[1.06008,51.8244],[1.059469,51.824251],[1.059834,51.823093],[1.06103,51.822514],[1.06129,51.821455],[1.062712,51.8205],[1.062148,51.820534],[1.062025,51.820012],[1.062774,51.81977],[1.062859,51.820132],[1.063338,51.819339],[1.063093,51.819331],[1.062741,51.819104],[1.063074,51.819277],[1.063186,51.818937],[1.063329,51.819273],[1.063996,51.818139],[1.061929,51.81879],[1.062829,51.818832],[1.062527,51.819106],[1.062623,51.818929],[1.061785,51.818809],[1.060834,51.819075],[1.060523,51.818883],[1.060488,51.819137],[1.059945,51.819262],[1.05966,51.819038],[1.059946,51.819212],[1.060375,51.818922],[1.059474,51.818923],[1.059291,51.819128],[1.058592,51.819244],[1.059239,51.819094],[1.058447,51.818951],[1.057668,51.819167],[1.057904,51.81942],[1.058507,51.819205],[1.05796,51.819448],[1.057838,51.819437],[1.057407,51.819143],[1.056931,51.819736],[1.056679,51.819495],[1.053702,51.821396],[1.052742,51.821683],[1.052937,51.821916],[1.052457,51.821828],[1.052077,51.822384],[1.051046,51.822406],[1.048452,51.823429],[1.046693,51.82287],[1.048511,51.823283],[1.04704,51.822586],[1.04615,51.822831],[1.047006,51.822382],[1.046805,51.821374],[1.046532,51.822404],[1.046694,51.821177],[1.044833,51.819439],[1.04602,51.819623],[1.047195,51.821204],[1.047635,51.822614],[1.048763,51.82294],[1.050116,51.822507],[1.049871,51.822172],[1.050206,51.822443],[1.054306,51.820557],[1.053842,51.820087],[1.054338,51.820536],[1.054953,51.820003],[1.054625,51.819765],[1.055017,51.819937],[1.05647,51.818985],[1.056317,51.818687],[1.056554,51.818969],[1.056732,51.818722],[1.059326,51.818374],[1.060563,51.818618],[1.060557,51.81795],[1.060648,51.81854],[1.061966,51.81841],[1.061601,51.817956],[1.061947,51.81833],[1.062292,51.818263],[1.061609,51.817491],[1.062445,51.818371],[1.063096,51.817935],[1.06278,51.817408],[1.063368,51.81784],[1.062919,51.817254],[1.063436,51.817745],[1.064207,51.817225],[1.063078,51.816879],[1.064231,51.817192],[1.063295,51.816768],[1.064475,51.816933],[1.062741,51.816497],[1.064487,51.816895],[1.063529,51.816499],[1.064539,51.816657],[1.064551,51.816432],[1.063233,51.8164],[1.064575,51.816251],[1.06389,51.816096],[1.064417,51.815951],[1.064271,51.815714],[1.063309,51.815866],[1.063469,51.815623],[1.064195,51.815676],[1.063555,51.815598],[1.064086,51.815398],[1.063463,51.815401],[1.063843,51.815136],[1.06316,51.815265],[1.06372,51.814987],[1.063087,51.815067],[1.063593,51.814875],[1.063044,51.815008],[1.063502,51.814763],[1.063242,51.814614],[1.062739,51.81475],[1.063284,51.814569],[1.062676,51.814552],[1.062925,51.814157],[1.062363,51.814217],[1.062543,51.81377],[1.062003,51.813887],[1.062505,51.813747],[1.061871,51.813634],[1.062122,51.813351],[1.061716,51.813516],[1.062145,51.813267],[1.061601,51.813226],[1.061978,51.813073],[1.061023,51.813197],[1.062612,51.815164],[1.062725,51.816232],[1.062276,51.814958],[1.060724,51.812891],[1.060953,51.813094],[1.061841,51.812887],[1.061319,51.812914],[1.061642,51.812769],[1.061253,51.812377],[1.060475,51.812706],[1.059407,51.811929],[1.059898,51.811912],[1.060743,51.812572],[1.061182,51.812294],[1.05952,51.811379],[1.059241,51.81193],[1.059302,51.811322],[1.058501,51.812015],[1.059059,51.811888],[1.058915,51.812076],[1.058514,51.81222],[1.05781,51.812275],[1.058746,51.812129],[1.058373,51.812075],[1.059006,51.81147],[1.057635,51.812235],[1.059028,51.811275],[1.058404,51.811486],[1.058879,51.811222],[1.058268,51.811324],[1.05836,51.811015],[1.057722,51.81151],[1.058274,51.810978],[1.057691,51.810754],[1.05737,51.810992],[1.057398,51.81067],[1.057095,51.810957],[1.057361,51.81109],[1.056834,51.811057],[1.057525,51.811377],[1.056412,51.810986],[1.057271,51.810715],[1.056657,51.810847],[1.056764,51.810449],[1.056153,51.81063],[1.056316,51.810331],[1.055713,51.810187],[1.055948,51.810601],[1.05536,51.810522],[1.056375,51.810966],[1.054644,51.810475],[1.053632,51.810121],[1.053858,51.809581],[1.052939,51.810581],[1.052084,51.810708],[1.052541,51.810785],[1.051757,51.810968],[1.050581,51.810732],[1.050156,51.810566],[1.050496,51.810118],[1.049853,51.809687],[1.050006,51.809435],[1.050847,51.809207],[1.051377,51.809396],[1.05159,51.809089],[1.051104,51.808916],[1.05163,51.809014],[1.049305,51.808519],[1.048947,51.808898],[1.049228,51.809111],[1.048925,51.808945],[1.048508,51.809443],[1.049892,51.809406],[1.04956,51.809663],[1.048403,51.809635],[1.048721,51.809555],[1.048463,51.809446],[1.049273,51.808481],[1.049945,51.808621],[1.049347,51.808427],[1.049083,51.808494],[1.047827,51.810179],[1.046722,51.810985],[1.048073,51.809835],[1.046734,51.810711],[1.047702,51.809676],[1.043427,51.809448],[1.04143,51.809056],[1.041725,51.808671],[1.040877,51.808627],[1.041322,51.809133],[1.040067,51.808099],[1.038425,51.807482],[1.037916,51.807725],[1.038345,51.80741],[1.037793,51.807174],[1.037856,51.807713],[1.036329,51.806884],[1.036761,51.807015],[1.036896,51.806598],[1.036568,51.806277],[1.036985,51.806073],[1.036523,51.805789],[1.035625,51.806476],[1.035341,51.806309],[1.035699,51.806418],[1.036132,51.805771],[1.035551,51.805757],[1.035164,51.806227],[1.035459,51.805587],[1.03219,51.80544],[1.031234,51.80527],[1.031156,51.804971],[1.030818,51.805301],[1.028073,51.805301],[1.027971,51.804751],[1.025733,51.804639],[1.025382,51.80528],[1.02544,51.804661],[1.025307,51.805223],[1.023875,51.805137],[1.023751,51.805502],[1.02339,51.805011],[1.023497,51.805529],[1.022686,51.805633],[1.022401,51.805072],[1.022053,51.80514],[1.022109,51.805601],[1.021755,51.805089],[1.021488,51.805261],[1.021998,51.806086],[1.020686,51.806406],[1.017261,51.806452],[1.012971,51.804856],[1.011584,51.805369],[1.011883,51.805982],[1.011511,51.806166],[1.010527,51.80566],[1.010531,51.806457],[1.006571,51.808366],[1.002867,51.811111],[1.001188,51.811838],[1.001495,51.812046],[1.002084,51.811658],[1.001455,51.812159],[1.001023,51.811963],[0.999553,51.812699],[1.000183,51.813056],[1.000911,51.812587],[1.000267,51.813077],[0.999233,51.81285],[0.99962,51.813315],[0.999988,51.81318],[0.99601,51.816309],[0.995175,51.816453],[0.995435,51.816299],[0.995063,51.816055],[0.995534,51.816006],[0.994419,51.815779],[0.994235,51.815975],[0.994663,51.816139],[0.994064,51.816016],[0.993887,51.816307],[0.994803,51.816531],[0.993888,51.816384],[0.994504,51.816805],[0.99498,51.816549],[0.995138,51.816762],[0.994306,51.81696],[0.993716,51.816376],[0.993248,51.817422],[0.993821,51.817317],[0.993193,51.817594],[0.993828,51.817824],[0.994071,51.817651],[0.993638,51.817552],[0.994134,51.817623],[0.994534,51.817085],[0.994218,51.817617],[0.995786,51.816471],[0.992643,51.818944],[0.99204,51.818286],[0.991731,51.818695],[0.992218,51.81877],[0.991711,51.818753],[0.991648,51.819261],[0.991075,51.81947],[0.990217,51.820796],[0.987253,51.82366],[0.985691,51.826409],[0.984852,51.826696],[0.98569,51.826531],[0.985486,51.827788],[0.985654,51.826567],[0.984662,51.826957],[0.984036,51.827703],[0.984188,51.829259],[0.984756,51.829267],[0.984149,51.829282],[0.983889,51.827875],[0.984039,51.829367],[0.98567,51.829347],[0.984428,51.829377],[0.984984,51.829487],[0.984212,51.82951],[0.984158,51.829918],[0.986474,51.835326],[0.985394,51.834229],[0.985764,51.834682],[0.985078,51.834322],[0.98564,51.834769],[0.984911,51.834341],[0.985354,51.834655],[0.984657,51.834649],[0.984083,51.835056],[0.984632,51.835092],[0.98493,51.83478],[0.985711,51.834889],[0.984917,51.834852],[0.985393,51.834976],[0.984266,51.835241],[0.985534,51.834969],[0.985643,51.835498],[0.985837,51.835024],[0.986043,51.836294],[0.986043,51.835125],[0.986187,51.835565],[0.987508,51.835258],[0.98755,51.83493],[0.986628,51.834985],[0.987656,51.834874],[0.987931,51.834958],[0.988311,51.835969],[0.987603,51.837271],[0.987855,51.837045],[0.98827,51.837406],[0.988686,51.836971],[0.989205,51.837223],[0.989322,51.836814],[0.989541,51.837302],[0.990183,51.836931],[0.990167,51.836638],[0.989668,51.836784],[0.989985,51.83659],[0.988971,51.836109],[0.988799,51.836724],[0.988861,51.836074],[0.989252,51.836135],[0.99167,51.836995],[0.991596,51.83674],[0.993307,51.835883],[0.991646,51.836749],[0.991842,51.837181],[0.994344,51.835552],[0.997257,51.83511],[0.999046,51.8355],[0.998524,51.835069],[0.99932,51.83548],[0.999741,51.835176],[0.999272,51.834791],[0.99979,51.835149],[0.999725,51.835381],[0.999844,51.835347],[1.000425,51.835024],[1.000097,51.834667],[1.000454,51.835002],[1.001043,51.834663],[1.000666,51.834272],[1.001145,51.834541],[1.001861,51.834045],[1.001573,51.833882],[1.002227,51.833778],[1.001889,51.833585],[1.002341,51.83369],[1.003532,51.833102],[1.007836,51.83294],[1.009423,51.83192],[1.0105,51.831664],[1.012125,51.832331],[1.013599,51.832059],[1.013999,51.832415],[1.013085,51.832295],[1.012521,51.832716],[1.012728,51.832944],[1.013455,51.832564],[1.012839,51.832968],[1.013628,51.83294],[1.012924,51.833199],[1.013449,51.833824],[1.013847,51.833605],[1.013997,51.834083],[1.014265,51.833851],[1.01488,51.834076],[1.014923,51.83383],[1.018389,51.834309],[1.01858,51.83375],[1.018942,51.833994],[1.019633,51.833809],[1.02094,51.83448],[1.020955,51.834775],[1.019742,51.834665],[1.019276,51.835299],[1.019132,51.834908],[1.016402,51.834509],[1.013085,51.834445],[1.01135,51.833691],[1.011278,51.833421],[1.011344,51.833635],[1.011845,51.833869],[1.012087,51.833711],[1.011603,51.83324],[1.011348,51.833478],[1.011487,51.832879],[1.010577,51.832384],[1.008177,51.833656],[1.007294,51.833806],[1.007079,51.834589],[1.006969,51.833816],[1.004308,51.833784],[1.003415,51.83399],[0.999635,51.836306],[0.997651,51.836406],[0.997604,51.836858],[0.99755,51.836366],[0.995956,51.836257],[0.997518,51.83661],[0.996537,51.836751],[0.99615,51.836383],[0.996291,51.836782],[0.995956,51.836475],[0.995641,51.836955],[0.995599,51.836395],[0.995369,51.837168],[0.995289,51.836802],[0.994985,51.836944],[0.995331,51.836536],[0.994685,51.836438],[0.99466,51.837321],[0.994329,51.836851],[0.993335,51.837779],[0.990751,51.838601],[0.988662,51.838802],[0.988669,51.83902],[0.988513,51.838823],[0.987399,51.83948],[0.987883,51.838594],[0.987502,51.838448],[0.986643,51.839665],[0.986414,51.838918],[0.986205,51.83941],[0.986138,51.839116],[0.985879,51.839402],[0.985187,51.838972],[0.985545,51.839249],[0.985,51.839524],[0.985534,51.83932],[0.986048,51.839601],[0.986406,51.839456],[0.986402,51.839737],[0.984925,51.839599],[0.985926,51.839759],[0.985367,51.840265],[0.985513,51.839924],[0.985149,51.839693],[0.98489,51.839898],[0.984849,51.839623],[0.984626,51.839899],[0.985254,51.840303],[0.98477,51.840016],[0.984697,51.840489],[0.984547,51.840074],[0.984154,51.841055],[0.983109,51.841439],[0.982279,51.842567],[0.981305,51.843042],[0.981259,51.843785],[0.98164,51.843928],[0.981396,51.845658],[0.982148,51.844377],[0.981629,51.844301],[0.981942,51.843595],[0.981385,51.84349],[0.981609,51.843301],[0.982467,51.843586],[0.982318,51.844512],[0.981371,51.8462],[0.979843,51.847641],[0.975961,51.849305],[0.973228,51.849779],[0.97344,51.850096],[0.974119,51.849877],[0.973305,51.850167],[0.972835,51.849811],[0.971821,51.849983],[0.971739,51.850303],[0.97163,51.850039],[0.970891,51.850118],[0.970778,51.850605],[0.971444,51.850755],[0.96935,51.850905],[0.970683,51.850744],[0.970351,51.850232],[0.970055,51.850544],[0.969748,51.85037],[0.968485,51.85072],[0.969095,51.851004],[0.968598,51.851109],[0.968368,51.850857],[0.966253,51.851822],[0.970369,51.852463],[0.973175,51.853378],[0.978104,51.854043],[0.976687,51.856402],[0.975684,51.85953],[0.973978,51.860456],[0.976757,51.86386],[0.977447,51.865966],[0.979241,51.867923],[0.97937,51.869524],[0.978321,51.872162],[0.976595,51.873322],[0.970203,51.874587],[0.960139,51.877423],[0.957923,51.877387],[0.952853,51.88031],[0.95812,51.881117],[0.957976,51.881514],[0.959638,51.884523],[0.959327,51.88632],[0.962076,51.889596],[0.96262,51.891387],[0.959537,51.892236],[0.956773,51.892311],[0.953098,51.891708],[0.952371,51.893433],[0.95085,51.894403],[0.948809,51.896752],[0.950016,51.898286],[0.951087,51.89841],[0.954173,51.901489],[0.956717,51.902547],[0.956331,51.903019],[0.957143,51.903648],[0.954882,51.904686],[0.949092,51.904798],[0.944139,51.906225],[0.948004,51.910012],[0.946644,51.909903],[0.941321,51.911183],[0.937901,51.913055],[0.931511,51.91323],[0.931869,51.913835],[0.931165,51.914119],[0.93159,51.914688],[0.934149,51.916488],[0.932397,51.917642],[0.932796,51.917927],[0.932242,51.918214],[0.931203,51.919724],[0.93437,51.921063],[0.935284,51.922506],[0.93738,51.922016],[0.938227,51.922711],[0.939212,51.924587],[0.93909,51.926587],[0.941986,51.929743],[0.947172,51.932707],[0.949228,51.935019],[0.95104,51.934605],[0.955317,51.936754],[0.964481,51.938349],[0.969269,51.939725],[0.972119,51.94018],[0.974512,51.939874],[0.975676,51.940254],[0.985528,51.939737],[0.993868,51.937591],[0.994979,51.937625],[0.997105,51.936922],[0.99947,51.936632],[1.001682,51.935543],[1.004201,51.935833],[1.005734,51.935605],[1.005884,51.936716],[1.012559,51.939658],[1.01563,51.94178],[1.01849,51.943028],[1.022821,51.946459],[1.023548,51.948028],[1.023147,51.948883],[1.02515,51.950644],[1.026833,51.954016],[1.02522,51.953955],[1.024712,51.954902],[1.025551,51.954975],[1.0258,51.955883],[1.028087,51.956035],[1.028146,51.956633],[1.029038,51.957246],[1.031834,51.957357],[1.033137,51.957759],[1.034291,51.957236],[1.035459,51.957742],[1.036446,51.957037],[1.037917,51.956933],[1.039856,51.955933],[1.042083,51.956543],[1.041713,51.957399],[1.042475,51.959309],[1.045106,51.959646],[1.048105,51.959399],[1.05035,51.958455],[1.051864,51.956936]],[[1.275775,51.879368],[1.275464,51.879011],[1.275905,51.87897],[1.275775,51.879368]],[[1.27053,51.877802],[1.270483,51.878044],[1.270455,51.87779],[1.27053,51.877802]],[[1.043807,51.772754],[1.046898,51.771522],[1.043695,51.772926],[1.043807,51.772754]],[[1.047774,51.776907],[1.047702,51.777145],[1.047586,51.776816],[1.047774,51.776907]],[[1.040004,51.780697],[1.040188,51.781115],[1.039214,51.780727],[1.040004,51.780697]],[[1.044344,51.78229],[1.044498,51.782588],[1.043654,51.782181],[1.044344,51.78229]]],[[[1.057288,51.797529],[1.05844,51.797494],[1.05771,51.797597],[1.058252,51.798001],[1.058532,51.797534],[1.058446,51.79806],[1.058665,51.797498],[1.058457,51.798152],[1.05902,51.798263],[1.058813,51.797528],[1.059131,51.798268],[1.059471,51.797897],[1.058834,51.797453],[1.057288,51.797529]]]]}}]}