{"type":"FeatureCollection","features":[{"type":"Feature","properties":{"slug":"thanet","gss_code":"E07000114","name":"Thanet"},"geometry":{"type":"MultiPolygon","coordinates":[[[[1.359023,51.311333],[1.359063,51.311366],[1.359246,51.311409],[1.359023,51.311333]]],[[[1.359304,51.311429],[1.359209,51.311435],[1.360117,51.311829],[1.360323,51.311779],[1.359304,51.311429]]],[[[1.360566,51.311862],[1.360295,51.311878],[1.360979,51.312003],[1.360566,51.311862]]],[[[1.371351,51.313911],[1.365491,51.313137],[1.365909,51.313969],[1.3669,51.313642],[1.366729,51.313381],[1.367127,51.313577],[1.365889,51.31408],[1.366369,51.314229],[1.366964,51.313783],[1.366763,51.314188],[1.365857,51.314531],[1.366394,51.314834],[1.367178,51.314586],[1.366396,51.314862],[1.365951,51.314692],[1.365562,51.315869],[1.365778,51.316436],[1.367074,51.317113],[1.367753,51.317018],[1.36865,51.315517],[1.371351,51.313911]]],[[[1.434746,51.389294],[1.436841,51.388743],[1.436693,51.388568],[1.437376,51.388688],[1.437544,51.388249],[1.441937,51.387167],[1.440993,51.385962],[1.440955,51.384931],[1.442521,51.383785],[1.445058,51.382885],[1.446025,51.380108],[1.447261,51.379039],[1.448917,51.378263],[1.449554,51.377479],[1.449499,51.374761],[1.448384,51.372167],[1.448611,51.37031],[1.448135,51.36938],[1.445813,51.367637],[1.445313,51.366306],[1.445302,51.362982],[1.445905,51.358404],[1.445014,51.358254],[1.445331,51.358702],[1.444589,51.358795],[1.443427,51.358122],[1.443242,51.357169],[1.443723,51.35631],[1.44275,51.355425],[1.443441,51.354319],[1.442289,51.351938],[1.4422,51.350129],[1.441051,51.348815],[1.439639,51.348562],[1.43892,51.346309],[1.437396,51.344726],[1.436347,51.342714],[1.432896,51.338462],[1.429953,51.336258],[1.424853,51.331418],[1.423849,51.331124],[1.425064,51.329474],[1.424912,51.329058],[1.423429,51.328257],[1.422751,51.327442],[1.424691,51.326007],[1.422497,51.327406],[1.423033,51.32822],[1.424149,51.32867],[1.424929,51.329497],[1.423591,51.331277],[1.42259,51.331409],[1.421666,51.331176],[1.42232,51.330775],[1.42103,51.331],[1.419902,51.329966],[1.419413,51.330149],[1.419104,51.329794],[1.420138,51.329037],[1.419899,51.328902],[1.418831,51.329639],[1.418068,51.329093],[1.419426,51.327662],[1.421702,51.327698],[1.420015,51.327424],[1.419387,51.32759],[1.418378,51.32855],[1.415351,51.327501],[1.41457,51.327492],[1.414193,51.326416],[1.415942,51.326016],[1.414072,51.326013],[1.414245,51.325159],[1.415539,51.32386],[1.422206,51.323767],[1.423554,51.324339],[1.422207,51.323721],[1.411386,51.323926],[1.409277,51.326896],[1.407483,51.326722],[1.407722,51.32618],[1.407514,51.326565],[1.406195,51.326507],[1.406403,51.326039],[1.40621,51.326404],[1.404961,51.326285],[1.40504,51.325898],[1.404707,51.326352],[1.399303,51.326061],[1.392515,51.326525],[1.391021,51.32706],[1.388026,51.327118],[1.382349,51.329009],[1.381255,51.328824],[1.377755,51.32926],[1.374241,51.327597],[1.374061,51.326481],[1.371996,51.325792],[1.370995,51.325978],[1.370323,51.32535],[1.369775,51.325409],[1.367469,51.324419],[1.367031,51.323691],[1.364276,51.321983],[1.362845,51.320046],[1.362895,51.318473],[1.36319,51.317772],[1.364584,51.317715],[1.36316,51.317367],[1.364164,51.317511],[1.362729,51.316384],[1.364364,51.317555],[1.365436,51.317357],[1.364103,51.316968],[1.362989,51.315845],[1.36287,51.31549],[1.36298,51.315256],[1.363254,51.315501],[1.363156,51.31506],[1.363322,51.315415],[1.363544,51.314397],[1.363859,51.315098],[1.363602,51.314782],[1.363414,51.315374],[1.363141,51.315822],[1.363949,51.316516],[1.363575,51.315139],[1.364036,51.316796],[1.365077,51.317166],[1.364474,51.316873],[1.365006,51.316993],[1.364084,51.315108],[1.364526,51.315627],[1.36438,51.31382],[1.363578,51.313102],[1.363333,51.314018],[1.36344,51.313003],[1.362155,51.312873],[1.363105,51.313495],[1.362494,51.313441],[1.361577,51.313988],[1.360426,51.31584],[1.360276,51.315962],[1.359919,51.315608],[1.360336,51.315882],[1.360593,51.314892],[1.360866,51.315013],[1.361456,51.314003],[1.359837,51.314661],[1.358457,51.314831],[1.360583,51.314283],[1.362497,51.313314],[1.361834,51.312996],[1.361608,51.313265],[1.360711,51.313572],[1.360536,51.313403],[1.361576,51.313154],[1.360362,51.312744],[1.35962,51.313253],[1.358781,51.313361],[1.35848,51.31424],[1.358236,51.314372],[1.358417,51.314113],[1.358039,51.314076],[1.357826,51.314576],[1.357567,51.314231],[1.358429,51.313869],[1.357455,51.313663],[1.358457,51.313641],[1.357686,51.313107],[1.358506,51.313537],[1.359283,51.312942],[1.360105,51.312796],[1.358947,51.312227],[1.35781,51.31292],[1.357394,51.312843],[1.357938,51.312758],[1.357745,51.31196],[1.358124,51.312494],[1.358787,51.312215],[1.357888,51.311489],[1.351714,51.313031],[1.350966,51.311711],[1.346767,51.30906],[1.346502,51.308138],[1.345417,51.307988],[1.34341,51.310459],[1.339431,51.312907],[1.335411,51.313805],[1.331784,51.312939],[1.330385,51.31434],[1.325537,51.316914],[1.322845,51.317173],[1.322883,51.317457],[1.322626,51.317177],[1.313928,51.31806],[1.313871,51.320555],[1.313718,51.318031],[1.310199,51.31695],[1.299809,51.318555],[1.29611,51.320136],[1.290852,51.321394],[1.284829,51.321527],[1.283224,51.321339],[1.280911,51.320224],[1.275504,51.320217],[1.273033,51.320658],[1.27077,51.321803],[1.268128,51.322338],[1.263307,51.322225],[1.257953,51.323418],[1.253188,51.325993],[1.251905,51.328917],[1.250836,51.329471],[1.247822,51.329718],[1.246793,51.330211],[1.244746,51.332148],[1.244654,51.333144],[1.242622,51.334768],[1.23788,51.336122],[1.231723,51.339067],[1.230822,51.340104],[1.229748,51.342546],[1.227681,51.344643],[1.227572,51.345488],[1.22861,51.346852],[1.227919,51.348182],[1.225253,51.349297],[1.223254,51.349648],[1.221616,51.349478],[1.220302,51.349916],[1.220586,51.351533],[1.220239,51.352373],[1.217431,51.353839],[1.214417,51.355992],[1.213831,51.356772],[1.210782,51.363615],[1.211551,51.365014],[1.212874,51.366044],[1.214244,51.36636],[1.217168,51.366291],[1.220558,51.366745],[1.228656,51.364502],[1.229274,51.365146],[1.230488,51.368369],[1.230036,51.368932],[1.225964,51.369254],[1.224836,51.370047],[1.225294,51.371671],[1.225155,51.374197],[1.224264,51.37726],[1.224175,51.379334],[1.228175,51.379333],[1.228823,51.379043],[1.251071,51.37713],[1.257719,51.377138],[1.258645,51.37722],[1.258782,51.377485],[1.266321,51.378041],[1.268661,51.377593],[1.273197,51.377527],[1.278563,51.377944],[1.282914,51.379143],[1.285927,51.380471],[1.286078,51.381276],[1.286915,51.381905],[1.290092,51.382768],[1.292859,51.382354],[1.295961,51.382435],[1.299166,51.383185],[1.30182,51.382029],[1.30429,51.381565],[1.308667,51.381268],[1.311786,51.381548],[1.313407,51.380561],[1.314445,51.380298],[1.315737,51.380568],[1.31567,51.381212],[1.316284,51.381677],[1.324759,51.382375],[1.327987,51.381941],[1.328469,51.38197],[1.328423,51.382227],[1.328867,51.382017],[1.331243,51.382501],[1.333294,51.383412],[1.333575,51.384042],[1.333234,51.385516],[1.33492,51.386353],[1.340901,51.384832],[1.342611,51.384743],[1.345209,51.385129],[1.346137,51.385881],[1.348715,51.385889],[1.350645,51.38694],[1.351905,51.387248],[1.353366,51.387143],[1.358577,51.385688],[1.363647,51.385812],[1.366617,51.386248],[1.367228,51.386872],[1.370988,51.386921],[1.376917,51.387843],[1.379302,51.388661],[1.379489,51.389498],[1.381129,51.390242],[1.381343,51.390659],[1.380949,51.391189],[1.379629,51.391317],[1.377967,51.390722],[1.378609,51.391231],[1.379466,51.391456],[1.380997,51.391335],[1.384447,51.392598],[1.389914,51.392795],[1.390207,51.393154],[1.390778,51.393188],[1.391756,51.392556],[1.405421,51.392257],[1.407838,51.393173],[1.408469,51.392957],[1.408833,51.3923],[1.410393,51.39197],[1.41191,51.392288],[1.419228,51.391579],[1.422958,51.392471],[1.423934,51.393429],[1.424961,51.393778],[1.426846,51.393236],[1.428991,51.391924],[1.434746,51.389294]]]]}}]}