{"type":"FeatureCollection","features":[{"type":"Feature","properties":{"slug":"tonbridge-and-malling","gss_code":"E07000115","name":"Tonbridge and Malling"},"geometry":{"type":"MultiPolygon","coordinates":[[[[0.400966,51.349933],[0.397346,51.345776],[0.39992,51.344457],[0.404102,51.344899],[0.405259,51.345284],[0.407163,51.346624],[0.406714,51.347762],[0.411003,51.348211],[0.41664,51.347519],[0.418595,51.347912],[0.420885,51.347262],[0.426655,51.346914],[0.431291,51.345001],[0.445273,51.341832],[0.452095,51.340612],[0.453464,51.340633],[0.456861,51.336661],[0.457178,51.33564],[0.454088,51.334586],[0.451943,51.334368],[0.451182,51.33385],[0.450356,51.332225],[0.45046,51.329906],[0.451382,51.32889],[0.452441,51.328518],[0.455089,51.328514],[0.45658,51.329065],[0.457816,51.330525],[0.458969,51.330699],[0.459293,51.329906],[0.456895,51.328815],[0.455206,51.327117],[0.456587,51.325603],[0.455893,51.325156],[0.459937,51.325663],[0.459748,51.324354],[0.458991,51.323294],[0.457601,51.322298],[0.456307,51.318593],[0.456697,51.317122],[0.45769,51.31694],[0.458196,51.316362],[0.457396,51.314816],[0.457546,51.312937],[0.459485,51.310615],[0.462413,51.304467],[0.46356,51.303356],[0.466415,51.303081],[0.466965,51.302427],[0.469086,51.301522],[0.470711,51.301706],[0.472785,51.302442],[0.475339,51.302116],[0.477482,51.302983],[0.478876,51.303132],[0.479667,51.302932],[0.482883,51.300324],[0.485838,51.299413],[0.487635,51.299568],[0.491254,51.300727],[0.492678,51.300864],[0.495461,51.299534],[0.498742,51.296511],[0.493662,51.291365],[0.48943,51.289037],[0.488624,51.286859],[0.480801,51.279209],[0.480077,51.277959],[0.479251,51.27758],[0.480675,51.27601],[0.477192,51.273444],[0.478047,51.272765],[0.477656,51.272275],[0.476698,51.272691],[0.474653,51.272625],[0.470367,51.271124],[0.467238,51.271699],[0.467129,51.271321],[0.466379,51.271326],[0.460032,51.271784],[0.455382,51.271594],[0.453033,51.271866],[0.452429,51.271257],[0.449492,51.270393],[0.445374,51.270099],[0.441693,51.270323],[0.440256,51.269976],[0.432529,51.270137],[0.432348,51.268928],[0.432692,51.268937],[0.432058,51.267754],[0.431803,51.264777],[0.433192,51.261948],[0.433291,51.260618],[0.432878,51.258387],[0.43162,51.256931],[0.431327,51.254486],[0.429968,51.254539],[0.42945,51.252308],[0.429797,51.249481],[0.431227,51.24933],[0.431283,51.249092],[0.430224,51.248974],[0.426768,51.249531],[0.422142,51.249104],[0.420501,51.250005],[0.417841,51.250761],[0.411312,51.251418],[0.411003,51.252465],[0.410008,51.253119],[0.408215,51.252323],[0.406862,51.252243],[0.402767,51.248931],[0.39966,51.247671],[0.399593,51.247175],[0.397769,51.245867],[0.39757,51.245371],[0.397994,51.244657],[0.394193,51.241424],[0.388278,51.238686],[0.385573,51.238168],[0.38368,51.238298],[0.383165,51.236855],[0.381541,51.235897],[0.378699,51.235044],[0.378175,51.233422],[0.380434,51.231081],[0.381421,51.2317],[0.382031,51.230966],[0.383295,51.231109],[0.385506,51.229973],[0.38625,51.229947],[0.386822,51.229396],[0.388915,51.229078],[0.389496,51.22853],[0.391035,51.228004],[0.391945,51.226659],[0.392925,51.226103],[0.393705,51.225956],[0.395695,51.226733],[0.397428,51.226506],[0.399215,51.225639],[0.399323,51.22481],[0.398852,51.224445],[0.398659,51.223365],[0.399804,51.222962],[0.399976,51.222538],[0.401879,51.222061],[0.404761,51.2224],[0.407359,51.222287],[0.408802,51.221668],[0.406515,51.217899],[0.404843,51.214132],[0.404003,51.211066],[0.4041,51.2084],[0.40351,51.205452],[0.40226,51.201846],[0.4017,51.201422],[0.401669,51.200599],[0.400019,51.198414],[0.399669,51.199],[0.395777,51.200036],[0.394132,51.199196],[0.394004,51.199572],[0.39229,51.199916],[0.39203,51.200415],[0.390786,51.201075],[0.387984,51.202067],[0.386625,51.201519],[0.385906,51.200598],[0.384636,51.200272],[0.384799,51.198829],[0.384247,51.198266],[0.383905,51.198611],[0.382493,51.198758],[0.38083,51.197998],[0.377848,51.198737],[0.376894,51.198645],[0.376028,51.19932],[0.374857,51.198956],[0.372753,51.199086],[0.373217,51.199871],[0.37116,51.20114],[0.369322,51.201603],[0.368723,51.200674],[0.366584,51.200262],[0.366931,51.197718],[0.367586,51.197599],[0.367895,51.196094],[0.367497,51.194853],[0.364998,51.194077],[0.363931,51.19393],[0.36343,51.194265],[0.362478,51.194027],[0.361452,51.194742],[0.360615,51.19461],[0.36049,51.195611],[0.358029,51.195261],[0.356884,51.196052],[0.354766,51.195737],[0.354172,51.19599],[0.353193,51.195844],[0.352451,51.196314],[0.351092,51.19511],[0.350257,51.195156],[0.348597,51.194502],[0.347019,51.194909],[0.346451,51.194421],[0.345155,51.194368],[0.344329,51.193629],[0.341744,51.192737],[0.341417,51.193078],[0.339502,51.193284],[0.338682,51.193917],[0.337482,51.193497],[0.336301,51.194736],[0.335181,51.194612],[0.334458,51.195098],[0.334953,51.195763],[0.33404,51.195423],[0.332735,51.195526],[0.332579,51.195895],[0.333657,51.197145],[0.333278,51.197439],[0.332463,51.197224],[0.332345,51.197873],[0.330634,51.198151],[0.330365,51.19878],[0.329165,51.199039],[0.32836,51.198661],[0.326096,51.198578],[0.322241,51.199252],[0.321788,51.199001],[0.320616,51.199192],[0.319793,51.199653],[0.317245,51.198179],[0.316374,51.198503],[0.315097,51.198147],[0.314723,51.198703],[0.311744,51.198908],[0.311389,51.199367],[0.308705,51.199913],[0.30865,51.199195],[0.30602,51.197353],[0.303832,51.197635],[0.299688,51.196997],[0.298023,51.195177],[0.298414,51.19463],[0.297946,51.193483],[0.298089,51.192313],[0.296073,51.190368],[0.296136,51.189904],[0.29522,51.189734],[0.294704,51.189145],[0.293516,51.189066],[0.292279,51.18644],[0.290684,51.185125],[0.29123,51.184788],[0.290213,51.183714],[0.289649,51.183368],[0.287564,51.183658],[0.28326,51.17941],[0.284388,51.178092],[0.283222,51.17783],[0.282309,51.176898],[0.280442,51.176522],[0.277842,51.17532],[0.277306,51.174693],[0.274937,51.175192],[0.272959,51.176465],[0.265256,51.179733],[0.258872,51.180179],[0.257946,51.18003],[0.257906,51.179688],[0.256273,51.179794],[0.255543,51.179056],[0.256131,51.178591],[0.254313,51.178757],[0.245131,51.181894],[0.242473,51.182052],[0.240431,51.181474],[0.240567,51.182329],[0.239412,51.182189],[0.239299,51.182674],[0.236637,51.183552],[0.233605,51.185102],[0.231282,51.185058],[0.229722,51.182939],[0.226963,51.184106],[0.228823,51.185954],[0.229114,51.188821],[0.228722,51.190654],[0.229541,51.191224],[0.228974,51.192015],[0.231227,51.191969],[0.231901,51.193354],[0.234941,51.192936],[0.23601,51.192265],[0.239456,51.19205],[0.239767,51.193026],[0.245393,51.191907],[0.244697,51.194219],[0.246765,51.194249],[0.247113,51.194542],[0.2461,51.194838],[0.245815,51.195333],[0.247349,51.19507],[0.248004,51.195317],[0.247222,51.196366],[0.248312,51.197003],[0.248163,51.197729],[0.250374,51.197776],[0.250589,51.198398],[0.250983,51.198444],[0.250811,51.200577],[0.250073,51.201744],[0.249552,51.201835],[0.248354,51.201587],[0.247514,51.200663],[0.245375,51.199776],[0.243225,51.199443],[0.241822,51.198622],[0.241287,51.198884],[0.240888,51.198675],[0.240544,51.199017],[0.240035,51.198719],[0.238284,51.199788],[0.238768,51.200619],[0.237788,51.200941],[0.236369,51.202193],[0.235357,51.202313],[0.231574,51.201461],[0.228479,51.201686],[0.226479,51.203387],[0.226312,51.205271],[0.225354,51.207307],[0.223732,51.206633],[0.222337,51.206555],[0.219304,51.205702],[0.218864,51.205999],[0.21824,51.205864],[0.217655,51.20616],[0.217839,51.206703],[0.217052,51.20773],[0.215736,51.207832],[0.215349,51.207333],[0.214155,51.20815],[0.212556,51.20884],[0.211156,51.20889],[0.20891,51.210342],[0.207917,51.210589],[0.207136,51.211986],[0.204867,51.214045],[0.204283,51.216176],[0.202376,51.217226],[0.201463,51.21824],[0.201946,51.220553],[0.207321,51.221843],[0.211426,51.221874],[0.212249,51.222852],[0.211657,51.223745],[0.21234,51.224598],[0.209281,51.225832],[0.208774,51.225711],[0.206511,51.227117],[0.204308,51.227688],[0.203447,51.22829],[0.203065,51.229447],[0.200941,51.231489],[0.200542,51.233759],[0.208122,51.235851],[0.210641,51.237024],[0.214098,51.239087],[0.215947,51.241082],[0.218993,51.243357],[0.223086,51.244972],[0.223943,51.243921],[0.224945,51.243552],[0.224429,51.240754],[0.225439,51.238948],[0.229456,51.233365],[0.230963,51.23223],[0.241182,51.236976],[0.247013,51.237686],[0.248089,51.238534],[0.248158,51.239192],[0.247338,51.240005],[0.247707,51.242323],[0.24911,51.242905],[0.250377,51.245655],[0.250445,51.247021],[0.249021,51.249287],[0.246455,51.25188],[0.247332,51.255294],[0.249814,51.25531],[0.252508,51.254621],[0.254478,51.254561],[0.259155,51.254948],[0.261286,51.25445],[0.262278,51.255364],[0.263841,51.255786],[0.264595,51.256999],[0.265164,51.260066],[0.264657,51.261972],[0.265253,51.26543],[0.264898,51.267725],[0.263146,51.2692],[0.260507,51.27021],[0.260485,51.272309],[0.259439,51.273863],[0.258244,51.27487],[0.255171,51.276411],[0.2564,51.278533],[0.257751,51.279558],[0.258278,51.281246],[0.258024,51.283798],[0.258575,51.285878],[0.261357,51.289142],[0.261206,51.291509],[0.260161,51.293012],[0.261017,51.294923],[0.259844,51.29512],[0.258453,51.297292],[0.264666,51.29706],[0.265348,51.301552],[0.263298,51.303563],[0.263686,51.305303],[0.263028,51.305894],[0.263026,51.306758],[0.263706,51.3071],[0.264371,51.308576],[0.26499,51.3118],[0.265836,51.311778],[0.265144,51.313637],[0.267899,51.314132],[0.268156,51.315226],[0.267518,51.315529],[0.272414,51.317411],[0.275285,51.317895],[0.276456,51.319169],[0.277054,51.31873],[0.278564,51.320573],[0.280675,51.321765],[0.281626,51.323331],[0.284475,51.324898],[0.285012,51.327068],[0.284796,51.32979],[0.2868,51.334112],[0.288347,51.335811],[0.28846,51.337288],[0.288345,51.339575],[0.285383,51.340054],[0.285192,51.341874],[0.285766,51.344995],[0.288465,51.345257],[0.290443,51.345096],[0.291532,51.345368],[0.293998,51.349194],[0.296322,51.351877],[0.304675,51.350806],[0.308073,51.349131],[0.308679,51.348552],[0.307489,51.346243],[0.30689,51.343126],[0.312485,51.340977],[0.314033,51.339787],[0.316614,51.338745],[0.31744,51.337814],[0.321882,51.336615],[0.327972,51.333598],[0.328314,51.333061],[0.329623,51.332381],[0.334699,51.331099],[0.337331,51.329781],[0.341604,51.329216],[0.341081,51.325006],[0.351525,51.326827],[0.354818,51.326816],[0.354982,51.328459],[0.356303,51.328501],[0.357866,51.329122],[0.358732,51.328269],[0.360762,51.32836],[0.361149,51.328595],[0.361154,51.329665],[0.363305,51.329993],[0.363506,51.329541],[0.365405,51.329371],[0.365589,51.328311],[0.378897,51.329489],[0.381188,51.330243],[0.383498,51.335641],[0.383141,51.336002],[0.381932,51.336154],[0.377139,51.335852],[0.380726,51.339333],[0.382092,51.338869],[0.38452,51.338687],[0.388878,51.338769],[0.390188,51.341861],[0.391933,51.343783],[0.392877,51.343931],[0.395055,51.345121],[0.394215,51.345878],[0.392379,51.346183],[0.391023,51.346795],[0.391564,51.347469],[0.396555,51.350049],[0.397101,51.352685],[0.398578,51.352501],[0.401283,51.352955],[0.400966,51.349933]]],[[[0.475681,51.360222],[0.475993,51.360551],[0.479127,51.358427],[0.479658,51.357443],[0.481809,51.357683],[0.487648,51.35601],[0.489001,51.35521],[0.489485,51.354346],[0.491247,51.354022],[0.49407,51.352654],[0.503092,51.354667],[0.503146,51.353134],[0.501989,51.351298],[0.503097,51.349251],[0.502218,51.348804],[0.505846,51.342937],[0.507221,51.343276],[0.509643,51.34208],[0.511161,51.340913],[0.514137,51.341127],[0.514806,51.340466],[0.516671,51.339666],[0.519332,51.339935],[0.519552,51.339166],[0.519958,51.33919],[0.520357,51.338231],[0.521736,51.337465],[0.522257,51.336418],[0.523791,51.33588],[0.524493,51.335139],[0.525641,51.334717],[0.526067,51.33281],[0.523979,51.33156],[0.52127,51.329186],[0.523337,51.326281],[0.526039,51.326166],[0.52677,51.325247],[0.524418,51.323376],[0.522661,51.321103],[0.521076,51.320755],[0.518987,51.319065],[0.5171,51.316399],[0.513949,51.314312],[0.513624,51.310124],[0.512272,51.308576],[0.512575,51.307533],[0.511616,51.306435],[0.510297,51.30657],[0.507054,51.305357],[0.502091,51.305347],[0.49814,51.306602],[0.494516,51.305867],[0.492519,51.304567],[0.494656,51.303217],[0.492829,51.301773],[0.49268,51.301295],[0.497873,51.299219],[0.498959,51.29838],[0.498927,51.296865],[0.496804,51.298848],[0.49668,51.29943],[0.492639,51.301154],[0.491534,51.301176],[0.486052,51.299709],[0.48306,51.30067],[0.479799,51.303478],[0.477612,51.303418],[0.474726,51.302467],[0.472681,51.302903],[0.469548,51.301914],[0.468581,51.302058],[0.466654,51.303507],[0.463692,51.303813],[0.462011,51.306263],[0.460789,51.309809],[0.458859,51.312805],[0.459472,51.313265],[0.459705,51.314199],[0.460315,51.314509],[0.459605,51.314353],[0.458855,51.313058],[0.458102,51.313573],[0.459147,51.316233],[0.458332,51.317217],[0.457806,51.317329],[0.457099,51.317806],[0.45712,51.318063],[0.457794,51.317396],[0.45695,51.318511],[0.459273,51.318365],[0.457032,51.318682],[0.457791,51.320705],[0.459181,51.32062],[0.460634,51.321435],[0.462075,51.321491],[0.462909,51.321137],[0.462699,51.320261],[0.463051,51.320253],[0.464063,51.318848],[0.463265,51.318683],[0.461411,51.319606],[0.46331,51.318544],[0.461549,51.318858],[0.460212,51.318185],[0.459756,51.318283],[0.460382,51.319351],[0.459707,51.318294],[0.459789,51.318183],[0.460362,51.318152],[0.461188,51.318663],[0.462057,51.31869],[0.463854,51.318243],[0.463264,51.318027],[0.463865,51.318136],[0.464521,51.318766],[0.463332,51.321618],[0.460696,51.32205],[0.458967,51.321172],[0.458332,51.321164],[0.458527,51.321968],[0.46058,51.323284],[0.460978,51.325583],[0.46063,51.326154],[0.460001,51.326341],[0.45732,51.326279],[0.456434,51.326649],[0.45657,51.327389],[0.457615,51.327118],[0.45881,51.32723],[0.457561,51.327152],[0.456613,51.327535],[0.45829,51.328634],[0.460114,51.329099],[0.459689,51.329095],[0.460401,51.330119],[0.460155,51.330853],[0.458953,51.331268],[0.457179,51.331065],[0.455019,51.329269],[0.452344,51.329473],[0.451329,51.330525],[0.45166,51.333214],[0.457367,51.334638],[0.458009,51.335101],[0.458206,51.335919],[0.455128,51.340392],[0.453297,51.342164],[0.45343,51.344674],[0.452964,51.345806],[0.453333,51.345968],[0.450167,51.347515],[0.449653,51.348071],[0.45317,51.348872],[0.45351,51.348678],[0.453356,51.348898],[0.455444,51.3494],[0.457437,51.351028],[0.457683,51.352137],[0.455624,51.356082],[0.453281,51.357773],[0.45156,51.358482],[0.450706,51.359362],[0.45026,51.364223],[0.451604,51.366108],[0.457082,51.36808],[0.457648,51.367624],[0.460916,51.366638],[0.468053,51.363557],[0.470392,51.362227],[0.472766,51.361815],[0.475681,51.360222]]]]}}]}