{"type":"FeatureCollection","features":[{"type":"Feature","properties":{"slug":"torridge","gss_code":"E07000046","name":"Torridge"},"geometry":{"type":"MultiPolygon","coordinates":[[[[-4.54548,50.952413],[-4.546833,50.95267],[-4.545365,50.952646],[-4.54548,50.952413]]],[[[-4.544276,50.952446],[-4.545068,50.952441],[-4.545246,50.952732],[-4.544416,50.952767],[-4.544276,50.952446]]],[[[-4.208843,51.060945],[-4.210124,51.060749],[-4.212024,51.061221],[-4.213085,51.060685],[-4.212484,51.060651],[-4.213393,51.06032],[-4.212299,51.060548],[-4.212535,51.060218],[-4.212164,51.060186],[-4.212051,51.059436],[-4.21371,51.056719],[-4.210098,51.05279],[-4.210201,51.052425],[-4.209286,51.052851],[-4.206238,51.053346],[-4.205188,51.054131],[-4.201947,51.055265],[-4.201651,51.056077],[-4.200102,51.056917],[-4.199555,51.05759],[-4.197652,51.057927],[-4.194763,51.056946],[-4.193101,51.055536],[-4.192275,51.055581],[-4.190653,51.054786],[-4.191147,51.054661],[-4.190643,51.054249],[-4.190584,51.05215],[-4.191487,51.051721],[-4.191098,51.051243],[-4.191477,51.050496],[-4.191018,51.049953],[-4.191331,51.04887],[-4.190469,51.046433],[-4.191268,51.044914],[-4.192175,51.044264],[-4.192252,51.043561],[-4.193433,51.042914],[-4.194492,51.041344],[-4.195104,51.041043],[-4.194924,51.040777],[-4.19572,51.039576],[-4.196853,51.039051],[-4.196863,51.038554],[-4.199681,51.036446],[-4.201663,51.035604],[-4.202791,51.034464],[-4.203303,51.0332],[-4.202893,51.033071],[-4.203932,51.031834],[-4.203248,51.031236],[-4.203374,51.028955],[-4.202808,51.028215],[-4.202819,51.026863],[-4.202099,51.024768],[-4.202259,51.023289],[-4.203408,51.020864],[-4.204954,51.014866],[-4.205659,51.01376],[-4.206747,51.008029],[-4.205789,51.006332],[-4.20616,51.00516],[-4.205783,51.005498],[-4.204199,51.004492],[-4.1932,51.00007],[-4.193902,50.997564],[-4.1953,50.996182],[-4.19585,50.995965],[-4.196962,50.996413],[-4.199143,50.99512],[-4.199183,50.994668],[-4.198361,50.99459],[-4.197986,50.9942],[-4.198051,50.993783],[-4.198711,50.993522],[-4.199832,50.992139],[-4.201039,50.991903],[-4.202377,50.990682],[-4.203503,50.990597],[-4.20247,50.990453],[-4.198815,50.992696],[-4.198812,50.993104],[-4.197876,50.993715],[-4.197882,50.994387],[-4.198721,50.995023],[-4.19787,50.995672],[-4.196959,50.996185],[-4.195476,50.995804],[-4.193929,50.99698],[-4.192991,50.998522],[-4.192929,51.000315],[-4.192485,51.000311],[-4.192276,50.999466],[-4.188512,50.999169],[-4.185961,50.999352],[-4.182151,51.000135],[-4.180977,51.000062],[-4.179786,50.999683],[-4.177863,50.997697],[-4.177723,50.997344],[-4.178208,50.99708],[-4.177677,50.997117],[-4.177964,50.99635],[-4.178306,50.995795],[-4.178973,50.995704],[-4.178305,50.995683],[-4.178655,50.995186],[-4.180438,50.993497],[-4.181137,50.993587],[-4.182652,50.99181],[-4.183921,50.991553],[-4.186146,50.992023],[-4.185826,50.992273],[-4.188555,50.992449],[-4.192362,50.992189],[-4.194799,50.991533],[-4.197147,50.990273],[-4.197753,50.989528],[-4.197072,50.988072],[-4.197191,50.988774],[-4.195436,50.988337],[-4.193329,50.987241],[-4.193497,50.98598],[-4.192669,50.98532],[-4.18871,50.984308],[-4.188056,50.982875],[-4.188388,50.98251],[-4.190028,50.982136],[-4.189386,50.978181],[-4.187781,50.977571],[-4.185573,50.976059],[-4.183363,50.975732],[-4.183296,50.975942],[-4.185241,50.976217],[-4.189244,50.978568],[-4.189618,50.982131],[-4.187866,50.98244],[-4.187562,50.983344],[-4.188098,50.984114],[-4.188907,50.984653],[-4.192717,50.985738],[-4.193071,50.986142],[-4.192709,50.986923],[-4.19295,50.98744],[-4.197276,50.989476],[-4.194272,50.991327],[-4.191769,50.991913],[-4.188699,50.991969],[-4.184442,50.990994],[-4.183046,50.991117],[-4.181512,50.991715],[-4.178149,50.993973],[-4.178605,50.993951],[-4.177373,50.995407],[-4.176835,50.99686],[-4.177955,50.999282],[-4.178778,51.000022],[-4.181642,51.000795],[-4.184069,51.000848],[-4.186695,51.001413],[-4.190235,51.001157],[-4.186302,51.001222],[-4.184749,51.000837],[-4.188364,51.000269],[-4.190113,51.000427],[-4.193601,51.001539],[-4.199406,51.004184],[-4.202156,51.004991],[-4.203308,51.005778],[-4.20423,51.007422],[-4.204293,51.008422],[-4.20223,51.015756],[-4.19891,51.021255],[-4.198485,51.021009],[-4.197701,51.021147],[-4.196428,51.022377],[-4.195883,51.022038],[-4.19625,51.021526],[-4.194543,51.020725],[-4.193187,51.020719],[-4.192006,51.021262],[-4.191358,51.021001],[-4.190171,51.021464],[-4.188066,51.021314],[-4.187461,51.021553],[-4.187173,51.022276],[-4.187858,51.022393],[-4.188292,51.02289],[-4.186721,51.023575],[-4.186278,51.023459],[-4.186114,51.022502],[-4.186659,51.021928],[-4.185887,51.021092],[-4.185389,51.021092],[-4.183925,51.021727],[-4.183981,51.022933],[-4.184659,51.023022],[-4.184379,51.023299],[-4.182587,51.023212],[-4.182256,51.022394],[-4.181081,51.022226],[-4.179291,51.023227],[-4.179738,51.023891],[-4.178395,51.024316],[-4.178202,51.023855],[-4.17873,51.023441],[-4.178212,51.023414],[-4.178014,51.023707],[-4.177357,51.023587],[-4.177301,51.023264],[-4.175791,51.023461],[-4.1758,51.023192],[-4.174413,51.022787],[-4.173872,51.021586],[-4.172951,51.020748],[-4.172294,51.019053],[-4.171041,51.018311],[-4.169378,51.017853],[-4.168245,51.016812],[-4.167402,51.015228],[-4.166171,51.014531],[-4.158795,51.014469],[-4.158199,51.014711],[-4.155006,51.014374],[-4.154398,51.015992],[-4.151434,51.016057],[-4.1514,51.016372],[-4.149595,51.016538],[-4.148502,51.018774],[-4.144146,51.018511],[-4.142264,51.017866],[-4.142683,51.017011],[-4.139734,51.017509],[-4.13836,51.018412],[-4.136208,51.019038],[-4.135212,51.020678],[-4.132504,51.020194],[-4.127513,51.020658],[-4.12425,51.020181],[-4.122121,51.0194],[-4.115911,51.019128],[-4.116049,51.016886],[-4.117484,51.015453],[-4.119522,51.014283],[-4.120205,51.01166],[-4.120963,51.010894],[-4.119131,51.010413],[-4.119618,51.011222],[-4.119249,51.011418],[-4.116319,51.010428],[-4.109811,51.011138],[-4.109974,51.010978],[-4.108812,51.010802],[-4.107021,51.010892],[-4.106587,51.010275],[-4.098248,51.009593],[-4.097064,51.008442],[-4.096385,51.00673],[-4.094369,51.006022],[-4.093879,51.005436],[-4.093575,51.003772],[-4.090842,51.003795],[-4.087955,51.002961],[-4.082202,51.002672],[-4.081275,51.002948],[-4.079249,51.002463],[-4.078148,51.002564],[-4.077902,51.002674],[-4.079411,51.003251],[-4.080946,51.00518],[-4.080533,51.007011],[-4.079254,51.008689],[-4.069108,51.008429],[-4.066092,51.008954],[-4.065395,51.009533],[-4.064223,51.009522],[-4.06398,51.01031],[-4.057448,51.008322],[-4.049252,51.008369],[-4.048008,51.008788],[-4.047355,51.009605],[-4.045831,51.007604],[-4.04365,51.008177],[-4.03791,51.007548],[-4.0343,51.007621],[-4.032818,51.002843],[-4.033713,50.999039],[-4.033571,50.997089],[-4.035384,50.996925],[-4.036035,50.995658],[-4.037315,50.99513],[-4.036858,50.994523],[-4.03622,50.994609],[-4.035879,50.993816],[-4.036522,50.993292],[-4.035871,50.992847],[-4.036038,50.992495],[-4.03555,50.992525],[-4.035128,50.991988],[-4.035487,50.991815],[-4.035357,50.990417],[-4.035798,50.990406],[-4.03571,50.990045],[-4.03638,50.989735],[-4.037375,50.988152],[-4.036955,50.988248],[-4.036814,50.987917],[-4.037138,50.986996],[-4.036799,50.986316],[-4.037368,50.98597],[-4.037535,50.985188],[-4.036475,50.9835],[-4.036244,50.982319],[-4.035732,50.982169],[-4.036244,50.981579],[-4.03566,50.980841],[-4.03429,50.980231],[-4.03439,50.979776],[-4.033092,50.979345],[-4.033084,50.97898],[-4.031449,50.978586],[-4.031466,50.978331],[-4.030581,50.978362],[-4.029069,50.977039],[-4.028064,50.976983],[-4.027945,50.976099],[-4.026562,50.974399],[-4.024856,50.973434],[-4.023075,50.973243],[-4.019727,50.97209],[-4.019696,50.971043],[-4.020277,50.9699],[-4.020014,50.969452],[-4.018533,50.968671],[-4.015641,50.968743],[-4.014627,50.968254],[-4.013054,50.96808],[-4.012934,50.967755],[-4.011822,50.967389],[-4.010308,50.967534],[-4.007419,50.968875],[-4.004924,50.969525],[-4.006487,50.972453],[-4.006092,50.972777],[-4.003858,50.97194],[-4.001232,50.97264],[-3.999847,50.972659],[-3.992799,50.97449],[-3.991748,50.974402],[-3.990734,50.975785],[-3.989944,50.978288],[-3.988092,50.979497],[-3.985615,50.980327],[-3.983698,50.982111],[-3.980602,50.981013],[-3.976552,50.980547],[-3.975772,50.980672],[-3.974237,50.982019],[-3.973166,50.982026],[-3.970185,50.98067],[-3.967701,50.980873],[-3.965387,50.980479],[-3.962563,50.978897],[-3.960722,50.978942],[-3.961435,50.979706],[-3.961082,50.981072],[-3.958752,50.981635],[-3.958088,50.981335],[-3.957854,50.980745],[-3.958444,50.978486],[-3.958249,50.977769],[-3.954403,50.97745],[-3.952874,50.976567],[-3.952601,50.975948],[-3.953337,50.974364],[-3.957879,50.972241],[-3.958416,50.971697],[-3.957942,50.970203],[-3.958152,50.96895],[-3.956998,50.966835],[-3.957365,50.966207],[-3.958089,50.965748],[-3.960614,50.965609],[-3.963745,50.964215],[-3.96492,50.963337],[-3.96625,50.961428],[-3.966552,50.959725],[-3.965678,50.958209],[-3.964037,50.957205],[-3.960881,50.956141],[-3.961684,50.955249],[-3.96366,50.954431],[-3.967108,50.954418],[-3.971521,50.953338],[-3.973303,50.953423],[-3.974521,50.953842],[-3.976748,50.952809],[-3.978523,50.952469],[-3.980109,50.953126],[-3.984585,50.952452],[-3.989046,50.950649],[-3.989565,50.949937],[-3.990464,50.949929],[-3.991341,50.949309],[-3.993894,50.948426],[-3.994288,50.94794],[-3.994124,50.946431],[-3.994988,50.944959],[-3.995121,50.942873],[-3.995979,50.941699],[-3.993954,50.939021],[-3.993281,50.936902],[-3.997749,50.935622],[-3.996103,50.934033],[-3.998084,50.930811],[-3.996955,50.928305],[-3.996655,50.925979],[-3.995952,50.925569],[-3.988075,50.92651],[-3.981606,50.926301],[-3.97871,50.925264],[-3.978963,50.92568],[-3.978254,50.925955],[-3.97711,50.925485],[-3.966819,50.924],[-3.965403,50.922671],[-3.963582,50.921703],[-3.960102,50.920777],[-3.958703,50.921007],[-3.957501,50.920426],[-3.954975,50.918832],[-3.954206,50.917689],[-3.952768,50.917842],[-3.952513,50.918164],[-3.949726,50.918283],[-3.949387,50.918668],[-3.948888,50.918482],[-3.948974,50.918803],[-3.945811,50.918804],[-3.94291,50.920134],[-3.940992,50.920332],[-3.94097,50.920932],[-3.939172,50.920633],[-3.936951,50.921642],[-3.933143,50.921513],[-3.93291,50.921765],[-3.931527,50.921842],[-3.931994,50.922254],[-3.931458,50.922476],[-3.930769,50.922324],[-3.930252,50.922565],[-3.929778,50.922303],[-3.929143,50.922751],[-3.928413,50.922388],[-3.927106,50.92285],[-3.924396,50.922836],[-3.924499,50.923166],[-3.923604,50.92305],[-3.923725,50.923409],[-3.922764,50.923231],[-3.92274,50.922974],[-3.921292,50.922983],[-3.91962,50.923931],[-3.918335,50.924178],[-3.915875,50.924193],[-3.915244,50.923887],[-3.914389,50.924412],[-3.913005,50.924214],[-3.910428,50.924438],[-3.910349,50.924834],[-3.9098,50.924615],[-3.908655,50.925382],[-3.907258,50.924841],[-3.905323,50.924934],[-3.904479,50.92517],[-3.9045,50.925475],[-3.905184,50.926453],[-3.905774,50.926432],[-3.905466,50.927018],[-3.906088,50.927282],[-3.905115,50.92755],[-3.901975,50.925913],[-3.901843,50.925409],[-3.902709,50.924693],[-3.901382,50.924221],[-3.901201,50.923875],[-3.902805,50.922971],[-3.901989,50.920914],[-3.903483,50.919456],[-3.902521,50.918175],[-3.903258,50.917943],[-3.904792,50.918426],[-3.90594,50.917621],[-3.905766,50.916545],[-3.904805,50.915343],[-3.903764,50.915874],[-3.903543,50.916542],[-3.902342,50.916206],[-3.903481,50.915008],[-3.903761,50.913469],[-3.90241,50.913171],[-3.902116,50.912826],[-3.903773,50.911816],[-3.90378,50.910459],[-3.905045,50.909455],[-3.904048,50.908193],[-3.904438,50.906665],[-3.904158,50.905087],[-3.907032,50.904306],[-3.911915,50.9039],[-3.912286,50.903032],[-3.913104,50.903374],[-3.914839,50.902693],[-3.914866,50.902202],[-3.916111,50.90159],[-3.915907,50.901009],[-3.916845,50.900659],[-3.916667,50.900436],[-3.917668,50.899806],[-3.920373,50.899326],[-3.920247,50.897715],[-3.917208,50.895121],[-3.915452,50.895167],[-3.914852,50.894711],[-3.91273,50.889857],[-3.910657,50.887918],[-3.908768,50.886741],[-3.907751,50.885305],[-3.908038,50.885117],[-3.902504,50.885879],[-3.899973,50.885488],[-3.900411,50.884578],[-3.899586,50.882903],[-3.899961,50.881318],[-3.898574,50.877525],[-3.899414,50.877036],[-3.902556,50.876506],[-3.904139,50.874787],[-3.906613,50.87405],[-3.907423,50.873511],[-3.911684,50.8737],[-3.917554,50.871791],[-3.92593,50.869602],[-3.925078,50.867726],[-3.924704,50.86783],[-3.923568,50.866634],[-3.92274,50.866795],[-3.921206,50.865991],[-3.919016,50.862835],[-3.909203,50.860493],[-3.907625,50.858698],[-3.907057,50.858716],[-3.904826,50.855736],[-3.904492,50.854498],[-3.904906,50.853106],[-3.903873,50.851741],[-3.903544,50.847944],[-3.901443,50.848108],[-3.900741,50.847695],[-3.899705,50.847848],[-3.899543,50.847518],[-3.896569,50.847879],[-3.894023,50.847496],[-3.893326,50.847167],[-3.893076,50.846595],[-3.891766,50.846933],[-3.891032,50.846663],[-3.890642,50.846974],[-3.89031,50.846593],[-3.889642,50.846509],[-3.885477,50.847466],[-3.884303,50.848172],[-3.883868,50.847494],[-3.886195,50.845894],[-3.885844,50.845507],[-3.884999,50.845507],[-3.885595,50.845149],[-3.88509,50.844561],[-3.886415,50.843571],[-3.886888,50.84265],[-3.888069,50.842289],[-3.889116,50.840941],[-3.891855,50.840652],[-3.892285,50.840115],[-3.895906,50.838691],[-3.896483,50.837932],[-3.895932,50.837265],[-3.897049,50.836678],[-3.89638,50.836461],[-3.896461,50.835951],[-3.897548,50.835535],[-3.897619,50.835173],[-3.899619,50.834554],[-3.899826,50.834164],[-3.900693,50.834296],[-3.900856,50.833551],[-3.902433,50.832778],[-3.903883,50.832878],[-3.904475,50.830821],[-3.905653,50.829542],[-3.90973,50.829058],[-3.910318,50.82934],[-3.910539,50.829118],[-3.913558,50.830347],[-3.916027,50.83057],[-3.916319,50.830256],[-3.91795,50.830042],[-3.920516,50.828187],[-3.924745,50.827242],[-3.926981,50.827842],[-3.927755,50.827352],[-3.930576,50.827524],[-3.93734,50.825809],[-3.94045,50.825557],[-3.940197,50.826975],[-3.939143,50.827557],[-3.93888,50.829216],[-3.94001,50.82989],[-3.941013,50.831645],[-3.942797,50.832866],[-3.942296,50.834976],[-3.943348,50.837035],[-3.945418,50.838564],[-3.948589,50.839749],[-3.947737,50.840145],[-3.950213,50.841954],[-3.957569,50.845963],[-3.962084,50.849541],[-3.961622,50.850896],[-3.959855,50.852794],[-3.958679,50.854902],[-3.958917,50.85537],[-3.96132,50.856376],[-3.962561,50.855648],[-3.967323,50.855011],[-3.969896,50.855496],[-3.970784,50.856252],[-3.972889,50.856677],[-3.973208,50.856383],[-3.975986,50.856283],[-3.977468,50.855547],[-3.978017,50.854732],[-3.985644,50.851313],[-3.985764,50.850828],[-3.988194,50.850166],[-3.988865,50.850642],[-3.989505,50.850419],[-3.9894,50.850015],[-3.990227,50.851214],[-3.991786,50.852269],[-3.995399,50.851848],[-3.996909,50.854728],[-3.99538,50.856209],[-3.995733,50.856929],[-3.995091,50.859862],[-3.997267,50.8618],[-3.997798,50.862788],[-3.996146,50.863219],[-3.99652,50.864152],[-3.995033,50.865067],[-3.994175,50.868851],[-3.995,50.869219],[-4.008308,50.866025],[-4.010601,50.86488],[-4.010796,50.863229],[-4.013528,50.864138],[-4.015393,50.864247],[-4.01563,50.865451],[-4.01706,50.86574],[-4.018389,50.86556],[-4.019311,50.865751],[-4.019474,50.866067],[-4.021019,50.86627],[-4.023076,50.86604],[-4.023895,50.864234],[-4.023773,50.862706],[-4.024427,50.862256],[-4.02397,50.86042],[-4.026741,50.860404],[-4.029144,50.859885],[-4.031814,50.860288],[-4.03628,50.859392],[-4.038999,50.860253],[-4.040244,50.861754],[-4.040772,50.863126],[-4.040019,50.865244],[-4.04001,50.868554],[-4.046433,50.865169],[-4.046529,50.863681],[-4.047956,50.863554],[-4.048954,50.863951],[-4.051398,50.863642],[-4.05204,50.862689],[-4.05305,50.863823],[-4.054725,50.867667],[-4.058098,50.87138],[-4.059262,50.87035],[-4.061047,50.871119],[-4.062124,50.87071],[-4.063853,50.870628],[-4.065169,50.870092],[-4.066616,50.870341],[-4.066762,50.870823],[-4.067176,50.870886],[-4.06742,50.872162],[-4.066489,50.872392],[-4.06868,50.874613],[-4.071224,50.87343],[-4.077469,50.871701],[-4.079334,50.871839],[-4.084965,50.869141],[-4.09002,50.867314],[-4.089482,50.861611],[-4.087006,50.85901],[-4.085735,50.858682],[-4.085435,50.85782],[-4.094642,50.852538],[-4.103065,50.850312],[-4.101292,50.846549],[-4.104847,50.846028],[-4.104287,50.844143],[-4.102986,50.842904],[-4.10338,50.840831],[-4.102709,50.839002],[-4.103334,50.838026],[-4.103187,50.835948],[-4.102771,50.835415],[-4.103458,50.835564],[-4.104888,50.836634],[-4.105962,50.836191],[-4.107142,50.836387],[-4.107508,50.837369],[-4.109374,50.837362],[-4.110727,50.838484],[-4.11276,50.838074],[-4.113517,50.83747],[-4.114107,50.838121],[-4.115085,50.837489],[-4.116178,50.837751],[-4.118284,50.837648],[-4.119236,50.838304],[-4.121016,50.841846],[-4.12263,50.843019],[-4.124372,50.842876],[-4.12613,50.843662],[-4.12872,50.844107],[-4.130136,50.842812],[-4.129968,50.84201],[-4.130942,50.841873],[-4.131981,50.842211],[-4.13223,50.841597],[-4.13324,50.841463],[-4.135047,50.838888],[-4.13576,50.838915],[-4.137063,50.840027],[-4.137873,50.839926],[-4.13863,50.839311],[-4.139633,50.837638],[-4.138733,50.837149],[-4.138991,50.836555],[-4.138439,50.835932],[-4.138955,50.835404],[-4.138347,50.834704],[-4.138968,50.833074],[-4.139914,50.832463],[-4.143637,50.831264],[-4.146657,50.83082],[-4.151644,50.831289],[-4.151599,50.832238],[-4.15286,50.833096],[-4.153656,50.832553],[-4.155049,50.832905],[-4.155945,50.831679],[-4.156724,50.831633],[-4.155502,50.831361],[-4.155629,50.830999],[-4.154742,50.829916],[-4.155846,50.829765],[-4.158806,50.830158],[-4.160564,50.829476],[-4.162081,50.830327],[-4.164038,50.830913],[-4.163913,50.829892],[-4.162969,50.829373],[-4.162142,50.82788],[-4.16214,50.827106],[-4.158394,50.823171],[-4.159876,50.820692],[-4.159964,50.819702],[-4.1585,50.817829],[-4.158583,50.817341],[-4.159173,50.817246],[-4.158277,50.815449],[-4.163276,50.81348],[-4.163836,50.813523],[-4.170712,50.811205],[-4.172739,50.80978],[-4.173027,50.809022],[-4.175222,50.808431],[-4.177222,50.807167],[-4.174375,50.805507],[-4.173758,50.804617],[-4.174792,50.803243],[-4.176029,50.802514],[-4.176246,50.801507],[-4.175047,50.800632],[-4.174194,50.800472],[-4.172682,50.799147],[-4.168788,50.797673],[-4.170016,50.797381],[-4.170303,50.796945],[-4.173832,50.797697],[-4.175891,50.797131],[-4.176481,50.797522],[-4.177216,50.797489],[-4.178539,50.797118],[-4.178955,50.796566],[-4.180208,50.79645],[-4.18057,50.795926],[-4.181734,50.796275],[-4.183464,50.795746],[-4.185473,50.794407],[-4.187348,50.793923],[-4.187381,50.793187],[-4.188758,50.79249],[-4.19017,50.790004],[-4.19078,50.789729],[-4.187952,50.789132],[-4.184315,50.789178],[-4.179926,50.790939],[-4.169085,50.791598],[-4.168314,50.788556],[-4.167559,50.788475],[-4.166462,50.787033],[-4.169673,50.786228],[-4.171568,50.78676],[-4.173764,50.786201],[-4.174684,50.786347],[-4.175092,50.785996],[-4.177495,50.785731],[-4.179317,50.784673],[-4.181907,50.784761],[-4.182589,50.78428],[-4.186794,50.783039],[-4.187444,50.7821],[-4.190533,50.781464],[-4.190995,50.781733],[-4.196857,50.77985],[-4.203251,50.776291],[-4.203645,50.775318],[-4.205786,50.77489],[-4.203049,50.768984],[-4.202224,50.766643],[-4.202544,50.766524],[-4.201143,50.765075],[-4.198067,50.763032],[-4.194582,50.761747],[-4.185963,50.75769],[-4.193921,50.757972],[-4.193462,50.756639],[-4.19525,50.75508],[-4.196076,50.756574],[-4.200953,50.754626],[-4.210413,50.752512],[-4.213016,50.751296],[-4.218195,50.748157],[-4.218871,50.746358],[-4.220767,50.746701],[-4.2215,50.745026],[-4.222695,50.743979],[-4.226787,50.742187],[-4.22786,50.739637],[-4.227357,50.737305],[-4.229234,50.734979],[-4.227359,50.73373],[-4.225746,50.731402],[-4.227716,50.728774],[-4.227974,50.727326],[-4.231589,50.724076],[-4.230943,50.723481],[-4.232599,50.722623],[-4.23332,50.722854],[-4.233949,50.72208],[-4.232304,50.718402],[-4.232999,50.717707],[-4.232759,50.717141],[-4.233804,50.716523],[-4.23343,50.716107],[-4.23397,50.716013],[-4.233576,50.715429],[-4.234177,50.714446],[-4.234685,50.714273],[-4.234859,50.712385],[-4.23378,50.711698],[-4.233441,50.710922],[-4.232087,50.710482],[-4.231975,50.709795],[-4.230312,50.709467],[-4.2299,50.708592],[-4.228929,50.708154],[-4.229168,50.707404],[-4.228556,50.706916],[-4.229057,50.705981],[-4.228318,50.705481],[-4.228668,50.705247],[-4.228005,50.704305],[-4.228431,50.7037],[-4.227885,50.703551],[-4.227768,50.702026],[-4.227223,50.701953],[-4.227793,50.700813],[-4.227192,50.700898],[-4.227305,50.700364],[-4.228335,50.699685],[-4.227841,50.699115],[-4.228351,50.697412],[-4.230336,50.696729],[-4.231015,50.695937],[-4.231921,50.696038],[-4.231989,50.695422],[-4.231021,50.694983],[-4.230052,50.693942],[-4.228682,50.693796],[-4.226362,50.69271],[-4.224122,50.69212],[-4.219571,50.691359],[-4.214953,50.688977],[-4.211359,50.685513],[-4.209164,50.681547],[-4.212898,50.679004],[-4.212609,50.678032],[-4.214079,50.67766],[-4.21375,50.677218],[-4.215515,50.675865],[-4.216434,50.676039],[-4.216674,50.675748],[-4.218205,50.675855],[-4.21881,50.67556],[-4.218812,50.675154],[-4.217914,50.675005],[-4.217767,50.674641],[-4.21932,50.673946],[-4.218848,50.6733],[-4.219443,50.672485],[-4.220764,50.672455],[-4.220941,50.671706],[-4.222159,50.671244],[-4.223693,50.671584],[-4.235028,50.67145],[-4.23793,50.672018],[-4.240394,50.673019],[-4.243456,50.673581],[-4.245435,50.672932],[-4.247134,50.672809],[-4.249412,50.671732],[-4.250008,50.670789],[-4.251682,50.669827],[-4.252858,50.66761],[-4.254848,50.667126],[-4.255193,50.666422],[-4.256483,50.666944],[-4.256571,50.666424],[-4.258321,50.66666],[-4.259076,50.667343],[-4.260091,50.66742],[-4.261978,50.668196],[-4.263351,50.668013],[-4.26651,50.668602],[-4.26935,50.668246],[-4.270698,50.667731],[-4.272722,50.668044],[-4.27357,50.667837],[-4.275784,50.6681],[-4.277315,50.669061],[-4.285031,50.666012],[-4.289725,50.666148],[-4.290763,50.66651],[-4.292716,50.665304],[-4.295783,50.665693],[-4.303976,50.664712],[-4.305934,50.66337],[-4.307961,50.663554],[-4.311302,50.662595],[-4.313098,50.662418],[-4.314256,50.661222],[-4.314322,50.660206],[-4.315774,50.658889],[-4.315013,50.656782],[-4.316362,50.655416],[-4.317022,50.655833],[-4.317362,50.655613],[-4.316835,50.654871],[-4.317868,50.654216],[-4.317286,50.653866],[-4.318301,50.653437],[-4.319172,50.65365],[-4.319433,50.653014],[-4.321728,50.653297],[-4.323171,50.652138],[-4.32289,50.651784],[-4.323235,50.651265],[-4.325674,50.649572],[-4.326409,50.649764],[-4.326811,50.649407],[-4.327498,50.649711],[-4.32891,50.649497],[-4.329683,50.648491],[-4.330349,50.648911],[-4.331613,50.6488],[-4.331475,50.649244],[-4.332487,50.649169],[-4.332333,50.648645],[-4.331752,50.648694],[-4.331713,50.648202],[-4.332989,50.648044],[-4.33311,50.647588],[-4.334065,50.647546],[-4.335226,50.646541],[-4.335372,50.647323],[-4.334647,50.649107],[-4.335745,50.651181],[-4.335241,50.652067],[-4.33544,50.652466],[-4.336846,50.652649],[-4.336564,50.653289],[-4.336918,50.654236],[-4.335925,50.654933],[-4.335533,50.655708],[-4.337431,50.656556],[-4.339586,50.658575],[-4.338849,50.661261],[-4.33949,50.661501],[-4.342184,50.661452],[-4.34336,50.66187],[-4.34446,50.662842],[-4.345212,50.664799],[-4.345872,50.668037],[-4.345548,50.669177],[-4.344517,50.670321],[-4.344413,50.671273],[-4.346767,50.672447],[-4.347063,50.672913],[-4.345432,50.674532],[-4.344431,50.676567],[-4.344628,50.677303],[-4.34532,50.677844],[-4.34542,50.679975],[-4.346186,50.67989],[-4.346827,50.68024],[-4.346195,50.682028],[-4.346616,50.682411],[-4.347734,50.682473],[-4.34857,50.68311],[-4.348516,50.685104],[-4.349237,50.685966],[-4.348652,50.68892],[-4.348941,50.689538],[-4.350217,50.690899],[-4.351457,50.690792],[-4.352766,50.691113],[-4.352821,50.692046],[-4.353585,50.692705],[-4.352699,50.692978],[-4.352353,50.6934],[-4.352632,50.693749],[-4.353624,50.693351],[-4.354407,50.694458],[-4.358756,50.695467],[-4.359725,50.696236],[-4.360778,50.695777],[-4.362207,50.695973],[-4.362025,50.696655],[-4.363773,50.697241],[-4.364337,50.697793],[-4.366788,50.697773],[-4.36632,50.700855],[-4.366968,50.70119],[-4.367564,50.702758],[-4.368131,50.702679],[-4.368336,50.701798],[-4.369341,50.702341],[-4.368457,50.703429],[-4.36709,50.70392],[-4.368704,50.705737],[-4.368488,50.706545],[-4.367301,50.707318],[-4.368864,50.709235],[-4.367863,50.709398],[-4.366722,50.711184],[-4.36506,50.712014],[-4.365726,50.712316],[-4.364979,50.712754],[-4.365556,50.713241],[-4.36372,50.714377],[-4.36395,50.715344],[-4.363569,50.717049],[-4.363032,50.717316],[-4.362683,50.718213],[-4.361586,50.718767],[-4.364804,50.720499],[-4.364263,50.721231],[-4.366033,50.722374],[-4.366641,50.722385],[-4.368089,50.723319],[-4.369035,50.723246],[-4.369772,50.724659],[-4.369924,50.726104],[-4.371042,50.727113],[-4.370977,50.727952],[-4.370434,50.728514],[-4.371327,50.728515],[-4.371108,50.729481],[-4.371471,50.729562],[-4.371772,50.729128],[-4.372316,50.729287],[-4.372064,50.730019],[-4.372465,50.730476],[-4.371874,50.730597],[-4.371342,50.731286],[-4.372317,50.731651],[-4.371225,50.733406],[-4.373415,50.734808],[-4.373893,50.737725],[-4.374674,50.738038],[-4.375316,50.738879],[-4.377464,50.739549],[-4.379476,50.740993],[-4.378944,50.742553],[-4.379419,50.74415],[-4.380561,50.744833],[-4.381605,50.744892],[-4.382218,50.746039],[-4.38299,50.745711],[-4.383872,50.74594],[-4.383552,50.746587],[-4.384999,50.747756],[-4.38523,50.748706],[-4.384275,50.748821],[-4.385282,50.750124],[-4.384971,50.750252],[-4.384648,50.749744],[-4.384238,50.749814],[-4.383919,50.75139],[-4.383507,50.751619],[-4.384083,50.752763],[-4.382094,50.75361],[-4.382065,50.754047],[-4.382585,50.754221],[-4.381594,50.754642],[-4.381946,50.75524],[-4.381335,50.75515],[-4.380813,50.755614],[-4.381114,50.755938],[-4.381826,50.755706],[-4.381782,50.756131],[-4.38081,50.756486],[-4.381432,50.756546],[-4.381099,50.756935],[-4.381642,50.757257],[-4.384592,50.758138],[-4.385361,50.758263],[-4.387818,50.757804],[-4.386573,50.763809],[-4.387381,50.764969],[-4.384873,50.765292],[-4.384201,50.767434],[-4.381312,50.768574],[-4.380748,50.769303],[-4.380113,50.76943],[-4.381035,50.770559],[-4.381787,50.77054],[-4.384062,50.771494],[-4.385322,50.773023],[-4.389025,50.774775],[-4.393558,50.778233],[-4.400815,50.77659],[-4.412996,50.775199],[-4.414417,50.774396],[-4.413986,50.772978],[-4.413142,50.772559],[-4.413451,50.771765],[-4.412734,50.771401],[-4.413114,50.771317],[-4.412213,50.770937],[-4.412266,50.770522],[-4.411515,50.769897],[-4.409875,50.769723],[-4.409743,50.76904],[-4.410161,50.769083],[-4.410184,50.768827],[-4.409278,50.768174],[-4.410029,50.767363],[-4.410027,50.766784],[-4.409195,50.766336],[-4.409789,50.766045],[-4.409242,50.764401],[-4.409787,50.764215],[-4.409014,50.763438],[-4.408723,50.762417],[-4.409574,50.762578],[-4.410088,50.763021],[-4.40993,50.763316],[-4.4105,50.763339],[-4.410898,50.763757],[-4.411479,50.763329],[-4.412176,50.764005],[-4.41308,50.763693],[-4.41354,50.764414],[-4.414211,50.764597],[-4.41485,50.764544],[-4.415047,50.76408],[-4.415281,50.764378],[-4.416544,50.764213],[-4.416469,50.764878],[-4.417562,50.765141],[-4.418519,50.764897],[-4.419343,50.765084],[-4.421952,50.764267],[-4.423397,50.76477],[-4.423947,50.764549],[-4.423905,50.76497],[-4.426959,50.767021],[-4.426838,50.767299],[-4.428187,50.767473],[-4.42721,50.768287],[-4.427726,50.768971],[-4.42942,50.76882],[-4.429926,50.769388],[-4.430524,50.76894],[-4.431618,50.768814],[-4.432438,50.769205],[-4.432067,50.76944],[-4.432297,50.769771],[-4.433159,50.769709],[-4.432938,50.770233],[-4.434045,50.770106],[-4.433492,50.770847],[-4.434536,50.771137],[-4.434865,50.772005],[-4.436263,50.772292],[-4.43626,50.773007],[-4.437551,50.773658],[-4.436994,50.77389],[-4.437515,50.774361],[-4.438803,50.774314],[-4.440132,50.775502],[-4.440337,50.7751],[-4.440994,50.775095],[-4.441461,50.77564],[-4.442045,50.775245],[-4.443374,50.776229],[-4.443872,50.776101],[-4.443563,50.775776],[-4.444018,50.775714],[-4.444594,50.776481],[-4.444838,50.776139],[-4.445728,50.776434],[-4.445857,50.776651],[-4.444846,50.77715],[-4.445889,50.777392],[-4.446359,50.778011],[-4.445968,50.778897],[-4.446515,50.77913],[-4.446236,50.780759],[-4.447337,50.781333],[-4.447378,50.782041],[-4.448617,50.782517],[-4.448636,50.783843],[-4.450092,50.784539],[-4.45133,50.785654],[-4.453876,50.784283],[-4.456433,50.783693],[-4.462977,50.784024],[-4.46789,50.7851],[-4.473105,50.784977],[-4.475091,50.785525],[-4.476423,50.787639],[-4.475746,50.789155],[-4.47768,50.789982],[-4.480138,50.790777],[-4.483999,50.79144],[-4.486428,50.790976],[-4.488803,50.791121],[-4.492666,50.79218],[-4.493497,50.792924],[-4.493211,50.793367],[-4.489798,50.795218],[-4.490032,50.796303],[-4.484519,50.796396],[-4.483843,50.796071],[-4.474493,50.797283],[-4.475749,50.798891],[-4.476853,50.799438],[-4.472769,50.800246],[-4.474681,50.801813],[-4.472404,50.802268],[-4.471227,50.80199],[-4.470657,50.801344],[-4.469894,50.801157],[-4.463412,50.80173],[-4.46192,50.802608],[-4.458471,50.803797],[-4.454106,50.804163],[-4.451753,50.804804],[-4.452222,50.805162],[-4.453112,50.805186],[-4.452704,50.805505],[-4.452954,50.805843],[-4.451858,50.806417],[-4.451869,50.80683],[-4.451085,50.806686],[-4.450241,50.807388],[-4.449207,50.807385],[-4.44931,50.80792],[-4.448351,50.807807],[-4.447779,50.808247],[-4.447464,50.808019],[-4.446791,50.808224],[-4.447241,50.808424],[-4.44709,50.808807],[-4.446045,50.809321],[-4.445118,50.810497],[-4.445462,50.810866],[-4.444755,50.811344],[-4.445308,50.811434],[-4.445055,50.811775],[-4.44597,50.813328],[-4.445824,50.813819],[-4.444563,50.814659],[-4.444717,50.815255],[-4.444007,50.815313],[-4.444016,50.815701],[-4.442613,50.816248],[-4.443126,50.816478],[-4.443241,50.817772],[-4.442663,50.817912],[-4.442597,50.81746],[-4.442164,50.817445],[-4.44122,50.818425],[-4.44198,50.818746],[-4.441358,50.819047],[-4.442351,50.819761],[-4.442463,50.820453],[-4.442048,50.820503],[-4.44227,50.820763],[-4.441801,50.821392],[-4.441128,50.82149],[-4.441111,50.822198],[-4.440565,50.822176],[-4.440189,50.822584],[-4.439968,50.822015],[-4.439707,50.82255],[-4.439208,50.822606],[-4.439217,50.823017],[-4.438848,50.822819],[-4.438561,50.8231],[-4.438832,50.82383],[-4.43938,50.824029],[-4.438947,50.824638],[-4.440167,50.824795],[-4.439758,50.825593],[-4.440566,50.825698],[-4.441581,50.826363],[-4.442002,50.825952],[-4.442263,50.826262],[-4.442915,50.826088],[-4.442775,50.826832],[-4.443294,50.826553],[-4.44416,50.827745],[-4.443436,50.828284],[-4.444084,50.829224],[-4.443789,50.829537],[-4.444295,50.829772],[-4.443795,50.830905],[-4.444061,50.831396],[-4.443174,50.831474],[-4.44335,50.831985],[-4.442761,50.831877],[-4.442554,50.83226],[-4.442993,50.83269],[-4.442585,50.833681],[-4.443513,50.83455],[-4.442274,50.834862],[-4.442595,50.835416],[-4.443025,50.835196],[-4.4437,50.83542],[-4.442978,50.83579],[-4.443566,50.836132],[-4.443158,50.83643],[-4.443356,50.836865],[-4.442555,50.837042],[-4.442539,50.837552],[-4.442111,50.83767],[-4.442438,50.838012],[-4.441891,50.838337],[-4.442407,50.839865],[-4.4412,50.841371],[-4.441576,50.842002],[-4.44107,50.842143],[-4.441054,50.843031],[-4.439732,50.843412],[-4.44055,50.843503],[-4.440393,50.843771],[-4.440907,50.844041],[-4.440535,50.844576],[-4.441494,50.844635],[-4.441688,50.846013],[-4.442097,50.846325],[-4.441345,50.846614],[-4.442244,50.846943],[-4.440742,50.847882],[-4.440896,50.848976],[-4.440031,50.849592],[-4.44048,50.849747],[-4.440068,50.84995],[-4.440087,50.850686],[-4.439647,50.850634],[-4.439312,50.851345],[-4.43643,50.852697],[-4.437372,50.853996],[-4.43733,50.855818],[-4.436566,50.857082],[-4.433585,50.859518],[-4.432955,50.861923],[-4.433726,50.865509],[-4.423425,50.866441],[-4.420959,50.866086],[-4.420924,50.866646],[-4.421793,50.867146],[-4.4217,50.867482],[-4.423028,50.867954],[-4.422509,50.868176],[-4.424093,50.868752],[-4.424051,50.868988],[-4.423538,50.868906],[-4.42413,50.870073],[-4.423754,50.870537],[-4.427152,50.872174],[-4.42652,50.873063],[-4.427588,50.874712],[-4.429137,50.875885],[-4.429967,50.877669],[-4.431688,50.878634],[-4.431858,50.879758],[-4.432544,50.87988],[-4.432225,50.880074],[-4.434061,50.881181],[-4.434895,50.881003],[-4.434781,50.881485],[-4.43599,50.881851],[-4.436759,50.882501],[-4.437864,50.882564],[-4.439793,50.88631],[-4.439458,50.886548],[-4.439791,50.886552],[-4.439583,50.886944],[-4.439934,50.886925],[-4.440021,50.888166],[-4.441137,50.888848],[-4.442402,50.889117],[-4.442628,50.889484],[-4.444978,50.890235],[-4.446249,50.891168],[-4.446219,50.892231],[-4.446447,50.89211],[-4.446938,50.892541],[-4.446394,50.892777],[-4.446592,50.89357],[-4.445908,50.894374],[-4.44634,50.895666],[-4.446899,50.896003],[-4.446517,50.89712],[-4.446874,50.897471],[-4.446386,50.898258],[-4.446822,50.900875],[-4.447933,50.901994],[-4.448686,50.902061],[-4.450673,50.903489],[-4.449957,50.905854],[-4.456953,50.907557],[-4.458554,50.9076],[-4.458618,50.908453],[-4.45967,50.909248],[-4.459969,50.910763],[-4.462683,50.91349],[-4.463448,50.915248],[-4.463243,50.917589],[-4.46218,50.919396],[-4.460527,50.920573],[-4.458734,50.923013],[-4.458278,50.924142],[-4.458215,50.926757],[-4.456194,50.928993],[-4.458254,50.929335],[-4.460081,50.93018],[-4.464656,50.93102],[-4.47125,50.931268],[-4.481103,50.930273],[-4.486813,50.929345],[-4.48915,50.929319],[-4.490379,50.928989],[-4.492107,50.929247],[-4.492383,50.928931],[-4.496876,50.928692],[-4.498081,50.928418],[-4.49926,50.92747],[-4.500202,50.92769],[-4.502233,50.927359],[-4.504719,50.927723],[-4.509591,50.927376],[-4.510818,50.927905],[-4.514338,50.927961],[-4.516514,50.927289],[-4.516797,50.927469],[-4.517139,50.926828],[-4.519877,50.927266],[-4.528062,50.927323],[-4.528418,50.926966],[-4.530543,50.92666],[-4.53077,50.926887],[-4.5319,50.926699],[-4.533069,50.927133],[-4.533091,50.926821],[-4.533783,50.926739],[-4.537224,50.92767],[-4.537937,50.92819],[-4.540509,50.928548],[-4.540867,50.928865],[-4.542915,50.928536],[-4.543775,50.929123],[-4.545626,50.928087],[-4.546368,50.928278],[-4.545377,50.929499],[-4.546263,50.930152],[-4.545855,50.930468],[-4.546295,50.931205],[-4.545224,50.932513],[-4.545168,50.933452],[-4.545656,50.934102],[-4.546892,50.934726],[-4.547146,50.935498],[-4.547634,50.935566],[-4.547073,50.935775],[-4.547172,50.937556],[-4.549208,50.938753],[-4.548739,50.938889],[-4.549461,50.939233],[-4.548477,50.939466],[-4.548498,50.940429],[-4.549653,50.940408],[-4.549139,50.940588],[-4.550141,50.94076],[-4.549402,50.941101],[-4.546566,50.941312],[-4.546007,50.941713],[-4.546136,50.942128],[-4.545111,50.942077],[-4.545314,50.942602],[-4.544305,50.942825],[-4.544425,50.943142],[-4.542741,50.944328],[-4.542767,50.946107],[-4.541865,50.947205],[-4.542109,50.947788],[-4.542634,50.94786],[-4.541359,50.948326],[-4.541112,50.949224],[-4.541954,50.949393],[-4.541457,50.949561],[-4.541579,50.94982],[-4.544095,50.951435],[-4.544657,50.951465],[-4.543059,50.951573],[-4.543402,50.952366],[-4.544153,50.952519],[-4.544326,50.952859],[-4.543523,50.952882],[-4.543631,50.953616],[-4.542971,50.954535],[-4.538882,50.957532],[-4.538026,50.959145],[-4.538027,50.959568],[-4.53848,50.959651],[-4.537344,50.959839],[-4.536839,50.961705],[-4.53295,50.965718],[-4.532876,50.969016],[-4.534287,50.969639],[-4.533092,50.970108],[-4.533192,50.971712],[-4.533967,50.972226],[-4.532719,50.973929],[-4.534455,50.97559],[-4.535249,50.975533],[-4.533582,50.976012],[-4.532866,50.977287],[-4.534874,50.978994],[-4.53569,50.979172],[-4.532531,50.980449],[-4.532051,50.981315],[-4.530957,50.981746],[-4.530624,50.983578],[-4.532146,50.983876],[-4.530211,50.984526],[-4.529357,50.986276],[-4.529918,50.987762],[-4.531558,50.988778],[-4.532827,50.988843],[-4.531324,50.989282],[-4.531315,50.990682],[-4.532296,50.991055],[-4.532765,50.990788],[-4.53386,50.990942],[-4.533964,50.991244],[-4.532953,50.991465],[-4.532957,50.992036],[-4.534639,50.992153],[-4.534462,50.992462],[-4.533412,50.992601],[-4.533733,50.992868],[-4.533051,50.992968],[-4.533125,50.993746],[-4.533775,50.994055],[-4.535182,50.993989],[-4.534547,50.994342],[-4.535249,50.994509],[-4.5346,50.994756],[-4.534917,50.995104],[-4.533853,50.995015],[-4.532032,50.995691],[-4.531283,50.995453],[-4.53028,50.996653],[-4.530135,50.997467],[-4.53113,50.998017],[-4.531508,50.998879],[-4.532486,50.999176],[-4.531532,50.999597],[-4.531678,51.000174],[-4.53316,51.00079],[-4.532585,51.000783],[-4.532108,51.001497],[-4.533011,51.002426],[-4.530813,51.003003],[-4.530398,51.003763],[-4.530949,51.004021],[-4.530107,51.00487],[-4.531267,51.007021],[-4.533366,51.0084],[-4.534732,51.008406],[-4.535019,51.008673],[-4.532861,51.008812],[-4.532699,51.009418],[-4.533418,51.009455],[-4.533055,51.009782],[-4.533799,51.009818],[-4.533015,51.01029],[-4.530023,51.010857],[-4.529364,51.011238],[-4.529647,51.011387],[-4.52894,51.01147],[-4.528705,51.011138],[-4.528627,51.011459],[-4.527898,51.011425],[-4.526898,51.011876],[-4.526822,51.012622],[-4.527336,51.01309],[-4.527863,51.013089],[-4.527458,51.013248],[-4.528691,51.013572],[-4.527881,51.013917],[-4.526352,51.013923],[-4.526044,51.014398],[-4.526309,51.015409],[-4.527581,51.015685],[-4.527821,51.016089],[-4.528953,51.016131],[-4.527921,51.016871],[-4.527433,51.018518],[-4.524968,51.019712],[-4.524901,51.020314],[-4.524408,51.020432],[-4.525322,51.02165],[-4.526117,51.021807],[-4.525651,51.022301],[-4.523662,51.022219],[-4.523877,51.022081],[-4.523309,51.022124],[-4.522252,51.021321],[-4.518845,51.020628],[-4.516698,51.020967],[-4.516266,51.021704],[-4.516653,51.022216],[-4.513422,51.022377],[-4.509013,51.021269],[-4.508942,51.020876],[-4.507837,51.02087],[-4.508173,51.020509],[-4.506681,51.020367],[-4.505514,51.019458],[-4.501053,51.018708],[-4.499222,51.019235],[-4.498636,51.020296],[-4.499274,51.020993],[-4.49812,51.021369],[-4.496871,51.021415],[-4.497406,51.021282],[-4.496403,51.021318],[-4.496347,51.020896],[-4.49563,51.021039],[-4.49555,51.020758],[-4.494287,51.020698],[-4.481355,51.021731],[-4.476737,51.02114],[-4.46946,51.021584],[-4.467616,51.020927],[-4.464228,51.020615],[-4.463837,51.02023],[-4.461019,51.019572],[-4.459696,51.018376],[-4.457091,51.018107],[-4.457389,51.017995],[-4.457013,51.018032],[-4.456239,51.016884],[-4.455558,51.016574],[-4.451633,51.015093],[-4.448661,51.014489],[-4.44608,51.014455],[-4.443333,51.015196],[-4.443108,51.014753],[-4.441673,51.014361],[-4.437534,51.013485],[-4.436735,51.013743],[-4.435458,51.012815],[-4.433609,51.012637],[-4.428977,51.013052],[-4.426497,51.01377],[-4.425393,51.013657],[-4.422104,51.011387],[-4.417799,51.011003],[-4.41529,51.009437],[-4.412948,51.008623],[-4.410272,51.006588],[-4.406292,51.004888],[-4.404214,51.004493],[-4.402111,51.002563],[-4.399924,51.001418],[-4.398838,50.999776],[-4.39673,50.998831],[-4.397735,50.998898],[-4.397514,50.998383],[-4.395463,50.996566],[-4.395295,50.996739],[-4.393507,50.99608],[-4.392522,50.995295],[-4.390903,50.994676],[-4.382803,50.99296],[-4.379339,50.991385],[-4.374553,50.990073],[-4.366753,50.989804],[-4.364292,50.990211],[-4.355502,50.990168],[-4.348397,50.989067],[-4.343387,50.988923],[-4.338657,50.989666],[-4.331555,50.991458],[-4.325477,50.991585],[-4.318393,50.992668],[-4.314024,50.99436],[-4.309362,50.994886],[-4.307594,50.995488],[-4.302996,50.997755],[-4.296616,51.001964],[-4.294433,51.00419],[-4.290515,51.006845],[-4.284243,51.014086],[-4.281525,51.015744],[-4.279578,51.015945],[-4.278795,51.01634],[-4.274345,51.021251],[-4.27314,51.023413],[-4.268649,51.027266],[-4.263221,51.033776],[-4.255989,51.038926],[-4.245064,51.040552],[-4.244529,51.040856],[-4.24278,51.040608],[-4.238686,51.041179],[-4.237099,51.042845],[-4.236475,51.042933],[-4.226446,51.060519],[-4.223844,51.063215],[-4.221736,51.064601],[-4.219333,51.06502],[-4.217296,51.064961],[-4.208912,51.062241],[-4.208092,51.061644],[-4.208843,51.060945]]],[[[-4.67029,51.201017],[-4.670577,51.200451],[-4.669865,51.200005],[-4.670583,51.198907],[-4.669275,51.198825],[-4.669598,51.198244],[-4.668668,51.196884],[-4.670086,51.195836],[-4.669515,51.195484],[-4.66988,51.194926],[-4.667157,51.193657],[-4.667119,51.192853],[-4.665468,51.191674],[-4.665877,51.190902],[-4.665554,51.19041],[-4.664054,51.190616],[-4.664195,51.189679],[-4.665316,51.188441],[-4.664117,51.187876],[-4.664027,51.187355],[-4.662448,51.187208],[-4.662961,51.186515],[-4.661799,51.186322],[-4.662336,51.185642],[-4.661738,51.185432],[-4.662728,51.185225],[-4.662929,51.184898],[-4.662964,51.184461],[-4.662376,51.184346],[-4.662179,51.183698],[-4.663793,51.182431],[-4.664258,51.181542],[-4.663929,51.180373],[-4.662827,51.179882],[-4.663289,51.179492],[-4.662422,51.178704],[-4.662211,51.177728],[-4.661993,51.176477],[-4.662557,51.175811],[-4.661991,51.173871],[-4.662299,51.173572],[-4.661987,51.173069],[-4.662415,51.169443],[-4.661974,51.1682],[-4.661134,51.16805],[-4.661673,51.167092],[-4.660124,51.166236],[-4.657398,51.163034],[-4.654879,51.162489],[-4.654333,51.162815],[-4.653125,51.162135],[-4.653173,51.161754],[-4.653854,51.161823],[-4.653653,51.16141],[-4.654236,51.161398],[-4.655,51.161977],[-4.655381,51.161514],[-4.655155,51.161006],[-4.655802,51.161226],[-4.655544,51.160869],[-4.657248,51.161397],[-4.656829,51.161672],[-4.657002,51.162123],[-4.658102,51.162361],[-4.658954,51.161764],[-4.659311,51.161873],[-4.66038,51.160674],[-4.662444,51.161139],[-4.662825,51.161812],[-4.664083,51.161776],[-4.666061,51.160762],[-4.667842,51.159285],[-4.669135,51.159593],[-4.669683,51.159099],[-4.669168,51.158815],[-4.670313,51.158734],[-4.670906,51.159048],[-4.670925,51.158464],[-4.671961,51.158992],[-4.670984,51.159515],[-4.671751,51.159812],[-4.671721,51.160431],[-4.672525,51.160438],[-4.672372,51.160791],[-4.673072,51.160652],[-4.67367,51.161014],[-4.672855,51.161414],[-4.672996,51.16198],[-4.674515,51.162437],[-4.673123,51.162315],[-4.674115,51.162865],[-4.673522,51.163163],[-4.674116,51.163488],[-4.675648,51.163534],[-4.675557,51.164182],[-4.67618,51.164109],[-4.675818,51.164439],[-4.676073,51.165199],[-4.676733,51.165745],[-4.676599,51.166372],[-4.677214,51.167131],[-4.676896,51.168081],[-4.67745,51.168561],[-4.677992,51.168589],[-4.677795,51.168963],[-4.678407,51.168999],[-4.678528,51.170776],[-4.680572,51.172425],[-4.679845,51.172978],[-4.679615,51.172844],[-4.679678,51.173366],[-4.679426,51.173135],[-4.678942,51.173354],[-4.678492,51.174301],[-4.679545,51.174491],[-4.679694,51.175009],[-4.680619,51.175034],[-4.680629,51.175401],[-4.680115,51.17596],[-4.679784,51.175832],[-4.678628,51.176403],[-4.678521,51.176842],[-4.6781,51.176813],[-4.677654,51.178702],[-4.674508,51.17974],[-4.674189,51.179457],[-4.673997,51.180051],[-4.673094,51.180163],[-4.673645,51.180355],[-4.673164,51.180782],[-4.673453,51.180915],[-4.673155,51.181782],[-4.673764,51.181541],[-4.673586,51.182064],[-4.673956,51.181751],[-4.674112,51.182273],[-4.674378,51.181983],[-4.67506,51.182332],[-4.674976,51.183312],[-4.675414,51.183393],[-4.675175,51.18365],[-4.675611,51.183967],[-4.676067,51.183784],[-4.676466,51.184224],[-4.675761,51.184329],[-4.677187,51.184768],[-4.676303,51.184927],[-4.677499,51.185332],[-4.674084,51.185505],[-4.675497,51.185698],[-4.675146,51.186001],[-4.674313,51.185919],[-4.67412,51.186472],[-4.675008,51.186552],[-4.675162,51.187363],[-4.674197,51.187553],[-4.675472,51.187782],[-4.675171,51.188178],[-4.675967,51.188071],[-4.675981,51.189069],[-4.676583,51.188781],[-4.677267,51.189195],[-4.67685,51.189573],[-4.675415,51.189387],[-4.674524,51.190286],[-4.675309,51.190127],[-4.675817,51.190363],[-4.67537,51.19172],[-4.675881,51.192062],[-4.676697,51.191823],[-4.676805,51.192946],[-4.678842,51.193305],[-4.678722,51.193803],[-4.679411,51.19367],[-4.679315,51.19393],[-4.679757,51.194155],[-4.679092,51.194559],[-4.679306,51.194828],[-4.678728,51.194947],[-4.679482,51.195269],[-4.679207,51.195692],[-4.679547,51.196007],[-4.679087,51.196164],[-4.679188,51.196556],[-4.678805,51.196533],[-4.679024,51.196806],[-4.678669,51.197197],[-4.678011,51.197276],[-4.678196,51.197574],[-4.677125,51.197956],[-4.677201,51.198545],[-4.67689,51.198536],[-4.677244,51.198873],[-4.676443,51.19943],[-4.676992,51.199674],[-4.676668,51.200273],[-4.677377,51.200329],[-4.677672,51.200734],[-4.677262,51.201265],[-4.677964,51.201174],[-4.678417,51.201495],[-4.677683,51.201863],[-4.67837,51.202277],[-4.677405,51.202477],[-4.676778,51.202295],[-4.676514,51.201773],[-4.67029,51.201017]]]]}}]}