{"type":"FeatureCollection","features":[{"type":"Feature","properties":{"slug":"tower-hamlets","gss_code":"E09000030","name":"Tower Hamlets"},"geometry":{"type":"Polygon","coordinates":[[[-0.028991,51.542273],[-0.025585,51.543339],[-0.019853,51.543583],[-0.01655,51.54333],[-0.016091,51.542477],[-0.016595,51.54139],[-0.017699,51.540957],[-0.017859,51.540175],[-0.018886,51.539341],[-0.019446,51.538254],[-0.021268,51.537007],[-0.020953,51.536284],[-0.019663,51.535585],[-0.018948,51.534139],[-0.018071,51.533439],[-0.018011,51.532222],[-0.017147,51.531315],[-0.013682,51.529847],[-0.010688,51.529281],[-0.010267,51.528482],[-0.008641,51.527556],[-0.007562,51.526276],[-0.00809,51.523835],[-0.007863,51.523025],[-0.008636,51.521826],[-0.00935,51.521822],[-0.009165,51.519895],[-0.006723,51.518299],[-0.005971,51.516422],[-0.004374,51.516411],[-0.003454,51.517614],[-0.002593,51.517791],[0.002673,51.515517],[0.003589,51.514545],[0.001759,51.510912],[0.002808,51.510386],[0.004327,51.510595],[0.00594,51.513929],[0.006695,51.513924],[0.007393,51.512728],[0.005583,51.510026],[0.006351,51.509373],[0.008958,51.508838],[0.00879,51.507368],[0.005801,51.508265],[0.003676,51.50838],[0.00347,51.508017],[0.00299,51.508237],[-0.001733,51.507476],[-0.003433,51.506623],[-0.005391,51.505032],[-0.005774,51.505135],[-0.00559,51.504798],[-0.007219,51.503119],[-0.007633,51.501506],[-0.008657,51.501349],[-0.007743,51.500804],[-0.007277,51.498307],[-0.006956,51.498342],[-0.005606,51.495837],[-0.006212,51.49561],[-0.005424,51.494644],[-0.00476,51.494543],[-0.003299,51.492271],[-0.003058,51.490876],[-0.003687,51.488984],[-0.004435,51.488278],[-0.005126,51.488607],[-0.004621,51.488137],[-0.006669,51.487084],[-0.0115,51.48614],[-0.016377,51.486142],[-0.02098,51.487329],[-0.023823,51.488946],[-0.025699,51.490695],[-0.027332,51.493512],[-0.027235,51.493808],[-0.026232,51.494014],[-0.027629,51.494251],[-0.027873,51.494685],[-0.027413,51.501813],[-0.026748,51.50334],[-0.028457,51.505667],[-0.028629,51.504991],[-0.028935,51.505393],[-0.028579,51.505284],[-0.028452,51.505719],[-0.030102,51.507423],[-0.030415,51.507242],[-0.031525,51.50784],[-0.029856,51.508908],[-0.031598,51.508206],[-0.0326,51.508242],[-0.033164,51.508683],[-0.035585,51.509072],[-0.035917,51.509382],[-0.037334,51.509361],[-0.036923,51.509979],[-0.037801,51.5095],[-0.042105,51.5098],[-0.046058,51.509356],[-0.04913,51.50801],[-0.049687,51.50808],[-0.0494,51.507849],[-0.050421,51.507593],[-0.056163,51.503877],[-0.05963,51.502826],[-0.060843,51.502809],[-0.065177,51.503727],[-0.065347,51.50349],[-0.06522,51.503738],[-0.068081,51.50448],[-0.068068,51.504878],[-0.068665,51.504536],[-0.070574,51.505356],[-0.071186,51.505166],[-0.071272,51.505779],[-0.073767,51.506195],[-0.074759,51.506714],[-0.079465,51.507826],[-0.078705,51.508835],[-0.079072,51.509064],[-0.078815,51.509461],[-0.077856,51.510085],[-0.076212,51.51056],[-0.075517,51.509736],[-0.072813,51.510237],[-0.074003,51.514478],[-0.076872,51.516625],[-0.078173,51.518471],[-0.078099,51.518979],[-0.079413,51.518885],[-0.078252,51.521903],[-0.076458,51.522046],[-0.07612,51.522369],[-0.075742,51.523681],[-0.075927,51.524339],[-0.07646,51.524318],[-0.076641,51.526347],[-0.076297,51.527142],[-0.077273,51.527305],[-0.075715,51.528358],[-0.074575,51.529852],[-0.072828,51.530657],[-0.066253,51.53122],[-0.065162,51.533155],[-0.065009,51.532904],[-0.06219,51.533259],[-0.06286,51.534919],[-0.062434,51.535532],[-0.060073,51.534196],[-0.058758,51.534105],[-0.054674,51.535155],[-0.052856,51.534939],[-0.052377,51.535931],[-0.050913,51.536462],[-0.049701,51.536347],[-0.04716,51.535449],[-0.044963,51.535781],[-0.041494,51.537443],[-0.037144,51.541417],[-0.037734,51.541799],[-0.033191,51.544686],[-0.029554,51.543091],[-0.028991,51.542273]]]}}]}