{"type":"FeatureCollection","features":[{"type":"Feature","properties":{"slug":"trafford","gss_code":"E08000009","name":"Trafford"},"geometry":{"type":"Polygon","coordinates":[[[-2.281259,53.464862],[-2.278502,53.465673],[-2.2708,53.470699],[-2.26532,53.472729],[-2.265096,53.472511],[-2.268161,53.469707],[-2.265707,53.469733],[-2.264565,53.46877],[-2.265114,53.468471],[-2.264572,53.467888],[-2.262702,53.467435],[-2.259811,53.465333],[-2.257919,53.462384],[-2.2559,53.462175],[-2.253722,53.46273],[-2.253022,53.461338],[-2.253502,53.461245],[-2.253246,53.460721],[-2.253938,53.460507],[-2.253687,53.459946],[-2.258187,53.458825],[-2.271466,53.450732],[-2.27938,53.450185],[-2.279756,53.449197],[-2.286212,53.449121],[-2.289649,53.445077],[-2.291812,53.44538],[-2.29288,53.444334],[-2.293129,53.44445],[-2.29326,53.443626],[-2.291506,53.44313],[-2.289871,53.441289],[-2.291493,53.439211],[-2.295439,53.438799],[-2.294304,53.436062],[-2.295569,53.435867],[-2.299699,53.437325],[-2.300201,53.436348],[-2.299866,53.433434],[-2.296031,53.432471],[-2.293277,53.432676],[-2.289103,53.432038],[-2.285995,53.429335],[-2.285331,53.427243],[-2.283652,53.425008],[-2.280629,53.42392],[-2.27565,53.423295],[-2.273621,53.422501],[-2.275441,53.419406],[-2.276442,53.41965],[-2.275998,53.419388],[-2.276392,53.418998],[-2.278194,53.418314],[-2.278423,53.417534],[-2.277843,53.415475],[-2.281545,53.415284],[-2.283087,53.416023],[-2.284509,53.416138],[-2.287263,53.414919],[-2.288132,53.415431],[-2.288885,53.415378],[-2.290905,53.4142],[-2.293943,53.413582],[-2.296525,53.411877],[-2.297271,53.411004],[-2.297716,53.408362],[-2.300693,53.40976],[-2.303579,53.409584],[-2.305902,53.410057],[-2.307245,53.409786],[-2.312712,53.409823],[-2.315858,53.410896],[-2.319919,53.411624],[-2.30734,53.397415],[-2.305013,53.397088],[-2.303593,53.395054],[-2.300152,53.392154],[-2.29988,53.389818],[-2.300483,53.389475],[-2.300134,53.389399],[-2.300372,53.388994],[-2.299715,53.388467],[-2.299993,53.388199],[-2.299619,53.387664],[-2.299762,53.387013],[-2.299148,53.386099],[-2.300215,53.384987],[-2.299874,53.384331],[-2.296547,53.382252],[-2.29421,53.381714],[-2.292683,53.380801],[-2.288585,53.376893],[-2.287221,53.376347],[-2.285665,53.376245],[-2.290117,53.372701],[-2.290563,53.372705],[-2.292664,53.370269],[-2.296236,53.363124],[-2.298595,53.360825],[-2.300085,53.360007],[-2.306039,53.358382],[-2.314012,53.35743],[-2.313939,53.358374],[-2.315241,53.359046],[-2.317884,53.359105],[-2.319777,53.358587],[-2.321255,53.359456],[-2.322138,53.359526],[-2.322727,53.359139],[-2.322488,53.358514],[-2.323475,53.358277],[-2.324525,53.361456],[-2.326316,53.361442],[-2.32771,53.360506],[-2.328687,53.36064],[-2.330858,53.361799],[-2.329544,53.363257],[-2.330001,53.36395],[-2.331717,53.363872],[-2.332892,53.365457],[-2.334596,53.365721],[-2.337291,53.366825],[-2.337876,53.366654],[-2.33802,53.366169],[-2.338581,53.366183],[-2.34009,53.367444],[-2.34368,53.366549],[-2.347759,53.367833],[-2.348033,53.366267],[-2.348892,53.36591],[-2.350951,53.366542],[-2.351898,53.368055],[-2.352821,53.368347],[-2.353372,53.368014],[-2.357246,53.368447],[-2.357104,53.366894],[-2.360198,53.366849],[-2.360564,53.366619],[-2.360486,53.365722],[-2.359069,53.364754],[-2.359244,53.364345],[-2.36194,53.364011],[-2.363363,53.364513],[-2.36351,53.363964],[-2.36451,53.363876],[-2.363961,53.363282],[-2.364957,53.363101],[-2.365622,53.363334],[-2.366164,53.364292],[-2.367998,53.364138],[-2.368824,53.364534],[-2.368757,53.36389],[-2.369507,53.363614],[-2.369914,53.364078],[-2.370826,53.364129],[-2.370435,53.364573],[-2.373202,53.365602],[-2.375589,53.365279],[-2.377932,53.366016],[-2.378135,53.366852],[-2.380117,53.367644],[-2.379804,53.368172],[-2.380354,53.368501],[-2.379937,53.368823],[-2.381085,53.369284],[-2.380552,53.369523],[-2.380725,53.369864],[-2.382209,53.370291],[-2.382711,53.369429],[-2.383618,53.370085],[-2.386438,53.370344],[-2.387209,53.37107],[-2.390355,53.370723],[-2.39073,53.371917],[-2.393041,53.372471],[-2.396053,53.374453],[-2.397792,53.37444],[-2.398041,53.374857],[-2.400703,53.375246],[-2.400915,53.376006],[-2.399466,53.376466],[-2.399824,53.377046],[-2.400778,53.37777],[-2.403908,53.378511],[-2.407128,53.379841],[-2.408506,53.382099],[-2.407807,53.382558],[-2.408037,53.382816],[-2.410868,53.383947],[-2.417207,53.384766],[-2.418776,53.386333],[-2.419679,53.386237],[-2.420647,53.386738],[-2.422447,53.386353],[-2.423311,53.387227],[-2.424578,53.386644],[-2.425153,53.387215],[-2.42659,53.387462],[-2.427994,53.388978],[-2.428426,53.388419],[-2.43001,53.388346],[-2.431909,53.387729],[-2.43345,53.388311],[-2.433218,53.389164],[-2.434019,53.389514],[-2.435364,53.389162],[-2.437004,53.389265],[-2.438811,53.390087],[-2.438601,53.391582],[-2.439934,53.391428],[-2.440498,53.390975],[-2.44164,53.391],[-2.442888,53.392009],[-2.445579,53.392203],[-2.445245,53.392886],[-2.446729,53.39318],[-2.446866,53.393705],[-2.448173,53.394265],[-2.448394,53.394808],[-2.450885,53.39497],[-2.451866,53.394625],[-2.452226,53.395306],[-2.452953,53.394988],[-2.452891,53.394496],[-2.454544,53.393932],[-2.455401,53.394324],[-2.456139,53.393935],[-2.456976,53.394214],[-2.457523,53.39381],[-2.45837,53.393855],[-2.458561,53.392989],[-2.459998,53.394346],[-2.460913,53.393958],[-2.463063,53.394743],[-2.464068,53.394182],[-2.465898,53.394776],[-2.466223,53.394136],[-2.468192,53.393859],[-2.467976,53.393165],[-2.471026,53.392331],[-2.472583,53.392732],[-2.473545,53.39373],[-2.475635,53.394191],[-2.47844,53.396213],[-2.471732,53.397751],[-2.465977,53.400748],[-2.462101,53.403852],[-2.456257,53.410824],[-2.453681,53.413213],[-2.45078,53.4153],[-2.426824,53.425101],[-2.422387,53.427339],[-2.419286,53.42956],[-2.417278,53.43157],[-2.413519,53.437532],[-2.413988,53.438078],[-2.413208,53.4385],[-2.412793,53.439664],[-2.410751,53.442116],[-2.409565,53.445735],[-2.405494,53.451086],[-2.401024,53.455126],[-2.397772,53.457501],[-2.393253,53.460156],[-2.386213,53.463384],[-2.37995,53.465243],[-2.377122,53.46652],[-2.362121,53.471699],[-2.352177,53.474725],[-2.329467,53.479995],[-2.324008,53.480362],[-2.319203,53.479651],[-2.316348,53.478696],[-2.300447,53.471377],[-2.28381,53.465312],[-2.281259,53.464862]]]}}]}