{"type":"FeatureCollection","features":[{"type":"Feature","properties":{"slug":"tunbridge-wells","gss_code":"E07000116","name":"Tunbridge Wells"},"geometry":{"type":"Polygon","coordinates":[[[0.374857,51.198956],[0.376028,51.19932],[0.376894,51.198645],[0.377848,51.198737],[0.38083,51.197998],[0.382493,51.198758],[0.383905,51.198611],[0.384247,51.198266],[0.384267,51.196969],[0.383289,51.196189],[0.383545,51.19546],[0.38668,51.194461],[0.388843,51.194612],[0.391645,51.194132],[0.393987,51.194493],[0.394226,51.192775],[0.395126,51.192226],[0.399889,51.192146],[0.401323,51.191272],[0.404108,51.190694],[0.403426,51.189393],[0.40426,51.188638],[0.407648,51.188149],[0.408124,51.188742],[0.409403,51.188441],[0.410031,51.186925],[0.409419,51.186268],[0.40943,51.185438],[0.412271,51.185139],[0.411807,51.183299],[0.414209,51.182353],[0.416401,51.180548],[0.431084,51.179599],[0.440754,51.176513],[0.441036,51.1742],[0.442914,51.172635],[0.445154,51.171599],[0.447307,51.171294],[0.44934,51.169336],[0.45143,51.168608],[0.451586,51.167963],[0.4521,51.168245],[0.45226,51.167507],[0.453001,51.167291],[0.453435,51.166138],[0.454095,51.166155],[0.455545,51.165057],[0.457133,51.164743],[0.457476,51.163993],[0.458388,51.163835],[0.45798,51.163599],[0.458187,51.163333],[0.460236,51.162441],[0.460164,51.161619],[0.461091,51.161247],[0.461315,51.160577],[0.462402,51.159897],[0.464287,51.15935],[0.464754,51.158574],[0.464101,51.158261],[0.465443,51.15824],[0.465369,51.157254],[0.466173,51.157423],[0.46605,51.156744],[0.466628,51.156891],[0.466692,51.15643],[0.467672,51.156181],[0.467088,51.155861],[0.467702,51.155443],[0.467057,51.155107],[0.467763,51.154898],[0.468414,51.153308],[0.469169,51.153205],[0.469077,51.152561],[0.469678,51.152348],[0.469406,51.151506],[0.470008,51.151173],[0.469071,51.150514],[0.469852,51.150216],[0.469301,51.149662],[0.470437,51.148921],[0.470188,51.147261],[0.469282,51.146147],[0.468858,51.146127],[0.469242,51.145657],[0.468827,51.145354],[0.469406,51.145139],[0.468964,51.143287],[0.476766,51.141605],[0.481307,51.141346],[0.48356,51.1427],[0.48795,51.143215],[0.491245,51.144265],[0.492636,51.143758],[0.493907,51.143807],[0.496896,51.144776],[0.498816,51.143168],[0.50224,51.142382],[0.503044,51.14104],[0.507454,51.141548],[0.508586,51.141371],[0.509962,51.140376],[0.509222,51.139338],[0.509434,51.138318],[0.508985,51.136632],[0.513436,51.136604],[0.516867,51.135747],[0.51875,51.136138],[0.523741,51.135696],[0.529702,51.134254],[0.533106,51.134153],[0.53477,51.134943],[0.540035,51.134483],[0.541464,51.134727],[0.541851,51.13443],[0.545893,51.136469],[0.547288,51.136605],[0.547464,51.137052],[0.547836,51.136708],[0.548698,51.136966],[0.548947,51.136681],[0.55052,51.137254],[0.550998,51.136961],[0.551809,51.137078],[0.55403,51.138333],[0.555595,51.138514],[0.556903,51.140038],[0.557697,51.141776],[0.559862,51.14284],[0.561814,51.143223],[0.565612,51.141136],[0.565237,51.140165],[0.564114,51.139465],[0.56015,51.137781],[0.559982,51.137491],[0.560714,51.137316],[0.558848,51.136225],[0.559065,51.133945],[0.560113,51.13412],[0.560016,51.134413],[0.560427,51.134501],[0.563918,51.134893],[0.568055,51.136496],[0.568335,51.136985],[0.572325,51.138929],[0.572166,51.139293],[0.574124,51.140838],[0.573963,51.14127],[0.575438,51.142984],[0.575886,51.142982],[0.577323,51.14421],[0.579306,51.144636],[0.578624,51.145479],[0.576853,51.145578],[0.576367,51.14602],[0.575592,51.148835],[0.576728,51.149534],[0.575185,51.155404],[0.575673,51.156113],[0.578149,51.155249],[0.582074,51.154623],[0.588863,51.154567],[0.593241,51.153976],[0.593516,51.153305],[0.595921,51.154278],[0.598761,51.157855],[0.601309,51.157985],[0.601856,51.159016],[0.603394,51.15812],[0.604079,51.156765],[0.605264,51.156447],[0.604312,51.153114],[0.603586,51.152032],[0.604253,51.151853],[0.60507,51.150919],[0.610534,51.151501],[0.611776,51.151816],[0.612653,51.152411],[0.612644,51.152001],[0.613723,51.151726],[0.613128,51.151573],[0.613719,51.150516],[0.614327,51.151001],[0.614754,51.150824],[0.615376,51.15112],[0.615397,51.150304],[0.616469,51.150414],[0.615588,51.149967],[0.616976,51.149551],[0.6172,51.148276],[0.617729,51.148861],[0.618391,51.14868],[0.618914,51.14802],[0.6196,51.148166],[0.619592,51.148465],[0.621277,51.148359],[0.622237,51.149595],[0.626119,51.152841],[0.626896,51.152492],[0.629963,51.152572],[0.631623,51.152301],[0.631968,51.152303],[0.632308,51.152976],[0.64034,51.152474],[0.641832,51.151141],[0.641006,51.150774],[0.637059,51.146657],[0.636513,51.145214],[0.632545,51.145296],[0.633269,51.14457],[0.634982,51.143738],[0.634381,51.142397],[0.638445,51.142017],[0.640407,51.140645],[0.642164,51.140463],[0.640106,51.138121],[0.636453,51.136839],[0.633867,51.136989],[0.63303,51.136749],[0.629585,51.137312],[0.628559,51.137818],[0.627855,51.138942],[0.626287,51.139019],[0.625835,51.138363],[0.624569,51.137797],[0.624462,51.136409],[0.623465,51.135785],[0.623767,51.135509],[0.623139,51.134826],[0.623898,51.134414],[0.621294,51.133235],[0.61991,51.132152],[0.619321,51.132167],[0.617262,51.133241],[0.613775,51.132714],[0.614322,51.132575],[0.613747,51.132094],[0.614266,51.131884],[0.613509,51.131387],[0.613228,51.132096],[0.611989,51.132092],[0.611841,51.13244],[0.611179,51.132262],[0.610079,51.132954],[0.609399,51.132703],[0.609166,51.133309],[0.607924,51.132587],[0.606478,51.132397],[0.605932,51.131584],[0.604904,51.131863],[0.603649,51.131674],[0.603787,51.131157],[0.603274,51.131009],[0.602943,51.130037],[0.603796,51.128504],[0.606592,51.127049],[0.607099,51.127194],[0.608536,51.1254],[0.609726,51.121766],[0.608903,51.119138],[0.609008,51.1179],[0.606663,51.116845],[0.599269,51.115394],[0.595603,51.113059],[0.593365,51.112092],[0.59033,51.111321],[0.595615,51.108313],[0.595577,51.105875],[0.596186,51.105398],[0.595192,51.104055],[0.5965,51.099539],[0.595442,51.097931],[0.595798,51.096619],[0.594606,51.094092],[0.596926,51.090569],[0.59652,51.090168],[0.59909,51.090811],[0.600551,51.090677],[0.601258,51.090967],[0.605004,51.090349],[0.607262,51.090881],[0.609953,51.090577],[0.61131,51.089301],[0.618618,51.089478],[0.619078,51.089274],[0.620566,51.089622],[0.620128,51.090481],[0.621655,51.091152],[0.625759,51.089573],[0.629194,51.091433],[0.629537,51.090645],[0.629192,51.089521],[0.631269,51.08818],[0.633581,51.087951],[0.635842,51.086575],[0.638209,51.085924],[0.63849,51.085446],[0.640352,51.084666],[0.642566,51.08277],[0.646675,51.083281],[0.643403,51.080399],[0.64359,51.080241],[0.642564,51.079754],[0.642648,51.078955],[0.644711,51.077888],[0.64087,51.075729],[0.638829,51.075269],[0.636582,51.073818],[0.633864,51.070815],[0.628467,51.067757],[0.627294,51.066578],[0.618707,51.065552],[0.613068,51.063706],[0.611717,51.063546],[0.611977,51.062482],[0.609806,51.061597],[0.610521,51.060962],[0.607872,51.058455],[0.607409,51.05866],[0.606863,51.05703],[0.605539,51.05647],[0.605007,51.054576],[0.604135,51.053703],[0.605477,51.053658],[0.604749,51.052497],[0.604307,51.052594],[0.603707,51.051079],[0.60158,51.049588],[0.600401,51.049698],[0.599676,51.046142],[0.59708,51.044483],[0.595674,51.042184],[0.59355,51.041859],[0.59327,51.041405],[0.592479,51.039975],[0.593371,51.037299],[0.594975,51.036414],[0.594888,51.035737],[0.593883,51.03482],[0.595103,51.033678],[0.593321,51.031418],[0.594104,51.030592],[0.595061,51.030264],[0.596119,51.030343],[0.598167,51.029853],[0.598429,51.029475],[0.599283,51.029479],[0.602457,51.026762],[0.597541,51.025166],[0.595849,51.024945],[0.597255,51.020817],[0.606064,51.019961],[0.606163,51.017302],[0.604729,51.014073],[0.6046,51.012465],[0.605391,51.01207],[0.603611,51.011879],[0.602286,51.010239],[0.600068,51.009469],[0.597071,51.008916],[0.594235,51.010014],[0.59194,51.009872],[0.586932,51.008573],[0.585025,51.005747],[0.581787,51.00524],[0.579522,51.004428],[0.577887,51.004525],[0.575558,51.005219],[0.573148,51.00448],[0.572001,51.003448],[0.570801,51.003482],[0.566779,51.004315],[0.564791,51.006727],[0.563697,51.007406],[0.561819,51.00778],[0.558839,51.007208],[0.556932,51.007939],[0.55502,51.008224],[0.552059,51.008201],[0.549535,51.009052],[0.547739,51.009121],[0.545325,51.010352],[0.542107,51.01091],[0.54129,51.01185],[0.54125,51.013278],[0.540704,51.014196],[0.540983,51.016902],[0.539756,51.017902],[0.539903,51.018507],[0.53903,51.019449],[0.539337,51.019929],[0.538584,51.020711],[0.537696,51.020873],[0.537569,51.021639],[0.536415,51.021907],[0.534805,51.02167],[0.534343,51.022015],[0.531374,51.021531],[0.527974,51.021532],[0.526693,51.022182],[0.526989,51.022529],[0.526209,51.022432],[0.525988,51.02277],[0.52287,51.023161],[0.519964,51.022498],[0.515568,51.022531],[0.514079,51.022952],[0.513499,51.023499],[0.510906,51.02349],[0.508435,51.024127],[0.506959,51.026412],[0.504647,51.027945],[0.502228,51.02804],[0.499445,51.029177],[0.498581,51.029079],[0.498728,51.029274],[0.497477,51.029972],[0.496729,51.029921],[0.496539,51.030562],[0.492631,51.031175],[0.489796,51.030571],[0.488843,51.030883],[0.487668,51.03065],[0.48533,51.030932],[0.48276,51.030606],[0.482001,51.030005],[0.480967,51.029784],[0.480871,51.029413],[0.480575,51.029603],[0.478797,51.029119],[0.478275,51.029388],[0.478071,51.029043],[0.47788,51.029299],[0.47727,51.02921],[0.477485,51.029568],[0.477146,51.029774],[0.476438,51.029521],[0.471476,51.030755],[0.470368,51.031946],[0.469458,51.031906],[0.469549,51.032487],[0.467982,51.032636],[0.468069,51.032893],[0.467399,51.032994],[0.466836,51.034208],[0.466426,51.03428],[0.466686,51.036027],[0.466308,51.036396],[0.466433,51.036816],[0.466934,51.036725],[0.467258,51.037755],[0.466914,51.037851],[0.468363,51.040619],[0.467671,51.040958],[0.467316,51.041765],[0.466335,51.042124],[0.46609,51.042737],[0.47111,51.045742],[0.471902,51.046973],[0.471177,51.048796],[0.471401,51.049078],[0.468393,51.050544],[0.466399,51.050799],[0.463811,51.052342],[0.463058,51.054097],[0.463267,51.054787],[0.457311,51.055259],[0.453655,51.056928],[0.451681,51.056378],[0.4496,51.056709],[0.44799,51.056583],[0.447147,51.057966],[0.444276,51.0584],[0.44274,51.058042],[0.442675,51.057582],[0.440762,51.057882],[0.439937,51.058913],[0.438334,51.059735],[0.432553,51.06103],[0.430951,51.061999],[0.428581,51.062288],[0.428293,51.063119],[0.426546,51.063007],[0.425573,51.064067],[0.425257,51.062988],[0.422685,51.062851],[0.422016,51.063665],[0.421054,51.062844],[0.418267,51.062627],[0.416246,51.06389],[0.416262,51.06529],[0.417778,51.067893],[0.41698,51.067893],[0.415895,51.066611],[0.414128,51.065485],[0.411311,51.065887],[0.411082,51.067095],[0.409228,51.068234],[0.409005,51.069393],[0.406606,51.068903],[0.405817,51.069504],[0.400913,51.071181],[0.400658,51.07269],[0.405436,51.075433],[0.405564,51.077229],[0.405068,51.077919],[0.406649,51.079703],[0.402676,51.081892],[0.40027,51.082408],[0.39765,51.083645],[0.396496,51.083132],[0.393495,51.083107],[0.390864,51.081295],[0.39011,51.081735],[0.390543,51.083652],[0.389256,51.084396],[0.3917,51.085787],[0.390094,51.086242],[0.387386,51.085475],[0.386689,51.086172],[0.384067,51.086115],[0.383778,51.08655],[0.38275,51.086936],[0.383301,51.087589],[0.381106,51.088195],[0.375242,51.087771],[0.373841,51.088461],[0.373063,51.08836],[0.372011,51.086857],[0.369553,51.08803],[0.36688,51.088448],[0.364751,51.088225],[0.362178,51.086272],[0.361672,51.085446],[0.358049,51.084032],[0.356736,51.083026],[0.350831,51.084056],[0.351346,51.08547],[0.352311,51.086531],[0.352116,51.08938],[0.35245,51.089315],[0.353653,51.091645],[0.353936,51.093663],[0.353231,51.095841],[0.352286,51.096264],[0.351532,51.097519],[0.350557,51.097729],[0.351036,51.098496],[0.350787,51.099134],[0.353815,51.099636],[0.35468,51.100633],[0.355336,51.10056],[0.356305,51.10118],[0.358393,51.10405],[0.358216,51.104354],[0.358977,51.104531],[0.358454,51.104798],[0.353977,51.10491],[0.352297,51.104431],[0.350122,51.105013],[0.348999,51.104615],[0.348347,51.105027],[0.346603,51.105151],[0.345118,51.105131],[0.344143,51.104724],[0.342006,51.105295],[0.337267,51.105057],[0.335077,51.105466],[0.334539,51.106292],[0.332206,51.107765],[0.330499,51.110008],[0.329864,51.110222],[0.329178,51.109912],[0.328046,51.111046],[0.32686,51.111008],[0.326063,51.111357],[0.325719,51.110795],[0.324457,51.112305],[0.32545,51.113443],[0.324736,51.114155],[0.325009,51.114895],[0.32653,51.114707],[0.327762,51.115122],[0.32834,51.115591],[0.327902,51.115934],[0.327995,51.116488],[0.328788,51.117257],[0.32918,51.117179],[0.329362,51.117574],[0.330084,51.117785],[0.329392,51.118337],[0.329869,51.11902],[0.32955,51.119259],[0.329288,51.118993],[0.328483,51.119133],[0.328889,51.119445],[0.328327,51.119661],[0.327012,51.12201],[0.325372,51.122523],[0.325267,51.122892],[0.324415,51.122765],[0.324044,51.123008],[0.323111,51.122699],[0.323024,51.122323],[0.32201,51.122425],[0.320702,51.121995],[0.320216,51.122307],[0.319576,51.121755],[0.318231,51.121419],[0.31762,51.121832],[0.317643,51.121548],[0.316868,51.121542],[0.316575,51.121114],[0.315917,51.121286],[0.315122,51.120406],[0.314668,51.120545],[0.31395,51.12001],[0.31324,51.120142],[0.313336,51.119843],[0.311812,51.119428],[0.310575,51.119354],[0.309013,51.119894],[0.307613,51.119985],[0.305356,51.119674],[0.304831,51.119219],[0.303873,51.119531],[0.303164,51.11894],[0.302752,51.119248],[0.30134,51.118616],[0.298738,51.118157],[0.297513,51.118565],[0.292886,51.119115],[0.2916,51.118782],[0.289532,51.118888],[0.286985,51.117938],[0.284905,51.117615],[0.281319,51.118066],[0.279609,51.117847],[0.279007,51.118337],[0.279017,51.119039],[0.274875,51.120652],[0.27469,51.120502],[0.275514,51.120096],[0.275282,51.119905],[0.274634,51.120269],[0.274856,51.119769],[0.273931,51.120072],[0.272133,51.118839],[0.275666,51.117476],[0.275136,51.11733],[0.278942,51.114677],[0.275613,51.112299],[0.266265,51.115099],[0.26513,51.113615],[0.262638,51.114303],[0.259308,51.114073],[0.259305,51.113653],[0.252249,51.114396],[0.251847,51.114697],[0.25118,51.114152],[0.248933,51.114861],[0.24826,51.115578],[0.247308,51.115545],[0.24698,51.114836],[0.244578,51.114834],[0.243245,51.115276],[0.243612,51.115846],[0.243367,51.116193],[0.242513,51.116171],[0.243065,51.117038],[0.227698,51.123789],[0.227445,51.124241],[0.225436,51.124396],[0.223759,51.122316],[0.221611,51.121878],[0.221449,51.121449],[0.220803,51.121567],[0.219725,51.120609],[0.217729,51.120403],[0.216814,51.120604],[0.217428,51.120821],[0.217155,51.121156],[0.216615,51.121038],[0.21632,51.121402],[0.215656,51.121031],[0.215149,51.121245],[0.215312,51.121548],[0.214539,51.12129],[0.214281,51.121611],[0.213413,51.120955],[0.212876,51.12126],[0.212519,51.120635],[0.212161,51.120991],[0.211912,51.120722],[0.210997,51.120715],[0.210019,51.121005],[0.209871,51.12038],[0.208994,51.120481],[0.208156,51.119639],[0.207184,51.119416],[0.206672,51.118713],[0.2062,51.118708],[0.206425,51.119061],[0.20601,51.119343],[0.20429,51.119146],[0.203179,51.118057],[0.202431,51.118298],[0.20205,51.118031],[0.202304,51.117731],[0.20172,51.117417],[0.201192,51.117682],[0.200955,51.117268],[0.199634,51.11694],[0.198126,51.11696],[0.197331,51.11776],[0.196337,51.117971],[0.194308,51.116885],[0.193255,51.117179],[0.187961,51.116645],[0.185437,51.116847],[0.185185,51.116242],[0.182844,51.116238],[0.18169,51.115737],[0.180041,51.115535],[0.178883,51.115715],[0.178254,51.116176],[0.176856,51.115932],[0.176461,51.116178],[0.176297,51.115845],[0.175734,51.116049],[0.17552,51.115598],[0.174843,51.115421],[0.173991,51.115784],[0.172559,51.115354],[0.171433,51.11542],[0.170121,51.116037],[0.169113,51.11596],[0.168954,51.116307],[0.168264,51.116158],[0.167904,51.11653],[0.167434,51.11634],[0.166571,51.116615],[0.165036,51.116163],[0.164869,51.116387],[0.163475,51.116243],[0.163176,51.116602],[0.162606,51.116406],[0.162383,51.116895],[0.160468,51.116826],[0.160378,51.117244],[0.159723,51.117274],[0.159876,51.117636],[0.158376,51.117702],[0.159341,51.118236],[0.158211,51.118388],[0.158297,51.119088],[0.155938,51.119997],[0.156081,51.120525],[0.154802,51.121073],[0.154063,51.120357],[0.153514,51.120504],[0.153855,51.121628],[0.154715,51.121746],[0.152157,51.1225],[0.151907,51.123303],[0.151187,51.123821],[0.151686,51.124251],[0.15104,51.127659],[0.152238,51.128131],[0.151254,51.129518],[0.151084,51.131126],[0.150026,51.13119],[0.151426,51.131846],[0.151253,51.13235],[0.151914,51.132856],[0.151192,51.134435],[0.15296,51.13545],[0.152374,51.136036],[0.153224,51.136093],[0.154606,51.137529],[0.155679,51.136906],[0.156773,51.137368],[0.158353,51.137306],[0.158625,51.137954],[0.15942,51.13814],[0.162374,51.135839],[0.164436,51.132761],[0.167299,51.133543],[0.167881,51.132147],[0.169997,51.132173],[0.17432,51.132922],[0.175846,51.133721],[0.180407,51.131805],[0.1831,51.1349],[0.187448,51.136387],[0.188992,51.138691],[0.191105,51.139549],[0.193459,51.139435],[0.193019,51.140353],[0.193587,51.142451],[0.194765,51.144882],[0.196431,51.146423],[0.200261,51.145989],[0.203511,51.149534],[0.20595,51.151129],[0.212134,51.15163],[0.215061,51.153925],[0.215385,51.154346],[0.213123,51.154982],[0.210324,51.156621],[0.208672,51.15917],[0.207525,51.15869],[0.205658,51.158684],[0.205617,51.1598],[0.205212,51.159906],[0.205461,51.160872],[0.203146,51.161732],[0.202586,51.161614],[0.201475,51.160144],[0.199012,51.161745],[0.196011,51.164329],[0.195712,51.164987],[0.190641,51.167962],[0.190971,51.171378],[0.19266,51.172174],[0.19478,51.173825],[0.197693,51.17524],[0.198855,51.174463],[0.199374,51.173282],[0.200501,51.173331],[0.200702,51.172665],[0.202179,51.172609],[0.202852,51.171256],[0.203456,51.17123],[0.205378,51.172671],[0.20738,51.175363],[0.21221,51.175447],[0.218092,51.177509],[0.216303,51.179139],[0.219269,51.179991],[0.226963,51.184106],[0.229722,51.182939],[0.231282,51.185058],[0.233605,51.185102],[0.236637,51.183552],[0.239299,51.182674],[0.239412,51.182189],[0.240567,51.182329],[0.240431,51.181474],[0.242473,51.182052],[0.245131,51.181894],[0.254313,51.178757],[0.256131,51.178591],[0.255543,51.179056],[0.256273,51.179794],[0.257906,51.179688],[0.257946,51.18003],[0.258872,51.180179],[0.265256,51.179733],[0.272959,51.176465],[0.274937,51.175192],[0.277306,51.174693],[0.277842,51.17532],[0.280442,51.176522],[0.282309,51.176898],[0.283222,51.17783],[0.284388,51.178092],[0.28326,51.17941],[0.287564,51.183658],[0.289649,51.183368],[0.290213,51.183714],[0.29123,51.184788],[0.290684,51.185125],[0.292279,51.18644],[0.293516,51.189066],[0.294704,51.189145],[0.29522,51.189734],[0.296136,51.189904],[0.296073,51.190368],[0.298089,51.192313],[0.297946,51.193483],[0.298414,51.19463],[0.298023,51.195177],[0.299688,51.196997],[0.303832,51.197635],[0.30602,51.197353],[0.30865,51.199195],[0.308705,51.199913],[0.311389,51.199367],[0.311744,51.198908],[0.314723,51.198703],[0.315097,51.198147],[0.316374,51.198503],[0.317245,51.198179],[0.319793,51.199653],[0.320616,51.199192],[0.321788,51.199001],[0.322241,51.199252],[0.326096,51.198578],[0.32836,51.198661],[0.329165,51.199039],[0.330365,51.19878],[0.330634,51.198151],[0.332345,51.197873],[0.332463,51.197224],[0.333278,51.197439],[0.333657,51.197145],[0.332579,51.195895],[0.332735,51.195526],[0.33404,51.195423],[0.334953,51.195763],[0.334458,51.195098],[0.335181,51.194612],[0.336301,51.194736],[0.337482,51.193497],[0.338682,51.193917],[0.339502,51.193284],[0.341417,51.193078],[0.341744,51.192737],[0.344329,51.193629],[0.345155,51.194368],[0.346451,51.194421],[0.347019,51.194909],[0.348597,51.194502],[0.350257,51.195156],[0.351092,51.19511],[0.352451,51.196314],[0.353193,51.195844],[0.354172,51.19599],[0.354766,51.195737],[0.356884,51.196052],[0.358029,51.195261],[0.36049,51.195611],[0.360615,51.19461],[0.361452,51.194742],[0.362478,51.194027],[0.36343,51.194265],[0.363931,51.19393],[0.364998,51.194077],[0.367497,51.194853],[0.367895,51.196094],[0.367586,51.197599],[0.366931,51.197718],[0.366584,51.200262],[0.368723,51.200674],[0.369322,51.201603],[0.37116,51.20114],[0.373217,51.199871],[0.372753,51.199086],[0.374857,51.198956]]]}}]}