{"type":"FeatureCollection","features":[{"type":"Feature","properties":{"slug":"uttlesford","gss_code":"E07000077","name":"Uttlesford"},"geometry":{"type":"Polygon","coordinates":[[[0.321948,52.074302],[0.324674,52.072783],[0.323477,52.071981],[0.325576,52.071207],[0.32498,52.069975],[0.327268,52.068521],[0.327581,52.068635],[0.328396,52.067047],[0.329801,52.065859],[0.331927,52.062811],[0.335479,52.060344],[0.337662,52.059765],[0.339579,52.057454],[0.3417,52.056318],[0.341033,52.055984],[0.341492,52.055679],[0.341241,52.054824],[0.344007,52.053207],[0.344433,52.052333],[0.343303,52.052188],[0.343749,52.051057],[0.345933,52.049701],[0.35224,52.04697],[0.363324,52.044698],[0.364642,52.043959],[0.363836,52.04362],[0.366215,52.041315],[0.367027,52.039741],[0.368575,52.039319],[0.371722,52.037369],[0.374587,52.037108],[0.374862,52.037321],[0.377507,52.036334],[0.38084,52.036987],[0.386354,52.036075],[0.38968,52.036458],[0.390781,52.035688],[0.394032,52.031841],[0.41284,52.038074],[0.423302,52.038995],[0.431419,52.038936],[0.430176,52.034025],[0.432468,52.034069],[0.432673,52.032387],[0.430947,52.027744],[0.431125,52.02549],[0.430111,52.024781],[0.430449,52.020552],[0.430965,52.020515],[0.431368,52.019099],[0.433083,52.018605],[0.435806,52.016637],[0.437702,52.014037],[0.432821,52.013274],[0.431245,52.013591],[0.427955,52.014957],[0.42802,52.01461],[0.420966,52.014835],[0.419916,52.014538],[0.420073,52.014167],[0.413858,52.011667],[0.415211,52.010696],[0.415403,52.008827],[0.417082,52.007497],[0.417734,52.005596],[0.418858,52.004659],[0.418682,52.003757],[0.420257,52.001618],[0.420153,52.000818],[0.422588,51.998165],[0.423011,51.998196],[0.421976,51.99716],[0.420892,51.996722],[0.421444,51.995912],[0.420195,51.994804],[0.420695,51.993487],[0.421373,51.99281],[0.423444,51.991915],[0.425668,51.989806],[0.426944,51.986759],[0.424144,51.984167],[0.423523,51.978594],[0.424365,51.978601],[0.423558,51.978298],[0.4236,51.977069],[0.424025,51.976409],[0.425124,51.975898],[0.424386,51.975392],[0.424657,51.974551],[0.423623,51.973217],[0.422832,51.973455],[0.421822,51.974636],[0.421249,51.974779],[0.419637,51.974665],[0.417871,51.974103],[0.414169,51.974046],[0.414311,51.973513],[0.4131,51.97355],[0.412292,51.973091],[0.413144,51.971947],[0.412476,51.971061],[0.413832,51.969074],[0.415562,51.968689],[0.417796,51.966334],[0.417858,51.96588],[0.416941,51.965611],[0.417617,51.965261],[0.417548,51.963713],[0.416422,51.962728],[0.417933,51.961339],[0.417791,51.96004],[0.418821,51.958494],[0.420006,51.958353],[0.421549,51.959144],[0.422749,51.959158],[0.423242,51.958737],[0.425611,51.958229],[0.425423,51.957739],[0.426331,51.956927],[0.427159,51.954498],[0.43005,51.953832],[0.427213,51.951404],[0.425175,51.95199],[0.423451,51.949112],[0.424778,51.947831],[0.420855,51.944246],[0.420565,51.943564],[0.42108,51.941697],[0.419081,51.941111],[0.419928,51.939585],[0.421005,51.938957],[0.420439,51.938448],[0.420928,51.93615],[0.422824,51.933266],[0.423,51.931921],[0.421363,51.931988],[0.421551,51.931432],[0.420193,51.93031],[0.421347,51.926274],[0.423396,51.926413],[0.426457,51.925827],[0.428087,51.92586],[0.433016,51.924798],[0.434633,51.920822],[0.435822,51.919765],[0.437302,51.919622],[0.437537,51.9191],[0.439459,51.913113],[0.440033,51.908278],[0.444792,51.904053],[0.448216,51.901544],[0.45051,51.898921],[0.451053,51.899013],[0.451745,51.89828],[0.451148,51.898006],[0.453414,51.894169],[0.455696,51.891377],[0.462737,51.886655],[0.469434,51.880272],[0.470639,51.878181],[0.467205,51.878656],[0.469389,51.877652],[0.472788,51.877306],[0.472389,51.876995],[0.473203,51.876264],[0.479895,51.87401],[0.482693,51.872692],[0.483272,51.871556],[0.48275,51.87035],[0.48187,51.869774],[0.482301,51.869634],[0.48337,51.869722],[0.485035,51.869322],[0.490796,51.870386],[0.491564,51.869746],[0.494726,51.869581],[0.495825,51.867375],[0.501272,51.864633],[0.502687,51.86527],[0.503275,51.86485],[0.50585,51.865579],[0.508048,51.864507],[0.513505,51.864397],[0.513539,51.863799],[0.511766,51.860637],[0.512134,51.857273],[0.511442,51.855546],[0.512093,51.854408],[0.513804,51.853168],[0.519262,51.850449],[0.517694,51.849672],[0.51771,51.849207],[0.512512,51.848234],[0.506815,51.848155],[0.502079,51.846694],[0.500304,51.845504],[0.495899,51.844744],[0.492519,51.843277],[0.488901,51.842561],[0.486799,51.842649],[0.487342,51.841533],[0.486423,51.839927],[0.475197,51.840474],[0.467116,51.839588],[0.467098,51.839088],[0.465343,51.838702],[0.464731,51.837146],[0.461906,51.834605],[0.459343,51.835423],[0.453055,51.83463],[0.451376,51.833967],[0.449695,51.830183],[0.448537,51.830011],[0.447075,51.829123],[0.445773,51.828879],[0.443235,51.829392],[0.441109,51.830475],[0.440606,51.830808],[0.440118,51.832195],[0.439457,51.832462],[0.436706,51.831265],[0.434422,51.83104],[0.434117,51.831333],[0.43137,51.831647],[0.430566,51.833212],[0.430742,51.834209],[0.431652,51.835261],[0.431474,51.836104],[0.430657,51.836942],[0.428043,51.838363],[0.426862,51.840203],[0.427519,51.840577],[0.426798,51.840716],[0.42607,51.84151],[0.426399,51.841934],[0.425661,51.842434],[0.426111,51.842754],[0.425678,51.843297],[0.422579,51.844963],[0.423466,51.846109],[0.424056,51.846236],[0.424276,51.846929],[0.424482,51.848417],[0.424046,51.849429],[0.424774,51.851324],[0.424078,51.854073],[0.423152,51.854683],[0.420069,51.855114],[0.418119,51.857257],[0.416755,51.857478],[0.414449,51.856663],[0.413172,51.856659],[0.412996,51.856323],[0.415059,51.853546],[0.414626,51.849626],[0.413767,51.848542],[0.413922,51.845565],[0.412811,51.845616],[0.412906,51.844265],[0.412052,51.844044],[0.411986,51.84373],[0.411147,51.84494],[0.411745,51.8458],[0.40799,51.846188],[0.406631,51.843978],[0.405342,51.842866],[0.40432,51.842756],[0.403546,51.840198],[0.409986,51.836577],[0.407965,51.83571],[0.406564,51.835487],[0.409507,51.834817],[0.410874,51.834182],[0.411076,51.833373],[0.410662,51.832361],[0.407926,51.831655],[0.406365,51.83085],[0.406352,51.828732],[0.407089,51.825407],[0.408623,51.823513],[0.41074,51.821898],[0.410821,51.819615],[0.412983,51.818066],[0.414634,51.816053],[0.414398,51.814345],[0.414102,51.814064],[0.413637,51.814151],[0.413053,51.813216],[0.410701,51.81299],[0.410213,51.81326],[0.408076,51.812807],[0.407833,51.813287],[0.404952,51.812489],[0.406868,51.810412],[0.407069,51.808414],[0.404931,51.80778],[0.404615,51.807422],[0.402304,51.807713],[0.403272,51.81136],[0.404171,51.811505],[0.403579,51.812864],[0.40003,51.812762],[0.398923,51.809153],[0.398877,51.807497],[0.397334,51.807155],[0.394085,51.807106],[0.391558,51.805774],[0.391473,51.805064],[0.390006,51.805086],[0.389902,51.803888],[0.388333,51.803541],[0.388512,51.801606],[0.388009,51.799718],[0.38737,51.799781],[0.386832,51.798501],[0.384744,51.798799],[0.384165,51.797074],[0.380936,51.79726],[0.378596,51.797649],[0.378318,51.797988],[0.378504,51.798831],[0.381475,51.798211],[0.382787,51.799819],[0.379227,51.800388],[0.3788,51.799957],[0.374529,51.800834],[0.369681,51.799217],[0.368409,51.799149],[0.366635,51.799346],[0.366457,51.799627],[0.364758,51.799656],[0.36157,51.80115],[0.36046,51.800124],[0.361731,51.798395],[0.359045,51.79813],[0.359512,51.796271],[0.362303,51.795673],[0.362617,51.794907],[0.358918,51.794528],[0.358781,51.793983],[0.35474,51.793493],[0.350158,51.794022],[0.34682,51.793502],[0.340581,51.794478],[0.33983,51.792791],[0.337931,51.791412],[0.337699,51.790261],[0.338262,51.789085],[0.340699,51.788037],[0.340769,51.786437],[0.334954,51.785711],[0.33532,51.784752],[0.335091,51.783746],[0.334353,51.783126],[0.334142,51.781666],[0.3335,51.781116],[0.332636,51.780975],[0.332198,51.779629],[0.332543,51.778931],[0.333694,51.778814],[0.335264,51.775922],[0.340517,51.774114],[0.344463,51.774041],[0.346261,51.773242],[0.348102,51.7732],[0.347805,51.771357],[0.348283,51.768883],[0.347926,51.768233],[0.3467,51.767596],[0.340548,51.767319],[0.338854,51.767906],[0.336109,51.768312],[0.327299,51.769169],[0.325319,51.769689],[0.324979,51.770507],[0.323813,51.770053],[0.321639,51.769933],[0.322349,51.772025],[0.320082,51.772563],[0.319599,51.772604],[0.318469,51.769935],[0.312966,51.768842],[0.312288,51.770328],[0.307909,51.770178],[0.307302,51.769907],[0.303306,51.771575],[0.299366,51.77186],[0.298901,51.77225],[0.298597,51.773724],[0.299145,51.774334],[0.302053,51.775442],[0.30283,51.777407],[0.302228,51.777833],[0.302336,51.778717],[0.299999,51.779097],[0.297911,51.779821],[0.297275,51.780492],[0.296456,51.780561],[0.297273,51.782062],[0.29685,51.782603],[0.29829,51.783342],[0.298554,51.784182],[0.298234,51.784437],[0.299199,51.78517],[0.298344,51.785437],[0.297899,51.787702],[0.29736,51.788164],[0.297696,51.788573],[0.296729,51.788786],[0.297461,51.789966],[0.295617,51.790265],[0.292607,51.789856],[0.290356,51.789145],[0.287759,51.788926],[0.285185,51.789467],[0.284466,51.789105],[0.281386,51.789497],[0.280088,51.788931],[0.277699,51.789105],[0.274135,51.787651],[0.267993,51.787164],[0.26759,51.786214],[0.266159,51.785606],[0.263799,51.785274],[0.262509,51.784404],[0.259132,51.784145],[0.258413,51.783595],[0.257499,51.78187],[0.253824,51.781725],[0.250169,51.780887],[0.242615,51.780669],[0.237678,51.779775],[0.236539,51.782198],[0.23684,51.786133],[0.237431,51.786721],[0.240913,51.788387],[0.238352,51.788618],[0.237911,51.787888],[0.237327,51.787835],[0.235747,51.788635],[0.234894,51.789645],[0.235819,51.791078],[0.233767,51.791038],[0.23311,51.791392],[0.232629,51.793721],[0.231482,51.795151],[0.225747,51.794494],[0.226773,51.795881],[0.224195,51.796575],[0.224069,51.796844],[0.222104,51.796854],[0.221992,51.798508],[0.218645,51.798154],[0.212413,51.796984],[0.213762,51.794043],[0.21038,51.792691],[0.207332,51.792099],[0.205945,51.793201],[0.203317,51.794138],[0.201841,51.795427],[0.201172,51.795377],[0.199685,51.796533],[0.198712,51.796567],[0.19796,51.795925],[0.196634,51.795797],[0.195028,51.797666],[0.195054,51.79809],[0.194155,51.798571],[0.195248,51.800065],[0.195449,51.80113],[0.192593,51.804738],[0.192814,51.806293],[0.192394,51.808077],[0.190773,51.80966],[0.192102,51.812404],[0.192167,51.813694],[0.190023,51.815045],[0.188389,51.819646],[0.184577,51.82016],[0.179709,51.8203],[0.176244,51.82001],[0.17497,51.820531],[0.166252,51.822154],[0.163554,51.822938],[0.16343,51.822748],[0.162236,51.825206],[0.161575,51.825255],[0.161209,51.825947],[0.161574,51.827601],[0.163013,51.828806],[0.165406,51.829545],[0.166123,51.830707],[0.165221,51.831903],[0.163381,51.831816],[0.161698,51.832134],[0.161915,51.833065],[0.160906,51.834052],[0.16158,51.835947],[0.161819,51.840753],[0.163117,51.844691],[0.165166,51.846934],[0.164774,51.847637],[0.16486,51.849671],[0.167142,51.850751],[0.17084,51.849711],[0.173398,51.84977],[0.173535,51.85137],[0.171199,51.852382],[0.173064,51.854281],[0.169463,51.856014],[0.171537,51.856619],[0.171192,51.857029],[0.171682,51.857157],[0.171215,51.857606],[0.172407,51.858015],[0.170468,51.861622],[0.174348,51.862065],[0.177913,51.863036],[0.182814,51.86356],[0.181994,51.86464],[0.18274,51.865095],[0.185014,51.864746],[0.18548,51.865156],[0.186372,51.863514],[0.187538,51.864194],[0.187091,51.864976],[0.19425,51.865778],[0.195614,51.868118],[0.194036,51.869624],[0.194284,51.869917],[0.193625,51.871642],[0.190898,51.871899],[0.192903,51.872278],[0.193727,51.873201],[0.188493,51.874828],[0.18617,51.876477],[0.185014,51.878388],[0.182938,51.878405],[0.181828,51.879625],[0.180392,51.880476],[0.177279,51.881021],[0.176677,51.881613],[0.177095,51.882044],[0.174917,51.882785],[0.176995,51.884428],[0.175488,51.884898],[0.1764,51.8855],[0.178003,51.885939],[0.177193,51.886857],[0.176039,51.887277],[0.177108,51.887522],[0.17818,51.888232],[0.179666,51.88978],[0.18224,51.890619],[0.182375,51.891912],[0.182889,51.891999],[0.183901,51.893367],[0.183665,51.893641],[0.180575,51.89389],[0.17987,51.895333],[0.179349,51.895554],[0.175388,51.894616],[0.167739,51.894137],[0.16899,51.891799],[0.165742,51.891197],[0.164643,51.891934],[0.163231,51.891548],[0.162206,51.892089],[0.156263,51.889757],[0.150431,51.888225],[0.146982,51.886699],[0.146163,51.887143],[0.141503,51.888196],[0.141257,51.887349],[0.139385,51.88734],[0.139584,51.885383],[0.13231,51.8846],[0.132368,51.884323],[0.129228,51.883929],[0.12762,51.883946],[0.127237,51.884968],[0.124761,51.884586],[0.123826,51.889304],[0.124784,51.892428],[0.123869,51.897473],[0.12277,51.900553],[0.12351,51.903083],[0.121765,51.911195],[0.122348,51.91585],[0.122922,51.91733],[0.122604,51.919192],[0.124258,51.921669],[0.12486,51.923539],[0.124451,51.924015],[0.12114,51.925265],[0.12027,51.926569],[0.12035,51.927151],[0.121831,51.92856],[0.121127,51.930331],[0.118633,51.933992],[0.118786,51.937581],[0.118187,51.940909],[0.118432,51.947261],[0.116778,51.951589],[0.116019,51.953067],[0.114925,51.954122],[0.114736,51.955836],[0.113759,51.957128],[0.111245,51.958994],[0.110606,51.960172],[0.106421,51.962625],[0.10561,51.963486],[0.104348,51.965999],[0.104757,51.967245],[0.104503,51.967732],[0.105551,51.970113],[0.107012,51.971818],[0.101523,51.976167],[0.099285,51.976518],[0.097845,51.97721],[0.097418,51.978847],[0.098288,51.980544],[0.098097,51.98234],[0.096461,51.984326],[0.083999,51.98137],[0.076845,51.980812],[0.071923,51.981547],[0.069445,51.982986],[0.069061,51.984043],[0.071018,51.984956],[0.07247,51.987414],[0.073058,51.992208],[0.073806,51.994268],[0.074322,52.000861],[0.07415,52.001407],[0.072195,52.002702],[0.071021,52.00274],[0.070196,52.004362],[0.068156,52.005763],[0.069682,52.006173],[0.070074,52.007434],[0.07125,52.008237],[0.07577,52.007181],[0.080626,52.008215],[0.082276,52.010053],[0.083106,52.011533],[0.083248,52.013584],[0.085424,52.01483],[0.085211,52.016212],[0.089542,52.019959],[0.092254,52.021654],[0.0908,52.02254],[0.091737,52.024964],[0.091196,52.025185],[0.094701,52.029028],[0.092979,52.030226],[0.093638,52.030662],[0.094195,52.032874],[0.09491,52.033725],[0.096428,52.034423],[0.101147,52.038852],[0.100377,52.041804],[0.101417,52.045492],[0.103055,52.047568],[0.104763,52.048728],[0.104974,52.049661],[0.105976,52.049739],[0.104971,52.057743],[0.105736,52.060261],[0.109539,52.059997],[0.114569,52.060601],[0.119078,52.059963],[0.121961,52.057387],[0.122898,52.057566],[0.124938,52.054126],[0.127593,52.051899],[0.128264,52.050002],[0.128135,52.047323],[0.130424,52.048439],[0.13123,52.048362],[0.131693,52.048712],[0.132567,52.048349],[0.133764,52.049148],[0.134245,52.048927],[0.136617,52.050005],[0.142474,52.050826],[0.151147,52.052872],[0.152634,52.050318],[0.160578,52.052099],[0.161425,52.049768],[0.160757,52.04844],[0.166396,52.048191],[0.166364,52.051562],[0.167285,52.051764],[0.16757,52.055],[0.174107,52.055581],[0.175478,52.056144],[0.176285,52.056121],[0.176712,52.05693],[0.177729,52.056959],[0.177998,52.057323],[0.181523,52.056686],[0.181858,52.05694],[0.186373,52.056661],[0.189922,52.060201],[0.188365,52.0609],[0.189916,52.0622],[0.186864,52.065678],[0.183194,52.073183],[0.184463,52.073557],[0.184562,52.073854],[0.193591,52.07514],[0.19397,52.075481],[0.199277,52.085886],[0.200592,52.087397],[0.203459,52.092674],[0.213005,52.091023],[0.213101,52.090386],[0.215967,52.08998],[0.224193,52.089252],[0.229447,52.089801],[0.235208,52.089],[0.244113,52.083018],[0.246351,52.082057],[0.24752,52.079111],[0.251573,52.076786],[0.252027,52.077063],[0.252383,52.078219],[0.254081,52.080035],[0.264795,52.084757],[0.269061,52.087541],[0.271828,52.090061],[0.275263,52.091076],[0.276231,52.092658],[0.286432,52.09025],[0.292168,52.088165],[0.302386,52.082598],[0.308702,52.080284],[0.310281,52.078863],[0.311065,52.076944],[0.312098,52.076905],[0.312081,52.076551],[0.316769,52.076105],[0.321948,52.074302]]]}}]}