{"type":"FeatureCollection","features":[{"type":"Feature","properties":{"slug":"vale-of-white-horse","gss_code":"E07000180","name":"Vale of White Horse"},"geometry":{"type":"Polygon","coordinates":[[[-1.306314,51.789069],[-1.305695,51.7897],[-1.304721,51.789625],[-1.305626,51.788693],[-1.305321,51.788448],[-1.305226,51.788821],[-1.30525,51.788432],[-1.304055,51.787632],[-1.305109,51.786667],[-1.303364,51.785913],[-1.305391,51.785293],[-1.30426,51.784041],[-1.304781,51.783155],[-1.30395,51.781549],[-1.30282,51.780965],[-1.304199,51.776603],[-1.30367,51.772637],[-1.3012,51.76816],[-1.29681,51.7623],[-1.295541,51.759128],[-1.29523,51.756545],[-1.293345,51.755399],[-1.293228,51.753475],[-1.290723,51.753319],[-1.290836,51.750887],[-1.288787,51.748998],[-1.28718,51.747947],[-1.285266,51.747209],[-1.284142,51.74631],[-1.282308,51.745958],[-1.281053,51.745335],[-1.278755,51.745512],[-1.27585,51.74365],[-1.272021,51.742956],[-1.271511,51.743332],[-1.269669,51.74321],[-1.269289,51.742701],[-1.267841,51.742712],[-1.267487,51.741846],[-1.265462,51.741215],[-1.264217,51.739433],[-1.263192,51.739322],[-1.262732,51.738372],[-1.261319,51.737539],[-1.259463,51.735734],[-1.258664,51.735808],[-1.256736,51.733453],[-1.255806,51.733133],[-1.253293,51.730695],[-1.252945,51.729926],[-1.253988,51.729284],[-1.253061,51.728267],[-1.253509,51.727972],[-1.24867,51.728042],[-1.247645,51.728307],[-1.246668,51.727527],[-1.246126,51.727266],[-1.245913,51.727448],[-1.24131,51.72516],[-1.242621,51.721021],[-1.239378,51.717822],[-1.237336,51.717969],[-1.236896,51.715728],[-1.235419,51.714835],[-1.234913,51.713043],[-1.233576,51.711793],[-1.235319,51.711449],[-1.234429,51.709745],[-1.234689,51.707651],[-1.234135,51.707291],[-1.232929,51.70745],[-1.233146,51.70409],[-1.231346,51.70365],[-1.230653,51.702891],[-1.229957,51.700133],[-1.230114,51.699618],[-1.230824,51.69931],[-1.229004,51.696688],[-1.226197,51.694449],[-1.225426,51.693389],[-1.224118,51.692616],[-1.223264,51.691509],[-1.222084,51.68824],[-1.222368,51.686014],[-1.221753,51.68462],[-1.223081,51.682865],[-1.224618,51.681728],[-1.226256,51.678654],[-1.226874,51.675982],[-1.227736,51.675399],[-1.230321,51.674824],[-1.230882,51.67285],[-1.234926,51.671052],[-1.241262,51.669352],[-1.242786,51.668353],[-1.246689,51.66717],[-1.250817,51.66656],[-1.258356,51.66736],[-1.260144,51.669204],[-1.261631,51.669449],[-1.263259,51.670238],[-1.264121,51.669816],[-1.268195,51.67029],[-1.268955,51.669973],[-1.269542,51.670285],[-1.277404,51.668889],[-1.279183,51.667863],[-1.280194,51.667661],[-1.280117,51.667238],[-1.283799,51.66587],[-1.281571,51.659992],[-1.279384,51.658832],[-1.279554,51.658593],[-1.278644,51.658037],[-1.279656,51.656554],[-1.281127,51.653053],[-1.2832,51.650011],[-1.284216,51.650402],[-1.285154,51.649746],[-1.285724,51.650335],[-1.286557,51.650172],[-1.286946,51.649184],[-1.288634,51.648586],[-1.289454,51.646868],[-1.287769,51.64584],[-1.287123,51.642806],[-1.280428,51.643037],[-1.28003,51.644173],[-1.273861,51.645204],[-1.274138,51.645675],[-1.272948,51.646151],[-1.273339,51.646836],[-1.272727,51.647331],[-1.271058,51.647294],[-1.26969,51.647742],[-1.267253,51.647908],[-1.26612,51.64861],[-1.265613,51.649609],[-1.26322,51.650098],[-1.258288,51.649052],[-1.253342,51.64754],[-1.251205,51.64658],[-1.244352,51.645351],[-1.242459,51.64455],[-1.24224,51.645181],[-1.238471,51.643258],[-1.23733,51.643379],[-1.236685,51.642683],[-1.232585,51.641546],[-1.229007,51.641103],[-1.225777,51.641194],[-1.222533,51.641529],[-1.221877,51.642356],[-1.220273,51.642996],[-1.219323,51.642644],[-1.219095,51.641755],[-1.220735,51.639974],[-1.22175,51.639913],[-1.235473,51.630176],[-1.235666,51.629593],[-1.242018,51.624252],[-1.243067,51.622517],[-1.245903,51.623178],[-1.249255,51.623379],[-1.251988,51.623018],[-1.254162,51.622093],[-1.255724,51.620718],[-1.257204,51.617108],[-1.263811,51.618582],[-1.264921,51.619217],[-1.265694,51.618604],[-1.266242,51.617148],[-1.266359,51.614797],[-1.269828,51.61367],[-1.27327,51.611635],[-1.272786,51.610114],[-1.270482,51.609722],[-1.268929,51.608845],[-1.26912,51.608515],[-1.265731,51.607178],[-1.266085,51.604205],[-1.265063,51.603753],[-1.271526,51.600231],[-1.270784,51.599296],[-1.270634,51.598244],[-1.283967,51.586908],[-1.288677,51.581312],[-1.290225,51.577897],[-1.287659,51.577892],[-1.287637,51.578215],[-1.28696,51.578225],[-1.286391,51.575916],[-1.285712,51.575276],[-1.285413,51.575422],[-1.284129,51.574854],[-1.282557,51.576265],[-1.273632,51.581232],[-1.271134,51.583106],[-1.270475,51.584064],[-1.269389,51.58456],[-1.264718,51.584599],[-1.257998,51.583931],[-1.252995,51.584524],[-1.23341,51.582727],[-1.232734,51.582597],[-1.230062,51.580327],[-1.227779,51.581565],[-1.226961,51.581307],[-1.226814,51.582282],[-1.224813,51.581337],[-1.224315,51.581501],[-1.224268,51.58264],[-1.223637,51.583179],[-1.221679,51.58446],[-1.220815,51.584477],[-1.220891,51.584853],[-1.220252,51.584609],[-1.220835,51.585078],[-1.220195,51.585162],[-1.220223,51.585827],[-1.21904,51.585886],[-1.216758,51.587108],[-1.216446,51.586907],[-1.215588,51.587925],[-1.214121,51.588818],[-1.210664,51.589137],[-1.209822,51.589646],[-1.209643,51.58933],[-1.208677,51.589683],[-1.209089,51.590522],[-1.208851,51.591221],[-1.207991,51.591074],[-1.207758,51.591389],[-1.204563,51.592129],[-1.20428,51.591883],[-1.204017,51.592187],[-1.203339,51.590657],[-1.202274,51.590129],[-1.202369,51.589759],[-1.203091,51.58973],[-1.202679,51.589297],[-1.207648,51.579538],[-1.211693,51.573038],[-1.212389,51.572861],[-1.212161,51.572512],[-1.212635,51.572327],[-1.211772,51.570904],[-1.213961,51.57056],[-1.213892,51.569776],[-1.214234,51.569716],[-1.217201,51.564031],[-1.219149,51.562579],[-1.220632,51.560526],[-1.221765,51.560375],[-1.220731,51.557288],[-1.222787,51.551981],[-1.223675,51.552065],[-1.227974,51.546867],[-1.228703,51.543721],[-1.228705,51.541421],[-1.226792,51.535158],[-1.229941,51.534614],[-1.233838,51.536294],[-1.240165,51.537658],[-1.245316,51.53775],[-1.256457,51.537018],[-1.260656,51.53779],[-1.267893,51.542168],[-1.2702,51.54462],[-1.280325,51.546755],[-1.283757,51.548623],[-1.285521,51.548331],[-1.286536,51.551574],[-1.287596,51.552897],[-1.289496,51.552395],[-1.294265,51.553938],[-1.297202,51.552931],[-1.297491,51.553416],[-1.301944,51.555065],[-1.302807,51.555856],[-1.302805,51.556396],[-1.303453,51.556662],[-1.307968,51.556852],[-1.309514,51.557212],[-1.310699,51.557005],[-1.311932,51.557316],[-1.315489,51.557357],[-1.320297,51.559015],[-1.326281,51.55964],[-1.327865,51.562845],[-1.328721,51.563712],[-1.333134,51.560377],[-1.334785,51.554872],[-1.336443,51.552834],[-1.337002,51.550892],[-1.33807,51.549305],[-1.3383,51.547511],[-1.337951,51.545777],[-1.34125,51.544057],[-1.343988,51.543378],[-1.34683,51.544013],[-1.350361,51.546884],[-1.358781,51.546606],[-1.361172,51.547984],[-1.363176,51.550044],[-1.365511,51.551143],[-1.367321,51.552467],[-1.369015,51.552208],[-1.372826,51.550576],[-1.377951,51.549687],[-1.37696,51.545779],[-1.380699,51.542259],[-1.383779,51.540426],[-1.388903,51.53989],[-1.392459,51.540424],[-1.39585,51.540345],[-1.398215,51.543423],[-1.400287,51.544765],[-1.404328,51.546309],[-1.404858,51.547235],[-1.409885,51.544702],[-1.413787,51.54208],[-1.416211,51.539649],[-1.41749,51.538819],[-1.418023,51.538975],[-1.419337,51.537724],[-1.422769,51.535765],[-1.425647,51.54201],[-1.426591,51.545599],[-1.430993,51.542585],[-1.437134,51.540008],[-1.439649,51.539565],[-1.447832,51.536427],[-1.454928,51.535378],[-1.456757,51.535458],[-1.461841,51.536478],[-1.463207,51.537211],[-1.464423,51.538517],[-1.464787,51.537949],[-1.464799,51.534788],[-1.462988,51.530191],[-1.470744,51.528607],[-1.470711,51.530009],[-1.476252,51.530781],[-1.476533,51.53218],[-1.477071,51.532647],[-1.485857,51.534079],[-1.488016,51.536244],[-1.487583,51.538893],[-1.486032,51.540566],[-1.489564,51.542811],[-1.495889,51.545662],[-1.501229,51.546695],[-1.504741,51.546659],[-1.508943,51.549064],[-1.512939,51.55076],[-1.514593,51.551159],[-1.521307,51.550896],[-1.530719,51.548096],[-1.530184,51.54693],[-1.530959,51.546069],[-1.532313,51.547192],[-1.534784,51.548385],[-1.540273,51.549517],[-1.540243,51.550952],[-1.541453,51.552059],[-1.542955,51.552325],[-1.547075,51.551397],[-1.547401,51.553083],[-1.555008,51.553371],[-1.55637,51.553006],[-1.561031,51.550203],[-1.566177,51.545569],[-1.569536,51.547531],[-1.570007,51.54738],[-1.570238,51.544512],[-1.569359,51.543283],[-1.576682,51.539062],[-1.581187,51.536995],[-1.581517,51.534467],[-1.583341,51.528316],[-1.585141,51.525667],[-1.58449,51.525232],[-1.584695,51.524922],[-1.587914,51.52486],[-1.5891,51.524491],[-1.590032,51.521739],[-1.592099,51.521485],[-1.594123,51.520133],[-1.594042,51.519779],[-1.59806,51.518697],[-1.602825,51.51831],[-1.603475,51.520345],[-1.604539,51.520481],[-1.604898,51.522868],[-1.607817,51.527262],[-1.608314,51.528851],[-1.612879,51.534209],[-1.613721,51.536511],[-1.615415,51.536726],[-1.615346,51.5381],[-1.617818,51.539159],[-1.622298,51.542307],[-1.623589,51.543602],[-1.62302,51.544202],[-1.625377,51.54554],[-1.624779,51.546043],[-1.627193,51.547372],[-1.626938,51.547571],[-1.631246,51.551814],[-1.630826,51.552065],[-1.632039,51.553158],[-1.633125,51.552558],[-1.634132,51.553266],[-1.633872,51.553402],[-1.63485,51.554094],[-1.637241,51.557335],[-1.638957,51.558907],[-1.638547,51.559101],[-1.638717,51.559365],[-1.643866,51.564198],[-1.646607,51.569236],[-1.646093,51.570072],[-1.647686,51.571935],[-1.652144,51.574176],[-1.655043,51.576493],[-1.658391,51.574158],[-1.662485,51.573504],[-1.673398,51.570521],[-1.676548,51.569391],[-1.67824,51.570182],[-1.679289,51.571409],[-1.680286,51.571739],[-1.679873,51.57211],[-1.68043,51.572153],[-1.680376,51.572487],[-1.681424,51.572116],[-1.681676,51.5727],[-1.682574,51.572481],[-1.682565,51.572725],[-1.683386,51.572804],[-1.683141,51.572975],[-1.684009,51.572805],[-1.683502,51.573244],[-1.684708,51.57383],[-1.684602,51.574901],[-1.685128,51.57466],[-1.685391,51.575967],[-1.688337,51.578831],[-1.689134,51.581874],[-1.691111,51.583524],[-1.689019,51.586171],[-1.687367,51.586709],[-1.686971,51.587346],[-1.685373,51.587597],[-1.685658,51.587934],[-1.685165,51.588019],[-1.685728,51.588415],[-1.684957,51.588329],[-1.684953,51.588675],[-1.685687,51.588973],[-1.685743,51.58956],[-1.684756,51.590327],[-1.685429,51.59054],[-1.684918,51.590927],[-1.685504,51.590971],[-1.685045,51.591829],[-1.685442,51.592299],[-1.684841,51.59236],[-1.684965,51.592755],[-1.685668,51.59247],[-1.685432,51.593681],[-1.686498,51.593562],[-1.686319,51.594188],[-1.686847,51.594253],[-1.687044,51.594821],[-1.68758,51.594685],[-1.687916,51.595454],[-1.687491,51.595685],[-1.687819,51.597363],[-1.687512,51.597456],[-1.688092,51.597967],[-1.687967,51.598369],[-1.688453,51.598498],[-1.687794,51.599352],[-1.688414,51.599431],[-1.6881,51.59979],[-1.687505,51.599542],[-1.687321,51.600119],[-1.688755,51.601133],[-1.688597,51.601543],[-1.689285,51.601536],[-1.689524,51.601187],[-1.689642,51.601635],[-1.690646,51.601514],[-1.690875,51.601865],[-1.690418,51.602474],[-1.689792,51.602583],[-1.690305,51.603769],[-1.690968,51.603869],[-1.690595,51.605411],[-1.688258,51.606562],[-1.688432,51.607072],[-1.686988,51.607378],[-1.685274,51.608576],[-1.684017,51.608727],[-1.682509,51.609396],[-1.68174,51.611752],[-1.682245,51.611817],[-1.682689,51.612446],[-1.681082,51.613656],[-1.680609,51.613464],[-1.679223,51.613796],[-1.678644,51.613312],[-1.67824,51.613439],[-1.677813,51.612453],[-1.677381,51.612444],[-1.677338,51.612768],[-1.676563,51.612375],[-1.67633,51.611787],[-1.674919,51.611731],[-1.672331,51.612927],[-1.671842,51.61352],[-1.669997,51.614063],[-1.669357,51.615178],[-1.66699,51.616219],[-1.667051,51.617874],[-1.668342,51.618612],[-1.669938,51.618998],[-1.669694,51.619402],[-1.67066,51.619362],[-1.671294,51.619952],[-1.672384,51.620298],[-1.672101,51.620697],[-1.67335,51.621396],[-1.672969,51.622037],[-1.673163,51.622614],[-1.673729,51.622836],[-1.672719,51.623022],[-1.670846,51.625055],[-1.668831,51.626024],[-1.668625,51.626566],[-1.669124,51.627496],[-1.668412,51.627847],[-1.668474,51.628339],[-1.667521,51.628533],[-1.667233,51.629127],[-1.66687,51.628929],[-1.66516,51.630028],[-1.663894,51.630356],[-1.663431,51.630749],[-1.663659,51.63107],[-1.662742,51.631293],[-1.659924,51.635016],[-1.661677,51.637129],[-1.662288,51.638599],[-1.663203,51.639211],[-1.662758,51.63951],[-1.663254,51.63989],[-1.664498,51.640348],[-1.670585,51.640771],[-1.672354,51.64149],[-1.674196,51.641158],[-1.675628,51.641415],[-1.675634,51.64174],[-1.674897,51.641884],[-1.674799,51.642199],[-1.677408,51.643224],[-1.677993,51.644298],[-1.679673,51.644722],[-1.679955,51.646625],[-1.680855,51.646973],[-1.680735,51.647353],[-1.681475,51.647485],[-1.681306,51.647985],[-1.681775,51.648641],[-1.682604,51.648851],[-1.682924,51.649397],[-1.683336,51.649244],[-1.683202,51.650145],[-1.684103,51.650494],[-1.684483,51.650191],[-1.684915,51.651034],[-1.685867,51.650764],[-1.685681,51.65177],[-1.686588,51.651921],[-1.686227,51.652348],[-1.689245,51.652568],[-1.691886,51.652162],[-1.691514,51.652645],[-1.692588,51.653101],[-1.69259,51.653489],[-1.691306,51.654133],[-1.690791,51.653911],[-1.690578,51.654754],[-1.688806,51.655797],[-1.688469,51.656818],[-1.689225,51.65738],[-1.68906,51.658333],[-1.689562,51.658497],[-1.689828,51.659311],[-1.689148,51.659563],[-1.689537,51.661106],[-1.690978,51.662385],[-1.690616,51.663756],[-1.691433,51.66433],[-1.69104,51.664542],[-1.691646,51.664959],[-1.69233,51.664907],[-1.694186,51.666441],[-1.694094,51.668796],[-1.695787,51.668742],[-1.697705,51.6696],[-1.698922,51.669459],[-1.700212,51.670883],[-1.700102,51.672278],[-1.699135,51.672878],[-1.698406,51.67417],[-1.69874,51.676454],[-1.697676,51.677477],[-1.695422,51.678066],[-1.694777,51.678599],[-1.69505,51.679646],[-1.69628,51.680095],[-1.69679,51.681017],[-1.696444,51.682148],[-1.694924,51.683282],[-1.693143,51.683913],[-1.692763,51.68466],[-1.692936,51.685692],[-1.69108,51.686682],[-1.691057,51.687286],[-1.688238,51.687752],[-1.687351,51.68888],[-1.686428,51.689295],[-1.683904,51.688782],[-1.683873,51.689636],[-1.683135,51.690126],[-1.681338,51.690397],[-1.679113,51.689397],[-1.679184,51.68916],[-1.677634,51.688892],[-1.677325,51.689149],[-1.676015,51.688407],[-1.675008,51.687328],[-1.676025,51.686847],[-1.673769,51.684767],[-1.673863,51.683984],[-1.67439,51.683709],[-1.676264,51.684211],[-1.675208,51.682535],[-1.674649,51.682223],[-1.67354,51.68224],[-1.672653,51.682702],[-1.672029,51.681948],[-1.669079,51.681271],[-1.668459,51.680438],[-1.667113,51.68104],[-1.665862,51.68105],[-1.66531,51.681776],[-1.663293,51.681295],[-1.662167,51.68154],[-1.66228,51.680757],[-1.66189,51.680363],[-1.660551,51.681289],[-1.659563,51.680756],[-1.655577,51.681808],[-1.652655,51.681525],[-1.6468,51.684798],[-1.642847,51.685585],[-1.641399,51.685383],[-1.639141,51.686808],[-1.636606,51.686764],[-1.635345,51.687556],[-1.634062,51.687025],[-1.633509,51.686319],[-1.631484,51.685785],[-1.629914,51.684936],[-1.630294,51.684019],[-1.628302,51.68385],[-1.624567,51.684753],[-1.623711,51.685358],[-1.622177,51.685816],[-1.614845,51.687686],[-1.611957,51.689924],[-1.609909,51.690679],[-1.608332,51.690851],[-1.607189,51.691899],[-1.606045,51.692256],[-1.603876,51.691539],[-1.60397,51.690886],[-1.602413,51.690494],[-1.601298,51.689587],[-1.601059,51.688859],[-1.598444,51.687934],[-1.59415,51.690254],[-1.59169,51.691025],[-1.588081,51.692707],[-1.585517,51.693216],[-1.584675,51.693047],[-1.58459,51.693476],[-1.585014,51.693475],[-1.583942,51.69508],[-1.580118,51.696121],[-1.578884,51.696855],[-1.579114,51.697653],[-1.576982,51.699585],[-1.574852,51.700107],[-1.572058,51.700366],[-1.570815,51.699478],[-1.567298,51.699672],[-1.565619,51.698685],[-1.563725,51.699186],[-1.562808,51.698697],[-1.561573,51.699368],[-1.560357,51.699566],[-1.560057,51.699332],[-1.560909,51.69892],[-1.560807,51.698633],[-1.558195,51.699014],[-1.557102,51.698493],[-1.556586,51.699436],[-1.555439,51.699698],[-1.555055,51.699334],[-1.55274,51.699998],[-1.551911,51.700392],[-1.552138,51.701024],[-1.551619,51.701299],[-1.549743,51.700874],[-1.549695,51.701511],[-1.548748,51.701454],[-1.548349,51.702118],[-1.547482,51.70184],[-1.545188,51.703239],[-1.54445,51.703018],[-1.544253,51.702539],[-1.543885,51.702965],[-1.543268,51.702992],[-1.542879,51.702189],[-1.541086,51.702677],[-1.539963,51.701744],[-1.537433,51.701249],[-1.536694,51.700215],[-1.535657,51.699668],[-1.536157,51.699083],[-1.534276,51.698184],[-1.53152,51.698418],[-1.527105,51.698256],[-1.526068,51.69967],[-1.52403,51.699483],[-1.51711,51.701688],[-1.515851,51.701749],[-1.512831,51.701147],[-1.511402,51.69963],[-1.506933,51.700033],[-1.507209,51.698709],[-1.506018,51.69831],[-1.504101,51.698333],[-1.502645,51.697795],[-1.50152,51.69828],[-1.498641,51.698274],[-1.497228,51.698681],[-1.496801,51.698459],[-1.497262,51.697675],[-1.49661,51.697145],[-1.497027,51.69648],[-1.495864,51.696446],[-1.494812,51.695627],[-1.495517,51.694723],[-1.492126,51.693886],[-1.491219,51.694185],[-1.489866,51.694016],[-1.489074,51.694259],[-1.487935,51.695599],[-1.486591,51.695716],[-1.484829,51.696804],[-1.48275,51.70165],[-1.482153,51.701833],[-1.480682,51.703358],[-1.479037,51.703899],[-1.475652,51.703862],[-1.474201,51.702122],[-1.473184,51.701876],[-1.473772,51.701187],[-1.47306,51.70093],[-1.472828,51.70029],[-1.471436,51.700775],[-1.470945,51.700523],[-1.470942,51.699917],[-1.469352,51.700157],[-1.468981,51.699317],[-1.467835,51.69919],[-1.46755,51.698864],[-1.467376,51.69971],[-1.465681,51.699145],[-1.464076,51.699946],[-1.462868,51.701494],[-1.463058,51.703936],[-1.464392,51.70773],[-1.463277,51.710155],[-1.463845,51.711684],[-1.463157,51.712027],[-1.463313,51.712413],[-1.459009,51.713304],[-1.455375,51.713201],[-1.454428,51.712721],[-1.452838,51.712639],[-1.451526,51.711652],[-1.450488,51.711798],[-1.450392,51.711577],[-1.448948,51.712265],[-1.447912,51.711989],[-1.445244,51.712056],[-1.444052,51.711656],[-1.44298,51.712315],[-1.442066,51.712383],[-1.439981,51.711349],[-1.439406,51.710449],[-1.438282,51.709936],[-1.438606,51.709326],[-1.43943,51.709571],[-1.440005,51.709325],[-1.439881,51.708174],[-1.438587,51.707772],[-1.435417,51.708362],[-1.431561,51.70863],[-1.424578,51.709901],[-1.419292,51.710293],[-1.411515,51.708972],[-1.408892,51.70789],[-1.406318,51.707501],[-1.406528,51.707059],[-1.404292,51.706428],[-1.403433,51.705881],[-1.401149,51.705738],[-1.39192,51.706296],[-1.385757,51.709024],[-1.382276,51.711787],[-1.378927,51.713564],[-1.378028,51.714427],[-1.377574,51.715579],[-1.376315,51.716194],[-1.376167,51.716742],[-1.374686,51.716872],[-1.374218,51.717234],[-1.369178,51.723019],[-1.36862,51.724096],[-1.369568,51.725275],[-1.36905,51.72596],[-1.368745,51.725606],[-1.368147,51.725718],[-1.368142,51.727104],[-1.367212,51.72789],[-1.366993,51.729635],[-1.368384,51.731996],[-1.369465,51.732754],[-1.371016,51.734714],[-1.373724,51.73639],[-1.374072,51.737401],[-1.371193,51.741136],[-1.368738,51.742013],[-1.368396,51.743494],[-1.367195,51.745297],[-1.365357,51.74636],[-1.36506,51.747448],[-1.365396,51.748337],[-1.36763,51.748465],[-1.368198,51.749242],[-1.366561,51.751672],[-1.36776,51.753129],[-1.367303,51.753986],[-1.365264,51.754594],[-1.364587,51.755109],[-1.36472,51.755738],[-1.366307,51.754984],[-1.366653,51.755084],[-1.366617,51.755899],[-1.36528,51.756727],[-1.36604,51.757295],[-1.366372,51.758195],[-1.36601,51.758507],[-1.364704,51.758341],[-1.362685,51.758901],[-1.362784,51.759291],[-1.363941,51.759832],[-1.363167,51.760798],[-1.364596,51.760579],[-1.364716,51.760865],[-1.362795,51.761917],[-1.362674,51.762579],[-1.362006,51.762819],[-1.359644,51.762206],[-1.360092,51.763084],[-1.359097,51.763658],[-1.360349,51.764385],[-1.360353,51.765498],[-1.362071,51.765904],[-1.364221,51.767806],[-1.363196,51.76845],[-1.364032,51.769389],[-1.362795,51.76995],[-1.363382,51.770751],[-1.362495,51.771567],[-1.363489,51.771574],[-1.363811,51.772066],[-1.36323,51.772299],[-1.362129,51.772057],[-1.361246,51.772881],[-1.361512,51.773636],[-1.359521,51.774468],[-1.359993,51.775005],[-1.358704,51.774816],[-1.357227,51.775541],[-1.355768,51.774998],[-1.350864,51.776081],[-1.348453,51.776923],[-1.343547,51.78008],[-1.341625,51.780872],[-1.33892,51.782871],[-1.337611,51.784554],[-1.335533,51.785418],[-1.333074,51.785287],[-1.331513,51.786199],[-1.328442,51.786396],[-1.324711,51.787702],[-1.320372,51.7879],[-1.317824,51.788581],[-1.317415,51.788314],[-1.317761,51.787605],[-1.31633,51.787174],[-1.315164,51.788106],[-1.313168,51.788255],[-1.306483,51.790129],[-1.306314,51.789069]]]}}]}