{"type":"FeatureCollection","features":[{"type":"Feature","properties":{"slug":"wakefield","gss_code":"E08000036","name":"Wakefield"},"geometry":{"type":"Polygon","coordinates":[[[-1.292003,53.738747],[-1.289544,53.736853],[-1.28652,53.735265],[-1.283764,53.732012],[-1.279711,53.729303],[-1.277684,53.726516],[-1.276119,53.7259],[-1.273073,53.725669],[-1.271961,53.724924],[-1.270935,53.723294],[-1.270566,53.720134],[-1.269496,53.717887],[-1.269511,53.715784],[-1.268517,53.714909],[-1.263591,53.71405],[-1.257701,53.711852],[-1.256343,53.71177],[-1.254252,53.712694],[-1.252941,53.712829],[-1.247988,53.711725],[-1.242805,53.712317],[-1.238675,53.712396],[-1.229408,53.71489],[-1.228759,53.714578],[-1.227598,53.712939],[-1.227966,53.710506],[-1.227474,53.710046],[-1.226329,53.709868],[-1.225032,53.710034],[-1.223893,53.710652],[-1.224798,53.71179],[-1.224644,53.712348],[-1.221595,53.712877],[-1.219812,53.714419],[-1.217139,53.711249],[-1.217836,53.709545],[-1.218796,53.709311],[-1.218443,53.707096],[-1.215642,53.706945],[-1.215664,53.706131],[-1.214948,53.706023],[-1.215131,53.70549],[-1.203986,53.702121],[-1.201212,53.701838],[-1.198766,53.700715],[-1.199639,53.698685],[-1.199037,53.696933],[-1.199061,53.694895],[-1.235043,53.692735],[-1.244428,53.692469],[-1.242432,53.680484],[-1.243958,53.67325],[-1.245162,53.673359],[-1.245654,53.672853],[-1.246442,53.672964],[-1.24655,53.672264],[-1.247763,53.672165],[-1.247785,53.671844],[-1.24878,53.671621],[-1.250219,53.669388],[-1.251766,53.667979],[-1.252319,53.666656],[-1.251191,53.662585],[-1.252504,53.662446],[-1.252297,53.661773],[-1.247971,53.656231],[-1.24696,53.655615],[-1.25116,53.651629],[-1.248777,53.649631],[-1.250075,53.648823],[-1.251683,53.648401],[-1.252689,53.648407],[-1.252617,53.648737],[-1.253019,53.648813],[-1.254214,53.648482],[-1.255216,53.648963],[-1.255369,53.644796],[-1.25486,53.644473],[-1.254953,53.643331],[-1.253662,53.641199],[-1.250642,53.638798],[-1.245304,53.635338],[-1.243794,53.634453],[-1.242888,53.634616],[-1.24269,53.633579],[-1.238337,53.627608],[-1.238608,53.627437],[-1.232844,53.621112],[-1.231233,53.61886],[-1.229505,53.618955],[-1.228638,53.618278],[-1.228483,53.617531],[-1.227892,53.617343],[-1.229174,53.616876],[-1.233334,53.616669],[-1.236557,53.617047],[-1.244131,53.6171],[-1.24825,53.616353],[-1.244865,53.608163],[-1.2522,53.607113],[-1.250692,53.604039],[-1.248959,53.601933],[-1.24721,53.600705],[-1.250611,53.599794],[-1.251081,53.600391],[-1.249889,53.600647],[-1.250258,53.601113],[-1.257638,53.599853],[-1.257586,53.599053],[-1.258393,53.598759],[-1.25779,53.59834],[-1.255724,53.599116],[-1.255427,53.598908],[-1.257341,53.598088],[-1.254838,53.596924],[-1.253603,53.59755],[-1.252911,53.597117],[-1.258058,53.594856],[-1.256727,53.593055],[-1.258028,53.591997],[-1.260483,53.591909],[-1.261033,53.5914],[-1.262204,53.591574],[-1.262032,53.591204],[-1.262755,53.591269],[-1.262836,53.590833],[-1.264221,53.591322],[-1.265507,53.590702],[-1.266063,53.5898],[-1.26697,53.590122],[-1.2682,53.589497],[-1.269368,53.589754],[-1.2694,53.59008],[-1.270481,53.589865],[-1.2707,53.590118],[-1.272895,53.590135],[-1.272769,53.5898],[-1.273889,53.589441],[-1.274377,53.589889],[-1.276694,53.58998],[-1.279402,53.587626],[-1.277816,53.586045],[-1.278325,53.585467],[-1.27934,53.585397],[-1.280101,53.584286],[-1.281466,53.583749],[-1.282285,53.58302],[-1.286035,53.582374],[-1.288249,53.580732],[-1.289572,53.580565],[-1.289593,53.580301],[-1.291042,53.579845],[-1.29459,53.579351],[-1.29455,53.579033],[-1.296041,53.578753],[-1.295859,53.578448],[-1.296814,53.577971],[-1.30782,53.575367],[-1.309979,53.575781],[-1.311772,53.576671],[-1.314172,53.576716],[-1.318431,53.577473],[-1.322125,53.579653],[-1.324237,53.579615],[-1.324873,53.579913],[-1.326415,53.579325],[-1.328282,53.579133],[-1.333206,53.579409],[-1.335,53.579998],[-1.336344,53.581052],[-1.337909,53.58114],[-1.338748,53.581704],[-1.340303,53.581825],[-1.34115,53.582418],[-1.347767,53.584188],[-1.351434,53.581081],[-1.3539,53.583404],[-1.354591,53.586217],[-1.356372,53.588985],[-1.35462,53.592116],[-1.35612,53.595366],[-1.359926,53.59682],[-1.360227,53.598628],[-1.363845,53.601806],[-1.371425,53.604894],[-1.374462,53.605497],[-1.376703,53.606478],[-1.379024,53.606594],[-1.381601,53.605445],[-1.384179,53.603758],[-1.392769,53.601423],[-1.394216,53.600658],[-1.395331,53.60056],[-1.396136,53.599831],[-1.400185,53.598668],[-1.401816,53.600235],[-1.405251,53.600408],[-1.405961,53.601059],[-1.406868,53.601022],[-1.40725,53.601414],[-1.412755,53.601303],[-1.415294,53.603279],[-1.417512,53.603329],[-1.419026,53.603775],[-1.419012,53.603235],[-1.421618,53.603193],[-1.423278,53.603497],[-1.424896,53.604484],[-1.428784,53.604998],[-1.42946,53.605545],[-1.429196,53.606595],[-1.430071,53.606815],[-1.431922,53.608206],[-1.432442,53.608182],[-1.432015,53.608451],[-1.432925,53.608942],[-1.433446,53.608534],[-1.433945,53.608674],[-1.43426,53.608111],[-1.435546,53.608113],[-1.436557,53.606547],[-1.438008,53.606721],[-1.438448,53.607168],[-1.439193,53.607062],[-1.441876,53.60944],[-1.444647,53.610527],[-1.446852,53.612617],[-1.446898,53.612357],[-1.447631,53.612739],[-1.44804,53.611695],[-1.455507,53.6077],[-1.459073,53.606202],[-1.46042,53.606037],[-1.472954,53.600834],[-1.473996,53.601405],[-1.47486,53.600094],[-1.478569,53.59836],[-1.479286,53.596953],[-1.481258,53.596335],[-1.482906,53.595107],[-1.483918,53.59488],[-1.484313,53.594958],[-1.485089,53.597001],[-1.489492,53.596241],[-1.492134,53.596993],[-1.492911,53.598959],[-1.491581,53.602769],[-1.49512,53.60319],[-1.496562,53.597374],[-1.501388,53.599833],[-1.507225,53.597692],[-1.508048,53.5983],[-1.50838,53.598192],[-1.51046,53.597486],[-1.509857,53.59699],[-1.510364,53.596861],[-1.510871,53.597214],[-1.512904,53.597002],[-1.515877,53.597973],[-1.516282,53.597739],[-1.517739,53.598637],[-1.518671,53.599719],[-1.524353,53.597722],[-1.528381,53.597033],[-1.529833,53.594069],[-1.531241,53.593804],[-1.530286,53.593351],[-1.530781,53.593129],[-1.532135,53.593811],[-1.536431,53.593763],[-1.53632,53.594667],[-1.536955,53.594868],[-1.536555,53.595177],[-1.537926,53.595196],[-1.539269,53.596458],[-1.539777,53.5965],[-1.539809,53.597512],[-1.54118,53.597683],[-1.541792,53.598307],[-1.541603,53.598801],[-1.542433,53.598445],[-1.542952,53.599265],[-1.544663,53.599479],[-1.546437,53.601245],[-1.546548,53.602257],[-1.547865,53.602547],[-1.547327,53.603165],[-1.548983,53.603157],[-1.549892,53.60408],[-1.550705,53.604351],[-1.55707,53.605184],[-1.558735,53.606902],[-1.560104,53.606755],[-1.559772,53.607189],[-1.560453,53.607552],[-1.562918,53.60771],[-1.564644,53.606924],[-1.566155,53.606658],[-1.571984,53.608609],[-1.577205,53.607536],[-1.580441,53.606101],[-1.581175,53.606149],[-1.582008,53.605728],[-1.583532,53.60562],[-1.584552,53.605898],[-1.58579,53.607024],[-1.586453,53.607174],[-1.586089,53.608287],[-1.586868,53.609014],[-1.586688,53.610351],[-1.588469,53.611251],[-1.589469,53.612833],[-1.591633,53.614009],[-1.591911,53.614669],[-1.594664,53.615555],[-1.594228,53.616095],[-1.595896,53.61642],[-1.59571,53.616873],[-1.59853,53.617145],[-1.600698,53.618172],[-1.601785,53.61804],[-1.60175,53.617621],[-1.602358,53.617401],[-1.60252,53.618147],[-1.60284,53.618247],[-1.603065,53.617954],[-1.604219,53.618647],[-1.605452,53.618703],[-1.606096,53.619566],[-1.607514,53.619573],[-1.608221,53.621532],[-1.610037,53.622875],[-1.611701,53.623411],[-1.611867,53.623977],[-1.613676,53.624573],[-1.614572,53.625926],[-1.611958,53.626756],[-1.610276,53.62798],[-1.615693,53.630238],[-1.615637,53.631831],[-1.612139,53.632708],[-1.613584,53.633763],[-1.615797,53.634721],[-1.617192,53.637716],[-1.61944,53.639136],[-1.622037,53.637396],[-1.623165,53.638108],[-1.623768,53.639394],[-1.6226,53.641454],[-1.622716,53.642222],[-1.622198,53.642945],[-1.62078,53.643635],[-1.6192,53.646321],[-1.620834,53.647775],[-1.621815,53.649511],[-1.621621,53.6501],[-1.622454,53.65103],[-1.623374,53.651379],[-1.623979,53.653065],[-1.624879,53.653598],[-1.624744,53.653956],[-1.623238,53.654065],[-1.623128,53.654361],[-1.621596,53.654631],[-1.621323,53.655365],[-1.617771,53.655413],[-1.616742,53.65576],[-1.611125,53.656199],[-1.61048,53.656926],[-1.606307,53.657008],[-1.603149,53.658037],[-1.600173,53.658244],[-1.600362,53.658615],[-1.598459,53.658386],[-1.59714,53.658944],[-1.596564,53.658879],[-1.596121,53.659495],[-1.595233,53.659835],[-1.592592,53.659087],[-1.591847,53.66081],[-1.590882,53.660493],[-1.590309,53.661054],[-1.590561,53.661755],[-1.591415,53.662349],[-1.59123,53.662871],[-1.595138,53.664719],[-1.599115,53.667394],[-1.602879,53.669199],[-1.606716,53.669137],[-1.608495,53.670961],[-1.607585,53.671982],[-1.608024,53.672357],[-1.61028,53.672538],[-1.614094,53.673767],[-1.61472,53.674755],[-1.615217,53.677581],[-1.610818,53.677874],[-1.607502,53.679087],[-1.605049,53.679393],[-1.603532,53.682386],[-1.602228,53.683979],[-1.598838,53.683698],[-1.59588,53.686788],[-1.593078,53.688962],[-1.59192,53.689335],[-1.592303,53.691564],[-1.595493,53.691281],[-1.602499,53.692172],[-1.601899,53.692702],[-1.602555,53.693341],[-1.602158,53.696251],[-1.60137,53.696459],[-1.599578,53.698077],[-1.598376,53.699781],[-1.595814,53.700621],[-1.595018,53.699996],[-1.591227,53.701362],[-1.589918,53.702288],[-1.576465,53.704624],[-1.571122,53.706405],[-1.566507,53.704078],[-1.565486,53.70299],[-1.564631,53.702771],[-1.56505,53.70219],[-1.564511,53.702264],[-1.564307,53.701685],[-1.562925,53.70146],[-1.562494,53.700787],[-1.561946,53.700803],[-1.560434,53.699747],[-1.560725,53.699427],[-1.559323,53.698984],[-1.557887,53.699979],[-1.557026,53.701364],[-1.555052,53.70322],[-1.553955,53.702431],[-1.552088,53.705505],[-1.547142,53.710137],[-1.540674,53.713154],[-1.53398,53.714958],[-1.532746,53.716232],[-1.518659,53.723849],[-1.513222,53.727534],[-1.511214,53.729406],[-1.510396,53.72969],[-1.505633,53.729149],[-1.505963,53.727043],[-1.503786,53.726912],[-1.503305,53.727224],[-1.501871,53.725804],[-1.504377,53.725001],[-1.501552,53.723756],[-1.4988,53.723434],[-1.495728,53.722308],[-1.491421,53.722167],[-1.490426,53.722476],[-1.490452,53.723124],[-1.489264,53.723119],[-1.488298,53.727757],[-1.461729,53.727985],[-1.457172,53.72741],[-1.45657,53.727801],[-1.454567,53.728101],[-1.443149,53.728227],[-1.439076,53.727359],[-1.434625,53.725683],[-1.431316,53.723323],[-1.430769,53.723345],[-1.431,53.723123],[-1.428271,53.721352],[-1.424827,53.72304],[-1.422854,53.723594],[-1.422016,53.723524],[-1.420578,53.722404],[-1.419015,53.722115],[-1.416548,53.722236],[-1.412173,53.723067],[-1.406792,53.721709],[-1.400928,53.719527],[-1.398951,53.719388],[-1.397354,53.720189],[-1.396158,53.722762],[-1.394487,53.723777],[-1.381712,53.726623],[-1.376074,53.729499],[-1.37412,53.729815],[-1.369736,53.729404],[-1.367949,53.729615],[-1.361024,53.731936],[-1.356481,53.731526],[-1.340083,53.736357],[-1.338277,53.736495],[-1.333366,53.735667],[-1.328539,53.736581],[-1.326879,53.736273],[-1.324437,53.734937],[-1.323099,53.734823],[-1.320209,53.735717],[-1.315957,53.739687],[-1.313632,53.740957],[-1.311708,53.741025],[-1.309578,53.739499],[-1.308206,53.739109],[-1.301967,53.741672],[-1.299686,53.741607],[-1.296693,53.739635],[-1.293661,53.739328],[-1.292003,53.738747]]]}}]}