{"type":"FeatureCollection","features":[{"type":"Feature","properties":{"slug":"walsall","gss_code":"E08000030","name":"Walsall"},"geometry":{"type":"Polygon","coordinates":[[[-1.950225,52.659697],[-1.94964,52.659991],[-1.947386,52.658488],[-1.945736,52.657145],[-1.945446,52.656326],[-1.940449,52.656331],[-1.940517,52.656933],[-1.938663,52.657358],[-1.937027,52.659155],[-1.936455,52.659055],[-1.93662,52.660083],[-1.935474,52.659716],[-1.933651,52.661562],[-1.928589,52.6586],[-1.925806,52.65607],[-1.923684,52.655528],[-1.919592,52.656875],[-1.912842,52.658234],[-1.90866,52.654],[-1.916584,52.652258],[-1.915919,52.651494],[-1.918121,52.649951],[-1.912391,52.646548],[-1.909686,52.644355],[-1.909037,52.644759],[-1.905084,52.643208],[-1.906472,52.642139],[-1.905876,52.641782],[-1.907529,52.640603],[-1.907512,52.639812],[-1.908011,52.640071],[-1.913154,52.63703],[-1.912738,52.636724],[-1.91312,52.636108],[-1.913667,52.635884],[-1.914135,52.636174],[-1.915985,52.635286],[-1.909958,52.631784],[-1.908211,52.630172],[-1.904599,52.627736],[-1.897366,52.624733],[-1.894342,52.622672],[-1.886173,52.615571],[-1.885166,52.613378],[-1.884894,52.610515],[-1.886605,52.608377],[-1.887139,52.606631],[-1.892273,52.599967],[-1.892266,52.599152],[-1.890182,52.598474],[-1.890563,52.598124],[-1.888086,52.597024],[-1.884564,52.594617],[-1.878067,52.587677],[-1.875245,52.58575],[-1.873191,52.584912],[-1.872564,52.584945],[-1.875925,52.580362],[-1.878519,52.569636],[-1.882746,52.567457],[-1.888499,52.563826],[-1.891633,52.562455],[-1.896682,52.558858],[-1.898096,52.556623],[-1.899793,52.554999],[-1.90128,52.554414],[-1.908157,52.553227],[-1.911835,52.551944],[-1.9168,52.548644],[-1.918157,52.547307],[-1.923094,52.551074],[-1.925036,52.552069],[-1.929378,52.553549],[-1.933067,52.553841],[-1.93257,52.556142],[-1.934653,52.557448],[-1.932602,52.55933],[-1.933927,52.560034],[-1.936437,52.560407],[-1.937954,52.559911],[-1.940284,52.56065],[-1.940352,52.560981],[-1.942309,52.560761],[-1.942846,52.559903],[-1.944222,52.559908],[-1.947767,52.557482],[-1.94943,52.557],[-1.949325,52.556657],[-1.951069,52.556833],[-1.952753,52.557092],[-1.951873,52.561498],[-1.954069,52.562212],[-1.955068,52.561798],[-1.959933,52.561667],[-1.964143,52.563227],[-1.966845,52.562573],[-1.967345,52.561067],[-1.966972,52.561029],[-1.967114,52.559481],[-1.974537,52.559019],[-1.97443,52.557859],[-1.975497,52.55556],[-1.979244,52.558738],[-1.980553,52.558566],[-1.983723,52.560363],[-1.986226,52.561216],[-1.989051,52.563016],[-1.992892,52.564071],[-1.994407,52.563939],[-1.999799,52.565223],[-2.005777,52.566886],[-2.010978,52.569065],[-2.011773,52.567777],[-2.012498,52.568421],[-2.016145,52.568415],[-2.016811,52.569085],[-2.027049,52.564606],[-2.025369,52.56228],[-2.031373,52.560306],[-2.034852,52.558479],[-2.037508,52.557834],[-2.04062,52.554144],[-2.041061,52.554389],[-2.041509,52.553992],[-2.048462,52.551742],[-2.050982,52.552729],[-2.061953,52.558249],[-2.060849,52.558949],[-2.060164,52.558671],[-2.058469,52.560026],[-2.056612,52.560051],[-2.056653,52.560536],[-2.056113,52.560553],[-2.056097,52.560954],[-2.055351,52.560992],[-2.05663,52.562028],[-2.05795,52.564217],[-2.05719,52.56515],[-2.05364,52.566156],[-2.053089,52.568682],[-2.050022,52.572141],[-2.055428,52.573008],[-2.055315,52.573491],[-2.057096,52.573762],[-2.05698,52.574123],[-2.058164,52.574746],[-2.057035,52.575531],[-2.057703,52.575926],[-2.057338,52.576152],[-2.056798,52.575686],[-2.055165,52.576575],[-2.056287,52.576866],[-2.056742,52.5775],[-2.063046,52.580018],[-2.066874,52.58211],[-2.068208,52.582141],[-2.068001,52.58287],[-2.068648,52.583377],[-2.077793,52.586128],[-2.077684,52.586444],[-2.075854,52.587081],[-2.074488,52.588062],[-2.073279,52.590824],[-2.072195,52.590737],[-2.07323,52.590966],[-2.073305,52.591698],[-2.071831,52.591961],[-2.070828,52.593035],[-2.070861,52.594378],[-2.068553,52.59309],[-2.066086,52.594419],[-2.066373,52.59463],[-2.065654,52.596874],[-2.066504,52.597702],[-2.064893,52.597603],[-2.065008,52.59727],[-2.064481,52.597209],[-2.064068,52.597761],[-2.062684,52.597877],[-2.061963,52.597608],[-2.061044,52.598003],[-2.060706,52.597793],[-2.05787,52.598003],[-2.056995,52.598275],[-2.054858,52.600936],[-2.054599,52.600848],[-2.05156,52.606333],[-2.051182,52.60636],[-2.051067,52.609254],[-2.048022,52.616035],[-2.052749,52.617312],[-2.050718,52.620523],[-2.048486,52.620551],[-2.047643,52.620812],[-2.047379,52.621422],[-2.031888,52.617423],[-2.031263,52.616935],[-2.030173,52.616954],[-2.032132,52.61871],[-2.03182,52.619258],[-2.035535,52.621756],[-2.030573,52.62398],[-2.030848,52.624728],[-2.029533,52.62564],[-2.026696,52.625585],[-2.026626,52.625266],[-2.025475,52.624967],[-2.02413,52.625218],[-2.020155,52.628137],[-2.019457,52.629146],[-2.018996,52.628542],[-2.016374,52.629988],[-2.014329,52.633151],[-2.01247,52.63341],[-2.010018,52.634617],[-2.009437,52.634264],[-2.007569,52.634805],[-2.003756,52.63712],[-1.995472,52.638359],[-1.993207,52.638109],[-1.990917,52.636668],[-1.988687,52.639137],[-1.98655,52.640409],[-1.984877,52.639695],[-1.982954,52.641349],[-1.981316,52.63983],[-1.978727,52.640068],[-1.976206,52.639697],[-1.975125,52.641414],[-1.97336,52.640668],[-1.971123,52.641572],[-1.969495,52.641627],[-1.967462,52.641644],[-1.967398,52.641092],[-1.964591,52.640887],[-1.963015,52.64377],[-1.960963,52.642815],[-1.960281,52.644163],[-1.959958,52.649212],[-1.960771,52.649276],[-1.960557,52.653711],[-1.955466,52.653607],[-1.955074,52.654137],[-1.956303,52.656225],[-1.955809,52.656181],[-1.956325,52.65702],[-1.960066,52.662065],[-1.953635,52.66278],[-1.950225,52.659697]]]}}]}