{"type":"FeatureCollection","features":[{"type":"Feature","properties":{"slug":"waltham-forest","gss_code":"E09000031","name":"Waltham Forest"},"geometry":{"type":"Polygon","coordinates":[[[-0.006657,51.643333],[-0.004559,51.643538],[-0.003984,51.642717],[-0.000495,51.643711],[0.001067,51.641762],[0.009899,51.64145],[0.017421,51.640258],[0.02008,51.640447],[0.02272,51.641115],[0.023083,51.637718],[0.025159,51.637289],[0.024712,51.636052],[0.025739,51.634565],[0.02433,51.632389],[0.02389,51.630797],[0.021819,51.628833],[0.020996,51.628918],[0.02058,51.627335],[0.019939,51.627006],[0.020088,51.626429],[0.01912,51.625045],[0.018782,51.624092],[0.019066,51.623669],[0.018492,51.623505],[0.018845,51.623256],[0.018468,51.622786],[0.017711,51.622343],[0.017058,51.622356],[0.017053,51.621987],[0.016229,51.621775],[0.015906,51.620949],[0.014271,51.620277],[0.014728,51.619761],[0.014538,51.618893],[0.008694,51.61907],[0.016274,51.616857],[0.02125,51.612307],[0.021425,51.611092],[0.019281,51.608246],[0.019579,51.607611],[0.019145,51.60779],[0.012966,51.599123],[0.012096,51.592691],[0.013414,51.583784],[0.015541,51.583347],[0.015332,51.582475],[0.015704,51.581837],[0.015351,51.581643],[0.017506,51.577388],[0.017413,51.574486],[0.016487,51.572887],[0.018055,51.572037],[0.018921,51.572322],[0.019131,51.569855],[0.017683,51.570014],[0.018998,51.566976],[0.018859,51.566326],[0.017578,51.565664],[0.014465,51.565616],[0.014309,51.563508],[0.01482,51.559426],[0.017141,51.558841],[0.020474,51.556128],[0.021523,51.554895],[0.016994,51.553151],[0.016756,51.553379],[0.016281,51.553193],[0.014641,51.554964],[0.011632,51.553915],[0.011139,51.554386],[0.009638,51.553413],[0.010825,51.552245],[0.009569,51.551247],[0.005773,51.55066],[0.005748,51.551862],[0.003876,51.551799],[0.00332,51.552095],[-0.000156,51.551731],[-0.003581,51.550912],[-0.00376,51.551166],[-0.008686,51.549923],[-0.009443,51.552197],[-0.010842,51.552624],[-0.016919,51.551403],[-0.017481,51.553341],[-0.018464,51.555185],[-0.023006,51.557272],[-0.023941,51.55737],[-0.024339,51.558639],[-0.025778,51.559876],[-0.028391,51.56102],[-0.03004,51.561359],[-0.033285,51.56062],[-0.036287,51.561475],[-0.03882,51.561159],[-0.040176,51.561783],[-0.042363,51.561368],[-0.04513,51.56179],[-0.047248,51.562706],[-0.046656,51.564377],[-0.051145,51.567729],[-0.053288,51.568659],[-0.054355,51.570285],[-0.056316,51.570711],[-0.058432,51.572565],[-0.061159,51.577786],[-0.062185,51.579192],[-0.061944,51.58003],[-0.061001,51.58085],[-0.057832,51.582515],[-0.055736,51.584255],[-0.05484,51.585781],[-0.052157,51.587662],[-0.053533,51.590006],[-0.052289,51.593541],[-0.050403,51.596664],[-0.046032,51.600122],[-0.043519,51.60271],[-0.041391,51.605647],[-0.035224,51.608268],[-0.033947,51.609504],[-0.034056,51.610215],[-0.035494,51.611964],[-0.035322,51.612984],[-0.032099,51.616865],[-0.025938,51.621743],[-0.024025,51.624644],[-0.016809,51.633529],[-0.013309,51.639695],[-0.01226,51.646229],[-0.009214,51.646528],[-0.007344,51.646162],[-0.008446,51.644498],[-0.008191,51.643609],[-0.006657,51.643333]]]}}]}