{"type":"FeatureCollection","features":[{"type":"Feature","properties":{"slug":"wandsworth","gss_code":"E09000032","name":"Wandsworth"},"geometry":{"type":"Polygon","coordinates":[[[-0.127482,51.48201],[-0.129937,51.481174],[-0.133876,51.475694],[-0.135207,51.474292],[-0.134446,51.473962],[-0.134664,51.47334],[-0.135794,51.472711],[-0.136905,51.473089],[-0.138326,51.471963],[-0.139489,51.471793],[-0.139306,51.47153],[-0.139785,51.471333],[-0.140419,51.47153],[-0.142704,51.470076],[-0.143117,51.470513],[-0.150538,51.467628],[-0.150551,51.465949],[-0.151212,51.465861],[-0.150933,51.463797],[-0.149695,51.461292],[-0.149376,51.459363],[-0.14814,51.456402],[-0.147352,51.452964],[-0.147704,51.45234],[-0.142286,51.450982],[-0.143116,51.449709],[-0.144813,51.448437],[-0.145576,51.446018],[-0.145465,51.445068],[-0.143611,51.441839],[-0.137979,51.441694],[-0.135932,51.442007],[-0.13698,51.440246],[-0.137476,51.440158],[-0.137233,51.439725],[-0.137659,51.438586],[-0.139938,51.436947],[-0.139765,51.435744],[-0.137884,51.433784],[-0.136464,51.43388],[-0.135256,51.430323],[-0.138368,51.430485],[-0.138866,51.424337],[-0.137792,51.421108],[-0.140359,51.419264],[-0.144454,51.417752],[-0.149421,51.419888],[-0.151388,51.419874],[-0.15986,51.422603],[-0.159915,51.421965],[-0.160326,51.421907],[-0.161649,51.419857],[-0.165015,51.420107],[-0.164834,51.420358],[-0.167952,51.42082],[-0.17357,51.423177],[-0.181939,51.424731],[-0.184046,51.426352],[-0.184555,51.427819],[-0.184231,51.431268],[-0.185726,51.433166],[-0.187268,51.432986],[-0.187398,51.432103],[-0.188399,51.432089],[-0.189775,51.431351],[-0.191171,51.433455],[-0.190249,51.434802],[-0.189276,51.438038],[-0.189218,51.438544],[-0.19064,51.438919],[-0.189854,51.440271],[-0.190027,51.441465],[-0.21253,51.437829],[-0.215698,51.437743],[-0.216594,51.438371],[-0.217822,51.438693],[-0.220629,51.438461],[-0.224314,51.438868],[-0.224476,51.438607],[-0.231242,51.438163],[-0.241417,51.435024],[-0.251085,51.432558],[-0.251281,51.434227],[-0.253089,51.435284],[-0.254066,51.437288],[-0.242722,51.441911],[-0.241599,51.443118],[-0.24729,51.449196],[-0.259111,51.454953],[-0.258467,51.457043],[-0.2568,51.459822],[-0.257958,51.460379],[-0.255947,51.463073],[-0.252951,51.465224],[-0.244246,51.465261],[-0.23329,51.463972],[-0.233627,51.466089],[-0.232874,51.466634],[-0.233483,51.467999],[-0.232958,51.471681],[-0.232733,51.472511],[-0.231194,51.472824],[-0.226954,51.471401],[-0.223617,51.470742],[-0.223442,51.471479],[-0.222886,51.47172],[-0.218042,51.468192],[-0.212758,51.465545],[-0.207268,51.4639],[-0.199104,51.462709],[-0.1955,51.462889],[-0.195063,51.462564],[-0.195144,51.460018],[-0.193301,51.459798],[-0.194755,51.460184],[-0.194859,51.461762],[-0.194359,51.461379],[-0.193885,51.461489],[-0.194916,51.462614],[-0.194793,51.462911],[-0.190363,51.463405],[-0.183599,51.465461],[-0.180957,51.467581],[-0.179141,51.470006],[-0.178472,51.47018],[-0.178574,51.470654],[-0.177901,51.470625],[-0.178511,51.470771],[-0.176854,51.474882],[-0.175663,51.476184],[-0.175988,51.476441],[-0.175262,51.477754],[-0.173955,51.47908],[-0.171633,51.480264],[-0.166243,51.48133],[-0.148932,51.483608],[-0.137416,51.482729],[-0.136913,51.482438],[-0.136725,51.482793],[-0.132057,51.483736],[-0.128507,51.485043],[-0.128154,51.484732],[-0.126308,51.484471],[-0.127056,51.483581],[-0.127482,51.48201]]]}}]}