{"type":"FeatureCollection","features":[{"type":"Feature","properties":{"slug":"warrington","gss_code":"E06000007","name":"Warrington"},"geometry":{"type":"Polygon","coordinates":[[[-2.474102,53.439383],[-2.470799,53.43891],[-2.466339,53.437036],[-2.46332,53.437016],[-2.461724,53.436369],[-2.45926,53.433159],[-2.455129,53.429984],[-2.454068,53.428276],[-2.451544,53.426709],[-2.450315,53.42408],[-2.448994,53.422875],[-2.449188,53.420535],[-2.451275,53.418674],[-2.450751,53.417386],[-2.449362,53.416755],[-2.449378,53.415891],[-2.45078,53.4153],[-2.453681,53.413213],[-2.456257,53.410824],[-2.462101,53.403852],[-2.465977,53.400748],[-2.471732,53.397751],[-2.47844,53.396213],[-2.475635,53.394191],[-2.473545,53.39373],[-2.472583,53.392732],[-2.471026,53.392331],[-2.467976,53.393165],[-2.468192,53.393859],[-2.466223,53.394136],[-2.465898,53.394776],[-2.464068,53.394182],[-2.463063,53.394743],[-2.460913,53.393958],[-2.459998,53.394346],[-2.458561,53.392989],[-2.45837,53.393855],[-2.457523,53.39381],[-2.456976,53.394214],[-2.456139,53.393935],[-2.455401,53.394324],[-2.454544,53.393932],[-2.452891,53.394496],[-2.452953,53.394988],[-2.452226,53.395306],[-2.451866,53.394625],[-2.450885,53.39497],[-2.448394,53.394808],[-2.448173,53.394265],[-2.446866,53.393705],[-2.446729,53.39318],[-2.445245,53.392886],[-2.445579,53.392203],[-2.442888,53.392009],[-2.44164,53.391],[-2.440498,53.390975],[-2.439934,53.391428],[-2.438601,53.391582],[-2.438811,53.390087],[-2.437004,53.389265],[-2.435364,53.389162],[-2.434019,53.389514],[-2.433218,53.389164],[-2.43345,53.388311],[-2.431909,53.387729],[-2.43001,53.388346],[-2.428426,53.388419],[-2.427994,53.388978],[-2.42659,53.387462],[-2.425381,53.386723],[-2.426827,53.384719],[-2.426219,53.384518],[-2.42647,53.382794],[-2.425506,53.379691],[-2.428723,53.376406],[-2.427489,53.375911],[-2.431277,53.37339],[-2.432777,53.374032],[-2.434603,53.372158],[-2.435549,53.372678],[-2.436483,53.370954],[-2.435795,53.370715],[-2.436038,53.370536],[-2.437739,53.370245],[-2.439663,53.370542],[-2.43988,53.366663],[-2.447158,53.365886],[-2.450457,53.366551],[-2.450923,53.367077],[-2.458842,53.368286],[-2.460953,53.364184],[-2.463239,53.364472],[-2.464996,53.363531],[-2.471766,53.364654],[-2.471713,53.364888],[-2.47504,53.366019],[-2.47718,53.366099],[-2.479084,53.367152],[-2.479842,53.367359],[-2.480066,53.36713],[-2.480725,53.367604],[-2.483643,53.367504],[-2.486878,53.367904],[-2.487463,53.367411],[-2.487235,53.366879],[-2.489647,53.366856],[-2.489783,53.365656],[-2.492101,53.364796],[-2.492035,53.363985],[-2.49281,53.36361],[-2.49283,53.362694],[-2.493591,53.362738],[-2.493553,53.362449],[-2.494377,53.362107],[-2.496594,53.361695],[-2.496625,53.36098],[-2.497695,53.360565],[-2.497824,53.359409],[-2.499694,53.359095],[-2.502751,53.357544],[-2.502172,53.357109],[-2.503094,53.356126],[-2.506985,53.355246],[-2.506841,53.354849],[-2.508238,53.354316],[-2.508896,53.353631],[-2.509902,53.353682],[-2.510155,53.353241],[-2.510976,53.3533],[-2.511176,53.352837],[-2.513096,53.352539],[-2.515461,53.349681],[-2.516695,53.348912],[-2.51956,53.347955],[-2.52105,53.3479],[-2.518393,53.34239],[-2.538234,53.335953],[-2.539453,53.33639],[-2.541266,53.333448],[-2.543006,53.332467],[-2.544529,53.330525],[-2.54828,53.331031],[-2.551664,53.332374],[-2.553928,53.328727],[-2.557367,53.326111],[-2.558837,53.325712],[-2.560167,53.323931],[-2.561875,53.323343],[-2.563088,53.32308],[-2.565174,53.323606],[-2.566492,53.324194],[-2.567848,53.325404],[-2.569402,53.325241],[-2.575396,53.325677],[-2.576816,53.326116],[-2.578362,53.326018],[-2.578983,53.327085],[-2.578655,53.327634],[-2.579758,53.327925],[-2.580232,53.328608],[-2.581555,53.328366],[-2.58629,53.329397],[-2.586345,53.328741],[-2.588335,53.32743],[-2.588108,53.326478],[-2.588501,53.325955],[-2.590091,53.325889],[-2.592739,53.324742],[-2.592585,53.32245],[-2.595223,53.322454],[-2.596303,53.323254],[-2.596541,53.324671],[-2.598639,53.325056],[-2.601084,53.32461],[-2.60256,53.325161],[-2.604061,53.32638],[-2.607579,53.327245],[-2.609667,53.330103],[-2.610392,53.330406],[-2.614936,53.328857],[-2.617499,53.329588],[-2.619807,53.331914],[-2.615699,53.334715],[-2.611557,53.340907],[-2.610377,53.341571],[-2.60709,53.342341],[-2.606607,53.342996],[-2.607149,53.344429],[-2.609573,53.346274],[-2.612404,53.346679],[-2.613638,53.347099],[-2.614137,53.347661],[-2.614626,53.346957],[-2.615273,53.346761],[-2.622244,53.347413],[-2.623139,53.347111],[-2.624153,53.346081],[-2.627713,53.346579],[-2.628447,53.345652],[-2.631468,53.346034],[-2.630991,53.348336],[-2.628568,53.35255],[-2.629517,53.352718],[-2.629107,53.354152],[-2.628713,53.354391],[-2.626934,53.354192],[-2.626835,53.35464],[-2.627516,53.354855],[-2.627682,53.355306],[-2.62688,53.358741],[-2.630622,53.36405],[-2.64218,53.361741],[-2.674641,53.353664],[-2.675208,53.354454],[-2.669048,53.355982],[-2.666142,53.357699],[-2.664761,53.362056],[-2.665193,53.362272],[-2.665186,53.36415],[-2.663978,53.367249],[-2.659331,53.37282],[-2.656768,53.374099],[-2.654661,53.374418],[-2.652065,53.374016],[-2.646911,53.372229],[-2.642327,53.372462],[-2.639867,53.374283],[-2.63884,53.377167],[-2.638194,53.377617],[-2.632836,53.37613],[-2.624671,53.374428],[-2.623121,53.374397],[-2.621517,53.374996],[-2.618978,53.376638],[-2.614766,53.380652],[-2.610418,53.385758],[-2.609409,53.386389],[-2.607693,53.386742],[-2.606622,53.386294],[-2.606504,53.385538],[-2.609141,53.382785],[-2.609502,53.381071],[-2.608013,53.376702],[-2.606958,53.375127],[-2.604436,53.373984],[-2.602604,53.373528],[-2.60062,53.373592],[-2.600212,53.373311],[-2.600822,53.373191],[-2.599099,53.372869],[-2.597792,53.372656],[-2.597291,53.372953],[-2.595077,53.372724],[-2.593616,53.372836],[-2.592298,53.37305],[-2.594737,53.372804],[-2.595881,53.372994],[-2.599429,53.373052],[-2.600529,53.373741],[-2.598474,53.374582],[-2.592649,53.383198],[-2.59241,53.38472],[-2.591278,53.385672],[-2.59004,53.385844],[-2.587813,53.384955],[-2.586091,53.384681],[-2.581587,53.384484],[-2.577971,53.383478],[-2.577053,53.38405],[-2.577938,53.384963],[-2.578731,53.383967],[-2.579782,53.384349],[-2.579812,53.384642],[-2.586272,53.385052],[-2.590019,53.38619],[-2.591459,53.386032],[-2.592999,53.384923],[-2.593242,53.383256],[-2.598215,53.375503],[-2.599406,53.374569],[-2.602005,53.374065],[-2.60578,53.37508],[-2.607336,53.376976],[-2.608648,53.381708],[-2.608057,53.382961],[-2.605677,53.385287],[-2.606134,53.38657],[-2.607811,53.387113],[-2.610186,53.386557],[-2.611775,53.385476],[-2.620779,53.376991],[-2.623195,53.375344],[-2.625618,53.375429],[-2.635739,53.378221],[-2.638552,53.378497],[-2.639376,53.378846],[-2.639139,53.379359],[-2.636349,53.381086],[-2.635703,53.380928],[-2.634377,53.379399],[-2.633829,53.379247],[-2.632487,53.380308],[-2.631079,53.380127],[-2.629552,53.381777],[-2.628613,53.380817],[-2.627136,53.380871],[-2.626223,53.38142],[-2.625963,53.382255],[-2.624828,53.383004],[-2.623313,53.384871],[-2.621141,53.385544],[-2.618003,53.385642],[-2.616926,53.38621],[-2.615838,53.388037],[-2.615809,53.390093],[-2.615978,53.388039],[-2.617116,53.386183],[-2.618043,53.385713],[-2.621268,53.385602],[-2.62322,53.385012],[-2.624886,53.383059],[-2.626128,53.382221],[-2.626348,53.381437],[-2.627197,53.380934],[-2.628415,53.38084],[-2.629194,53.381881],[-2.629743,53.381919],[-2.63129,53.38016],[-2.63267,53.380399],[-2.63379,53.379372],[-2.635616,53.381129],[-2.63637,53.381199],[-2.639108,53.379612],[-2.639685,53.378859],[-2.640009,53.379015],[-2.639189,53.378367],[-2.640582,53.377958],[-2.642152,53.376998],[-2.645574,53.373965],[-2.646997,53.373948],[-2.652066,53.375603],[-2.6543,53.375817],[-2.658602,53.374702],[-2.660173,53.373907],[-2.664668,53.370019],[-2.668963,53.363726],[-2.66917,53.363905],[-2.67,53.362665],[-2.670611,53.362567],[-2.670305,53.362165],[-2.672046,53.358426],[-2.674488,53.356763],[-2.6768,53.356684],[-2.677169,53.357535],[-2.67802,53.356795],[-2.679272,53.357029],[-2.682964,53.358334],[-2.68317,53.358723],[-2.683139,53.358389],[-2.68501,53.359273],[-2.685443,53.359158],[-2.68697,53.359757],[-2.688936,53.360841],[-2.688784,53.360517],[-2.693379,53.361816],[-2.693489,53.364608],[-2.697202,53.368545],[-2.697725,53.379313],[-2.697355,53.381552],[-2.696067,53.383201],[-2.693961,53.384317],[-2.690633,53.385388],[-2.676317,53.387619],[-2.676034,53.389868],[-2.676611,53.393547],[-2.674816,53.398013],[-2.673794,53.398388],[-2.673109,53.399742],[-2.671377,53.400174],[-2.672355,53.407762],[-2.672927,53.407873],[-2.672996,53.408827],[-2.673025,53.41008],[-2.672136,53.411807],[-2.671877,53.415287],[-2.670745,53.415255],[-2.666856,53.416264],[-2.667094,53.418646],[-2.6718,53.418897],[-2.67232,53.422025],[-2.670063,53.424176],[-2.666567,53.426359],[-2.665674,53.427855],[-2.663784,53.428461],[-2.663852,53.429667],[-2.664819,53.431302],[-2.666442,53.431843],[-2.670319,53.43229],[-2.672724,53.432037],[-2.675268,53.432965],[-2.676046,53.435455],[-2.674182,53.43529],[-2.671683,53.43594],[-2.671836,53.437868],[-2.668845,53.439395],[-2.668328,53.440416],[-2.668772,53.441044],[-2.670292,53.441301],[-2.678844,53.439123],[-2.678879,53.439696],[-2.682066,53.438887],[-2.682168,53.439234],[-2.679828,53.442229],[-2.681338,53.442577],[-2.680278,53.444718],[-2.67869,53.444273],[-2.678476,53.444587],[-2.678223,53.446328],[-2.677354,53.448065],[-2.677788,53.449017],[-2.677504,53.449415],[-2.678612,53.450578],[-2.677186,53.452753],[-2.674574,53.452911],[-2.673408,53.452582],[-2.673443,53.451999],[-2.672603,53.450991],[-2.670661,53.449926],[-2.668495,53.450001],[-2.667876,53.449609],[-2.666062,53.449619],[-2.665132,53.449162],[-2.663873,53.449491],[-2.659946,53.448981],[-2.658787,53.4477],[-2.657915,53.447446],[-2.654743,53.448118],[-2.65236,53.448164],[-2.651096,53.447728],[-2.649378,53.446362],[-2.647982,53.446654],[-2.646057,53.44536],[-2.645657,53.444305],[-2.641891,53.443892],[-2.63954,53.444422],[-2.632408,53.44166],[-2.63141,53.44015],[-2.632089,53.43794],[-2.630043,53.435145],[-2.627462,53.434413],[-2.626323,53.434432],[-2.626716,53.435162],[-2.625433,53.436526],[-2.621018,53.437047],[-2.620959,53.437872],[-2.620299,53.437833],[-2.619233,53.438349],[-2.619693,53.438793],[-2.61801,53.438668],[-2.616055,53.440706],[-2.612087,53.441688],[-2.611423,53.442275],[-2.606344,53.442822],[-2.602485,53.442431],[-2.600605,53.443514],[-2.598897,53.443397],[-2.597051,53.442561],[-2.596231,53.442666],[-2.59589,53.44533],[-2.596659,53.448179],[-2.598685,53.450414],[-2.591596,53.446548],[-2.585296,53.439807],[-2.584597,53.440393],[-2.582314,53.441159],[-2.574472,53.448091],[-2.5735,53.451581],[-2.570505,53.45677],[-2.57032,53.458534],[-2.54909,53.461512],[-2.552639,53.467813],[-2.550485,53.468062],[-2.502705,53.479727],[-2.496334,53.480929],[-2.492742,53.479377],[-2.489146,53.475848],[-2.490439,53.473147],[-2.491397,53.472147],[-2.491677,53.469886],[-2.491087,53.469025],[-2.491124,53.467537],[-2.49227,53.465154],[-2.489863,53.462218],[-2.489608,53.459581],[-2.488043,53.459022],[-2.486894,53.458141],[-2.486106,53.455191],[-2.482826,53.453868],[-2.478774,53.450047],[-2.475987,53.448238],[-2.476043,53.44746],[-2.478264,53.444318],[-2.478153,53.443417],[-2.474102,53.439383]]]}}]}