{"type":"FeatureCollection","features":[{"type":"Feature","properties":{"slug":"warwick","gss_code":"E07000222","name":"Warwick"},"geometry":{"type":"Polygon","coordinates":[[[-1.597693,52.388043],[-1.59739,52.388242],[-1.594717,52.387458],[-1.593943,52.387894],[-1.587997,52.38611],[-1.580116,52.384894],[-1.575789,52.384576],[-1.576708,52.382788],[-1.573018,52.382537],[-1.571374,52.383365],[-1.569562,52.382898],[-1.568776,52.38367],[-1.570538,52.384213],[-1.567799,52.384778],[-1.564818,52.382295],[-1.563146,52.37919],[-1.562635,52.376891],[-1.559302,52.375599],[-1.554993,52.374424],[-1.5549,52.373696],[-1.556761,52.372464],[-1.555551,52.372057],[-1.556907,52.369731],[-1.558254,52.368655],[-1.555843,52.367752],[-1.557455,52.365733],[-1.555006,52.365103],[-1.552412,52.363892],[-1.54939,52.366339],[-1.546808,52.365357],[-1.543335,52.366344],[-1.542877,52.366045],[-1.541893,52.366633],[-1.545677,52.369271],[-1.535479,52.377609],[-1.532662,52.376216],[-1.529919,52.377863],[-1.524651,52.379401],[-1.522781,52.377514],[-1.519811,52.375553],[-1.521084,52.37455],[-1.520001,52.373094],[-1.51847,52.373547],[-1.517977,52.371939],[-1.515002,52.370194],[-1.513722,52.369016],[-1.513012,52.370043],[-1.509268,52.373223],[-1.50817,52.375822],[-1.504499,52.377807],[-1.486605,52.37683],[-1.482278,52.377119],[-1.48041,52.374318],[-1.475913,52.374709],[-1.471008,52.376473],[-1.466609,52.377204],[-1.464696,52.375531],[-1.466332,52.374536],[-1.464014,52.373267],[-1.464055,52.372789],[-1.462512,52.372448],[-1.460373,52.370439],[-1.461254,52.36951],[-1.462799,52.369284],[-1.46479,52.367858],[-1.464983,52.367138],[-1.463019,52.366614],[-1.462426,52.365339],[-1.462819,52.36489],[-1.461945,52.364316],[-1.462357,52.363663],[-1.460445,52.363132],[-1.46142,52.361527],[-1.462224,52.361448],[-1.462293,52.360798],[-1.463196,52.360566],[-1.462957,52.359978],[-1.463577,52.359866],[-1.464059,52.360564],[-1.464987,52.359935],[-1.464914,52.358078],[-1.464001,52.357987],[-1.461513,52.358914],[-1.455085,52.35684],[-1.4512,52.357048],[-1.448051,52.353677],[-1.449395,52.353509],[-1.452362,52.352457],[-1.45528,52.349886],[-1.456502,52.349256],[-1.456199,52.346777],[-1.45433,52.346101],[-1.450356,52.345527],[-1.445777,52.345876],[-1.443643,52.345536],[-1.446018,52.343547],[-1.447958,52.340638],[-1.44773,52.340343],[-1.446566,52.340274],[-1.444124,52.341045],[-1.442908,52.338217],[-1.443169,52.336727],[-1.441799,52.334656],[-1.441867,52.333471],[-1.440329,52.332742],[-1.439473,52.331523],[-1.435976,52.328417],[-1.431683,52.326845],[-1.428581,52.326827],[-1.427486,52.326096],[-1.427506,52.325751],[-1.425031,52.326648],[-1.424234,52.326215],[-1.423138,52.326563],[-1.421521,52.326385],[-1.420169,52.326836],[-1.419056,52.326345],[-1.418098,52.326333],[-1.416702,52.325552],[-1.417063,52.325073],[-1.416242,52.323984],[-1.416168,52.322112],[-1.413509,52.320608],[-1.412803,52.320664],[-1.412712,52.320948],[-1.40926,52.320763],[-1.408014,52.320071],[-1.407852,52.319426],[-1.406991,52.319192],[-1.406078,52.316618],[-1.406635,52.315291],[-1.409045,52.31536],[-1.409,52.314883],[-1.410333,52.314752],[-1.410186,52.31405],[-1.410793,52.314205],[-1.411294,52.313793],[-1.410375,52.313604],[-1.410396,52.313254],[-1.412526,52.312424],[-1.412731,52.311822],[-1.413524,52.312261],[-1.415647,52.312516],[-1.415533,52.313435],[-1.416434,52.313575],[-1.418727,52.313232],[-1.419908,52.312266],[-1.418962,52.311693],[-1.421132,52.309084],[-1.420513,52.308665],[-1.420859,52.308106],[-1.419019,52.307038],[-1.419502,52.306872],[-1.419443,52.305857],[-1.418643,52.305382],[-1.419233,52.304931],[-1.419408,52.303754],[-1.420099,52.3034],[-1.421668,52.303486],[-1.422319,52.302986],[-1.421788,52.302649],[-1.422827,52.3017],[-1.424005,52.301787],[-1.426493,52.300751],[-1.426252,52.299474],[-1.424983,52.299365],[-1.424163,52.299627],[-1.422926,52.299095],[-1.421802,52.297956],[-1.423651,52.29647],[-1.424564,52.296497],[-1.426044,52.295204],[-1.42618,52.29494],[-1.425258,52.294883],[-1.424734,52.294283],[-1.426796,52.29416],[-1.428036,52.295106],[-1.435609,52.293618],[-1.439185,52.294245],[-1.440465,52.294146],[-1.440846,52.294505],[-1.443964,52.295334],[-1.448472,52.294072],[-1.447934,52.291384],[-1.445879,52.287728],[-1.44276,52.284141],[-1.441928,52.282129],[-1.44083,52.282219],[-1.440522,52.28165],[-1.439223,52.281761],[-1.439666,52.278766],[-1.435094,52.276442],[-1.436096,52.274519],[-1.434864,52.273904],[-1.435215,52.272788],[-1.438209,52.271857],[-1.441119,52.271477],[-1.444136,52.27209],[-1.448506,52.271383],[-1.453417,52.271926],[-1.454743,52.270835],[-1.458927,52.270252],[-1.463033,52.265138],[-1.465567,52.263672],[-1.46959,52.264794],[-1.4745,52.262882],[-1.475825,52.261202],[-1.477657,52.261741],[-1.483467,52.255296],[-1.484954,52.254434],[-1.486624,52.252761],[-1.488738,52.249434],[-1.495076,52.24207],[-1.497564,52.240074],[-1.498864,52.241021],[-1.498919,52.238994],[-1.500105,52.237563],[-1.502107,52.237934],[-1.502081,52.238285],[-1.500619,52.238892],[-1.500023,52.239588],[-1.502186,52.2415],[-1.504566,52.241016],[-1.506552,52.241276],[-1.507639,52.240838],[-1.508688,52.241636],[-1.509845,52.24165],[-1.510953,52.242226],[-1.512491,52.241769],[-1.512989,52.242176],[-1.514595,52.241547],[-1.514726,52.241147],[-1.516317,52.240805],[-1.516568,52.239981],[-1.517673,52.239823],[-1.519309,52.238216],[-1.519701,52.235975],[-1.520772,52.235456],[-1.521731,52.230307],[-1.523484,52.229338],[-1.525256,52.226696],[-1.528199,52.22515],[-1.535245,52.226491],[-1.539681,52.228342],[-1.539825,52.227868],[-1.542326,52.228188],[-1.542432,52.227831],[-1.548539,52.22764],[-1.555021,52.228232],[-1.554297,52.230943],[-1.560059,52.231647],[-1.563136,52.228029],[-1.56369,52.225654],[-1.564641,52.22428],[-1.567351,52.221569],[-1.567416,52.219484],[-1.568301,52.217704],[-1.56904,52.218104],[-1.5726,52.218015],[-1.572787,52.216983],[-1.573491,52.216906],[-1.573755,52.216383],[-1.57503,52.216287],[-1.575324,52.217312],[-1.576725,52.217273],[-1.577595,52.217997],[-1.579391,52.21807],[-1.579311,52.218422],[-1.58036,52.21903],[-1.581252,52.220374],[-1.581223,52.220878],[-1.582716,52.221287],[-1.583198,52.220905],[-1.583628,52.221435],[-1.584493,52.221587],[-1.584811,52.222233],[-1.584341,52.222653],[-1.585012,52.222975],[-1.585164,52.223652],[-1.586058,52.224018],[-1.585603,52.224417],[-1.586381,52.224497],[-1.586656,52.224193],[-1.587107,52.224568],[-1.588775,52.223619],[-1.589904,52.223817],[-1.593177,52.223525],[-1.597277,52.225322],[-1.60103,52.224949],[-1.602023,52.225257],[-1.603087,52.224631],[-1.604003,52.222805],[-1.605899,52.222365],[-1.607796,52.220997],[-1.61007,52.220471],[-1.611851,52.219017],[-1.617485,52.216605],[-1.617525,52.216214],[-1.618048,52.216213],[-1.617958,52.215918],[-1.618915,52.215244],[-1.618939,52.215032],[-1.618451,52.215039],[-1.61855,52.214622],[-1.618925,52.214393],[-1.6192,52.214627],[-1.619663,52.214026],[-1.620516,52.213719],[-1.621227,52.213807],[-1.620303,52.218124],[-1.621241,52.220385],[-1.623851,52.221453],[-1.624282,52.221351],[-1.625566,52.222578],[-1.626372,52.224774],[-1.625896,52.226285],[-1.625319,52.226868],[-1.622393,52.227007],[-1.618081,52.228318],[-1.616514,52.229309],[-1.615098,52.229665],[-1.615288,52.230009],[-1.614746,52.230343],[-1.613497,52.230354],[-1.612307,52.229637],[-1.610333,52.229718],[-1.60938,52.230071],[-1.609032,52.230312],[-1.609235,52.232326],[-1.605786,52.235026],[-1.605675,52.236037],[-1.606415,52.237312],[-1.607877,52.238367],[-1.60959,52.238764],[-1.610722,52.238515],[-1.611284,52.237842],[-1.61237,52.237405],[-1.617665,52.236903],[-1.620427,52.237218],[-1.624742,52.238367],[-1.625055,52.238829],[-1.624041,52.239018],[-1.623915,52.239287],[-1.625781,52.241543],[-1.626215,52.241484],[-1.626765,52.240711],[-1.627659,52.241653],[-1.627522,52.24234],[-1.626054,52.242206],[-1.625729,52.243014],[-1.625053,52.242142],[-1.624477,52.242147],[-1.622338,52.243369],[-1.621317,52.244493],[-1.626415,52.246523],[-1.626412,52.24705],[-1.629613,52.246824],[-1.635916,52.247349],[-1.638035,52.249222],[-1.637986,52.249943],[-1.640948,52.252347],[-1.641111,52.25315],[-1.642306,52.253971],[-1.645888,52.255391],[-1.644902,52.25556],[-1.643454,52.256609],[-1.645929,52.258271],[-1.648976,52.258174],[-1.649049,52.257518],[-1.65158,52.257816],[-1.651933,52.257181],[-1.653041,52.257135],[-1.653361,52.256129],[-1.653983,52.256572],[-1.65736,52.257143],[-1.657512,52.256494],[-1.658531,52.256306],[-1.658686,52.255808],[-1.660349,52.255718],[-1.661792,52.255991],[-1.661873,52.256256],[-1.664201,52.256091],[-1.665965,52.256783],[-1.666856,52.257955],[-1.668519,52.258212],[-1.669209,52.258],[-1.669014,52.259191],[-1.669389,52.259965],[-1.674002,52.263043],[-1.675825,52.265386],[-1.67644,52.270104],[-1.674112,52.269923],[-1.675285,52.271897],[-1.675004,52.274174],[-1.672648,52.277921],[-1.66934,52.280782],[-1.667153,52.282171],[-1.665826,52.283781],[-1.665803,52.284166],[-1.66691,52.28511],[-1.66909,52.285816],[-1.674234,52.286417],[-1.677258,52.285953],[-1.679328,52.286743],[-1.680303,52.285512],[-1.681182,52.285321],[-1.682235,52.284267],[-1.683599,52.284003],[-1.68549,52.282801],[-1.690262,52.284348],[-1.692619,52.285933],[-1.693649,52.286048],[-1.695234,52.28694],[-1.697453,52.289407],[-1.69997,52.291251],[-1.703883,52.291239],[-1.712293,52.289683],[-1.717167,52.293299],[-1.718113,52.294936],[-1.719134,52.295396],[-1.719762,52.296321],[-1.722718,52.29709],[-1.723764,52.29846],[-1.724698,52.298378],[-1.725459,52.297767],[-1.726466,52.297767],[-1.726957,52.297164],[-1.726645,52.29675],[-1.72711,52.296628],[-1.727813,52.296961],[-1.727726,52.296595],[-1.728645,52.296427],[-1.728825,52.296126],[-1.729994,52.296169],[-1.731451,52.295263],[-1.732047,52.295851],[-1.733042,52.295409],[-1.732373,52.295124],[-1.733912,52.294455],[-1.733679,52.294132],[-1.733157,52.294203],[-1.733828,52.293516],[-1.733889,52.293808],[-1.734489,52.293843],[-1.735528,52.294557],[-1.736874,52.296048],[-1.737239,52.295891],[-1.738534,52.297295],[-1.738602,52.297816],[-1.737356,52.298973],[-1.737998,52.298985],[-1.738133,52.299737],[-1.737754,52.300068],[-1.738907,52.300802],[-1.73877,52.30107],[-1.740159,52.301356],[-1.739874,52.301723],[-1.740902,52.301838],[-1.741265,52.302365],[-1.743719,52.302956],[-1.746651,52.302716],[-1.747727,52.304745],[-1.749849,52.304768],[-1.751852,52.305212],[-1.75392,52.304878],[-1.754808,52.305022],[-1.761665,52.308006],[-1.760769,52.30875],[-1.760727,52.310285],[-1.763538,52.312614],[-1.764766,52.314549],[-1.766567,52.315817],[-1.769014,52.319339],[-1.768079,52.323811],[-1.767606,52.328599],[-1.771956,52.338445],[-1.773766,52.341049],[-1.776222,52.349616],[-1.774834,52.350389],[-1.771872,52.351258],[-1.771746,52.351668],[-1.773017,52.352499],[-1.77481,52.354534],[-1.77318,52.35553],[-1.771986,52.355247],[-1.7718,52.355856],[-1.772847,52.356023],[-1.773449,52.356618],[-1.776578,52.355063],[-1.778185,52.356445],[-1.778184,52.357738],[-1.778902,52.357786],[-1.778643,52.360194],[-1.779079,52.360125],[-1.780127,52.36385],[-1.779614,52.364276],[-1.775613,52.365899],[-1.772134,52.365394],[-1.77006,52.364635],[-1.770129,52.364045],[-1.767042,52.364683],[-1.7627,52.36421],[-1.759569,52.362528],[-1.759888,52.359192],[-1.759515,52.358403],[-1.7535,52.356022],[-1.752194,52.355874],[-1.751286,52.355126],[-1.748675,52.354742],[-1.745926,52.354877],[-1.743881,52.355317],[-1.742434,52.356885],[-1.741437,52.357235],[-1.74103,52.360072],[-1.738222,52.361981],[-1.73773,52.362773],[-1.738323,52.364972],[-1.736546,52.368434],[-1.73575,52.36889],[-1.735234,52.370062],[-1.734031,52.370718],[-1.730483,52.370654],[-1.72889,52.37007],[-1.72858,52.370422],[-1.727569,52.369855],[-1.726048,52.370256],[-1.725639,52.370639],[-1.723282,52.37077],[-1.720863,52.37197],[-1.720796,52.372526],[-1.720258,52.372574],[-1.718233,52.369478],[-1.71773,52.367838],[-1.718023,52.366016],[-1.720088,52.36317],[-1.720755,52.35924],[-1.720211,52.357444],[-1.718535,52.355818],[-1.718757,52.357339],[-1.718337,52.358692],[-1.717141,52.358145],[-1.715093,52.357949],[-1.712837,52.356802],[-1.712635,52.356253],[-1.711373,52.355378],[-1.71027,52.355021],[-1.707215,52.355157],[-1.704089,52.35421],[-1.700017,52.354755],[-1.698092,52.355732],[-1.695766,52.353786],[-1.693885,52.351013],[-1.692626,52.351559],[-1.691363,52.353118],[-1.687543,52.354437],[-1.684931,52.356011],[-1.685405,52.356871],[-1.685862,52.356904],[-1.686177,52.3581],[-1.685684,52.358224],[-1.683691,52.360397],[-1.684693,52.362728],[-1.684027,52.363252],[-1.679621,52.363595],[-1.67794,52.364134],[-1.672533,52.363128],[-1.669985,52.36491],[-1.668105,52.364494],[-1.666812,52.364949],[-1.666064,52.364454],[-1.66405,52.363969],[-1.660888,52.36567],[-1.653086,52.359938],[-1.65131,52.356421],[-1.648418,52.356743],[-1.647767,52.358073],[-1.644988,52.361],[-1.644843,52.361847],[-1.641754,52.362536],[-1.638086,52.364009],[-1.636459,52.365169],[-1.633448,52.364243],[-1.631572,52.365705],[-1.629767,52.365107],[-1.626495,52.366647],[-1.623401,52.365551],[-1.622507,52.366164],[-1.620966,52.367884],[-1.626616,52.369194],[-1.624837,52.370257],[-1.623675,52.371779],[-1.622233,52.371743],[-1.619015,52.370558],[-1.61853,52.371579],[-1.617677,52.371868],[-1.617041,52.372623],[-1.617485,52.373437],[-1.618237,52.373402],[-1.618145,52.376256],[-1.61636,52.374593],[-1.615371,52.374455],[-1.611691,52.374668],[-1.608897,52.375832],[-1.608907,52.376497],[-1.607828,52.37631],[-1.607106,52.379089],[-1.607628,52.379182],[-1.606915,52.381008],[-1.610283,52.382507],[-1.609394,52.382988],[-1.609775,52.383419],[-1.609046,52.383429],[-1.608806,52.382997],[-1.607509,52.384626],[-1.605169,52.3839],[-1.604583,52.384775],[-1.605456,52.384892],[-1.605032,52.385739],[-1.604142,52.385619],[-1.60377,52.386065],[-1.603423,52.385986],[-1.601994,52.387418],[-1.603284,52.388194],[-1.601067,52.389299],[-1.597693,52.388043]]]}}]}