{"type":"FeatureCollection","features":[{"type":"Feature","properties":{"slug":"watford","gss_code":"E07000103","name":"Watford"},"geometry":{"type":"Polygon","coordinates":[[[-0.3792,51.695346],[-0.379293,51.694789],[-0.378797,51.694738],[-0.378602,51.694258],[-0.378742,51.692686],[-0.375558,51.692912],[-0.375358,51.692512],[-0.378723,51.689894],[-0.378287,51.688093],[-0.372341,51.684704],[-0.36949,51.684292],[-0.369424,51.683559],[-0.370623,51.682187],[-0.370535,51.681704],[-0.37101,51.68152],[-0.371035,51.680691],[-0.370405,51.67892],[-0.36942,51.678817],[-0.368766,51.678327],[-0.372037,51.676201],[-0.374709,51.673549],[-0.379179,51.670033],[-0.382526,51.670418],[-0.384093,51.669228],[-0.384201,51.668832],[-0.382994,51.668157],[-0.383622,51.665807],[-0.385659,51.664986],[-0.385548,51.664139],[-0.386548,51.663743],[-0.386808,51.663227],[-0.38647,51.661881],[-0.385277,51.660405],[-0.386831,51.65724],[-0.383298,51.652439],[-0.383317,51.648502],[-0.380894,51.647909],[-0.380641,51.648116],[-0.376004,51.644718],[-0.371634,51.643434],[-0.375796,51.641959],[-0.37532,51.64157],[-0.376666,51.640333],[-0.379961,51.639617],[-0.377373,51.637733],[-0.378533,51.637117],[-0.380821,51.638589],[-0.382302,51.637837],[-0.38283,51.638151],[-0.383687,51.637851],[-0.386292,51.63822],[-0.386263,51.639516],[-0.387217,51.639597],[-0.387682,51.638821],[-0.39022,51.640042],[-0.394292,51.637721],[-0.399775,51.64001],[-0.398133,51.641102],[-0.402383,51.643374],[-0.402793,51.643868],[-0.40473,51.643793],[-0.408091,51.642735],[-0.409291,51.640617],[-0.409933,51.640784],[-0.41088,51.639951],[-0.412449,51.640697],[-0.413189,51.640541],[-0.414913,51.641026],[-0.41889,51.640752],[-0.428825,51.641319],[-0.431121,51.642096],[-0.428489,51.644267],[-0.426033,51.645365],[-0.427614,51.646868],[-0.430351,51.648521],[-0.427666,51.6496],[-0.426552,51.650411],[-0.426572,51.652093],[-0.424448,51.654982],[-0.427835,51.655692],[-0.427795,51.656266],[-0.429995,51.656354],[-0.43138,51.657179],[-0.432462,51.657313],[-0.436215,51.659909],[-0.437323,51.661238],[-0.437602,51.663298],[-0.438289,51.664348],[-0.436185,51.668207],[-0.438289,51.670566],[-0.439543,51.67275],[-0.432398,51.672609],[-0.430945,51.670298],[-0.428291,51.670554],[-0.427858,51.671747],[-0.428307,51.672307],[-0.427845,51.672648],[-0.427524,51.674233],[-0.430302,51.676912],[-0.430237,51.677586],[-0.431103,51.679026],[-0.429656,51.680008],[-0.431053,51.680944],[-0.431611,51.681815],[-0.431347,51.682464],[-0.430025,51.683422],[-0.428157,51.684057],[-0.427379,51.685437],[-0.425263,51.68534],[-0.415657,51.687335],[-0.412836,51.688638],[-0.407317,51.69662],[-0.405781,51.696497],[-0.403195,51.699913],[-0.402413,51.701943],[-0.396013,51.70035],[-0.388334,51.696403],[-0.3792,51.695346]]]}}]}