{"type":"FeatureCollection","features":[{"type":"Feature","properties":{"slug":"west-suffolk","gss_code":"E07000245","name":"West Suffolk"},"geometry":{"type":"Polygon","coordinates":[[[0.6784,52.454729],[0.681504,52.454175],[0.683973,52.453165],[0.694471,52.451017],[0.696929,52.451371],[0.701157,52.451337],[0.705559,52.452587],[0.706477,52.452557],[0.707517,52.451942],[0.71339,52.450046],[0.714855,52.449896],[0.715808,52.449333],[0.716802,52.449701],[0.718882,52.449631],[0.717552,52.446719],[0.71485,52.444514],[0.705057,52.438309],[0.696149,52.43328],[0.691343,52.427735],[0.690115,52.4268],[0.684812,52.424909],[0.683155,52.422569],[0.680611,52.420986],[0.67382,52.415322],[0.67218,52.412801],[0.668541,52.409058],[0.671796,52.405192],[0.673382,52.404208],[0.680898,52.400631],[0.686011,52.398675],[0.694657,52.396824],[0.708184,52.396048],[0.712438,52.394623],[0.716033,52.394021],[0.722219,52.393692],[0.733344,52.395389],[0.737589,52.395138],[0.738613,52.393093],[0.740997,52.392234],[0.741124,52.392665],[0.741817,52.392694],[0.740854,52.391228],[0.74139,52.390164],[0.741261,52.389494],[0.740563,52.388945],[0.740966,52.38819],[0.743398,52.387395],[0.744637,52.385952],[0.744878,52.384905],[0.746744,52.38382],[0.74691,52.383364],[0.749844,52.382926],[0.750485,52.383061],[0.750868,52.383561],[0.751232,52.383409],[0.752541,52.38406],[0.75431,52.384272],[0.759136,52.386498],[0.7607,52.386767],[0.762438,52.388117],[0.762681,52.388966],[0.765966,52.390357],[0.767301,52.390407],[0.768146,52.390015],[0.770296,52.389806],[0.772569,52.386679],[0.773435,52.386327],[0.775254,52.386959],[0.777354,52.386758],[0.779549,52.387269],[0.783761,52.386261],[0.785928,52.386489],[0.786572,52.387221],[0.787902,52.387617],[0.794853,52.391115],[0.796131,52.391242],[0.800725,52.389784],[0.803657,52.38925],[0.804389,52.389502],[0.808172,52.389524],[0.812784,52.390918],[0.814812,52.393417],[0.816015,52.39354],[0.816605,52.393963],[0.81834,52.393673],[0.819697,52.393828],[0.820499,52.39341],[0.823138,52.393728],[0.824388,52.394567],[0.827646,52.394905],[0.829383,52.396138],[0.829866,52.397294],[0.833132,52.398914],[0.834257,52.399169],[0.835287,52.399983],[0.838157,52.400764],[0.840911,52.400846],[0.849459,52.399584],[0.855439,52.399441],[0.857107,52.398091],[0.856873,52.395186],[0.859708,52.393424],[0.861806,52.39298],[0.863458,52.391293],[0.866873,52.390346],[0.868688,52.390478],[0.872336,52.389902],[0.874846,52.389922],[0.880942,52.391758],[0.887152,52.390882],[0.889754,52.39094],[0.892062,52.390528],[0.892926,52.389542],[0.892516,52.389049],[0.893458,52.388465],[0.894529,52.388142],[0.897441,52.388249],[0.899013,52.387475],[0.899593,52.387563],[0.900736,52.386639],[0.901811,52.38639],[0.903157,52.386661],[0.904928,52.385783],[0.907015,52.386331],[0.907715,52.386217],[0.909212,52.38751],[0.911112,52.387466],[0.911005,52.387902],[0.913118,52.388768],[0.914807,52.388636],[0.915819,52.388974],[0.917454,52.388699],[0.918961,52.388874],[0.919992,52.389362],[0.920382,52.388925],[0.920718,52.389182],[0.921576,52.388883],[0.921329,52.389572],[0.922332,52.389505],[0.922946,52.390039],[0.923391,52.389339],[0.923979,52.389619],[0.924205,52.38916],[0.925272,52.389291],[0.925299,52.388819],[0.927213,52.388281],[0.928511,52.388282],[0.930187,52.388843],[0.930538,52.388352],[0.931101,52.388672],[0.931088,52.388256],[0.931728,52.388384],[0.931488,52.387929],[0.932797,52.387968],[0.933659,52.387321],[0.935413,52.387185],[0.936268,52.386641],[0.936789,52.386692],[0.936542,52.385222],[0.937377,52.384276],[0.940332,52.382937],[0.940033,52.382504],[0.940652,52.382415],[0.940473,52.382205],[0.941631,52.381068],[0.941579,52.379993],[0.942161,52.378972],[0.943626,52.378175],[0.945137,52.377893],[0.9454,52.377403],[0.94654,52.37689],[0.94696,52.375983],[0.948306,52.375778],[0.948907,52.376287],[0.949651,52.376184],[0.950924,52.375092],[0.954103,52.374502],[0.9538,52.373847],[0.954697,52.373655],[0.954583,52.372818],[0.955337,52.372846],[0.957014,52.371913],[0.963176,52.371603],[0.965304,52.370397],[0.967471,52.370113],[0.967214,52.36884],[0.966611,52.368702],[0.966629,52.367103],[0.96705,52.366842],[0.96721,52.365721],[0.964719,52.364103],[0.959191,52.361707],[0.953707,52.35701],[0.953154,52.356033],[0.955097,52.355602],[0.956006,52.354401],[0.956152,52.351499],[0.956959,52.350856],[0.957964,52.350755],[0.957378,52.347862],[0.957982,52.347408],[0.957696,52.345723],[0.956745,52.345471],[0.95566,52.341718],[0.95748,52.340743],[0.955831,52.339331],[0.955081,52.338145],[0.952888,52.33714],[0.953231,52.336861],[0.946621,52.336457],[0.940579,52.335517],[0.937941,52.334702],[0.936116,52.335322],[0.932697,52.33573],[0.933192,52.334146],[0.932222,52.332944],[0.932271,52.331998],[0.931432,52.330402],[0.928509,52.327951],[0.926852,52.328335],[0.925693,52.327336],[0.92514,52.325587],[0.92612,52.323353],[0.926214,52.321424],[0.92681,52.320084],[0.925941,52.319279],[0.927541,52.316432],[0.930127,52.314322],[0.931124,52.312869],[0.925136,52.311737],[0.918545,52.311338],[0.919472,52.309413],[0.916814,52.308102],[0.908731,52.30613],[0.904577,52.305588],[0.908185,52.303487],[0.909014,52.304472],[0.911336,52.303481],[0.911678,52.30206],[0.908919,52.301592],[0.903161,52.303846],[0.90335,52.30181],[0.90284,52.300781],[0.900152,52.298916],[0.899454,52.29899],[0.898313,52.299712],[0.895935,52.299993],[0.892885,52.300102],[0.889687,52.299722],[0.882935,52.300137],[0.882866,52.298184],[0.883625,52.298269],[0.884649,52.297412],[0.885727,52.297424],[0.885634,52.296097],[0.886875,52.295908],[0.887357,52.292719],[0.883785,52.292785],[0.8796,52.293406],[0.880339,52.295309],[0.880023,52.296014],[0.876989,52.295827],[0.87689,52.297552],[0.874329,52.298282],[0.874079,52.299492],[0.866795,52.297864],[0.868687,52.295755],[0.869003,52.293459],[0.863626,52.293267],[0.859664,52.291964],[0.855262,52.291546],[0.855557,52.286349],[0.8527,52.286183],[0.849788,52.285344],[0.842899,52.284781],[0.843898,52.284443],[0.845985,52.282711],[0.84843,52.282351],[0.849046,52.281961],[0.849102,52.280095],[0.850466,52.278429],[0.853683,52.27707],[0.854212,52.276227],[0.853888,52.27522],[0.85444,52.27516],[0.852794,52.271725],[0.854119,52.270438],[0.855509,52.269764],[0.856327,52.268442],[0.85356,52.267514],[0.85206,52.265486],[0.849568,52.264804],[0.842594,52.268027],[0.840184,52.266319],[0.842502,52.263985],[0.844646,52.263227],[0.845707,52.262327],[0.845958,52.261778],[0.843865,52.2598],[0.841919,52.26012],[0.836931,52.261976],[0.836244,52.263139],[0.83306,52.264816],[0.825826,52.266515],[0.82298,52.266269],[0.820709,52.26649],[0.817711,52.264382],[0.81299,52.265102],[0.809417,52.267051],[0.803768,52.265984],[0.801604,52.265909],[0.799441,52.264713],[0.800832,52.263659],[0.798994,52.262356],[0.802186,52.258144],[0.798225,52.2562],[0.797581,52.25123],[0.801053,52.251107],[0.80777,52.249395],[0.806681,52.246439],[0.813426,52.245995],[0.813589,52.243804],[0.816923,52.241425],[0.821398,52.241535],[0.824974,52.240336],[0.82713,52.238968],[0.824163,52.238868],[0.819952,52.233379],[0.821856,52.229983],[0.820915,52.22937],[0.822775,52.227915],[0.821719,52.224895],[0.820832,52.223521],[0.821974,52.223264],[0.820635,52.222769],[0.819806,52.221327],[0.817125,52.213286],[0.814208,52.207043],[0.815155,52.20391],[0.818809,52.202029],[0.819919,52.200167],[0.819416,52.198987],[0.821355,52.19899],[0.824501,52.199667],[0.825353,52.199456],[0.826417,52.200217],[0.827594,52.198614],[0.829284,52.197633],[0.830257,52.19904],[0.831915,52.198965],[0.832106,52.197693],[0.829776,52.197323],[0.830083,52.196838],[0.831907,52.197144],[0.832038,52.19763],[0.832638,52.197615],[0.832556,52.198651],[0.836346,52.198296],[0.835963,52.197235],[0.836693,52.196798],[0.835359,52.195825],[0.837226,52.195683],[0.83723,52.195215],[0.838129,52.195341],[0.838055,52.194583],[0.836042,52.192681],[0.836042,52.190121],[0.834679,52.187993],[0.833345,52.186824],[0.832729,52.186841],[0.83335,52.184688],[0.836274,52.182169],[0.830123,52.180283],[0.829862,52.17925],[0.824572,52.179715],[0.822494,52.174559],[0.817242,52.17237],[0.814169,52.170733],[0.809606,52.172084],[0.807684,52.172151],[0.804732,52.17365],[0.800067,52.174446],[0.798401,52.174373],[0.796624,52.175211],[0.795467,52.175148],[0.793079,52.175641],[0.792186,52.176264],[0.789402,52.176747],[0.786919,52.177894],[0.782234,52.177625],[0.779668,52.176791],[0.777133,52.176548],[0.777332,52.175702],[0.776495,52.174515],[0.768689,52.175],[0.768515,52.174274],[0.76505,52.173903],[0.762902,52.163556],[0.7616,52.161765],[0.762051,52.160456],[0.761543,52.157938],[0.759087,52.157522],[0.756899,52.159527],[0.755364,52.159509],[0.753007,52.160012],[0.74987,52.159145],[0.747606,52.15959],[0.74312,52.159692],[0.741992,52.159331],[0.740908,52.160668],[0.742263,52.161835],[0.741808,52.165049],[0.739498,52.165358],[0.738102,52.16613],[0.738716,52.16848],[0.738336,52.169971],[0.734417,52.168647],[0.732869,52.167684],[0.733004,52.167038],[0.732055,52.166493],[0.732923,52.165214],[0.732776,52.164754],[0.731206,52.166119],[0.729829,52.165715],[0.729026,52.167672],[0.728162,52.1681],[0.726428,52.166646],[0.726844,52.165987],[0.723494,52.164973],[0.722799,52.165104],[0.722302,52.16623],[0.721256,52.167454],[0.720629,52.167676],[0.7201,52.168903],[0.720286,52.170057],[0.719679,52.170275],[0.720378,52.171298],[0.719603,52.171547],[0.720039,52.17229],[0.71989,52.173909],[0.716636,52.174367],[0.7157,52.175185],[0.715964,52.179281],[0.715384,52.179246],[0.714936,52.177285],[0.710616,52.178566],[0.707496,52.179076],[0.705997,52.179863],[0.704122,52.180272],[0.703341,52.181077],[0.698145,52.181308],[0.694232,52.180007],[0.695864,52.177601],[0.695185,52.176968],[0.69574,52.1756],[0.693156,52.175443],[0.69502,52.17308],[0.696498,52.173184],[0.695521,52.172415],[0.696187,52.172105],[0.696124,52.171],[0.697187,52.170622],[0.697329,52.170123],[0.694468,52.169031],[0.694398,52.168745],[0.695061,52.168944],[0.695034,52.168233],[0.694504,52.167271],[0.69347,52.166646],[0.692186,52.167134],[0.690872,52.166341],[0.692555,52.165874],[0.692947,52.165451],[0.692607,52.164438],[0.693041,52.162445],[0.6917,52.157581],[0.688961,52.157823],[0.687989,52.158665],[0.687018,52.158697],[0.686182,52.159311],[0.685243,52.15889],[0.684862,52.157825],[0.682044,52.155997],[0.68153,52.156036],[0.677087,52.157425],[0.674254,52.156731],[0.674132,52.157348],[0.676738,52.157533],[0.676708,52.158033],[0.67554,52.15926],[0.67347,52.159243],[0.66832,52.15809],[0.664178,52.15768],[0.66424,52.156357],[0.663713,52.156331],[0.66309,52.158661],[0.663418,52.160701],[0.661148,52.160527],[0.657854,52.161258],[0.656282,52.161001],[0.6536,52.161519],[0.649909,52.160411],[0.645374,52.160177],[0.645382,52.159128],[0.644616,52.158284],[0.646376,52.156945],[0.645611,52.156377],[0.64469,52.15635],[0.644205,52.155749],[0.641387,52.156285],[0.640182,52.152925],[0.639709,52.152982],[0.638879,52.150955],[0.637541,52.150233],[0.639129,52.148782],[0.637932,52.148069],[0.639587,52.146913],[0.640262,52.145818],[0.638491,52.144944],[0.638607,52.144623],[0.637785,52.143974],[0.636792,52.144014],[0.634614,52.143281],[0.634063,52.143471],[0.633374,52.14249],[0.63372,52.141376],[0.636308,52.140172],[0.638017,52.137883],[0.636109,52.136136],[0.636892,52.13607],[0.637945,52.13541],[0.637208,52.133393],[0.63633,52.132439],[0.635211,52.132641],[0.634345,52.13223],[0.632838,52.130569],[0.626917,52.131],[0.626895,52.128991],[0.628755,52.128737],[0.629538,52.127863],[0.633352,52.127713],[0.630797,52.12734],[0.630681,52.125428],[0.628663,52.124665],[0.63096,52.122529],[0.631827,52.122385],[0.634362,52.123061],[0.635828,52.12296],[0.635995,52.122231],[0.634964,52.121147],[0.636328,52.119412],[0.633989,52.118159],[0.633848,52.116881],[0.632675,52.115235],[0.634951,52.115377],[0.635704,52.114348],[0.637287,52.114662],[0.637978,52.113514],[0.638611,52.110103],[0.642393,52.110238],[0.643378,52.109078],[0.642597,52.109],[0.643125,52.107351],[0.643535,52.107449],[0.646816,52.1027],[0.647814,52.103007],[0.648642,52.102154],[0.650546,52.101204],[0.648847,52.100664],[0.649324,52.099544],[0.651256,52.099894],[0.652922,52.097607],[0.653189,52.09659],[0.653767,52.096616],[0.653528,52.095372],[0.655266,52.0909],[0.654722,52.08928],[0.654778,52.087618],[0.653953,52.087568],[0.654147,52.086168],[0.656536,52.086203],[0.656901,52.085442],[0.654651,52.085055],[0.652948,52.083448],[0.651937,52.083133],[0.647209,52.084348],[0.646545,52.085134],[0.645671,52.085211],[0.645265,52.084897],[0.64415,52.08517],[0.643745,52.085607],[0.642334,52.085567],[0.641695,52.086294],[0.637877,52.086159],[0.637113,52.086668],[0.634406,52.086258],[0.63254,52.084543],[0.632478,52.083299],[0.632942,52.082862],[0.631768,52.081867],[0.62828,52.081737],[0.626747,52.081025],[0.626201,52.080399],[0.62676,52.07984],[0.625655,52.079256],[0.624209,52.079346],[0.624028,52.079024],[0.62255,52.079285],[0.620151,52.078788],[0.620351,52.07699],[0.619341,52.076552],[0.6182,52.076966],[0.618126,52.077554],[0.617129,52.077819],[0.615672,52.077648],[0.615279,52.078137],[0.612253,52.078795],[0.60916,52.079929],[0.609399,52.08031],[0.608726,52.080664],[0.607446,52.080919],[0.60618,52.08026],[0.605508,52.080253],[0.604363,52.079494],[0.603295,52.076977],[0.602689,52.077058],[0.600058,52.075665],[0.598398,52.07528],[0.596257,52.07631],[0.595034,52.076213],[0.595599,52.075951],[0.595282,52.075002],[0.595765,52.075015],[0.596,52.074613],[0.59476,52.074181],[0.594191,52.0748],[0.593417,52.074655],[0.593101,52.075025],[0.591284,52.074621],[0.589677,52.075265],[0.589397,52.074584],[0.588569,52.074714],[0.587838,52.074328],[0.585885,52.074463],[0.584825,52.074164],[0.584295,52.075514],[0.582003,52.075852],[0.582558,52.074486],[0.578973,52.073535],[0.578133,52.073955],[0.577336,52.073162],[0.576779,52.073614],[0.576206,52.072873],[0.576281,52.071164],[0.571744,52.069049],[0.568355,52.069707],[0.567808,52.069568],[0.567437,52.070215],[0.566696,52.070499],[0.566925,52.070984],[0.565059,52.071327],[0.564905,52.071003],[0.562368,52.070773],[0.561523,52.071131],[0.558493,52.070046],[0.556727,52.069783],[0.555112,52.069139],[0.55541,52.068711],[0.556008,52.068704],[0.555741,52.068372],[0.553425,52.068865],[0.551422,52.068803],[0.551271,52.068025],[0.550151,52.067225],[0.550317,52.066226],[0.549441,52.065165],[0.54967,52.064073],[0.551719,52.062795],[0.551516,52.062038],[0.550981,52.061696],[0.55035,52.062214],[0.547609,52.061998],[0.546714,52.061444],[0.546367,52.059772],[0.543182,52.05855],[0.542699,52.057875],[0.538551,52.057882],[0.537657,52.058172],[0.537082,52.058764],[0.5373,52.058992],[0.534339,52.059735],[0.530058,52.059387],[0.524988,52.057129],[0.523243,52.056777],[0.519339,52.057312],[0.518402,52.057705],[0.518342,52.058367],[0.517301,52.058812],[0.515819,52.058619],[0.514793,52.059293],[0.513328,52.059024],[0.513161,52.059702],[0.51113,52.059864],[0.509051,52.058148],[0.509208,52.057569],[0.506557,52.056334],[0.506114,52.055406],[0.504589,52.054475],[0.500488,52.053846],[0.500502,52.056201],[0.500129,52.056685],[0.495001,52.057461],[0.494689,52.058103],[0.493251,52.058489],[0.493226,52.058777],[0.492399,52.058729],[0.492123,52.059405],[0.491332,52.059279],[0.490104,52.059956],[0.487727,52.062467],[0.487287,52.063977],[0.489288,52.065586],[0.489469,52.066423],[0.490246,52.06708],[0.487146,52.069627],[0.484139,52.070324],[0.482985,52.072479],[0.481028,52.072263],[0.475468,52.073522],[0.475836,52.074454],[0.474721,52.075193],[0.470794,52.073463],[0.469871,52.074347],[0.470215,52.07592],[0.466567,52.07841],[0.465384,52.076617],[0.462424,52.076249],[0.458114,52.076257],[0.458036,52.074876],[0.458695,52.07486],[0.459753,52.073938],[0.460782,52.07379],[0.46022,52.073003],[0.4619,52.072353],[0.455968,52.070833],[0.456064,52.071309],[0.453798,52.071113],[0.453618,52.068129],[0.45273,52.068024],[0.452728,52.069384],[0.451877,52.069389],[0.451806,52.06788],[0.449644,52.067576],[0.447009,52.067809],[0.446763,52.068471],[0.447392,52.069097],[0.447264,52.069589],[0.446765,52.06884],[0.443946,52.068531],[0.444255,52.07017],[0.446099,52.072117],[0.442306,52.071719],[0.441234,52.071808],[0.441231,52.072253],[0.438126,52.072312],[0.437059,52.070297],[0.43538,52.069083],[0.43107,52.068392],[0.428989,52.068366],[0.428794,52.067678],[0.426138,52.067693],[0.424565,52.067014],[0.422971,52.066889],[0.420658,52.066076],[0.418785,52.064905],[0.414582,52.065078],[0.409698,52.064279],[0.406267,52.065347],[0.404638,52.065502],[0.403326,52.066251],[0.406203,52.069175],[0.405708,52.069361],[0.407092,52.070794],[0.400893,52.073019],[0.400908,52.074032],[0.403679,52.075131],[0.401663,52.076432],[0.402996,52.078203],[0.400605,52.080125],[0.400236,52.081035],[0.40062,52.081519],[0.399966,52.081863],[0.400521,52.082288],[0.401021,52.082025],[0.401711,52.082595],[0.399508,52.084159],[0.397183,52.083012],[0.395358,52.084072],[0.39418,52.084354],[0.393382,52.086508],[0.393874,52.08817],[0.39085,52.088483],[0.392477,52.095019],[0.392722,52.095309],[0.394667,52.09488],[0.394997,52.095968],[0.392372,52.096078],[0.389193,52.097138],[0.386864,52.097305],[0.386301,52.097686],[0.388212,52.098263],[0.388688,52.099212],[0.38592,52.099555],[0.384004,52.100727],[0.382587,52.101148],[0.381804,52.102701],[0.383695,52.105409],[0.385231,52.106615],[0.385494,52.11034],[0.388582,52.113532],[0.38817,52.114403],[0.389323,52.116221],[0.38959,52.117471],[0.39834,52.118792],[0.395228,52.119674],[0.39488,52.121547],[0.396363,52.122359],[0.405796,52.122765],[0.40734,52.123101],[0.409011,52.124036],[0.409442,52.125851],[0.407778,52.126194],[0.406956,52.126813],[0.406539,52.127918],[0.405559,52.128244],[0.404674,52.129255],[0.406885,52.130932],[0.409929,52.134416],[0.411888,52.134003],[0.413678,52.134169],[0.417486,52.133162],[0.419363,52.137324],[0.41913,52.138122],[0.419669,52.139611],[0.418584,52.142446],[0.418453,52.145536],[0.419689,52.146771],[0.419457,52.150632],[0.419788,52.152833],[0.420886,52.155639],[0.420477,52.156746],[0.417276,52.159307],[0.421838,52.160379],[0.426163,52.15992],[0.42712,52.160386],[0.430641,52.159497],[0.435916,52.159495],[0.438186,52.160721],[0.438279,52.163037],[0.437075,52.164202],[0.438706,52.165712],[0.439665,52.165677],[0.441095,52.164981],[0.444361,52.164746],[0.443554,52.166458],[0.443304,52.168594],[0.444522,52.171086],[0.44482,52.170957],[0.44659,52.17177],[0.452245,52.173202],[0.454718,52.172511],[0.457029,52.171211],[0.46093,52.171379],[0.463623,52.170466],[0.468283,52.167653],[0.469455,52.166301],[0.470731,52.163259],[0.472457,52.163992],[0.474456,52.165858],[0.476908,52.167482],[0.478615,52.167547],[0.479264,52.165965],[0.481716,52.166301],[0.482436,52.165676],[0.48593,52.165165],[0.487451,52.164503],[0.488332,52.164683],[0.489731,52.165663],[0.491333,52.165102],[0.492667,52.167417],[0.489789,52.168046],[0.488763,52.169154],[0.487465,52.169797],[0.488304,52.171381],[0.491257,52.171987],[0.491084,52.174291],[0.493222,52.175584],[0.493032,52.17619],[0.494171,52.178183],[0.493164,52.181066],[0.493297,52.181387],[0.493965,52.181496],[0.494576,52.184154],[0.493847,52.184578],[0.495056,52.185517],[0.494623,52.186598],[0.494975,52.188733],[0.49579,52.18886],[0.495667,52.189529],[0.496821,52.189824],[0.49683,52.191314],[0.499161,52.192144],[0.500653,52.193294],[0.499772,52.194559],[0.502556,52.196027],[0.50135,52.197305],[0.500692,52.197472],[0.501701,52.199032],[0.502133,52.203047],[0.502891,52.204003],[0.504042,52.204227],[0.503018,52.20703],[0.506699,52.208524],[0.507374,52.212352],[0.508673,52.212328],[0.50865,52.213981],[0.512821,52.213689],[0.51254,52.21845],[0.513139,52.222958],[0.51295,52.225216],[0.514484,52.226779],[0.513229,52.2281],[0.50736,52.230003],[0.500987,52.235396],[0.494891,52.239288],[0.492739,52.23798],[0.491749,52.238885],[0.490017,52.237669],[0.489362,52.238094],[0.489758,52.238361],[0.489369,52.238511],[0.486061,52.236446],[0.484164,52.234821],[0.485735,52.234099],[0.48302,52.232216],[0.481766,52.232376],[0.476102,52.23399],[0.476722,52.234435],[0.477966,52.234488],[0.471819,52.240345],[0.471542,52.240254],[0.470729,52.240962],[0.465165,52.240185],[0.4593,52.243981],[0.455582,52.24758],[0.453345,52.247545],[0.450358,52.24335],[0.449209,52.243639],[0.446001,52.243582],[0.446178,52.242953],[0.44335,52.242612],[0.433998,52.249625],[0.43221,52.251534],[0.429863,52.251435],[0.426965,52.253603],[0.414518,52.247861],[0.417361,52.246262],[0.420931,52.24271],[0.420676,52.241962],[0.421231,52.240907],[0.42114,52.240252],[0.420753,52.240188],[0.421382,52.23998],[0.421335,52.239691],[0.415272,52.238119],[0.411508,52.240117],[0.408781,52.239068],[0.398769,52.233322],[0.394878,52.230723],[0.384609,52.234063],[0.371249,52.22659],[0.369413,52.227513],[0.370132,52.227817],[0.369628,52.228233],[0.368969,52.227806],[0.342684,52.242343],[0.346313,52.243626],[0.35141,52.244702],[0.356664,52.246289],[0.356023,52.246776],[0.360955,52.249348],[0.358104,52.252457],[0.350322,52.258694],[0.342755,52.263485],[0.344722,52.26456],[0.339944,52.267748],[0.3441,52.269729],[0.342457,52.270009],[0.346372,52.271958],[0.349275,52.273858],[0.355241,52.279336],[0.355483,52.279876],[0.35251,52.282285],[0.350532,52.282949],[0.353083,52.285069],[0.359172,52.289138],[0.358578,52.290196],[0.360599,52.293535],[0.358709,52.297358],[0.360701,52.297808],[0.368809,52.296503],[0.370871,52.294826],[0.37626,52.293562],[0.377869,52.291252],[0.378433,52.291814],[0.378727,52.293523],[0.380618,52.29355],[0.380763,52.293005],[0.382723,52.293266],[0.386302,52.28997],[0.385536,52.289644],[0.385944,52.285878],[0.385363,52.282998],[0.393439,52.281173],[0.393482,52.280856],[0.395354,52.280455],[0.394727,52.278884],[0.403837,52.274461],[0.419627,52.25976],[0.424198,52.255876],[0.424882,52.256428],[0.425244,52.256251],[0.453801,52.263694],[0.459546,52.265646],[0.494089,52.271984],[0.495199,52.27232],[0.495946,52.273343],[0.497592,52.273249],[0.4978,52.2729],[0.498853,52.273015],[0.498676,52.274019],[0.498337,52.274129],[0.498147,52.273722],[0.497942,52.274368],[0.496182,52.275305],[0.497012,52.275776],[0.495079,52.275685],[0.495893,52.276842],[0.496418,52.277146],[0.496953,52.276956],[0.496941,52.277719],[0.498171,52.27827],[0.496686,52.278674],[0.496784,52.280241],[0.495834,52.280404],[0.496643,52.280543],[0.496296,52.280785],[0.496733,52.281059],[0.497396,52.280703],[0.497997,52.281201],[0.49781,52.281538],[0.498541,52.281699],[0.497698,52.281895],[0.500281,52.282916],[0.499995,52.283418],[0.499422,52.283725],[0.499155,52.283475],[0.498944,52.283763],[0.499212,52.284696],[0.504706,52.28473],[0.504569,52.286473],[0.501282,52.289317],[0.496252,52.291189],[0.488562,52.296116],[0.485451,52.295268],[0.485311,52.296312],[0.485808,52.296777],[0.485229,52.297089],[0.485476,52.297467],[0.483965,52.298245],[0.482501,52.299712],[0.481533,52.299735],[0.480898,52.300035],[0.480966,52.300452],[0.480007,52.300562],[0.480102,52.301025],[0.479373,52.301083],[0.47966,52.301306],[0.479144,52.301847],[0.477327,52.30196],[0.476969,52.302172],[0.477313,52.302453],[0.476678,52.302369],[0.4762,52.302783],[0.476508,52.30316],[0.47411,52.303983],[0.47393,52.303612],[0.473542,52.303869],[0.473843,52.304242],[0.472941,52.303912],[0.472354,52.30414],[0.472605,52.304426],[0.471305,52.304219],[0.470356,52.304836],[0.47112,52.304856],[0.471047,52.305552],[0.469357,52.307078],[0.468317,52.307386],[0.467908,52.307197],[0.467276,52.30771],[0.466291,52.307925],[0.464554,52.307824],[0.462093,52.308815],[0.46142,52.310928],[0.460423,52.311655],[0.460353,52.312526],[0.459663,52.312914],[0.459002,52.314217],[0.458993,52.315482],[0.4575,52.316296],[0.454083,52.316488],[0.453616,52.316831],[0.452965,52.316587],[0.452475,52.31721],[0.450983,52.316625],[0.449495,52.316671],[0.447989,52.316913],[0.446623,52.317626],[0.445654,52.317666],[0.441626,52.317216],[0.441951,52.316827],[0.441135,52.316473],[0.438831,52.316816],[0.431377,52.315825],[0.429881,52.318955],[0.428962,52.323988],[0.424189,52.329229],[0.429935,52.331275],[0.431759,52.332582],[0.435011,52.334036],[0.436276,52.333527],[0.436051,52.334625],[0.436601,52.334906],[0.435777,52.335781],[0.436164,52.335916],[0.437294,52.33517],[0.437604,52.335302],[0.436859,52.337138],[0.437712,52.337728],[0.437365,52.338616],[0.437978,52.339043],[0.438212,52.340473],[0.440307,52.342024],[0.440974,52.343563],[0.440762,52.344319],[0.441455,52.344684],[0.441459,52.345885],[0.442461,52.346916],[0.44257,52.348813],[0.440855,52.349113],[0.4373,52.350601],[0.435445,52.352183],[0.432972,52.352222],[0.43137,52.352747],[0.429529,52.352852],[0.427522,52.353704],[0.425131,52.3521],[0.422642,52.352362],[0.420053,52.352155],[0.419558,52.352561],[0.419568,52.353654],[0.420532,52.355844],[0.418761,52.356708],[0.419225,52.357936],[0.415597,52.35979],[0.409957,52.360191],[0.407692,52.361512],[0.407328,52.363092],[0.40021,52.372866],[0.389106,52.387374],[0.384606,52.392252],[0.382086,52.396273],[0.374777,52.409729],[0.417654,52.42813],[0.425313,52.430327],[0.423208,52.433966],[0.425338,52.434143],[0.428,52.435072],[0.430731,52.437439],[0.431182,52.438432],[0.433606,52.439037],[0.436068,52.440278],[0.439071,52.440693],[0.440025,52.442102],[0.439168,52.443543],[0.440993,52.444815],[0.444372,52.445525],[0.445437,52.447375],[0.449339,52.445841],[0.449891,52.447705],[0.451412,52.447781],[0.452872,52.446347],[0.456994,52.444953],[0.458045,52.445598],[0.459331,52.447219],[0.466827,52.445941],[0.46729,52.445274],[0.469719,52.446142],[0.473346,52.445923],[0.475585,52.44672],[0.478136,52.445598],[0.480932,52.44692],[0.48538,52.447737],[0.493395,52.447958],[0.496095,52.447332],[0.498116,52.448199],[0.49996,52.449998],[0.500977,52.450294],[0.503457,52.450062],[0.507962,52.450619],[0.51363,52.449272],[0.515493,52.450481],[0.516289,52.450607],[0.523765,52.448211],[0.526858,52.44982],[0.528193,52.452857],[0.530441,52.453633],[0.531853,52.453427],[0.53355,52.451696],[0.537662,52.4512],[0.540623,52.450351],[0.542688,52.450364],[0.544533,52.451623],[0.547821,52.452038],[0.549035,52.453279],[0.549519,52.454572],[0.554821,52.456028],[0.559152,52.45586],[0.563152,52.453476],[0.567958,52.453467],[0.57226,52.451982],[0.577951,52.452532],[0.582501,52.451861],[0.586316,52.452208],[0.586944,52.452526],[0.58685,52.452932],[0.588545,52.453602],[0.591447,52.453996],[0.593233,52.453629],[0.595516,52.454273],[0.597101,52.454263],[0.598578,52.453958],[0.599593,52.453274],[0.60508,52.452741],[0.609479,52.452716],[0.609369,52.451996],[0.60848,52.451628],[0.60986,52.450319],[0.615727,52.448981],[0.619006,52.449555],[0.621829,52.451271],[0.621908,52.451658],[0.61938,52.452725],[0.620291,52.454346],[0.62206,52.454386],[0.622621,52.453669],[0.629787,52.454054],[0.629315,52.452454],[0.627952,52.451121],[0.627178,52.450902],[0.628944,52.450069],[0.633548,52.45037],[0.636117,52.45138],[0.638681,52.45103],[0.64222,52.451047],[0.642974,52.452278],[0.645213,52.452556],[0.645483,52.453631],[0.646738,52.453548],[0.647203,52.452909],[0.649347,52.454506],[0.649323,52.454906],[0.648473,52.455298],[0.649858,52.455638],[0.651335,52.456871],[0.654798,52.457364],[0.656355,52.457242],[0.65665,52.458141],[0.658226,52.458751],[0.658809,52.459467],[0.660665,52.460151],[0.66343,52.462067],[0.666307,52.462542],[0.668327,52.462083],[0.671975,52.46031],[0.672616,52.458947],[0.6784,52.454729]]]}}]}