{"type":"FeatureCollection","features":[{"type":"Feature","properties":{"slug":"west-berkshire","gss_code":"E06000037","name":"West Berkshire"},"geometry":{"type":"Polygon","coordinates":[[[-1.310699,51.557005],[-1.309514,51.557212],[-1.307968,51.556852],[-1.303453,51.556662],[-1.302805,51.556396],[-1.302807,51.555856],[-1.301944,51.555065],[-1.297491,51.553416],[-1.297202,51.552931],[-1.294265,51.553938],[-1.289496,51.552395],[-1.287596,51.552897],[-1.286536,51.551574],[-1.285521,51.548331],[-1.283757,51.548623],[-1.280325,51.546755],[-1.2702,51.54462],[-1.267893,51.542168],[-1.260656,51.53779],[-1.256457,51.537018],[-1.245316,51.53775],[-1.240165,51.537658],[-1.233838,51.536294],[-1.229941,51.534614],[-1.221438,51.536152],[-1.218859,51.536938],[-1.216577,51.536228],[-1.214945,51.536091],[-1.210135,51.536442],[-1.206129,51.53753],[-1.204644,51.537604],[-1.203232,51.536724],[-1.204202,51.534276],[-1.205389,51.533385],[-1.205974,51.531837],[-1.205004,51.530344],[-1.20465,51.528395],[-1.19057,51.529988],[-1.180337,51.531951],[-1.175181,51.533407],[-1.172761,51.533764],[-1.165992,51.533947],[-1.160798,51.53459],[-1.159375,51.534926],[-1.160157,51.536602],[-1.156037,51.537867],[-1.154652,51.538725],[-1.152674,51.539392],[-1.146937,51.540612],[-1.140375,51.542911],[-1.136315,51.539978],[-1.134679,51.536519],[-1.134446,51.533722],[-1.134664,51.532801],[-1.137732,51.528893],[-1.138546,51.526857],[-1.138896,51.526984],[-1.143536,51.523455],[-1.144038,51.522029],[-1.143016,51.521404],[-1.143248,51.520954],[-1.142536,51.520827],[-1.143264,51.519771],[-1.142053,51.516195],[-1.141063,51.515188],[-1.138674,51.514175],[-1.13508,51.511844],[-1.133693,51.511286],[-1.127647,51.511897],[-1.119464,51.511857],[-1.117948,51.51163],[-1.114784,51.510482],[-1.112895,51.509401],[-1.109026,51.504854],[-1.106969,51.501097],[-1.108031,51.500719],[-1.104365,51.492331],[-1.102777,51.490171],[-1.100228,51.488876],[-1.089901,51.486205],[-1.089672,51.485789],[-1.088362,51.485753],[-1.082643,51.487079],[-1.07727,51.487865],[-1.073045,51.489512],[-1.059708,51.491789],[-1.055422,51.492038],[-1.05135,51.49186],[-1.048677,51.490784],[-1.043593,51.489381],[-1.040744,51.487599],[-1.039682,51.486559],[-1.039509,51.485176],[-1.037397,51.483825],[-1.037328,51.482132],[-1.038684,51.479691],[-1.038979,51.47687],[-1.038493,51.476185],[-1.036557,51.475227],[-1.036788,51.47506],[-1.035919,51.47442],[-1.036693,51.473393],[-1.038446,51.472314],[-1.038994,51.471532],[-1.042719,51.469433],[-1.042458,51.469048],[-1.04328,51.468446],[-1.043006,51.468251],[-1.043465,51.46721],[-1.043858,51.46738],[-1.04421,51.467035],[-1.044316,51.465275],[-1.047885,51.464631],[-1.048454,51.462434],[-1.049775,51.462101],[-1.052975,51.46037],[-1.046721,51.456213],[-1.047869,51.455255],[-1.047076,51.454846],[-1.04799,51.453774],[-1.0492,51.453729],[-1.049185,51.451411],[-1.046792,51.450172],[-1.038079,51.452786],[-1.033983,51.452728],[-1.030234,51.449433],[-1.03011,51.447284],[-1.026717,51.445907],[-1.025982,51.445185],[-1.026561,51.443978],[-1.02345,51.444318],[-1.021855,51.440517],[-1.021622,51.435709],[-1.019563,51.435819],[-1.015812,51.435348],[-1.013559,51.43554],[-1.013019,51.43456],[-1.01192,51.434654],[-1.011402,51.434302],[-1.010278,51.434609],[-1.009714,51.4342],[-1.008099,51.435085],[-1.007861,51.434428],[-1.00848,51.434074],[-1.007824,51.433796],[-1.006959,51.434081],[-1.007088,51.434432],[-1.006415,51.433905],[-1.003717,51.433895],[-1.003817,51.432624],[-1.001997,51.431579],[-1.000722,51.429794],[-1.001259,51.426341],[-1.002768,51.426032],[-0.999611,51.424863],[-1.000314,51.422431],[-0.999241,51.422526],[-0.999204,51.421927],[-0.999958,51.420175],[-0.998016,51.419463],[-0.998243,51.417498],[-0.997881,51.417034],[-1.000235,51.415784],[-1.001396,51.414326],[-1.000198,51.414292],[-0.999782,51.412667],[-0.999142,51.412251],[-1.00112,51.409345],[-1.003506,51.407913],[-1.003909,51.40633],[-1.003504,51.40513],[-1.004021,51.40377],[-1.005358,51.402408],[-1.005428,51.401775],[-1.006407,51.401309],[-1.009099,51.398825],[-1.009823,51.396567],[-1.011884,51.392867],[-1.007041,51.391437],[-1.001023,51.389026],[-0.996807,51.385967],[-0.992634,51.384037],[-0.990239,51.381524],[-0.987114,51.379814],[-0.983716,51.377159],[-0.984236,51.376732],[-0.981725,51.375749],[-0.983607,51.37335],[-0.983803,51.372227],[-0.983435,51.371441],[-0.985263,51.370689],[-0.987676,51.371062],[-0.98828,51.370174],[-0.989096,51.37044],[-0.989552,51.369813],[-0.990527,51.369735],[-0.990232,51.36935],[-0.990879,51.368535],[-0.990465,51.36795],[-0.991791,51.366666],[-0.991745,51.365943],[-0.990938,51.365462],[-0.991438,51.365154],[-0.990528,51.364008],[-0.988008,51.364413],[-0.986229,51.36368],[-0.986124,51.362848],[-0.987144,51.362564],[-0.986875,51.362047],[-0.987568,51.361968],[-0.988846,51.362915],[-0.99017,51.363228],[-0.990768,51.362568],[-0.992905,51.361454],[-0.992872,51.36257],[-0.996317,51.36228],[-0.999262,51.361559],[-1.000223,51.362668],[-1.002306,51.360289],[-1.004686,51.360527],[-1.008568,51.35943],[-1.011123,51.35917],[-1.022647,51.359073],[-1.050081,51.358109],[-1.050235,51.359938],[-1.051514,51.362626],[-1.053132,51.362295],[-1.055356,51.363497],[-1.055879,51.365066],[-1.058524,51.365714],[-1.059123,51.366209],[-1.059255,51.367493],[-1.060147,51.368215],[-1.062202,51.367686],[-1.063061,51.369099],[-1.062549,51.369882],[-1.065774,51.372321],[-1.066634,51.372427],[-1.068936,51.373509],[-1.069229,51.373228],[-1.072512,51.375276],[-1.077575,51.374582],[-1.080022,51.374604],[-1.076315,51.378153],[-1.075354,51.379524],[-1.082859,51.381803],[-1.086641,51.383911],[-1.097517,51.381726],[-1.097441,51.381367],[-1.098799,51.380109],[-1.100219,51.379426],[-1.115457,51.374215],[-1.117514,51.36809],[-1.116138,51.366455],[-1.116417,51.364774],[-1.11539,51.36255],[-1.115791,51.360466],[-1.11736,51.360003],[-1.119211,51.359905],[-1.11923,51.360237],[-1.120128,51.360207],[-1.120132,51.360575],[-1.123744,51.361257],[-1.12466,51.359712],[-1.124767,51.3581],[-1.131316,51.358029],[-1.13859,51.357191],[-1.144131,51.357263],[-1.146858,51.359368],[-1.169622,51.360726],[-1.176894,51.357324],[-1.186067,51.362106],[-1.189282,51.363323],[-1.194797,51.363742],[-1.19993,51.364691],[-1.200975,51.365822],[-1.202083,51.36619],[-1.204948,51.366449],[-1.20636,51.366222],[-1.206696,51.366959],[-1.20988,51.366683],[-1.210819,51.367145],[-1.212544,51.366079],[-1.21356,51.36635],[-1.213935,51.365745],[-1.214827,51.366118],[-1.216051,51.365907],[-1.21673,51.366217],[-1.218309,51.365863],[-1.219657,51.366344],[-1.220009,51.366851],[-1.220757,51.366938],[-1.220624,51.367517],[-1.221795,51.367785],[-1.221016,51.368586],[-1.222205,51.368694],[-1.221987,51.369452],[-1.222588,51.369754],[-1.223895,51.369185],[-1.225073,51.369504],[-1.227025,51.368788],[-1.22692,51.368498],[-1.227398,51.368307],[-1.228553,51.368281],[-1.228928,51.367845],[-1.229734,51.368011],[-1.231455,51.367473],[-1.232154,51.367675],[-1.233313,51.367133],[-1.234427,51.367599],[-1.234826,51.367056],[-1.235912,51.367571],[-1.236381,51.36702],[-1.236877,51.367189],[-1.238039,51.366833],[-1.238685,51.367211],[-1.238709,51.366752],[-1.240035,51.366561],[-1.240141,51.366232],[-1.241579,51.366222],[-1.242033,51.366905],[-1.243176,51.367114],[-1.243187,51.367832],[-1.244751,51.367418],[-1.245213,51.368108],[-1.246147,51.368407],[-1.246448,51.369531],[-1.247242,51.369472],[-1.247836,51.369809],[-1.247084,51.370201],[-1.246989,51.3711],[-1.247826,51.370742],[-1.248556,51.371826],[-1.25037,51.371629],[-1.25114,51.372041],[-1.251281,51.371826],[-1.252977,51.372022],[-1.253873,51.371439],[-1.254524,51.372077],[-1.256571,51.371827],[-1.25738,51.372114],[-1.259192,51.371422],[-1.259071,51.370167],[-1.260576,51.369584],[-1.262187,51.368379],[-1.262811,51.368591],[-1.262995,51.370136],[-1.263795,51.37016],[-1.26424,51.370611],[-1.265443,51.370814],[-1.267807,51.370321],[-1.269803,51.370377],[-1.269663,51.369431],[-1.270929,51.368435],[-1.27341,51.367521],[-1.276017,51.367347],[-1.276667,51.368149],[-1.277335,51.368046],[-1.278242,51.368815],[-1.279989,51.368347],[-1.281434,51.368351],[-1.282192,51.367964],[-1.282758,51.368094],[-1.282941,51.367638],[-1.283958,51.367642],[-1.284594,51.367999],[-1.286811,51.367825],[-1.287124,51.36794],[-1.28682,51.368246],[-1.287585,51.368192],[-1.289904,51.369544],[-1.290002,51.370067],[-1.291642,51.370036],[-1.292043,51.370431],[-1.292643,51.370349],[-1.293287,51.371055],[-1.296031,51.370574],[-1.29607,51.370304],[-1.296773,51.370428],[-1.296745,51.370715],[-1.298196,51.370519],[-1.300871,51.370995],[-1.30334,51.370832],[-1.303923,51.371182],[-1.307205,51.371253],[-1.309323,51.371714],[-1.310945,51.372215],[-1.311338,51.372803],[-1.312059,51.373033],[-1.314576,51.372725],[-1.315141,51.37309],[-1.320662,51.372632],[-1.322411,51.371613],[-1.324112,51.372055],[-1.324752,51.37253],[-1.326463,51.371659],[-1.327441,51.371684],[-1.327638,51.371439],[-1.328248,51.371809],[-1.329243,51.371161],[-1.329966,51.371313],[-1.333372,51.370448],[-1.334456,51.369389],[-1.336525,51.369303],[-1.336829,51.369041],[-1.337319,51.369407],[-1.338359,51.368572],[-1.340042,51.368739],[-1.340383,51.369022],[-1.341211,51.368529],[-1.342874,51.369097],[-1.343946,51.369114],[-1.345407,51.368843],[-1.345844,51.368246],[-1.347139,51.368125],[-1.348738,51.367206],[-1.350445,51.367181],[-1.351856,51.367808],[-1.35288,51.367262],[-1.354761,51.367474],[-1.355523,51.367951],[-1.357399,51.367964],[-1.358267,51.367535],[-1.359126,51.367746],[-1.359587,51.367474],[-1.360562,51.367878],[-1.361755,51.367833],[-1.362668,51.368364],[-1.363273,51.36825],[-1.363785,51.368646],[-1.365205,51.368403],[-1.366273,51.368581],[-1.368638,51.367955],[-1.371902,51.368418],[-1.373578,51.367811],[-1.376147,51.368313],[-1.377869,51.367779],[-1.382736,51.369127],[-1.385248,51.369414],[-1.387835,51.370272],[-1.390789,51.370582],[-1.393514,51.370471],[-1.396608,51.371262],[-1.401423,51.371535],[-1.40194,51.372137],[-1.404914,51.372087],[-1.407103,51.372708],[-1.409343,51.372256],[-1.411113,51.372858],[-1.415466,51.371989],[-1.417603,51.370724],[-1.419043,51.367702],[-1.419123,51.366651],[-1.421691,51.364403],[-1.422428,51.362865],[-1.426821,51.360035],[-1.427315,51.359016],[-1.427602,51.359067],[-1.427738,51.357651],[-1.428355,51.356767],[-1.432355,51.355787],[-1.440481,51.355564],[-1.444116,51.354914],[-1.443578,51.351771],[-1.444263,51.348798],[-1.444878,51.348098],[-1.441168,51.346564],[-1.436732,51.343157],[-1.433462,51.341131],[-1.433121,51.340145],[-1.429706,51.336544],[-1.450988,51.332705],[-1.453602,51.332833],[-1.45563,51.332513],[-1.458209,51.332982],[-1.460636,51.332435],[-1.465522,51.33238],[-1.484399,51.331037],[-1.495394,51.328961],[-1.498036,51.329026],[-1.498287,51.329362],[-1.497556,51.331179],[-1.49737,51.333341],[-1.492852,51.338112],[-1.489875,51.342244],[-1.486504,51.345265],[-1.485618,51.347651],[-1.486706,51.349399],[-1.489519,51.3505],[-1.491332,51.35208],[-1.494946,51.352748],[-1.497204,51.354537],[-1.499917,51.355463],[-1.500633,51.356321],[-1.499581,51.35848],[-1.500019,51.360602],[-1.499314,51.361496],[-1.499262,51.363289],[-1.495134,51.367706],[-1.495373,51.369658],[-1.499308,51.368977],[-1.502501,51.368807],[-1.502672,51.369125],[-1.503457,51.369091],[-1.504031,51.369812],[-1.507013,51.370471],[-1.507111,51.370865],[-1.50956,51.371088],[-1.509993,51.371852],[-1.513528,51.372051],[-1.514083,51.376072],[-1.516901,51.378771],[-1.520556,51.379271],[-1.523158,51.378572],[-1.523923,51.378039],[-1.525219,51.378016],[-1.52758,51.378777],[-1.528257,51.37921],[-1.526916,51.379926],[-1.528864,51.381396],[-1.533301,51.383306],[-1.534,51.384077],[-1.535006,51.384287],[-1.535691,51.384038],[-1.536222,51.384585],[-1.538275,51.385488],[-1.538626,51.386928],[-1.53764,51.388311],[-1.542233,51.389589],[-1.542607,51.390449],[-1.544265,51.390096],[-1.546445,51.390491],[-1.546525,51.391052],[-1.547319,51.391236],[-1.547109,51.393253],[-1.548722,51.393003],[-1.548998,51.394732],[-1.55327,51.394682],[-1.555597,51.395539],[-1.556299,51.396592],[-1.55621,51.398202],[-1.55358,51.401488],[-1.554126,51.403349],[-1.553639,51.406698],[-1.554298,51.40762],[-1.553356,51.408344],[-1.552922,51.410037],[-1.554583,51.410285],[-1.555616,51.409329],[-1.557001,51.409287],[-1.559164,51.408636],[-1.559869,51.408083],[-1.56052,51.408204],[-1.560498,51.40852],[-1.562224,51.408173],[-1.562456,51.411397],[-1.563457,51.413253],[-1.565386,51.413268],[-1.565737,51.413828],[-1.566866,51.413868],[-1.566791,51.41433],[-1.569524,51.414645],[-1.569651,51.415164],[-1.57097,51.415295],[-1.571132,51.416489],[-1.566899,51.420974],[-1.565119,51.422043],[-1.563128,51.420878],[-1.559973,51.420341],[-1.558179,51.420485],[-1.558439,51.421715],[-1.556061,51.421614],[-1.55362,51.422398],[-1.553075,51.421248],[-1.54948,51.422366],[-1.545795,51.422793],[-1.544364,51.423536],[-1.543452,51.424768],[-1.542943,51.424572],[-1.541802,51.425456],[-1.539776,51.425675],[-1.539546,51.42613],[-1.532791,51.425638],[-1.53229,51.425338],[-1.532607,51.424988],[-1.532094,51.424803],[-1.531617,51.425088],[-1.526633,51.423916],[-1.525402,51.424859],[-1.526976,51.425794],[-1.528816,51.428248],[-1.532029,51.429502],[-1.529066,51.434432],[-1.524059,51.440932],[-1.524432,51.442853],[-1.524023,51.447472],[-1.524855,51.45015],[-1.528886,51.454147],[-1.529072,51.455508],[-1.534598,51.456126],[-1.538741,51.457356],[-1.542181,51.45775],[-1.545755,51.458991],[-1.54839,51.460656],[-1.549611,51.462229],[-1.550941,51.465484],[-1.557379,51.468015],[-1.559526,51.469739],[-1.560714,51.47221],[-1.561144,51.475803],[-1.561583,51.476379],[-1.562729,51.476814],[-1.566831,51.47693],[-1.566882,51.478532],[-1.567642,51.479844],[-1.567824,51.481513],[-1.570414,51.486296],[-1.573637,51.487285],[-1.577439,51.489757],[-1.582222,51.494029],[-1.583341,51.496003],[-1.582275,51.495757],[-1.583505,51.497674],[-1.582644,51.49811],[-1.58203,51.49945],[-1.582195,51.500129],[-1.582647,51.500942],[-1.585829,51.502114],[-1.58693,51.506547],[-1.587291,51.511149],[-1.588064,51.513149],[-1.586447,51.518339],[-1.585387,51.523687],[-1.58449,51.525232],[-1.585141,51.525667],[-1.583341,51.528316],[-1.581517,51.534467],[-1.581187,51.536995],[-1.576682,51.539062],[-1.569359,51.543283],[-1.570238,51.544512],[-1.570007,51.54738],[-1.569536,51.547531],[-1.566177,51.545569],[-1.561031,51.550203],[-1.55637,51.553006],[-1.555008,51.553371],[-1.547401,51.553083],[-1.547075,51.551397],[-1.542955,51.552325],[-1.541453,51.552059],[-1.540243,51.550952],[-1.540273,51.549517],[-1.534784,51.548385],[-1.532313,51.547192],[-1.530959,51.546069],[-1.530184,51.54693],[-1.530719,51.548096],[-1.521307,51.550896],[-1.514593,51.551159],[-1.512939,51.55076],[-1.508943,51.549064],[-1.504741,51.546659],[-1.501229,51.546695],[-1.495889,51.545662],[-1.489564,51.542811],[-1.486032,51.540566],[-1.487583,51.538893],[-1.488016,51.536244],[-1.485857,51.534079],[-1.477071,51.532647],[-1.476533,51.53218],[-1.476252,51.530781],[-1.470711,51.530009],[-1.470744,51.528607],[-1.462988,51.530191],[-1.464799,51.534788],[-1.464787,51.537949],[-1.464423,51.538517],[-1.463207,51.537211],[-1.461841,51.536478],[-1.456757,51.535458],[-1.454928,51.535378],[-1.447832,51.536427],[-1.439649,51.539565],[-1.437134,51.540008],[-1.430993,51.542585],[-1.426591,51.545599],[-1.425647,51.54201],[-1.422769,51.535765],[-1.419337,51.537724],[-1.418023,51.538975],[-1.41749,51.538819],[-1.416211,51.539649],[-1.413787,51.54208],[-1.409885,51.544702],[-1.404858,51.547235],[-1.404328,51.546309],[-1.400287,51.544765],[-1.398215,51.543423],[-1.39585,51.540345],[-1.392459,51.540424],[-1.388903,51.53989],[-1.383779,51.540426],[-1.380699,51.542259],[-1.37696,51.545779],[-1.377951,51.549687],[-1.372826,51.550576],[-1.369015,51.552208],[-1.367321,51.552467],[-1.365511,51.551143],[-1.363176,51.550044],[-1.361172,51.547984],[-1.358781,51.546606],[-1.350361,51.546884],[-1.34683,51.544013],[-1.343988,51.543378],[-1.34125,51.544057],[-1.337951,51.545777],[-1.3383,51.547511],[-1.33807,51.549305],[-1.337002,51.550892],[-1.336443,51.552834],[-1.334785,51.554872],[-1.333134,51.560377],[-1.328721,51.563712],[-1.327865,51.562845],[-1.326281,51.55964],[-1.320297,51.559015],[-1.315489,51.557357],[-1.311932,51.557316],[-1.310699,51.557005]]]}}]}