{"type":"FeatureCollection","features":[{"type":"Feature","properties":{"slug":"westminster","gss_code":"E09000033","name":"Westminster"},"geometry":{"type":"Polygon","coordinates":[[[-0.173477,51.537646],[-0.171934,51.538404],[-0.170876,51.537778],[-0.169447,51.538594],[-0.164899,51.535785],[-0.160397,51.537299],[-0.159352,51.53634],[-0.152702,51.53751],[-0.147124,51.525035],[-0.145764,51.525267],[-0.145206,51.523989],[-0.144088,51.523998],[-0.143987,51.524678],[-0.143385,51.524548],[-0.143545,51.523966],[-0.142845,51.523868],[-0.136961,51.518887],[-0.136278,51.519157],[-0.135798,51.518685],[-0.135208,51.51893],[-0.134006,51.517547],[-0.133532,51.517697],[-0.132406,51.517117],[-0.132516,51.516673],[-0.130783,51.517082],[-0.129611,51.513999],[-0.127646,51.512679],[-0.122854,51.51514],[-0.122066,51.514615],[-0.121796,51.514869],[-0.119451,51.514502],[-0.114695,51.516026],[-0.113826,51.514824],[-0.111568,51.515335],[-0.111057,51.513829],[-0.111936,51.513688],[-0.111704,51.51319],[-0.112509,51.512728],[-0.111556,51.5118],[-0.111503,51.510834],[-0.116893,51.510104],[-0.119543,51.509062],[-0.121129,51.50775],[-0.122393,51.506061],[-0.123055,51.504228],[-0.125395,51.49164],[-0.128407,51.48819],[-0.132498,51.48573],[-0.1381,51.484807],[-0.146453,51.485677],[-0.148997,51.485543],[-0.14907,51.486208],[-0.149695,51.486106],[-0.149216,51.485522],[-0.150024,51.485462],[-0.15016,51.486037],[-0.155834,51.489614],[-0.155169,51.490039],[-0.155801,51.491465],[-0.154743,51.491971],[-0.155963,51.493201],[-0.154973,51.493826],[-0.155979,51.494463],[-0.155249,51.495054],[-0.156057,51.497776],[-0.157872,51.499004],[-0.158458,51.502226],[-0.160901,51.501677],[-0.162646,51.50023],[-0.165419,51.498685],[-0.165718,51.499219],[-0.167578,51.49828],[-0.16815,51.499033],[-0.173419,51.498231],[-0.179524,51.497781],[-0.180312,51.501462],[-0.184205,51.501789],[-0.187859,51.510195],[-0.192123,51.509878],[-0.192915,51.511843],[-0.194004,51.511701],[-0.195053,51.51504],[-0.199171,51.514541],[-0.199907,51.51684],[-0.200765,51.517984],[-0.201449,51.517804],[-0.203742,51.520624],[-0.20265,51.520895],[-0.20062,51.520712],[-0.201626,51.522742],[-0.203953,51.523533],[-0.206017,51.525854],[-0.212961,51.526884],[-0.215497,51.526719],[-0.216021,51.52792],[-0.215856,51.529752],[-0.215107,51.53017],[-0.215267,51.531361],[-0.211186,51.531925],[-0.207814,51.532792],[-0.203013,51.532896],[-0.201675,51.53256],[-0.20108,51.531906],[-0.198175,51.530418],[-0.197802,51.5279],[-0.196479,51.527639],[-0.192998,51.531984],[-0.192347,51.533261],[-0.193016,51.53395],[-0.191468,51.536292],[-0.188723,51.534531],[-0.187822,51.534964],[-0.184161,51.538229],[-0.180114,51.539565],[-0.178343,51.539808],[-0.173912,51.539473],[-0.174128,51.538262],[-0.173477,51.537646]]]}}]}