{"type":"FeatureCollection","features":[{"type":"Feature","properties":{"slug":"west-lancashire","gss_code":"E07000127","name":"West Lancashire"},"geometry":{"type":"MultiPolygon","coordinates":[[[[-2.807472,53.62829],[-2.807549,53.6283],[-2.80775,53.628566],[-2.807472,53.62829]]],[[[-2.805995,53.632228],[-2.805937,53.632393],[-2.80594,53.6323],[-2.805995,53.632228]]],[[[-2.805903,53.633465],[-2.806277,53.634775],[-2.805899,53.633616],[-2.805903,53.633465]]],[[[-2.806013,53.64004],[-2.806371,53.640096],[-2.806375,53.641589],[-2.805917,53.640864],[-2.806013,53.64004]]],[[[-2.818362,53.677356],[-2.818213,53.678425],[-2.818052,53.678012],[-2.818362,53.677356]]],[[[-2.89894,53.715762],[-2.899852,53.715976],[-2.899611,53.716367],[-2.89894,53.715762]]],[[[-2.903342,53.72636],[-2.902842,53.726466],[-2.903025,53.726085],[-2.902654,53.726436],[-2.901745,53.72627],[-2.902016,53.726004],[-2.901388,53.725632],[-2.902126,53.725276],[-2.901842,53.725164],[-2.901422,53.725529],[-2.90113,53.725337],[-2.901497,53.72614],[-2.900537,53.725446],[-2.89885,53.725211],[-2.899123,53.723867],[-2.898824,53.724756],[-2.898311,53.724623],[-2.898605,53.725217],[-2.89753,53.724962],[-2.896857,53.724284],[-2.897523,53.723025],[-2.897138,53.723168],[-2.89692,53.722792],[-2.898214,53.721692],[-2.899045,53.721496],[-2.899312,53.72165],[-2.89988,53.721647],[-2.899767,53.722086],[-2.900107,53.721685],[-2.901253,53.722174],[-2.901211,53.722464],[-2.901392,53.722188],[-2.902923,53.722582],[-2.903903,53.72391],[-2.902949,53.7239],[-2.903245,53.724132],[-2.905429,53.72436],[-2.905937,53.726046],[-2.905556,53.72638],[-2.904492,53.7262],[-2.904511,53.725541],[-2.903573,53.72547],[-2.903925,53.724982],[-2.902293,53.724466],[-2.902396,53.72426],[-2.90205,53.724397],[-2.901135,53.723669],[-2.901987,53.724409],[-2.903686,53.724965],[-2.903471,53.725537],[-2.904266,53.725639],[-2.904375,53.726233],[-2.905795,53.72647],[-2.904736,53.727071],[-2.903342,53.72636]]],[[[-2.887626,53.726792],[-2.887524,53.727027],[-2.887148,53.726702],[-2.888315,53.726369],[-2.888139,53.726567],[-2.887947,53.727327],[-2.887626,53.726792]]],[[[-2.905846,53.72687],[-2.906647,53.727101],[-2.905856,53.726833],[-2.906227,53.72616],[-2.907976,53.726967],[-2.906211,53.726021],[-2.905588,53.724658],[-2.906066,53.724327],[-2.905588,53.724557],[-2.905501,53.723936],[-2.9046,53.723982],[-2.903592,53.723378],[-2.903125,53.72219],[-2.902974,53.722536],[-2.900548,53.721685],[-2.89988,53.721647],[-2.899305,53.721614],[-2.898728,53.721116],[-2.899024,53.720195],[-2.901778,53.720143],[-2.901006,53.720611],[-2.900015,53.720555],[-2.900981,53.720755],[-2.902092,53.720157],[-2.902258,53.720401],[-2.90158,53.721323],[-2.902201,53.720722],[-2.902428,53.720852],[-2.902265,53.720423],[-2.902732,53.72017],[-2.904457,53.720686],[-2.904424,53.720953],[-2.903919,53.720964],[-2.904377,53.721013],[-2.904794,53.720834],[-2.906249,53.721867],[-2.905932,53.722023],[-2.905767,53.722682],[-2.906022,53.722011],[-2.906352,53.722076],[-2.906693,53.723505],[-2.909401,53.724124],[-2.908921,53.724454],[-2.907231,53.724394],[-2.908387,53.724528],[-2.908027,53.724923],[-2.908484,53.724488],[-2.909064,53.724517],[-2.909052,53.724791],[-2.909587,53.724462],[-2.909328,53.725082],[-2.910055,53.724217],[-2.912024,53.72479],[-2.912096,53.726021],[-2.91288,53.727023],[-2.911372,53.727383],[-2.910602,53.727173],[-2.911253,53.727476],[-2.908719,53.726941],[-2.911001,53.727554],[-2.908055,53.72832],[-2.907158,53.727872],[-2.905083,53.727204],[-2.905846,53.72687]]],[[[-2.904773,53.727254],[-2.907815,53.728289],[-2.904731,53.72907],[-2.90401,53.728623],[-2.903948,53.727765],[-2.904773,53.727254]]],[[[-2.896118,53.728424],[-2.8967,53.728676],[-2.896288,53.728306],[-2.897133,53.728047],[-2.897865,53.728265],[-2.897244,53.728043],[-2.900258,53.727027],[-2.900741,53.727349],[-2.90048,53.726944],[-2.901418,53.72636],[-2.903629,53.726893],[-2.903811,53.727448],[-2.90312,53.727156],[-2.903553,53.727468],[-2.902999,53.727506],[-2.90361,53.727602],[-2.903166,53.729155],[-2.897592,53.72972],[-2.897852,53.729565],[-2.897649,53.728895],[-2.897601,53.729599],[-2.895019,53.729792],[-2.896118,53.728424]]],[[[-2.887448,53.728358],[-2.887164,53.729182],[-2.886419,53.72933],[-2.886545,53.726842],[-2.887621,53.727086],[-2.887985,53.728253],[-2.887353,53.729868],[-2.886597,53.729905],[-2.886354,53.729515],[-2.887189,53.729203],[-2.887448,53.728358]]],[[[-2.890502,53.729749],[-2.890176,53.729977],[-2.890072,53.729719],[-2.890634,53.728998],[-2.890676,53.728188],[-2.891171,53.728141],[-2.890724,53.728082],[-2.892494,53.727767],[-2.891018,53.72779],[-2.891319,53.727501],[-2.891331,53.725626],[-2.893104,53.7255],[-2.892881,53.725808],[-2.893646,53.72549],[-2.89361,53.725755],[-2.89497,53.725108],[-2.894569,53.725888],[-2.895089,53.725104],[-2.895917,53.724764],[-2.897158,53.725287],[-2.896395,53.725583],[-2.897048,53.725391],[-2.89988,53.725698],[-2.898771,53.726251],[-2.89989,53.725935],[-2.900514,53.726235],[-2.90028,53.726674],[-2.897851,53.727511],[-2.898002,53.727301],[-2.897771,53.726739],[-2.897836,53.727363],[-2.896733,53.727776],[-2.895806,53.727242],[-2.896558,53.727728],[-2.895838,53.727781],[-2.895725,53.728183],[-2.89501,53.72794],[-2.895485,53.728304],[-2.894727,53.729127],[-2.893632,53.728217],[-2.894483,53.729046],[-2.894557,53.730099],[-2.889486,53.730694],[-2.890502,53.729749]]],[[[-2.888406,53.728207],[-2.888036,53.727843],[-2.888769,53.727789],[-2.890099,53.727071],[-2.888716,53.727749],[-2.888018,53.72776],[-2.888271,53.726482],[-2.889045,53.725923],[-2.889672,53.72631],[-2.889617,53.725827],[-2.890862,53.725335],[-2.891204,53.725674],[-2.891072,53.727461],[-2.890524,53.72802],[-2.890477,53.728692],[-2.890188,53.728552],[-2.890532,53.728934],[-2.890337,53.729356],[-2.889958,53.729693],[-2.889698,53.729062],[-2.889926,53.729907],[-2.888768,53.730724],[-2.887641,53.730775],[-2.886555,53.730239],[-2.88769,53.729827],[-2.888406,53.728207]],[[-2.889583,53.728784],[-2.889624,53.729006],[-2.888866,53.728974],[-2.889698,53.729062],[-2.889583,53.728784]]],[[[-2.86381,53.73227],[-2.862836,53.732987],[-2.862701,53.733756],[-2.859707,53.73344],[-2.860618,53.732587],[-2.859445,53.733377],[-2.858597,53.733131],[-2.85925,53.732521],[-2.858499,53.73307],[-2.857522,53.73291],[-2.857917,53.732394],[-2.857358,53.732814],[-2.856055,53.732522],[-2.854695,53.732031],[-2.855667,53.731918],[-2.854548,53.732006],[-2.853202,53.731592],[-2.853641,53.730782],[-2.852601,53.731196],[-2.852884,53.73048],[-2.852367,53.731298],[-2.846528,53.728929],[-2.847013,53.728951],[-2.84705,53.728414],[-2.846904,53.728908],[-2.845942,53.728605],[-2.846365,53.728049],[-2.845016,53.728286],[-2.842502,53.726661],[-2.840313,53.725763],[-2.840315,53.725004],[-2.839817,53.72546],[-2.839334,53.72516],[-2.839783,53.724834],[-2.838934,53.724941],[-2.837813,53.724286],[-2.835302,53.722544],[-2.835828,53.721994],[-2.83464,53.722101],[-2.832186,53.720049],[-2.831175,53.719007],[-2.831778,53.718696],[-2.830898,53.718788],[-2.829952,53.717267],[-2.828059,53.715475],[-2.828414,53.71513],[-2.828606,53.715412],[-2.828846,53.714971],[-2.827747,53.715171],[-2.827878,53.714537],[-2.827472,53.714859],[-2.826532,53.713636],[-2.824342,53.702769],[-2.824538,53.701928],[-2.824823,53.701997],[-2.825008,53.70118],[-2.825503,53.700982],[-2.82784,53.701478],[-2.830055,53.701333],[-2.830436,53.702107],[-2.830422,53.701386],[-2.830919,53.701237],[-2.831236,53.70149],[-2.831146,53.701212],[-2.833036,53.700032],[-2.833906,53.697805],[-2.833168,53.695074],[-2.832262,53.694301],[-2.83021,53.693611],[-2.829375,53.690506],[-2.827937,53.688928],[-2.825357,53.687067],[-2.821974,53.687511],[-2.818979,53.68646],[-2.818603,53.685397],[-2.819034,53.684835],[-2.821372,53.684956],[-2.822996,53.684171],[-2.824064,53.682689],[-2.824448,53.680953],[-2.823569,53.67985],[-2.82069,53.679919],[-2.818678,53.67882],[-2.818411,53.678],[-2.818826,53.676639],[-2.816986,53.674577],[-2.816463,53.672735],[-2.817699,53.670674],[-2.822546,53.668918],[-2.823364,53.668124],[-2.821032,53.666875],[-2.819739,53.665609],[-2.820859,53.664164],[-2.821449,53.662496],[-2.817762,53.661334],[-2.814982,53.661063],[-2.814749,53.657985],[-2.812414,53.65634],[-2.812868,53.65546],[-2.814617,53.65602],[-2.816444,53.655797],[-2.816776,53.654674],[-2.814855,53.653605],[-2.812082,53.653097],[-2.812343,53.652551],[-2.81404,53.651951],[-2.814638,53.651224],[-2.814407,53.648447],[-2.811699,53.646916],[-2.81231,53.645684],[-2.809769,53.644907],[-2.810227,53.644269],[-2.809497,53.643702],[-2.809818,53.642366],[-2.80873,53.641858],[-2.806516,53.641561],[-2.806477,53.640411],[-2.807529,53.638219],[-2.806006,53.632742],[-2.806469,53.631712],[-2.808158,53.630705],[-2.808213,53.628975],[-2.807699,53.628183],[-2.806125,53.627997],[-2.802875,53.626639],[-2.801927,53.625315],[-2.800507,53.624812],[-2.801051,53.624183],[-2.800808,53.622754],[-2.799212,53.621421],[-2.798154,53.621089],[-2.7989,53.619837],[-2.797158,53.619141],[-2.798233,53.618232],[-2.797508,53.617967],[-2.797621,53.6172],[-2.796119,53.616547],[-2.795946,53.615978],[-2.79338,53.615012],[-2.790765,53.614592],[-2.78992,53.615083],[-2.788246,53.617183],[-2.787362,53.617347],[-2.788286,53.61815],[-2.788653,53.61917],[-2.792982,53.623043],[-2.780889,53.623483],[-2.780474,53.620698],[-2.779122,53.619597],[-2.777145,53.620268],[-2.775858,53.620083],[-2.775749,53.620338],[-2.77421,53.620209],[-2.773818,53.619751],[-2.771692,53.619625],[-2.770597,53.619178],[-2.769257,53.619151],[-2.768763,53.619465],[-2.767721,53.619103],[-2.766218,53.619152],[-2.766159,53.618836],[-2.765464,53.618741],[-2.764106,53.61776],[-2.761009,53.616518],[-2.761248,53.616238],[-2.760586,53.615829],[-2.760664,53.615467],[-2.759332,53.615235],[-2.758793,53.614658],[-2.756286,53.615969],[-2.749209,53.618231],[-2.743278,53.622068],[-2.736168,53.623685],[-2.735453,53.62292],[-2.734345,53.622481],[-2.726959,53.620921],[-2.721393,53.618718],[-2.712808,53.618413],[-2.709956,53.617784],[-2.704864,53.618761],[-2.704885,53.619935],[-2.703731,53.621373],[-2.700815,53.62275],[-2.696929,53.622942],[-2.69564,53.623448],[-2.695318,53.623991],[-2.696157,53.624829],[-2.696286,53.626318],[-2.694444,53.626625],[-2.691907,53.624897],[-2.692215,53.624113],[-2.691819,53.622286],[-2.692302,53.621811],[-2.692089,53.621367],[-2.691336,53.621154],[-2.690947,53.620309],[-2.691248,53.61948],[-2.69208,53.61904],[-2.692615,53.618202],[-2.692162,53.617222],[-2.69337,53.616815],[-2.69345,53.616358],[-2.694349,53.616177],[-2.694647,53.615777],[-2.695325,53.615819],[-2.697719,53.614529],[-2.699385,53.61424],[-2.698588,53.613249],[-2.697224,53.607434],[-2.696039,53.60624],[-2.696302,53.604919],[-2.695882,53.604502],[-2.690981,53.604684],[-2.689456,53.60428],[-2.69214,53.597999],[-2.693659,53.591822],[-2.693309,53.589475],[-2.69415,53.589365],[-2.696446,53.590145],[-2.698182,53.591333],[-2.70007,53.591213],[-2.699908,53.590777],[-2.701404,53.590621],[-2.702813,53.58983],[-2.701735,53.58941],[-2.702514,53.588854],[-2.702761,53.587246],[-2.707536,53.58668],[-2.708199,53.585896],[-2.709124,53.585806],[-2.710344,53.585117],[-2.711645,53.582825],[-2.714375,53.581678],[-2.714944,53.580656],[-2.714497,53.578997],[-2.714802,53.578353],[-2.716429,53.577568],[-2.716996,53.57803],[-2.717764,53.577007],[-2.719223,53.576114],[-2.717679,53.576023],[-2.715606,53.575077],[-2.717631,53.57274],[-2.716388,53.571306],[-2.715772,53.571058],[-2.715659,53.570243],[-2.714307,53.568766],[-2.712391,53.568326],[-2.712594,53.56749],[-2.711044,53.565698],[-2.71127,53.564768],[-2.70952,53.564032],[-2.707934,53.564211],[-2.705207,53.563485],[-2.704214,53.56265],[-2.705319,53.561197],[-2.704819,53.559192],[-2.705644,53.558884],[-2.705963,53.558001],[-2.70708,53.557173],[-2.707778,53.55465],[-2.709186,53.554284],[-2.710263,53.553066],[-2.710146,53.550774],[-2.710872,53.54969],[-2.712716,53.548822],[-2.71323,53.547871],[-2.714843,53.546962],[-2.71699,53.544959],[-2.717852,53.544658],[-2.71767,53.544404],[-2.71855,53.54355],[-2.716748,53.540642],[-2.716019,53.540576],[-2.71585,53.539338],[-2.714528,53.538327],[-2.714542,53.538051],[-2.716398,53.53769],[-2.71618,53.535091],[-2.716993,53.534219],[-2.716256,53.533833],[-2.717042,53.532897],[-2.716724,53.532424],[-2.717231,53.529584],[-2.718112,53.528753],[-2.717835,53.527309],[-2.718756,53.526922],[-2.719723,53.52563],[-2.720744,53.52509],[-2.724902,53.524395],[-2.726334,53.523701],[-2.7314,53.519708],[-2.735924,53.519656],[-2.741035,53.518459],[-2.746985,53.516712],[-2.748293,53.516071],[-2.752829,53.516036],[-2.756016,53.514622],[-2.758701,53.514081],[-2.759832,53.512537],[-2.768872,53.513571],[-2.770015,53.514121],[-2.769902,53.515768],[-2.770894,53.518209],[-2.77252,53.520042],[-2.774142,53.523099],[-2.782418,53.531373],[-2.78894,53.526828],[-2.791406,53.525483],[-2.793593,53.522042],[-2.794687,53.521243],[-2.800575,53.519381],[-2.805341,53.518664],[-2.807273,53.517922],[-2.809512,53.516923],[-2.810478,53.516078],[-2.810795,53.514365],[-2.810395,53.513859],[-2.815629,53.512862],[-2.816616,53.512282],[-2.821484,53.505088],[-2.82252,53.505128],[-2.819894,53.496507],[-2.820349,53.494371],[-2.822076,53.492583],[-2.82404,53.489592],[-2.825574,53.482782],[-2.844421,53.48413],[-2.843397,53.487892],[-2.844447,53.489019],[-2.843938,53.490211],[-2.849836,53.493139],[-2.859179,53.492114],[-2.861478,53.491079],[-2.866423,53.492545],[-2.869682,53.493981],[-2.871067,53.494997],[-2.872026,53.496232],[-2.873332,53.500039],[-2.881501,53.502751],[-2.884234,53.503096],[-2.886223,53.503754],[-2.887963,53.503846],[-2.892211,53.511166],[-2.887794,53.514587],[-2.884765,53.518933],[-2.884011,53.519507],[-2.881232,53.519989],[-2.881688,53.520523],[-2.886305,53.521012],[-2.889632,53.522242],[-2.890368,53.521871],[-2.891211,53.522162],[-2.892524,53.522007],[-2.895022,53.521318],[-2.895962,53.521829],[-2.896453,53.521498],[-2.896706,53.521978],[-2.897366,53.521649],[-2.897822,53.522118],[-2.898516,53.521555],[-2.899233,53.52203],[-2.901418,53.521611],[-2.906131,53.52167],[-2.907714,53.522414],[-2.911569,53.522766],[-2.91135,53.523212],[-2.912072,53.52313],[-2.913215,53.523573],[-2.914297,53.523578],[-2.914474,53.523308],[-2.915882,53.523987],[-2.916743,53.523258],[-2.917138,53.5235],[-2.916986,53.523974],[-2.919059,53.524379],[-2.921814,53.525467],[-2.923009,53.52522],[-2.925615,53.52691],[-2.925873,53.528791],[-2.926936,53.530011],[-2.928097,53.530506],[-2.929192,53.530572],[-2.930492,53.531284],[-2.931233,53.531247],[-2.932661,53.532472],[-2.933067,53.532448],[-2.933787,53.533415],[-2.933584,53.534437],[-2.93455,53.535067],[-2.934604,53.535859],[-2.93522,53.536047],[-2.935288,53.536584],[-2.934749,53.536686],[-2.935378,53.53716],[-2.936384,53.537085],[-2.936054,53.538417],[-2.936746,53.538719],[-2.937628,53.538557],[-2.937892,53.538862],[-2.938717,53.538523],[-2.939102,53.539147],[-2.939624,53.539016],[-2.941236,53.539899],[-2.941541,53.539707],[-2.941424,53.540347],[-2.941979,53.540998],[-2.944746,53.541223],[-2.945389,53.542714],[-2.94786,53.544316],[-2.95093,53.544225],[-2.955024,53.546028],[-2.959787,53.545569],[-2.960468,53.545939],[-2.963216,53.546373],[-2.963597,53.547023],[-2.964287,53.547028],[-2.965817,53.547816],[-2.970182,53.547066],[-2.970293,53.547496],[-2.971336,53.547652],[-2.971527,53.54796],[-2.973226,53.547882],[-2.977278,53.546227],[-2.978391,53.544225],[-2.978435,53.542775],[-2.976444,53.540645],[-2.974478,53.539565],[-2.972895,53.53713],[-2.97293,53.536049],[-2.970533,53.534067],[-2.966994,53.527518],[-2.963323,53.524935],[-2.962997,53.522903],[-2.96417,53.519661],[-2.964143,53.518606],[-2.968143,53.517907],[-2.971183,53.516302],[-2.972453,53.51605],[-2.972943,53.515446],[-2.976182,53.515334],[-2.976981,53.516341],[-2.980584,53.518793],[-2.982532,53.519546],[-2.983443,53.520724],[-2.984485,53.521306],[-2.989595,53.521647],[-2.990323,53.52278],[-2.991523,53.522992],[-2.992855,53.524001],[-2.994615,53.523914],[-2.994965,53.524998],[-2.996264,53.525141],[-2.996594,53.525931],[-2.999549,53.526547],[-3.000846,53.527324],[-3.001233,53.528329],[-3.004568,53.529211],[-3.005643,53.529052],[-3.008212,53.529415],[-3.009331,53.530543],[-3.009191,53.531713],[-3.010248,53.531949],[-3.010898,53.532544],[-3.012068,53.531911],[-3.013752,53.53238],[-3.013899,53.534653],[-3.015487,53.534859],[-3.016436,53.535854],[-3.018618,53.535507],[-3.019431,53.536476],[-3.023925,53.537984],[-3.024969,53.539035],[-3.027105,53.538021],[-3.028171,53.539049],[-3.029118,53.539037],[-3.030948,53.538305],[-3.031922,53.537277],[-3.034249,53.537972],[-3.035465,53.539145],[-3.03693,53.538497],[-3.038692,53.53832],[-3.039252,53.538689],[-3.038649,53.539434],[-3.03871,53.540142],[-3.040034,53.541518],[-3.040784,53.541798],[-3.041442,53.541694],[-3.043039,53.540464],[-3.04377,53.540369],[-3.044625,53.540826],[-3.044162,53.542167],[-3.045002,53.54276],[-3.046699,53.542958],[-3.045725,53.543445],[-3.040619,53.548829],[-3.038809,53.551905],[-3.038699,53.553155],[-3.040163,53.556149],[-3.039279,53.559186],[-3.040987,53.562472],[-3.040589,53.565003],[-3.039754,53.565703],[-3.032175,53.568997],[-3.02262,53.569598],[-3.022893,53.573632],[-3.02158,53.574016],[-3.020709,53.583675],[-3.029551,53.584681],[-3.029548,53.585323],[-3.031323,53.585502],[-3.031555,53.584912],[-3.033342,53.58512],[-3.033023,53.586591],[-3.035423,53.586795],[-3.035986,53.587218],[-3.033694,53.588067],[-3.032372,53.589299],[-3.032801,53.589477],[-3.032279,53.590215],[-3.032645,53.590791],[-3.03197,53.59296],[-3.031421,53.593305],[-3.030986,53.595735],[-3.031044,53.596317],[-3.032372,53.596943],[-3.031976,53.597418],[-3.032148,53.59853],[-3.030888,53.598765],[-3.030241,53.599459],[-3.030109,53.600744],[-3.028078,53.603082],[-3.026002,53.603858],[-3.024683,53.605269],[-3.021816,53.606247],[-3.020628,53.607144],[-3.020025,53.608962],[-3.014099,53.611277],[-3.011782,53.612952],[-3.011886,53.613944],[-3.011347,53.614916],[-3.008935,53.61591],[-3.008081,53.616675],[-3.006835,53.616976],[-3.005368,53.620433],[-3.001764,53.62249],[-3.001752,53.623492],[-3.000397,53.624259],[-3.000733,53.624978],[-2.997334,53.626886],[-2.993721,53.628271],[-2.992506,53.627604],[-2.992923,53.627283],[-2.981823,53.622205],[-2.966511,53.631865],[-2.962339,53.637322],[-2.957912,53.640799],[-2.958777,53.642517],[-2.949967,53.652335],[-2.948161,53.653758],[-2.942354,53.65629],[-2.941371,53.657871],[-2.940143,53.658611],[-2.941985,53.663152],[-2.944958,53.666163],[-2.947438,53.667349],[-2.943972,53.67297],[-2.943748,53.676303],[-2.94422,53.677763],[-2.945107,53.678566],[-2.944308,53.67913],[-2.946589,53.67898],[-2.947801,53.679236],[-2.952096,53.681513],[-2.952494,53.682279],[-2.949157,53.686866],[-2.946786,53.688018],[-2.949711,53.690955],[-2.948728,53.690978],[-2.947607,53.690016],[-2.947816,53.690403],[-2.948624,53.691017],[-2.949793,53.691037],[-2.950303,53.691549],[-2.948786,53.691877],[-2.948049,53.69173],[-2.946869,53.690847],[-2.945148,53.690706],[-2.94656,53.690852],[-2.947822,53.691749],[-2.945957,53.691989],[-2.943293,53.691718],[-2.93809,53.69299],[-2.938412,53.693285],[-2.93857,53.69294],[-2.943582,53.691765],[-2.945896,53.692065],[-2.945602,53.69272],[-2.946269,53.69204],[-2.947067,53.691863],[-2.949291,53.692102],[-2.950471,53.691718],[-2.954109,53.695369],[-2.953564,53.695223],[-2.953497,53.694762],[-2.953299,53.695198],[-2.954185,53.695468],[-2.955224,53.696489],[-2.952948,53.695776],[-2.953144,53.695033],[-2.952487,53.69448],[-2.952993,53.695075],[-2.952848,53.695673],[-2.95137,53.694957],[-2.951146,53.694348],[-2.951208,53.694819],[-2.950564,53.694811],[-2.95039,53.693819],[-2.950395,53.694731],[-2.949708,53.695132],[-2.948328,53.693698],[-2.948663,53.694475],[-2.946891,53.693724],[-2.944855,53.693517],[-2.946961,53.693886],[-2.949749,53.695262],[-2.950975,53.694915],[-2.95192,53.695492],[-2.951345,53.695546],[-2.952142,53.695598],[-2.954636,53.696751],[-2.952268,53.696505],[-2.95131,53.696009],[-2.949974,53.695872],[-2.94791,53.694976],[-2.949664,53.695878],[-2.951358,53.696126],[-2.952346,53.696617],[-2.95171,53.696932],[-2.948247,53.696159],[-2.951689,53.697013],[-2.952437,53.696949],[-2.952545,53.696678],[-2.954541,53.696905],[-2.955461,53.696726],[-2.956231,53.6975],[-2.95574,53.697978],[-2.956009,53.698516],[-2.953139,53.699527],[-2.951722,53.698469],[-2.95184,53.697654],[-2.95153,53.697338],[-2.949687,53.697582],[-2.948889,53.696756],[-2.948194,53.696865],[-2.945984,53.696222],[-2.946123,53.695695],[-2.945528,53.694819],[-2.945208,53.69541],[-2.945966,53.695746],[-2.945894,53.696272],[-2.948227,53.696973],[-2.948884,53.696869],[-2.949659,53.697676],[-2.951532,53.697455],[-2.951611,53.697944],[-2.951012,53.698227],[-2.951509,53.698115],[-2.951626,53.698582],[-2.952781,53.699782],[-2.948981,53.698859],[-2.949027,53.698203],[-2.94823,53.697931],[-2.947943,53.697456],[-2.94585,53.696996],[-2.945858,53.696358],[-2.943063,53.695315],[-2.942789,53.694899],[-2.943058,53.695405],[-2.945739,53.696467],[-2.945776,53.697091],[-2.947808,53.697516],[-2.947907,53.697888],[-2.948916,53.698293],[-2.948685,53.698794],[-2.945236,53.697666],[-2.945391,53.697126],[-2.945061,53.697627],[-2.944053,53.69759],[-2.941714,53.696615],[-2.941732,53.696058],[-2.940759,53.695072],[-2.940907,53.695732],[-2.941586,53.695996],[-2.941325,53.696502],[-2.940646,53.69661],[-2.939464,53.695381],[-2.93973,53.695867],[-2.937098,53.695096],[-2.939094,53.695964],[-2.938743,53.696385],[-2.938182,53.696007],[-2.93752,53.696036],[-2.93822,53.696044],[-2.938714,53.69642],[-2.939062,53.696348],[-2.939241,53.695876],[-2.940043,53.696188],[-2.939609,53.696622],[-2.937188,53.696526],[-2.940672,53.696758],[-2.941289,53.696596],[-2.943531,53.69763],[-2.945285,53.697837],[-2.946885,53.698601],[-2.951122,53.699768],[-2.950279,53.700309],[-2.945,53.700306],[-2.940665,53.699149],[-2.940344,53.698131],[-2.940268,53.698946],[-2.938574,53.698979],[-2.935241,53.698339],[-2.935026,53.698503],[-2.938555,53.699016],[-2.939967,53.698988],[-2.942765,53.699937],[-2.94045,53.70039],[-2.938915,53.700103],[-2.940123,53.700387],[-2.939721,53.701029],[-2.936132,53.700322],[-2.937888,53.700839],[-2.937482,53.701188],[-2.936124,53.700958],[-2.937419,53.701219],[-2.939911,53.701089],[-2.940335,53.700538],[-2.942474,53.700146],[-2.946451,53.700524],[-2.943494,53.701365],[-2.940846,53.701166],[-2.939169,53.70128],[-2.93668,53.701912],[-2.940742,53.701247],[-2.941786,53.701531],[-2.94102,53.701838],[-2.943337,53.701461],[-2.945778,53.700884],[-2.945159,53.701307],[-2.941792,53.702169],[-2.942776,53.702121],[-2.945003,53.701475],[-2.947188,53.700612],[-2.951457,53.700857],[-2.950819,53.701087],[-2.949928,53.70086],[-2.949144,53.701379],[-2.950149,53.700953],[-2.950814,53.701204],[-2.950598,53.701687],[-2.950969,53.701693],[-2.951244,53.701115],[-2.953643,53.702381],[-2.950614,53.703421],[-2.947515,53.704039],[-2.945893,53.703975],[-2.943269,53.704872],[-2.945932,53.704056],[-2.947328,53.704153],[-2.945433,53.704774],[-2.944909,53.705727],[-2.945489,53.7049],[-2.949145,53.703797],[-2.948128,53.70434],[-2.952636,53.703401],[-2.954243,53.703478],[-2.954968,53.704029],[-2.954985,53.704793],[-2.954514,53.705089],[-2.951325,53.706022],[-2.947621,53.706388],[-2.943797,53.708144],[-2.937062,53.704481],[-2.934774,53.704602],[-2.933522,53.705074],[-2.932508,53.704959],[-2.932423,53.703881],[-2.931652,53.702287],[-2.93184,53.700009],[-2.931551,53.702185],[-2.930512,53.702386],[-2.928734,53.701258],[-2.93039,53.7024],[-2.931499,53.702302],[-2.9322,53.703998],[-2.932051,53.705064],[-2.930325,53.705087],[-2.928957,53.7044],[-2.92868,53.703591],[-2.92772,53.702781],[-2.928607,53.703572],[-2.928763,53.704383],[-2.927896,53.704588],[-2.926548,53.704316],[-2.926178,53.704661],[-2.928013,53.704684],[-2.928879,53.704489],[-2.929803,53.705139],[-2.925185,53.706615],[-2.929478,53.705278],[-2.932582,53.705347],[-2.935894,53.704923],[-2.933287,53.706093],[-2.931814,53.706289],[-2.93333,53.706121],[-2.932484,53.70724],[-2.92791,53.708443],[-2.932485,53.707363],[-2.933858,53.705859],[-2.936481,53.704935],[-2.937629,53.705192],[-2.939865,53.706976],[-2.940063,53.708258],[-2.939043,53.70877],[-2.937896,53.708507],[-2.939163,53.708904],[-2.940256,53.708344],[-2.942061,53.709111],[-2.942432,53.711126],[-2.941128,53.711415],[-2.938984,53.711099],[-2.936244,53.711516],[-2.934996,53.71126],[-2.9362,53.711584],[-2.939981,53.711271],[-2.937972,53.711889],[-2.934816,53.712062],[-2.937019,53.711995],[-2.935302,53.712464],[-2.937914,53.712015],[-2.94012,53.711405],[-2.942887,53.7115],[-2.943635,53.711062],[-2.943731,53.71028],[-2.946639,53.710234],[-2.946728,53.710508],[-2.944389,53.711587],[-2.944326,53.712477],[-2.941741,53.713219],[-2.945483,53.712401],[-2.944736,53.712209],[-2.944679,53.711661],[-2.946484,53.711103],[-2.947705,53.711152],[-2.948153,53.711544],[-2.948223,53.712626],[-2.946747,53.713042],[-2.948248,53.713745],[-2.94824,53.714055],[-2.945999,53.71512],[-2.946271,53.716107],[-2.943483,53.718497],[-2.941665,53.721895],[-2.939691,53.72341],[-2.939851,53.724175],[-2.938734,53.724372],[-2.938284,53.724919],[-2.936044,53.725404],[-2.933696,53.725427],[-2.932985,53.72515],[-2.933619,53.722668],[-2.935949,53.722124],[-2.936531,53.721688],[-2.933622,53.722439],[-2.932974,53.72022],[-2.9342,53.720143],[-2.935141,53.719515],[-2.934805,53.719255],[-2.934846,53.719567],[-2.934023,53.720027],[-2.932917,53.720027],[-2.93224,53.718904],[-2.933336,53.723219],[-2.93285,53.724535],[-2.932244,53.724881],[-2.931259,53.72492],[-2.930521,53.724436],[-2.927845,53.721257],[-2.928042,53.720923],[-2.930057,53.720575],[-2.929842,53.719408],[-2.929778,53.720622],[-2.929072,53.720546],[-2.928607,53.719755],[-2.926941,53.719093],[-2.926528,53.718566],[-2.928247,53.71614],[-2.927782,53.716354],[-2.928321,53.715042],[-2.92919,53.714218],[-2.928757,53.713165],[-2.929037,53.714183],[-2.92814,53.715066],[-2.927432,53.716968],[-2.926915,53.717215],[-2.925958,53.71676],[-2.926282,53.716534],[-2.925761,53.716797],[-2.926881,53.717391],[-2.926375,53.718855],[-2.928109,53.719835],[-2.928371,53.720372],[-2.927196,53.720696],[-2.925104,53.719966],[-2.923361,53.718919],[-2.923671,53.718197],[-2.923163,53.717154],[-2.924338,53.715815],[-2.9241,53.715659],[-2.923099,53.716988],[-2.921857,53.715313],[-2.92243,53.71378],[-2.921642,53.715161],[-2.922768,53.716748],[-2.923211,53.718313],[-2.922691,53.718425],[-2.921835,53.717771],[-2.919855,53.714888],[-2.920289,53.714264],[-2.920233,53.712071],[-2.919848,53.714546],[-2.919342,53.714595],[-2.918272,53.713835],[-2.917977,53.712102],[-2.918654,53.710843],[-2.917698,53.711309],[-2.917768,53.713322],[-2.918446,53.714175],[-2.919925,53.715296],[-2.921067,53.717265],[-2.917367,53.716125],[-2.916866,53.713967],[-2.916177,53.712965],[-2.916462,53.712478],[-2.916001,53.712863],[-2.916686,53.714089],[-2.915654,53.713666],[-2.914269,53.710908],[-2.914014,53.711386],[-2.915336,53.713668],[-2.914639,53.713638],[-2.912866,53.712236],[-2.914557,53.71371],[-2.916386,53.714191],[-2.917118,53.716144],[-2.918993,53.716627],[-2.919485,53.717025],[-2.917218,53.71729],[-2.915435,53.716463],[-2.916491,53.717291],[-2.915906,53.71756],[-2.920678,53.717501],[-2.923126,53.719644],[-2.924759,53.720503],[-2.924156,53.720625],[-2.922434,53.72015],[-2.921694,53.72032],[-2.926573,53.720979],[-2.927598,53.722117],[-2.927091,53.722472],[-2.927765,53.722799],[-2.926824,53.722735],[-2.926421,53.723043],[-2.923363,53.721813],[-2.926432,53.723165],[-2.928031,53.722833],[-2.929308,53.724059],[-2.928855,53.725173],[-2.927072,53.725393],[-2.92611,53.724726],[-2.926532,53.72533],[-2.92478,53.725609],[-2.923671,53.725464],[-2.923903,53.725018],[-2.922275,53.723668],[-2.923142,53.724862],[-2.923745,53.725073],[-2.923391,53.725516],[-2.920082,53.725973],[-2.920234,53.725289],[-2.919533,53.724692],[-2.919949,53.725767],[-2.91944,53.725699],[-2.919084,53.726088],[-2.915731,53.726258],[-2.914422,53.725661],[-2.914588,53.724802],[-2.913921,53.724928],[-2.913882,53.723477],[-2.915255,53.723998],[-2.913856,53.722969],[-2.913824,53.72256],[-2.914792,53.721771],[-2.913835,53.722349],[-2.912952,53.721816],[-2.914268,53.721721],[-2.913903,53.721661],[-2.914441,53.720942],[-2.913682,53.721595],[-2.912734,53.721553],[-2.91216,53.720942],[-2.913053,53.720212],[-2.911937,53.720773],[-2.911032,53.719926],[-2.911018,53.719265],[-2.912612,53.718012],[-2.913786,53.717662],[-2.913774,53.717446],[-2.912398,53.717947],[-2.910884,53.719023],[-2.910668,53.718177],[-2.911335,53.716777],[-2.910884,53.716911],[-2.910635,53.715147],[-2.911829,53.713682],[-2.9106,53.714985],[-2.910078,53.71442],[-2.910588,53.714105],[-2.910151,53.714114],[-2.910443,53.713164],[-2.909907,53.714425],[-2.910609,53.715445],[-2.910478,53.716815],[-2.91086,53.717208],[-2.910313,53.718315],[-2.909373,53.716967],[-2.909427,53.716209],[-2.909162,53.715574],[-2.908319,53.715055],[-2.909293,53.715991],[-2.909279,53.716666],[-2.908631,53.716312],[-2.909756,53.717773],[-2.909472,53.718146],[-2.909847,53.718036],[-2.910417,53.718625],[-2.910528,53.71899],[-2.90979,53.71896],[-2.910631,53.719103],[-2.910586,53.719967],[-2.908576,53.719581],[-2.908616,53.718735],[-2.907711,53.717953],[-2.908392,53.71767],[-2.907532,53.717843],[-2.906603,53.716671],[-2.906382,53.715972],[-2.906995,53.715468],[-2.906384,53.715928],[-2.905668,53.715297],[-2.905962,53.714805],[-2.905663,53.715251],[-2.903742,53.714939],[-2.904314,53.714401],[-2.905828,53.713912],[-2.906173,53.713288],[-2.907145,53.713484],[-2.9085,53.712366],[-2.907106,53.713457],[-2.906234,53.713209],[-2.907264,53.711288],[-2.907331,53.71099],[-2.904869,53.70873],[-2.907224,53.711206],[-2.90617,53.712528],[-2.905914,53.713619],[-2.905315,53.713991],[-2.904833,53.713118],[-2.902861,53.711737],[-2.904775,53.713128],[-2.905172,53.713888],[-2.903981,53.714414],[-2.903204,53.714085],[-2.903893,53.714422],[-2.903586,53.715119],[-2.9053,53.715267],[-2.906254,53.716601],[-2.903673,53.715613],[-2.902617,53.714888],[-2.902411,53.715156],[-2.901289,53.713631],[-2.902368,53.715189],[-2.902807,53.715262],[-2.901628,53.715391],[-2.901671,53.715672],[-2.901676,53.715425],[-2.902843,53.715301],[-2.903304,53.715496],[-2.902982,53.715769],[-2.903445,53.715562],[-2.906244,53.716757],[-2.907098,53.71793],[-2.905982,53.717834],[-2.905663,53.717402],[-2.905928,53.717834],[-2.907257,53.718072],[-2.90806,53.718676],[-2.908362,53.719984],[-2.906616,53.720155],[-2.905935,53.7194],[-2.907114,53.718827],[-2.906336,53.718964],[-2.9062,53.71889],[-2.905761,53.719507],[-2.906634,53.720253],[-2.90863,53.720081],[-2.91064,53.720421],[-2.913038,53.72262],[-2.913246,53.7235],[-2.91235,53.724127],[-2.910091,53.723549],[-2.910733,53.72326],[-2.909739,53.72363],[-2.909774,53.723347],[-2.908789,53.722582],[-2.909041,53.722443],[-2.908746,53.722575],[-2.909446,53.723556],[-2.907891,53.722946],[-2.907487,53.722531],[-2.908256,53.721977],[-2.908216,53.72111],[-2.908072,53.721874],[-2.907343,53.722293],[-2.906165,53.720994],[-2.906503,53.720892],[-2.904368,53.720063],[-2.905125,53.719532],[-2.904288,53.719977],[-2.903473,53.71973],[-2.903984,53.719315],[-2.903194,53.718648],[-2.903917,53.719292],[-2.903447,53.719669],[-2.902512,53.719563],[-2.9033,53.719779],[-2.90166,53.719374],[-2.901529,53.717808],[-2.902247,53.716504],[-2.901465,53.717711],[-2.901186,53.717564],[-2.900079,53.716738],[-2.900267,53.715891],[-2.899609,53.715235],[-2.901122,53.714967],[-2.89958,53.71517],[-2.899294,53.71498],[-2.900275,53.714567],[-2.899353,53.714924],[-2.89876,53.714345],[-2.899308,53.714175],[-2.898954,53.714058],[-2.899316,53.712655],[-2.90007,53.712503],[-2.900385,53.712001],[-2.899271,53.712621],[-2.898604,53.714161],[-2.896778,53.711651],[-2.899075,53.711432],[-2.896789,53.711587],[-2.897202,53.711223],[-2.896632,53.711424],[-2.89599,53.710748],[-2.89659,53.710598],[-2.895913,53.710609],[-2.896021,53.710159],[-2.895631,53.710369],[-2.898339,53.715247],[-2.898755,53.715271],[-2.89864,53.714921],[-2.8998,53.715802],[-2.899236,53.715804],[-2.898861,53.715328],[-2.898463,53.715428],[-2.898838,53.716204],[-2.899309,53.716353],[-2.898823,53.716307],[-2.899467,53.716474],[-2.898819,53.716503],[-2.898996,53.718709],[-2.900814,53.718704],[-2.900537,53.719457],[-2.899607,53.71932],[-2.899005,53.718781],[-2.898985,53.719515],[-2.899466,53.719689],[-2.89927,53.719167],[-2.899544,53.719707],[-2.898942,53.719586],[-2.899239,53.720078],[-2.898881,53.719928],[-2.898387,53.721084],[-2.899023,53.721408],[-2.898327,53.721145],[-2.897966,53.721624],[-2.898838,53.721491],[-2.897805,53.721754],[-2.896431,53.722885],[-2.897147,53.723222],[-2.897397,53.723075],[-2.896712,53.72419],[-2.897233,53.724688],[-2.895364,53.723998],[-2.896567,53.723117],[-2.896267,53.722986],[-2.895073,53.723672],[-2.8953,53.723932],[-2.894636,53.723897],[-2.895936,53.724611],[-2.894264,53.723958],[-2.895569,53.724728],[-2.89498,53.725031],[-2.894403,53.725091],[-2.893835,53.724398],[-2.894179,53.724135],[-2.891829,53.724916],[-2.893767,53.724445],[-2.894337,53.725147],[-2.894044,53.725411],[-2.891498,53.72559],[-2.891717,53.724948],[-2.890995,53.725176],[-2.891304,53.725597],[-2.890878,53.725239],[-2.889303,53.725771],[-2.889503,53.726134],[-2.889191,53.725828],[-2.885844,53.726921],[-2.886105,53.727569],[-2.884991,53.727484],[-2.885585,53.727439],[-2.885631,53.727174],[-2.885874,53.727381],[-2.885711,53.727046],[-2.883576,53.727809],[-2.88496,53.727621],[-2.886129,53.727832],[-2.885839,53.728295],[-2.884869,53.728144],[-2.882463,53.728618],[-2.883478,53.728851],[-2.885425,53.728426],[-2.884574,53.729474],[-2.882087,53.729061],[-2.88183,53.728825],[-2.882282,53.728192],[-2.881932,53.728648],[-2.88141,53.728493],[-2.88146,53.728817],[-2.880453,53.72885],[-2.880488,53.729206],[-2.8798,53.729197],[-2.878994,53.72965],[-2.878749,53.730285],[-2.879101,53.72967],[-2.880561,53.72923],[-2.880482,53.72888],[-2.881601,53.728891],[-2.881944,53.729197],[-2.883909,53.729501],[-2.884426,53.72986],[-2.884136,53.730963],[-2.883517,53.730939],[-2.883243,53.730612],[-2.88137,53.73113],[-2.880944,53.730982],[-2.878314,53.731968],[-2.876852,53.732101],[-2.87711,53.731753],[-2.87664,53.730958],[-2.87709,53.729931],[-2.876535,53.730895],[-2.876172,53.730838],[-2.876593,53.731762],[-2.875677,53.731955],[-2.874207,53.730719],[-2.873881,53.730808],[-2.874245,53.731134],[-2.873173,53.73112],[-2.874644,53.731435],[-2.874931,53.732698],[-2.870897,53.733093],[-2.86916,53.73276],[-2.868951,53.732172],[-2.869363,53.731826],[-2.868957,53.732138],[-2.868519,53.731662],[-2.868287,53.73216],[-2.867851,53.732056],[-2.867103,53.732345],[-2.868276,53.732227],[-2.868338,53.733368],[-2.864592,53.733968],[-2.863078,53.733724],[-2.862899,53.733362],[-2.86381,53.73227]],[[-2.940319,53.698052],[-2.939023,53.697988],[-2.940344,53.698131],[-2.940319,53.698052]],[[-2.904951,53.71821],[-2.905057,53.717698],[-2.904841,53.718121],[-2.904406,53.71706],[-2.904461,53.717715],[-2.90339,53.717086],[-2.904882,53.718253],[-2.9062,53.71889],[-2.904951,53.71821]]]]}}]}