{"type":"FeatureCollection","features":[{"type":"Feature","properties":{"slug":"west-lindsey","gss_code":"E07000142","name":"West Lindsey"},"geometry":{"type":"MultiPolygon","coordinates":[[[[-0.775767,53.379075],[-0.780565,53.382542],[-0.775653,53.379379],[-0.775767,53.379075]]],[[[-0.298237,53.612562],[-0.29229,53.613536],[-0.290418,53.610632],[-0.287078,53.6118],[-0.285477,53.609283],[-0.281194,53.606263],[-0.282954,53.605201],[-0.283039,53.604497],[-0.278604,53.603493],[-0.275232,53.602328],[-0.269812,53.598618],[-0.268296,53.599407],[-0.261586,53.595726],[-0.25936,53.59697],[-0.254473,53.592488],[-0.250721,53.593835],[-0.249725,53.594006],[-0.248476,53.593664],[-0.248902,53.593225],[-0.248535,53.593007],[-0.249578,53.592547],[-0.248871,53.591979],[-0.249821,53.591254],[-0.249479,53.591145],[-0.250429,53.590727],[-0.25017,53.590511],[-0.25064,53.590289],[-0.249956,53.589883],[-0.250796,53.589453],[-0.250573,53.589098],[-0.251149,53.588283],[-0.249044,53.5869],[-0.25208,53.585006],[-0.251396,53.584653],[-0.250477,53.584474],[-0.247185,53.58684],[-0.243327,53.585775],[-0.24207,53.587047],[-0.24085,53.586646],[-0.239164,53.588162],[-0.236456,53.586457],[-0.236878,53.586202],[-0.236045,53.585994],[-0.234669,53.58625],[-0.234424,53.585989],[-0.235235,53.58557],[-0.234895,53.584666],[-0.233398,53.58289],[-0.233642,53.582675],[-0.232417,53.58246],[-0.232647,53.582193],[-0.231349,53.581093],[-0.230842,53.579869],[-0.231477,53.579582],[-0.228986,53.577597],[-0.229282,53.577421],[-0.228642,53.576869],[-0.227245,53.576136],[-0.228139,53.57535],[-0.227155,53.574751],[-0.228339,53.573497],[-0.223972,53.572177],[-0.225103,53.570275],[-0.222559,53.568017],[-0.219868,53.56945],[-0.217486,53.568452],[-0.213266,53.570092],[-0.21071,53.569451],[-0.210327,53.569809],[-0.209453,53.56962],[-0.207516,53.57084],[-0.206301,53.570235],[-0.20464,53.571615],[-0.203904,53.571291],[-0.202941,53.571456],[-0.200789,53.570394],[-0.200197,53.570926],[-0.198496,53.570117],[-0.195185,53.571619],[-0.191692,53.568465],[-0.187529,53.563613],[-0.189748,53.562722],[-0.189229,53.562249],[-0.190518,53.561882],[-0.189884,53.561012],[-0.192363,53.559916],[-0.192069,53.559701],[-0.194871,53.557514],[-0.202718,53.549882],[-0.202062,53.549549],[-0.20457,53.547907],[-0.208495,53.544436],[-0.209197,53.54319],[-0.212144,53.541055],[-0.214225,53.538946],[-0.216256,53.536058],[-0.216766,53.536008],[-0.219883,53.532606],[-0.215373,53.532375],[-0.21059,53.531706],[-0.21098,53.530494],[-0.212368,53.529352],[-0.212644,53.528181],[-0.213622,53.527484],[-0.213624,53.526359],[-0.212859,53.525536],[-0.213243,53.525309],[-0.212495,53.524864],[-0.212709,53.524514],[-0.211394,53.52167],[-0.210035,53.520672],[-0.206855,53.516714],[-0.206742,53.515573],[-0.205322,53.51416],[-0.204624,53.511756],[-0.204086,53.511767],[-0.204293,53.506495],[-0.205477,53.50477],[-0.207509,53.502931],[-0.205985,53.501122],[-0.205266,53.497046],[-0.205552,53.496732],[-0.20647,53.496767],[-0.207544,53.49497],[-0.20823,53.491935],[-0.210605,53.486288],[-0.202397,53.486647],[-0.19956,53.485644],[-0.196929,53.485166],[-0.194334,53.483778],[-0.191112,53.483918],[-0.189351,53.484784],[-0.188565,53.484538],[-0.188947,53.483754],[-0.188588,53.482951],[-0.18731,53.482611],[-0.186926,53.482038],[-0.187812,53.48042],[-0.184432,53.479332],[-0.185162,53.477183],[-0.182504,53.476125],[-0.18229,53.471683],[-0.183276,53.469377],[-0.181955,53.469338],[-0.181805,53.468649],[-0.177522,53.46867],[-0.17698,53.46803],[-0.175434,53.468384],[-0.175138,53.46792],[-0.172377,53.467655],[-0.168738,53.467415],[-0.166972,53.467659],[-0.166381,53.466833],[-0.159471,53.468018],[-0.159226,53.466856],[-0.158044,53.465122],[-0.15368,53.465678],[-0.15721,53.462929],[-0.156056,53.461733],[-0.156642,53.461118],[-0.158508,53.461584],[-0.156968,53.459146],[-0.156463,53.457456],[-0.155058,53.457214],[-0.154614,53.455732],[-0.151966,53.452374],[-0.152549,53.452241],[-0.150677,53.448941],[-0.15024,53.448984],[-0.149228,53.4467],[-0.14867,53.446808],[-0.147204,53.444134],[-0.1445,53.440903],[-0.139026,53.441496],[-0.137918,53.439961],[-0.134248,53.440738],[-0.134025,53.439032],[-0.133115,53.437252],[-0.131845,53.435926],[-0.135527,53.436171],[-0.14164,53.434896],[-0.158964,53.437161],[-0.160984,53.43658],[-0.161763,53.437307],[-0.163439,53.437067],[-0.164419,53.438235],[-0.167123,53.437721],[-0.167873,53.438548],[-0.172132,53.438136],[-0.175181,53.438218],[-0.177147,53.438759],[-0.180542,53.440678],[-0.18373,53.438602],[-0.185203,53.437203],[-0.189114,53.435614],[-0.189276,53.435116],[-0.191072,53.434746],[-0.195137,53.434847],[-0.198295,53.433576],[-0.197416,53.4324],[-0.199052,53.43183],[-0.198698,53.431053],[-0.199971,53.431314],[-0.20228,53.430534],[-0.204837,53.430199],[-0.205042,53.430468],[-0.212057,53.428724],[-0.21283,53.429361],[-0.21485,53.42825],[-0.216795,53.425418],[-0.217064,53.424108],[-0.212684,53.420089],[-0.211717,53.418509],[-0.211723,53.415711],[-0.209589,53.413702],[-0.210204,53.412024],[-0.209975,53.411312],[-0.208,53.409273],[-0.206023,53.408435],[-0.213006,53.404336],[-0.214233,53.404892],[-0.218195,53.403229],[-0.218137,53.402634],[-0.216504,53.401586],[-0.218565,53.399822],[-0.219503,53.399515],[-0.221757,53.399706],[-0.223799,53.398926],[-0.224678,53.39961],[-0.229394,53.398058],[-0.228331,53.396063],[-0.227534,53.39254],[-0.223442,53.38587],[-0.216623,53.382036],[-0.215934,53.380544],[-0.206834,53.374263],[-0.204871,53.371886],[-0.210339,53.370139],[-0.215567,53.366586],[-0.218598,53.36383],[-0.219519,53.362446],[-0.220802,53.361732],[-0.222596,53.358005],[-0.223872,53.357339],[-0.225072,53.355949],[-0.227314,53.355045],[-0.230483,53.354561],[-0.230523,53.352187],[-0.231636,53.351398],[-0.233793,53.351109],[-0.235083,53.350512],[-0.240771,53.349083],[-0.242397,53.348418],[-0.243403,53.347331],[-0.244566,53.347414],[-0.245693,53.346704],[-0.250789,53.345465],[-0.25118,53.344717],[-0.255899,53.344142],[-0.255105,53.340509],[-0.255666,53.340472],[-0.254068,53.337996],[-0.249777,53.333611],[-0.255441,53.329955],[-0.264806,53.326478],[-0.265694,53.326643],[-0.267609,53.326036],[-0.269129,53.324997],[-0.27032,53.323136],[-0.271953,53.322218],[-0.27554,53.321841],[-0.278242,53.324436],[-0.285288,53.328343],[-0.293313,53.334477],[-0.29851,53.331059],[-0.297303,53.329699],[-0.299621,53.326716],[-0.298649,53.325633],[-0.299955,53.32522],[-0.300187,53.324669],[-0.300811,53.324785],[-0.300924,53.324341],[-0.301437,53.324235],[-0.301249,53.323913],[-0.30742,53.320815],[-0.30837,53.320753],[-0.308539,53.320448],[-0.310261,53.320003],[-0.309795,53.319132],[-0.30849,53.319105],[-0.2999,53.310544],[-0.295572,53.302982],[-0.296213,53.30276],[-0.300191,53.302888],[-0.30553,53.302001],[-0.317461,53.298251],[-0.316689,53.296547],[-0.314423,53.294038],[-0.314879,53.29145],[-0.314569,53.2904],[-0.313204,53.288902],[-0.311418,53.287704],[-0.314274,53.2852],[-0.313354,53.283152],[-0.315013,53.281282],[-0.314875,53.280269],[-0.31556,53.279622],[-0.316443,53.279472],[-0.314482,53.277312],[-0.311412,53.277038],[-0.303727,53.275367],[-0.301896,53.27534],[-0.302082,53.27341],[-0.30483,53.269319],[-0.30449,53.269119],[-0.304731,53.268722],[-0.303236,53.268463],[-0.300965,53.269768],[-0.299109,53.268612],[-0.300108,53.267314],[-0.300898,53.267248],[-0.30112,53.266448],[-0.300909,53.265732],[-0.299849,53.265503],[-0.298714,53.265747],[-0.29857,53.264993],[-0.300525,53.264696],[-0.300825,53.263974],[-0.297648,53.263873],[-0.294225,53.26431],[-0.289818,53.263989],[-0.290999,53.262493],[-0.29515,53.26315],[-0.300611,53.263115],[-0.300434,53.262088],[-0.296835,53.262183],[-0.291733,53.260994],[-0.293041,53.259386],[-0.287099,53.25755],[-0.28881,53.255578],[-0.290903,53.254766],[-0.287846,53.253058],[-0.280243,53.249765],[-0.281404,53.248619],[-0.282544,53.246],[-0.282713,53.243691],[-0.28178,53.241093],[-0.282472,53.240031],[-0.281488,53.238947],[-0.279346,53.238013],[-0.276223,53.234633],[-0.275961,53.233459],[-0.2765,53.231807],[-0.277288,53.231224],[-0.277205,53.23076],[-0.278713,53.228889],[-0.278895,53.227798],[-0.27982,53.226626],[-0.28375,53.224428],[-0.289124,53.222795],[-0.287563,53.221556],[-0.291954,53.219366],[-0.29273,53.2194],[-0.299471,53.215133],[-0.301088,53.213761],[-0.302263,53.210425],[-0.294719,53.201638],[-0.290932,53.194747],[-0.29193,53.190836],[-0.287998,53.184755],[-0.28965,53.179366],[-0.290296,53.178891],[-0.291245,53.178936],[-0.294541,53.179876],[-0.295812,53.181196],[-0.298584,53.181678],[-0.309634,53.182024],[-0.318907,53.18462],[-0.325121,53.19062],[-0.325525,53.195571],[-0.330789,53.201634],[-0.335735,53.202353],[-0.337119,53.203002],[-0.337547,53.203744],[-0.336818,53.208468],[-0.342284,53.212347],[-0.346738,53.214654],[-0.347725,53.217036],[-0.346532,53.218643],[-0.346534,53.220361],[-0.348068,53.224058],[-0.350036,53.225388],[-0.351313,53.227321],[-0.352197,53.227855],[-0.353255,53.228004],[-0.357494,53.227514],[-0.35827,53.228192],[-0.35952,53.227661],[-0.359551,53.227197],[-0.36173,53.226684],[-0.361708,53.225711],[-0.364252,53.226037],[-0.366656,53.225417],[-0.36972,53.226408],[-0.370812,53.226231],[-0.373904,53.22773],[-0.37879,53.231216],[-0.381868,53.231958],[-0.399548,53.230533],[-0.40614,53.230648],[-0.4136,53.230164],[-0.43209,53.230462],[-0.445394,53.229659],[-0.451941,53.228509],[-0.462028,53.227258],[-0.47467,53.227264],[-0.480842,53.226163],[-0.488318,53.225294],[-0.495118,53.225259],[-0.496424,53.233718],[-0.493915,53.233403],[-0.495749,53.240156],[-0.496286,53.240347],[-0.494343,53.24184],[-0.495814,53.243824],[-0.495441,53.244373],[-0.496012,53.247191],[-0.497567,53.249201],[-0.500594,53.248264],[-0.502451,53.250595],[-0.506211,53.24992],[-0.514873,53.253989],[-0.523276,53.253831],[-0.523276,53.253393],[-0.526508,53.253854],[-0.538581,53.254563],[-0.544778,53.253919],[-0.554692,53.252149],[-0.561728,53.25126],[-0.595112,53.24517],[-0.597432,53.247263],[-0.601996,53.250433],[-0.611474,53.256424],[-0.612204,53.256095],[-0.619466,53.256592],[-0.620901,53.25704],[-0.622348,53.258006],[-0.631792,53.256402],[-0.631515,53.255288],[-0.638439,53.254212],[-0.648377,53.253168],[-0.646437,53.247236],[-0.648444,53.243474],[-0.653068,53.242745],[-0.653617,53.242316],[-0.665517,53.2407],[-0.666577,53.239702],[-0.68061,53.251993],[-0.682352,53.251537],[-0.683542,53.254546],[-0.688027,53.258391],[-0.69113,53.257669],[-0.693524,53.257921],[-0.694764,53.258402],[-0.712976,53.258137],[-0.71952,53.257155],[-0.721767,53.256097],[-0.724068,53.255583],[-0.725926,53.255278],[-0.727129,53.255443],[-0.734151,53.254004],[-0.734822,53.253041],[-0.735075,53.251474],[-0.734179,53.249069],[-0.734865,53.247675],[-0.735083,53.243874],[-0.740577,53.243669],[-0.747214,53.244391],[-0.760367,53.245207],[-0.760753,53.245644],[-0.763211,53.245878],[-0.771053,53.24616],[-0.77105,53.246754],[-0.776496,53.246893],[-0.776303,53.248468],[-0.777701,53.250582],[-0.777911,53.252121],[-0.776695,53.252488],[-0.772086,53.25232],[-0.769805,53.252701],[-0.769783,53.253928],[-0.772086,53.25588],[-0.771855,53.2559],[-0.771666,53.257838],[-0.772548,53.258478],[-0.772414,53.261129],[-0.764939,53.269954],[-0.763722,53.271869],[-0.763653,53.273091],[-0.764809,53.274393],[-0.767963,53.275536],[-0.772157,53.278079],[-0.774204,53.280467],[-0.77715,53.282125],[-0.777223,53.283864],[-0.774085,53.286432],[-0.766498,53.291296],[-0.764758,53.293205],[-0.764111,53.294983],[-0.764248,53.298175],[-0.762554,53.299184],[-0.760764,53.299077],[-0.759342,53.29795],[-0.75904,53.297202],[-0.759605,53.293659],[-0.758154,53.292559],[-0.756691,53.292324],[-0.753524,53.292478],[-0.750038,53.293332],[-0.74522,53.292966],[-0.750093,53.293757],[-0.746226,53.303507],[-0.746849,53.30539],[-0.751887,53.309415],[-0.752952,53.311584],[-0.753297,53.313507],[-0.753214,53.318946],[-0.752691,53.320569],[-0.74953,53.322606],[-0.748513,53.322676],[-0.749408,53.322773],[-0.749226,53.323842],[-0.749682,53.324618],[-0.751499,53.325509],[-0.753696,53.325632],[-0.758197,53.324777],[-0.759907,53.325026],[-0.761837,53.327255],[-0.765933,53.330122],[-0.765203,53.331369],[-0.76155,53.332031],[-0.760097,53.333538],[-0.759498,53.336462],[-0.756181,53.339427],[-0.756323,53.340724],[-0.757701,53.342103],[-0.76325,53.344756],[-0.764291,53.346345],[-0.763637,53.348256],[-0.762322,53.350079],[-0.759437,53.351275],[-0.758327,53.352204],[-0.758092,53.353878],[-0.759661,53.354899],[-0.763736,53.355559],[-0.76545,53.356355],[-0.77283,53.364179],[-0.774571,53.364947],[-0.776789,53.36475],[-0.7786,53.363457],[-0.779571,53.361974],[-0.780617,53.361684],[-0.785199,53.362931],[-0.789888,53.363225],[-0.790408,53.363482],[-0.789491,53.365143],[-0.790105,53.368294],[-0.788733,53.369581],[-0.785156,53.374597],[-0.781098,53.376089],[-0.77517,53.377094],[-0.774674,53.377747],[-0.775579,53.378955],[-0.775329,53.379136],[-0.774407,53.378515],[-0.774644,53.379155],[-0.780033,53.383011],[-0.781058,53.383298],[-0.780816,53.382596],[-0.781711,53.383133],[-0.780934,53.383534],[-0.78211,53.384063],[-0.783003,53.383742],[-0.789714,53.385831],[-0.788757,53.386184],[-0.783957,53.386091],[-0.777229,53.389312],[-0.775721,53.391255],[-0.776581,53.393578],[-0.776493,53.39651],[-0.777611,53.39809],[-0.779844,53.399767],[-0.785251,53.402253],[-0.787657,53.404453],[-0.790977,53.410875],[-0.790698,53.411797],[-0.787877,53.414284],[-0.788039,53.415253],[-0.789048,53.415705],[-0.790447,53.415729],[-0.794702,53.414961],[-0.804261,53.41781],[-0.807783,53.419643],[-0.817223,53.426353],[-0.817577,53.427588],[-0.815498,53.432445],[-0.818549,53.436669],[-0.819969,53.440639],[-0.81897,53.441264],[-0.81159,53.442605],[-0.809023,53.443521],[-0.804683,53.447315],[-0.801964,53.451085],[-0.799923,53.453126],[-0.7931,53.45683],[-0.785224,53.461935],[-0.7836,53.464383],[-0.78495,53.473646],[-0.784009,53.476205],[-0.78258,53.477272],[-0.779586,53.47802],[-0.772573,53.478131],[-0.771513,53.478627],[-0.770623,53.479674],[-0.7709,53.482915],[-0.774713,53.487734],[-0.774998,53.488762],[-0.772874,53.491039],[-0.769011,53.493266],[-0.767802,53.494317],[-0.767761,53.497631],[-0.767236,53.498905],[-0.765908,53.499893],[-0.763788,53.500317],[-0.761163,53.500459],[-0.754599,53.499704],[-0.75226,53.499926],[-0.751058,53.500538],[-0.748128,53.504421],[-0.742112,53.510405],[-0.738567,53.519881],[-0.726356,53.518937],[-0.713887,53.516846],[-0.701578,53.514183],[-0.699938,53.51461],[-0.700166,53.515151],[-0.699757,53.515385],[-0.698121,53.515531],[-0.697722,53.516149],[-0.695442,53.516293],[-0.692195,53.515939],[-0.691019,53.516215],[-0.688883,53.515758],[-0.687355,53.516389],[-0.686456,53.516013],[-0.684712,53.51412],[-0.683863,53.514197],[-0.683593,53.514544],[-0.681666,53.514595],[-0.680747,53.513542],[-0.678645,53.513709],[-0.678041,53.513272],[-0.677594,53.513576],[-0.676128,53.513024],[-0.675707,53.512525],[-0.65835,53.51386],[-0.624491,53.512839],[-0.628193,53.506823],[-0.625771,53.498673],[-0.625727,53.495581],[-0.628644,53.490766],[-0.628451,53.488782],[-0.631294,53.488312],[-0.630134,53.485994],[-0.634058,53.485399],[-0.631994,53.481354],[-0.632411,53.480107],[-0.634337,53.480013],[-0.632599,53.475399],[-0.633542,53.474964],[-0.632548,53.473827],[-0.634438,53.47303],[-0.634124,53.472646],[-0.6348,53.472385],[-0.633472,53.471245],[-0.633347,53.470403],[-0.634807,53.469552],[-0.629028,53.465054],[-0.62665,53.462061],[-0.627161,53.460404],[-0.629753,53.458219],[-0.621673,53.457821],[-0.613402,53.456951],[-0.59948,53.456402],[-0.597171,53.456735],[-0.584483,53.456865],[-0.566053,53.458125],[-0.551793,53.45952],[-0.55171,53.460814],[-0.529713,53.463815],[-0.512698,53.467781],[-0.508779,53.467759],[-0.508915,53.467529],[-0.50529,53.467981],[-0.50532,53.468194],[-0.500033,53.469622],[-0.483552,53.472419],[-0.471749,53.474873],[-0.471844,53.475345],[-0.473563,53.476643],[-0.481507,53.478373],[-0.48616,53.479908],[-0.48663,53.48047],[-0.48778,53.482968],[-0.487689,53.483823],[-0.488644,53.485088],[-0.487448,53.48606],[-0.487211,53.487268],[-0.487772,53.487814],[-0.487222,53.488746],[-0.48606,53.489245],[-0.485008,53.490348],[-0.483183,53.493449],[-0.480687,53.496245],[-0.482404,53.500387],[-0.483788,53.501563],[-0.485146,53.50359],[-0.486495,53.504532],[-0.488365,53.504836],[-0.481319,53.506967],[-0.478565,53.508394],[-0.475839,53.508979],[-0.47069,53.509117],[-0.466967,53.50972],[-0.461559,53.509978],[-0.452369,53.508711],[-0.449973,53.508673],[-0.447549,53.50917],[-0.444037,53.509392],[-0.439009,53.510917],[-0.437708,53.510861],[-0.43556,53.511351],[-0.427322,53.512248],[-0.425015,53.512729],[-0.421603,53.514039],[-0.419471,53.514187],[-0.417669,53.514699],[-0.415531,53.514692],[-0.413481,53.515525],[-0.405075,53.517617],[-0.406857,53.520167],[-0.405827,53.522241],[-0.406172,53.524505],[-0.408513,53.527292],[-0.40949,53.52912],[-0.407825,53.530108],[-0.408145,53.532109],[-0.412002,53.534553],[-0.41235,53.535257],[-0.4144,53.535842],[-0.418286,53.534808],[-0.421862,53.534448],[-0.427399,53.540948],[-0.427687,53.544258],[-0.429301,53.545098],[-0.430665,53.546337],[-0.433728,53.545864],[-0.437044,53.545955],[-0.439323,53.546425],[-0.442587,53.54624],[-0.446405,53.544574],[-0.450341,53.544043],[-0.45068,53.543148],[-0.454179,53.542962],[-0.463418,53.540846],[-0.47393,53.539087],[-0.481367,53.538245],[-0.501258,53.537462],[-0.500565,53.538418],[-0.496583,53.540113],[-0.49407,53.5418],[-0.491873,53.543962],[-0.490909,53.545874],[-0.483642,53.545278],[-0.483271,53.545608],[-0.481103,53.545828],[-0.476531,53.545913],[-0.475076,53.547405],[-0.474859,53.54814],[-0.473044,53.548824],[-0.467018,53.548961],[-0.466713,53.549731],[-0.467156,53.553685],[-0.466507,53.55539],[-0.465672,53.556023],[-0.46273,53.555959],[-0.462454,53.556505],[-0.460905,53.557324],[-0.460855,53.558045],[-0.459039,53.55854],[-0.458481,53.559012],[-0.457658,53.558868],[-0.456909,53.559291],[-0.452383,53.559442],[-0.450776,53.557966],[-0.44942,53.561284],[-0.447674,53.562685],[-0.446422,53.563005],[-0.445091,53.563837],[-0.442526,53.566264],[-0.441962,53.567631],[-0.440354,53.568778],[-0.439407,53.570293],[-0.434095,53.572818],[-0.429001,53.574525],[-0.428193,53.572603],[-0.424328,53.569652],[-0.419669,53.563773],[-0.408843,53.562119],[-0.400107,53.56142],[-0.388348,53.559751],[-0.373232,53.558962],[-0.368755,53.55933],[-0.368372,53.558981],[-0.362802,53.558625],[-0.359893,53.557832],[-0.356324,53.556053],[-0.34938,53.555809],[-0.347934,53.556059],[-0.345855,53.557959],[-0.348659,53.559513],[-0.335939,53.558627],[-0.330404,53.566258],[-0.329867,53.566325],[-0.328783,53.568539],[-0.326808,53.571136],[-0.322832,53.57535],[-0.323607,53.576042],[-0.320014,53.578962],[-0.320946,53.579571],[-0.317621,53.580958],[-0.318147,53.581323],[-0.316299,53.582266],[-0.316938,53.582709],[-0.315404,53.58322],[-0.315681,53.583787],[-0.314286,53.583952],[-0.314395,53.585579],[-0.312442,53.585758],[-0.312875,53.587072],[-0.312093,53.587116],[-0.312297,53.587731],[-0.310794,53.587721],[-0.310918,53.588295],[-0.310331,53.588341],[-0.310868,53.590155],[-0.306981,53.590262],[-0.303424,53.59079],[-0.304578,53.593861],[-0.303377,53.594485],[-0.300822,53.595136],[-0.300754,53.59554],[-0.304053,53.600546],[-0.303165,53.601443],[-0.303838,53.601892],[-0.303079,53.602383],[-0.303424,53.602747],[-0.303131,53.602894],[-0.305094,53.604727],[-0.305008,53.605815],[-0.306192,53.607393],[-0.305755,53.607994],[-0.30681,53.609576],[-0.308555,53.614329],[-0.3063,53.61406],[-0.304944,53.614281],[-0.3044,53.614469],[-0.304423,53.614844],[-0.30093,53.616388],[-0.298237,53.612562]]]]}}]}