{"type":"FeatureCollection","features":[{"type":"Feature","properties":{"slug":"west-devon","gss_code":"E07000047","name":"West Devon"},"geometry":{"type":"MultiPolygon","coordinates":[[[[-4.199989,50.45009],[-4.200223,50.450828],[-4.199688,50.451011],[-4.199989,50.45009]]],[[[-4.196891,50.450916],[-4.199382,50.450105],[-4.199749,50.45033],[-4.199174,50.450933],[-4.20057,50.451163],[-4.200598,50.451523],[-4.199926,50.45122],[-4.196844,50.451713],[-4.196891,50.450916]]],[[[-4.195269,50.451556],[-4.195689,50.451419],[-4.195763,50.450683],[-4.196836,50.450694],[-4.19622,50.451011],[-4.196646,50.451239],[-4.196107,50.451268],[-4.196684,50.451608],[-4.196536,50.45198],[-4.197143,50.452066],[-4.19664,50.452573],[-4.196892,50.452929],[-4.196627,50.452777],[-4.196393,50.452941],[-4.196294,50.452641],[-4.196094,50.452565],[-4.195928,50.453109],[-4.195443,50.452577],[-4.195269,50.451556]]],[[[-4.195434,50.452667],[-4.195782,50.453082],[-4.195175,50.45313],[-4.195434,50.452667]]],[[[-4.197069,50.452448],[-4.197344,50.452929],[-4.198678,50.453011],[-4.19742,50.453346],[-4.197069,50.452448]]],[[[-4.197242,50.451878],[-4.198225,50.45168],[-4.198047,50.452011],[-4.199234,50.451508],[-4.198837,50.452009],[-4.199531,50.451351],[-4.200382,50.45152],[-4.200263,50.451955],[-4.199314,50.452372],[-4.200111,50.452114],[-4.200016,50.452422],[-4.200574,50.451873],[-4.200438,50.453575],[-4.198636,50.452895],[-4.197446,50.4527],[-4.197242,50.451878]]],[[[-4.196226,50.45262],[-4.196408,50.452975],[-4.197199,50.453267],[-4.195881,50.453794],[-4.195668,50.453209],[-4.195951,50.453124],[-4.196226,50.45262]]],[[[-4.067176,50.870886],[-4.066762,50.870823],[-4.066616,50.870341],[-4.065169,50.870092],[-4.063853,50.870628],[-4.062124,50.87071],[-4.061047,50.871119],[-4.059262,50.87035],[-4.058098,50.87138],[-4.054725,50.867667],[-4.05305,50.863823],[-4.05204,50.862689],[-4.051398,50.863642],[-4.048954,50.863951],[-4.047956,50.863554],[-4.046529,50.863681],[-4.046433,50.865169],[-4.04001,50.868554],[-4.040019,50.865244],[-4.040772,50.863126],[-4.040244,50.861754],[-4.038999,50.860253],[-4.03628,50.859392],[-4.031814,50.860288],[-4.029144,50.859885],[-4.026741,50.860404],[-4.02397,50.86042],[-4.024427,50.862256],[-4.023773,50.862706],[-4.023895,50.864234],[-4.023076,50.86604],[-4.021019,50.86627],[-4.019474,50.866067],[-4.019311,50.865751],[-4.018389,50.86556],[-4.01706,50.86574],[-4.01563,50.865451],[-4.015393,50.864247],[-4.013528,50.864138],[-4.010796,50.863229],[-4.010601,50.86488],[-4.008308,50.866025],[-3.995,50.869219],[-3.994175,50.868851],[-3.995033,50.865067],[-3.99652,50.864152],[-3.996146,50.863219],[-3.997798,50.862788],[-3.997267,50.8618],[-3.995091,50.859862],[-3.995733,50.856929],[-3.99538,50.856209],[-3.996909,50.854728],[-3.995399,50.851848],[-3.991786,50.852269],[-3.990227,50.851214],[-3.9894,50.850015],[-3.989505,50.850419],[-3.988865,50.850642],[-3.988194,50.850166],[-3.985764,50.850828],[-3.985644,50.851313],[-3.978017,50.854732],[-3.977468,50.855547],[-3.975986,50.856283],[-3.973208,50.856383],[-3.972889,50.856677],[-3.970784,50.856252],[-3.969896,50.855496],[-3.967323,50.855011],[-3.962561,50.855648],[-3.96132,50.856376],[-3.958917,50.85537],[-3.958679,50.854902],[-3.959855,50.852794],[-3.961622,50.850896],[-3.962084,50.849541],[-3.957569,50.845963],[-3.950213,50.841954],[-3.947737,50.840145],[-3.948589,50.839749],[-3.945418,50.838564],[-3.943348,50.837035],[-3.942296,50.834976],[-3.942797,50.832866],[-3.941013,50.831645],[-3.94001,50.82989],[-3.93888,50.829216],[-3.939143,50.827557],[-3.940197,50.826975],[-3.94045,50.825557],[-3.93734,50.825809],[-3.930576,50.827524],[-3.927755,50.827352],[-3.926981,50.827842],[-3.924745,50.827242],[-3.920516,50.828187],[-3.91795,50.830042],[-3.916319,50.830256],[-3.916027,50.83057],[-3.913558,50.830347],[-3.910539,50.829118],[-3.910318,50.82934],[-3.90973,50.829058],[-3.905653,50.829542],[-3.904475,50.830821],[-3.903883,50.832878],[-3.902433,50.832778],[-3.900856,50.833551],[-3.900693,50.834296],[-3.899826,50.834164],[-3.899619,50.834554],[-3.897441,50.833529],[-3.895796,50.831836],[-3.893434,50.831663],[-3.890104,50.829203],[-3.884663,50.82638],[-3.883435,50.825977],[-3.880936,50.826164],[-3.881453,50.824912],[-3.882463,50.824787],[-3.881537,50.821541],[-3.877751,50.818887],[-3.87434,50.819156],[-3.866614,50.820739],[-3.861755,50.820628],[-3.859884,50.821278],[-3.854188,50.819669],[-3.853502,50.819179],[-3.852579,50.817436],[-3.851897,50.817292],[-3.848869,50.817853],[-3.848201,50.818253],[-3.845698,50.817934],[-3.84245,50.818592],[-3.839878,50.81849],[-3.839426,50.818763],[-3.838986,50.818133],[-3.8394,50.817471],[-3.844193,50.812191],[-3.84417,50.809232],[-3.843348,50.8076],[-3.842554,50.800389],[-3.839811,50.800309],[-3.83907,50.797718],[-3.837277,50.795196],[-3.838177,50.795015],[-3.836999,50.793747],[-3.836197,50.793898],[-3.835903,50.793015],[-3.83641,50.79275],[-3.836383,50.792164],[-3.837787,50.792103],[-3.838087,50.791544],[-3.839207,50.791156],[-3.839574,50.790443],[-3.838651,50.790289],[-3.839872,50.788719],[-3.839861,50.787557],[-3.841378,50.787214],[-3.841282,50.786844],[-3.841943,50.786553],[-3.841197,50.786346],[-3.841871,50.78486],[-3.84148,50.78469],[-3.841949,50.784362],[-3.841514,50.783806],[-3.842552,50.78339],[-3.842555,50.782983],[-3.842969,50.783087],[-3.843762,50.782092],[-3.84539,50.781583],[-3.845253,50.781276],[-3.827088,50.780665],[-3.822041,50.781],[-3.822582,50.780392],[-3.822095,50.779776],[-3.822357,50.779282],[-3.82429,50.778177],[-3.825129,50.77692],[-3.822954,50.775301],[-3.822587,50.773706],[-3.821683,50.773181],[-3.82061,50.771683],[-3.819719,50.769321],[-3.816094,50.763796],[-3.81502,50.763486],[-3.813037,50.76226],[-3.813857,50.761237],[-3.814504,50.76123],[-3.814726,50.760883],[-3.811321,50.759997],[-3.80738,50.75998],[-3.807372,50.760427],[-3.806233,50.759722],[-3.805839,50.759014],[-3.808305,50.759211],[-3.809029,50.758747],[-3.810033,50.758862],[-3.810732,50.758551],[-3.810963,50.758939],[-3.81196,50.758878],[-3.812001,50.758574],[-3.812451,50.758597],[-3.812039,50.758446],[-3.812299,50.758254],[-3.813083,50.758351],[-3.812756,50.758177],[-3.813091,50.757838],[-3.814069,50.757908],[-3.813782,50.757615],[-3.814459,50.757456],[-3.814836,50.75684],[-3.816899,50.75635],[-3.816849,50.755847],[-3.818073,50.755076],[-3.817823,50.754858],[-3.818309,50.754869],[-3.818075,50.754412],[-3.818572,50.754395],[-3.818335,50.754018],[-3.818871,50.753929],[-3.818714,50.753136],[-3.819151,50.753056],[-3.819745,50.751692],[-3.820714,50.751048],[-3.820605,50.750486],[-3.821204,50.750284],[-3.820985,50.750043],[-3.821407,50.750164],[-3.821706,50.749687],[-3.8222,50.749679],[-3.822676,50.749019],[-3.822484,50.747997],[-3.822862,50.747739],[-3.823075,50.745594],[-3.824572,50.743899],[-3.824227,50.743256],[-3.824979,50.742176],[-3.8247,50.741525],[-3.825073,50.74117],[-3.824709,50.741034],[-3.827323,50.738663],[-3.828606,50.736249],[-3.830632,50.735035],[-3.831191,50.735011],[-3.832152,50.734028],[-3.833814,50.733522],[-3.836295,50.732172],[-3.833845,50.73055],[-3.831844,50.727842],[-3.827528,50.729096],[-3.82545,50.730282],[-3.822487,50.726377],[-3.821428,50.724359],[-3.822129,50.723219],[-3.819876,50.72101],[-3.819609,50.719121],[-3.818597,50.716964],[-3.809407,50.716489],[-3.803806,50.716826],[-3.799889,50.717412],[-3.793477,50.71907],[-3.783531,50.72283],[-3.766259,50.727565],[-3.765889,50.72583],[-3.764208,50.725977],[-3.761974,50.724557],[-3.759272,50.723995],[-3.757987,50.722965],[-3.756966,50.722672],[-3.756869,50.721135],[-3.755011,50.719952],[-3.755462,50.719332],[-3.755327,50.717878],[-3.753667,50.716051],[-3.751582,50.714628],[-3.751428,50.71372],[-3.752263,50.711805],[-3.750848,50.710502],[-3.750748,50.709198],[-3.750276,50.70862],[-3.748351,50.708042],[-3.747725,50.708187],[-3.747768,50.707864],[-3.745799,50.707488],[-3.743322,50.705965],[-3.74149,50.705473],[-3.739911,50.705518],[-3.739077,50.704751],[-3.736461,50.703863],[-3.736278,50.703297],[-3.735593,50.703184],[-3.735678,50.702524],[-3.735011,50.702003],[-3.735247,50.701718],[-3.734881,50.701688],[-3.735126,50.701247],[-3.7337,50.700243],[-3.73403,50.700136],[-3.73347,50.699465],[-3.733686,50.698601],[-3.732247,50.697002],[-3.735076,50.695896],[-3.741789,50.695516],[-3.745598,50.696664],[-3.749543,50.697158],[-3.752673,50.696327],[-3.753443,50.694308],[-3.756745,50.694829],[-3.758477,50.694431],[-3.760644,50.693309],[-3.761649,50.693216],[-3.76848,50.694976],[-3.773832,50.693166],[-3.77575,50.693061],[-3.777105,50.693474],[-3.780001,50.695322],[-3.78257,50.695528],[-3.783781,50.69489],[-3.784279,50.693424],[-3.784944,50.692812],[-3.786785,50.692158],[-3.789372,50.692798],[-3.791881,50.69384],[-3.798784,50.692909],[-3.801658,50.693695],[-3.803317,50.693637],[-3.807285,50.694745],[-3.808918,50.693998],[-3.809736,50.69258],[-3.811623,50.691025],[-3.810989,50.68939],[-3.807872,50.684622],[-3.807752,50.682806],[-3.807026,50.681612],[-3.802843,50.678617],[-3.798485,50.677693],[-3.798077,50.675768],[-3.797217,50.674915],[-3.799018,50.673164],[-3.799414,50.671764],[-3.800588,50.670335],[-3.801609,50.669748],[-3.801574,50.668734],[-3.804529,50.667365],[-3.803495,50.666572],[-3.806238,50.665364],[-3.809656,50.664635],[-3.809484,50.662902],[-3.810397,50.662456],[-3.811083,50.659595],[-3.811996,50.658997],[-3.811925,50.658749],[-3.809658,50.658989],[-3.807243,50.658593],[-3.805901,50.656702],[-3.804646,50.655906],[-3.806833,50.655495],[-3.80938,50.655671],[-3.81021,50.655163],[-3.809911,50.654193],[-3.810792,50.654237],[-3.811697,50.653668],[-3.813484,50.653384],[-3.814231,50.652926],[-3.81415,50.651305],[-3.815977,50.651597],[-3.817399,50.651402],[-3.818519,50.652307],[-3.820031,50.652223],[-3.820124,50.651673],[-3.82069,50.651792],[-3.821937,50.651391],[-3.823825,50.651595],[-3.824514,50.652048],[-3.826654,50.651771],[-3.828847,50.650481],[-3.828814,50.648973],[-3.82928,50.64793],[-3.830264,50.647655],[-3.83175,50.647781],[-3.832759,50.648911],[-3.834762,50.649708],[-3.837754,50.649821],[-3.841759,50.648231],[-3.843578,50.646945],[-3.843925,50.645259],[-3.843614,50.643051],[-3.845281,50.641023],[-3.845924,50.635698],[-3.848384,50.634444],[-3.84887,50.633528],[-3.850372,50.632319],[-3.852778,50.631605],[-3.854455,50.631639],[-3.855984,50.630677],[-3.857743,50.628957],[-3.858096,50.626185],[-3.860565,50.625822],[-3.862049,50.625136],[-3.864264,50.623439],[-3.867308,50.619312],[-3.869802,50.616889],[-3.87336,50.614297],[-3.872497,50.612637],[-3.873033,50.610973],[-3.874924,50.609127],[-3.879187,50.599528],[-3.882482,50.596724],[-3.882823,50.595003],[-3.881136,50.592472],[-3.881178,50.590441],[-3.88051,50.589332],[-3.881368,50.587738],[-3.880579,50.587419],[-3.880704,50.586959],[-3.879248,50.586259],[-3.880385,50.585696],[-3.880935,50.584351],[-3.879285,50.580856],[-3.878358,50.580456],[-3.878421,50.579928],[-3.877293,50.579039],[-3.877711,50.578743],[-3.877353,50.575648],[-3.876976,50.575151],[-3.873802,50.57515],[-3.872575,50.573384],[-3.870134,50.572144],[-3.869692,50.5713],[-3.870713,50.569189],[-3.871882,50.568117],[-3.87186,50.566774],[-3.872802,50.566444],[-3.873013,50.565569],[-3.874341,50.564791],[-3.874852,50.564019],[-3.874281,50.561823],[-3.876226,50.558913],[-3.875929,50.556982],[-3.874041,50.556197],[-3.874595,50.555175],[-3.874295,50.554211],[-3.876829,50.553156],[-3.87743,50.552503],[-3.877129,50.550001],[-3.875905,50.549249],[-3.875615,50.54766],[-3.875987,50.547253],[-3.875132,50.546618],[-3.874875,50.545431],[-3.875863,50.544556],[-3.875601,50.54243],[-3.877444,50.542431],[-3.879691,50.541558],[-3.880443,50.540276],[-3.882195,50.539967],[-3.883497,50.53923],[-3.884666,50.537196],[-3.886485,50.536138],[-3.889161,50.536319],[-3.88812,50.533216],[-3.884312,50.53065],[-3.884015,50.529361],[-3.884583,50.528673],[-3.884572,50.527034],[-3.885755,50.525111],[-3.88641,50.524629],[-3.891183,50.52352],[-3.890652,50.519636],[-3.892602,50.513852],[-3.89134,50.505889],[-3.884328,50.501564],[-3.883187,50.499573],[-3.883867,50.498023],[-3.883676,50.495886],[-3.883041,50.495269],[-3.882741,50.492818],[-3.881236,50.490762],[-3.879857,50.487296],[-3.880236,50.485675],[-3.881913,50.48406],[-3.882347,50.482702],[-3.883733,50.480796],[-3.883715,50.48],[-3.888058,50.480102],[-3.891529,50.479456],[-3.891699,50.478379],[-3.898321,50.474162],[-3.898975,50.472638],[-3.903844,50.477172],[-3.906263,50.476825],[-3.90924,50.47844],[-3.911396,50.480262],[-3.91372,50.48124],[-3.913797,50.481677],[-3.919978,50.481654],[-3.921471,50.481044],[-3.922412,50.480039],[-3.923741,50.479486],[-3.923929,50.47876],[-3.925661,50.479766],[-3.926381,50.480966],[-3.927493,50.480885],[-3.928311,50.48129],[-3.931886,50.481912],[-3.932188,50.482217],[-3.932593,50.481951],[-3.93589,50.483534],[-3.937039,50.483651],[-3.938985,50.484424],[-3.946006,50.489079],[-3.948779,50.488656],[-3.948706,50.492743],[-3.945788,50.498268],[-3.946565,50.497998],[-3.949102,50.498358],[-3.952364,50.499059],[-3.954852,50.500215],[-3.955969,50.500243],[-3.9602,50.499235],[-3.962471,50.498189],[-3.96477,50.49631],[-3.965318,50.494183],[-3.967554,50.491975],[-3.967972,50.489824],[-3.970444,50.488135],[-3.971322,50.487811],[-3.971694,50.488032],[-3.975159,50.487951],[-3.976172,50.487436],[-3.978655,50.486995],[-3.982169,50.485566],[-3.984901,50.48388],[-3.984691,50.483319],[-3.987847,50.481499],[-3.990937,50.481189],[-3.992358,50.47908],[-3.993912,50.478333],[-3.993926,50.477865],[-3.994781,50.477389],[-4.001265,50.477344],[-4.005287,50.476404],[-4.004443,50.475864],[-4.006739,50.474187],[-4.006553,50.473019],[-4.007053,50.472477],[-4.006489,50.472143],[-4.007901,50.469674],[-4.011074,50.469577],[-4.017645,50.468317],[-4.023054,50.468729],[-4.024446,50.4674],[-4.024076,50.464644],[-4.023346,50.463179],[-4.023927,50.462035],[-4.025599,50.462328],[-4.027407,50.461741],[-4.028916,50.462923],[-4.028929,50.462367],[-4.029817,50.462493],[-4.029575,50.463376],[-4.030196,50.463815],[-4.031248,50.463756],[-4.032094,50.46315],[-4.032723,50.463253],[-4.033918,50.462783],[-4.03548,50.463774],[-4.036238,50.463804],[-4.037484,50.463484],[-4.038665,50.462636],[-4.042492,50.461859],[-4.04292,50.461454],[-4.042622,50.460458],[-4.044199,50.459846],[-4.046126,50.459546],[-4.047487,50.458845],[-4.050664,50.458765],[-4.053106,50.457322],[-4.057167,50.45673],[-4.058415,50.455939],[-4.060178,50.454031],[-4.064016,50.454305],[-4.065402,50.454856],[-4.068014,50.454498],[-4.067849,50.45536],[-4.066697,50.456041],[-4.066338,50.457118],[-4.065151,50.45823],[-4.065173,50.459627],[-4.067991,50.459616],[-4.069368,50.459296],[-4.07012,50.459483],[-4.071375,50.460898],[-4.07277,50.461507],[-4.072744,50.462499],[-4.076014,50.463947],[-4.076481,50.465212],[-4.076193,50.465639],[-4.077913,50.467259],[-4.077255,50.467466],[-4.077161,50.467834],[-4.077792,50.469907],[-4.07801,50.468804],[-4.079416,50.46818],[-4.09886,50.460681],[-4.104275,50.45536],[-4.107268,50.450387],[-4.108206,50.454479],[-4.110441,50.453955],[-4.109261,50.457218],[-4.109547,50.459375],[-4.108567,50.46297],[-4.116261,50.463052],[-4.122843,50.464272],[-4.123631,50.464494],[-4.123666,50.464774],[-4.126591,50.464767],[-4.127797,50.465089],[-4.134014,50.464228],[-4.137105,50.46474],[-4.138623,50.463248],[-4.142529,50.462222],[-4.144314,50.462071],[-4.145906,50.462406],[-4.147478,50.463263],[-4.151473,50.463416],[-4.152006,50.463802],[-4.150515,50.465135],[-4.151215,50.465473],[-4.152391,50.46423],[-4.153663,50.464082],[-4.153259,50.464528],[-4.155529,50.46373],[-4.157555,50.462279],[-4.157838,50.461324],[-4.156346,50.458896],[-4.158682,50.456417],[-4.160245,50.455481],[-4.162019,50.455314],[-4.163216,50.456099],[-4.163945,50.456131],[-4.163756,50.456497],[-4.163369,50.456475],[-4.163894,50.456587],[-4.163301,50.457103],[-4.163942,50.457026],[-4.163945,50.456378],[-4.165279,50.454607],[-4.168603,50.452188],[-4.169626,50.451922],[-4.170216,50.451143],[-4.169749,50.450769],[-4.170998,50.450406],[-4.171605,50.449524],[-4.171341,50.448591],[-4.17315,50.446178],[-4.173423,50.44488],[-4.174618,50.444084],[-4.174788,50.44432],[-4.175736,50.443998],[-4.175316,50.443739],[-4.175292,50.443074],[-4.176649,50.440549],[-4.177909,50.439862],[-4.178459,50.438967],[-4.180052,50.437726],[-4.180909,50.437321],[-4.181335,50.437428],[-4.183583,50.435983],[-4.184061,50.434968],[-4.184645,50.434819],[-4.185079,50.434211],[-4.190831,50.435254],[-4.192289,50.437207],[-4.191997,50.437538],[-4.192397,50.438013],[-4.191194,50.440165],[-4.191338,50.440869],[-4.195024,50.442584],[-4.1983,50.444746],[-4.198941,50.445574],[-4.198183,50.44635],[-4.198367,50.447289],[-4.199593,50.448458],[-4.198613,50.448503],[-4.198154,50.448993],[-4.198683,50.448675],[-4.198718,50.448935],[-4.19892,50.448525],[-4.199544,50.448668],[-4.199952,50.450053],[-4.199265,50.450043],[-4.198205,50.450462],[-4.197535,50.450073],[-4.198078,50.450485],[-4.197377,50.45064],[-4.196173,50.45058],[-4.195955,50.450207],[-4.196014,50.450585],[-4.195425,50.450712],[-4.194763,50.450203],[-4.19509,50.452249],[-4.194712,50.453248],[-4.195664,50.453959],[-4.194968,50.454116],[-4.194676,50.453367],[-4.193615,50.454289],[-4.193788,50.455065],[-4.194554,50.455418],[-4.195233,50.454323],[-4.198401,50.453383],[-4.1983,50.453847],[-4.198546,50.453416],[-4.198929,50.453628],[-4.198149,50.454282],[-4.198985,50.454545],[-4.198623,50.453918],[-4.199076,50.453652],[-4.199104,50.454353],[-4.199392,50.453812],[-4.199782,50.453995],[-4.199699,50.454527],[-4.200018,50.454033],[-4.200607,50.454289],[-4.200366,50.454592],[-4.200705,50.454286],[-4.201042,50.454439],[-4.20069,50.454702],[-4.201155,50.454465],[-4.201965,50.455148],[-4.201636,50.455369],[-4.202011,50.455378],[-4.202453,50.456413],[-4.200754,50.455422],[-4.204181,50.457972],[-4.205962,50.458786],[-4.20908,50.462315],[-4.210021,50.46209],[-4.209197,50.462436],[-4.209398,50.462803],[-4.210099,50.463245],[-4.210602,50.463181],[-4.210533,50.463893],[-4.211897,50.465206],[-4.213025,50.46574],[-4.213048,50.466437],[-4.215816,50.468319],[-4.219613,50.468887],[-4.222684,50.46806],[-4.224726,50.467086],[-4.225821,50.465285],[-4.227332,50.464069],[-4.22771,50.461532],[-4.227205,50.458405],[-4.228426,50.457385],[-4.230091,50.45694],[-4.232341,50.456953],[-4.23437,50.457724],[-4.235954,50.458951],[-4.23573,50.459263],[-4.235296,50.459028],[-4.235705,50.459373],[-4.236097,50.459206],[-4.235552,50.459702],[-4.235837,50.45989],[-4.236255,50.459195],[-4.236774,50.459455],[-4.236988,50.460457],[-4.236423,50.460515],[-4.236544,50.46096],[-4.237075,50.460607],[-4.23759,50.461728],[-4.237258,50.462307],[-4.236162,50.462532],[-4.234957,50.46394],[-4.235607,50.463651],[-4.23568,50.464117],[-4.236204,50.462691],[-4.237424,50.46231],[-4.237682,50.462686],[-4.237257,50.46436],[-4.236497,50.465378],[-4.233989,50.465241],[-4.236536,50.465475],[-4.234297,50.467301],[-4.23185,50.468042],[-4.231196,50.468605],[-4.221999,50.472672],[-4.218628,50.474519],[-4.218056,50.474043],[-4.218167,50.474818],[-4.216575,50.475109],[-4.216226,50.475414],[-4.216698,50.475145],[-4.217734,50.475298],[-4.216857,50.477156],[-4.217582,50.484068],[-4.219332,50.485785],[-4.219852,50.485735],[-4.221579,50.486936],[-4.223183,50.489038],[-4.222988,50.490041],[-4.221114,50.491528],[-4.219948,50.493045],[-4.220805,50.497747],[-4.219646,50.497897],[-4.210111,50.496274],[-4.207569,50.495359],[-4.204927,50.492768],[-4.203733,50.492172],[-4.20301,50.492238],[-4.202895,50.49183],[-4.202491,50.492104],[-4.199199,50.492181],[-4.198967,50.491776],[-4.198129,50.491413],[-4.198803,50.491845],[-4.198802,50.492266],[-4.194798,50.493227],[-4.193205,50.495051],[-4.193278,50.495871],[-4.194908,50.497872],[-4.194786,50.49833],[-4.19353,50.498719],[-4.189602,50.498111],[-4.185085,50.499564],[-4.182379,50.499716],[-4.180376,50.500983],[-4.180047,50.502767],[-4.180871,50.50437],[-4.183706,50.507917],[-4.185385,50.50849],[-4.186981,50.508433],[-4.190105,50.507675],[-4.191596,50.506947],[-4.192304,50.506179],[-4.192817,50.506506],[-4.192352,50.506053],[-4.193241,50.50415],[-4.194269,50.50302],[-4.196784,50.503052],[-4.199477,50.502667],[-4.202483,50.503154],[-4.202994,50.505102],[-4.202326,50.506869],[-4.201582,50.513387],[-4.202921,50.513803],[-4.207901,50.513291],[-4.209028,50.513467],[-4.209517,50.514255],[-4.209146,50.51539],[-4.206432,50.518069],[-4.206251,50.520148],[-4.207252,50.521913],[-4.211039,50.525327],[-4.212118,50.528837],[-4.211399,50.530016],[-4.207025,50.532757],[-4.206963,50.533367],[-4.208202,50.533755],[-4.209922,50.533522],[-4.213295,50.534529],[-4.214505,50.534568],[-4.218925,50.532039],[-4.225552,50.529714],[-4.226743,50.529759],[-4.229287,50.530812],[-4.232295,50.531017],[-4.233985,50.531707],[-4.236806,50.534172],[-4.240167,50.541419],[-4.241492,50.542689],[-4.244169,50.543517],[-4.248157,50.54393],[-4.253419,50.543644],[-4.254737,50.54254],[-4.255565,50.54037],[-4.263502,50.536005],[-4.26877,50.535271],[-4.269698,50.535498],[-4.271622,50.536683],[-4.271433,50.538622],[-4.267037,50.542422],[-4.263992,50.543538],[-4.261143,50.543876],[-4.260033,50.544544],[-4.259285,50.545847],[-4.259955,50.547721],[-4.259596,50.551143],[-4.261456,50.554661],[-4.263764,50.557369],[-4.265991,50.558859],[-4.272493,50.561636],[-4.273427,50.562494],[-4.273567,50.564797],[-4.274431,50.56593],[-4.279516,50.569173],[-4.279344,50.570852],[-4.277859,50.574782],[-4.269724,50.578977],[-4.269804,50.579878],[-4.27115,50.582214],[-4.272533,50.58286],[-4.285122,50.584824],[-4.285981,50.584665],[-4.286549,50.584098],[-4.286083,50.582563],[-4.28248,50.578976],[-4.281925,50.577817],[-4.282738,50.576165],[-4.285345,50.574991],[-4.286611,50.575072],[-4.289019,50.576476],[-4.289603,50.578041],[-4.289709,50.581981],[-4.291023,50.583719],[-4.293064,50.584288],[-4.29475,50.584379],[-4.298374,50.583701],[-4.305241,50.579041],[-4.306607,50.578573],[-4.308063,50.578944],[-4.308333,50.581851],[-4.311219,50.58487],[-4.312173,50.589497],[-4.311167,50.591898],[-4.307497,50.593494],[-4.306314,50.594765],[-4.306896,50.599897],[-4.308454,50.602695],[-4.307155,50.604246],[-4.303429,50.61153],[-4.303729,50.612204],[-4.306389,50.6141],[-4.305775,50.615825],[-4.307462,50.618353],[-4.307414,50.62002],[-4.306194,50.620867],[-4.302149,50.625229],[-4.301842,50.627396],[-4.302674,50.629541],[-4.301807,50.631376],[-4.300138,50.632481],[-4.300147,50.633516],[-4.301435,50.634994],[-4.302637,50.635722],[-4.304553,50.636239],[-4.308944,50.635729],[-4.310459,50.636448],[-4.31143,50.637503],[-4.312071,50.637469],[-4.31399,50.636147],[-4.319916,50.636106],[-4.325936,50.637896],[-4.325955,50.638757],[-4.325206,50.640187],[-4.325698,50.640542],[-4.328101,50.640755],[-4.329862,50.640231],[-4.332825,50.640805],[-4.333677,50.641438],[-4.333324,50.643568],[-4.335226,50.646541],[-4.334065,50.647546],[-4.33311,50.647588],[-4.332989,50.648044],[-4.331713,50.648202],[-4.331752,50.648694],[-4.332333,50.648645],[-4.332487,50.649169],[-4.331475,50.649244],[-4.331613,50.6488],[-4.330349,50.648911],[-4.329683,50.648491],[-4.32891,50.649497],[-4.327498,50.649711],[-4.326811,50.649407],[-4.326409,50.649764],[-4.325674,50.649572],[-4.323235,50.651265],[-4.32289,50.651784],[-4.323171,50.652138],[-4.321728,50.653297],[-4.319433,50.653014],[-4.319172,50.65365],[-4.318301,50.653437],[-4.317286,50.653866],[-4.317868,50.654216],[-4.316835,50.654871],[-4.317362,50.655613],[-4.317022,50.655833],[-4.316362,50.655416],[-4.315013,50.656782],[-4.315774,50.658889],[-4.314322,50.660206],[-4.314256,50.661222],[-4.313098,50.662418],[-4.311302,50.662595],[-4.307961,50.663554],[-4.305934,50.66337],[-4.303976,50.664712],[-4.295783,50.665693],[-4.292716,50.665304],[-4.290763,50.66651],[-4.289725,50.666148],[-4.285031,50.666012],[-4.277315,50.669061],[-4.275784,50.6681],[-4.27357,50.667837],[-4.272722,50.668044],[-4.270698,50.667731],[-4.26935,50.668246],[-4.26651,50.668602],[-4.263351,50.668013],[-4.261978,50.668196],[-4.260091,50.66742],[-4.259076,50.667343],[-4.258321,50.66666],[-4.256571,50.666424],[-4.256483,50.666944],[-4.255193,50.666422],[-4.254848,50.667126],[-4.252858,50.66761],[-4.251682,50.669827],[-4.250008,50.670789],[-4.249412,50.671732],[-4.247134,50.672809],[-4.245435,50.672932],[-4.243456,50.673581],[-4.240394,50.673019],[-4.23793,50.672018],[-4.235028,50.67145],[-4.223693,50.671584],[-4.222159,50.671244],[-4.220941,50.671706],[-4.220764,50.672455],[-4.219443,50.672485],[-4.218848,50.6733],[-4.21932,50.673946],[-4.217767,50.674641],[-4.217914,50.675005],[-4.218812,50.675154],[-4.21881,50.67556],[-4.218205,50.675855],[-4.216674,50.675748],[-4.216434,50.676039],[-4.215515,50.675865],[-4.21375,50.677218],[-4.214079,50.67766],[-4.212609,50.678032],[-4.212898,50.679004],[-4.209164,50.681547],[-4.211359,50.685513],[-4.214953,50.688977],[-4.219571,50.691359],[-4.224122,50.69212],[-4.226362,50.69271],[-4.228682,50.693796],[-4.230052,50.693942],[-4.231021,50.694983],[-4.231989,50.695422],[-4.231921,50.696038],[-4.231015,50.695937],[-4.230336,50.696729],[-4.228351,50.697412],[-4.227841,50.699115],[-4.228335,50.699685],[-4.227305,50.700364],[-4.227192,50.700898],[-4.227793,50.700813],[-4.227223,50.701953],[-4.227768,50.702026],[-4.227885,50.703551],[-4.228431,50.7037],[-4.228005,50.704305],[-4.228668,50.705247],[-4.228318,50.705481],[-4.229057,50.705981],[-4.228556,50.706916],[-4.229168,50.707404],[-4.228929,50.708154],[-4.2299,50.708592],[-4.230312,50.709467],[-4.231975,50.709795],[-4.232087,50.710482],[-4.233441,50.710922],[-4.23378,50.711698],[-4.234859,50.712385],[-4.234685,50.714273],[-4.234177,50.714446],[-4.233576,50.715429],[-4.23397,50.716013],[-4.23343,50.716107],[-4.233804,50.716523],[-4.232759,50.717141],[-4.232999,50.717707],[-4.232304,50.718402],[-4.233949,50.72208],[-4.23332,50.722854],[-4.232599,50.722623],[-4.230943,50.723481],[-4.231589,50.724076],[-4.227974,50.727326],[-4.227716,50.728774],[-4.225746,50.731402],[-4.227359,50.73373],[-4.229234,50.734979],[-4.227357,50.737305],[-4.22786,50.739637],[-4.227214,50.741537],[-4.226787,50.742187],[-4.222695,50.743979],[-4.2215,50.745026],[-4.220767,50.746701],[-4.218871,50.746358],[-4.218195,50.748157],[-4.213016,50.751296],[-4.210413,50.752512],[-4.200953,50.754626],[-4.196076,50.756574],[-4.19525,50.75508],[-4.193462,50.756639],[-4.193921,50.757972],[-4.185963,50.75769],[-4.194582,50.761747],[-4.198067,50.763032],[-4.201143,50.765075],[-4.202544,50.766524],[-4.202224,50.766643],[-4.203049,50.768984],[-4.205786,50.77489],[-4.203645,50.775318],[-4.203251,50.776291],[-4.196857,50.77985],[-4.190995,50.781733],[-4.190533,50.781464],[-4.187444,50.7821],[-4.186794,50.783039],[-4.182589,50.78428],[-4.181907,50.784761],[-4.179317,50.784673],[-4.177495,50.785731],[-4.175092,50.785996],[-4.174684,50.786347],[-4.173764,50.786201],[-4.171568,50.78676],[-4.169673,50.786228],[-4.166462,50.787033],[-4.167559,50.788475],[-4.168314,50.788556],[-4.169085,50.791598],[-4.179926,50.790939],[-4.184315,50.789178],[-4.187952,50.789132],[-4.19078,50.789729],[-4.19017,50.790004],[-4.188758,50.79249],[-4.187381,50.793187],[-4.187348,50.793923],[-4.185473,50.794407],[-4.183464,50.795746],[-4.181734,50.796275],[-4.18057,50.795926],[-4.180208,50.79645],[-4.178955,50.796566],[-4.178539,50.797118],[-4.177216,50.797489],[-4.176481,50.797522],[-4.175891,50.797131],[-4.173832,50.797697],[-4.170303,50.796945],[-4.170016,50.797381],[-4.168788,50.797673],[-4.172682,50.799147],[-4.174194,50.800472],[-4.175047,50.800632],[-4.176246,50.801507],[-4.176029,50.802514],[-4.174792,50.803243],[-4.173758,50.804617],[-4.174375,50.805507],[-4.177222,50.807167],[-4.175222,50.808431],[-4.173027,50.809022],[-4.172739,50.80978],[-4.170712,50.811205],[-4.163836,50.813523],[-4.163276,50.81348],[-4.158277,50.815449],[-4.159173,50.817246],[-4.158583,50.817341],[-4.1585,50.817829],[-4.159964,50.819702],[-4.159876,50.820692],[-4.158394,50.823171],[-4.16214,50.827106],[-4.162142,50.82788],[-4.162969,50.829373],[-4.163913,50.829892],[-4.164038,50.830913],[-4.162081,50.830327],[-4.160564,50.829476],[-4.158806,50.830158],[-4.155846,50.829765],[-4.154742,50.829916],[-4.155629,50.830999],[-4.155502,50.831361],[-4.156724,50.831633],[-4.155945,50.831679],[-4.155049,50.832905],[-4.153656,50.832553],[-4.15286,50.833096],[-4.151599,50.832238],[-4.151644,50.831289],[-4.146657,50.83082],[-4.143637,50.831264],[-4.139914,50.832463],[-4.138968,50.833074],[-4.138347,50.834704],[-4.138955,50.835404],[-4.138439,50.835932],[-4.138991,50.836555],[-4.138733,50.837149],[-4.139633,50.837638],[-4.13863,50.839311],[-4.137873,50.839926],[-4.137063,50.840027],[-4.13576,50.838915],[-4.135047,50.838888],[-4.13324,50.841463],[-4.13223,50.841597],[-4.131981,50.842211],[-4.130942,50.841873],[-4.129968,50.84201],[-4.130136,50.842812],[-4.12872,50.844107],[-4.12613,50.843662],[-4.124372,50.842876],[-4.12263,50.843019],[-4.121016,50.841846],[-4.119236,50.838304],[-4.118284,50.837648],[-4.116178,50.837751],[-4.115085,50.837489],[-4.114107,50.838121],[-4.113517,50.83747],[-4.11276,50.838074],[-4.110727,50.838484],[-4.109374,50.837362],[-4.107508,50.837369],[-4.107142,50.836387],[-4.105962,50.836191],[-4.104888,50.836634],[-4.103458,50.835564],[-4.102771,50.835415],[-4.103187,50.835948],[-4.103334,50.838026],[-4.102709,50.839002],[-4.10338,50.840831],[-4.102986,50.842904],[-4.104287,50.844143],[-4.104847,50.846028],[-4.101292,50.846549],[-4.103065,50.850312],[-4.094642,50.852538],[-4.085435,50.85782],[-4.085735,50.858682],[-4.087006,50.85901],[-4.089482,50.861611],[-4.09002,50.867314],[-4.084965,50.869141],[-4.079334,50.871839],[-4.077469,50.871701],[-4.071224,50.87343],[-4.06868,50.874613],[-4.066489,50.872392],[-4.06742,50.872162],[-4.067176,50.870886]],[[-4.196201,50.448613],[-4.197193,50.447213],[-4.195189,50.449946],[-4.195796,50.449363],[-4.196307,50.449596],[-4.195818,50.449341],[-4.196139,50.448698],[-4.19767,50.448616],[-4.197931,50.449292],[-4.197751,50.448555],[-4.198081,50.448571],[-4.197879,50.448759],[-4.198613,50.448503],[-4.196201,50.448613]]]]}}]}