{"type":"FeatureCollection","features":[{"type":"Feature","properties":{"slug":"westmorland-and-furness","gss_code":"E06000064","name":"Westmorland and Furness"},"geometry":{"type":"MultiPolygon","coordinates":[[[[-3.201105,54.064102],[-3.203446,54.065268],[-3.203002,54.065717],[-3.201777,54.065628],[-3.200637,54.06488],[-3.200532,54.064404],[-3.201105,54.064102]]],[[[-3.173734,54.061856],[-3.176895,54.063515],[-3.175865,54.065503],[-3.17414,54.066505],[-3.17409,54.065839],[-3.172292,54.064299],[-3.172683,54.062252],[-3.173734,54.061856]]],[[[-3.252722,54.150202],[-3.256525,54.150067],[-3.260555,54.148687],[-3.262353,54.148585],[-3.264451,54.147746],[-3.264987,54.146577],[-3.264663,54.146509],[-3.265453,54.146218],[-3.264577,54.14624],[-3.264464,54.1455],[-3.26613,54.145677],[-3.264576,54.145171],[-3.265473,54.145222],[-3.265596,54.145051],[-3.264787,54.14499],[-3.26535,54.144868],[-3.266014,54.145007],[-3.26556,54.144821],[-3.26586,54.144495],[-3.264709,54.144686],[-3.265933,54.144031],[-3.264867,54.144553],[-3.264827,54.144034],[-3.266676,54.143511],[-3.266261,54.143172],[-3.26664,54.143075],[-3.266304,54.143046],[-3.266221,54.143171],[-3.266262,54.143306],[-3.265905,54.142799],[-3.266077,54.143252],[-3.264625,54.143895],[-3.264522,54.144292],[-3.264356,54.143167],[-3.26491,54.143199],[-3.264218,54.142922],[-3.265855,54.142668],[-3.264553,54.142734],[-3.265587,54.142437],[-3.264615,54.142536],[-3.264635,54.142334],[-3.265648,54.142352],[-3.266874,54.141921],[-3.264307,54.142254],[-3.26429,54.141783],[-3.265213,54.141666],[-3.264415,54.141738],[-3.264662,54.141014],[-3.264086,54.140579],[-3.264607,54.140387],[-3.264551,54.139883],[-3.265525,54.139774],[-3.264432,54.139601],[-3.263983,54.140596],[-3.26413,54.141344],[-3.263506,54.140051],[-3.263805,54.139771],[-3.263434,54.139898],[-3.26326,54.139639],[-3.264433,54.139473],[-3.263945,54.139339],[-3.264209,54.139102],[-3.263929,54.139225],[-3.264712,54.138571],[-3.264097,54.138968],[-3.263933,54.138765],[-3.264048,54.138971],[-3.26416,54.138988],[-3.263017,54.139589],[-3.263149,54.138983],[-3.262677,54.13945],[-3.26211,54.138913],[-3.262424,54.139158],[-3.262662,54.139159],[-3.263296,54.138765],[-3.262496,54.139135],[-3.262304,54.138892],[-3.262608,54.138711],[-3.262059,54.13876],[-3.26211,54.139075],[-3.261557,54.138635],[-3.260662,54.138544],[-3.260818,54.138071],[-3.261134,54.138543],[-3.261378,54.138512],[-3.261717,54.137949],[-3.262112,54.138089],[-3.261916,54.138373],[-3.262422,54.138567],[-3.262899,54.138637],[-3.263012,54.138215],[-3.26361,54.138164],[-3.263814,54.138451],[-3.263711,54.137969],[-3.262911,54.138186],[-3.262768,54.138468],[-3.262068,54.138428],[-3.262706,54.137935],[-3.262462,54.137692],[-3.262238,54.138047],[-3.26167,54.13785],[-3.261203,54.138427],[-3.261355,54.137544],[-3.261699,54.13734],[-3.262014,54.137562],[-3.261852,54.13712],[-3.26351,54.137334],[-3.262744,54.136574],[-3.263059,54.136268],[-3.262297,54.134576],[-3.262629,54.135886],[-3.262199,54.136069],[-3.262634,54.13601],[-3.262576,54.136584],[-3.263347,54.137264],[-3.261871,54.137003],[-3.261095,54.137391],[-3.261164,54.137974],[-3.260659,54.137955],[-3.260803,54.136469],[-3.260469,54.13734],[-3.260093,54.137428],[-3.26047,54.137016],[-3.259901,54.13738],[-3.260133,54.137523],[-3.260452,54.13741],[-3.260682,54.13716],[-3.260552,54.137913],[-3.258907,54.137513],[-3.259012,54.137246],[-3.259978,54.137156],[-3.260407,54.136359],[-3.26004,54.136771],[-3.259706,54.136632],[-3.259754,54.137117],[-3.259035,54.137094],[-3.259339,54.136865],[-3.258841,54.136933],[-3.257538,54.13633],[-3.257608,54.135821],[-3.25784,54.136056],[-3.258332,54.136011],[-3.258974,54.136512],[-3.260265,54.135781],[-3.258961,54.136417],[-3.258376,54.135942],[-3.259371,54.135781],[-3.258184,54.135546],[-3.258769,54.135304],[-3.258248,54.135374],[-3.258125,54.135566],[-3.258333,54.135856],[-3.25793,54.135984],[-3.255947,54.134926],[-3.255823,54.134171],[-3.25654,54.135052],[-3.258148,54.135014],[-3.256657,54.13495],[-3.256494,54.134391],[-3.257549,54.134828],[-3.258154,54.134383],[-3.259448,54.135155],[-3.259018,54.134226],[-3.258693,54.134422],[-3.258725,54.133881],[-3.25856,54.134294],[-3.257333,54.134523],[-3.257296,54.13422],[-3.257277,54.134566],[-3.256508,54.134265],[-3.256256,54.134479],[-3.255102,54.132932],[-3.255394,54.133216],[-3.256005,54.13337],[-3.256852,54.133391],[-3.255917,54.133327],[-3.255603,54.132822],[-3.257721,54.133151],[-3.257932,54.133691],[-3.258455,54.133439],[-3.257708,54.133036],[-3.25564,54.132748],[-3.255454,54.132799],[-3.255456,54.133135],[-3.255045,54.132672],[-3.255197,54.131943],[-3.25602,54.132352],[-3.256666,54.132162],[-3.25729,54.132825],[-3.2572,54.13241],[-3.258269,54.132316],[-3.259196,54.132848],[-3.259216,54.133208],[-3.260903,54.133446],[-3.260536,54.133134],[-3.259358,54.133169],[-3.259399,54.132784],[-3.258095,54.132182],[-3.258869,54.131826],[-3.258188,54.132093],[-3.25737,54.131947],[-3.257947,54.132124],[-3.257484,54.132301],[-3.256152,54.13158],[-3.256107,54.132106],[-3.25457,54.131787],[-3.25465,54.131257],[-3.254443,54.131221],[-3.254296,54.130482],[-3.255146,54.130625],[-3.254285,54.130361],[-3.254267,54.130036],[-3.254019,54.130158],[-3.250834,54.125852],[-3.25037,54.123308],[-3.250763,54.122896],[-3.250372,54.122853],[-3.249964,54.120772],[-3.250846,54.115954],[-3.249725,54.113588],[-3.246693,54.111557],[-3.245924,54.110608],[-3.245494,54.109221],[-3.246191,54.108461],[-3.245184,54.103454],[-3.244571,54.101828],[-3.244179,54.1018],[-3.244336,54.101391],[-3.243841,54.101787],[-3.243939,54.101218],[-3.243005,54.100334],[-3.242936,54.098939],[-3.244348,54.098163],[-3.245009,54.098369],[-3.244738,54.098098],[-3.245526,54.098053],[-3.245752,54.098289],[-3.245322,54.09848],[-3.245902,54.098713],[-3.246225,54.098454],[-3.245814,54.098068],[-3.247062,54.097919],[-3.246678,54.098434],[-3.249074,54.098569],[-3.249936,54.098264],[-3.250184,54.098538],[-3.250409,54.098035],[-3.251211,54.098829],[-3.252341,54.098826],[-3.252063,54.098952],[-3.252398,54.098897],[-3.252496,54.099248],[-3.251836,54.09919],[-3.251682,54.099526],[-3.252835,54.099322],[-3.25288,54.099653],[-3.253164,54.098856],[-3.253749,54.099125],[-3.254213,54.098869],[-3.253729,54.099057],[-3.25384,54.098817],[-3.253244,54.098787],[-3.253112,54.098825],[-3.252846,54.099242],[-3.252797,54.098802],[-3.251832,54.09858],[-3.251826,54.098254],[-3.251418,54.098503],[-3.251055,54.098052],[-3.251982,54.09733],[-3.252581,54.097637],[-3.252945,54.097486],[-3.251988,54.097252],[-3.25113,54.097895],[-3.250383,54.097803],[-3.25043,54.097542],[-3.250164,54.097847],[-3.249263,54.097777],[-3.249589,54.098091],[-3.249281,54.098261],[-3.247659,54.098068],[-3.247753,54.097786],[-3.248309,54.097886],[-3.248218,54.097434],[-3.248789,54.097336],[-3.24889,54.09778],[-3.249019,54.097379],[-3.249871,54.097431],[-3.25023,54.09707],[-3.250611,54.097255],[-3.250322,54.097051],[-3.25106,54.096547],[-3.251951,54.097097],[-3.251392,54.096463],[-3.252523,54.096625],[-3.253028,54.097075],[-3.252597,54.096378],[-3.25159,54.096295],[-3.252215,54.095866],[-3.252727,54.096128],[-3.252463,54.095765],[-3.251909,54.095591],[-3.251291,54.096344],[-3.250441,54.096372],[-3.250962,54.096109],[-3.251211,54.095266],[-3.250785,54.095892],[-3.250536,54.095604],[-3.25043,54.096268],[-3.250006,54.096042],[-3.25056,54.096527],[-3.25014,54.096848],[-3.249353,54.09714],[-3.248443,54.096982],[-3.249305,54.096769],[-3.248235,54.096855],[-3.248672,54.09667],[-3.248431,54.096442],[-3.249704,54.096435],[-3.249107,54.096313],[-3.249722,54.09599],[-3.248562,54.096339],[-3.248421,54.095708],[-3.249137,54.095971],[-3.249406,54.095726],[-3.248942,54.095777],[-3.248913,54.095232],[-3.249848,54.09545],[-3.249289,54.095068],[-3.25116,54.094564],[-3.249489,54.094726],[-3.248658,54.095351],[-3.248319,54.095178],[-3.248815,54.094802],[-3.248033,54.095159],[-3.248612,54.095529],[-3.248062,54.095777],[-3.247411,54.095527],[-3.247912,54.09536],[-3.247337,54.095275],[-3.247995,54.094702],[-3.249874,54.094365],[-3.249506,54.094415],[-3.249597,54.094222],[-3.247214,54.094842],[-3.247565,54.094915],[-3.247056,54.095029],[-3.247076,54.095392],[-3.246752,54.095197],[-3.24673,54.095474],[-3.246315,54.095303],[-3.246069,54.095562],[-3.247134,54.095478],[-3.246851,54.095718],[-3.248137,54.096045],[-3.248146,54.096285],[-3.246581,54.095824],[-3.247186,54.096244],[-3.247973,54.096262],[-3.247663,54.096656],[-3.247319,54.096392],[-3.247851,54.096915],[-3.247158,54.096785],[-3.247793,54.096984],[-3.247477,54.097329],[-3.246837,54.097034],[-3.247073,54.096486],[-3.246612,54.096149],[-3.247019,54.096468],[-3.246425,54.096472],[-3.246679,54.096814],[-3.246251,54.096625],[-3.245776,54.096893],[-3.246614,54.096852],[-3.246018,54.09711],[-3.246651,54.097049],[-3.247116,54.097387],[-3.246012,54.097599],[-3.245844,54.097311],[-3.245759,54.097608],[-3.245342,54.097538],[-3.245545,54.09728],[-3.245188,54.09757],[-3.244509,54.097478],[-3.24546,54.097211],[-3.244091,54.097355],[-3.245401,54.096904],[-3.244324,54.096802],[-3.245952,54.096513],[-3.244164,54.09673],[-3.245953,54.096204],[-3.246059,54.095939],[-3.243781,54.096821],[-3.243523,54.096658],[-3.24316,54.09752],[-3.242473,54.096643],[-3.242988,54.09672],[-3.244954,54.095683],[-3.245725,54.095791],[-3.246044,54.095243],[-3.244247,54.09579],[-3.244449,54.095411],[-3.243137,54.096258],[-3.242694,54.095835],[-3.244884,54.095043],[-3.246636,54.094969],[-3.247709,54.094547],[-3.246384,54.09478],[-3.247311,54.094506],[-3.247902,54.094253],[-3.248217,54.094023],[-3.24594,54.094919],[-3.245241,54.094932],[-3.246448,54.094273],[-3.245637,54.094411],[-3.245234,54.094844],[-3.243607,54.095106],[-3.245029,54.09451],[-3.242796,54.09531],[-3.242777,54.094989],[-3.244878,54.093979],[-3.245588,54.094203],[-3.248761,54.093708],[-3.246102,54.09406],[-3.24708,54.093355],[-3.245939,54.094027],[-3.245401,54.094065],[-3.245917,54.093656],[-3.244819,54.093893],[-3.24773,54.093102],[-3.246003,54.093488],[-3.245832,54.09329],[-3.244911,54.093737],[-3.246584,54.092804],[-3.244758,54.093746],[-3.244322,54.093464],[-3.24587,54.092905],[-3.246273,54.092374],[-3.247193,54.092203],[-3.246285,54.092346],[-3.243947,54.093512],[-3.24535,54.092499],[-3.244094,54.093368],[-3.243794,54.093073],[-3.244227,54.092926],[-3.243792,54.092787],[-3.245832,54.092242],[-3.243776,54.092752],[-3.245612,54.092085],[-3.244637,54.092252],[-3.244788,54.092025],[-3.243337,54.092925],[-3.243031,54.092861],[-3.243831,54.092463],[-3.243273,54.092651],[-3.243572,54.092299],[-3.244638,54.091789],[-3.243589,54.092229],[-3.242998,54.09261],[-3.243463,54.092165],[-3.24301,54.092498],[-3.241821,54.092322],[-3.242353,54.091756],[-3.242985,54.091713],[-3.241324,54.091756],[-3.241926,54.091337],[-3.241356,54.091333],[-3.241907,54.091103],[-3.241041,54.090689],[-3.241879,54.090373],[-3.24061,54.090223],[-3.241807,54.089663],[-3.239735,54.090204],[-3.239703,54.089865],[-3.240531,54.089436],[-3.239472,54.089228],[-3.239187,54.088695],[-3.238078,54.088754],[-3.238926,54.088559],[-3.239004,54.088225],[-3.240441,54.088205],[-3.239263,54.088012],[-3.239206,54.087644],[-3.238305,54.087406],[-3.23871,54.087733],[-3.237466,54.088071],[-3.237427,54.087414],[-3.23645,54.086954],[-3.238915,54.086367],[-3.237599,54.086465],[-3.237451,54.086191],[-3.23476,54.086658],[-3.233101,54.087423],[-3.232183,54.088625],[-3.229893,54.08844],[-3.229038,54.087203],[-3.229018,54.08592],[-3.229925,54.085635],[-3.230481,54.085845],[-3.230487,54.084798],[-3.232534,54.084881],[-3.232778,54.084684],[-3.232386,54.084532],[-3.233206,54.08405],[-3.232506,54.084319],[-3.232204,54.084095],[-3.232793,54.083951],[-3.232754,54.083681],[-3.229665,54.083276],[-3.226827,54.083551],[-3.223512,54.080298],[-3.220955,54.080498],[-3.22281,54.079885],[-3.223653,54.079974],[-3.224642,54.078885],[-3.225913,54.078548],[-3.225732,54.078214],[-3.226468,54.078046],[-3.226536,54.077631],[-3.229739,54.078003],[-3.226476,54.077486],[-3.226269,54.07605],[-3.227134,54.073052],[-3.226816,54.071573],[-3.226277,54.070794],[-3.225437,54.070664],[-3.225792,54.070299],[-3.223291,54.068472],[-3.22337,54.067658],[-3.222395,54.067512],[-3.22337,54.06699],[-3.221408,54.067265],[-3.220064,54.065943],[-3.219054,54.065887],[-3.219017,54.065546],[-3.217023,54.06639],[-3.214895,54.066462],[-3.213377,54.066311],[-3.210266,54.065196],[-3.211034,54.063469],[-3.210727,54.061598],[-3.20745,54.05894],[-3.20627,54.058741],[-3.207421,54.058732],[-3.208051,54.057924],[-3.208116,54.056307],[-3.207112,54.055144],[-3.207658,54.054607],[-3.207055,54.054509],[-3.206763,54.053517],[-3.205494,54.052037],[-3.19872,54.049038],[-3.196021,54.048744],[-3.185032,54.051643],[-3.180307,54.053875],[-3.178588,54.055265],[-3.17717,54.054142],[-3.176886,54.052736],[-3.176394,54.052526],[-3.176655,54.052956],[-3.176184,54.053091],[-3.174657,54.052391],[-3.174983,54.052226],[-3.174317,54.050901],[-3.17456,54.050476],[-3.175656,54.050467],[-3.176599,54.051884],[-3.175736,54.050356],[-3.176545,54.05024],[-3.177015,54.051101],[-3.176566,54.050146],[-3.174699,54.050189],[-3.175728,54.049082],[-3.174851,54.048349],[-3.174101,54.048294],[-3.173584,54.048961],[-3.174301,54.049957],[-3.173124,54.049815],[-3.172918,54.050552],[-3.173689,54.050984],[-3.172899,54.051088],[-3.172765,54.051369],[-3.173667,54.053122],[-3.175369,54.053834],[-3.174243,54.054143],[-3.172829,54.055244],[-3.171009,54.054784],[-3.170701,54.054096],[-3.171538,54.052583],[-3.171375,54.049246],[-3.173161,54.047077],[-3.187192,54.045914],[-3.19234,54.045178],[-3.195552,54.044269],[-3.198695,54.044808],[-3.209913,54.047671],[-3.225055,54.063295],[-3.232212,54.069721],[-3.234945,54.070905],[-3.247094,54.082031],[-3.255217,54.091035],[-3.267436,54.106742],[-3.268554,54.107371],[-3.268953,54.10846],[-3.268382,54.109145],[-3.269433,54.111139],[-3.26846,54.112289],[-3.269434,54.115466],[-3.270923,54.117297],[-3.271831,54.117254],[-3.271842,54.116836],[-3.272636,54.117634],[-3.271878,54.117399],[-3.27102,54.117662],[-3.271344,54.119934],[-3.272266,54.123693],[-3.274801,54.12902],[-3.275527,54.13163],[-3.276647,54.142019],[-3.276005,54.143635],[-3.271414,54.148087],[-3.268245,54.149371],[-3.26233,54.150428],[-3.257206,54.152727],[-3.255267,54.152859],[-3.25374,54.152434],[-3.252024,54.151376],[-3.252151,54.150493],[-3.252722,54.150202]]],[[[-3.040707,54.172479],[-3.041173,54.173588],[-3.041677,54.173295],[-3.042251,54.175707],[-3.041526,54.175546],[-3.040765,54.174004],[-3.040707,54.172479]]],[[[-3.0378,54.206274],[-3.03937,54.205764],[-3.039017,54.206282],[-3.039689,54.206527],[-3.038274,54.207437],[-3.039286,54.207028],[-3.039647,54.207567],[-3.039346,54.208092],[-3.038958,54.208072],[-3.039272,54.208276],[-3.037073,54.208598],[-3.036651,54.209349],[-3.036925,54.209717],[-3.036435,54.209924],[-3.036781,54.210003],[-3.034927,54.210987],[-3.0343,54.211408],[-3.033843,54.211843],[-3.033926,54.212173],[-3.033792,54.212187],[-3.033185,54.212626],[-3.032704,54.212415],[-3.032437,54.211315],[-3.034124,54.208855],[-3.0378,54.206274]]],[[[-3.221294,54.235122],[-3.221519,54.235144],[-3.22132,54.235157],[-3.221294,54.235122]]],[[[-3.221927,54.235236],[-3.222525,54.235533],[-3.222144,54.235587],[-3.221927,54.235236]]],[[[-3.220685,54.235269],[-3.218709,54.235454],[-3.220014,54.234997],[-3.221005,54.235094],[-3.222224,54.235809],[-3.222788,54.235664],[-3.224014,54.236274],[-3.224698,54.237364],[-3.223586,54.236397],[-3.22135,54.236204],[-3.220685,54.235269]]],[[[-3.224764,54.237468],[-3.2249,54.237684],[-3.224701,54.237526],[-3.224764,54.237468]]],[[[-3.222419,54.241586],[-3.221514,54.24178],[-3.222179,54.241268],[-3.221348,54.241665],[-3.221135,54.241374],[-3.222217,54.240626],[-3.220961,54.241334],[-3.220524,54.240953],[-3.221949,54.240356],[-3.220292,54.240847],[-3.221319,54.240237],[-3.220227,54.240598],[-3.221137,54.240013],[-3.222701,54.239626],[-3.220957,54.240012],[-3.221695,54.239556],[-3.220204,54.240365],[-3.221127,54.239457],[-3.219746,54.240656],[-3.219646,54.240234],[-3.217284,54.238512],[-3.216262,54.236766],[-3.216877,54.236096],[-3.218051,54.235685],[-3.219492,54.236127],[-3.220433,54.237693],[-3.219875,54.236239],[-3.221234,54.237241],[-3.221807,54.238314],[-3.221257,54.237047],[-3.219397,54.235875],[-3.220499,54.235446],[-3.221234,54.23637],[-3.222157,54.236435],[-3.223599,54.2375],[-3.222675,54.236567],[-3.223532,54.236488],[-3.225025,54.237884],[-3.225288,54.238302],[-3.223529,54.242363],[-3.222449,54.243368],[-3.221591,54.241846],[-3.222419,54.241586]]],[[[-3.223035,54.243502],[-3.222975,54.243641],[-3.22295,54.243601],[-3.223035,54.243502]]],[[[-3.230365,54.257986],[-3.230402,54.258239],[-3.230301,54.257952],[-3.230365,54.257986]]],[[[-3.230022,54.261466],[-3.229616,54.26216],[-3.228484,54.262502],[-3.230022,54.261466]]],[[[-3.227329,54.268795],[-3.226882,54.270136],[-3.22631,54.270615],[-3.227329,54.268795]]],[[[-2.392726,54.834515],[-2.391832,54.833436],[-2.389604,54.831949],[-2.382326,54.830656],[-2.381539,54.830071],[-2.380926,54.830095],[-2.37267,54.82738],[-2.373999,54.826037],[-2.371352,54.825062],[-2.370877,54.824553],[-2.370161,54.823321],[-2.370327,54.822488],[-2.369145,54.821844],[-2.369831,54.820967],[-2.359926,54.816693],[-2.355788,54.813903],[-2.352609,54.810704],[-2.35165,54.810592],[-2.348569,54.808347],[-2.348429,54.807079],[-2.345531,54.806295],[-2.343609,54.806209],[-2.341678,54.806898],[-2.338328,54.806793],[-2.336555,54.806371],[-2.334,54.804922],[-2.331622,54.804642],[-2.329696,54.804881],[-2.328728,54.805321],[-2.328175,54.804847],[-2.327385,54.805332],[-2.327376,54.802996],[-2.323388,54.79675],[-2.323284,54.795009],[-2.318447,54.793189],[-2.314811,54.792575],[-2.31209,54.791015],[-2.313671,54.790218],[-2.312991,54.787337],[-2.313115,54.786332],[-2.31401,54.785173],[-2.312999,54.782586],[-2.313785,54.782105],[-2.313924,54.781113],[-2.311677,54.778071],[-2.311682,54.77542],[-2.308929,54.774491],[-2.308487,54.773543],[-2.310017,54.772661],[-2.309629,54.772515],[-2.309904,54.771906],[-2.313152,54.77082],[-2.313245,54.770388],[-2.314669,54.770358],[-2.317569,54.768743],[-2.317557,54.76811],[-2.320016,54.766421],[-2.320932,54.766289],[-2.320905,54.765675],[-2.322479,54.763971],[-2.323224,54.7598],[-2.322231,54.759422],[-2.322433,54.757805],[-2.321128,54.756659],[-2.320822,54.755004],[-2.322591,54.753303],[-2.322814,54.75207],[-2.326927,54.747297],[-2.326712,54.745418],[-2.327595,54.743284],[-2.326399,54.740983],[-2.32746,54.740162],[-2.327883,54.739064],[-2.326892,54.737906],[-2.32773,54.737019],[-2.328587,54.737011],[-2.329455,54.735682],[-2.330928,54.735161],[-2.331919,54.733457],[-2.331619,54.732452],[-2.332306,54.731996],[-2.331947,54.731283],[-2.330635,54.730345],[-2.330665,54.728992],[-2.32961,54.727553],[-2.325747,54.726629],[-2.330213,54.723128],[-2.334419,54.720492],[-2.335899,54.719968],[-2.336096,54.719599],[-2.337574,54.71956],[-2.337454,54.717254],[-2.33797,54.716782],[-2.34139,54.716668],[-2.342095,54.716148],[-2.342208,54.715529],[-2.341388,54.714812],[-2.341965,54.713937],[-2.341705,54.712457],[-2.342252,54.711567],[-2.34115,54.710619],[-2.344086,54.709878],[-2.345033,54.709176],[-2.3442,54.708485],[-2.344019,54.707686],[-2.342546,54.707059],[-2.34146,54.705998],[-2.342772,54.705193],[-2.342651,54.704642],[-2.34336,54.704361],[-2.343379,54.703302],[-2.34453,54.702059],[-2.344382,54.701772],[-2.346364,54.700862],[-2.348243,54.70113],[-2.34919,54.700919],[-2.349563,54.701179],[-2.351154,54.700716],[-2.352257,54.699941],[-2.353465,54.69794],[-2.355482,54.697923],[-2.355473,54.697198],[-2.354306,54.696746],[-2.353928,54.695874],[-2.352257,54.694487],[-2.352518,54.69376],[-2.354169,54.692876],[-2.354202,54.691735],[-2.351173,54.690719],[-2.350483,54.69003],[-2.351782,54.687466],[-2.351594,54.685736],[-2.350204,54.685411],[-2.349078,54.683963],[-2.346796,54.68394],[-2.343509,54.682218],[-2.341664,54.678852],[-2.339864,54.678133],[-2.335616,54.675328],[-2.330516,54.674567],[-2.329263,54.6747],[-2.327107,54.673667],[-2.326413,54.672694],[-2.327779,54.671636],[-2.327569,54.670873],[-2.325018,54.670168],[-2.3225,54.669017],[-2.318976,54.669431],[-2.316364,54.668765],[-2.313438,54.669344],[-2.308355,54.669508],[-2.306154,54.670155],[-2.303317,54.66963],[-2.302753,54.669063],[-2.303835,54.667505],[-2.303397,54.666824],[-2.302216,54.666251],[-2.298197,54.665518],[-2.292875,54.663885],[-2.292767,54.661164],[-2.291344,54.658362],[-2.292097,54.655867],[-2.289973,54.654978],[-2.289835,54.6534],[-2.28925,54.653117],[-2.289314,54.651649],[-2.287979,54.65048],[-2.292901,54.64985],[-2.294091,54.649389],[-2.296812,54.646819],[-2.29897,54.645624],[-2.300045,54.644581],[-2.302191,54.643713],[-2.30286,54.642782],[-2.305788,54.642762],[-2.306925,54.642275],[-2.308371,54.640773],[-2.308259,54.640064],[-2.309082,54.639715],[-2.311146,54.637627],[-2.312301,54.637169],[-2.314185,54.637014],[-2.317064,54.635415],[-2.319975,54.634441],[-2.323814,54.632],[-2.324938,54.63165],[-2.308758,54.611883],[-2.304515,54.596198],[-2.270936,54.582199],[-2.262281,54.574229],[-2.245962,54.565063],[-2.209488,54.551713],[-2.210143,54.543658],[-2.197531,54.532704],[-2.182286,54.535855],[-2.172398,54.532444],[-2.171172,54.529003],[-2.174025,54.524409],[-2.174492,54.521727],[-2.168705,54.519652],[-2.162393,54.503943],[-2.16647,54.489908],[-2.158997,54.47203],[-2.161696,54.464732],[-2.170213,54.458199],[-2.171934,54.459467],[-2.170579,54.461141],[-2.177508,54.461626],[-2.179915,54.458463],[-2.182194,54.457296],[-2.183577,54.455821],[-2.186162,54.452035],[-2.189316,54.448978],[-2.19242,54.448606],[-2.235617,54.448231],[-2.237346,54.449285],[-2.238041,54.449146],[-2.238731,54.449878],[-2.23962,54.449687],[-2.244118,54.450068],[-2.246239,54.451782],[-2.247886,54.451492],[-2.249539,54.451943],[-2.253502,54.45054],[-2.256767,54.450165],[-2.259863,54.448521],[-2.262721,54.44866],[-2.267167,54.447184],[-2.267903,54.447234],[-2.265378,54.442926],[-2.270332,54.441905],[-2.271348,54.440916],[-2.274983,54.440656],[-2.280419,54.438942],[-2.284315,54.438439],[-2.292865,54.439307],[-2.292075,54.438497],[-2.292544,54.437506],[-2.291493,54.436061],[-2.292346,54.43267],[-2.291854,54.431463],[-2.29453,54.431272],[-2.299438,54.427044],[-2.303373,54.426277],[-2.305464,54.422622],[-2.307879,54.420823],[-2.308146,54.419794],[-2.307855,54.414286],[-2.306319,54.411261],[-2.305682,54.407585],[-2.307415,54.404305],[-2.305119,54.402037],[-2.30621,54.39901],[-2.305445,54.397086],[-2.301662,54.3962],[-2.298872,54.3948],[-2.296177,54.392749],[-2.292172,54.391509],[-2.291703,54.39063],[-2.292549,54.388327],[-2.294167,54.387316],[-2.295367,54.387138],[-2.293224,54.386807],[-2.292086,54.384169],[-2.29744,54.376899],[-2.317043,54.376311],[-2.318141,54.374621],[-2.318887,54.374364],[-2.320402,54.372967],[-2.320305,54.372446],[-2.320848,54.372337],[-2.322374,54.370881],[-2.32349,54.370535],[-2.324332,54.369173],[-2.326092,54.368096],[-2.32693,54.368123],[-2.329959,54.367126],[-2.332884,54.364555],[-2.333954,54.3645],[-2.334557,54.363817],[-2.338255,54.363832],[-2.342714,54.361651],[-2.344648,54.359629],[-2.352876,54.358329],[-2.355731,54.357208],[-2.356437,54.355931],[-2.360749,54.354948],[-2.363689,54.354766],[-2.366152,54.355037],[-2.367712,54.356071],[-2.367156,54.354933],[-2.361564,54.352431],[-2.359674,54.350267],[-2.357342,54.349351],[-2.353244,54.34842],[-2.348135,54.346777],[-2.347925,54.345144],[-2.340231,54.342706],[-2.335768,54.340435],[-2.334509,54.337882],[-2.33521,54.335847],[-2.334749,54.334945],[-2.328162,54.332153],[-2.32247,54.331531],[-2.320202,54.331751],[-2.318055,54.328097],[-2.314992,54.327124],[-2.313799,54.32568],[-2.312461,54.324916],[-2.309841,54.324315],[-2.314978,54.313586],[-2.317059,54.311993],[-2.318672,54.311291],[-2.320151,54.312085],[-2.321642,54.311309],[-2.323032,54.311083],[-2.320401,54.306771],[-2.321248,54.305406],[-2.324522,54.303184],[-2.324345,54.300776],[-2.320438,54.299994],[-2.32039,54.299044],[-2.32229,54.2952],[-2.324172,54.293605],[-2.319857,54.288968],[-2.317192,54.287166],[-2.317918,54.286712],[-2.319082,54.283825],[-2.321655,54.283135],[-2.321123,54.282229],[-2.321707,54.281733],[-2.324131,54.280179],[-2.325892,54.279693],[-2.323789,54.279316],[-2.321745,54.277346],[-2.321184,54.275123],[-2.319402,54.274471],[-2.315514,54.270285],[-2.316105,54.267847],[-2.318286,54.265899],[-2.318056,54.263589],[-2.32082,54.259933],[-2.319096,54.257156],[-2.322091,54.255021],[-2.322646,54.252914],[-2.322538,54.248149],[-2.323253,54.246995],[-2.322657,54.24546],[-2.325469,54.242801],[-2.325647,54.241438],[-2.328271,54.241886],[-2.33131,54.240601],[-2.335811,54.238064],[-2.337657,54.237599],[-2.342509,54.237467],[-2.348052,54.237807],[-2.35055,54.241367],[-2.360407,54.246649],[-2.362317,54.249753],[-2.372325,54.248235],[-2.373021,54.240099],[-2.385086,54.239149],[-2.39678,54.239381],[-2.40093,54.234043],[-2.401377,54.230423],[-2.403629,54.225583],[-2.405632,54.224915],[-2.40645,54.225929],[-2.407498,54.22591],[-2.409215,54.226625],[-2.410555,54.226369],[-2.41197,54.226687],[-2.424051,54.224449],[-2.426495,54.223711],[-2.429418,54.223567],[-2.431944,54.224195],[-2.433478,54.223262],[-2.435428,54.222877],[-2.437652,54.224204],[-2.441418,54.225739],[-2.460863,54.226716],[-2.459471,54.229526],[-2.458779,54.232485],[-2.459585,54.239568],[-2.464883,54.236221],[-2.472375,54.233721],[-2.473219,54.233737],[-2.475164,54.231252],[-2.478681,54.229295],[-2.479468,54.228249],[-2.490703,54.224802],[-2.493734,54.222994],[-2.494244,54.222332],[-2.49845,54.22049],[-2.499603,54.219555],[-2.51087,54.217667],[-2.515082,54.217706],[-2.51826,54.216889],[-2.51885,54.216438],[-2.52007,54.216447],[-2.520545,54.215951],[-2.520518,54.214875],[-2.521384,54.214412],[-2.522688,54.214586],[-2.523544,54.214332],[-2.52386,54.213714],[-2.525997,54.21285],[-2.52654,54.211802],[-2.528125,54.2113],[-2.528364,54.211714],[-2.53241,54.20913],[-2.5359,54.20948],[-2.53977,54.207402],[-2.540986,54.206245],[-2.54212,54.206316],[-2.543364,54.205683],[-2.545534,54.202997],[-2.550751,54.200293],[-2.557794,54.198669],[-2.57102,54.196821],[-2.576078,54.195595],[-2.578244,54.195455],[-2.580971,54.196008],[-2.583793,54.195236],[-2.585312,54.196338],[-2.587004,54.19448],[-2.591017,54.194928],[-2.590871,54.195883],[-2.595552,54.196082],[-2.598948,54.195226],[-2.604466,54.194966],[-2.605753,54.194354],[-2.611943,54.195203],[-2.624957,54.195569],[-2.627371,54.197367],[-2.629987,54.197786],[-2.631224,54.198903],[-2.639936,54.202033],[-2.64151,54.20037],[-2.644639,54.190946],[-2.647731,54.187308],[-2.653247,54.1831],[-2.657687,54.181619],[-2.659479,54.180246],[-2.661586,54.179538],[-2.66281,54.179699],[-2.663908,54.179357],[-2.664725,54.178511],[-2.666173,54.178478],[-2.666902,54.177855],[-2.670256,54.176685],[-2.671924,54.17499],[-2.672641,54.174747],[-2.672826,54.173682],[-2.672293,54.173374],[-2.672985,54.172579],[-2.671846,54.172146],[-2.672582,54.171679],[-2.672468,54.171038],[-2.675137,54.170206],[-2.675591,54.16956],[-2.676445,54.169313],[-2.676407,54.168257],[-2.677141,54.16752],[-2.67693,54.166496],[-2.675827,54.165061],[-2.675794,54.163779],[-2.678162,54.161586],[-2.678851,54.161888],[-2.679842,54.161186],[-2.687971,54.164657],[-2.691101,54.164576],[-2.692934,54.163288],[-2.694529,54.163365],[-2.696395,54.164023],[-2.701317,54.163417],[-2.70564,54.164945],[-2.705742,54.164665],[-2.708647,54.163885],[-2.713265,54.164461],[-2.718074,54.165512],[-2.720008,54.165531],[-2.726625,54.166563],[-2.727817,54.166811],[-2.727291,54.167948],[-2.731913,54.16827],[-2.736489,54.169024],[-2.735827,54.173214],[-2.736528,54.173981],[-2.73655,54.175567],[-2.737058,54.176494],[-2.736283,54.176905],[-2.736587,54.178232],[-2.735935,54.178853],[-2.735707,54.180082],[-2.736142,54.18113],[-2.734985,54.182324],[-2.734387,54.184111],[-2.738768,54.185068],[-2.743054,54.185503],[-2.744942,54.185923],[-2.745532,54.18661],[-2.746786,54.187001],[-2.748603,54.187039],[-2.749301,54.188955],[-2.750787,54.188743],[-2.753426,54.187734],[-2.768232,54.185964],[-2.769111,54.186177],[-2.76922,54.187025],[-2.769761,54.187346],[-2.771836,54.187336],[-2.774797,54.188416],[-2.776458,54.18868],[-2.777742,54.18948],[-2.780205,54.18955],[-2.782493,54.190752],[-2.783147,54.191509],[-2.784346,54.191692],[-2.786457,54.193101],[-2.788627,54.192851],[-2.794896,54.195779],[-2.795013,54.19701],[-2.796142,54.19723],[-2.796998,54.197018],[-2.79923,54.197732],[-2.799932,54.197286],[-2.800071,54.196426],[-2.802861,54.196865],[-2.804045,54.195656],[-2.805499,54.194901],[-2.806175,54.193818],[-2.809041,54.194016],[-2.811076,54.191961],[-2.816333,54.18981],[-2.815407,54.187302],[-2.814089,54.186724],[-2.813687,54.185768],[-2.813973,54.184897],[-2.813524,54.184491],[-2.813773,54.183917],[-2.814984,54.183329],[-2.815625,54.182114],[-2.818786,54.180845],[-2.82114,54.18103],[-2.823467,54.180067],[-2.828801,54.178967],[-2.837217,54.174172],[-2.838322,54.174478],[-2.83779,54.174908],[-2.839469,54.176289],[-2.841282,54.177032],[-2.841934,54.176766],[-2.843553,54.177254],[-2.845999,54.178455],[-2.848206,54.178931],[-2.84883,54.179706],[-2.850312,54.180362],[-2.851794,54.180692],[-2.852762,54.180571],[-2.85945,54.182233],[-2.86239,54.182165],[-2.863536,54.18255],[-2.864728,54.184079],[-2.864949,54.185176],[-2.864418,54.186299],[-2.864608,54.187853],[-2.864102,54.188617],[-2.864741,54.190654],[-2.864136,54.191997],[-2.861995,54.192907],[-2.861413,54.193507],[-2.859598,54.193836],[-2.856993,54.19341],[-2.855121,54.19386],[-2.855235,54.193653],[-2.855151,54.193578],[-2.854803,54.193653],[-2.854806,54.193331],[-2.85334,54.192722],[-2.854718,54.193557],[-2.854314,54.193681],[-2.855103,54.193648],[-2.853065,54.194617],[-2.852006,54.195544],[-2.849532,54.19654],[-2.844174,54.197991],[-2.840454,54.200374],[-2.83614,54.201575],[-2.833769,54.203714],[-2.834285,54.204784],[-2.835414,54.20502],[-2.835355,54.205228],[-2.831907,54.204632],[-2.827587,54.202983],[-2.832844,54.205018],[-2.830359,54.204177],[-2.828449,54.204],[-2.827593,54.203162],[-2.825163,54.202835],[-2.823499,54.202855],[-2.822252,54.203047],[-2.82163,54.203209],[-2.821267,54.203329],[-2.819258,54.204168],[-2.823099,54.202922],[-2.824787,54.202845],[-2.827677,54.203267],[-2.824153,54.203909],[-2.826916,54.203477],[-2.828008,54.203989],[-2.825872,54.204034],[-2.824422,54.204749],[-2.823993,54.206517],[-2.821451,54.208782],[-2.820658,54.208456],[-2.821397,54.208818],[-2.821642,54.208795],[-2.821614,54.209176],[-2.82086,54.209755],[-2.816421,54.211796],[-2.814464,54.212217],[-2.811578,54.2135],[-2.812584,54.211874],[-2.8076,54.21869],[-2.80429,54.219903],[-2.802261,54.219817],[-2.798447,54.222276],[-2.798067,54.222874],[-2.793788,54.22413],[-2.791531,54.225652],[-2.791201,54.22704],[-2.787787,54.227269],[-2.786417,54.226134],[-2.785793,54.226471],[-2.786766,54.226908],[-2.787024,54.227412],[-2.791684,54.227443],[-2.789082,54.228819],[-2.788557,54.229571],[-2.791196,54.227842],[-2.793482,54.227055],[-2.79425,54.224597],[-2.795335,54.224473],[-2.798853,54.226088],[-2.799207,54.225938],[-2.799454,54.225451],[-2.798712,54.224433],[-2.799102,54.222319],[-2.802671,54.220235],[-2.805339,54.220147],[-2.803362,54.221629],[-2.798901,54.227444],[-2.799247,54.233447],[-2.797463,54.23552],[-2.79709,54.235686],[-2.796817,54.23546],[-2.796963,54.235703],[-2.797306,54.235681],[-2.796862,54.236655],[-2.797482,54.237476],[-2.797352,54.23822],[-2.797164,54.237937],[-2.797609,54.239297],[-2.796726,54.241388],[-2.800276,54.24592],[-2.802935,54.246874],[-2.805132,54.246964],[-2.810561,54.246257],[-2.81378,54.245295],[-2.81437,54.248236],[-2.813049,54.249716],[-2.810669,54.250257],[-2.807647,54.25051],[-2.804462,54.249553],[-2.801989,54.249502],[-2.799634,54.250775],[-2.798672,54.252671],[-2.797868,54.253158],[-2.796566,54.253121],[-2.793972,54.252217],[-2.793734,54.252417],[-2.796251,54.253367],[-2.797946,54.253475],[-2.799196,54.25276],[-2.800035,54.251183],[-2.801306,54.250323],[-2.802618,54.249913],[-2.804756,54.250225],[-2.808273,54.252045],[-2.808645,54.253419],[-2.810386,54.255064],[-2.812979,54.255971],[-2.814878,54.255845],[-2.814776,54.256404],[-2.813262,54.256674],[-2.811788,54.257606],[-2.811887,54.258207],[-2.812976,54.25845],[-2.812647,54.260562],[-2.81311,54.258491],[-2.811999,54.258136],[-2.811954,54.257633],[-2.813399,54.256723],[-2.814927,54.256455],[-2.815075,54.255858],[-2.814729,54.255662],[-2.813073,54.255892],[-2.810684,54.25511],[-2.80908,54.253753],[-2.80888,54.25226],[-2.807613,54.251346],[-2.811922,54.250628],[-2.814616,54.249397],[-2.815205,54.248539],[-2.815273,54.247317],[-2.814445,54.244395],[-2.812438,54.243372],[-2.812562,54.24365],[-2.809672,54.243806],[-2.80764,54.244489],[-2.804711,54.246258],[-2.803526,54.246313],[-2.802383,54.245774],[-2.801274,54.244646],[-2.803047,54.244314],[-2.801734,54.244234],[-2.802466,54.243826],[-2.801222,54.244464],[-2.800574,54.243746],[-2.801148,54.242977],[-2.800618,54.242716],[-2.80168,54.242075],[-2.800549,54.242676],[-2.801069,54.242994],[-2.80051,54.2437],[-2.800539,54.24298],[-2.800295,54.243618],[-2.79955,54.243089],[-2.799228,54.241573],[-2.802028,54.238708],[-2.804174,54.234421],[-2.804963,54.227665],[-2.808083,54.224944],[-2.808969,54.224654],[-2.808309,54.224827],[-2.80941,54.223323],[-2.812409,54.22278],[-2.8095,54.223205],[-2.810547,54.222545],[-2.809605,54.222846],[-2.809484,54.221843],[-2.811085,54.221262],[-2.809627,54.221768],[-2.809206,54.221324],[-2.810577,54.219618],[-2.811477,54.219085],[-2.813783,54.219514],[-2.811589,54.218976],[-2.812165,54.217773],[-2.817237,54.215101],[-2.822487,54.21382],[-2.833688,54.212432],[-2.835865,54.211753],[-2.837466,54.210863],[-2.836265,54.212838],[-2.829579,54.219801],[-2.82861,54.219651],[-2.828148,54.219242],[-2.826773,54.219291],[-2.821218,54.220475],[-2.823487,54.220473],[-2.828025,54.219448],[-2.829055,54.219882],[-2.830127,54.219819],[-2.832365,54.21862],[-2.831695,54.21877],[-2.836076,54.215074],[-2.841523,54.207133],[-2.835792,54.21628],[-2.836043,54.219165],[-2.835933,54.216345],[-2.837568,54.213879],[-2.838544,54.213443],[-2.837673,54.213709],[-2.839595,54.210844],[-2.840414,54.210813],[-2.839697,54.210719],[-2.840317,54.209732],[-2.841498,54.20957],[-2.840513,54.209517],[-2.841521,54.207937],[-2.842426,54.207902],[-2.841624,54.207787],[-2.84251,54.205591],[-2.854594,54.204582],[-2.860747,54.203255],[-2.863399,54.203214],[-2.868817,54.202464],[-2.869642,54.202537],[-2.869086,54.203192],[-2.87005,54.203175],[-2.870269,54.203825],[-2.864025,54.205892],[-2.870354,54.203798],[-2.870075,54.203145],[-2.869165,54.203153],[-2.870391,54.202449],[-2.8685,54.199232],[-2.871611,54.20411],[-2.870658,54.20238],[-2.871431,54.202641],[-2.870587,54.202281],[-2.869109,54.199687],[-2.870539,54.201848],[-2.871742,54.202314],[-2.874989,54.202076],[-2.880858,54.200402],[-2.882967,54.198258],[-2.884214,54.19771],[-2.886131,54.197512],[-2.886476,54.198084],[-2.886972,54.197938],[-2.88724,54.19907],[-2.886997,54.197908],[-2.886453,54.197881],[-2.886142,54.19746],[-2.88494,54.197427],[-2.886757,54.19485],[-2.88759,54.194529],[-2.887973,54.195109],[-2.888537,54.195122],[-2.890025,54.194444],[-2.889822,54.193674],[-2.89025,54.194329],[-2.891833,54.194351],[-2.894627,54.192794],[-2.896314,54.192471],[-2.895162,54.191893],[-2.896582,54.190415],[-2.896446,54.189888],[-2.897098,54.189251],[-2.897758,54.189317],[-2.897829,54.189837],[-2.899579,54.19019],[-2.901059,54.190128],[-2.901983,54.189459],[-2.90214,54.188891],[-2.899798,54.188813],[-2.899736,54.188414],[-2.897676,54.187381],[-2.898424,54.187103],[-2.898379,54.186591],[-2.899304,54.186419],[-2.899288,54.186066],[-2.898258,54.185882],[-2.897409,54.186243],[-2.897131,54.186],[-2.898352,54.184172],[-2.8974,54.183772],[-2.898344,54.183064],[-2.898354,54.182421],[-2.899478,54.181855],[-2.899478,54.18108],[-2.897476,54.180816],[-2.896566,54.182484],[-2.89609,54.18118],[-2.897098,54.181059],[-2.897603,54.180152],[-2.898484,54.179787],[-2.903041,54.179103],[-2.904738,54.179476],[-2.905351,54.180131],[-2.904866,54.180867],[-2.905457,54.181181],[-2.908379,54.181424],[-2.910193,54.180342],[-2.909722,54.179538],[-2.910699,54.179466],[-2.910071,54.178872],[-2.907968,54.180486],[-2.907264,54.179756],[-2.906939,54.178497],[-2.903906,54.177921],[-2.900796,54.176718],[-2.898818,54.176786],[-2.900496,54.175455],[-2.903479,54.175323],[-2.904245,54.175564],[-2.906733,54.175],[-2.909074,54.173497],[-2.908042,54.171259],[-2.909868,54.170717],[-2.909492,54.169951],[-2.909885,54.169319],[-2.912262,54.169861],[-2.91274,54.169375],[-2.914755,54.169089],[-2.916,54.167263],[-2.91938,54.166634],[-2.920629,54.165981],[-2.920631,54.165085],[-2.922274,54.165042],[-2.922197,54.164778],[-2.920409,54.164805],[-2.920117,54.165915],[-2.916212,54.166622],[-2.912293,54.167747],[-2.90886,54.166752],[-2.908327,54.164815],[-2.909229,54.164201],[-2.908958,54.163672],[-2.909997,54.162756],[-2.912393,54.162875],[-2.910503,54.162014],[-2.911,54.16134],[-2.911937,54.16137],[-2.914202,54.160624],[-2.918022,54.160231],[-2.919212,54.158013],[-2.922822,54.154531],[-2.923228,54.151893],[-2.92536,54.150292],[-2.927419,54.150007],[-2.931751,54.150841],[-2.932406,54.151226],[-2.932453,54.152031],[-2.933041,54.152199],[-2.933113,54.150128],[-2.936718,54.151055],[-2.939108,54.151232],[-2.940137,54.150589],[-2.942648,54.150107],[-2.944494,54.150313],[-2.947091,54.149325],[-2.950107,54.14921],[-2.952209,54.149833],[-2.950951,54.150659],[-2.952928,54.150121],[-2.954053,54.150664],[-2.954582,54.150342],[-2.955943,54.150572],[-2.957944,54.151945],[-2.958022,54.152506],[-2.959683,54.153146],[-2.964217,54.151508],[-2.966401,54.151113],[-2.964466,54.152047],[-2.964893,54.151904],[-2.965277,54.152584],[-2.966527,54.15323],[-2.967841,54.153],[-2.967404,54.15267],[-2.973668,54.152844],[-2.975341,54.152735],[-2.97543,54.152478],[-2.975949,54.152686],[-2.980036,54.152479],[-2.984563,54.152983],[-2.988972,54.15404],[-2.990143,54.15479],[-2.992798,54.155507],[-2.993119,54.155876],[-2.992923,54.156379],[-2.991718,54.156292],[-2.990595,54.156629],[-2.989193,54.15645],[-2.988647,54.157027],[-2.987743,54.157129],[-2.988665,54.157052],[-2.989351,54.156513],[-2.99066,54.156655],[-2.991767,54.15632],[-2.992991,54.156456],[-2.993901,54.156239],[-2.995383,54.155113],[-2.996398,54.155211],[-2.995971,54.15522],[-2.995881,54.155292],[-2.995949,54.155671],[-2.995538,54.155706],[-2.995275,54.155771],[-2.994644,54.156154],[-2.995514,54.155728],[-2.997108,54.155853],[-2.996084,54.155617],[-2.99596,54.155313],[-2.996533,54.155266],[-2.996555,54.155002],[-2.997274,54.154935],[-2.997239,54.155274],[-2.997378,54.154851],[-2.998579,54.154744],[-2.999279,54.155013],[-2.999041,54.154798],[-2.999865,54.154764],[-3.000958,54.155503],[-3.001696,54.156691],[-3.001449,54.158123],[-2.999954,54.157988],[-3.001601,54.158587],[-3.00226,54.159336],[-3.001708,54.159848],[-3.002366,54.159713],[-3.002711,54.159987],[-3.002672,54.160677],[-3.001127,54.162421],[-3.001102,54.164122],[-3.002056,54.166699],[-3.000528,54.168363],[-3.000119,54.168376],[-2.999476,54.168111],[-2.99933,54.167595],[-3.000329,54.167441],[-2.999271,54.167521],[-2.998948,54.16716],[-2.999274,54.166697],[-2.998581,54.167059],[-2.997811,54.165389],[-2.998491,54.167072],[-2.99777,54.16702],[-2.996398,54.165197],[-2.997331,54.166804],[-2.997808,54.16711],[-2.998845,54.16727],[-2.999344,54.168109],[-3.000146,54.168549],[-3.000157,54.168819],[-2.999634,54.16924],[-2.998719,54.169276],[-2.999408,54.169645],[-2.998779,54.169776],[-2.998363,54.170317],[-2.996707,54.170676],[-2.997891,54.170508],[-2.996954,54.170897],[-2.996546,54.171483],[-2.997292,54.173155],[-2.99482,54.172613],[-2.994867,54.171929],[-2.993898,54.170676],[-2.993046,54.170272],[-2.993849,54.170702],[-2.994784,54.172026],[-2.994541,54.172389],[-2.993958,54.172076],[-2.99339,54.172217],[-2.992532,54.17335],[-2.993104,54.175393],[-2.993425,54.175638],[-2.994894,54.175971],[-2.994739,54.176798],[-2.993614,54.176804],[-2.993384,54.177082],[-2.99411,54.177522],[-2.995891,54.177488],[-2.996092,54.177824],[-2.994439,54.177917],[-2.993039,54.178573],[-2.989419,54.179455],[-2.993521,54.178481],[-2.995018,54.178767],[-2.995912,54.178634],[-2.996377,54.179071],[-2.996371,54.178818],[-2.996795,54.178854],[-2.99588,54.178583],[-2.993772,54.178432],[-2.994669,54.177966],[-2.995957,54.178054],[-2.996274,54.17767],[-2.995648,54.177351],[-2.994059,54.177417],[-2.993525,54.177063],[-2.994813,54.176893],[-2.995086,54.176302],[-2.994794,54.175717],[-2.993459,54.175508],[-2.992956,54.174514],[-2.992803,54.173342],[-2.993688,54.172256],[-2.996035,54.17329],[-2.995762,54.173519],[-2.996351,54.173965],[-2.99498,54.175253],[-2.995176,54.175308],[-2.99558,54.175227],[-2.995728,54.175739],[-2.996272,54.175916],[-2.995615,54.175211],[-2.995086,54.175249],[-2.995987,54.17436],[-2.9963,54.174514],[-2.997726,54.174538],[-2.999266,54.175446],[-2.997867,54.174538],[-2.996101,54.174382],[-2.996402,54.173997],[-2.995861,54.1735],[-2.996155,54.173239],[-2.997315,54.173392],[-2.998935,54.174441],[-3.000249,54.174332],[-2.998877,54.17435],[-2.997452,54.173288],[-2.999908,54.172918],[-3.000933,54.172086],[-3.001621,54.172605],[-3.001389,54.173645],[-3.00193,54.174097],[-3.001603,54.174378],[-3.003494,54.175764],[-3.001722,54.174421],[-3.002025,54.174041],[-3.001541,54.173675],[-3.001731,54.172664],[-3.00149,54.172258],[-3.004304,54.171938],[-3.006489,54.172249],[-3.008792,54.173876],[-3.009966,54.175211],[-3.009771,54.175745],[-3.008993,54.176122],[-3.009516,54.176157],[-3.009734,54.176811],[-3.008228,54.176546],[-3.008239,54.177988],[-3.006374,54.178564],[-3.005201,54.178278],[-3.005464,54.17914],[-3.005031,54.180278],[-3.005569,54.179053],[-3.00529,54.178371],[-3.006455,54.178612],[-3.008406,54.178174],[-3.008845,54.177793],[-3.008739,54.17701],[-3.009817,54.177141],[-3.010282,54.176908],[-3.011954,54.179361],[-3.01001,54.179984],[-3.008961,54.179859],[-3.008714,54.180194],[-3.00776,54.179994],[-3.007038,54.180089],[-3.00727,54.180324],[-3.007503,54.180051],[-3.008673,54.180226],[-3.008792,54.180209],[-3.009005,54.179925],[-3.010103,54.18002],[-3.011942,54.17954],[-3.011424,54.181293],[-3.010056,54.182123],[-3.009971,54.182002],[-3.008965,54.182078],[-3.009985,54.182085],[-3.009794,54.182766],[-3.011654,54.181288],[-3.012171,54.17946],[-3.012614,54.179665],[-3.014655,54.18116],[-3.013243,54.181829],[-3.013846,54.181718],[-3.013745,54.182191],[-3.014345,54.181542],[-3.01565,54.182004],[-3.01491,54.182966],[-3.014299,54.183126],[-3.014975,54.183005],[-3.015734,54.182323],[-3.016689,54.183093],[-3.017607,54.183347],[-3.016044,54.182445],[-3.016408,54.1822],[-3.018592,54.183852],[-3.020162,54.184507],[-3.019494,54.185259],[-3.018633,54.185297],[-3.019353,54.185345],[-3.018377,54.186175],[-3.020096,54.185072],[-3.021114,54.185293],[-3.019987,54.185697],[-3.019399,54.186458],[-3.021201,54.188151],[-3.020256,54.188662],[-3.020572,54.189043],[-3.02071,54.189086],[-3.021194,54.188914],[-3.021221,54.189466],[-3.020731,54.189739],[-3.020062,54.189545],[-3.021118,54.190185],[-3.020875,54.189748],[-3.021222,54.189497],[-3.021302,54.189392],[-3.021361,54.188995],[-3.021208,54.188888],[-3.020637,54.189018],[-3.020346,54.188631],[-3.021273,54.188176],[-3.019652,54.186278],[-3.020673,54.185457],[-3.022114,54.185738],[-3.023246,54.18656],[-3.0229,54.187121],[-3.023486,54.186878],[-3.025917,54.188712],[-3.025249,54.188912],[-3.025089,54.188631],[-3.025233,54.189092],[-3.024194,54.189664],[-3.025165,54.18919],[-3.025629,54.188815],[-3.027012,54.189641],[-3.026349,54.190532],[-3.024996,54.190225],[-3.025768,54.192371],[-3.025395,54.190505],[-3.026456,54.190573],[-3.027778,54.190076],[-3.029108,54.191634],[-3.029135,54.19273],[-3.027608,54.192194],[-3.027595,54.191448],[-3.027426,54.192016],[-3.027692,54.192307],[-3.029122,54.193017],[-3.029249,54.193891],[-3.038661,54.197251],[-3.03839,54.197404],[-3.036366,54.196715],[-3.022809,54.191662],[-3.030815,54.194881],[-3.028266,54.19432],[-3.028916,54.194737],[-3.028887,54.194501],[-3.031927,54.195288],[-3.031175,54.195673],[-3.032008,54.195339],[-3.034745,54.196295],[-3.027053,54.197738],[-3.026027,54.197621],[-3.025105,54.19822],[-3.024086,54.200102],[-3.022816,54.201022],[-3.021084,54.200993],[-3.019188,54.200326],[-3.018481,54.200309],[-3.0164,54.201054],[-3.018382,54.200353],[-3.020164,54.20072],[-3.018434,54.200969],[-3.016994,54.201655],[-3.014527,54.203883],[-3.014561,54.206766],[-3.015873,54.208148],[-3.015486,54.208166],[-3.017511,54.209001],[-3.01775,54.209939],[-3.018702,54.210772],[-3.018894,54.210542],[-3.019898,54.211014],[-3.019887,54.210782],[-3.020912,54.210579],[-3.022329,54.212007],[-3.021844,54.214551],[-3.023128,54.215763],[-3.023436,54.21697],[-3.024591,54.218499],[-3.023188,54.2194],[-3.024799,54.218547],[-3.024708,54.217717],[-3.025805,54.21838],[-3.026616,54.218449],[-3.027574,54.219267],[-3.028221,54.22305],[-3.027825,54.225025],[-3.029038,54.225434],[-3.028013,54.224939],[-3.028749,54.224843],[-3.02803,54.22471],[-3.028476,54.224324],[-3.028135,54.224214],[-3.028407,54.222834],[-3.02802,54.221328],[-3.029067,54.221119],[-3.029234,54.222271],[-3.031593,54.225386],[-3.030547,54.225991],[-3.03119,54.225912],[-3.031091,54.226805],[-3.03367,54.22928],[-3.033796,54.22883],[-3.033068,54.228044],[-3.035223,54.228247],[-3.039413,54.227372],[-3.03868,54.22791],[-3.039221,54.227966],[-3.039115,54.228699],[-3.039509,54.228446],[-3.039376,54.227866],[-3.039109,54.22778],[-3.03981,54.227435],[-3.040469,54.227874],[-3.039732,54.227262],[-3.04046,54.2269],[-3.042814,54.226573],[-3.046273,54.226752],[-3.046718,54.228267],[-3.047623,54.229312],[-3.048716,54.233276],[-3.047636,54.234961],[-3.045369,54.235866],[-3.043432,54.23725],[-3.038007,54.237474],[-3.036834,54.238103],[-3.0367,54.238845],[-3.034157,54.239623],[-3.033199,54.240849],[-3.033707,54.24317],[-3.033082,54.243807],[-3.030746,54.243078],[-3.028702,54.241367],[-3.031339,54.23998],[-3.032099,54.239211],[-3.031806,54.238417],[-3.030229,54.236887],[-3.028924,54.236807],[-3.028094,54.237109],[-3.025442,54.240156],[-3.022813,54.239105],[-3.021675,54.239151],[-3.017386,54.240632],[-3.014285,54.239856],[-3.013803,54.241565],[-3.014113,54.24276],[-3.013374,54.243306],[-3.014588,54.242896],[-3.014311,54.241572],[-3.014677,54.240144],[-3.017613,54.240939],[-3.022674,54.239377],[-3.023703,54.239647],[-3.024592,54.240505],[-3.025633,54.240574],[-3.026305,54.240295],[-3.029073,54.237409],[-3.031542,54.238791],[-3.031335,54.239377],[-3.028351,54.240566],[-3.027305,54.241609],[-3.028037,54.242834],[-3.029835,54.243524],[-3.030993,54.245526],[-3.030551,54.246099],[-3.028836,54.24577],[-3.02821,54.246024],[-3.027995,54.246693],[-3.028523,54.24837],[-3.029583,54.249095],[-3.029888,54.249801],[-3.029308,54.251914],[-3.03028,54.252858],[-3.028665,54.25333],[-3.025405,54.255173],[-3.024553,54.256267],[-3.023797,54.256031],[-3.023037,54.256081],[-3.021363,54.256765],[-3.018856,54.259046],[-3.015613,54.260049],[-3.013787,54.261333],[-3.012555,54.262309],[-3.009919,54.265432],[-3.008209,54.268976],[-3.009817,54.265735],[-3.013224,54.261929],[-3.015094,54.260528],[-3.018456,54.259432],[-3.021398,54.256884],[-3.023032,54.256164],[-3.023777,54.256109],[-3.024546,54.256468],[-3.025409,54.255425],[-3.028994,54.253416],[-3.030532,54.252988],[-3.029664,54.252016],[-3.030254,54.25092],[-3.030133,54.249249],[-3.02862,54.247789],[-3.028585,54.246351],[-3.031308,54.246285],[-3.031769,54.246037],[-3.031482,54.245221],[-3.034214,54.244873],[-3.035638,54.244343],[-3.036487,54.243048],[-3.036696,54.240525],[-3.036957,54.240063],[-3.037872,54.239797],[-3.040156,54.240213],[-3.046246,54.240568],[-3.04791,54.241783],[-3.048079,54.242282],[-3.047981,54.241781],[-3.046424,54.240524],[-3.047914,54.239423],[-3.048211,54.237181],[-3.049149,54.235415],[-3.05058,54.233874],[-3.051282,54.234458],[-3.051065,54.235007],[-3.051771,54.235114],[-3.052173,54.23578],[-3.051825,54.234187],[-3.051098,54.23362],[-3.052407,54.23122],[-3.05221,54.226253],[-3.053327,54.225786],[-3.052223,54.226216],[-3.053128,54.221001],[-3.051863,54.219479],[-3.050342,54.218578],[-3.051573,54.218772],[-3.049282,54.218009],[-3.050587,54.217637],[-3.047367,54.218102],[-3.045667,54.219135],[-3.04498,54.219141],[-3.04341,54.217943],[-3.042633,54.217502],[-3.041897,54.217426],[-3.042952,54.217696],[-3.043391,54.218185],[-3.040192,54.217438],[-3.039239,54.21652],[-3.039022,54.217028],[-3.034844,54.215227],[-3.03358,54.214271],[-3.032788,54.212652],[-3.033016,54.212667],[-3.033374,54.212582],[-3.033785,54.212217],[-3.034028,54.212384],[-3.033955,54.211742],[-3.036742,54.21007],[-3.036819,54.209994],[-3.036688,54.209832],[-3.037266,54.210148],[-3.038759,54.210172],[-3.037135,54.209807],[-3.037717,54.208613],[-3.038274,54.208697],[-3.03811,54.20899],[-3.039292,54.208465],[-3.039953,54.207353],[-3.040842,54.207527],[-3.040539,54.207184],[-3.039941,54.207322],[-3.039982,54.206943],[-3.040586,54.206971],[-3.040222,54.206816],[-3.040569,54.206523],[-3.040148,54.20665],[-3.039836,54.20502],[-3.039147,54.204325],[-3.040364,54.202807],[-3.042001,54.202243],[-3.044109,54.200741],[-3.044618,54.199429],[-3.045627,54.199149],[-3.046178,54.199843],[-3.049829,54.200581],[-3.050836,54.200373],[-3.05319,54.198856],[-3.054808,54.19543],[-3.054968,54.193533],[-3.054258,54.190896],[-3.053415,54.190457],[-3.053753,54.190158],[-3.052841,54.189887],[-3.05335,54.189726],[-3.0534,54.188421],[-3.05424,54.187992],[-3.055366,54.188056],[-3.056353,54.187471],[-3.059866,54.187195],[-3.055942,54.187093],[-3.056971,54.186914],[-3.05971,54.183946],[-3.061966,54.180435],[-3.061992,54.180916],[-3.062486,54.181124],[-3.062085,54.181873],[-3.062413,54.182569],[-3.062404,54.181555],[-3.062542,54.182726],[-3.062247,54.184093],[-3.063519,54.186163],[-3.062621,54.184119],[-3.0631,54.18296],[-3.062699,54.178478],[-3.060779,54.176928],[-3.060096,54.174355],[-3.059141,54.173043],[-3.058685,54.171791],[-3.060122,54.16959],[-3.059878,54.168889],[-3.060295,54.167761],[-3.059877,54.166568],[-3.060793,54.164189],[-3.060854,54.162043],[-3.067219,54.160413],[-3.0691,54.159433],[-3.07053,54.159124],[-3.077737,54.154172],[-3.078415,54.151809],[-3.079288,54.15049],[-3.08371,54.147003],[-3.0853,54.141301],[-3.087741,54.138165],[-3.087354,54.136562],[-3.090811,54.134749],[-3.092893,54.132433],[-3.094807,54.130975],[-3.098759,54.129184],[-3.100637,54.127974],[-3.101781,54.125094],[-3.104359,54.122741],[-3.103992,54.121195],[-3.1049,54.119743],[-3.107837,54.117766],[-3.115605,54.115374],[-3.120788,54.112531],[-3.121307,54.112006],[-3.121048,54.111191],[-3.122253,54.109479],[-3.127146,54.10746],[-3.13029,54.105395],[-3.130325,54.103542],[-3.131696,54.102083],[-3.140893,54.098052],[-3.141975,54.097157],[-3.154536,54.09064],[-3.158807,54.087773],[-3.161205,54.086729],[-3.164896,54.083186],[-3.166921,54.082925],[-3.168004,54.082264],[-3.169428,54.083142],[-3.169102,54.083936],[-3.169584,54.082917],[-3.170736,54.082303],[-3.17219,54.082108],[-3.172452,54.081761],[-3.172068,54.080758],[-3.170271,54.079212],[-3.167998,54.078036],[-3.166399,54.076899],[-3.164623,54.07447],[-3.160816,54.073102],[-3.157881,54.071591],[-3.153114,54.067867],[-3.151684,54.067317],[-3.151533,54.068836],[-3.151809,54.0694],[-3.152604,54.069635],[-3.154157,54.070982],[-3.153249,54.070919],[-3.151804,54.07023],[-3.151243,54.069212],[-3.151196,54.066959],[-3.150108,54.065871],[-3.150744,54.06481],[-3.154022,54.066328],[-3.154767,54.068576],[-3.155843,54.069715],[-3.165811,54.074658],[-3.167339,54.076183],[-3.165397,54.074822],[-3.166526,54.076903],[-3.171427,54.079634],[-3.173465,54.079565],[-3.173972,54.078042],[-3.174479,54.076088],[-3.1729,54.074062],[-3.17315,54.073659],[-3.174039,54.073301],[-3.174889,54.073379],[-3.175573,54.073769],[-3.175876,54.075043],[-3.177056,54.074604],[-3.178034,54.074917],[-3.175933,54.075585],[-3.174896,54.076615],[-3.173425,54.082226],[-3.173689,54.083323],[-3.176233,54.08459],[-3.176556,54.084954],[-3.176022,54.085159],[-3.177759,54.086238],[-3.18216,54.088149],[-3.185778,54.090235],[-3.186859,54.090469],[-3.187902,54.092592],[-3.186042,54.093481],[-3.18643,54.093804],[-3.185634,54.093701],[-3.185995,54.094063],[-3.184308,54.094708],[-3.186145,54.094169],[-3.185063,54.094591],[-3.185127,54.095662],[-3.186064,54.096081],[-3.187872,54.099326],[-3.191051,54.102634],[-3.192996,54.103557],[-3.194327,54.103644],[-3.194206,54.104237],[-3.214785,54.098054],[-3.220097,54.094787],[-3.219396,54.093414],[-3.221191,54.092706],[-3.221308,54.092069],[-3.221264,54.090716],[-3.220331,54.08987],[-3.221386,54.090791],[-3.221447,54.091878],[-3.221258,54.092716],[-3.221695,54.093521],[-3.223814,54.093624],[-3.22371,54.09394],[-3.224207,54.094118],[-3.225234,54.093594],[-3.226368,54.093825],[-3.228984,54.095794],[-3.230168,54.097773],[-3.231068,54.097442],[-3.2314,54.0977],[-3.230497,54.097741],[-3.230657,54.098284],[-3.231989,54.098162],[-3.231209,54.09853],[-3.232721,54.099091],[-3.231938,54.099462],[-3.232151,54.099881],[-3.233427,54.099366],[-3.232159,54.099932],[-3.232674,54.100437],[-3.233463,54.101026],[-3.234004,54.100756],[-3.235412,54.101176],[-3.235311,54.101701],[-3.236195,54.101787],[-3.239254,54.10407],[-3.242101,54.109329],[-3.241786,54.110333],[-3.242653,54.111584],[-3.241801,54.11205],[-3.241489,54.112877],[-3.24487,54.116891],[-3.245135,54.118594],[-3.243957,54.123456],[-3.244181,54.125254],[-3.244866,54.126485],[-3.244042,54.128358],[-3.243487,54.128692],[-3.244509,54.129263],[-3.244763,54.13174],[-3.244006,54.133901],[-3.244234,54.136715],[-3.243521,54.138774],[-3.242651,54.139507],[-3.242681,54.140494],[-3.241232,54.141666],[-3.24061,54.144496],[-3.240041,54.144877],[-3.240683,54.14864],[-3.240132,54.150812],[-3.239126,54.151675],[-3.238114,54.151855],[-3.237883,54.152926],[-3.237057,54.153872],[-3.236993,54.154789],[-3.237595,54.155823],[-3.239279,54.157065],[-3.242236,54.157797],[-3.241737,54.158152],[-3.240623,54.158142],[-3.240111,54.158893],[-3.240615,54.15822],[-3.241841,54.158174],[-3.242322,54.157798],[-3.245406,54.157768],[-3.24648,54.156966],[-3.246183,54.15631],[-3.247124,54.154987],[-3.248226,54.154553],[-3.24962,54.154852],[-3.251955,54.157362],[-3.251596,54.158714],[-3.251917,54.159726],[-3.256212,54.162748],[-3.257191,54.163973],[-3.25769,54.165933],[-3.256535,54.168737],[-3.254605,54.170228],[-3.250619,54.170709],[-3.24639,54.171956],[-3.245838,54.171675],[-3.245385,54.171902],[-3.243914,54.171755],[-3.243751,54.171517],[-3.243189,54.171715],[-3.243658,54.171879],[-3.241272,54.17211],[-3.233939,54.171104],[-3.230241,54.171462],[-3.22701,54.172433],[-3.225591,54.172424],[-3.223316,54.173145],[-3.218402,54.176897],[-3.217156,54.17749],[-3.215609,54.181259],[-3.215174,54.184797],[-3.223075,54.187778],[-3.221594,54.188328],[-3.216237,54.185848],[-3.214845,54.185635],[-3.216348,54.186039],[-3.215496,54.186121],[-3.2165,54.186112],[-3.214679,54.186384],[-3.215392,54.186571],[-3.216668,54.186152],[-3.217971,54.186942],[-3.216175,54.186808],[-3.215742,54.187026],[-3.214549,54.186738],[-3.215676,54.187307],[-3.216534,54.187128],[-3.215678,54.187538],[-3.215757,54.187895],[-3.217427,54.187717],[-3.217214,54.187543],[-3.218451,54.187151],[-3.219017,54.18752],[-3.217994,54.187782],[-3.216514,54.18952],[-3.21593,54.191813],[-3.216592,54.192376],[-3.215826,54.192085],[-3.216476,54.192618],[-3.215896,54.192578],[-3.214555,54.19511],[-3.214641,54.196803],[-3.213876,54.197436],[-3.214174,54.197649],[-3.213278,54.198848],[-3.212046,54.199873],[-3.212453,54.201224],[-3.211865,54.204701],[-3.212188,54.205279],[-3.212234,54.208263],[-3.211667,54.208666],[-3.20873,54.20792],[-3.207637,54.208125],[-3.205572,54.209017],[-3.203499,54.210724],[-3.202656,54.211779],[-3.20133,54.217021],[-3.200244,54.219347],[-3.198427,54.221838],[-3.19851,54.222092],[-3.197398,54.222203],[-3.198528,54.222269],[-3.194315,54.227155],[-3.192717,54.228236],[-3.191856,54.230369],[-3.190182,54.231232],[-3.189652,54.233494],[-3.187723,54.233076],[-3.18576,54.23459],[-3.185739,54.235094],[-3.187693,54.23605],[-3.185189,54.237396],[-3.183624,54.237043],[-3.183254,54.238177],[-3.182181,54.237492],[-3.179696,54.238818],[-3.180763,54.240607],[-3.179808,54.23879],[-3.182099,54.237706],[-3.182693,54.23827],[-3.183422,54.238286],[-3.183786,54.237156],[-3.185122,54.237555],[-3.186229,54.237245],[-3.188004,54.236066],[-3.187215,54.235274],[-3.186121,54.234947],[-3.187847,54.23336],[-3.188821,54.234131],[-3.189288,54.235613],[-3.189072,54.234065],[-3.190214,54.23399],[-3.191241,54.233094],[-3.191712,54.234529],[-3.191452,54.233103],[-3.190448,54.231975],[-3.192291,54.231526],[-3.193155,54.232696],[-3.192853,54.23399],[-3.193709,54.233068],[-3.192591,54.231528],[-3.193765,54.230387],[-3.194107,54.229499],[-3.193121,54.228875],[-3.194119,54.228522],[-3.195505,54.231384],[-3.194565,54.228622],[-3.195908,54.228885],[-3.197173,54.229694],[-3.197698,54.231582],[-3.198945,54.234075],[-3.19719,54.234884],[-3.198919,54.234375],[-3.200431,54.238345],[-3.202379,54.240778],[-3.206064,54.243206],[-3.207168,54.243234],[-3.207757,54.242767],[-3.208704,54.242623],[-3.208098,54.243215],[-3.208538,54.244073],[-3.211704,54.246167],[-3.212812,54.247642],[-3.212466,54.249324],[-3.210853,54.250856],[-3.211337,54.252644],[-3.210657,54.253926],[-3.211493,54.252595],[-3.211002,54.250826],[-3.211938,54.250266],[-3.212004,54.251629],[-3.216187,54.255848],[-3.215934,54.255939],[-3.216334,54.256528],[-3.220178,54.258108],[-3.216339,54.2564],[-3.216476,54.255898],[-3.220087,54.256613],[-3.225252,54.257079],[-3.228831,54.258158],[-3.229058,54.259556],[-3.22704,54.258966],[-3.229118,54.259972],[-3.228938,54.26049],[-3.228647,54.260727],[-3.226002,54.260364],[-3.228245,54.261054],[-3.224298,54.264105],[-3.223911,54.264791],[-3.224321,54.266337],[-3.225809,54.268553],[-3.225033,54.273263],[-3.223968,54.275604],[-3.224977,54.276488],[-3.224575,54.276926],[-3.223577,54.276899],[-3.222628,54.27763],[-3.223004,54.278712],[-3.221918,54.280628],[-3.223872,54.281985],[-3.222588,54.280242],[-3.223122,54.278635],[-3.222762,54.277723],[-3.223644,54.276953],[-3.224807,54.277004],[-3.225241,54.276451],[-3.227822,54.277713],[-3.228002,54.278863],[-3.227995,54.278127],[-3.228207,54.278635],[-3.227934,54.280709],[-3.228395,54.28151],[-3.23329,54.283498],[-3.23508,54.285767],[-3.235226,54.287824],[-3.236433,54.289596],[-3.238058,54.290727],[-3.237228,54.292895],[-3.238166,54.294017],[-3.236934,54.296597],[-3.236948,54.298313],[-3.235384,54.300076],[-3.234483,54.302174],[-3.232717,54.303665],[-3.233047,54.304826],[-3.23233,54.306278],[-3.23391,54.30978],[-3.233366,54.310255],[-3.231744,54.310642],[-3.231139,54.311216],[-3.230922,54.31468],[-3.233539,54.316422],[-3.235385,54.316746],[-3.236996,54.316011],[-3.239507,54.31721],[-3.238462,54.318816],[-3.240351,54.321181],[-3.240655,54.322755],[-3.241872,54.323217],[-3.24187,54.323527],[-3.237945,54.325504],[-3.236373,54.327114],[-3.233604,54.328529],[-3.231194,54.330791],[-3.230193,54.331295],[-3.230111,54.33217],[-3.224567,54.332789],[-3.223488,54.333643],[-3.220481,54.334769],[-3.2193,54.335947],[-3.218407,54.336025],[-3.217572,54.337276],[-3.218503,54.338241],[-3.218054,54.339322],[-3.219818,54.339778],[-3.220085,54.34049],[-3.219519,54.341527],[-3.217598,54.34238],[-3.217518,54.343265],[-3.218565,54.344996],[-3.215962,54.344795],[-3.212377,54.34662],[-3.212109,54.348362],[-3.210057,54.349896],[-3.208945,54.351646],[-3.207085,54.352958],[-3.203326,54.352993],[-3.200149,54.354328],[-3.194599,54.354351],[-3.194596,54.35524],[-3.195973,54.356209],[-3.193307,54.359841],[-3.191576,54.363451],[-3.189731,54.364202],[-3.188914,54.365283],[-3.18859,54.366623],[-3.189187,54.367176],[-3.189136,54.368275],[-3.187494,54.369762],[-3.187074,54.370945],[-3.184925,54.372766],[-3.181998,54.374187],[-3.180965,54.375362],[-3.180618,54.380376],[-3.180064,54.381956],[-3.179084,54.38223],[-3.181529,54.384852],[-3.180073,54.385702],[-3.178346,54.385986],[-3.176715,54.387359],[-3.17326,54.388492],[-3.17252,54.389048],[-3.172574,54.390453],[-3.173098,54.390502],[-3.173301,54.391967],[-3.171574,54.393787],[-3.172451,54.394548],[-3.172735,54.395604],[-3.172086,54.398063],[-3.172078,54.39729],[-3.171258,54.397337],[-3.170758,54.39973],[-3.169084,54.400083],[-3.166657,54.401344],[-3.165265,54.40163],[-3.164411,54.403231],[-3.161161,54.405491],[-3.160587,54.406599],[-3.159325,54.407168],[-3.156264,54.407546],[-3.152781,54.407127],[-3.149652,54.407945],[-3.147978,54.407767],[-3.147069,54.408133],[-3.145453,54.408168],[-3.143662,54.408816],[-3.142813,54.408732],[-3.142202,54.409158],[-3.141086,54.409235],[-3.140404,54.409664],[-3.13693,54.409672],[-3.132939,54.410712],[-3.131459,54.411511],[-3.130812,54.411351],[-3.12891,54.411744],[-3.128388,54.41221],[-3.123843,54.413283],[-3.122756,54.413717],[-3.122819,54.414169],[-3.117855,54.414869],[-3.116257,54.414666],[-3.115262,54.415021],[-3.116261,54.41554],[-3.115531,54.416474],[-3.115466,54.417796],[-3.114144,54.41828],[-3.114279,54.420579],[-3.115076,54.421161],[-3.114934,54.42199],[-3.115291,54.422365],[-3.120535,54.423691],[-3.123996,54.427507],[-3.128735,54.421532],[-3.135978,54.421883],[-3.154141,54.42971],[-3.157018,54.430281],[-3.160345,54.433923],[-3.157914,54.434772],[-3.158078,54.438392],[-3.159532,54.439199],[-3.160137,54.440769],[-3.160157,54.441043],[-3.158614,54.44177],[-3.158592,54.442177],[-3.160601,54.443097],[-3.161116,54.447037],[-3.16186,54.44738],[-3.163053,54.447037],[-3.165209,54.447024],[-3.166279,54.447767],[-3.166543,54.45054],[-3.166176,54.451255],[-3.167139,54.454111],[-3.16551,54.455733],[-3.163764,54.455989],[-3.163688,54.457296],[-3.16296,54.458119],[-3.162297,54.458281],[-3.159167,54.457855],[-3.15644,54.458622],[-3.153825,54.460154],[-3.152883,54.461656],[-3.150033,54.462747],[-3.147539,54.465501],[-3.147146,54.467116],[-3.145558,54.468444],[-3.142472,54.469506],[-3.136444,54.470746],[-3.133596,54.465577],[-3.132213,54.464544],[-3.126166,54.4628],[-3.119426,54.460238],[-3.112573,54.461491],[-3.115704,54.466583],[-3.111334,54.470982],[-3.109479,54.474004],[-3.102892,54.472333],[-3.10068,54.472793],[-3.098936,54.472005],[-3.097753,54.471903],[-3.094877,54.47365],[-3.093817,54.474803],[-3.092227,54.479072],[-3.088808,54.482837],[-3.088265,54.483964],[-3.084383,54.485576],[-3.081706,54.484926],[-3.076214,54.489366],[-3.073381,54.490283],[-3.069978,54.490444],[-3.061985,54.492523],[-3.055752,54.492141],[-3.052234,54.491143],[-3.050802,54.491265],[-3.050802,54.492074],[-3.048304,54.496278],[-3.044478,54.495779],[-3.042291,54.495823],[-3.039571,54.496347],[-3.035875,54.497633],[-3.032959,54.498029],[-3.031441,54.497929],[-3.022869,54.499675],[-3.014834,54.499813],[-3.013548,54.501067],[-3.01235,54.50571],[-3.011336,54.507187],[-3.011603,54.508632],[-3.013165,54.508678],[-3.014946,54.50984],[-3.015919,54.513854],[-3.016955,54.514865],[-3.015234,54.518308],[-3.015916,54.519367],[-3.015761,54.520263],[-3.016601,54.52142],[-3.01531,54.523893],[-3.015297,54.525533],[-3.01612,54.526335],[-3.01861,54.527343],[-3.019333,54.528133],[-3.024751,54.529161],[-3.025784,54.530307],[-3.024802,54.532715],[-3.02486,54.534723],[-3.023286,54.538857],[-3.025064,54.54103],[-3.016665,54.547932],[-3.019643,54.551758],[-3.018424,54.553386],[-3.020386,54.55891],[-3.016726,54.561569],[-3.021028,54.564795],[-3.028822,54.566909],[-3.026642,54.567246],[-3.024178,54.568611],[-3.020635,54.571359],[-3.018289,54.574956],[-3.019535,54.575921],[-3.023922,54.574428],[-3.027026,54.5745],[-3.030352,54.575735],[-3.037051,54.580926],[-3.031099,54.582339],[-3.025981,54.586494],[-3.024595,54.586748],[-3.019868,54.588617],[-3.017718,54.588689],[-3.01622,54.589102],[-3.010364,54.592893],[-3.009105,54.593946],[-3.009179,54.594448],[-3.007435,54.595268],[-3.008995,54.595741],[-3.010665,54.597237],[-3.010907,54.598888],[-3.011533,54.599499],[-3.017798,54.600255],[-3.022727,54.602676],[-3.033545,54.602553],[-3.034332,54.60277],[-3.034031,54.603736],[-3.03504,54.604432],[-3.037653,54.607821],[-3.039026,54.608842],[-3.038174,54.610449],[-3.039186,54.612347],[-3.039931,54.612963],[-3.041018,54.61269],[-3.042258,54.612897],[-3.044445,54.614215],[-3.046718,54.61435],[-3.053206,54.613378],[-3.053815,54.613409],[-3.055109,54.614576],[-3.055567,54.614027],[-3.059201,54.614069],[-3.059171,54.613755],[-3.061948,54.612604],[-3.062856,54.612591],[-3.065675,54.614182],[-3.068066,54.614138],[-3.070427,54.613697],[-3.077759,54.610586],[-3.078486,54.610732],[-3.07925,54.611674],[-3.080263,54.612137],[-3.084071,54.61247],[-3.085781,54.612966],[-3.086965,54.612702],[-3.086442,54.614167],[-3.087566,54.615567],[-3.089629,54.615688],[-3.092404,54.617236],[-3.091921,54.618289],[-3.092218,54.619465],[-3.08961,54.622158],[-3.090093,54.622734],[-3.09006,54.623993],[-3.091307,54.625398],[-3.091992,54.627019],[-3.09139,54.627347],[-3.092086,54.628835],[-3.091333,54.630702],[-3.090774,54.631056],[-3.091387,54.632819],[-3.090697,54.634322],[-3.091074,54.635537],[-3.090657,54.636107],[-3.091458,54.636725],[-3.091974,54.637911],[-3.092038,54.640744],[-3.093279,54.641885],[-3.094294,54.64387],[-3.092241,54.649392],[-3.092492,54.654124],[-3.092993,54.654171],[-3.09245,54.654897],[-3.092786,54.655103],[-3.092269,54.655536],[-3.092045,54.657402],[-3.091168,54.657663],[-3.091602,54.658117],[-3.090866,54.658651],[-3.091042,54.659129],[-3.089918,54.659889],[-3.090062,54.660292],[-3.088108,54.661054],[-3.087459,54.662136],[-3.086365,54.662851],[-3.086653,54.663557],[-3.083897,54.663155],[-3.08326,54.664251],[-3.081994,54.664564],[-3.081488,54.664086],[-3.0777,54.666233],[-3.076949,54.666352],[-3.07528,54.66584],[-3.074539,54.666564],[-3.072896,54.666866],[-3.072786,54.667448],[-3.071756,54.667972],[-3.071188,54.669403],[-3.069644,54.670618],[-3.069303,54.671424],[-3.067722,54.671567],[-3.066176,54.672654],[-3.063515,54.673013],[-3.059528,54.675455],[-3.057807,54.677827],[-3.054604,54.679757],[-3.060123,54.682022],[-3.070429,54.684934],[-3.082691,54.685389],[-3.087191,54.686092],[-3.08192,54.695254],[-3.078949,54.694677],[-3.073628,54.69558],[-3.063799,54.700082],[-3.058158,54.699176],[-3.051972,54.699288],[-3.040728,54.697531],[-3.038876,54.697131],[-3.0337,54.69432],[-3.022858,54.693476],[-3.017656,54.693487],[-3.004778,54.695123],[-3.001072,54.694901],[-2.997199,54.695099],[-2.995769,54.694528],[-2.995333,54.695617],[-2.993789,54.695357],[-2.993563,54.695752],[-2.992275,54.696243],[-2.994052,54.697308],[-2.99355,54.698833],[-2.994528,54.699796],[-2.992874,54.701894],[-2.992485,54.704822],[-2.989701,54.707206],[-2.990411,54.708721],[-2.989119,54.710907],[-2.990741,54.711737],[-2.99123,54.712845],[-2.9898,54.713807],[-2.988825,54.715094],[-2.986779,54.714847],[-2.986583,54.715971],[-2.984763,54.716062],[-2.98443,54.717372],[-2.983337,54.718229],[-2.982999,54.719381],[-2.985275,54.719274],[-2.985974,54.71952],[-2.986312,54.720546],[-2.985403,54.720701],[-2.983924,54.720426],[-2.983646,54.720938],[-2.98653,54.722411],[-2.986692,54.723542],[-2.98881,54.724085],[-2.98864,54.72602],[-2.989166,54.726741],[-2.9901,54.727167],[-2.989613,54.727767],[-2.991781,54.728343],[-2.992668,54.728919],[-2.992566,54.730514],[-2.993264,54.731211],[-2.996718,54.731782],[-2.996215,54.73297],[-2.996615,54.733634],[-2.999717,54.733852],[-3.000884,54.733269],[-3.00212,54.733197],[-3.00351,54.733708],[-3.005055,54.733562],[-3.008182,54.734593],[-3.011983,54.734759],[-3.011739,54.736558],[-3.015711,54.737573],[-3.015693,54.738826],[-3.017475,54.739469],[-3.020834,54.739758],[-3.021512,54.740141],[-3.022003,54.741629],[-3.023546,54.742288],[-3.022833,54.743024],[-3.022874,54.744206],[-3.021852,54.745164],[-3.021702,54.745986],[-3.022159,54.74643],[-3.025331,54.74678],[-3.026021,54.747152],[-3.02614,54.747941],[-3.025693,54.74824],[-3.021668,54.748494],[-3.021936,54.749461],[-3.01989,54.74998],[-3.018561,54.750884],[-3.01566,54.751285],[-3.011119,54.75294],[-3.008387,54.752909],[-3.005483,54.75355],[-3.003243,54.754759],[-3.000882,54.755301],[-2.997732,54.759941],[-2.997772,54.762066],[-2.996843,54.761737],[-2.99634,54.760743],[-2.995381,54.760398],[-2.994596,54.759392],[-2.992962,54.760221],[-2.991404,54.761278],[-2.990109,54.763223],[-2.990373,54.763345],[-2.98812,54.765245],[-2.987354,54.764852],[-2.985726,54.766029],[-2.987702,54.766966],[-2.987043,54.768568],[-2.988606,54.770047],[-2.987966,54.770402],[-2.987726,54.771898],[-2.985445,54.774118],[-2.98569,54.774714],[-2.984432,54.77616],[-2.979378,54.777619],[-2.978488,54.777785],[-2.97664,54.777414],[-2.973905,54.778311],[-2.969347,54.777144],[-2.967573,54.779895],[-2.964657,54.780256],[-2.962075,54.778622],[-2.952754,54.782853],[-2.951838,54.78384],[-2.949463,54.784072],[-2.947255,54.783451],[-2.944784,54.784044],[-2.943648,54.785229],[-2.942238,54.785889],[-2.942467,54.786916],[-2.942014,54.78763],[-2.940877,54.787639],[-2.931172,54.792158],[-2.934836,54.792957],[-2.928549,54.801238],[-2.919715,54.805985],[-2.921082,54.809207],[-2.904414,54.813019],[-2.904103,54.816282],[-2.904751,54.818773],[-2.904441,54.818832],[-2.906749,54.820826],[-2.907387,54.821888],[-2.905416,54.821973],[-2.905106,54.821348],[-2.893928,54.822478],[-2.892908,54.821636],[-2.890672,54.821258],[-2.888496,54.821616],[-2.885401,54.823235],[-2.882884,54.823158],[-2.881464,54.823446],[-2.877876,54.824788],[-2.877714,54.825479],[-2.876309,54.826598],[-2.875709,54.826887],[-2.874308,54.826726],[-2.873752,54.827975],[-2.872009,54.828561],[-2.872221,54.82957],[-2.870797,54.831802],[-2.872769,54.832078],[-2.873059,54.833144],[-2.871456,54.833472],[-2.871289,54.834234],[-2.870426,54.834595],[-2.870467,54.834907],[-2.869031,54.834748],[-2.867125,54.835573],[-2.863985,54.836095],[-2.863081,54.837232],[-2.861015,54.836627],[-2.858372,54.834822],[-2.856455,54.834284],[-2.855735,54.833401],[-2.845246,54.832947],[-2.838273,54.83417],[-2.838472,54.833041],[-2.837768,54.831745],[-2.833943,54.831197],[-2.834477,54.831024],[-2.833964,54.82887],[-2.834275,54.828358],[-2.832096,54.826775],[-2.829411,54.825476],[-2.825577,54.827738],[-2.821975,54.825068],[-2.817769,54.827537],[-2.814765,54.825302],[-2.811353,54.823449],[-2.799378,54.818718],[-2.79875,54.819051],[-2.796902,54.819022],[-2.792699,54.82043],[-2.783052,54.822285],[-2.77889,54.821867],[-2.773199,54.820523],[-2.767009,54.823305],[-2.759891,54.823713],[-2.757962,54.823514],[-2.756428,54.822858],[-2.754952,54.824995],[-2.754872,54.827061],[-2.753159,54.827359],[-2.751014,54.829055],[-2.748371,54.828985],[-2.746137,54.828094],[-2.74362,54.827846],[-2.741017,54.824265],[-2.737752,54.823578],[-2.736665,54.822817],[-2.736049,54.82134],[-2.732223,54.820151],[-2.729207,54.818656],[-2.7264,54.81915],[-2.724049,54.819066],[-2.721215,54.819621],[-2.720305,54.819259],[-2.716724,54.819111],[-2.71454,54.819941],[-2.707259,54.81877],[-2.705663,54.816363],[-2.689793,54.819191],[-2.690034,54.820638],[-2.693474,54.823016],[-2.696034,54.825914],[-2.697098,54.827961],[-2.700123,54.830521],[-2.701224,54.833605],[-2.699951,54.833678],[-2.693683,54.836513],[-2.69336,54.836369],[-2.691256,54.837141],[-2.691398,54.837343],[-2.687022,54.837304],[-2.68632,54.837948],[-2.68535,54.837568],[-2.68522,54.836066],[-2.68324,54.835048],[-2.680137,54.835317],[-2.679162,54.836089],[-2.676651,54.836996],[-2.676321,54.838249],[-2.675683,54.83834],[-2.674133,54.839667],[-2.67256,54.842447],[-2.668971,54.845042],[-2.65931,54.848511],[-2.65777,54.849453],[-2.655339,54.854743],[-2.654653,54.854669],[-2.653234,54.853557],[-2.649068,54.853104],[-2.647251,54.853757],[-2.64626,54.853402],[-2.640297,54.854125],[-2.638859,54.853754],[-2.635134,54.85456],[-2.633209,54.854504],[-2.632322,54.854052],[-2.628556,54.854463],[-2.627512,54.854273],[-2.62712,54.853844],[-2.625151,54.853836],[-2.624024,54.854271],[-2.622728,54.853568],[-2.621524,54.853794],[-2.620783,54.85369],[-2.620363,54.853243],[-2.617269,54.853097],[-2.616617,54.852737],[-2.615685,54.852872],[-2.614879,54.852606],[-2.61405,54.852943],[-2.613095,54.852615],[-2.612467,54.853151],[-2.61124,54.85336],[-2.610546,54.853354],[-2.609751,54.852897],[-2.608378,54.853245],[-2.606807,54.852871],[-2.606024,54.8531],[-2.604611,54.852896],[-2.603745,54.853322],[-2.601582,54.852906],[-2.600182,54.851997],[-2.597713,54.851995],[-2.597356,54.851022],[-2.595827,54.84978],[-2.593909,54.849102],[-2.589908,54.848655],[-2.588523,54.847673],[-2.582671,54.845867],[-2.577952,54.836454],[-2.57259,54.831442],[-2.567849,54.823575],[-2.558307,54.816725],[-2.543265,54.812124],[-2.536217,54.807671],[-2.53368,54.806704],[-2.530652,54.805999],[-2.523441,54.806045],[-2.522645,54.806623],[-2.521502,54.806896],[-2.521254,54.807406],[-2.51557,54.808298],[-2.514975,54.808639],[-2.510983,54.808709],[-2.507662,54.809718],[-2.50355,54.810138],[-2.502148,54.810597],[-2.49828,54.81003],[-2.49745,54.810265],[-2.496533,54.809997],[-2.495357,54.810342],[-2.48816,54.814409],[-2.487767,54.814932],[-2.486149,54.815075],[-2.48196,54.816969],[-2.481474,54.818012],[-2.478947,54.81921],[-2.4779,54.820407],[-2.476275,54.820902],[-2.475915,54.821833],[-2.474146,54.822464],[-2.473349,54.823765],[-2.468771,54.826107],[-2.465075,54.82965],[-2.463175,54.830551],[-2.463309,54.831729],[-2.461239,54.832899],[-2.461148,54.833854],[-2.460602,54.834172],[-2.457986,54.833214],[-2.456751,54.831776],[-2.455953,54.831476],[-2.453891,54.832097],[-2.452239,54.832013],[-2.450464,54.832706],[-2.449006,54.834242],[-2.446971,54.835101],[-2.444819,54.835123],[-2.443255,54.835798],[-2.441904,54.835645],[-2.441732,54.836073],[-2.440803,54.836204],[-2.440398,54.836786],[-2.438527,54.837021],[-2.438273,54.837871],[-2.436175,54.838789],[-2.433687,54.839641],[-2.43001,54.840176],[-2.428453,54.84114],[-2.427615,54.841164],[-2.422676,54.84287],[-2.420532,54.844538],[-2.419886,54.845821],[-2.417547,54.847703],[-2.417095,54.849132],[-2.414743,54.850677],[-2.411658,54.856454],[-2.401623,54.851484],[-2.398298,54.844165],[-2.392726,54.834515]],[[-2.823981,54.20394],[-2.823606,54.204365],[-2.823788,54.205505],[-2.823657,54.204369],[-2.824153,54.203909],[-2.823981,54.20394]]]]}}]}