{"type":"FeatureCollection","features":[{"type":"Feature","properties":{"slug":"wigan","gss_code":"E08000010","name":"Wigan"},"geometry":{"type":"Polygon","coordinates":[[[-2.632125,53.60728],[-2.632399,53.606495],[-2.63146,53.60608],[-2.631283,53.605218],[-2.632204,53.603533],[-2.631762,53.603243],[-2.631378,53.599914],[-2.629833,53.599165],[-2.629139,53.597983],[-2.628256,53.597367],[-2.628232,53.595317],[-2.627495,53.595251],[-2.625936,53.593696],[-2.628439,53.591057],[-2.62861,53.590457],[-2.627511,53.589442],[-2.623786,53.589639],[-2.620979,53.590353],[-2.619748,53.590971],[-2.618008,53.591102],[-2.612352,53.590493],[-2.608466,53.589338],[-2.606154,53.588312],[-2.603204,53.588203],[-2.601716,53.58883],[-2.596142,53.588817],[-2.59536,53.588059],[-2.58971,53.586653],[-2.585075,53.58508],[-2.582013,53.582755],[-2.577604,53.581003],[-2.577671,53.579459],[-2.578986,53.578388],[-2.5784,53.577431],[-2.575164,53.576771],[-2.573275,53.574213],[-2.572286,53.574129],[-2.572049,53.573577],[-2.568434,53.572029],[-2.568474,53.571526],[-2.56783,53.57145],[-2.565782,53.57008],[-2.565646,53.5687],[-2.567233,53.567587],[-2.568046,53.56568],[-2.567726,53.565501],[-2.568535,53.564711],[-2.564395,53.563676],[-2.563924,53.563173],[-2.563204,53.563237],[-2.5613,53.562146],[-2.560137,53.562109],[-2.559647,53.561146],[-2.563165,53.560312],[-2.563351,53.55954],[-2.562753,53.559284],[-2.562281,53.55751],[-2.561291,53.556622],[-2.56014,53.556185],[-2.559824,53.555566],[-2.561132,53.554828],[-2.560991,53.553327],[-2.562652,53.55284],[-2.56254,53.551964],[-2.563786,53.551743],[-2.563986,53.551192],[-2.566951,53.550804],[-2.566764,53.550035],[-2.568027,53.549991],[-2.567845,53.549141],[-2.56954,53.547949],[-2.569228,53.547531],[-2.567512,53.548005],[-2.566246,53.547394],[-2.563054,53.547375],[-2.559352,53.546193],[-2.558131,53.544457],[-2.559412,53.543813],[-2.559151,53.542397],[-2.560435,53.541673],[-2.560709,53.54087],[-2.561748,53.540354],[-2.56183,53.5389],[-2.560323,53.537996],[-2.556831,53.538069],[-2.556818,53.537793],[-2.556204,53.537869],[-2.555469,53.537342],[-2.554392,53.537336],[-2.554579,53.537076],[-2.553987,53.536932],[-2.553701,53.536188],[-2.551517,53.535923],[-2.551072,53.5352],[-2.550573,53.535087],[-2.550379,53.535419],[-2.550063,53.534859],[-2.549424,53.534936],[-2.549142,53.534481],[-2.545215,53.533447],[-2.54531,53.532983],[-2.543781,53.532564],[-2.542496,53.53055],[-2.541627,53.530432],[-2.541522,53.530707],[-2.540707,53.529656],[-2.539739,53.529479],[-2.539802,53.528929],[-2.538548,53.5286],[-2.538648,53.528248],[-2.537247,53.528157],[-2.537341,53.527835],[-2.536213,53.52755],[-2.536701,53.527082],[-2.536101,53.526871],[-2.535973,53.526178],[-2.53532,53.526179],[-2.534617,53.524648],[-2.53501,53.524203],[-2.53376,53.524016],[-2.533747,53.523014],[-2.532394,53.523214],[-2.532275,53.522883],[-2.531677,53.52331],[-2.531242,53.523268],[-2.531321,53.522948],[-2.528919,53.523104],[-2.528208,53.523671],[-2.528618,53.523949],[-2.527795,53.524178],[-2.52791,53.524746],[-2.52745,53.524754],[-2.527727,53.525572],[-2.526639,53.52549],[-2.525404,53.526394],[-2.523154,53.526654],[-2.522684,53.527135],[-2.521776,53.527096],[-2.521192,53.527563],[-2.520935,53.527195],[-2.520539,53.527243],[-2.519686,53.527933],[-2.518515,53.528017],[-2.517967,53.528558],[-2.517186,53.52847],[-2.515815,53.52926],[-2.515379,53.531217],[-2.516229,53.533881],[-2.515767,53.534483],[-2.515337,53.534457],[-2.515534,53.535823],[-2.513014,53.536306],[-2.510165,53.534105],[-2.509265,53.534638],[-2.509077,53.535679],[-2.507973,53.536499],[-2.506888,53.538804],[-2.505174,53.538908],[-2.505213,53.538654],[-2.503356,53.538565],[-2.502184,53.537853],[-2.499211,53.538049],[-2.49807,53.537465],[-2.496347,53.537114],[-2.49647,53.5367],[-2.490164,53.535572],[-2.489692,53.534589],[-2.482282,53.533436],[-2.478387,53.533542],[-2.472418,53.531737],[-2.469437,53.532013],[-2.466075,53.530696],[-2.461517,53.53069],[-2.451097,53.528605],[-2.454113,53.526222],[-2.427197,53.52156],[-2.421637,53.519928],[-2.418272,53.51812],[-2.414539,53.514893],[-2.415757,53.513478],[-2.415348,53.512045],[-2.419456,53.512157],[-2.418714,53.510364],[-2.422289,53.509117],[-2.421369,53.508317],[-2.422262,53.50755],[-2.420506,53.50679],[-2.426915,53.505654],[-2.430431,53.504696],[-2.430195,53.50183],[-2.433106,53.500971],[-2.433073,53.499653],[-2.431622,53.498032],[-2.43359,53.497142],[-2.436237,53.493753],[-2.438507,53.492402],[-2.438267,53.491837],[-2.436253,53.490486],[-2.435671,53.488338],[-2.435637,53.487208],[-2.436433,53.486696],[-2.436732,53.484691],[-2.438547,53.482084],[-2.434469,53.465044],[-2.465143,53.462252],[-2.476758,53.462443],[-2.479159,53.461779],[-2.480883,53.461893],[-2.482777,53.461279],[-2.483524,53.460703],[-2.486616,53.460436],[-2.488042,53.460774],[-2.489714,53.460282],[-2.489863,53.462218],[-2.49227,53.465154],[-2.491124,53.467537],[-2.491087,53.469025],[-2.491677,53.469886],[-2.491397,53.472147],[-2.490439,53.473147],[-2.489146,53.475848],[-2.492742,53.479377],[-2.496334,53.480929],[-2.502705,53.479727],[-2.550485,53.468062],[-2.552639,53.467813],[-2.54909,53.461512],[-2.57032,53.458534],[-2.570505,53.45677],[-2.5735,53.451581],[-2.574472,53.448091],[-2.576665,53.446085],[-2.578826,53.447513],[-2.58232,53.44821],[-2.583328,53.448971],[-2.583807,53.451809],[-2.584671,53.452246],[-2.583079,53.453359],[-2.584201,53.454116],[-2.586679,53.455245],[-2.588376,53.455558],[-2.588659,53.456152],[-2.593269,53.455788],[-2.596929,53.456837],[-2.59914,53.458747],[-2.59957,53.460158],[-2.599118,53.460686],[-2.599234,53.461069],[-2.600851,53.461218],[-2.603494,53.46091],[-2.606824,53.461523],[-2.609101,53.46101],[-2.609116,53.461309],[-2.61023,53.461596],[-2.613111,53.461775],[-2.613748,53.462145],[-2.613737,53.462693],[-2.615434,53.463691],[-2.61514,53.465013],[-2.616761,53.466239],[-2.615888,53.468075],[-2.615112,53.467856],[-2.614487,53.468595],[-2.614893,53.468681],[-2.614549,53.470361],[-2.611237,53.469932],[-2.610664,53.47054],[-2.608989,53.470316],[-2.608305,53.470389],[-2.607863,53.470828],[-2.611872,53.475],[-2.612051,53.476743],[-2.609135,53.476074],[-2.609347,53.476709],[-2.612171,53.477317],[-2.612209,53.477705],[-2.613188,53.478173],[-2.61224,53.478449],[-2.612138,53.481138],[-2.617277,53.481779],[-2.631859,53.480821],[-2.633102,53.481019],[-2.63767,53.480366],[-2.645537,53.480271],[-2.645553,53.48078],[-2.648405,53.482525],[-2.651987,53.48536],[-2.65289,53.485482],[-2.652995,53.486495],[-2.654131,53.486532],[-2.656731,53.492523],[-2.65992,53.492245],[-2.662937,53.492797],[-2.66131,53.493673],[-2.663933,53.494703],[-2.664847,53.49596],[-2.664751,53.496724],[-2.665781,53.49813],[-2.666258,53.499741],[-2.668456,53.500135],[-2.669645,53.49988],[-2.669692,53.499476],[-2.671686,53.499073],[-2.673279,53.499031],[-2.673878,53.499346],[-2.677685,53.49883],[-2.680312,53.499151],[-2.68023,53.499516],[-2.681856,53.499979],[-2.681882,53.500398],[-2.682569,53.500289],[-2.68347,53.500919],[-2.685024,53.501071],[-2.685986,53.500841],[-2.688379,53.501493],[-2.690298,53.501291],[-2.691163,53.501836],[-2.692947,53.502208],[-2.696319,53.502264],[-2.696769,53.501842],[-2.698962,53.502012],[-2.69916,53.503094],[-2.700756,53.504592],[-2.70324,53.503967],[-2.703854,53.505104],[-2.705478,53.504786],[-2.706016,53.505407],[-2.705572,53.505609],[-2.705817,53.505833],[-2.706277,53.505648],[-2.707058,53.506617],[-2.708554,53.513373],[-2.710014,53.51458],[-2.714481,53.512447],[-2.715019,53.511014],[-2.715546,53.51068],[-2.717477,53.510932],[-2.718252,53.511569],[-2.719275,53.511791],[-2.719632,53.511222],[-2.720452,53.511536],[-2.721046,53.511061],[-2.722029,53.510903],[-2.72297,53.509997],[-2.723605,53.510318],[-2.723241,53.511114],[-2.72355,53.511804],[-2.726798,53.514841],[-2.727302,53.517812],[-2.728302,53.518118],[-2.730418,53.520581],[-2.726334,53.523701],[-2.724902,53.524395],[-2.720744,53.52509],[-2.719723,53.52563],[-2.718756,53.526922],[-2.717835,53.527309],[-2.718112,53.528753],[-2.717231,53.529584],[-2.716724,53.532424],[-2.717042,53.532897],[-2.716256,53.533833],[-2.716993,53.534219],[-2.71618,53.535091],[-2.716398,53.53769],[-2.714542,53.538051],[-2.714528,53.538327],[-2.71585,53.539338],[-2.716019,53.540576],[-2.716748,53.540642],[-2.71855,53.54355],[-2.71767,53.544404],[-2.717852,53.544658],[-2.71699,53.544959],[-2.714843,53.546962],[-2.71323,53.547871],[-2.712716,53.548822],[-2.710872,53.54969],[-2.710146,53.550774],[-2.710263,53.553066],[-2.709186,53.554284],[-2.707778,53.55465],[-2.70708,53.557173],[-2.705963,53.558001],[-2.705644,53.558884],[-2.704819,53.559192],[-2.705319,53.561197],[-2.704214,53.56265],[-2.705207,53.563485],[-2.707934,53.564211],[-2.70952,53.564032],[-2.71127,53.564768],[-2.711044,53.565698],[-2.712594,53.56749],[-2.712391,53.568326],[-2.714307,53.568766],[-2.715659,53.570243],[-2.715772,53.571058],[-2.716388,53.571306],[-2.717631,53.57274],[-2.715606,53.575077],[-2.717679,53.576023],[-2.719223,53.576114],[-2.717764,53.577007],[-2.716996,53.57803],[-2.716429,53.577568],[-2.714802,53.578353],[-2.714497,53.578997],[-2.714944,53.580656],[-2.714375,53.581678],[-2.711645,53.582825],[-2.710344,53.585117],[-2.709124,53.585806],[-2.708199,53.585896],[-2.707536,53.58668],[-2.702761,53.587246],[-2.702514,53.588854],[-2.701735,53.58941],[-2.702813,53.58983],[-2.701404,53.590621],[-2.699908,53.590777],[-2.70007,53.591213],[-2.698182,53.591333],[-2.696446,53.590145],[-2.69415,53.589365],[-2.693309,53.589475],[-2.693659,53.591822],[-2.69214,53.597999],[-2.689456,53.60428],[-2.688069,53.604132],[-2.686451,53.603165],[-2.685528,53.603214],[-2.684058,53.603856],[-2.683247,53.603616],[-2.680074,53.604101],[-2.679041,53.604428],[-2.679036,53.604681],[-2.677984,53.604643],[-2.677749,53.604975],[-2.676276,53.604816],[-2.675539,53.605072],[-2.673159,53.604756],[-2.6717,53.605113],[-2.669955,53.605038],[-2.669663,53.604539],[-2.667956,53.604324],[-2.666671,53.603542],[-2.664945,53.603245],[-2.663924,53.603512],[-2.660999,53.603303],[-2.65937,53.603648],[-2.658865,53.604173],[-2.655141,53.60445],[-2.652568,53.605868],[-2.650096,53.606136],[-2.647733,53.606736],[-2.646917,53.607297],[-2.64373,53.607214],[-2.642209,53.607568],[-2.641163,53.607296],[-2.640268,53.607641],[-2.639197,53.607378],[-2.63663,53.607734],[-2.636909,53.607966],[-2.636077,53.608365],[-2.634592,53.608283],[-2.633337,53.607531],[-2.632125,53.60728]]]}}]}