{"type":"FeatureCollection","features":[{"type":"Feature","properties":{"slug":"wiltshire","gss_code":"E06000054","name":"Wiltshire"},"geometry":{"type":"Polygon","coordinates":[[[-1.802616,51.685365],[-1.801182,51.685397],[-1.799357,51.68084],[-1.796611,51.677084],[-1.795208,51.67725],[-1.794439,51.676772],[-1.794297,51.676171],[-1.794698,51.676179],[-1.795437,51.672794],[-1.792063,51.670361],[-1.790689,51.668603],[-1.7886,51.667007],[-1.791119,51.664585],[-1.791734,51.663168],[-1.792606,51.663414],[-1.793634,51.663051],[-1.794108,51.6633],[-1.79621,51.662443],[-1.799172,51.662491],[-1.798655,51.6615],[-1.797357,51.660992],[-1.795115,51.657095],[-1.796231,51.656572],[-1.795989,51.654253],[-1.794764,51.651338],[-1.795012,51.650732],[-1.793458,51.648789],[-1.793661,51.647933],[-1.790554,51.641433],[-1.789044,51.636777],[-1.789938,51.634813],[-1.788642,51.632715],[-1.806376,51.632719],[-1.807441,51.63039],[-1.814316,51.624507],[-1.820201,51.627752],[-1.821267,51.626967],[-1.827897,51.625327],[-1.829761,51.623786],[-1.830662,51.623701],[-1.830974,51.622521],[-1.830241,51.622541],[-1.830948,51.622358],[-1.830961,51.621303],[-1.832669,51.620984],[-1.83286,51.620692],[-1.833665,51.620815],[-1.83336,51.620459],[-1.833846,51.620362],[-1.834221,51.619732],[-1.835365,51.619646],[-1.835845,51.617936],[-1.837152,51.617616],[-1.836648,51.617439],[-1.836986,51.616953],[-1.839095,51.616687],[-1.839932,51.615805],[-1.839654,51.61444],[-1.840978,51.6141],[-1.841069,51.613271],[-1.841687,51.613165],[-1.842369,51.612074],[-1.841028,51.609769],[-1.841582,51.606856],[-1.839777,51.60753],[-1.839842,51.607141],[-1.841008,51.606586],[-1.841409,51.605116],[-1.841248,51.606119],[-1.842247,51.605331],[-1.841717,51.604887],[-1.842131,51.604131],[-1.841717,51.603386],[-1.840853,51.603139],[-1.840295,51.602258],[-1.841001,51.601903],[-1.840957,51.601442],[-1.840108,51.600621],[-1.839196,51.600346],[-1.839832,51.599859],[-1.836864,51.598676],[-1.83515,51.598877],[-1.834313,51.598648],[-1.834061,51.597709],[-1.833565,51.597849],[-1.832586,51.597499],[-1.831801,51.596736],[-1.83246,51.595587],[-1.83175,51.595399],[-1.832839,51.594217],[-1.833064,51.593143],[-1.832393,51.592336],[-1.832587,51.591739],[-1.833112,51.591125],[-1.834042,51.591404],[-1.834425,51.590971],[-1.835357,51.591086],[-1.835124,51.590215],[-1.836402,51.590208],[-1.836968,51.589809],[-1.836817,51.589376],[-1.837718,51.587932],[-1.837252,51.587819],[-1.837586,51.58722],[-1.836666,51.586846],[-1.836988,51.5865],[-1.835554,51.585513],[-1.832187,51.585187],[-1.826559,51.583758],[-1.823646,51.584443],[-1.822624,51.583892],[-1.823166,51.583014],[-1.823761,51.582809],[-1.823755,51.582189],[-1.824128,51.582339],[-1.824893,51.581876],[-1.826336,51.579437],[-1.830837,51.58175],[-1.832623,51.580791],[-1.838362,51.580069],[-1.837485,51.578847],[-1.838469,51.578562],[-1.839816,51.578231],[-1.840893,51.578881],[-1.843105,51.578705],[-1.842937,51.577039],[-1.844032,51.57575],[-1.844644,51.573953],[-1.844653,51.573138],[-1.843936,51.571973],[-1.844239,51.570183],[-1.846672,51.569666],[-1.850094,51.568112],[-1.849723,51.567232],[-1.847062,51.566329],[-1.84653,51.564839],[-1.845386,51.564221],[-1.845615,51.562641],[-1.845197,51.561729],[-1.851694,51.562325],[-1.852174,51.562756],[-1.853486,51.56302],[-1.854737,51.562687],[-1.855583,51.563492],[-1.855987,51.562867],[-1.857731,51.563386],[-1.860093,51.56522],[-1.861042,51.564374],[-1.861082,51.563803],[-1.860569,51.563619],[-1.862238,51.560022],[-1.865128,51.559554],[-1.862688,51.559557],[-1.860254,51.559037],[-1.849203,51.553342],[-1.853737,51.550512],[-1.851548,51.549021],[-1.850406,51.546745],[-1.853906,51.546243],[-1.849253,51.54447],[-1.844286,51.543429],[-1.843967,51.541763],[-1.844517,51.541491],[-1.844516,51.540863],[-1.843869,51.538335],[-1.840799,51.531484],[-1.838053,51.531712],[-1.837226,51.529834],[-1.839885,51.529404],[-1.838674,51.526203],[-1.836792,51.524101],[-1.836189,51.521945],[-1.836545,51.521697],[-1.835216,51.519444],[-1.832407,51.518292],[-1.830094,51.515403],[-1.829869,51.513608],[-1.830791,51.51111],[-1.834734,51.511513],[-1.835453,51.511397],[-1.835516,51.510984],[-1.837005,51.510879],[-1.837525,51.512974],[-1.837113,51.514112],[-1.837714,51.515697],[-1.839294,51.517241],[-1.840757,51.518036],[-1.840284,51.518445],[-1.842511,51.519786],[-1.842016,51.520419],[-1.843701,51.521717],[-1.842599,51.522917],[-1.840407,51.524164],[-1.842023,51.525358],[-1.842117,51.526295],[-1.842766,51.525788],[-1.846754,51.524301],[-1.842855,51.518205],[-1.844215,51.517245],[-1.84329,51.516618],[-1.842647,51.516877],[-1.841477,51.515708],[-1.844688,51.515014],[-1.844143,51.513836],[-1.844012,51.51224],[-1.841153,51.510603],[-1.840994,51.509739],[-1.841344,51.509534],[-1.839568,51.506804],[-1.839224,51.504982],[-1.83982,51.504777],[-1.837585,51.500837],[-1.834364,51.501065],[-1.833958,51.501795],[-1.831858,51.501248],[-1.82835,51.505071],[-1.824552,51.503713],[-1.823022,51.504757],[-1.81345,51.507042],[-1.812919,51.505272],[-1.813582,51.501251],[-1.811395,51.499525],[-1.813046,51.496536],[-1.809477,51.494035],[-1.806486,51.491052],[-1.80379,51.489362],[-1.802561,51.487767],[-1.797798,51.484447],[-1.795585,51.485757],[-1.793192,51.486167],[-1.788755,51.485122],[-1.783605,51.485192],[-1.779687,51.484348],[-1.774331,51.482455],[-1.774211,51.483702],[-1.774693,51.484512],[-1.766515,51.486076],[-1.762683,51.485857],[-1.758158,51.486235],[-1.750775,51.485643],[-1.746307,51.485647],[-1.743688,51.486687],[-1.740062,51.48678],[-1.731075,51.488177],[-1.726299,51.488506],[-1.715737,51.488383],[-1.719082,51.500706],[-1.705111,51.501979],[-1.696639,51.503605],[-1.696154,51.503174],[-1.677768,51.503953],[-1.675277,51.504485],[-1.66774,51.505279],[-1.662249,51.506885],[-1.658153,51.507611],[-1.649879,51.508299],[-1.642121,51.510885],[-1.637227,51.51359],[-1.634293,51.512941],[-1.632751,51.514987],[-1.633594,51.515536],[-1.631718,51.516469],[-1.628541,51.517385],[-1.624261,51.515113],[-1.623614,51.51417],[-1.619523,51.515215],[-1.61997,51.516632],[-1.614967,51.517357],[-1.611207,51.516875],[-1.607133,51.51741],[-1.606933,51.51705],[-1.602825,51.51831],[-1.59806,51.518697],[-1.594042,51.519779],[-1.594123,51.520133],[-1.592099,51.521485],[-1.590032,51.521739],[-1.5891,51.524491],[-1.587914,51.52486],[-1.584695,51.524922],[-1.585387,51.523687],[-1.586447,51.518339],[-1.588064,51.513149],[-1.587291,51.511149],[-1.58693,51.506547],[-1.585829,51.502114],[-1.582647,51.500942],[-1.582195,51.500129],[-1.58203,51.49945],[-1.582644,51.49811],[-1.583505,51.497674],[-1.582275,51.495757],[-1.583341,51.496003],[-1.582222,51.494029],[-1.577439,51.489757],[-1.573637,51.487285],[-1.570414,51.486296],[-1.567824,51.481513],[-1.567642,51.479844],[-1.566882,51.478532],[-1.566831,51.47693],[-1.562729,51.476814],[-1.561583,51.476379],[-1.561144,51.475803],[-1.560714,51.47221],[-1.559526,51.469739],[-1.557379,51.468015],[-1.550941,51.465484],[-1.549611,51.462229],[-1.54839,51.460656],[-1.545755,51.458991],[-1.542181,51.45775],[-1.538741,51.457356],[-1.534598,51.456126],[-1.529072,51.455508],[-1.528886,51.454147],[-1.524855,51.45015],[-1.524023,51.447472],[-1.524432,51.442853],[-1.524059,51.440932],[-1.529066,51.434432],[-1.532029,51.429502],[-1.528816,51.428248],[-1.526976,51.425794],[-1.525402,51.424859],[-1.526633,51.423916],[-1.531617,51.425088],[-1.532094,51.424803],[-1.532607,51.424988],[-1.53229,51.425338],[-1.532791,51.425638],[-1.539546,51.42613],[-1.539776,51.425675],[-1.541802,51.425456],[-1.542943,51.424572],[-1.543452,51.424768],[-1.544364,51.423536],[-1.545795,51.422793],[-1.54948,51.422366],[-1.553075,51.421248],[-1.55362,51.422398],[-1.556061,51.421614],[-1.558439,51.421715],[-1.558179,51.420485],[-1.559973,51.420341],[-1.563128,51.420878],[-1.565119,51.422043],[-1.566899,51.420974],[-1.571132,51.416489],[-1.57097,51.415295],[-1.569651,51.415164],[-1.569524,51.414645],[-1.566791,51.41433],[-1.566866,51.413868],[-1.565737,51.413828],[-1.565386,51.413268],[-1.563457,51.413253],[-1.562456,51.411397],[-1.562224,51.408173],[-1.560498,51.40852],[-1.56052,51.408204],[-1.559869,51.408083],[-1.559164,51.408636],[-1.557001,51.409287],[-1.555616,51.409329],[-1.554583,51.410285],[-1.552922,51.410037],[-1.553356,51.408344],[-1.554298,51.40762],[-1.553639,51.406698],[-1.554126,51.403349],[-1.55358,51.401488],[-1.55621,51.398202],[-1.556299,51.396592],[-1.555597,51.395539],[-1.55327,51.394682],[-1.548998,51.394732],[-1.548722,51.393003],[-1.547109,51.393253],[-1.547319,51.391236],[-1.546525,51.391052],[-1.546445,51.390491],[-1.544265,51.390096],[-1.542607,51.390449],[-1.542233,51.389589],[-1.53764,51.388311],[-1.538626,51.386928],[-1.538275,51.385488],[-1.536222,51.384585],[-1.535691,51.384038],[-1.535006,51.384287],[-1.534,51.384077],[-1.533301,51.383306],[-1.528864,51.381396],[-1.526916,51.379926],[-1.528257,51.37921],[-1.52758,51.378777],[-1.525219,51.378016],[-1.523923,51.378039],[-1.523158,51.378572],[-1.520556,51.379271],[-1.516901,51.378771],[-1.514083,51.376072],[-1.513528,51.372051],[-1.509993,51.371852],[-1.50956,51.371088],[-1.507111,51.370865],[-1.507013,51.370471],[-1.504031,51.369812],[-1.503457,51.369091],[-1.502672,51.369125],[-1.502501,51.368807],[-1.499308,51.368977],[-1.495373,51.369658],[-1.495134,51.367706],[-1.499262,51.363289],[-1.499314,51.361496],[-1.500019,51.360602],[-1.499581,51.35848],[-1.500633,51.356321],[-1.499917,51.355463],[-1.497204,51.354537],[-1.494946,51.352748],[-1.491332,51.35208],[-1.489519,51.3505],[-1.486706,51.349399],[-1.485618,51.347651],[-1.486504,51.345265],[-1.489875,51.342244],[-1.492852,51.338112],[-1.49737,51.333341],[-1.497556,51.331179],[-1.498287,51.329362],[-1.499817,51.330362],[-1.511397,51.334987],[-1.514345,51.33725],[-1.516228,51.339352],[-1.516754,51.338925],[-1.521181,51.338404],[-1.527508,51.338444],[-1.52849,51.334148],[-1.527198,51.331523],[-1.528283,51.330537],[-1.531076,51.329176],[-1.531984,51.327982],[-1.532489,51.320926],[-1.533562,51.316224],[-1.530037,51.315008],[-1.527758,51.31289],[-1.526971,51.311404],[-1.527102,51.30828],[-1.525225,51.307067],[-1.525935,51.30607],[-1.526505,51.304353],[-1.526207,51.303753],[-1.527999,51.299829],[-1.525777,51.299202],[-1.526439,51.297621],[-1.525523,51.297131],[-1.522656,51.297113],[-1.521473,51.297673],[-1.519846,51.296911],[-1.51942,51.296082],[-1.52024,51.295035],[-1.522454,51.294263],[-1.524218,51.293163],[-1.522683,51.289664],[-1.522777,51.287063],[-1.529757,51.28643],[-1.534456,51.287121],[-1.536683,51.285258],[-1.542566,51.281327],[-1.542861,51.280115],[-1.536794,51.278233],[-1.535903,51.277314],[-1.536059,51.276823],[-1.536905,51.276778],[-1.537496,51.273822],[-1.537131,51.273685],[-1.537093,51.27075],[-1.539354,51.266428],[-1.539513,51.26399],[-1.540599,51.260831],[-1.537119,51.260858],[-1.53645,51.261823],[-1.534457,51.261758],[-1.53055,51.262645],[-1.529818,51.260802],[-1.531251,51.2577],[-1.531232,51.255335],[-1.533019,51.253347],[-1.536022,51.248555],[-1.53962,51.247366],[-1.542686,51.245621],[-1.544254,51.245111],[-1.545995,51.245291],[-1.54884,51.24799],[-1.551162,51.248807],[-1.556768,51.249191],[-1.563808,51.252307],[-1.566584,51.252889],[-1.572349,51.254839],[-1.574277,51.254613],[-1.577572,51.25558],[-1.5778,51.254737],[-1.57898,51.255344],[-1.581938,51.254708],[-1.584233,51.254717],[-1.585349,51.253992],[-1.588057,51.253155],[-1.592751,51.253008],[-1.600186,51.253524],[-1.600742,51.251788],[-1.600227,51.251438],[-1.600732,51.250716],[-1.603706,51.251848],[-1.607591,51.252792],[-1.606641,51.252129],[-1.606916,51.25066],[-1.611109,51.245608],[-1.610393,51.24298],[-1.613556,51.241442],[-1.615052,51.241417],[-1.616615,51.241962],[-1.619415,51.241205],[-1.619876,51.239832],[-1.62126,51.238474],[-1.621997,51.235],[-1.623305,51.233366],[-1.625578,51.231743],[-1.62836,51.226195],[-1.630959,51.223954],[-1.631399,51.221611],[-1.632907,51.219501],[-1.633621,51.217591],[-1.637466,51.217587],[-1.650228,51.220179],[-1.653496,51.220468],[-1.66006,51.218898],[-1.659846,51.218391],[-1.662134,51.217784],[-1.666736,51.216964],[-1.666772,51.217444],[-1.672726,51.21726],[-1.673065,51.217121],[-1.673019,51.215958],[-1.673707,51.215833],[-1.68439,51.214925],[-1.684524,51.215188],[-1.686888,51.215151],[-1.689788,51.214769],[-1.691146,51.207335],[-1.694097,51.204043],[-1.692792,51.20305],[-1.6857,51.199324],[-1.682711,51.197007],[-1.676979,51.193401],[-1.670554,51.190613],[-1.66882,51.190759],[-1.669436,51.184285],[-1.67011,51.183933],[-1.6693,51.181737],[-1.672271,51.178546],[-1.67152,51.178185],[-1.670273,51.176661],[-1.666851,51.169941],[-1.65404,51.156253],[-1.654696,51.152053],[-1.659777,51.142157],[-1.658962,51.141537],[-1.658331,51.139596],[-1.658722,51.137532],[-1.659485,51.135622],[-1.661298,51.133874],[-1.661882,51.132718],[-1.663023,51.129649],[-1.662975,51.127192],[-1.654977,51.127097],[-1.64066,51.125413],[-1.63399,51.121599],[-1.627049,51.118177],[-1.626341,51.117337],[-1.62896,51.113967],[-1.630795,51.112886],[-1.630368,51.112194],[-1.630828,51.110967],[-1.628372,51.107629],[-1.628371,51.105841],[-1.626818,51.103897],[-1.627102,51.102757],[-1.629189,51.1007],[-1.630946,51.099653],[-1.63402,51.096393],[-1.636358,51.092872],[-1.636197,51.092428],[-1.637315,51.092202],[-1.634098,51.085463],[-1.631672,51.082636],[-1.632026,51.082412],[-1.631628,51.081976],[-1.631187,51.082172],[-1.629006,51.081055],[-1.627807,51.078156],[-1.629184,51.075409],[-1.628192,51.072707],[-1.627832,51.068832],[-1.630084,51.065436],[-1.629989,51.064275],[-1.632855,51.048932],[-1.632437,51.047683],[-1.633631,51.046527],[-1.634014,51.042051],[-1.634977,51.040847],[-1.632072,51.03601],[-1.632376,51.03278],[-1.62885,51.032518],[-1.62244,51.033107],[-1.619457,51.033059],[-1.619288,51.031633],[-1.614641,51.029958],[-1.613543,51.028414],[-1.611446,51.027282],[-1.608408,51.026299],[-1.602849,51.025504],[-1.599397,51.023729],[-1.600579,51.022173],[-1.603037,51.020752],[-1.605627,51.020024],[-1.605318,51.017039],[-1.604939,51.016019],[-1.603033,51.014075],[-1.60161,51.013693],[-1.599568,51.012569],[-1.597571,51.010598],[-1.597576,51.008027],[-1.600726,51.007146],[-1.60524,51.00704],[-1.606959,51.007905],[-1.608521,51.009712],[-1.609104,51.009854],[-1.608697,51.008277],[-1.610253,51.008194],[-1.610406,51.006849],[-1.61491,51.006639],[-1.609654,51.005923],[-1.607788,51.004192],[-1.605208,51.002486],[-1.606078,51.001898],[-1.606783,51.001621],[-1.610733,51.001709],[-1.61437,51.003375],[-1.617231,51.004182],[-1.620202,51.003413],[-1.623816,51.001815],[-1.624407,51.001157],[-1.626258,51.001033],[-1.627158,51.000038],[-1.628805,50.999095],[-1.628372,50.998627],[-1.628802,50.998236],[-1.628161,50.998096],[-1.62838,50.997664],[-1.627361,50.996989],[-1.627448,50.995847],[-1.625424,50.994026],[-1.625802,50.993912],[-1.624923,50.991153],[-1.625213,50.990331],[-1.624542,50.989781],[-1.62392,50.989863],[-1.621084,50.988617],[-1.620463,50.98861],[-1.618959,50.9874],[-1.619305,50.987043],[-1.618926,50.986355],[-1.619308,50.984893],[-1.620181,50.984302],[-1.619731,50.983035],[-1.617103,50.981683],[-1.615828,50.98048],[-1.614136,50.979993],[-1.614426,50.979481],[-1.610945,50.979935],[-1.607357,50.979962],[-1.604565,50.979341],[-1.60293,50.978504],[-1.605084,50.976908],[-1.605001,50.9752],[-1.607757,50.973634],[-1.608647,50.972294],[-1.610748,50.972086],[-1.612234,50.971279],[-1.61356,50.967943],[-1.614792,50.966102],[-1.61616,50.965079],[-1.616808,50.962524],[-1.619751,50.958567],[-1.623399,50.954637],[-1.62849,50.957125],[-1.634965,50.959242],[-1.640378,50.955447],[-1.641097,50.953161],[-1.641715,50.952496],[-1.646376,50.949465],[-1.649648,50.948506],[-1.65185,50.94717],[-1.66166,50.945278],[-1.6673,50.94703],[-1.669182,50.947233],[-1.676882,50.949667],[-1.685712,50.952919],[-1.689299,50.954637],[-1.701027,50.962725],[-1.709634,50.97123],[-1.716505,50.974174],[-1.718715,50.976001],[-1.719637,50.976149],[-1.719571,50.976786],[-1.722303,50.976786],[-1.726188,50.977344],[-1.729888,50.977314],[-1.733715,50.976438],[-1.735258,50.976409],[-1.739805,50.976617],[-1.742946,50.977114],[-1.743939,50.977475],[-1.743934,50.977822],[-1.754402,50.977892],[-1.75432,50.980448],[-1.765638,50.982938],[-1.76984,50.983495],[-1.769985,50.983828],[-1.775355,50.984712],[-1.77579,50.984812],[-1.77561,50.985161],[-1.783834,50.986899],[-1.787946,50.988145],[-1.790952,50.990086],[-1.796013,50.9902],[-1.800314,50.991395],[-1.80567,50.99163],[-1.807584,50.992046],[-1.815422,50.985923],[-1.819856,50.990258],[-1.821545,50.992991],[-1.827412,50.997273],[-1.835817,51.009473],[-1.842257,51.008527],[-1.852804,51.005028],[-1.85368,51.004469],[-1.855891,51.001583],[-1.862049,50.996641],[-1.866828,50.990822],[-1.869338,50.988912],[-1.873911,50.984501],[-1.874181,50.987727],[-1.874588,50.988155],[-1.875099,50.991736],[-1.874632,50.995852],[-1.874649,51.003567],[-1.874367,51.005366],[-1.873786,51.006235],[-1.874482,51.006331],[-1.875431,51.004699],[-1.879231,51.003948],[-1.8822,51.002707],[-1.883309,51.002172],[-1.88528,51.00025],[-1.886741,50.999528],[-1.888795,50.999969],[-1.891573,50.999444],[-1.892467,50.999618],[-1.895342,50.999231],[-1.898017,50.998623],[-1.903298,50.999339],[-1.912307,50.999356],[-1.920335,50.997423],[-1.923743,50.997318],[-1.927876,50.997697],[-1.935528,50.992757],[-1.936575,50.991518],[-1.949936,50.982311],[-1.953666,50.987758],[-1.95683,50.9898],[-1.962659,50.991848],[-1.965334,50.99203],[-1.967966,50.990628],[-1.971871,50.989562],[-1.972872,50.987576],[-1.975154,50.986945],[-1.977379,50.985755],[-1.979519,50.985553],[-1.980332,50.984925],[-1.983419,50.984412],[-1.985266,50.984714],[-1.986049,50.983995],[-1.985871,50.983257],[-1.986908,50.982361],[-1.989757,50.981551],[-1.990069,50.980939],[-1.989189,50.978887],[-1.990233,50.978565],[-1.99117,50.977139],[-1.992271,50.976845],[-1.992812,50.976146],[-1.99383,50.975771],[-1.998966,50.97535],[-2.000709,50.974831],[-2.002749,50.974838],[-2.003857,50.974502],[-2.00699,50.975427],[-2.009908,50.975239],[-2.012336,50.974153],[-2.014095,50.973874],[-2.014831,50.973165],[-2.017427,50.972161],[-2.02028,50.972227],[-2.021949,50.972615],[-2.023724,50.972511],[-2.028967,50.971179],[-2.032854,50.971852],[-2.034454,50.972425],[-2.037208,50.97197],[-2.038339,50.971409],[-2.038539,50.970749],[-2.041225,50.968068],[-2.051078,50.966152],[-2.05332,50.966234],[-2.058328,50.963643],[-2.059405,50.962813],[-2.058427,50.96134],[-2.0586,50.960632],[-2.059318,50.95979],[-2.062373,50.959887],[-2.062532,50.959061],[-2.064272,50.957185],[-2.064862,50.953962],[-2.068313,50.951194],[-2.082864,50.951338],[-2.083884,50.950968],[-2.08527,50.949245],[-2.08737,50.949951],[-2.089219,50.950156],[-2.090916,50.949508],[-2.094145,50.949135],[-2.100253,50.94507],[-2.101792,50.944986],[-2.102861,50.945608],[-2.102655,50.94657],[-2.103959,50.948917],[-2.105557,50.950009],[-2.110521,50.955489],[-2.112464,50.95657],[-2.115642,50.957503],[-2.119462,50.95968],[-2.120671,50.961539],[-2.121523,50.964015],[-2.121513,50.965035],[-2.120878,50.965715],[-2.120652,50.969408],[-2.123157,50.969468],[-2.122974,50.971874],[-2.122455,50.973758],[-2.119764,50.978191],[-2.121966,50.978168],[-2.122344,50.978604],[-2.126854,50.978739],[-2.13169,50.97977],[-2.138396,50.982288],[-2.143577,50.984965],[-2.148147,50.986278],[-2.152523,50.989158],[-2.15968,50.992875],[-2.161834,50.993515],[-2.161508,50.994179],[-2.163583,50.994446],[-2.163624,50.996173],[-2.164509,50.996104],[-2.167118,50.998128],[-2.169306,51.00071],[-2.17258,51.0011],[-2.172994,51.002177],[-2.175581,51.004693],[-2.176601,51.006844],[-2.178143,51.008324],[-2.17627,51.011695],[-2.1764,51.01284],[-2.178801,51.014166],[-2.185245,51.015798],[-2.183732,51.017664],[-2.188604,51.018532],[-2.188854,51.025281],[-2.190297,51.027274],[-2.190249,51.028593],[-2.18929,51.029502],[-2.189158,51.030677],[-2.190553,51.032158],[-2.192068,51.036261],[-2.193311,51.037751],[-2.194821,51.038872],[-2.195268,51.039649],[-2.196237,51.040044],[-2.198166,51.041624],[-2.201548,51.042741],[-2.2015,51.043243],[-2.205416,51.042786],[-2.2072,51.04571],[-2.208473,51.046509],[-2.210594,51.047098],[-2.212488,51.050099],[-2.215334,51.051848],[-2.217133,51.053611],[-2.218011,51.055184],[-2.223192,51.056518],[-2.225858,51.057571],[-2.227736,51.060239],[-2.23881,51.067811],[-2.239041,51.068663],[-2.240193,51.069924],[-2.244727,51.072311],[-2.247763,51.07219],[-2.251317,51.070837],[-2.263292,51.069266],[-2.267347,51.06909],[-2.268596,51.068726],[-2.283106,51.075163],[-2.291269,51.077075],[-2.293265,51.076939],[-2.298681,51.078487],[-2.306434,51.079557],[-2.309472,51.079151],[-2.310852,51.080253],[-2.316959,51.079838],[-2.32054,51.080992],[-2.324369,51.080271],[-2.325863,51.079678],[-2.326359,51.080021],[-2.32713,51.079765],[-2.327379,51.08007],[-2.327531,51.082541],[-2.328806,51.083582],[-2.32914,51.085259],[-2.330491,51.085311],[-2.335705,51.086659],[-2.337121,51.08678],[-2.339018,51.086449],[-2.339399,51.08707],[-2.340416,51.086884],[-2.34067,51.087481],[-2.341614,51.087825],[-2.345324,51.088313],[-2.347051,51.088236],[-2.353509,51.094542],[-2.354407,51.096448],[-2.360112,51.099306],[-2.36087,51.099018],[-2.362529,51.101624],[-2.362835,51.103433],[-2.363452,51.104304],[-2.362291,51.105335],[-2.362172,51.10691],[-2.360777,51.108838],[-2.362614,51.112497],[-2.363451,51.113383],[-2.362883,51.115775],[-2.36559,51.11499],[-2.364528,51.118879],[-2.363706,51.119467],[-2.361657,51.119754],[-2.361143,51.120213],[-2.359516,51.120584],[-2.357656,51.120808],[-2.357328,51.120351],[-2.356786,51.120331],[-2.352539,51.122811],[-2.35081,51.123223],[-2.350213,51.122892],[-2.349309,51.122992],[-2.34746,51.123697],[-2.34653,51.123707],[-2.344539,51.124678],[-2.343186,51.127441],[-2.344032,51.12869],[-2.346305,51.130511],[-2.345862,51.133362],[-2.341308,51.135355],[-2.332639,51.137632],[-2.332169,51.137983],[-2.330896,51.141002],[-2.332287,51.144958],[-2.328869,51.14846],[-2.322414,51.154087],[-2.319527,51.158255],[-2.316992,51.159351],[-2.316255,51.159983],[-2.316277,51.160578],[-2.315316,51.160917],[-2.312729,51.163024],[-2.311227,51.167145],[-2.310089,51.168423],[-2.308885,51.169341],[-2.30566,51.170693],[-2.303865,51.172765],[-2.298465,51.175322],[-2.297315,51.178226],[-2.297784,51.180035],[-2.294436,51.182507],[-2.291629,51.18566],[-2.291135,51.188226],[-2.288199,51.188078],[-2.288123,51.189505],[-2.289054,51.19116],[-2.288136,51.191684],[-2.288458,51.192233],[-2.284782,51.193245],[-2.284962,51.194756],[-2.284115,51.195601],[-2.28456,51.197253],[-2.281341,51.197437],[-2.280867,51.197856],[-2.280854,51.199069],[-2.280357,51.199288],[-2.27984,51.201753],[-2.279558,51.202045],[-2.278646,51.201765],[-2.276497,51.205683],[-2.275916,51.205537],[-2.274657,51.206641],[-2.274806,51.20699],[-2.272954,51.208498],[-2.2733,51.209487],[-2.271921,51.209659],[-2.271369,51.210934],[-2.269541,51.21258],[-2.268764,51.213955],[-2.266666,51.215579],[-2.266784,51.216633],[-2.269459,51.217703],[-2.269759,51.218893],[-2.269074,51.220467],[-2.267669,51.221137],[-2.267624,51.221854],[-2.268187,51.222338],[-2.26808,51.224021],[-2.267091,51.226424],[-2.263805,51.231038],[-2.26267,51.233607],[-2.263764,51.234373],[-2.26196,51.235975],[-2.260789,51.239121],[-2.257855,51.241698],[-2.254702,51.243174],[-2.254996,51.243326],[-2.252432,51.246372],[-2.252836,51.247371],[-2.248153,51.251038],[-2.245341,51.253876],[-2.247807,51.256479],[-2.24812,51.258172],[-2.249583,51.258966],[-2.248925,51.259381],[-2.248605,51.260209],[-2.248921,51.260345],[-2.247919,51.260803],[-2.247966,51.261437],[-2.244427,51.263132],[-2.245124,51.264198],[-2.244712,51.267525],[-2.245172,51.272521],[-2.247396,51.275399],[-2.247165,51.277234],[-2.247805,51.279212],[-2.250617,51.282806],[-2.251059,51.285255],[-2.253497,51.289835],[-2.255584,51.289425],[-2.257438,51.291684],[-2.260982,51.290708],[-2.265287,51.292859],[-2.262989,51.295165],[-2.265474,51.29624],[-2.267235,51.295955],[-2.268349,51.295057],[-2.269849,51.294573],[-2.272879,51.294865],[-2.275834,51.293495],[-2.277477,51.29321],[-2.278877,51.292389],[-2.279973,51.29223],[-2.279706,51.293175],[-2.280699,51.293546],[-2.279667,51.294071],[-2.279961,51.294773],[-2.279497,51.29552],[-2.280177,51.297097],[-2.281492,51.29867],[-2.281247,51.298993],[-2.280525,51.298896],[-2.279862,51.299307],[-2.279834,51.300347],[-2.27883,51.300939],[-2.278278,51.302448],[-2.276822,51.303951],[-2.277104,51.304439],[-2.278576,51.304948],[-2.278388,51.30546],[-2.281416,51.30663],[-2.282262,51.306381],[-2.281224,51.307145],[-2.282001,51.307565],[-2.283647,51.307793],[-2.283238,51.308313],[-2.284714,51.308628],[-2.28512,51.309528],[-2.283277,51.310773],[-2.281557,51.310914],[-2.279212,51.310331],[-2.278193,51.310633],[-2.276811,51.310469],[-2.275804,51.312366],[-2.273664,51.312846],[-2.271955,51.314254],[-2.273122,51.316909],[-2.274709,51.317743],[-2.275519,51.31868],[-2.275137,51.31903],[-2.272331,51.3185],[-2.275209,51.322187],[-2.273095,51.322879],[-2.275103,51.324614],[-2.274938,51.325035],[-2.277747,51.325704],[-2.278416,51.325466],[-2.277763,51.324491],[-2.279267,51.324714],[-2.281265,51.324036],[-2.282158,51.325308],[-2.285162,51.324455],[-2.289091,51.325272],[-2.288483,51.325814],[-2.288624,51.326837],[-2.287242,51.328424],[-2.288439,51.329771],[-2.290586,51.33062],[-2.295079,51.330983],[-2.300117,51.332239],[-2.300927,51.333223],[-2.300972,51.333962],[-2.299552,51.336114],[-2.298594,51.336185],[-2.296121,51.337207],[-2.29486,51.336845],[-2.294339,51.337629],[-2.295554,51.337881],[-2.296902,51.338708],[-2.296555,51.339191],[-2.295198,51.339688],[-2.295017,51.340142],[-2.296409,51.342662],[-2.297943,51.343192],[-2.299101,51.342284],[-2.299917,51.342717],[-2.302132,51.34176],[-2.303183,51.340921],[-2.305952,51.341592],[-2.308509,51.339767],[-2.310666,51.340385],[-2.311509,51.341264],[-2.316339,51.343624],[-2.320532,51.346843],[-2.323834,51.34773],[-2.32634,51.347557],[-2.327554,51.347152],[-2.328887,51.34746],[-2.333682,51.346183],[-2.338599,51.346271],[-2.340927,51.344575],[-2.343589,51.344951],[-2.344309,51.345457],[-2.343465,51.346708],[-2.343685,51.347043],[-2.342713,51.347275],[-2.342318,51.348353],[-2.341641,51.348682],[-2.34059,51.348552],[-2.340596,51.348977],[-2.339915,51.349155],[-2.33915,51.350126],[-2.338584,51.350203],[-2.338111,51.350784],[-2.33741,51.350681],[-2.337429,51.351429],[-2.336369,51.351732],[-2.335357,51.351512],[-2.333309,51.351998],[-2.332647,51.351679],[-2.328175,51.354216],[-2.327257,51.354003],[-2.325437,51.354289],[-2.32476,51.355057],[-2.323698,51.355553],[-2.32313,51.356641],[-2.321347,51.357091],[-2.320831,51.356526],[-2.318893,51.356432],[-2.316833,51.356947],[-2.314814,51.356883],[-2.312837,51.35751],[-2.311709,51.35694],[-2.310215,51.357535],[-2.310766,51.361325],[-2.309423,51.36345],[-2.307519,51.364997],[-2.302974,51.362855],[-2.299798,51.362138],[-2.296815,51.363908],[-2.294261,51.366616],[-2.290261,51.372596],[-2.290752,51.375506],[-2.291669,51.377016],[-2.291522,51.378019],[-2.292579,51.378512],[-2.293082,51.380068],[-2.294687,51.382401],[-2.297408,51.384655],[-2.296298,51.38721],[-2.29576,51.390558],[-2.296677,51.394893],[-2.293708,51.395577],[-2.291464,51.395451],[-2.290937,51.39594],[-2.287349,51.396055],[-2.28459,51.396936],[-2.282799,51.39686],[-2.281911,51.39721],[-2.284601,51.397938],[-2.286667,51.400723],[-2.287538,51.402946],[-2.290804,51.405716],[-2.288843,51.406557],[-2.288069,51.407602],[-2.286408,51.407583],[-2.285348,51.407971],[-2.284686,51.408787],[-2.283905,51.409073],[-2.284099,51.409437],[-2.282019,51.410313],[-2.281697,51.410852],[-2.282337,51.411083],[-2.282427,51.411589],[-2.282077,51.411956],[-2.282753,51.411929],[-2.282949,51.412339],[-2.28239,51.412747],[-2.28081,51.412876],[-2.28054,51.413318],[-2.279665,51.413512],[-2.280262,51.413603],[-2.279357,51.414123],[-2.279774,51.414418],[-2.278547,51.41591],[-2.280549,51.417765],[-2.280795,51.418951],[-2.282324,51.420799],[-2.282371,51.421353],[-2.284885,51.423487],[-2.28546,51.42322],[-2.286534,51.423377],[-2.287772,51.424295],[-2.291264,51.425593],[-2.29535,51.426252],[-2.289065,51.446205],[-2.288069,51.454581],[-2.285246,51.457938],[-2.286749,51.457042],[-2.287754,51.45687],[-2.289244,51.457651],[-2.293336,51.457784],[-2.295743,51.45859],[-2.294594,51.463848],[-2.294581,51.466785],[-2.294005,51.467227],[-2.29282,51.467458],[-2.293401,51.46865],[-2.291616,51.472967],[-2.291245,51.475573],[-2.29034,51.477075],[-2.288851,51.47815],[-2.289633,51.478833],[-2.290586,51.485352],[-2.291337,51.486628],[-2.290591,51.48658],[-2.290558,51.486858],[-2.29132,51.487368],[-2.292319,51.4869],[-2.293021,51.487122],[-2.293692,51.486904],[-2.29558,51.487794],[-2.297464,51.487828],[-2.300511,51.487277],[-2.301781,51.486355],[-2.304225,51.485841],[-2.304402,51.486358],[-2.309716,51.488147],[-2.310424,51.488157],[-2.31153,51.487258],[-2.311718,51.488088],[-2.313113,51.489199],[-2.313743,51.490516],[-2.317546,51.492807],[-2.319218,51.494547],[-2.324276,51.497517],[-2.320917,51.498562],[-2.311891,51.502863],[-2.306075,51.503787],[-2.297393,51.50626],[-2.296307,51.50675],[-2.297193,51.508009],[-2.29634,51.508805],[-2.296699,51.509094],[-2.296401,51.509757],[-2.289587,51.511933],[-2.281294,51.51563],[-2.277563,51.516862],[-2.270397,51.518365],[-2.263719,51.518559],[-2.263602,51.519219],[-2.262691,51.51963],[-2.255823,51.522073],[-2.255904,51.522887],[-2.254848,51.524115],[-2.25498,51.52566],[-2.2539,51.525991],[-2.253342,51.526715],[-2.25241,51.52689],[-2.252131,51.528187],[-2.253399,51.528742],[-2.257668,51.528462],[-2.260362,51.53106],[-2.260047,51.531786],[-2.260546,51.532127],[-2.260278,51.534019],[-2.261972,51.534504],[-2.263403,51.534408],[-2.263286,51.534722],[-2.264105,51.535389],[-2.265697,51.535431],[-2.266523,51.536268],[-2.264949,51.537557],[-2.262323,51.541634],[-2.261778,51.544739],[-2.26398,51.545432],[-2.268411,51.549696],[-2.266894,51.551388],[-2.267589,51.55222],[-2.267179,51.552596],[-2.267215,51.553756],[-2.267841,51.553878],[-2.268533,51.555804],[-2.267731,51.558211],[-2.268033,51.559464],[-2.268749,51.559686],[-2.268472,51.560038],[-2.267998,51.559957],[-2.267281,51.561705],[-2.267428,51.562852],[-2.266061,51.564347],[-2.266612,51.564561],[-2.264419,51.566835],[-2.264132,51.568019],[-2.260286,51.56988],[-2.26349,51.571274],[-2.268669,51.572376],[-2.274001,51.572345],[-2.273959,51.574537],[-2.27263,51.577557],[-2.271238,51.578619],[-2.269526,51.581823],[-2.268924,51.581684],[-2.267405,51.582688],[-2.267074,51.582476],[-2.264203,51.583021],[-2.256816,51.582797],[-2.251146,51.583425],[-2.250726,51.582055],[-2.245098,51.581383],[-2.244996,51.583548],[-2.244669,51.583561],[-2.242565,51.588262],[-2.241598,51.589636],[-2.241134,51.589691],[-2.241904,51.592092],[-2.235641,51.593985],[-2.230542,51.595084],[-2.225895,51.595186],[-2.222532,51.596184],[-2.217954,51.599159],[-2.212755,51.601243],[-2.210841,51.602955],[-2.207516,51.603414],[-2.206098,51.601484],[-2.205843,51.600475],[-2.206678,51.595941],[-2.201264,51.596214],[-2.194899,51.595535],[-2.19246,51.595813],[-2.192087,51.594231],[-2.190024,51.592476],[-2.183318,51.594947],[-2.183744,51.595861],[-2.181062,51.596508],[-2.182809,51.599388],[-2.179527,51.600014],[-2.177383,51.597325],[-2.176692,51.597471],[-2.176437,51.596909],[-2.175892,51.597036],[-2.175549,51.596508],[-2.174652,51.596145],[-2.170893,51.595723],[-2.167865,51.594955],[-2.167682,51.59455],[-2.162008,51.593458],[-2.158124,51.593501],[-2.156631,51.592006],[-2.15424,51.591372],[-2.152553,51.590326],[-2.134519,51.607915],[-2.120663,51.620603],[-2.117533,51.622578],[-2.113719,51.626323],[-2.108112,51.630907],[-2.107789,51.631641],[-2.107376,51.631559],[-2.105639,51.632957],[-2.073477,51.659498],[-2.057174,51.672443],[-2.054675,51.671388],[-2.053399,51.669713],[-2.047086,51.666934],[-2.047354,51.666678],[-2.046093,51.665937],[-2.046201,51.665454],[-2.040783,51.661844],[-2.03366,51.658455],[-2.031817,51.658318],[-2.027996,51.656756],[-2.027794,51.656381],[-2.025544,51.655272],[-2.024596,51.654282],[-2.021157,51.655095],[-2.020902,51.653669],[-2.020133,51.652614],[-2.015101,51.650368],[-2.014443,51.650748],[-2.012797,51.65068],[-2.010493,51.648914],[-2.006154,51.649349],[-2.003109,51.649031],[-2.00191,51.649141],[-1.997284,51.651297],[-1.995311,51.651377],[-1.993733,51.649653],[-1.991844,51.649605],[-1.991259,51.648974],[-1.991551,51.648489],[-1.991228,51.647504],[-1.987655,51.646413],[-1.986534,51.645652],[-1.985812,51.643871],[-1.984838,51.643161],[-1.983032,51.643479],[-1.980214,51.642881],[-1.976469,51.643253],[-1.977199,51.63793],[-1.976428,51.638317],[-1.97458,51.63838],[-1.974446,51.638855],[-1.968644,51.639951],[-1.964851,51.638806],[-1.960321,51.638954],[-1.958468,51.638615],[-1.957287,51.637917],[-1.954102,51.637886],[-1.952233,51.637407],[-1.952259,51.636865],[-1.950674,51.637035],[-1.960858,51.656182],[-1.961246,51.656853],[-1.962154,51.656637],[-1.962968,51.658687],[-1.957946,51.659676],[-1.958652,51.661102],[-1.954626,51.662569],[-1.954906,51.665356],[-1.952441,51.665474],[-1.951867,51.667169],[-1.952221,51.667829],[-1.949464,51.667422],[-1.947244,51.669135],[-1.945126,51.669823],[-1.942564,51.670023],[-1.94206,51.670417],[-1.941279,51.669808],[-1.939121,51.669154],[-1.938545,51.668132],[-1.938921,51.667812],[-1.928622,51.661547],[-1.925719,51.661123],[-1.926756,51.660217],[-1.921869,51.658705],[-1.92185,51.658054],[-1.920936,51.657231],[-1.915282,51.655861],[-1.908852,51.65518],[-1.908812,51.656441],[-1.905656,51.655528],[-1.903875,51.65602],[-1.89574,51.653061],[-1.895107,51.652332],[-1.892224,51.651127],[-1.888404,51.648865],[-1.887999,51.649191],[-1.88615,51.64928],[-1.884318,51.649885],[-1.882266,51.650916],[-1.880703,51.652377],[-1.877351,51.651965],[-1.876611,51.651549],[-1.87676,51.652478],[-1.876267,51.652981],[-1.886724,51.659356],[-1.886677,51.660027],[-1.887392,51.660041],[-1.887107,51.660584],[-1.887996,51.660988],[-1.887869,51.661733],[-1.888668,51.661997],[-1.888107,51.66255],[-1.888832,51.664174],[-1.888482,51.664484],[-1.889205,51.664898],[-1.887868,51.665225],[-1.888439,51.665822],[-1.891775,51.666909],[-1.89198,51.668427],[-1.893954,51.670222],[-1.894747,51.670498],[-1.896769,51.672774],[-1.8969,51.674281],[-1.898498,51.676768],[-1.899805,51.677744],[-1.899656,51.678858],[-1.89902,51.67969],[-1.895132,51.676963],[-1.8933,51.676901],[-1.882852,51.680908],[-1.882338,51.680603],[-1.878774,51.681874],[-1.873884,51.68259],[-1.872457,51.678736],[-1.868795,51.675865],[-1.868828,51.675155],[-1.866419,51.674434],[-1.865571,51.673508],[-1.864895,51.670624],[-1.862852,51.669992],[-1.860241,51.66842],[-1.860814,51.666671],[-1.860538,51.664859],[-1.857452,51.662206],[-1.854329,51.661925],[-1.853268,51.660982],[-1.853669,51.660767],[-1.853138,51.660555],[-1.852863,51.659591],[-1.8512,51.657871],[-1.850611,51.656286],[-1.846521,51.656487],[-1.84011,51.656134],[-1.83747,51.656985],[-1.834486,51.657507],[-1.819612,51.662705],[-1.815977,51.662959],[-1.815285,51.663544],[-1.816513,51.664815],[-1.816874,51.668044],[-1.81796,51.669213],[-1.817626,51.669486],[-1.818553,51.670566],[-1.818346,51.671178],[-1.820011,51.671014],[-1.821231,51.672048],[-1.821072,51.672783],[-1.821885,51.672669],[-1.822231,51.673031],[-1.823075,51.673044],[-1.823286,51.673543],[-1.822448,51.675397],[-1.822001,51.675378],[-1.82142,51.675933],[-1.821748,51.676768],[-1.820541,51.677396],[-1.820758,51.677763],[-1.817186,51.679576],[-1.815755,51.679747],[-1.816106,51.680357],[-1.815875,51.681366],[-1.812481,51.686309],[-1.813656,51.687804],[-1.815335,51.688628],[-1.816993,51.691301],[-1.818737,51.692958],[-1.819398,51.694334],[-1.819417,51.695983],[-1.818726,51.696825],[-1.819346,51.698188],[-1.818801,51.699042],[-1.819327,51.699533],[-1.818514,51.702335],[-1.811969,51.703122],[-1.811947,51.702004],[-1.807466,51.699124],[-1.811152,51.697479],[-1.806628,51.692821],[-1.80718,51.69252],[-1.806155,51.690545],[-1.803694,51.688269],[-1.802616,51.685365]]]}}]}