{"type":"FeatureCollection","features":[{"type":"Feature","properties":{"slug":"winchester","gss_code":"E07000094","name":"Winchester"},"geometry":{"type":"Polygon","coordinates":[[[-1.292713,51.194414],[-1.289954,51.194243],[-1.287796,51.195539],[-1.287419,51.196236],[-1.285269,51.195102],[-1.282576,51.194972],[-1.281945,51.193959],[-1.280427,51.194996],[-1.279435,51.1952],[-1.279167,51.19399],[-1.274209,51.194876],[-1.272884,51.19474],[-1.272773,51.194295],[-1.271356,51.194252],[-1.271178,51.193798],[-1.270531,51.193676],[-1.262203,51.193659],[-1.258841,51.19321],[-1.254492,51.191979],[-1.253077,51.190508],[-1.24861,51.191094],[-1.241085,51.191316],[-1.231699,51.191007],[-1.227853,51.190486],[-1.224746,51.18903],[-1.221196,51.186445],[-1.217218,51.184736],[-1.213977,51.184108],[-1.207071,51.18131],[-1.206561,51.180702],[-1.202241,51.185192],[-1.201232,51.185605],[-1.199634,51.185635],[-1.198869,51.185183],[-1.197969,51.185177],[-1.19778,51.184217],[-1.197021,51.184249],[-1.1963,51.184879],[-1.194878,51.185193],[-1.192852,51.184686],[-1.191663,51.18472],[-1.190307,51.183765],[-1.189594,51.182411],[-1.192921,51.179377],[-1.188986,51.176728],[-1.181696,51.17525],[-1.182239,51.170447],[-1.186849,51.165071],[-1.185572,51.163989],[-1.18931,51.163774],[-1.193355,51.162919],[-1.196997,51.161082],[-1.205939,51.161569],[-1.207432,51.161127],[-1.208119,51.160091],[-1.209773,51.159289],[-1.211346,51.158864],[-1.21438,51.158774],[-1.214406,51.157579],[-1.213343,51.155706],[-1.213665,51.152532],[-1.213299,51.151947],[-1.210612,51.151553],[-1.208597,51.150488],[-1.200738,51.150383],[-1.198658,51.150003],[-1.196048,51.14878],[-1.189993,51.146914],[-1.190136,51.146688],[-1.184445,51.144311],[-1.184268,51.143481],[-1.184775,51.142999],[-1.184227,51.142581],[-1.183781,51.140683],[-1.186566,51.138181],[-1.178136,51.134055],[-1.174289,51.13354],[-1.168264,51.13483],[-1.162264,51.134702],[-1.156593,51.136302],[-1.155839,51.135977],[-1.151011,51.136177],[-1.151782,51.137166],[-1.151782,51.138973],[-1.147008,51.139733],[-1.142691,51.141313],[-1.141183,51.140453],[-1.138532,51.141761],[-1.13179,51.143581],[-1.131018,51.142544],[-1.130717,51.140305],[-1.129786,51.138595],[-1.126511,51.138021],[-1.1255,51.138819],[-1.123356,51.138702],[-1.11773,51.137288],[-1.113797,51.137118],[-1.112114,51.136578],[-1.109515,51.137055],[-1.102149,51.14029],[-1.099685,51.140672],[-1.095043,51.140346],[-1.095415,51.138073],[-1.095084,51.136862],[-1.093474,51.137046],[-1.093586,51.134902],[-1.094683,51.132944],[-1.092835,51.130622],[-1.093338,51.130337],[-1.093312,51.129886],[-1.092487,51.129692],[-1.094943,51.125994],[-1.095179,51.124049],[-1.093776,51.121744],[-1.091491,51.120262],[-1.091239,51.114586],[-1.090533,51.111998],[-1.091601,51.10983],[-1.093161,51.108849],[-1.093925,51.107768],[-1.087712,51.109483],[-1.080764,51.109443],[-1.07467,51.107918],[-1.073181,51.107873],[-1.072212,51.106922],[-1.073225,51.10717],[-1.075148,51.106923],[-1.079272,51.105642],[-1.080498,51.10455],[-1.083288,51.102929],[-1.083804,51.100869],[-1.082857,51.09907],[-1.085264,51.097869],[-1.085815,51.097248],[-1.092035,51.095315],[-1.095393,51.094863],[-1.098227,51.093644],[-1.100443,51.094],[-1.10108,51.09296],[-1.100277,51.092079],[-1.101978,51.091442],[-1.102207,51.091634],[-1.105396,51.090879],[-1.106073,51.09036],[-1.106524,51.088641],[-1.108126,51.088546],[-1.107763,51.087168],[-1.108651,51.087134],[-1.108439,51.085644],[-1.106444,51.081105],[-1.107137,51.078895],[-1.101539,51.073854],[-1.100138,51.071545],[-1.099135,51.070714],[-1.094786,51.068318],[-1.091987,51.067572],[-1.09454,51.06552],[-1.094999,51.063662],[-1.094327,51.062552],[-1.091463,51.061554],[-1.090129,51.061758],[-1.088853,51.060665],[-1.088189,51.058727],[-1.088833,51.056377],[-1.090902,51.055726],[-1.09066,51.054946],[-1.089671,51.053891],[-1.088461,51.053381],[-1.08494,51.050679],[-1.083802,51.050356],[-1.082948,51.048896],[-1.081223,51.048899],[-1.082083,51.046736],[-1.081683,51.046426],[-1.079914,51.047282],[-1.076424,51.048198],[-1.069463,51.047151],[-1.067337,51.047639],[-1.066212,51.046789],[-1.065262,51.045061],[-1.062196,51.044519],[-1.059956,51.04576],[-1.060412,51.046691],[-1.055767,51.04742],[-1.053775,51.047232],[-1.055228,51.045747],[-1.064261,51.042635],[-1.073786,51.033964],[-1.074502,51.032586],[-1.073411,51.032215],[-1.072785,51.031288],[-1.06494,51.030933],[-1.065053,51.029957],[-1.064229,51.028586],[-1.063964,51.026091],[-1.063294,51.026061],[-1.063549,51.024843],[-1.062344,51.020113],[-1.063914,51.016408],[-1.064673,51.011663],[-1.067346,51.011741],[-1.067295,51.008874],[-1.068787,51.008552],[-1.068726,51.006379],[-1.067927,51.003733],[-1.069075,50.999834],[-1.068807,50.998246],[-1.069362,50.995754],[-1.069033,50.994503],[-1.069462,50.99373],[-1.068198,50.992593],[-1.068042,50.99184],[-1.066644,50.990692],[-1.066783,50.990035],[-1.067625,50.989684],[-1.066835,50.988529],[-1.067507,50.985715],[-1.066354,50.984979],[-1.063366,50.977692],[-1.061488,50.978329],[-1.061237,50.977976],[-1.060294,50.978316],[-1.056731,50.977699],[-1.056611,50.977432],[-1.055482,50.977558],[-1.054101,50.975021],[-1.05437,50.972359],[-1.053651,50.971041],[-1.051665,50.969538],[-1.045286,50.968675],[-1.045984,50.966475],[-1.04513,50.965446],[-1.044609,50.963143],[-1.045735,50.959506],[-1.046198,50.954629],[-1.044299,50.954436],[-1.043156,50.952993],[-1.041389,50.952863],[-1.040464,50.952181],[-1.04057,50.951749],[-1.037754,50.951197],[-1.03569,50.951517],[-1.036223,50.949473],[-1.037633,50.947572],[-1.037987,50.945351],[-1.038513,50.945163],[-1.038468,50.943954],[-1.037423,50.943536],[-1.037482,50.940895],[-1.036725,50.937847],[-1.036963,50.935087],[-1.037889,50.933222],[-1.036618,50.932818],[-1.037189,50.932004],[-1.036589,50.931728],[-1.037729,50.929272],[-1.039203,50.928299],[-1.039373,50.927779],[-1.037119,50.924828],[-1.036354,50.92203],[-1.037361,50.920337],[-1.040294,50.917785],[-1.043121,50.916405],[-1.04341,50.916687],[-1.044787,50.916262],[-1.044188,50.915692],[-1.045288,50.913799],[-1.044856,50.912062],[-1.046211,50.90992],[-1.048456,50.902516],[-1.044467,50.902341],[-1.041672,50.902599],[-1.038816,50.903148],[-1.038026,50.903592],[-1.034116,50.904163],[-1.033895,50.90221],[-1.037983,50.901492],[-1.042474,50.895911],[-1.049131,50.891466],[-1.045119,50.889036],[-1.046821,50.887559],[-1.045273,50.884636],[-1.044275,50.884332],[-1.044762,50.883793],[-1.044496,50.883343],[-1.041924,50.882591],[-1.036598,50.88227],[-1.035022,50.88063],[-1.037896,50.880201],[-1.039389,50.877687],[-1.041419,50.877925],[-1.042414,50.875252],[-1.042642,50.87494],[-1.043075,50.875],[-1.044177,50.873245],[-1.046493,50.874099],[-1.0476,50.872385],[-1.047794,50.87109],[-1.045696,50.870579],[-1.046388,50.869644],[-1.04555,50.869268],[-1.046439,50.866913],[-1.047437,50.866972],[-1.047381,50.86575],[-1.054617,50.867449],[-1.054773,50.866395],[-1.053524,50.866384],[-1.054024,50.86501],[-1.048892,50.865457],[-1.048685,50.864579],[-1.048814,50.863066],[-1.050399,50.859633],[-1.052552,50.860176],[-1.054082,50.85653],[-1.054347,50.855087],[-1.062186,50.855452],[-1.062129,50.857638],[-1.065188,50.857635],[-1.065629,50.858358],[-1.066186,50.858474],[-1.067839,50.858183],[-1.070983,50.8587],[-1.071403,50.85653],[-1.075528,50.856378],[-1.084231,50.857225],[-1.094062,50.8593],[-1.099154,50.858861],[-1.099882,50.857153],[-1.11301,50.858335],[-1.121959,50.858487],[-1.122418,50.857825],[-1.125947,50.858184],[-1.126712,50.857752],[-1.132416,50.858492],[-1.132769,50.858131],[-1.135566,50.858942],[-1.138057,50.858778],[-1.138404,50.858092],[-1.139975,50.858407],[-1.140147,50.857928],[-1.143245,50.858429],[-1.144522,50.866577],[-1.147613,50.867414],[-1.147942,50.868463],[-1.149103,50.868781],[-1.149195,50.869121],[-1.150762,50.869415],[-1.151727,50.870279],[-1.15067,50.875083],[-1.149462,50.878157],[-1.150035,50.879404],[-1.151703,50.878832],[-1.152503,50.879181],[-1.153802,50.881328],[-1.153851,50.882338],[-1.155627,50.883107],[-1.159824,50.884161],[-1.162599,50.886566],[-1.164692,50.887434],[-1.167218,50.889433],[-1.169465,50.888421],[-1.173643,50.888867],[-1.174942,50.888012],[-1.177112,50.887613],[-1.18063,50.887984],[-1.180714,50.88891],[-1.185717,50.888353],[-1.185984,50.887843],[-1.188345,50.888017],[-1.188161,50.883983],[-1.195864,50.885039],[-1.197341,50.884036],[-1.19851,50.881784],[-1.198019,50.875943],[-1.207272,50.876635],[-1.208209,50.875011],[-1.209766,50.873942],[-1.216039,50.875058],[-1.218624,50.873114],[-1.217772,50.872503],[-1.220419,50.868707],[-1.224484,50.867018],[-1.225198,50.865867],[-1.224774,50.865338],[-1.225291,50.864153],[-1.226066,50.864183],[-1.227865,50.863168],[-1.227862,50.862608],[-1.229509,50.860586],[-1.234538,50.862507],[-1.255243,50.873103],[-1.255286,50.874928],[-1.254966,50.875938],[-1.256105,50.876418],[-1.254825,50.878946],[-1.256587,50.880716],[-1.253965,50.882515],[-1.253952,50.883165],[-1.255372,50.884184],[-1.254679,50.887018],[-1.255652,50.888855],[-1.259401,50.889721],[-1.257739,50.891269],[-1.259078,50.891751],[-1.258683,50.89282],[-1.260052,50.893177],[-1.260904,50.893036],[-1.26109,50.895079],[-1.264065,50.895505],[-1.265798,50.897455],[-1.265507,50.897771],[-1.26365,50.89723],[-1.261049,50.899999],[-1.260305,50.900318],[-1.260569,50.900717],[-1.259022,50.90176],[-1.25916,50.902523],[-1.256192,50.902434],[-1.254798,50.904392],[-1.252859,50.904095],[-1.252401,50.904432],[-1.251597,50.903494],[-1.250494,50.903054],[-1.250921,50.90255],[-1.250559,50.902369],[-1.251576,50.899068],[-1.250487,50.902398],[-1.250772,50.902663],[-1.250299,50.90319],[-1.249073,50.903031],[-1.248512,50.90328],[-1.249098,50.903076],[-1.250976,50.903293],[-1.252462,50.904552],[-1.253071,50.9043],[-1.255012,50.904553],[-1.256176,50.90287],[-1.257097,50.902552],[-1.258271,50.90298],[-1.2603,50.903032],[-1.261934,50.903796],[-1.262083,50.904244],[-1.261386,50.904056],[-1.260198,50.904348],[-1.258927,50.905042],[-1.260293,50.904376],[-1.261403,50.90415],[-1.262058,50.904407],[-1.262351,50.904158],[-1.264547,50.905673],[-1.264418,50.906846],[-1.265289,50.907469],[-1.265588,50.908403],[-1.266268,50.908657],[-1.266719,50.908242],[-1.267137,50.909073],[-1.268669,50.909661],[-1.267985,50.910278],[-1.268565,50.910626],[-1.268561,50.911423],[-1.269066,50.911664],[-1.268588,50.912081],[-1.268948,50.912846],[-1.268377,50.913091],[-1.268232,50.913795],[-1.267695,50.913993],[-1.267766,50.91488],[-1.266799,50.916459],[-1.267753,50.916519],[-1.267664,50.91695],[-1.266478,50.918043],[-1.265377,50.918391],[-1.26516,50.919854],[-1.264237,50.920502],[-1.26483,50.920894],[-1.264552,50.922864],[-1.265548,50.923173],[-1.265211,50.923872],[-1.265816,50.924789],[-1.264706,50.925412],[-1.264633,50.926181],[-1.265293,50.926187],[-1.265391,50.92649],[-1.266661,50.926852],[-1.2663,50.927047],[-1.26752,50.928802],[-1.267207,50.929343],[-1.268739,50.930493],[-1.268625,50.930789],[-1.270209,50.931663],[-1.270758,50.933505],[-1.272559,50.933992],[-1.273691,50.935703],[-1.275205,50.936012],[-1.276326,50.93584],[-1.278869,50.936656],[-1.279445,50.936401],[-1.280616,50.936626],[-1.281762,50.936247],[-1.282206,50.93655],[-1.284726,50.936379],[-1.285068,50.937363],[-1.286988,50.939618],[-1.286715,50.94272],[-1.288012,50.945441],[-1.291125,50.946845],[-1.29256,50.948634],[-1.291031,50.950858],[-1.290511,50.951268],[-1.289348,50.951285],[-1.288569,50.952146],[-1.287047,50.952925],[-1.285979,50.954336],[-1.283248,50.956307],[-1.283041,50.957705],[-1.282074,50.958612],[-1.276985,50.960938],[-1.276323,50.961892],[-1.271828,50.962608],[-1.270636,50.963875],[-1.269328,50.966424],[-1.269205,50.967578],[-1.268499,50.967524],[-1.265761,50.968877],[-1.260377,50.974361],[-1.258154,50.978342],[-1.25963,50.979221],[-1.262734,50.980154],[-1.266554,50.980157],[-1.267761,50.978629],[-1.272071,50.979098],[-1.27285,50.977084],[-1.275389,50.973885],[-1.276992,50.974356],[-1.28031,50.974392],[-1.284946,50.973524],[-1.293428,50.974145],[-1.295231,50.974622],[-1.295139,50.976127],[-1.290479,50.982301],[-1.290575,50.98287],[-1.29315,50.983714],[-1.295879,50.982827],[-1.301767,50.982743],[-1.312008,50.984719],[-1.313407,50.984563],[-1.315299,50.985139],[-1.316394,50.985125],[-1.319271,50.987137],[-1.322728,50.987548],[-1.323294,50.985871],[-1.323092,50.983893],[-1.327678,50.98012],[-1.32853,50.980596],[-1.329095,50.982104],[-1.330391,50.983748],[-1.333917,50.983356],[-1.335472,50.983507],[-1.337647,50.984303],[-1.3395,50.983919],[-1.342466,50.984942],[-1.344057,50.984862],[-1.345036,50.984073],[-1.344919,50.982549],[-1.346566,50.9814],[-1.345621,50.985543],[-1.342765,50.990889],[-1.343412,50.991254],[-1.343554,50.991968],[-1.345844,50.992577],[-1.346861,50.991066],[-1.349225,50.993268],[-1.349724,50.994406],[-1.350524,50.994622],[-1.351181,50.995352],[-1.351112,50.996735],[-1.353913,50.997085],[-1.353468,50.998159],[-1.354528,50.998442],[-1.356213,50.997767],[-1.356527,50.998395],[-1.359748,50.998671],[-1.36357,51.000076],[-1.367485,51.000399],[-1.368651,51.001366],[-1.369666,51.001627],[-1.381653,51.003436],[-1.384546,51.004269],[-1.389045,51.003643],[-1.392975,51.004361],[-1.3934,51.006416],[-1.394698,51.009082],[-1.394374,51.009714],[-1.397119,51.009188],[-1.398524,51.008282],[-1.399019,51.008443],[-1.398655,51.009158],[-1.399797,51.009784],[-1.404888,51.010726],[-1.405261,51.010534],[-1.406009,51.011333],[-1.411167,51.012522],[-1.411246,51.01348],[-1.410747,51.013968],[-1.411198,51.014111],[-1.418991,51.015444],[-1.421025,51.013817],[-1.42205,51.01452],[-1.422509,51.015351],[-1.424529,51.015928],[-1.426067,51.016836],[-1.426658,51.021808],[-1.42767,51.022587],[-1.429565,51.023138],[-1.429985,51.024067],[-1.43308,51.025581],[-1.437983,51.024118],[-1.441891,51.025166],[-1.443622,51.027086],[-1.444791,51.027531],[-1.444865,51.028295],[-1.44617,51.030017],[-1.446486,51.031675],[-1.447089,51.031859],[-1.446811,51.033862],[-1.448385,51.035951],[-1.449917,51.036771],[-1.449841,51.037152],[-1.451948,51.03797],[-1.453018,51.038997],[-1.455878,51.040299],[-1.456504,51.041122],[-1.454145,51.044486],[-1.452037,51.045388],[-1.450981,51.045426],[-1.448617,51.047061],[-1.448781,51.047621],[-1.448016,51.04814],[-1.447398,51.050124],[-1.446489,51.051203],[-1.447117,51.052204],[-1.446296,51.052174],[-1.445114,51.054127],[-1.442501,51.056499],[-1.436044,51.05954],[-1.434351,51.059724],[-1.432739,51.060364],[-1.430591,51.060315],[-1.429413,51.060701],[-1.423461,51.06072],[-1.41547,51.062672],[-1.416709,51.063328],[-1.413735,51.066619],[-1.411708,51.069551],[-1.411536,51.070535],[-1.412471,51.071381],[-1.412398,51.072459],[-1.410412,51.074913],[-1.410117,51.077838],[-1.415825,51.07713],[-1.415454,51.078291],[-1.412597,51.081963],[-1.411963,51.085559],[-1.414666,51.091257],[-1.414289,51.094108],[-1.414535,51.095692],[-1.420932,51.094726],[-1.429976,51.094431],[-1.431174,51.098147],[-1.436293,51.097889],[-1.434545,51.100108],[-1.433634,51.102167],[-1.43442,51.105201],[-1.435962,51.107812],[-1.436272,51.112042],[-1.433118,51.115506],[-1.431417,51.116786],[-1.420451,51.11064],[-1.417594,51.109738],[-1.413727,51.111129],[-1.414217,51.112985],[-1.411552,51.110684],[-1.408367,51.111689],[-1.407535,51.11113],[-1.403585,51.11298],[-1.405152,51.114726],[-1.404049,51.115135],[-1.406164,51.118132],[-1.405891,51.118306],[-1.407195,51.120477],[-1.39935,51.122621],[-1.391898,51.123479],[-1.388068,51.124582],[-1.380269,51.124124],[-1.376023,51.127355],[-1.370223,51.129142],[-1.377764,51.136331],[-1.369825,51.142501],[-1.369234,51.144487],[-1.368042,51.146344],[-1.364067,51.149728],[-1.359482,51.152307],[-1.350746,51.155236],[-1.350236,51.15468],[-1.348213,51.155527],[-1.347696,51.159525],[-1.341893,51.159087],[-1.336877,51.159106],[-1.336262,51.160675],[-1.337091,51.161302],[-1.336023,51.162101],[-1.335513,51.163231],[-1.335914,51.163421],[-1.335716,51.163834],[-1.337332,51.164452],[-1.336389,51.165196],[-1.3365,51.16563],[-1.337486,51.165995],[-1.33722,51.167384],[-1.334382,51.167787],[-1.332812,51.168627],[-1.332363,51.168454],[-1.328643,51.171681],[-1.330195,51.173267],[-1.331184,51.173687],[-1.331024,51.173978],[-1.329729,51.175464],[-1.328716,51.175329],[-1.325407,51.180423],[-1.310393,51.190908],[-1.30897,51.193408],[-1.308728,51.195649],[-1.30716,51.19542],[-1.306478,51.194891],[-1.305776,51.195135],[-1.305492,51.195637],[-1.298939,51.197034],[-1.295082,51.195988],[-1.294997,51.195077],[-1.292713,51.194414]]]}}]}