{"type":"FeatureCollection","features":[{"type":"Feature","properties":{"slug":"windsor-and-maidenhead","gss_code":"E06000040","name":"Windsor and Maidenhead"},"geometry":{"type":"Polygon","coordinates":[[[-0.710946,51.564164],[-0.708648,51.563148],[-0.705304,51.562276],[-0.703356,51.562816],[-0.701579,51.565627],[-0.699778,51.56571],[-0.696238,51.56508],[-0.694529,51.563184],[-0.694177,51.562176],[-0.69219,51.559324],[-0.691203,51.556819],[-0.69127,51.548676],[-0.692678,51.544025],[-0.693634,51.542608],[-0.696402,51.540023],[-0.697807,51.53779],[-0.698092,51.536827],[-0.697692,51.534783],[-0.699722,51.531251],[-0.699994,51.529074],[-0.702052,51.523948],[-0.701504,51.521172],[-0.701603,51.518593],[-0.703565,51.512625],[-0.703165,51.511107],[-0.701838,51.510367],[-0.699025,51.50963],[-0.695258,51.510344],[-0.693305,51.510342],[-0.688467,51.508472],[-0.686284,51.507173],[-0.682834,51.503448],[-0.682407,51.501252],[-0.679365,51.497136],[-0.678499,51.494564],[-0.673501,51.492718],[-0.669979,51.490079],[-0.668191,51.489172],[-0.66578,51.488353],[-0.662284,51.487926],[-0.659058,51.487105],[-0.654759,51.487066],[-0.651936,51.485471],[-0.650779,51.485792],[-0.647226,51.489466],[-0.646074,51.49013],[-0.64036,51.490303],[-0.638104,51.491855],[-0.636128,51.492367],[-0.633882,51.492382],[-0.633828,51.492695],[-0.635706,51.495007],[-0.637673,51.495426],[-0.638134,51.496014],[-0.641074,51.496497],[-0.642812,51.496486],[-0.643117,51.496062],[-0.643679,51.496065],[-0.644447,51.496485],[-0.642212,51.500627],[-0.639034,51.500711],[-0.637078,51.500217],[-0.634647,51.500485],[-0.632566,51.502683],[-0.630791,51.503679],[-0.627898,51.504396],[-0.624237,51.504143],[-0.620851,51.503274],[-0.610717,51.49839],[-0.608947,51.498029],[-0.607716,51.497252],[-0.606668,51.498189],[-0.604326,51.497536],[-0.600576,51.502304],[-0.597718,51.500676],[-0.592614,51.498513],[-0.591033,51.497328],[-0.58961,51.499399],[-0.57606,51.495625],[-0.575361,51.494952],[-0.572969,51.493904],[-0.571677,51.493437],[-0.570273,51.493363],[-0.568375,51.492244],[-0.565568,51.491342],[-0.564781,51.491612],[-0.560551,51.497212],[-0.552543,51.494846],[-0.554124,51.491282],[-0.547138,51.489925],[-0.546961,51.490415],[-0.545191,51.490176],[-0.545373,51.489915],[-0.541857,51.488748],[-0.541292,51.489274],[-0.53811,51.488306],[-0.536809,51.487192],[-0.534355,51.486785],[-0.533458,51.484854],[-0.533846,51.484642],[-0.532734,51.483537],[-0.526978,51.480168],[-0.524244,51.47951],[-0.525345,51.476884],[-0.524683,51.474911],[-0.525508,51.47457],[-0.52371,51.472448],[-0.524359,51.471528],[-0.52996,51.470168],[-0.530378,51.469321],[-0.529646,51.469294],[-0.532072,51.464491],[-0.535301,51.460512],[-0.536591,51.45936],[-0.537061,51.459689],[-0.540602,51.458388],[-0.540613,51.457852],[-0.540577,51.457095],[-0.526732,51.44751],[-0.529405,51.445496],[-0.531062,51.44489],[-0.530641,51.443773],[-0.531495,51.441679],[-0.530563,51.441014],[-0.527729,51.44089],[-0.52454,51.43988],[-0.524068,51.438827],[-0.525232,51.437564],[-0.525159,51.436899],[-0.524532,51.435929],[-0.523264,51.435807],[-0.522778,51.435304],[-0.527582,51.435692],[-0.534661,51.437365],[-0.537599,51.438778],[-0.54836,51.441921],[-0.550448,51.443468],[-0.551818,51.4435],[-0.552861,51.442889],[-0.554052,51.441515],[-0.555569,51.441478],[-0.556773,51.442049],[-0.559714,51.444528],[-0.563142,51.445751],[-0.564945,51.448038],[-0.56782,51.45008],[-0.57169,51.450992],[-0.579676,51.444747],[-0.584503,51.443657],[-0.585378,51.442366],[-0.58848,51.442342],[-0.590508,51.44121],[-0.591167,51.441138],[-0.593008,51.441819],[-0.594222,51.441545],[-0.594557,51.440919],[-0.593933,51.440474],[-0.594188,51.439309],[-0.605125,51.431312],[-0.605155,51.41736],[-0.606683,51.414111],[-0.611296,51.408709],[-0.614384,51.403093],[-0.618369,51.399026],[-0.6181,51.398643],[-0.617212,51.398759],[-0.616475,51.398288],[-0.615792,51.3987],[-0.614521,51.397394],[-0.615017,51.397039],[-0.615608,51.397648],[-0.616586,51.397014],[-0.615584,51.396739],[-0.61542,51.396376],[-0.619635,51.392824],[-0.618006,51.392056],[-0.621667,51.390047],[-0.623495,51.389543],[-0.620516,51.388475],[-0.618842,51.387463],[-0.617194,51.385817],[-0.616344,51.38354],[-0.618045,51.38338],[-0.619249,51.384992],[-0.619608,51.384822],[-0.620923,51.385172],[-0.624939,51.382883],[-0.625931,51.382873],[-0.628218,51.384235],[-0.632507,51.384304],[-0.634623,51.384753],[-0.634799,51.385099],[-0.636183,51.385187],[-0.638528,51.386659],[-0.639501,51.386631],[-0.640473,51.38738],[-0.646679,51.385384],[-0.647037,51.385932],[-0.650738,51.385663],[-0.652376,51.38679],[-0.6553,51.387246],[-0.658169,51.386281],[-0.664347,51.385739],[-0.667634,51.384571],[-0.671387,51.385781],[-0.673163,51.388741],[-0.679433,51.393052],[-0.686611,51.40296],[-0.692737,51.40739],[-0.69654,51.41091],[-0.696192,51.411366],[-0.696117,51.413024],[-0.693667,51.415015],[-0.690083,51.418872],[-0.68478,51.42163],[-0.680579,51.425351],[-0.678838,51.428358],[-0.678977,51.430034],[-0.676261,51.431583],[-0.667948,51.430748],[-0.663096,51.426016],[-0.657988,51.423927],[-0.653862,51.423951],[-0.64916,51.421225],[-0.64321,51.418897],[-0.641071,51.417069],[-0.640441,51.415795],[-0.638327,51.414655],[-0.635447,51.414396],[-0.635321,51.414168],[-0.631309,51.414455],[-0.631292,51.416826],[-0.632072,51.41921],[-0.63123,51.422861],[-0.637146,51.428005],[-0.630553,51.442192],[-0.64195,51.441006],[-0.650799,51.441767],[-0.653868,51.441368],[-0.661982,51.444319],[-0.658224,51.449316],[-0.658259,51.453082],[-0.656756,51.461494],[-0.660972,51.461854],[-0.662645,51.462549],[-0.665016,51.462466],[-0.668902,51.459683],[-0.672746,51.457849],[-0.679777,51.46301],[-0.682288,51.463384],[-0.688866,51.46696],[-0.70571,51.467738],[-0.710133,51.467472],[-0.710476,51.466395],[-0.714418,51.467144],[-0.7204,51.459904],[-0.723306,51.457711],[-0.724526,51.456139],[-0.740771,51.458831],[-0.745893,51.458805],[-0.752752,51.462227],[-0.757329,51.459025],[-0.760745,51.459105],[-0.762942,51.4597],[-0.764628,51.459723],[-0.769803,51.46341],[-0.77014,51.465195],[-0.769642,51.467759],[-0.77516,51.468386],[-0.775652,51.468722],[-0.782565,51.46869],[-0.783767,51.464576],[-0.783874,51.460774],[-0.787067,51.455643],[-0.789922,51.452402],[-0.792782,51.451418],[-0.795952,51.449525],[-0.797035,51.447615],[-0.799131,51.446382],[-0.800048,51.444955],[-0.800038,51.44118],[-0.806069,51.441378],[-0.808529,51.442552],[-0.812833,51.442424],[-0.818086,51.443191],[-0.82661,51.455446],[-0.828291,51.462044],[-0.833754,51.464099],[-0.830053,51.464511],[-0.825199,51.465563],[-0.824625,51.470067],[-0.821784,51.472602],[-0.82199,51.474119],[-0.823688,51.475949],[-0.824154,51.477904],[-0.825077,51.478406],[-0.826423,51.480226],[-0.826703,51.481498],[-0.826399,51.482506],[-0.828061,51.484065],[-0.829142,51.486281],[-0.829149,51.487829],[-0.827159,51.48948],[-0.825296,51.491978],[-0.822145,51.494269],[-0.822461,51.494565],[-0.822138,51.495559],[-0.821543,51.495566],[-0.82094,51.497177],[-0.819989,51.497112],[-0.819729,51.495767],[-0.82068,51.495671],[-0.820442,51.49499],[-0.818543,51.49522],[-0.818605,51.495775],[-0.817066,51.496432],[-0.817274,51.497207],[-0.817614,51.49714],[-0.81828,51.497965],[-0.818741,51.498019],[-0.817092,51.502847],[-0.817659,51.506748],[-0.81739,51.507238],[-0.818824,51.508914],[-0.822021,51.510648],[-0.824056,51.512479],[-0.828319,51.512379],[-0.833952,51.512942],[-0.836186,51.512751],[-0.839264,51.515875],[-0.847641,51.522249],[-0.850073,51.524484],[-0.853907,51.526073],[-0.852292,51.529476],[-0.850466,51.530692],[-0.849535,51.531827],[-0.846924,51.533051],[-0.846286,51.533664],[-0.845954,51.53458],[-0.846193,51.535989],[-0.843116,51.541832],[-0.842709,51.544772],[-0.841,51.545088],[-0.83776,51.546973],[-0.835731,51.546758],[-0.834557,51.545877],[-0.833121,51.545467],[-0.831254,51.545789],[-0.829087,51.545611],[-0.827676,51.546652],[-0.826257,51.549254],[-0.824361,51.550409],[-0.817051,51.550988],[-0.810515,51.552697],[-0.807128,51.552761],[-0.803268,51.551916],[-0.794503,51.551157],[-0.792964,51.551359],[-0.790975,51.552838],[-0.786889,51.55377],[-0.782382,51.556264],[-0.779365,51.560163],[-0.776534,51.565723],[-0.774743,51.566778],[-0.771248,51.567827],[-0.76989,51.566428],[-0.768508,51.565823],[-0.762631,51.566381],[-0.757169,51.564787],[-0.754559,51.566231],[-0.748788,51.56836],[-0.745108,51.570687],[-0.740957,51.571657],[-0.737594,51.573863],[-0.73376,51.574925],[-0.727864,51.577243],[-0.722923,51.577829],[-0.718945,51.577692],[-0.716845,51.577189],[-0.715112,51.576127],[-0.712288,51.572242],[-0.711543,51.568659],[-0.712243,51.565352],[-0.710946,51.564164]]]}}]}