{"type":"FeatureCollection","features":[{"type":"Feature","properties":{"slug":"wokingham","gss_code":"E06000041","name":"Wokingham"},"geometry":{"type":"Polygon","coordinates":[[[-0.859926,51.548365],[-0.85753,51.548813],[-0.856261,51.548706],[-0.847047,51.545201],[-0.842709,51.544772],[-0.843116,51.541832],[-0.846193,51.535989],[-0.845954,51.53458],[-0.846286,51.533664],[-0.846924,51.533051],[-0.849535,51.531827],[-0.850466,51.530692],[-0.852292,51.529476],[-0.853907,51.526073],[-0.850073,51.524484],[-0.847641,51.522249],[-0.839264,51.515875],[-0.836186,51.512751],[-0.833952,51.512942],[-0.828319,51.512379],[-0.824056,51.512479],[-0.822021,51.510648],[-0.818824,51.508914],[-0.81739,51.507238],[-0.817659,51.506748],[-0.817092,51.502847],[-0.818741,51.498019],[-0.81828,51.497965],[-0.817614,51.49714],[-0.817274,51.497207],[-0.817066,51.496432],[-0.818605,51.495775],[-0.818543,51.49522],[-0.820442,51.49499],[-0.82068,51.495671],[-0.819729,51.495767],[-0.819989,51.497112],[-0.82094,51.497177],[-0.821543,51.495566],[-0.822138,51.495559],[-0.822461,51.494565],[-0.822145,51.494269],[-0.825296,51.491978],[-0.827159,51.48948],[-0.829149,51.487829],[-0.829142,51.486281],[-0.828061,51.484065],[-0.826399,51.482506],[-0.826703,51.481498],[-0.826423,51.480226],[-0.825077,51.478406],[-0.824154,51.477904],[-0.823688,51.475949],[-0.82199,51.474119],[-0.821784,51.472602],[-0.824625,51.470067],[-0.825199,51.465563],[-0.830053,51.464511],[-0.833754,51.464099],[-0.828291,51.462044],[-0.82661,51.455446],[-0.818086,51.443191],[-0.812833,51.442424],[-0.808529,51.442552],[-0.806069,51.441378],[-0.800038,51.44118],[-0.799661,51.438976],[-0.798046,51.436066],[-0.798519,51.433123],[-0.797862,51.423738],[-0.798666,51.42135],[-0.798683,51.419491],[-0.796673,51.414454],[-0.795739,51.413226],[-0.793231,51.411394],[-0.792505,51.40885],[-0.794614,51.408555],[-0.798082,51.409185],[-0.801972,51.409063],[-0.801475,51.405095],[-0.798955,51.400135],[-0.797832,51.395653],[-0.795766,51.392354],[-0.78884,51.371751],[-0.809195,51.37095],[-0.813571,51.370318],[-0.814533,51.369533],[-0.827446,51.363541],[-0.828335,51.362621],[-0.829088,51.360933],[-0.832459,51.357915],[-0.833646,51.355814],[-0.834272,51.355385],[-0.834387,51.354496],[-0.837374,51.352886],[-0.84113,51.352733],[-0.841845,51.352082],[-0.844578,51.35224],[-0.845849,51.352708],[-0.847772,51.352477],[-0.848724,51.353041],[-0.850242,51.35311],[-0.850436,51.353646],[-0.851398,51.35405],[-0.853666,51.354233],[-0.854451,51.353879],[-0.857519,51.353829],[-0.85912,51.35418],[-0.864853,51.354257],[-0.865814,51.35384],[-0.86808,51.354749],[-0.87184,51.352666],[-0.873289,51.352279],[-0.878131,51.35265],[-0.879319,51.353233],[-0.87942,51.353961],[-0.881758,51.353814],[-0.882426,51.354612],[-0.882041,51.355072],[-0.882992,51.35555],[-0.884523,51.355538],[-0.885108,51.354704],[-0.885672,51.354662],[-0.888284,51.356372],[-0.889775,51.356943],[-0.892803,51.35636],[-0.894985,51.356816],[-0.895449,51.357223],[-0.897198,51.357285],[-0.897667,51.357563],[-0.897493,51.357933],[-0.899838,51.359022],[-0.901431,51.359004],[-0.903597,51.358128],[-0.906832,51.35938],[-0.907228,51.359819],[-0.908855,51.360132],[-0.910081,51.360955],[-0.915076,51.360786],[-0.917896,51.362253],[-0.918402,51.363056],[-0.91761,51.363617],[-0.917748,51.364557],[-0.918303,51.364907],[-0.923767,51.366011],[-0.925057,51.365911],[-0.926967,51.365171],[-0.928512,51.365255],[-0.930695,51.364445],[-0.935736,51.36546],[-0.936339,51.365783],[-0.935989,51.366317],[-0.936675,51.36598],[-0.93705,51.363884],[-0.939153,51.363172],[-0.94138,51.363898],[-0.952241,51.362735],[-0.972364,51.359938],[-0.975503,51.360168],[-0.977423,51.360639],[-0.982708,51.359822],[-0.98674,51.359856],[-0.987539,51.360113],[-0.987922,51.360717],[-0.986685,51.36139],[-0.985713,51.361481],[-0.985483,51.362026],[-0.986124,51.362848],[-0.986229,51.36368],[-0.988008,51.364413],[-0.990528,51.364008],[-0.991438,51.365154],[-0.990938,51.365462],[-0.991745,51.365943],[-0.991791,51.366666],[-0.990465,51.36795],[-0.990879,51.368535],[-0.990232,51.36935],[-0.990527,51.369735],[-0.989552,51.369813],[-0.989096,51.37044],[-0.98828,51.370174],[-0.987676,51.371062],[-0.985263,51.370689],[-0.983435,51.371441],[-0.983803,51.372227],[-0.983607,51.37335],[-0.981725,51.375749],[-0.984236,51.376732],[-0.983716,51.377159],[-0.987114,51.379814],[-0.990239,51.381524],[-0.992634,51.384037],[-0.996807,51.385967],[-1.001023,51.389026],[-1.007041,51.391437],[-1.011884,51.392867],[-1.009823,51.396567],[-1.009099,51.398825],[-1.006407,51.401309],[-1.005428,51.401775],[-1.005358,51.402408],[-1.004021,51.40377],[-1.003504,51.40513],[-1.003909,51.40633],[-1.003506,51.407913],[-1.00112,51.409345],[-0.999142,51.412251],[-0.999782,51.412667],[-1.000198,51.414292],[-1.001396,51.414326],[-1.000235,51.415784],[-0.997881,51.417034],[-0.998243,51.417498],[-0.998016,51.419463],[-0.999958,51.420175],[-0.999204,51.421927],[-0.999241,51.422526],[-1.000314,51.422431],[-0.999611,51.424863],[-1.002768,51.426032],[-1.001259,51.426341],[-1.001343,51.425659],[-0.999512,51.424863],[-0.998708,51.424828],[-0.996499,51.421475],[-0.996283,51.419596],[-0.993211,51.419422],[-0.99152,51.420444],[-0.987818,51.420738],[-0.984793,51.421967],[-0.98447,51.421326],[-0.98137,51.420628],[-0.983371,51.418842],[-0.981162,51.417412],[-0.979812,51.414504],[-0.980163,51.414182],[-0.979739,51.412879],[-0.979351,51.412515],[-0.978655,51.412469],[-0.973767,51.412592],[-0.973453,51.411522],[-0.973877,51.411521],[-0.97379,51.409754],[-0.971116,51.410079],[-0.961926,51.412345],[-0.962127,51.413938],[-0.959879,51.414276],[-0.960289,51.415081],[-0.956918,51.419477],[-0.957151,51.419858],[-0.951213,51.423159],[-0.949146,51.423808],[-0.946208,51.427099],[-0.943434,51.429292],[-0.943955,51.430077],[-0.943707,51.438439],[-0.946399,51.438142],[-0.946414,51.439164],[-0.948135,51.439288],[-0.947887,51.44109],[-0.946622,51.441043],[-0.946304,51.442326],[-0.944627,51.442906],[-0.944695,51.445217],[-0.945215,51.44617],[-0.941788,51.445975],[-0.937391,51.444419],[-0.934812,51.443002],[-0.933914,51.441905],[-0.932335,51.440979],[-0.930717,51.442226],[-0.92856,51.445098],[-0.931462,51.447538],[-0.935069,51.451981],[-0.937612,51.453854],[-0.941656,51.45574],[-0.945837,51.457065],[-0.949483,51.457531],[-0.950019,51.457839],[-0.949168,51.459513],[-0.945989,51.459504],[-0.942348,51.460594],[-0.932661,51.465794],[-0.930642,51.46764],[-0.923668,51.46719],[-0.921698,51.467931],[-0.920451,51.471306],[-0.919277,51.472719],[-0.91687,51.474375],[-0.914573,51.474787],[-0.91334,51.475963],[-0.910608,51.476831],[-0.910079,51.477755],[-0.910586,51.479474],[-0.910211,51.482148],[-0.908186,51.483961],[-0.905809,51.485063],[-0.901868,51.485339],[-0.897652,51.487045],[-0.898262,51.488314],[-0.896627,51.489938],[-0.896384,51.491816],[-0.894267,51.492044],[-0.893447,51.492538],[-0.895283,51.493921],[-0.893859,51.494842],[-0.894076,51.495953],[-0.893676,51.496763],[-0.888122,51.499636],[-0.882331,51.501375],[-0.878603,51.501965],[-0.872003,51.502446],[-0.870514,51.503283],[-0.870057,51.504537],[-0.871023,51.505501],[-0.871081,51.506945],[-0.871608,51.507574],[-0.874469,51.509325],[-0.879477,51.511088],[-0.880209,51.511612],[-0.880796,51.513274],[-0.880263,51.515126],[-0.880523,51.516367],[-0.878496,51.518136],[-0.878218,51.523018],[-0.878796,51.523728],[-0.887998,51.530131],[-0.892619,51.532709],[-0.895793,51.533799],[-0.899805,51.536199],[-0.900294,51.537149],[-0.900127,51.540264],[-0.893636,51.549312],[-0.890382,51.554858],[-0.88958,51.55697],[-0.88737,51.559471],[-0.883479,51.56144],[-0.879723,51.562128],[-0.875599,51.561739],[-0.872748,51.560311],[-0.871155,51.557666],[-0.86793,51.556202],[-0.864965,51.553181],[-0.863634,51.549941],[-0.862525,51.54902],[-0.859926,51.548365]]]}}]}