{"type":"FeatureCollection","features":[{"type":"Feature","properties":{"slug":"worcester","gss_code":"E07000237","name":"Worcester"},"geometry":{"type":"Polygon","coordinates":[[[-2.209157,52.224829],[-2.194247,52.223492],[-2.188878,52.221201],[-2.171132,52.21767],[-2.168295,52.216851],[-2.163249,52.214336],[-2.159625,52.213394],[-2.159328,52.213701],[-2.158314,52.213767],[-2.1568,52.213084],[-2.156785,52.212568],[-2.15757,52.212023],[-2.158293,52.211996],[-2.162498,52.203312],[-2.167015,52.196459],[-2.170882,52.184574],[-2.179818,52.184057],[-2.179678,52.183666],[-2.182875,52.182903],[-2.182717,52.181905],[-2.184862,52.179932],[-2.184947,52.178583],[-2.187377,52.178167],[-2.186058,52.176703],[-2.188493,52.175612],[-2.186991,52.174566],[-2.186335,52.174515],[-2.186353,52.174169],[-2.186723,52.172597],[-2.188619,52.171012],[-2.189638,52.170479],[-2.191001,52.170907],[-2.191684,52.170252],[-2.195043,52.170347],[-2.196514,52.170106],[-2.196751,52.169742],[-2.200025,52.169488],[-2.200272,52.16915],[-2.199796,52.1682],[-2.203369,52.167318],[-2.203408,52.166863],[-2.20469,52.166433],[-2.205325,52.165635],[-2.206444,52.165359],[-2.207413,52.164454],[-2.211555,52.164196],[-2.21168,52.163373],[-2.211036,52.162537],[-2.214318,52.161673],[-2.21635,52.161648],[-2.217602,52.161995],[-2.217769,52.163096],[-2.21968,52.165437],[-2.220466,52.167314],[-2.221079,52.16798],[-2.222045,52.168336],[-2.224909,52.168304],[-2.225875,52.168022],[-2.227434,52.166715],[-2.225389,52.166459],[-2.224046,52.165507],[-2.225716,52.164838],[-2.226743,52.163757],[-2.227495,52.163602],[-2.228261,52.164166],[-2.228168,52.165931],[-2.228686,52.167648],[-2.230201,52.16871],[-2.231513,52.168874],[-2.232714,52.169677],[-2.235172,52.169264],[-2.237297,52.169459],[-2.238907,52.169059],[-2.240629,52.169496],[-2.242113,52.17031],[-2.243046,52.16991],[-2.243424,52.169026],[-2.244185,52.168898],[-2.247346,52.169762],[-2.245405,52.171136],[-2.244228,52.171446],[-2.245343,52.171844],[-2.245575,52.172889],[-2.246771,52.173311],[-2.246268,52.173541],[-2.246997,52.173911],[-2.246379,52.174203],[-2.246894,52.17453],[-2.246315,52.175269],[-2.247147,52.176073],[-2.2467,52.176273],[-2.246589,52.176972],[-2.248932,52.178492],[-2.249468,52.180272],[-2.250827,52.181189],[-2.251252,52.180753],[-2.252953,52.180561],[-2.252715,52.181187],[-2.253262,52.181291],[-2.25379,52.182009],[-2.252621,52.183449],[-2.25299,52.183641],[-2.26176,52.181925],[-2.260866,52.182408],[-2.261422,52.184186],[-2.263205,52.184628],[-2.26292,52.185274],[-2.262299,52.185466],[-2.26208,52.189435],[-2.261235,52.190706],[-2.260015,52.190698],[-2.259946,52.191124],[-2.259283,52.191248],[-2.259473,52.191491],[-2.2581,52.191315],[-2.257358,52.192122],[-2.260437,52.192096],[-2.260395,52.194155],[-2.260019,52.195052],[-2.260532,52.196343],[-2.257077,52.196704],[-2.255003,52.196167],[-2.251418,52.196645],[-2.250245,52.197426],[-2.25091,52.199765],[-2.247096,52.201889],[-2.247566,52.202581],[-2.247022,52.20316],[-2.247247,52.204112],[-2.248799,52.204296],[-2.249789,52.205881],[-2.249185,52.206015],[-2.248911,52.206663],[-2.249435,52.207096],[-2.248784,52.207301],[-2.247756,52.208448],[-2.248857,52.210639],[-2.248494,52.210958],[-2.247982,52.210525],[-2.245673,52.211323],[-2.243023,52.208966],[-2.242544,52.209179],[-2.242291,52.208965],[-2.238219,52.210651],[-2.234886,52.211457],[-2.237749,52.214202],[-2.239649,52.215479],[-2.242665,52.216697],[-2.243538,52.217464],[-2.243986,52.219989],[-2.243272,52.221854],[-2.239956,52.221486],[-2.239896,52.222716],[-2.238015,52.222478],[-2.237936,52.222197],[-2.235858,52.222346],[-2.235532,52.222114],[-2.234893,52.223466],[-2.235032,52.225347],[-2.233476,52.22675],[-2.228767,52.22484],[-2.228311,52.224918],[-2.22673,52.227867],[-2.222474,52.231383],[-2.221576,52.231405],[-2.221213,52.230838],[-2.218568,52.229696],[-2.211144,52.225582],[-2.209157,52.224829]]]}}]}