{"type":"FeatureCollection","features":[{"type":"Feature","properties":{"slug":"worthing","gss_code":"E07000229","name":"Worthing"},"geometry":{"type":"Polygon","coordinates":[[[-0.377859,50.861465],[-0.375124,50.861449],[-0.371256,50.860773],[-0.367453,50.860532],[-0.368048,50.858308],[-0.367118,50.856244],[-0.368996,50.855282],[-0.367233,50.851808],[-0.36686,50.849033],[-0.365415,50.846926],[-0.362094,50.84689],[-0.36207,50.846537],[-0.360248,50.846246],[-0.358521,50.843534],[-0.359475,50.842445],[-0.359678,50.841449],[-0.359366,50.839677],[-0.359732,50.838237],[-0.359337,50.837956],[-0.359565,50.83665],[-0.358837,50.834189],[-0.357117,50.834325],[-0.358343,50.830639],[-0.354172,50.829592],[-0.353194,50.829042],[-0.355708,50.827699],[-0.355465,50.827096],[-0.354305,50.826821],[-0.35416,50.826008],[-0.353777,50.826004],[-0.353262,50.825236],[-0.351794,50.824902],[-0.350741,50.822872],[-0.349426,50.822549],[-0.344179,50.823356],[-0.343893,50.822721],[-0.342872,50.82231],[-0.340838,50.822673],[-0.340663,50.822349],[-0.338735,50.822064],[-0.334184,50.819073],[-0.332655,50.817419],[-0.33604,50.816222],[-0.343706,50.814382],[-0.35234,50.812635],[-0.357278,50.812015],[-0.363423,50.810412],[-0.363833,50.810024],[-0.372518,50.808589],[-0.374607,50.808599],[-0.375054,50.808337],[-0.388413,50.806783],[-0.399948,50.805732],[-0.420868,50.805085],[-0.422395,50.804834],[-0.422567,50.804342],[-0.436028,50.803138],[-0.43836,50.810633],[-0.439266,50.812485],[-0.440114,50.812469],[-0.440348,50.812833],[-0.442682,50.819156],[-0.44224,50.819982],[-0.442946,50.819847],[-0.443659,50.82146],[-0.445111,50.827493],[-0.4437,50.831578],[-0.443588,50.833078],[-0.445935,50.834767],[-0.446532,50.836326],[-0.445683,50.83621],[-0.445456,50.836777],[-0.443344,50.837192],[-0.446007,50.839854],[-0.438544,50.840676],[-0.431873,50.839703],[-0.425275,50.839852],[-0.4223,50.840677],[-0.422018,50.845143],[-0.423022,50.848115],[-0.421958,50.850854],[-0.422883,50.851768],[-0.424147,50.854855],[-0.424298,50.856926],[-0.422794,50.860235],[-0.420048,50.860083],[-0.416769,50.857075],[-0.415385,50.856679],[-0.416071,50.856343],[-0.415586,50.855181],[-0.411154,50.85383],[-0.40928,50.852264],[-0.407281,50.852831],[-0.406897,50.853583],[-0.403324,50.856485],[-0.396922,50.858085],[-0.395346,50.859106],[-0.392457,50.859655],[-0.388237,50.859531],[-0.382785,50.862708],[-0.381267,50.863224],[-0.378845,50.86263],[-0.377859,50.861465]]]}}]}