{"type":"FeatureCollection","features":[{"type":"Feature","properties":{"slug":"wychavon","gss_code":"E07000238","name":"Wychavon"},"geometry":{"type":"Polygon","coordinates":[[[-2.219097,52.359124],[-2.210219,52.354967],[-2.210638,52.354422],[-2.2079,52.35323],[-2.207675,52.351688],[-2.205335,52.350707],[-2.204741,52.348045],[-2.205098,52.345625],[-2.20213,52.344863],[-2.19558,52.34128],[-2.195579,52.340664],[-2.19395,52.340017],[-2.192812,52.337821],[-2.192026,52.337552],[-2.192155,52.336947],[-2.192809,52.336925],[-2.19251,52.336469],[-2.192817,52.33599],[-2.193177,52.336115],[-2.193487,52.3353],[-2.192607,52.334558],[-2.19245,52.333472],[-2.190445,52.331891],[-2.190473,52.328949],[-2.187296,52.329199],[-2.184933,52.330102],[-2.18287,52.330333],[-2.181287,52.331045],[-2.17779,52.331794],[-2.174701,52.331396],[-2.173698,52.331767],[-2.170978,52.331742],[-2.170927,52.330602],[-2.17217,52.328333],[-2.172999,52.32798],[-2.173729,52.32688],[-2.175139,52.322713],[-2.1749,52.320848],[-2.175274,52.319697],[-2.174565,52.316609],[-2.173149,52.317218],[-2.16901,52.317203],[-2.166777,52.318347],[-2.167455,52.318582],[-2.167901,52.319315],[-2.167516,52.320346],[-2.167641,52.324458],[-2.164475,52.325986],[-2.163284,52.327523],[-2.159908,52.330227],[-2.157606,52.330967],[-2.156068,52.331052],[-2.156506,52.332816],[-2.156233,52.333383],[-2.155033,52.33394],[-2.154381,52.335265],[-2.151925,52.337002],[-2.152589,52.338798],[-2.151956,52.341535],[-2.150962,52.343678],[-2.148859,52.346308],[-2.148504,52.346394],[-2.146258,52.345243],[-2.142695,52.346939],[-2.142044,52.347967],[-2.140414,52.348045],[-2.13886,52.348542],[-2.137169,52.34998],[-2.133017,52.348013],[-2.132006,52.350117],[-2.130731,52.351328],[-2.129723,52.352049],[-2.127727,52.352238],[-2.127325,52.351975],[-2.129086,52.350677],[-2.131471,52.34708],[-2.129031,52.345641],[-2.126386,52.345569],[-2.125341,52.343947],[-2.123094,52.342764],[-2.122775,52.34238],[-2.124752,52.341993],[-2.124681,52.340264],[-2.121291,52.340334],[-2.119283,52.341458],[-2.118858,52.342224],[-2.116979,52.342026],[-2.117416,52.341634],[-2.116774,52.340113],[-2.11609,52.340181],[-2.116465,52.338764],[-2.114198,52.338522],[-2.114167,52.337818],[-2.113283,52.337162],[-2.113514,52.336318],[-2.114668,52.335336],[-2.11523,52.335129],[-2.116283,52.335538],[-2.117533,52.335331],[-2.118475,52.332088],[-2.116149,52.3271],[-2.117035,52.327257],[-2.117614,52.326568],[-2.117298,52.325177],[-2.11859,52.325171],[-2.117863,52.323032],[-2.118387,52.322748],[-2.115747,52.322097],[-2.118591,52.319041],[-2.122194,52.316625],[-2.124055,52.314503],[-2.117126,52.313145],[-2.114308,52.313173],[-2.114482,52.313459],[-2.11234,52.314426],[-2.10996,52.314609],[-2.102167,52.31345],[-2.10031,52.313429],[-2.095643,52.314543],[-2.094112,52.315424],[-2.095104,52.313366],[-2.08633,52.314525],[-2.085164,52.313499],[-2.085861,52.313217],[-2.085186,52.312707],[-2.085278,52.312141],[-2.087232,52.309894],[-2.088708,52.306339],[-2.090402,52.304922],[-2.090308,52.303864],[-2.08969,52.303403],[-2.08796,52.303839],[-2.087678,52.303519],[-2.08488,52.296953],[-2.087424,52.294483],[-2.091791,52.288574],[-2.089337,52.289485],[-2.087584,52.289049],[-2.084296,52.28886],[-2.076741,52.289079],[-2.074195,52.288635],[-2.070821,52.287292],[-2.061853,52.284743],[-2.060889,52.284194],[-2.055543,52.284705],[-2.051201,52.286972],[-2.047012,52.287863],[-2.043319,52.287398],[-2.041525,52.286517],[-2.038388,52.28563],[-2.035975,52.284219],[-2.035619,52.284318],[-2.035233,52.283652],[-2.033894,52.283151],[-2.0344,52.282832],[-2.033888,52.282639],[-2.033317,52.282894],[-2.033116,52.282651],[-2.030467,52.282544],[-2.027616,52.28101],[-2.024819,52.280382],[-2.023255,52.278099],[-2.022901,52.278433],[-2.020915,52.278727],[-2.02002,52.279554],[-2.01505,52.278516],[-2.011692,52.278366],[-2.010354,52.278743],[-2.009154,52.27806],[-2.00797,52.278681],[-2.006309,52.278531],[-2.005018,52.279086],[-2.004763,52.279527],[-2.003939,52.279249],[-2.00246,52.279582],[-2.003909,52.278605],[-2.002492,52.276805],[-2.005404,52.275677],[-2.006657,52.275688],[-2.007044,52.275386],[-2.003198,52.273632],[-2.004208,52.272022],[-2.00583,52.270593],[-2.007162,52.270253],[-2.009796,52.270905],[-2.011544,52.27088],[-2.012158,52.270524],[-2.01553,52.270002],[-2.015389,52.267251],[-2.013239,52.266128],[-2.013986,52.26568],[-2.013231,52.264258],[-2.012234,52.264425],[-2.012091,52.26304],[-2.01124,52.262885],[-2.011241,52.262627],[-2.011355,52.26008],[-2.013333,52.257633],[-2.012985,52.257765],[-2.013764,52.25647],[-2.01311,52.255403],[-2.013327,52.254311],[-2.013725,52.253235],[-2.015413,52.252372],[-2.017275,52.247075],[-2.017886,52.243666],[-2.01891,52.241472],[-2.018864,52.240508],[-2.016739,52.237275],[-2.0157,52.236983],[-2.015124,52.237485],[-2.014415,52.237102],[-2.014474,52.236697],[-2.01308,52.236827],[-2.009518,52.236101],[-2.00907,52.236504],[-2.007957,52.236671],[-2.006424,52.23627],[-2.005853,52.235589],[-1.997487,52.236189],[-1.9974,52.235773],[-1.994656,52.235271],[-1.993508,52.235589],[-1.993081,52.236294],[-1.994022,52.239861],[-1.991323,52.239474],[-1.990372,52.23842],[-1.987096,52.238068],[-1.986285,52.237623],[-1.985242,52.237961],[-1.983522,52.237681],[-1.982413,52.238683],[-1.981604,52.238218],[-1.975073,52.236772],[-1.97294,52.237558],[-1.967622,52.237036],[-1.966229,52.23901],[-1.964984,52.240035],[-1.963135,52.239832],[-1.962739,52.240461],[-1.961411,52.24076],[-1.959606,52.240685],[-1.958629,52.240039],[-1.958578,52.241621],[-1.957881,52.241693],[-1.957606,52.24282],[-1.95503,52.244069],[-1.952995,52.243682],[-1.952824,52.24419],[-1.952474,52.24411],[-1.951262,52.245085],[-1.951646,52.247145],[-1.949774,52.248101],[-1.947425,52.24829],[-1.947278,52.24907],[-1.946388,52.250052],[-1.946668,52.250715],[-1.946056,52.250778],[-1.946054,52.251183],[-1.942221,52.25175],[-1.93951,52.251526],[-1.939338,52.252008],[-1.939097,52.251742],[-1.935862,52.251915],[-1.935961,52.252201],[-1.934611,52.252018],[-1.933669,52.249822],[-1.931241,52.247881],[-1.931911,52.247553],[-1.928181,52.244835],[-1.926697,52.242749],[-1.926215,52.242915],[-1.925432,52.242571],[-1.924651,52.240875],[-1.923922,52.240184],[-1.925444,52.239015],[-1.924134,52.234762],[-1.917488,52.223697],[-1.917293,52.218962],[-1.919772,52.214059],[-1.920075,52.210291],[-1.921852,52.210221],[-1.923073,52.208891],[-1.926928,52.208932],[-1.930204,52.208038],[-1.932025,52.206454],[-1.933628,52.206059],[-1.935527,52.204193],[-1.935966,52.202931],[-1.93645,52.202655],[-1.936477,52.200706],[-1.935666,52.199992],[-1.936576,52.197058],[-1.934841,52.192893],[-1.935756,52.191241],[-1.935693,52.190042],[-1.937709,52.188215],[-1.939452,52.184539],[-1.939776,52.181706],[-1.941641,52.177406],[-1.944628,52.174733],[-1.946181,52.174404],[-1.946687,52.173929],[-1.949349,52.172962],[-1.953207,52.1738],[-1.958658,52.174257],[-1.960675,52.174025],[-1.961628,52.172655],[-1.961966,52.170737],[-1.960448,52.16951],[-1.960407,52.168672],[-1.951369,52.169191],[-1.947215,52.167947],[-1.945546,52.170356],[-1.943475,52.170935],[-1.935483,52.169557],[-1.935343,52.168248],[-1.934554,52.167825],[-1.934957,52.165992],[-1.934119,52.165394],[-1.937299,52.163408],[-1.937736,52.16131],[-1.939693,52.160316],[-1.939527,52.159652],[-1.938962,52.159543],[-1.939227,52.158907],[-1.941982,52.157269],[-1.944302,52.155333],[-1.942127,52.154396],[-1.940053,52.153016],[-1.933626,52.153512],[-1.921852,52.152954],[-1.91838,52.149353],[-1.916878,52.146716],[-1.913432,52.144984],[-1.910886,52.144378],[-1.907323,52.142737],[-1.9051,52.142737],[-1.904357,52.14154],[-1.904184,52.140019],[-1.902188,52.137723],[-1.902427,52.135889],[-1.903553,52.133509],[-1.903238,52.133448],[-1.902603,52.134253],[-1.90126,52.134752],[-1.900216,52.135726],[-1.892904,52.13861],[-1.890577,52.141705],[-1.887073,52.14464],[-1.884967,52.147139],[-1.88634,52.148566],[-1.887057,52.148311],[-1.888377,52.148601],[-1.88973,52.148432],[-1.890475,52.148852],[-1.891343,52.147962],[-1.891856,52.147878],[-1.89333,52.148188],[-1.893839,52.147978],[-1.89423,52.148251],[-1.895188,52.150478],[-1.894918,52.150952],[-1.893507,52.151089],[-1.893853,52.151961],[-1.892067,52.154155],[-1.891812,52.155066],[-1.890072,52.156097],[-1.888944,52.156357],[-1.886527,52.156115],[-1.885522,52.156422],[-1.884292,52.156225],[-1.883884,52.155821],[-1.882781,52.156004],[-1.882125,52.155432],[-1.881621,52.155537],[-1.880541,52.154873],[-1.876407,52.154805],[-1.869075,52.153166],[-1.866927,52.153008],[-1.866107,52.150305],[-1.866802,52.150068],[-1.863877,52.147038],[-1.865725,52.145964],[-1.866962,52.14464],[-1.863266,52.142846],[-1.859708,52.140509],[-1.854188,52.138521],[-1.849837,52.139384],[-1.848337,52.140347],[-1.847295,52.141888],[-1.84581,52.142654],[-1.846908,52.147186],[-1.850971,52.146471],[-1.851904,52.14797],[-1.847563,52.148634],[-1.84823,52.149973],[-1.839672,52.152714],[-1.839319,52.151803],[-1.83752,52.150437],[-1.833543,52.148137],[-1.831004,52.148307],[-1.83147,52.145674],[-1.828674,52.146346],[-1.823348,52.145925],[-1.825304,52.14271],[-1.825443,52.141812],[-1.827845,52.141245],[-1.824612,52.138725],[-1.825087,52.138291],[-1.824498,52.137692],[-1.824854,52.137449],[-1.823217,52.136382],[-1.81732,52.138596],[-1.810888,52.13992],[-1.808434,52.139876],[-1.802346,52.137637],[-1.801521,52.136984],[-1.79967,52.136277],[-1.785548,52.132059],[-1.786271,52.131845],[-1.786583,52.131367],[-1.789925,52.130486],[-1.789208,52.129845],[-1.790246,52.129403],[-1.790273,52.128951],[-1.79168,52.128572],[-1.79277,52.127824],[-1.792237,52.127122],[-1.793125,52.12654],[-1.793318,52.125464],[-1.795774,52.124442],[-1.793913,52.123867],[-1.793888,52.122969],[-1.792992,52.122862],[-1.792871,52.122139],[-1.793318,52.121778],[-1.791004,52.120194],[-1.78777,52.119511],[-1.780627,52.120143],[-1.780699,52.119016],[-1.780083,52.119082],[-1.778432,52.118313],[-1.775166,52.118256],[-1.773001,52.116837],[-1.770589,52.116124],[-1.7697,52.115314],[-1.764632,52.115885],[-1.763223,52.116366],[-1.762459,52.115233],[-1.760285,52.116251],[-1.75941,52.115537],[-1.757834,52.11613],[-1.757398,52.115944],[-1.759207,52.114964],[-1.771012,52.111874],[-1.773932,52.110631],[-1.785685,52.107038],[-1.789668,52.106237],[-1.788259,52.103634],[-1.790135,52.100592],[-1.791724,52.099611],[-1.795543,52.100773],[-1.802289,52.096941],[-1.806459,52.092669],[-1.809792,52.08756],[-1.809187,52.087217],[-1.80936,52.085885],[-1.813121,52.082754],[-1.812283,52.081934],[-1.812737,52.078744],[-1.813943,52.078726],[-1.816127,52.079612],[-1.817818,52.084794],[-1.818943,52.085404],[-1.822466,52.08114],[-1.829786,52.075269],[-1.8318,52.073215],[-1.831753,52.072769],[-1.834466,52.073111],[-1.837636,52.074275],[-1.84662,52.079421],[-1.849185,52.077279],[-1.850884,52.074555],[-1.853389,52.072367],[-1.854365,52.072869],[-1.855607,52.074441],[-1.863179,52.073775],[-1.869045,52.073857],[-1.872005,52.071917],[-1.869499,52.071385],[-1.872918,52.070162],[-1.874406,52.069991],[-1.871682,52.065426],[-1.864988,52.066278],[-1.862877,52.063432],[-1.861403,52.058311],[-1.861814,52.055833],[-1.863449,52.053418],[-1.861551,52.05289],[-1.861271,52.052365],[-1.860497,52.052542],[-1.860243,52.052144],[-1.859315,52.052423],[-1.85917,52.052159],[-1.857325,52.052247],[-1.853842,52.049761],[-1.847814,52.046537],[-1.838889,52.043707],[-1.834589,52.043733],[-1.83484,52.043288],[-1.832944,52.041764],[-1.832406,52.040134],[-1.829751,52.039072],[-1.830127,52.037687],[-1.829413,52.037217],[-1.829087,52.03633],[-1.830626,52.032832],[-1.83056,52.032139],[-1.82932,52.031803],[-1.828951,52.032074],[-1.825023,52.030933],[-1.826238,52.029146],[-1.83566,52.022503],[-1.834122,52.01702],[-1.834408,52.014611],[-1.835667,52.011232],[-1.835309,52.009162],[-1.83905,52.006783],[-1.840025,52.007308],[-1.841308,52.006917],[-1.843281,52.008088],[-1.844476,52.008325],[-1.847254,52.007657],[-1.85107,52.008403],[-1.854802,52.010202],[-1.856755,52.010645],[-1.857106,52.0112],[-1.859885,52.012737],[-1.861544,52.012628],[-1.862019,52.013357],[-1.863794,52.014417],[-1.862269,52.017485],[-1.867296,52.017965],[-1.873574,52.024328],[-1.876433,52.025285],[-1.879306,52.026947],[-1.885014,52.029501],[-1.88801,52.031462],[-1.891333,52.03283],[-1.896431,52.035905],[-1.90324,52.038892],[-1.909109,52.042661],[-1.913446,52.044461],[-1.915689,52.041697],[-1.916684,52.042099],[-1.91914,52.038857],[-1.919736,52.03892],[-1.920051,52.038199],[-1.920529,52.03814],[-1.922157,52.035615],[-1.927045,52.036661],[-1.929622,52.032296],[-1.931698,52.029889],[-1.933979,52.030868],[-1.939958,52.032185],[-1.942311,52.032317],[-1.945741,52.031634],[-1.947465,52.031801],[-1.947948,52.033905],[-1.94914,52.035096],[-1.950339,52.035347],[-1.950816,52.035863],[-1.950481,52.036526],[-1.951019,52.036575],[-1.951371,52.037699],[-1.954081,52.03703],[-1.954265,52.037291],[-1.956859,52.037042],[-1.963378,52.036055],[-1.984136,52.035879],[-1.992579,52.029288],[-1.993993,52.02782],[-1.993939,52.027395],[-1.99519,52.026563],[-1.997558,52.029898],[-1.998565,52.029668],[-2.007686,52.023885],[-2.013424,52.021348],[-2.016977,52.020257],[-2.019643,52.018694],[-2.023659,52.016953],[-2.02166,52.015655],[-2.029271,52.01284],[-2.028084,52.012345],[-2.028184,52.011868],[-2.027385,52.011515],[-2.026997,52.010588],[-2.030846,52.009771],[-2.038253,52.009563],[-2.037948,52.00794],[-2.036782,52.007016],[-2.037153,52.006632],[-2.036837,52.006043],[-2.038356,52.004601],[-2.044954,52.003649],[-2.049514,52.003796],[-2.050089,52.006019],[-2.048683,52.007115],[-2.049299,52.007013],[-2.050159,52.007392],[-2.051556,52.008753],[-2.053213,52.008637],[-2.057195,52.009822],[-2.059294,52.009474],[-2.059916,52.010826],[-2.060238,52.014208],[-2.06078,52.014663],[-2.061632,52.014311],[-2.062388,52.014404],[-2.062922,52.013853],[-2.063887,52.014151],[-2.066545,52.013551],[-2.066681,52.01308],[-2.068756,52.013001],[-2.070946,52.011848],[-2.07164,52.011939],[-2.071451,52.012193],[-2.072418,52.011558],[-2.074599,52.011814],[-2.075721,52.011539],[-2.076166,52.011897],[-2.07676,52.011677],[-2.076749,52.011041],[-2.078127,52.011086],[-2.078845,52.011698],[-2.080771,52.010766],[-2.08348,52.011089],[-2.084583,52.010847],[-2.084873,52.010479],[-2.086148,52.011145],[-2.086863,52.01076],[-2.091359,52.011423],[-2.092356,52.011113],[-2.093051,52.011582],[-2.093378,52.011284],[-2.094147,52.01148],[-2.093921,52.0118],[-2.095535,52.011634],[-2.095661,52.011991],[-2.096792,52.011404],[-2.09689,52.01168],[-2.097712,52.011784],[-2.097515,52.012528],[-2.098106,52.013244],[-2.099378,52.012864],[-2.099736,52.013192],[-2.103826,52.014087],[-2.105352,52.013999],[-2.107604,52.014587],[-2.108724,52.014279],[-2.111571,52.014799],[-2.111654,52.015353],[-2.11361,52.014979],[-2.113892,52.014602],[-2.115918,52.014331],[-2.116346,52.014567],[-2.117356,52.014177],[-2.118054,52.014385],[-2.118546,52.013946],[-2.118273,52.013747],[-2.119041,52.013563],[-2.119135,52.013236],[-2.119496,52.013513],[-2.12007,52.013176],[-2.120374,52.011697],[-2.121117,52.011293],[-2.12336,52.010905],[-2.124056,52.010224],[-2.12386,52.01001],[-2.125857,52.009046],[-2.127147,52.007281],[-2.127868,52.007221],[-2.129631,52.006298],[-2.130709,52.006459],[-2.130769,52.006124],[-2.131523,52.005907],[-2.132029,52.005322],[-2.131926,52.003994],[-2.132685,52.003061],[-2.13235,52.002743],[-2.133426,52.002513],[-2.133247,52.001685],[-2.135202,51.999704],[-2.136847,51.999854],[-2.13932,51.999415],[-2.141858,51.999815],[-2.139708,52.000239],[-2.139144,52.000637],[-2.139496,52.001544],[-2.140819,52.002396],[-2.139064,52.00395],[-2.141729,52.004583],[-2.142472,52.004139],[-2.143736,52.004096],[-2.145408,52.004759],[-2.146288,52.004579],[-2.150782,52.006628],[-2.149655,52.011256],[-2.147725,52.012952],[-2.146072,52.013696],[-2.145218,52.014723],[-2.144646,52.016692],[-2.142273,52.019776],[-2.141172,52.024537],[-2.140048,52.026401],[-2.14004,52.027272],[-2.139397,52.027892],[-2.136539,52.029302],[-2.129293,52.029793],[-2.125886,52.030505],[-2.117922,52.033072],[-2.11722,52.033614],[-2.115597,52.036279],[-2.116242,52.03694],[-2.11609,52.03787],[-2.11721,52.039262],[-2.118386,52.042117],[-2.120432,52.042155],[-2.126252,52.043203],[-2.133573,52.046325],[-2.137357,52.045813],[-2.14248,52.045666],[-2.147098,52.046762],[-2.149305,52.046885],[-2.153398,52.048235],[-2.155248,52.048516],[-2.155426,52.049318],[-2.157283,52.05],[-2.161836,52.050595],[-2.164437,52.050103],[-2.166192,52.049143],[-2.168292,52.048763],[-2.170539,52.047093],[-2.170755,52.047534],[-2.171369,52.047611],[-2.170784,52.049084],[-2.171067,52.049675],[-2.170061,52.050059],[-2.169734,52.05552],[-2.173505,52.0553],[-2.175392,52.058651],[-2.169953,52.059246],[-2.16556,52.060881],[-2.161358,52.060514],[-2.158128,52.061227],[-2.155036,52.063539],[-2.154056,52.066009],[-2.15383,52.069063],[-2.153201,52.069809],[-2.153355,52.071348],[-2.151035,52.073534],[-2.151292,52.074227],[-2.149978,52.075426],[-2.149757,52.076772],[-2.155811,52.076537],[-2.156791,52.082479],[-2.158319,52.08453],[-2.157105,52.085577],[-2.156243,52.088976],[-2.154823,52.090269],[-2.15534,52.093398],[-2.151652,52.093428],[-2.151728,52.094916],[-2.1512,52.096151],[-2.149549,52.099737],[-2.148794,52.099652],[-2.148754,52.103251],[-2.151706,52.105896],[-2.151846,52.107458],[-2.155227,52.107725],[-2.156807,52.107448],[-2.158758,52.107867],[-2.159674,52.10879],[-2.162613,52.109356],[-2.16927,52.108348],[-2.171837,52.108749],[-2.175916,52.110776],[-2.176621,52.110735],[-2.176419,52.112444],[-2.180928,52.11332],[-2.181496,52.115223],[-2.1827,52.115282],[-2.183052,52.116014],[-2.184611,52.117265],[-2.185815,52.117733],[-2.18393,52.119968],[-2.187626,52.122154],[-2.196406,52.124835],[-2.195297,52.126089],[-2.193727,52.129242],[-2.192149,52.130209],[-2.190614,52.130542],[-2.18809,52.130018],[-2.185707,52.130342],[-2.182527,52.132214],[-2.177265,52.134407],[-2.174477,52.135098],[-2.172839,52.135012],[-2.17355,52.136858],[-2.17243,52.137926],[-2.17174,52.140436],[-2.169233,52.140781],[-2.167744,52.141784],[-2.164922,52.142829],[-2.16788,52.144204],[-2.166691,52.145601],[-2.169464,52.144806],[-2.18013,52.145583],[-2.186029,52.145479],[-2.189576,52.14602],[-2.19461,52.15128],[-2.195964,52.154984],[-2.196868,52.155846],[-2.196285,52.158648],[-2.197239,52.162415],[-2.19971,52.164648],[-2.20169,52.167138],[-2.203369,52.167318],[-2.199796,52.1682],[-2.200272,52.16915],[-2.200025,52.169488],[-2.196751,52.169742],[-2.196514,52.170106],[-2.195043,52.170347],[-2.191684,52.170252],[-2.191001,52.170907],[-2.189638,52.170479],[-2.188619,52.171012],[-2.186723,52.172597],[-2.186353,52.174169],[-2.186335,52.174515],[-2.186991,52.174566],[-2.188493,52.175612],[-2.186058,52.176703],[-2.187377,52.178167],[-2.184947,52.178583],[-2.184862,52.179932],[-2.182717,52.181905],[-2.182875,52.182903],[-2.179678,52.183666],[-2.179818,52.184057],[-2.170882,52.184574],[-2.167015,52.196459],[-2.162498,52.203312],[-2.158293,52.211996],[-2.15757,52.212023],[-2.156785,52.212568],[-2.1568,52.213084],[-2.158314,52.213767],[-2.159328,52.213701],[-2.159625,52.213394],[-2.163249,52.214336],[-2.168295,52.216851],[-2.171132,52.21767],[-2.188878,52.221201],[-2.194247,52.223492],[-2.209157,52.224829],[-2.211144,52.225582],[-2.218568,52.229696],[-2.221213,52.230838],[-2.221576,52.231405],[-2.222474,52.231383],[-2.22673,52.227867],[-2.228311,52.224918],[-2.228767,52.22484],[-2.233476,52.22675],[-2.235032,52.225347],[-2.234893,52.223466],[-2.235532,52.222114],[-2.235858,52.222346],[-2.237936,52.222197],[-2.238015,52.222478],[-2.239896,52.222716],[-2.239956,52.221486],[-2.243272,52.221854],[-2.240792,52.225418],[-2.241739,52.227319],[-2.242213,52.230066],[-2.241796,52.232101],[-2.240642,52.232588],[-2.24083,52.233291],[-2.239587,52.234412],[-2.235997,52.235179],[-2.233017,52.236575],[-2.232639,52.237052],[-2.233562,52.238465],[-2.235352,52.240065],[-2.23575,52.241577],[-2.233371,52.245761],[-2.231625,52.247746],[-2.231332,52.248893],[-2.232073,52.250155],[-2.233879,52.251186],[-2.234914,52.252708],[-2.235627,52.252811],[-2.237329,52.255651],[-2.238131,52.256153],[-2.237918,52.257103],[-2.244106,52.260174],[-2.248137,52.263998],[-2.252201,52.26689],[-2.256125,52.267976],[-2.260489,52.26827],[-2.26628,52.268102],[-2.268586,52.268627],[-2.273975,52.270828],[-2.274862,52.271595],[-2.275111,52.272768],[-2.274226,52.276115],[-2.270686,52.2806],[-2.270389,52.282845],[-2.271253,52.286523],[-2.274899,52.292747],[-2.274817,52.295592],[-2.275712,52.297919],[-2.276047,52.301356],[-2.274983,52.304997],[-2.27489,52.30873],[-2.273839,52.311265],[-2.265384,52.319375],[-2.265121,52.320851],[-2.266415,52.323605],[-2.264642,52.323408],[-2.264398,52.325572],[-2.261152,52.326401],[-2.260368,52.328307],[-2.261947,52.329459],[-2.265549,52.330131],[-2.269375,52.331852],[-2.270342,52.332128],[-2.270856,52.331648],[-2.271776,52.332632],[-2.267964,52.333754],[-2.267829,52.333499],[-2.266834,52.333648],[-2.267302,52.334174],[-2.267971,52.334092],[-2.269715,52.335166],[-2.269212,52.336283],[-2.268475,52.336091],[-2.268061,52.336646],[-2.266329,52.335938],[-2.264075,52.335948],[-2.263304,52.336855],[-2.263096,52.338141],[-2.261794,52.338072],[-2.260733,52.33842],[-2.260844,52.339018],[-2.261721,52.339683],[-2.261223,52.340662],[-2.26196,52.340832],[-2.257015,52.341697],[-2.254002,52.341128],[-2.252014,52.344378],[-2.249514,52.345672],[-2.251682,52.345857],[-2.2498,52.348988],[-2.249444,52.34886],[-2.245822,52.353027],[-2.246762,52.353252],[-2.245703,52.354923],[-2.248261,52.355463],[-2.245684,52.361036],[-2.242962,52.360833],[-2.241563,52.360358],[-2.231373,52.361217],[-2.225413,52.360463],[-2.219097,52.359124]]]}}]}