{"type":"FeatureCollection","features":[{"type":"Feature","properties":{"slug":"wyre","gss_code":"E07000128","name":"Wyre"},"geometry":{"type":"MultiPolygon","coordinates":[[[[-2.942836,53.851049],[-2.944031,53.85147],[-2.943729,53.852167],[-2.940144,53.853926],[-2.937735,53.854472],[-2.938073,53.853088],[-2.93949,53.852142],[-2.942836,53.851049]]],[[[-2.98103,53.858818],[-2.980869,53.858938],[-2.980804,53.858936],[-2.98103,53.858818]]],[[[-2.978557,53.860984],[-2.97854,53.861474],[-2.978461,53.861525],[-2.978557,53.860984]]],[[[-2.977828,53.861929],[-2.977824,53.861931],[-2.97782,53.861931],[-2.977828,53.861929]]],[[[-2.886602,53.863297],[-2.886957,53.863279],[-2.886529,53.863408],[-2.886602,53.863297]]],[[[-2.993987,53.907181],[-2.992143,53.90727],[-2.993322,53.905791],[-2.995211,53.906952],[-2.995712,53.905834],[-2.996453,53.907632],[-2.993987,53.907181]]],[[[-3.006504,53.927436],[-3.00601,53.927582],[-3.004892,53.926388],[-3.004022,53.923944],[-3.005676,53.92146],[-3.008223,53.920567],[-3.012606,53.919797],[-3.010575,53.918966],[-3.010072,53.919088],[-3.009224,53.918405],[-3.007531,53.918838],[-3.007103,53.918352],[-3.006287,53.918375],[-3.006317,53.918062],[-3.005672,53.91784],[-3.006061,53.914012],[-3.007053,53.913945],[-3.007473,53.914476],[-3.007091,53.913927],[-3.006172,53.913838],[-3.006545,53.913029],[-3.007114,53.912919],[-3.006557,53.912696],[-3.007594,53.910471],[-3.008153,53.910427],[-3.007642,53.910349],[-3.007726,53.907232],[-3.007265,53.905968],[-3.007911,53.905707],[-3.007613,53.904601],[-3.007718,53.905121],[-3.007361,53.904893],[-3.007865,53.905674],[-3.007227,53.905815],[-3.007032,53.905546],[-3.007516,53.909775],[-3.006136,53.912402],[-3.005675,53.902588],[-3.00639,53.902236],[-3.006388,53.901684],[-3.006902,53.901806],[-3.007559,53.902341],[-3.007721,53.904047],[-3.007619,53.902279],[-3.007095,53.901759],[-3.006428,53.901508],[-3.006502,53.901221],[-3.00872,53.901303],[-3.00864,53.902077],[-3.007947,53.902512],[-3.008098,53.903535],[-3.008503,53.903324],[-3.008272,53.902924],[-3.009818,53.902792],[-3.008373,53.902879],[-3.008133,53.902648],[-3.009024,53.901882],[-3.008921,53.90116],[-3.009424,53.901166],[-3.010355,53.902071],[-3.009456,53.900743],[-3.008913,53.900768],[-3.008208,53.900121],[-3.00803,53.900701],[-3.006692,53.900723],[-3.006797,53.900061],[-3.006162,53.899049],[-3.006741,53.90007],[-3.006149,53.902107],[-3.005695,53.902003],[-3.004983,53.898924],[-3.006016,53.898737],[-3.00572,53.89858],[-3.006361,53.898375],[-3.005258,53.898647],[-3.004826,53.897987],[-3.006595,53.897715],[-3.00611,53.897773],[-3.005898,53.897697],[-3.006141,53.897719],[-3.006632,53.897556],[-3.006134,53.897668],[-3.006705,53.89712],[-3.005469,53.897742],[-3.005139,53.897553],[-3.005401,53.896765],[-3.004839,53.897415],[-3.002819,53.894403],[-3.003279,53.894225],[-3.00223,53.893844],[-3.002687,53.893625],[-3.003275,53.893848],[-3.002697,53.893514],[-3.003046,53.893531],[-3.003155,53.892966],[-3.002012,53.893559],[-3.001176,53.893308],[-3.000388,53.892238],[-3.000393,53.890811],[-2.992685,53.885057],[-2.992075,53.885087],[-2.986614,53.882785],[-2.988013,53.883397],[-2.984489,53.882713],[-2.985407,53.881906],[-2.984494,53.882623],[-2.983891,53.882555],[-2.984303,53.882001],[-2.983764,53.882525],[-2.982851,53.882239],[-2.983661,53.881356],[-2.982765,53.882202],[-2.981152,53.881683],[-2.981679,53.881367],[-2.982951,53.881571],[-2.981784,53.881288],[-2.982297,53.880763],[-2.983027,53.880966],[-2.982391,53.880675],[-2.982947,53.880275],[-2.980657,53.881324],[-2.978991,53.880921],[-2.979219,53.880759],[-2.979244,53.880223],[-2.979149,53.880747],[-2.976958,53.880324],[-2.977014,53.880002],[-2.978232,53.879778],[-2.977726,53.879689],[-2.976534,53.880147],[-2.970894,53.8768],[-2.969322,53.875273],[-2.968826,53.873963],[-2.969005,53.873501],[-2.972886,53.871658],[-2.97768,53.871471],[-2.978997,53.871902],[-2.978,53.871476],[-2.979095,53.870487],[-2.979158,53.867947],[-2.977573,53.865632],[-2.977473,53.864141],[-2.977097,53.864135],[-2.976816,53.862781],[-2.976261,53.862335],[-2.978531,53.861796],[-2.978757,53.860404],[-2.979445,53.859742],[-2.979186,53.859241],[-2.980582,53.859071],[-2.981609,53.858719],[-2.981907,53.85816],[-2.980946,53.857498],[-2.978047,53.858107],[-2.977725,53.85794],[-2.97771,53.857622],[-2.978694,53.85736],[-2.978562,53.856837],[-2.979656,53.85525],[-2.979501,53.854483],[-2.978018,53.853361],[-2.977867,53.85285],[-2.974043,53.852205],[-2.972191,53.850971],[-2.971972,53.849937],[-2.967847,53.848854],[-2.965604,53.847342],[-2.965586,53.844645],[-2.967908,53.842191],[-2.970781,53.840459],[-2.96927,53.838723],[-2.968601,53.834827],[-2.967319,53.832541],[-2.965073,53.829891],[-2.961778,53.828347],[-2.963461,53.827599],[-2.966647,53.82689],[-2.970322,53.829202],[-2.986042,53.828439],[-2.986029,53.829017],[-2.986632,53.829257],[-2.987194,53.830205],[-2.993118,53.831029],[-2.993001,53.829495],[-3.002331,53.828723],[-3.004954,53.827288],[-3.007179,53.826988],[-3.009112,53.825355],[-3.010653,53.826194],[-3.010044,53.826444],[-3.013773,53.829206],[-3.012114,53.829511],[-3.010831,53.830524],[-3.008807,53.830378],[-3.007202,53.832901],[-3.00764,53.834042],[-3.009849,53.835046],[-3.01019,53.836473],[-3.012606,53.83778],[-3.013278,53.839026],[-3.015556,53.840711],[-3.017335,53.840383],[-3.017356,53.839323],[-3.016489,53.837516],[-3.019111,53.83709],[-3.019359,53.838942],[-3.019999,53.839009],[-3.020465,53.840769],[-3.01523,53.842775],[-3.017814,53.845201],[-3.01863,53.847026],[-3.017375,53.847622],[-3.018017,53.848271],[-3.015225,53.84902],[-3.015083,53.84994],[-3.014014,53.85032],[-3.020057,53.859331],[-3.020631,53.859438],[-3.021725,53.860449],[-3.022613,53.8617],[-3.022772,53.864322],[-3.021422,53.865505],[-3.01975,53.8686],[-3.026897,53.869241],[-3.027143,53.870166],[-3.031321,53.87472],[-3.047757,53.8756],[-3.048011,53.882474],[-3.047588,53.884397],[-3.046965,53.884879],[-3.046843,53.887336],[-3.047233,53.891671],[-3.047942,53.893951],[-3.04818,53.897747],[-3.049725,53.902117],[-3.049498,53.903274],[-3.050636,53.908361],[-3.050939,53.916156],[-3.050782,53.918064],[-3.048623,53.921154],[-3.044804,53.923223],[-3.0346,53.925693],[-3.031891,53.92665],[-3.028565,53.926779],[-3.024884,53.926289],[-3.023046,53.926844],[-3.019381,53.927322],[-3.01409,53.928741],[-3.009306,53.929022],[-3.008089,53.928817],[-3.005899,53.927815],[-3.006504,53.927436]]],[[[-2.906674,53.938827],[-2.906743,53.939619],[-2.906011,53.939723],[-2.906041,53.938934],[-2.906674,53.938827]]],[[[-2.900025,53.939554],[-2.900133,53.939888],[-2.899713,53.939616],[-2.900025,53.939554]]],[[[-2.899678,53.939636],[-2.900238,53.940782],[-2.899072,53.941001],[-2.898715,53.940533],[-2.897745,53.940346],[-2.899678,53.939636]]],[[[-2.906931,53.940916],[-2.907777,53.941429],[-2.90673,53.94117],[-2.906931,53.940916]]],[[[-2.896351,53.941337],[-2.897607,53.941452],[-2.896691,53.942183],[-2.894629,53.942104],[-2.89444,53.941595],[-2.896351,53.941337]]],[[[-2.892556,53.941449],[-2.894038,53.941824],[-2.893888,53.942719],[-2.892424,53.942416],[-2.892924,53.941987],[-2.892556,53.941449]]],[[[-2.907721,53.944165],[-2.908878,53.9442],[-2.908507,53.94515],[-2.906322,53.945491],[-2.906233,53.944402],[-2.907721,53.944165]]],[[[-2.885225,53.944137],[-2.8862,53.943325],[-2.887314,53.943468],[-2.88869,53.944135],[-2.890537,53.943789],[-2.891964,53.944008],[-2.887564,53.945144],[-2.885052,53.946179],[-2.883542,53.946238],[-2.88319,53.945795],[-2.883445,53.944654],[-2.885225,53.944137]]],[[[-2.880678,53.945248],[-2.879643,53.945482],[-2.878749,53.944301],[-2.879968,53.944156],[-2.880215,53.943583],[-2.88102,53.943365],[-2.880903,53.94378],[-2.880067,53.944015],[-2.881039,53.944314],[-2.880719,53.94501],[-2.882323,53.945638],[-2.882473,53.946281],[-2.880678,53.945248]]],[[[-2.888029,53.945601],[-2.888816,53.946331],[-2.889413,53.947816],[-2.887303,53.946176],[-2.888029,53.945601]]],[[[-2.889484,53.947993],[-2.889533,53.948115],[-2.889485,53.948147],[-2.889484,53.947993]]],[[[-2.712503,53.976142],[-2.711039,53.973212],[-2.710403,53.969709],[-2.711828,53.965759],[-2.710513,53.963631],[-2.709333,53.960432],[-2.706374,53.958329],[-2.7065,53.955898],[-2.703373,53.95352],[-2.700551,53.949173],[-2.701587,53.946354],[-2.702642,53.944881],[-2.702049,53.943556],[-2.700329,53.946047],[-2.699003,53.94709],[-2.688854,53.949178],[-2.687917,53.949702],[-2.684579,53.949397],[-2.679875,53.95026],[-2.673648,53.950221],[-2.664154,53.947267],[-2.662671,53.947394],[-2.655267,53.949315],[-2.648217,53.948922],[-2.641143,53.945053],[-2.633957,53.942552],[-2.631189,53.940621],[-2.626437,53.938564],[-2.627244,53.934755],[-2.629648,53.930735],[-2.622575,53.929715],[-2.619375,53.927214],[-2.616539,53.923577],[-2.614397,53.919501],[-2.618569,53.916909],[-2.618714,53.916432],[-2.615,53.912357],[-2.613464,53.908271],[-2.616644,53.899797],[-2.622454,53.896018],[-2.623456,53.895791],[-2.625183,53.894626],[-2.628736,53.893887],[-2.629917,53.893262],[-2.633321,53.893082],[-2.635946,53.893638],[-2.637953,53.894634],[-2.640964,53.894734],[-2.642311,53.89507],[-2.64391,53.894621],[-2.645212,53.893764],[-2.645607,53.894576],[-2.646796,53.894296],[-2.646986,53.894774],[-2.651575,53.895531],[-2.652095,53.89609],[-2.653377,53.895869],[-2.657218,53.896152],[-2.65801,53.894596],[-2.662457,53.895099],[-2.664141,53.894104],[-2.665657,53.894255],[-2.668039,53.892489],[-2.670008,53.891749],[-2.670736,53.891651],[-2.672188,53.89209],[-2.678594,53.89182],[-2.680927,53.892521],[-2.682993,53.891266],[-2.685842,53.890891],[-2.687184,53.889832],[-2.687394,53.88869],[-2.689433,53.887854],[-2.689309,53.885502],[-2.687667,53.884414],[-2.689202,53.883185],[-2.687248,53.882265],[-2.687171,53.881785],[-2.688406,53.879799],[-2.690664,53.878936],[-2.690526,53.878086],[-2.689905,53.877815],[-2.690583,53.877407],[-2.690628,53.874374],[-2.693181,53.873928],[-2.694341,53.872956],[-2.697238,53.872506],[-2.699801,53.871544],[-2.704385,53.870451],[-2.705179,53.869209],[-2.70608,53.869021],[-2.70393,53.866415],[-2.703261,53.864959],[-2.704475,53.863193],[-2.705813,53.862427],[-2.705724,53.861421],[-2.707298,53.86118],[-2.707775,53.859773],[-2.710939,53.857617],[-2.711923,53.856392],[-2.709817,53.853642],[-2.713986,53.853433],[-2.715053,53.853099],[-2.716747,53.851537],[-2.717778,53.851397],[-2.720024,53.850112],[-2.725986,53.849429],[-2.726078,53.849759],[-2.729046,53.851269],[-2.731423,53.851546],[-2.734036,53.850764],[-2.737907,53.850938],[-2.738269,53.850591],[-2.740328,53.850197],[-2.742363,53.850631],[-2.74344,53.850471],[-2.743756,53.850791],[-2.745841,53.851116],[-2.746663,53.850825],[-2.746716,53.849588],[-2.743534,53.84651],[-2.742602,53.844646],[-2.742051,53.844619],[-2.741805,53.84253],[-2.74121,53.841789],[-2.740366,53.841533],[-2.738069,53.830512],[-2.736104,53.825311],[-2.736521,53.824962],[-2.736169,53.823434],[-2.743026,53.822931],[-2.749401,53.823172],[-2.749973,53.823468],[-2.750975,53.823421],[-2.751728,53.823896],[-2.753633,53.823706],[-2.754214,53.824263],[-2.754883,53.824343],[-2.756425,53.825841],[-2.758452,53.825972],[-2.761475,53.827526],[-2.766501,53.833764],[-2.77079,53.840372],[-2.774304,53.839857],[-2.773712,53.839096],[-2.78043,53.836784],[-2.782261,53.835468],[-2.780993,53.834168],[-2.781824,53.833351],[-2.783968,53.833472],[-2.78718,53.832118],[-2.791218,53.83388],[-2.793344,53.836563],[-2.794203,53.834457],[-2.797674,53.833348],[-2.8002,53.833089],[-2.800257,53.831931],[-2.800987,53.831694],[-2.799669,53.829094],[-2.797091,53.828586],[-2.79644,53.827919],[-2.798547,53.826199],[-2.798709,53.825448],[-2.797785,53.825077],[-2.797636,53.824679],[-2.798568,53.824364],[-2.799956,53.824856],[-2.801995,53.824885],[-2.801937,53.825848],[-2.802937,53.825916],[-2.805076,53.825048],[-2.808885,53.82419],[-2.810274,53.824288],[-2.825994,53.819987],[-2.836103,53.825261],[-2.838674,53.829365],[-2.84087,53.831278],[-2.849397,53.831596],[-2.854454,53.83123],[-2.857492,53.83083],[-2.862226,53.829389],[-2.864926,53.829631],[-2.868689,53.830638],[-2.870124,53.831371],[-2.8703,53.832407],[-2.868623,53.833777],[-2.861091,53.836599],[-2.858514,53.83861],[-2.857587,53.842607],[-2.861106,53.843761],[-2.864094,53.844214],[-2.866536,53.845189],[-2.866998,53.845702],[-2.867776,53.845549],[-2.871616,53.843152],[-2.878837,53.843332],[-2.883745,53.84391],[-2.890146,53.846039],[-2.890693,53.847668],[-2.888092,53.849161],[-2.8874,53.850813],[-2.890122,53.852187],[-2.888017,53.854245],[-2.88427,53.855693],[-2.875827,53.85705],[-2.875561,53.857933],[-2.877015,53.859001],[-2.877204,53.859887],[-2.878253,53.860696],[-2.87715,53.861876],[-2.874936,53.863191],[-2.873308,53.865344],[-2.868962,53.865853],[-2.867564,53.865534],[-2.867021,53.865096],[-2.866776,53.861618],[-2.865992,53.859955],[-2.865071,53.859195],[-2.862061,53.858788],[-2.855021,53.858995],[-2.848027,53.857022],[-2.84922,53.85743],[-2.846895,53.857535],[-2.845839,53.858091],[-2.845415,53.85879],[-2.846273,53.860146],[-2.847992,53.861613],[-2.847014,53.863175],[-2.846205,53.863089],[-2.843971,53.861727],[-2.838581,53.863662],[-2.836621,53.86503],[-2.835418,53.864811],[-2.832613,53.862779],[-2.83074,53.863395],[-2.828215,53.86341],[-2.825857,53.864085],[-2.825253,53.863932],[-2.824962,53.863262],[-2.82494,53.863887],[-2.825592,53.864252],[-2.828097,53.863598],[-2.830985,53.863487],[-2.832447,53.86299],[-2.835214,53.864893],[-2.836645,53.865175],[-2.838842,53.863733],[-2.843859,53.861894],[-2.846152,53.863278],[-2.847479,53.863244],[-2.848284,53.861606],[-2.846446,53.85997],[-2.845734,53.858753],[-2.846613,53.857803],[-2.847946,53.857513],[-2.850123,53.857696],[-2.854872,53.859184],[-2.862072,53.858998],[-2.865011,53.859481],[-2.866406,53.861611],[-2.86657,53.865088],[-2.86716,53.865649],[-2.868494,53.866105],[-2.870108,53.86616],[-2.873294,53.865634],[-2.875231,53.863159],[-2.876555,53.862673],[-2.879185,53.860594],[-2.883904,53.863004],[-2.886564,53.863495],[-2.889225,53.862991],[-2.89224,53.863203],[-2.896183,53.860744],[-2.897541,53.861422],[-2.898565,53.862885],[-2.901218,53.864593],[-2.904104,53.86509],[-2.909599,53.864905],[-2.912281,53.863701],[-2.913746,53.86029],[-2.914847,53.859708],[-2.924932,53.856601],[-2.927998,53.857196],[-2.928066,53.858223],[-2.928247,53.857304],[-2.929366,53.857635],[-2.929332,53.858016],[-2.929584,53.857627],[-2.930381,53.85768],[-2.930557,53.858032],[-2.930546,53.857674],[-2.934224,53.857653],[-2.934465,53.858143],[-2.934514,53.857665],[-2.936632,53.857705],[-2.936305,53.858066],[-2.937216,53.857218],[-2.937774,53.855114],[-2.941268,53.854559],[-2.944928,53.852307],[-2.949173,53.853894],[-2.946189,53.854384],[-2.949225,53.854178],[-2.950337,53.85464],[-2.950863,53.855233],[-2.950647,53.855611],[-2.950925,53.855343],[-2.951166,53.855507],[-2.952604,53.857768],[-2.952299,53.858221],[-2.952746,53.857831],[-2.954154,53.859997],[-2.95367,53.860049],[-2.953709,53.86031],[-2.951909,53.859976],[-2.950718,53.85867],[-2.950045,53.858882],[-2.949227,53.858203],[-2.950033,53.858931],[-2.950735,53.858735],[-2.951837,53.859993],[-2.952646,53.860282],[-2.954457,53.86034],[-2.955693,53.861244],[-2.958845,53.862666],[-2.964585,53.863635],[-2.969885,53.863658],[-2.972335,53.864617],[-2.972361,53.865308],[-2.970555,53.867423],[-2.964428,53.872059],[-2.964494,53.873169],[-2.962419,53.872439],[-2.963406,53.873198],[-2.964534,53.873517],[-2.964842,53.875344],[-2.966427,53.877398],[-2.96413,53.877828],[-2.963311,53.877554],[-2.964094,53.877935],[-2.965652,53.877774],[-2.965843,53.878071],[-2.966579,53.877699],[-2.971579,53.881958],[-2.981066,53.887065],[-2.985217,53.889802],[-2.985614,53.890218],[-2.984194,53.890957],[-2.983956,53.891724],[-2.984307,53.890958],[-2.985681,53.890385],[-2.986621,53.891388],[-2.984868,53.89201],[-2.986743,53.891419],[-2.986851,53.892168],[-2.985939,53.892364],[-2.985638,53.893044],[-2.985045,53.892768],[-2.985009,53.893154],[-2.984265,53.892885],[-2.98539,53.893588],[-2.984683,53.893718],[-2.985247,53.893758],[-2.985049,53.894153],[-2.983983,53.89419],[-2.984585,53.894796],[-2.983831,53.895131],[-2.983599,53.895845],[-2.982224,53.896113],[-2.982304,53.896537],[-2.983665,53.897586],[-2.98241,53.896205],[-2.98361,53.895945],[-2.984337,53.896139],[-2.983703,53.895895],[-2.984826,53.8947],[-2.984279,53.894181],[-2.984992,53.894332],[-2.985505,53.893974],[-2.986088,53.894547],[-2.985529,53.893824],[-2.986306,53.893068],[-2.986172,53.892558],[-2.98803,53.892728],[-2.988045,53.893176],[-2.987325,53.893465],[-2.988211,53.893201],[-2.988523,53.893713],[-2.987089,53.894088],[-2.988374,53.893854],[-2.98871,53.893628],[-2.989666,53.894532],[-2.988197,53.894465],[-2.98796,53.894861],[-2.987337,53.894649],[-2.987174,53.895336],[-2.986018,53.895286],[-2.986273,53.895401],[-2.985519,53.895814],[-2.985323,53.896385],[-2.986296,53.895463],[-2.986865,53.895721],[-2.986396,53.895871],[-2.986371,53.896086],[-2.986683,53.896613],[-2.983998,53.897461],[-2.985167,53.897286],[-2.985226,53.897724],[-2.985239,53.897234],[-2.986742,53.896634],[-2.986443,53.896076],[-2.986947,53.895795],[-2.986745,53.895482],[-2.987317,53.895384],[-2.987506,53.894958],[-2.98799,53.894983],[-2.988594,53.894709],[-2.990298,53.894934],[-2.989041,53.895602],[-2.98864,53.895425],[-2.98901,53.895639],[-2.990315,53.895144],[-2.991435,53.895933],[-2.990627,53.89643],[-2.988819,53.895691],[-2.9881,53.8961],[-2.989077,53.895839],[-2.990111,53.896765],[-2.990121,53.896531],[-2.990843,53.896632],[-2.990349,53.897002],[-2.990846,53.896683],[-2.992179,53.896601],[-2.992746,53.89729],[-2.991568,53.897146],[-2.990449,53.897542],[-2.990973,53.897399],[-2.990817,53.897692],[-2.991642,53.897175],[-2.992747,53.897392],[-2.991504,53.897528],[-2.990995,53.897811],[-2.990817,53.898605],[-2.991557,53.897633],[-2.992798,53.897654],[-2.993034,53.898064],[-2.992602,53.89822],[-2.993418,53.899566],[-2.992208,53.89969],[-2.99131,53.899294],[-2.992191,53.899719],[-2.99246,53.899715],[-2.990828,53.899809],[-2.992128,53.900341],[-2.991606,53.899902],[-2.99347,53.899827],[-2.994106,53.9009],[-2.9922,53.900844],[-2.994091,53.900927],[-2.994821,53.902131],[-2.992342,53.901868],[-2.992141,53.901182],[-2.9922,53.901854],[-2.991637,53.901716],[-2.991165,53.900763],[-2.99147,53.900507],[-2.991187,53.900668],[-2.990985,53.900336],[-2.990687,53.900614],[-2.991048,53.900557],[-2.991496,53.901699],[-2.993226,53.902098],[-2.991903,53.901922],[-2.991574,53.90201],[-2.991112,53.902899],[-2.991874,53.901959],[-2.994147,53.902399],[-2.99198,53.902314],[-2.991451,53.903191],[-2.990836,53.903273],[-2.991292,53.903356],[-2.991823,53.903039],[-2.992054,53.902361],[-2.994384,53.902475],[-2.994048,53.902761],[-2.993197,53.902488],[-2.992446,53.902556],[-2.992155,53.902986],[-2.992459,53.902591],[-2.994003,53.902796],[-2.994674,53.902577],[-2.994993,53.90392],[-2.993196,53.90343],[-2.991675,53.903538],[-2.993162,53.903467],[-2.992592,53.903859],[-2.993378,53.903518],[-2.994905,53.903983],[-2.994929,53.905057],[-2.995372,53.904939],[-2.995638,53.905317],[-2.995357,53.905337],[-2.994829,53.906394],[-2.993938,53.905326],[-2.992815,53.905745],[-2.991609,53.903811],[-2.992453,53.905348],[-2.991667,53.905491],[-2.99153,53.90516],[-2.991361,53.905444],[-2.991808,53.905539],[-2.992354,53.905468],[-2.992521,53.906006],[-2.991286,53.906063],[-2.991652,53.907228],[-2.990115,53.906901],[-2.989123,53.907095],[-2.988416,53.906555],[-2.988759,53.905674],[-2.988445,53.905379],[-2.989286,53.905114],[-2.989527,53.904943],[-2.98813,53.9052],[-2.987617,53.904298],[-2.985453,53.90411],[-2.987007,53.901633],[-2.984855,53.904265],[-2.986826,53.904317],[-2.987558,53.904661],[-2.987828,53.905303],[-2.987599,53.9055],[-2.988433,53.905707],[-2.987917,53.906227],[-2.987901,53.906724],[-2.989578,53.907545],[-2.988179,53.907872],[-2.989503,53.907793],[-2.989259,53.908296],[-2.989701,53.907413],[-2.991748,53.907513],[-2.990578,53.908129],[-2.99073,53.908838],[-2.990738,53.908422],[-2.992396,53.90896],[-2.993547,53.908916],[-2.994254,53.909628],[-2.993817,53.910147],[-2.992668,53.910373],[-2.993887,53.910739],[-2.993031,53.910797],[-2.99275,53.911235],[-2.991643,53.911044],[-2.990246,53.911515],[-2.99216,53.91117],[-2.992784,53.911375],[-2.993145,53.910908],[-2.993912,53.911009],[-2.99404,53.910716],[-2.992925,53.910323],[-2.993929,53.910236],[-2.994519,53.909718],[-2.993743,53.908778],[-2.991056,53.908372],[-2.991159,53.907885],[-2.994207,53.907493],[-2.995548,53.907872],[-2.996665,53.90874],[-2.996638,53.914657],[-2.99474,53.910847],[-2.994366,53.910893],[-2.994155,53.913198],[-2.997319,53.916714],[-2.997131,53.922527],[-2.997479,53.922724],[-2.997348,53.925088],[-2.997856,53.92751],[-2.997406,53.928438],[-2.999539,53.928682],[-2.996939,53.928782],[-2.996157,53.929398],[-2.996095,53.931107],[-2.994734,53.931711],[-2.984922,53.934209],[-2.98089,53.935876],[-2.968172,53.939604],[-2.937061,53.94658],[-2.927628,53.949397],[-2.923984,53.950074],[-2.920169,53.949906],[-2.91835,53.949281],[-2.91749,53.947891],[-2.916689,53.947397],[-2.912142,53.947011],[-2.910575,53.946404],[-2.911614,53.945801],[-2.914028,53.945494],[-2.917263,53.945754],[-2.920626,53.946634],[-2.922859,53.946638],[-2.923548,53.946556],[-2.923718,53.94638],[-2.922761,53.94585],[-2.923016,53.94551],[-2.927129,53.945517],[-2.930095,53.944726],[-2.928268,53.944935],[-2.927476,53.945381],[-2.922834,53.945465],[-2.922551,53.945825],[-2.92333,53.946499],[-2.919535,53.946038],[-2.916185,53.944546],[-2.918939,53.944544],[-2.91977,53.944117],[-2.920698,53.944225],[-2.920413,53.944054],[-2.919607,53.944097],[-2.918782,53.944494],[-2.915305,53.944352],[-2.915174,53.944097],[-2.917149,53.94221],[-2.918213,53.942915],[-2.91907,53.94272],[-2.921308,53.943497],[-2.921746,53.943378],[-2.916096,53.941638],[-2.91574,53.941821],[-2.916715,53.94231],[-2.916172,53.942488],[-2.91648,53.942701],[-2.915232,53.943885],[-2.913759,53.944239],[-2.912091,53.943997],[-2.910964,53.942614],[-2.911405,53.942284],[-2.910847,53.942505],[-2.909523,53.941767],[-2.910719,53.941557],[-2.910164,53.940489],[-2.911252,53.940716],[-2.912029,53.94046],[-2.912597,53.940847],[-2.913068,53.940654],[-2.915521,53.941347],[-2.9128,53.940215],[-2.912752,53.940756],[-2.912107,53.940393],[-2.91168,53.940432],[-2.911679,53.940078],[-2.912413,53.940181],[-2.91165,53.939836],[-2.91131,53.940618],[-2.910425,53.940314],[-2.909935,53.940511],[-2.910483,53.94156],[-2.909632,53.941305],[-2.908812,53.941622],[-2.908157,53.941302],[-2.909068,53.941062],[-2.908625,53.940839],[-2.909216,53.940576],[-2.909445,53.939936],[-2.910268,53.939605],[-2.911286,53.939738],[-2.909842,53.939345],[-2.910087,53.939605],[-2.909349,53.939877],[-2.909075,53.940604],[-2.907789,53.940786],[-2.908286,53.940527],[-2.90846,53.940303],[-2.908259,53.940041],[-2.909196,53.93924],[-2.908782,53.939092],[-2.908162,53.940069],[-2.908372,53.940333],[-2.90767,53.940777],[-2.908948,53.941005],[-2.907945,53.941226],[-2.906957,53.940749],[-2.906114,53.940883],[-2.906406,53.940374],[-2.905719,53.940628],[-2.906255,53.94027],[-2.905894,53.940252],[-2.906059,53.939892],[-2.906821,53.939677],[-2.907088,53.938999],[-2.907987,53.939013],[-2.906721,53.938575],[-2.906095,53.938771],[-2.905913,53.938462],[-2.905554,53.939003],[-2.905006,53.938522],[-2.90426,53.938509],[-2.904077,53.93879],[-2.905323,53.939048],[-2.90535,53.939748],[-2.904253,53.940153],[-2.904851,53.94014],[-2.9052,53.940587],[-2.903106,53.940222],[-2.901,53.94031],[-2.900499,53.939402],[-2.900699,53.939035],[-2.901415,53.938934],[-2.900571,53.938933],[-2.900192,53.938434],[-2.900447,53.939178],[-2.899191,53.939737],[-2.899708,53.938961],[-2.899079,53.93849],[-2.899592,53.938978],[-2.899186,53.939184],[-2.898136,53.938832],[-2.897668,53.939494],[-2.897807,53.939575],[-2.898302,53.938914],[-2.89871,53.939274],[-2.897773,53.940166],[-2.896722,53.940495],[-2.89681,53.941154],[-2.893946,53.941485],[-2.892875,53.940673],[-2.89292,53.939415],[-2.89274,53.940582],[-2.892062,53.94023],[-2.891439,53.940272],[-2.891269,53.939475],[-2.891112,53.939913],[-2.890537,53.939586],[-2.891433,53.940371],[-2.892185,53.940342],[-2.892896,53.940826],[-2.892135,53.942161],[-2.891601,53.942235],[-2.891307,53.941503],[-2.89117,53.941834],[-2.890802,53.941422],[-2.890609,53.941759],[-2.889702,53.941614],[-2.889453,53.941138],[-2.889416,53.941544],[-2.887149,53.942007],[-2.886689,53.941654],[-2.886036,53.942189],[-2.886153,53.943132],[-2.885336,53.943886],[-2.88411,53.944249],[-2.883969,53.943563],[-2.883635,53.943767],[-2.883979,53.943752],[-2.883955,53.944213],[-2.88224,53.945411],[-2.880874,53.944969],[-2.88132,53.944415],[-2.881094,53.944243],[-2.880172,53.944013],[-2.881043,53.943777],[-2.881128,53.943298],[-2.880105,53.94356],[-2.879823,53.943503],[-2.879866,53.943077],[-2.879644,53.943466],[-2.879343,53.943405],[-2.879043,53.941913],[-2.880016,53.941474],[-2.878862,53.941559],[-2.878552,53.941866],[-2.878399,53.941431],[-2.877244,53.941694],[-2.87606,53.940761],[-2.876741,53.939654],[-2.878107,53.939707],[-2.877896,53.938931],[-2.879284,53.938931],[-2.880274,53.937448],[-2.881408,53.937473],[-2.88194,53.937074],[-2.883021,53.937569],[-2.882785,53.938025],[-2.883347,53.938075],[-2.885208,53.936808],[-2.883966,53.935881],[-2.883984,53.93533],[-2.881973,53.934864],[-2.877887,53.932466],[-2.873272,53.931182],[-2.873712,53.928462],[-2.864367,53.91808],[-2.825919,53.933367],[-2.818711,53.934929],[-2.809664,53.933553],[-2.803688,53.935754],[-2.804744,53.937125],[-2.805372,53.939285],[-2.804705,53.940322],[-2.802321,53.942073],[-2.803951,53.943426],[-2.80705,53.94409],[-2.808446,53.943857],[-2.810824,53.944344],[-2.81258,53.944918],[-2.813664,53.945807],[-2.813271,53.946252],[-2.811316,53.946684],[-2.810788,53.947103],[-2.806501,53.948017],[-2.805679,53.949788],[-2.803347,53.950956],[-2.802824,53.95158],[-2.803132,53.952182],[-2.803613,53.952134],[-2.803949,53.952562],[-2.805314,53.952943],[-2.805574,53.953925],[-2.804352,53.956737],[-2.803139,53.957608],[-2.804382,53.958089],[-2.805802,53.959312],[-2.806526,53.959399],[-2.806361,53.959855],[-2.807439,53.96199],[-2.806238,53.963174],[-2.804781,53.962823],[-2.804178,53.963565],[-2.803482,53.963683],[-2.803158,53.964924],[-2.803533,53.965507],[-2.80436,53.96579],[-2.803824,53.966579],[-2.803932,53.967617],[-2.80371,53.967951],[-2.802983,53.968052],[-2.801868,53.969278],[-2.799833,53.969891],[-2.799757,53.971547],[-2.798948,53.972457],[-2.799951,53.974016],[-2.798506,53.974483],[-2.798619,53.975117],[-2.796383,53.975472],[-2.795847,53.975195],[-2.795953,53.974915],[-2.794893,53.974208],[-2.794286,53.971929],[-2.792918,53.97094],[-2.789771,53.969863],[-2.787933,53.967824],[-2.786845,53.967655],[-2.786721,53.967375],[-2.782109,53.967997],[-2.780535,53.966646],[-2.777945,53.965656],[-2.777827,53.965205],[-2.776195,53.964757],[-2.774987,53.96481],[-2.774484,53.963881],[-2.771007,53.963543],[-2.770091,53.964637],[-2.768863,53.965065],[-2.766037,53.965213],[-2.760698,53.964498],[-2.759775,53.963871],[-2.759856,53.963523],[-2.757868,53.963109],[-2.75754,53.961333],[-2.756452,53.960432],[-2.757381,53.959219],[-2.756019,53.958292],[-2.753542,53.957846],[-2.752581,53.957184],[-2.750778,53.956617],[-2.752304,53.955446],[-2.752417,53.954965],[-2.753457,53.954883],[-2.753176,53.954808],[-2.755697,53.952699],[-2.755375,53.952331],[-2.753066,53.953401],[-2.742435,53.95618],[-2.741476,53.956857],[-2.741828,53.957014],[-2.741603,53.958615],[-2.740519,53.959023],[-2.739437,53.960116],[-2.739985,53.962433],[-2.736209,53.963742],[-2.736018,53.964454],[-2.734404,53.965494],[-2.733103,53.967148],[-2.733904,53.967563],[-2.73577,53.967411],[-2.736443,53.968037],[-2.735131,53.970581],[-2.735361,53.971502],[-2.734504,53.971844],[-2.733955,53.973118],[-2.73514,53.974015],[-2.735237,53.974526],[-2.730851,53.975653],[-2.728987,53.977819],[-2.728271,53.977902],[-2.72745,53.978513],[-2.725162,53.978788],[-2.72418,53.978605],[-2.722546,53.977251],[-2.720206,53.978488],[-2.719799,53.979443],[-2.715656,53.980244],[-2.714859,53.978565],[-2.712503,53.976142]],[[-2.990586,53.898952],[-2.991024,53.898917],[-2.990926,53.899165],[-2.991654,53.898591],[-2.991297,53.899065],[-2.992602,53.89822],[-2.990586,53.898952]],[[-2.897212,53.939128],[-2.895625,53.939127],[-2.895845,53.938715],[-2.895565,53.939203],[-2.897196,53.939222],[-2.897668,53.939494],[-2.897212,53.939128]]]]}}]}