{"type":"FeatureCollection","features":[{"type":"Feature","properties":{"slug":"wyre-forest","gss_code":"E07000239","name":"Wyre Forest"},"geometry":{"type":"Polygon","coordinates":[[[-2.268532,52.438559],[-2.266677,52.439218],[-2.264762,52.440381],[-2.262731,52.440705],[-2.262397,52.439453],[-2.261927,52.439337],[-2.261503,52.436941],[-2.260224,52.437212],[-2.256092,52.43715],[-2.254277,52.437637],[-2.248638,52.437769],[-2.244,52.437378],[-2.240551,52.436386],[-2.226747,52.435126],[-2.219209,52.435111],[-2.217877,52.435368],[-2.217787,52.434985],[-2.216635,52.434516],[-2.217348,52.43389],[-2.215995,52.433345],[-2.215639,52.432161],[-2.214677,52.431885],[-2.212101,52.432701],[-2.211322,52.430437],[-2.210434,52.42997],[-2.20863,52.429463],[-2.206315,52.429491],[-2.203823,52.428675],[-2.202558,52.427787],[-2.200808,52.427196],[-2.196995,52.427784],[-2.196327,52.427176],[-2.196882,52.425641],[-2.196305,52.424938],[-2.192822,52.423266],[-2.190569,52.424169],[-2.18911,52.425272],[-2.185816,52.426232],[-2.184476,52.426085],[-2.181692,52.424947],[-2.180355,52.425207],[-2.172028,52.425059],[-2.167707,52.42378],[-2.16467,52.42151],[-2.163887,52.419229],[-2.163922,52.417244],[-2.163171,52.416167],[-2.162575,52.415626],[-2.162016,52.416169],[-2.160322,52.416477],[-2.158264,52.409284],[-2.154465,52.409799],[-2.145735,52.409567],[-2.144255,52.41002],[-2.144505,52.411402],[-2.134036,52.4103],[-2.128496,52.406052],[-2.127517,52.405042],[-2.127733,52.40462],[-2.126248,52.403304],[-2.127233,52.402836],[-2.126023,52.402244],[-2.129236,52.400762],[-2.130974,52.399383],[-2.131352,52.399461],[-2.132034,52.39819],[-2.135182,52.398566],[-2.137856,52.395526],[-2.136192,52.395394],[-2.137701,52.393899],[-2.133395,52.391883],[-2.1334,52.391446],[-2.132068,52.390328],[-2.132251,52.390007],[-2.129896,52.388797],[-2.131461,52.387886],[-2.132521,52.386196],[-2.131119,52.385381],[-2.128447,52.382123],[-2.124352,52.374211],[-2.123135,52.372993],[-2.12209,52.366853],[-2.122496,52.366488],[-2.121867,52.366305],[-2.120096,52.363848],[-2.120186,52.363343],[-2.1209,52.363022],[-2.121212,52.361263],[-2.120967,52.360606],[-2.119566,52.359526],[-2.119213,52.357889],[-2.121424,52.358858],[-2.12241,52.358791],[-2.124314,52.359282],[-2.125801,52.358662],[-2.128545,52.358474],[-2.130759,52.35793],[-2.131245,52.356487],[-2.132427,52.355372],[-2.132466,52.354655],[-2.134115,52.353282],[-2.135342,52.353051],[-2.135526,52.351591],[-2.135856,52.351753],[-2.135967,52.351133],[-2.13886,52.348542],[-2.140414,52.348045],[-2.142044,52.347967],[-2.142695,52.346939],[-2.146258,52.345243],[-2.148504,52.346394],[-2.148859,52.346308],[-2.150962,52.343678],[-2.151956,52.341535],[-2.152589,52.338798],[-2.151925,52.337002],[-2.154381,52.335265],[-2.155033,52.33394],[-2.156233,52.333383],[-2.156506,52.332816],[-2.156068,52.331052],[-2.157606,52.330967],[-2.159908,52.330227],[-2.163284,52.327523],[-2.164475,52.325986],[-2.167641,52.324458],[-2.167516,52.320346],[-2.167901,52.319315],[-2.167455,52.318582],[-2.166777,52.318347],[-2.16901,52.317203],[-2.173149,52.317218],[-2.174565,52.316609],[-2.175274,52.319697],[-2.1749,52.320848],[-2.175139,52.322713],[-2.173729,52.32688],[-2.172999,52.32798],[-2.17217,52.328333],[-2.170927,52.330602],[-2.170978,52.331742],[-2.173698,52.331767],[-2.174701,52.331396],[-2.17779,52.331794],[-2.181287,52.331045],[-2.18287,52.330333],[-2.184933,52.330102],[-2.187296,52.329199],[-2.190473,52.328949],[-2.190445,52.331891],[-2.19245,52.333472],[-2.192607,52.334558],[-2.193487,52.3353],[-2.193177,52.336115],[-2.192817,52.33599],[-2.19251,52.336469],[-2.192809,52.336925],[-2.192155,52.336947],[-2.192026,52.337552],[-2.192812,52.337821],[-2.19395,52.340017],[-2.195579,52.340664],[-2.19558,52.34128],[-2.20213,52.344863],[-2.205098,52.345625],[-2.204741,52.348045],[-2.205335,52.350707],[-2.207675,52.351688],[-2.2079,52.35323],[-2.210638,52.354422],[-2.210219,52.354967],[-2.219097,52.359124],[-2.225413,52.360463],[-2.231373,52.361217],[-2.241563,52.360358],[-2.242962,52.360833],[-2.245684,52.361036],[-2.248261,52.355463],[-2.245703,52.354923],[-2.246762,52.353252],[-2.245822,52.353027],[-2.249444,52.34886],[-2.2498,52.348988],[-2.251682,52.345857],[-2.249514,52.345672],[-2.252014,52.344378],[-2.254002,52.341128],[-2.257015,52.341697],[-2.26196,52.340832],[-2.261223,52.340662],[-2.261721,52.339683],[-2.260844,52.339018],[-2.260733,52.33842],[-2.261794,52.338072],[-2.263096,52.338141],[-2.263304,52.336855],[-2.264075,52.335948],[-2.266329,52.335938],[-2.268061,52.336646],[-2.268475,52.336091],[-2.269212,52.336283],[-2.269715,52.335166],[-2.267971,52.334092],[-2.267302,52.334174],[-2.266834,52.333648],[-2.267829,52.333499],[-2.267964,52.333754],[-2.271776,52.332632],[-2.270856,52.331648],[-2.270342,52.332128],[-2.269375,52.331852],[-2.265549,52.330131],[-2.261947,52.329459],[-2.260368,52.328307],[-2.261152,52.326401],[-2.264398,52.325572],[-2.264642,52.323408],[-2.265079,52.323265],[-2.266415,52.323605],[-2.271938,52.326966],[-2.27389,52.328932],[-2.275624,52.328702],[-2.275283,52.328122],[-2.276915,52.327401],[-2.277911,52.32775],[-2.28029,52.326792],[-2.28756,52.32568],[-2.291361,52.324675],[-2.290275,52.323127],[-2.294579,52.32191],[-2.296576,52.323211],[-2.299164,52.32236],[-2.303292,52.328109],[-2.302708,52.328437],[-2.304525,52.329245],[-2.304671,52.330948],[-2.305252,52.331158],[-2.305287,52.332013],[-2.303877,52.332858],[-2.30615,52.333563],[-2.30533,52.335138],[-2.308642,52.335293],[-2.307081,52.336134],[-2.304833,52.335787],[-2.305264,52.337783],[-2.306412,52.339181],[-2.309086,52.339719],[-2.310122,52.340416],[-2.310932,52.34055],[-2.312707,52.339975],[-2.314398,52.33983],[-2.31655,52.338112],[-2.31825,52.337422],[-2.320878,52.33693],[-2.323829,52.335332],[-2.324452,52.333704],[-2.323405,52.333421],[-2.321957,52.332132],[-2.319681,52.33153],[-2.321962,52.330186],[-2.323329,52.327427],[-2.324475,52.326663],[-2.32466,52.32532],[-2.325689,52.324288],[-2.323889,52.323785],[-2.324171,52.323235],[-2.328944,52.320274],[-2.331258,52.319897],[-2.332041,52.319256],[-2.336466,52.31869],[-2.339691,52.320014],[-2.345486,52.320484],[-2.352126,52.319243],[-2.352822,52.318518],[-2.358194,52.316278],[-2.359455,52.315381],[-2.363283,52.314851],[-2.365897,52.3179],[-2.367331,52.31798],[-2.369621,52.317254],[-2.371238,52.317341],[-2.373198,52.319729],[-2.372237,52.320231],[-2.371971,52.320868],[-2.372341,52.321623],[-2.371357,52.322269],[-2.371324,52.323011],[-2.370347,52.323725],[-2.370204,52.325643],[-2.369123,52.326561],[-2.369816,52.326807],[-2.371747,52.326547],[-2.374797,52.325112],[-2.375841,52.325206],[-2.37944,52.324161],[-2.381062,52.324255],[-2.385239,52.322687],[-2.387574,52.322386],[-2.389537,52.321227],[-2.394677,52.321909],[-2.397788,52.324953],[-2.40301,52.32673],[-2.403412,52.324034],[-2.412235,52.324882],[-2.413363,52.325475],[-2.414156,52.325086],[-2.414222,52.324578],[-2.415087,52.323927],[-2.415661,52.322488],[-2.417481,52.322416],[-2.41815,52.32291],[-2.419612,52.32313],[-2.419942,52.322843],[-2.424074,52.322681],[-2.427165,52.32188],[-2.428474,52.322403],[-2.431466,52.32285],[-2.434084,52.322644],[-2.43651,52.324027],[-2.434904,52.326648],[-2.433395,52.3275],[-2.433654,52.328591],[-2.433068,52.329905],[-2.428563,52.330538],[-2.426097,52.332368],[-2.420992,52.33306],[-2.421188,52.333601],[-2.423295,52.335254],[-2.423669,52.336132],[-2.424949,52.33669],[-2.422724,52.338635],[-2.420693,52.342334],[-2.421526,52.343331],[-2.420407,52.343768],[-2.420961,52.345592],[-2.42208,52.346946],[-2.422069,52.349028],[-2.419525,52.351393],[-2.417581,52.352107],[-2.414019,52.35477],[-2.413995,52.355414],[-2.411753,52.357783],[-2.411682,52.358903],[-2.412074,52.358986],[-2.411789,52.359563],[-2.412251,52.360007],[-2.411968,52.360126],[-2.412585,52.360174],[-2.412695,52.360699],[-2.413314,52.360716],[-2.413353,52.361284],[-2.414996,52.362828],[-2.416155,52.364616],[-2.414987,52.366523],[-2.414919,52.367321],[-2.415633,52.367533],[-2.415469,52.368057],[-2.41331,52.368669],[-2.412053,52.369568],[-2.411343,52.369556],[-2.409884,52.370625],[-2.410459,52.371019],[-2.409608,52.372528],[-2.410661,52.373591],[-2.410309,52.374142],[-2.411648,52.37553],[-2.412964,52.376099],[-2.413076,52.376809],[-2.413406,52.376753],[-2.414753,52.377851],[-2.415068,52.378509],[-2.414767,52.378784],[-2.415145,52.378986],[-2.414707,52.379595],[-2.415157,52.379812],[-2.414708,52.380319],[-2.414832,52.381024],[-2.414151,52.381348],[-2.413908,52.381951],[-2.413265,52.382104],[-2.412299,52.383742],[-2.411462,52.384115],[-2.411734,52.384417],[-2.410775,52.385738],[-2.41097,52.386425],[-2.410474,52.387153],[-2.408378,52.386927],[-2.407223,52.386125],[-2.407425,52.385267],[-2.406839,52.383956],[-2.405579,52.383134],[-2.402875,52.38276],[-2.402344,52.383058],[-2.401295,52.38259],[-2.393594,52.384371],[-2.392462,52.383718],[-2.39204,52.382598],[-2.390673,52.381528],[-2.38918,52.382102],[-2.38885,52.382683],[-2.389297,52.383214],[-2.387442,52.384488],[-2.382643,52.384136],[-2.377911,52.383151],[-2.375639,52.384732],[-2.374962,52.38498],[-2.374485,52.384742],[-2.372834,52.385281],[-2.372477,52.385835],[-2.371668,52.385854],[-2.370846,52.3866],[-2.370047,52.38669],[-2.367352,52.388063],[-2.363052,52.388153],[-2.361263,52.387009],[-2.360033,52.386775],[-2.355823,52.388175],[-2.354533,52.388908],[-2.352633,52.388937],[-2.350637,52.387728],[-2.350146,52.385725],[-2.349229,52.385552],[-2.346576,52.385997],[-2.343524,52.385941],[-2.342455,52.385541],[-2.34207,52.384832],[-2.339545,52.384405],[-2.338593,52.385096],[-2.337236,52.38552],[-2.335554,52.385337],[-2.334208,52.386944],[-2.333756,52.388502],[-2.342158,52.39319],[-2.343365,52.393091],[-2.346064,52.393857],[-2.347482,52.393712],[-2.351284,52.39583],[-2.356567,52.397574],[-2.357376,52.398252],[-2.364141,52.39915],[-2.369936,52.401464],[-2.372957,52.401934],[-2.368822,52.404181],[-2.366036,52.407842],[-2.365947,52.409149],[-2.367291,52.410453],[-2.366715,52.412095],[-2.367556,52.413162],[-2.367736,52.414272],[-2.366561,52.416491],[-2.364673,52.417799],[-2.366012,52.419203],[-2.365272,52.421714],[-2.366352,52.422273],[-2.366581,52.42303],[-2.363932,52.424547],[-2.363852,52.425965],[-2.362733,52.425768],[-2.364156,52.431939],[-2.363297,52.437158],[-2.363528,52.439426],[-2.355352,52.439821],[-2.352776,52.438697],[-2.350781,52.438306],[-2.345109,52.439333],[-2.343938,52.438805],[-2.342742,52.437593],[-2.340617,52.437044],[-2.338776,52.435826],[-2.337068,52.436644],[-2.335369,52.435958],[-2.333821,52.435883],[-2.333119,52.435355],[-2.329115,52.437447],[-2.325925,52.438315],[-2.325186,52.437497],[-2.321551,52.436219],[-2.31175,52.437531],[-2.310143,52.437883],[-2.310169,52.440854],[-2.309597,52.441827],[-2.306813,52.443898],[-2.30697,52.444967],[-2.306185,52.445946],[-2.304111,52.446442],[-2.303328,52.44753],[-2.30097,52.447963],[-2.295936,52.450557],[-2.293777,52.451218],[-2.287382,52.455317],[-2.286095,52.454752],[-2.294964,52.448948],[-2.291087,52.448457],[-2.287199,52.44666],[-2.286645,52.446049],[-2.287246,52.445246],[-2.286076,52.444601],[-2.285983,52.443721],[-2.279431,52.44341],[-2.275231,52.440253],[-2.272042,52.439722],[-2.269505,52.438616],[-2.268532,52.438559]]]}}]}