{"type":"FeatureCollection","features":[{"type":"Feature","properties":{"slug":"york","gss_code":"E06000014","name":"York"},"geometry":{"type":"Polygon","coordinates":[[[-1.014377,54.049322],[-1.012435,54.051308],[-1.008021,54.053274],[-1.007112,54.054184],[-1.006209,54.053853],[-1.00443,54.055567],[-1.002085,54.055263],[-1.001558,54.054756],[-1.002078,54.053757],[-1.00068,54.051976],[-1.000921,54.05151],[-1.000395,54.050917],[-0.999876,54.051017],[-0.998674,54.050378],[-0.998154,54.049326],[-0.996576,54.04905],[-0.996016,54.048146],[-0.99385,54.047253],[-0.994971,54.04617],[-0.99382,54.045536],[-0.99294,54.043745],[-0.993255,54.042228],[-0.992378,54.041711],[-0.990622,54.041912],[-0.989277,54.041708],[-0.988278,54.040639],[-0.985508,54.039593],[-0.984593,54.038828],[-0.98231,54.039482],[-0.981318,54.033826],[-0.982243,54.030904],[-0.975795,54.030103],[-0.973583,54.029369],[-0.971194,54.027641],[-0.970186,54.025896],[-0.970688,54.023084],[-0.966864,54.022967],[-0.971766,54.020391],[-0.979365,54.01742],[-0.976885,54.015762],[-0.982618,54.010078],[-0.979811,54.007482],[-0.97933,54.005357],[-0.98084,54.003949],[-0.984707,54.002547],[-0.984499,54.002231],[-0.979988,54.002845],[-0.980149,54.003244],[-0.975366,54.004732],[-0.973839,54.003686],[-0.972807,54.001875],[-0.971919,53.99671],[-0.979057,53.995971],[-0.978839,53.994525],[-0.983155,53.993307],[-0.98125,53.991154],[-0.988031,53.989012],[-0.990649,53.987602],[-0.992751,53.985845],[-0.994714,53.985326],[-0.994075,53.984443],[-0.995818,53.983981],[-0.994837,53.983064],[-0.991059,53.981924],[-0.984657,53.981548],[-0.980353,53.98233],[-0.979243,53.983041],[-0.97677,53.982],[-0.976242,53.982077],[-0.973411,53.984817],[-0.972208,53.984566],[-0.970081,53.984822],[-0.967045,53.985919],[-0.962242,53.984517],[-0.957686,53.983956],[-0.956577,53.985071],[-0.953453,53.986426],[-0.944362,53.989128],[-0.935747,53.989661],[-0.934076,53.989238],[-0.932572,53.990106],[-0.927778,53.990829],[-0.925295,53.991518],[-0.920314,53.990094],[-0.923638,53.988393],[-0.924977,53.986257],[-0.927826,53.984024],[-0.927046,53.980514],[-0.928224,53.978542],[-0.928777,53.976102],[-0.930749,53.974487],[-0.931296,53.972417],[-0.933788,53.970508],[-0.934111,53.968672],[-0.933421,53.967357],[-0.931322,53.965866],[-0.9283,53.964317],[-0.925154,53.963957],[-0.923866,53.963371],[-0.922283,53.962041],[-0.921212,53.960422],[-0.922157,53.956651],[-0.927657,53.952667],[-0.927609,53.951697],[-0.925707,53.95038],[-0.92496,53.948757],[-0.925502,53.947811],[-0.927097,53.946559],[-0.926529,53.944679],[-0.928459,53.943444],[-0.92786,53.941906],[-0.925075,53.940771],[-0.925838,53.939248],[-0.926184,53.936961],[-0.925579,53.935903],[-0.923733,53.935379],[-0.923351,53.934933],[-0.923752,53.93425],[-0.926311,53.933107],[-0.927679,53.930832],[-0.928717,53.930093],[-0.928702,53.929093],[-0.927722,53.9282],[-0.925267,53.927009],[-0.923042,53.925087],[-0.921619,53.9221],[-0.921634,53.921193],[-0.923346,53.920315],[-0.926454,53.921032],[-0.927435,53.920961],[-0.928364,53.920183],[-0.927665,53.918461],[-0.928661,53.91784],[-0.930733,53.917808],[-0.93158,53.917462],[-0.931903,53.916217],[-0.930709,53.914557],[-0.930801,53.914058],[-0.931511,53.913788],[-0.934291,53.914171],[-0.934824,53.913644],[-0.932212,53.91218],[-0.932054,53.908712],[-0.933481,53.908202],[-0.936986,53.908294],[-0.938281,53.90787],[-0.938799,53.905981],[-0.941044,53.9041],[-0.939943,53.902555],[-0.940631,53.901012],[-0.939986,53.899389],[-0.940291,53.898639],[-0.941342,53.897869],[-0.946028,53.895822],[-0.947207,53.895702],[-0.948721,53.895008],[-0.949515,53.893846],[-0.948275,53.893072],[-0.944694,53.892048],[-0.934134,53.890258],[-0.930284,53.890635],[-0.925834,53.890406],[-0.920842,53.89069],[-0.919581,53.889333],[-0.920332,53.888453],[-0.923596,53.887727],[-0.922934,53.885373],[-0.924403,53.883727],[-0.924659,53.882714],[-0.923403,53.88072],[-0.924742,53.880353],[-0.926774,53.882567],[-0.927738,53.882062],[-0.928123,53.882407],[-0.928472,53.882302],[-0.929727,53.881349],[-0.930544,53.879451],[-0.93263,53.879447],[-0.934939,53.880005],[-0.934421,53.882807],[-0.935488,53.88415],[-0.93787,53.885572],[-0.938449,53.887489],[-0.939396,53.887885],[-0.941401,53.887515],[-0.943981,53.888058],[-0.945302,53.886877],[-0.948284,53.886089],[-0.948025,53.884877],[-0.957494,53.884314],[-0.963553,53.88293],[-0.967673,53.88285],[-0.980928,53.87838],[-0.986421,53.877278],[-0.992803,53.875192],[-0.998904,53.881402],[-1.000156,53.883298],[-1.003036,53.886238],[-1.008186,53.889936],[-1.018208,53.888486],[-1.021543,53.888372],[-1.023748,53.886416],[-1.02708,53.886395],[-1.029401,53.885027],[-1.036065,53.883187],[-1.046903,53.880737],[-1.051437,53.878768],[-1.052779,53.877626],[-1.054703,53.876966],[-1.060998,53.875881],[-1.064987,53.874611],[-1.068551,53.879087],[-1.071261,53.8798],[-1.073247,53.879862],[-1.075101,53.881196],[-1.076181,53.881092],[-1.076306,53.882219],[-1.07744,53.882511],[-1.077552,53.883533],[-1.079224,53.883556],[-1.081048,53.882546],[-1.083722,53.882198],[-1.085817,53.882489],[-1.087453,53.884334],[-1.089994,53.88492],[-1.091169,53.885789],[-1.093634,53.884455],[-1.095326,53.884423],[-1.095578,53.88661],[-1.093396,53.888797],[-1.093011,53.890209],[-1.093471,53.890967],[-1.098603,53.893833],[-1.099007,53.893773],[-1.099048,53.893294],[-1.094538,53.891144],[-1.093608,53.890143],[-1.09362,53.889442],[-1.096346,53.886575],[-1.095826,53.884196],[-1.096332,53.882895],[-1.097229,53.88209],[-1.099581,53.881071],[-1.100234,53.880358],[-1.100633,53.876768],[-1.101928,53.876172],[-1.10547,53.875773],[-1.111966,53.879062],[-1.115605,53.879684],[-1.117437,53.880361],[-1.118652,53.881416],[-1.121052,53.882649],[-1.124984,53.882676],[-1.125241,53.885608],[-1.129114,53.888983],[-1.133356,53.891056],[-1.134317,53.892564],[-1.134815,53.894744],[-1.136776,53.895926],[-1.138817,53.894178],[-1.141569,53.892644],[-1.141992,53.892934],[-1.143561,53.89249],[-1.146766,53.894611],[-1.150006,53.89364],[-1.149897,53.894668],[-1.150629,53.895245],[-1.154396,53.895929],[-1.154323,53.896676],[-1.159119,53.899516],[-1.160269,53.900606],[-1.161549,53.90265],[-1.162202,53.905555],[-1.164893,53.910591],[-1.170629,53.908813],[-1.176471,53.914018],[-1.177351,53.914298],[-1.179322,53.916883],[-1.185915,53.916011],[-1.186702,53.918367],[-1.191178,53.922635],[-1.195569,53.922414],[-1.196055,53.923505],[-1.19761,53.923887],[-1.199495,53.925351],[-1.200114,53.926473],[-1.200073,53.928466],[-1.197992,53.928659],[-1.197734,53.929327],[-1.200151,53.932387],[-1.19976,53.932928],[-1.199896,53.934547],[-1.201799,53.93829],[-1.20269,53.938921],[-1.203155,53.940564],[-1.203976,53.941272],[-1.203451,53.942107],[-1.204124,53.943408],[-1.205385,53.944086],[-1.206853,53.945524],[-1.207403,53.945488],[-1.209135,53.951684],[-1.211738,53.954195],[-1.212776,53.956461],[-1.21637,53.96006],[-1.21843,53.961206],[-1.219934,53.962675],[-1.219622,53.964001],[-1.217495,53.966016],[-1.219187,53.96722],[-1.220893,53.969167],[-1.221477,53.970475],[-1.221608,53.972668],[-1.223706,53.974829],[-1.223515,53.975505],[-1.222387,53.976515],[-1.222345,53.978887],[-1.221661,53.980397],[-1.219109,53.982791],[-1.217382,53.983266],[-1.21752,53.984345],[-1.216597,53.985613],[-1.213362,53.985247],[-1.211019,53.985464],[-1.207479,53.986583],[-1.205044,53.986891],[-1.203603,53.986666],[-1.202441,53.987055],[-1.202018,53.988275],[-1.200163,53.989009],[-1.197441,53.98832],[-1.197286,53.986795],[-1.195054,53.985302],[-1.192089,53.984202],[-1.187417,53.983986],[-1.18645,53.9844],[-1.185751,53.983789],[-1.182103,53.985345],[-1.180622,53.989817],[-1.181631,53.992684],[-1.183161,53.994856],[-1.183283,53.996216],[-1.183962,53.996506],[-1.184164,53.997027],[-1.185607,53.997244],[-1.185912,53.997877],[-1.186633,53.998162],[-1.189404,53.99802],[-1.189523,53.99844],[-1.190364,53.998636],[-1.190468,53.999077],[-1.191929,53.999924],[-1.191935,54.000519],[-1.191368,54.000572],[-1.190993,54.001275],[-1.189293,54.001647],[-1.188855,54.001923],[-1.189007,54.00238],[-1.18857,54.002483],[-1.184542,54.000957],[-1.183403,54.001028],[-1.182255,54.000527],[-1.180766,53.998991],[-1.179515,53.998861],[-1.178822,53.999165],[-1.178626,54.000057],[-1.177963,54.000265],[-1.178205,54.000509],[-1.177605,54.00063],[-1.177422,54.000386],[-1.175933,54.000814],[-1.17633,54.001489],[-1.175077,54.001388],[-1.17514,54.001639],[-1.176101,54.001767],[-1.17551,54.002197],[-1.172967,54.00151],[-1.171368,54.000567],[-1.167192,53.996313],[-1.161345,53.994644],[-1.158935,53.992858],[-1.151912,53.989178],[-1.150019,53.988896],[-1.147217,53.989015],[-1.14357,53.989545],[-1.139382,53.990786],[-1.136998,53.991083],[-1.138916,53.992623],[-1.139586,53.994057],[-1.1394,53.995226],[-1.140995,53.996019],[-1.14057,53.997361],[-1.141884,53.997974],[-1.142264,53.998535],[-1.143787,53.998792],[-1.145093,53.999926],[-1.146864,54.000582],[-1.147371,54.00162],[-1.148394,54.001665],[-1.149091,54.002947],[-1.148559,54.004846],[-1.147183,54.006634],[-1.1441,54.008222],[-1.142876,54.010788],[-1.143748,54.012655],[-1.145923,54.013311],[-1.148038,54.015624],[-1.147953,54.016101],[-1.142325,54.018967],[-1.145098,54.022898],[-1.144814,54.02551],[-1.143889,54.025665],[-1.14205,54.027207],[-1.140636,54.02779],[-1.140797,54.029859],[-1.127585,54.031031],[-1.120176,54.029026],[-1.11697,54.033519],[-1.115404,54.034559],[-1.115472,54.035233],[-1.114868,54.03581],[-1.11158,54.036006],[-1.106813,54.037408],[-1.099781,54.037689],[-1.099777,54.039414],[-1.101077,54.040964],[-1.099456,54.041549],[-1.098439,54.04094],[-1.097488,54.04112],[-1.096107,54.040455],[-1.094278,54.046626],[-1.09308,54.046176],[-1.091758,54.047322],[-1.089007,54.048099],[-1.08379,54.047605],[-1.071141,54.048821],[-1.062171,54.050138],[-1.058734,54.047845],[-1.058929,54.049684],[-1.058334,54.05245],[-1.059712,54.056883],[-1.047458,54.054442],[-1.03586,54.053615],[-1.024462,54.052036],[-1.014377,54.049322]]]}}]}